{"type":"Feature","properties":{"GID_2":"NOR.9.10_1","GID_0":"NOR","country":"Norway","GID_1":"NOR.9_1","province":"Nord-Trøndelag","NL_NAME_1":"NA","county":"Lierne","VARNAME_2":"NA","NL_NAME_2":"NA","TYPE_2":"Kommuner","ENGTYPE_2":"Municipality","CC_2":"NA","HASC_2":"NO.NT.LI","name":"Lierne.county"},
"geometry":{"type": "MultiPolygon","coordinates": [[[[13.0702,64.433,1059.0554],[13.0747,64.4151,438.8269],[13.0851,64.4156,501.1205],[13.0907,64.3932,654.2687],[13.101,64.3937,584.8599],[13.1055,64.3758,678.0859],[13.1158,64.3763,624.7947],[13.1214,64.354,973.4103],[13.1317,64.3544,953.5333],[13.135,64.341,718.9693],[13.1453,64.3415,696.5762],[13.1486,64.3281,606.8604],[13.1589,64.3286,640.4907],[13.1611,64.3196,694.787],[13.1714,64.3201,754.5919],[13.1748,64.3067,623.3108],[13.1851,64.3072,661.6653],[13.1873,64.2982,685.1184],[13.1975,64.2987,692.5884],[13.2008,64.2853,554.2468],[13.2111,64.2858,590.7332],[13.2144,64.2723,600.1492],[13.2247,64.2728,637.0679],[13.2269,64.2639,676.8409],[13.2372,64.2643,669.0378],[13.2448,64.2331,893.3161],[13.2345,64.2326,852.3075],[13.2388,64.2147,654.8397],[13.2286,64.2143,656.0815],[13.2329,64.1964,600.4081],[13.2227,64.1959,599.2615],[13.2281,64.1736,699.0451],[13.2179,64.1731,723.8487],[13.2222,64.1553,622.0247],[13.212,64.1548,636.5296],[13.2174,64.1324,752.3159],[13.2072,64.132,739.7163],[13.2115,64.1141,764.6498],[13.2013,64.1136,769.8105],[13.2056,64.0958,920.5087],[13.2261,64.0967,898.635],[13.2272,64.0922,780.5552],[13.2578,64.0936,647.3839],[13.2589,64.0892,634.6721],[13.2896,64.0905,642.3326],[13.2906,64.0861,631.9288],[13.3213,64.0874,801.3547],[13.3224,64.083,728.569],[13.353,64.0843,985.2176],[13.3541,64.0799,940.7377],[13.3847,64.0812,1014.0991],[13.3858,64.0768,1019.8108],[13.4164,64.0781,936.4609],[13.4175,64.0737,960.2671],[13.4584,64.0755,998.1487],[13.4594,64.071,980.3323],[13.4901,64.0723,988.0671],[13.4911,64.0679,982.8707],[13.5218,64.0692,877.0253],[13.5228,64.0647,972.9755],[13.5534,64.066,837.0547],[13.5545,64.0616,805.3499],[13.5851,64.0629,780.7325],[13.5861,64.0584,731.566],[13.6168,64.0597,747.3421],[13.6178,64.0553,716.1177],[13.6484,64.0566,699.3906],[13.6495,64.0521,632.0315],[13.6699,64.053,813.7271],[13.6709,64.0485,642.0893],[13.7015,64.0498,985.6939],[13.7025,64.0453,772.4366],[13.7332,64.0466,871.2213],[13.7342,64.0422,720.4989],[13.7546,64.043,690.2004],[13.7556,64.0385,606.1835],[13.776,64.0394,567.6389],[13.777,64.0349,547.2093],[13.7974,64.0358,559.0588],[13.7984,64.0313,550.3457],[13.829,64.0326,585.9529],[13.83,64.0281,519.1883],[13.8504,64.0289,585.0014],[13.8514,64.0245,496.3346],[13.8718,64.0253,650.3111],[13.8728,64.0208,610.0804],[13.8932,64.0217,734.6669],[13.8942,64.0172,735.6893],[13.9146,64.018,644.3188],[13.9156,64.0136,687.4291],[13.936,64.0144,530.3475],[13.9369,64.0099,522.6977],[13.9777,64.0116,373.3008],[13.9758,64.0205,373.3297],[13.986,64.021,373.1791],[13.9851,64.0254,373.3283],[13.9953,64.0258,378.0481],[13.9933,64.0348,436.8888],[14.0036,64.0352,483.4773],[14.0016,64.0441,468.5423],[14.0119,64.0445,479.5349],[14.01,64.0535,498.5664],[14.0202,64.0539,448.8762],[14.0192,64.0584,404.6367],[14.0294,64.0588,381.2529],[14.0275,64.0677,344.1302],[14.0378,64.0681,344.324],[14.0358,64.0771,343.9906],[14.0461,64.0775,344.069],[14.0442,64.0864,344.3593],[14.0544,64.0869,344.3108],[14.0525,64.0958,392.8158],[14.0627,64.0962,505.6227],[14.0618,64.1007,553.8618],[14.072,64.1011,602.9536],[14.0701,64.11,557.3059],[14.0804,64.1105,527.2856],[14.0785,64.1194,518.7778],[14.0887,64.1198,446.3194],[14.0868,64.1288,410.5652],[14.0971,64.1292,388.4623],[14.0952,64.1381,410.3408],[14.1054,64.1385,427.2802],[14.1035,64.1475,587.5317],[14.1138,64.1479,652.2892],[14.1128,64.1523,648.4694],[14.1231,64.1527,665.5795],[14.1212,64.1617,648.1456],[14.1315,64.1621,643.1761],[14.1296,64.171,641.2054],[14.1399,64.1714,651.9203],[14.138,64.1804,740.3295],[14.1482,64.1808,809.0391],[14.1464,64.1897,986.8492],[14.1566,64.1901,902.4993],[14.1472,64.2349,912.1561],[14.1575,64.2353,909.1545],[14.1149,64.4367,717.7976],[14.1252,64.4371,660.2866],[14.1195,64.4639,361.2023],[14.1091,64.4635,346.089],[14.1082,64.468,367.2178],[14.0978,64.4676,336.9385],[14.0959,64.4765,335.2637],[14.0855,64.4761,311.2361],[14.0845,64.4806,410.0992],[14.0638,64.4798,364.2287],[14.0628,64.4843,489.2997],[14.0421,64.4835,380.9551],[14.0411,64.4879,448.7756],[14.0204,64.4871,361.8152],[14.0194,64.4916,421.639],[13.9882,64.4903,311.097],[13.9873,64.4948,355.7216],[13.9665,64.494,314.8819],[13.9655,64.4985,372.7781],[13.9448,64.4976,385.3488],[13.9438,64.5021,345.5603],[13.923,64.5013,346.1988],[13.922,64.5058,376.1376],[13.9013,64.5049,336.3245],[13.9003,64.5094,339.0102],[13.8795,64.5086,322.256],[13.8785,64.513,358.4619],[13.8681,64.5126,361.6349],[13.8671,64.5171,397.0435],[13.8567,64.5167,418.6405],[13.8557,64.5211,478.6363],[13.8453,64.5207,475.4799],[13.8443,64.5252,496.8346],[13.8339,64.5248,496.2725],[13.8329,64.5292,499.1569],[13.8122,64.5284,451.7072],[13.8111,64.5329,485.4317],[13.8008,64.5324,462.9586],[13.7997,64.5369,501.0847],[13.7893,64.5365,508.6805],[13.7883,64.541,566.923],[13.7779,64.5405,557.5709],[13.7769,64.545,553.1744],[13.7665,64.5446,581.5057],[13.7655,64.549,570.9811],[13.7551,64.5486,615.807],[13.7541,64.5531,625.1068],[13.7437,64.5527,647.7894],[13.7427,64.5571,618.6649],[13.7219,64.5563,604.5729],[13.7209,64.5607,598.0748],[13.7105,64.5603,541.414],[13.7094,64.5648,548.3337],[13.699,64.5644,648.5203],[13.698,64.5688,591.894],[13.6876,64.5684,634.6313],[13.6866,64.5729,587.6945],[13.6762,64.5724,632.5451],[13.6751,64.5769,587.9965],[13.6647,64.5765,631.0586],[13.6637,64.5809,628.366],[13.6533,64.5805,773.2172],[13.6522,64.585,741.3284],[13.6626,64.5854,616.3661],[13.6606,64.5944,661.0365],[13.671,64.5948,529.3029],[13.6689,64.6037,511.2285],[13.6793,64.6042,499.5986],[13.6773,64.6131,470.5554],[13.6877,64.6135,509.7888],[13.6856,64.6225,433.9995],[13.696,64.6229,435.854],[13.694,64.6319,348.4566],[13.7044,64.6323,309.5],[13.7024,64.6412,322.3694],[13.7128,64.6417,309.5],[13.7118,64.6461,313.4965],[13.7222,64.6466,311.5387],[13.7201,64.6555,492.3191],[13.7306,64.656,518.9647],[13.7295,64.6604,544.2992],[13.74,64.6609,450.6615],[13.7379,64.6698,419.6534],[13.7484,64.6702,446.0438],[13.7474,64.6747,451.2367],[13.7578,64.6751,478.208],[13.7557,64.6841,417.5234],[13.7662,64.6845,475.4551],[13.7652,64.689,419.3858],[13.7756,64.6894,522.4047],[13.7736,64.6984,472.5479],[13.784,64.6988,509.3374],[13.783,64.7033,496.962],[13.7935,64.7037,521.2787],[13.7914,64.7126,637.1699],[13.8019,64.7131,614.7634],[13.8009,64.7175,576.6893],[13.8113,64.7179,639.4826],[13.8093,64.7269,661.5781],[13.8198,64.7273,718.5968],[13.8177,64.7363,679.9915],[13.8282,64.7367,703.4659],[13.8272,64.7412,698.2466],[13.8377,64.7416,793.9795],[13.8367,64.7461,690.3908],[13.8471,64.7465,740.7677],[13.8451,64.7554,649.8177],[13.8556,64.7559,651.6483],[13.8536,64.7648,772.9542],[13.864,64.7652,739.1849],[13.863,64.7697,803.1459],[13.8735,64.7701,838.3112],[13.8715,64.7791,792.9115],[13.882,64.7795,804.5684],[13.881,64.784,682.6448],[13.8915,64.7844,605.511],[13.8895,64.7933,753.7819],[13.8999,64.7937,749.1205],[13.8989,64.7982,700.3246],[13.9094,64.7986,772.2092],[13.9074,64.8076,830.2013],[13.9179,64.808,926.0878],[13.9169,64.8125,854.4844],[13.9274,64.8129,951.9218],[13.9254,64.8218,848.7542],[13.8939,64.8206,684.7278],[13.8949,64.8161,696.1664],[13.8424,64.814,707.5171],[13.8434,64.8095,728.154],[13.7909,64.8074,863.8036],[13.792,64.8029,861.7568],[13.7395,64.8008,811.4742],[13.7405,64.7963,801.3682],[13.6881,64.7942,581.848],[13.6891,64.7897,556.278],[13.6367,64.7875,411.5],[13.6377,64.7831,411.5],[13.6063,64.7817,411.5],[13.6073,64.7773,411.5],[13.5863,64.7764,411.5],[13.5874,64.7719,411.5],[13.5455,64.7701,478.6862],[13.5444,64.7746,470.6759],[13.5339,64.7742,552.8812],[13.535,64.7697,566.1946],[13.5036,64.7684,719.8716],[13.5046,64.7639,734.3682],[13.4942,64.7635,754.6218],[13.4952,64.759,743.0981],[13.4848,64.7585,698.1152],[13.4858,64.7541,671.8156],[13.4649,64.7532,553.3326],[13.466,64.7487,508.4943],[13.4555,64.7482,450.2715],[13.4566,64.7438,377.4641],[13.4461,64.7433,356.5],[13.4472,64.7389,356.5],[13.4263,64.738,356.5],[13.4273,64.7335,356.5],[13.4064,64.7326,356.5],[13.4075,64.7281,356.5],[13.3761,64.7267,801.6605],[13.3837,64.6955,404.6658],[13.3733,64.695,397.8671],[13.3754,64.6861,468.2159],[13.365,64.6856,472.7066],[13.3661,64.6811,468.2126],[13.3556,64.6807,422.5808],[13.3578,64.6717,503.6684],[13.3474,64.6713,483.5641],[13.3485,64.6668,601.6348],[13.338,64.6664,608.0061],[13.3402,64.6574,711.9617],[13.3298,64.657,699.6394],[13.3309,64.6525,718.9879],[13.3205,64.652,746.1829],[13.3226,64.6431,711.9935],[13.3122,64.6426,685.1357],[13.3133,64.6382,625.0913],[13.3029,64.6377,661.1049],[13.3051,64.6288,594.149],[13.2947,64.6283,663.3867],[13.2979,64.6149,727.7296],[13.2875,64.6144,675.278],[13.2897,64.6055,880.4564],[13.2793,64.605,866.4585],[13.2826,64.5916,906.9009],[13.2722,64.5912,1000.7766],[13.2733,64.5867,900.8817],[13.2629,64.5862,956.7589],[13.264,64.5818,722.0961],[13.2432,64.5808,892.9537],[13.2443,64.5764,886.6675],[13.2235,64.5755,755.2125],[13.2268,64.562,675.3392],[13.2164,64.5616,749.7737],[13.2186,64.5526,699.5237],[13.1978,64.5517,811.4959],[13.1989,64.5472,866.4577],[13.1886,64.5468,917.5668],[13.1897,64.5423,772.8633],[13.1793,64.5418,883.8387],[13.1804,64.5374,681.5645],[13.1596,64.5364,704.0454],[13.1607,64.532,759.0733],[13.1504,64.5315,848.2708],[13.1515,64.527,726.8701],[13.1411,64.5266,734.7912],[13.1422,64.5221,765.856],[13.1215,64.5211,791.8226],[13.1226,64.5167,784.8566],[13.1122,64.5162,790.6727],[13.1133,64.5117,727.7385],[13.1029,64.5113,752.6983],[13.1041,64.5068,703.2463],[13.0937,64.5063,719.8469],[13.0948,64.5019,661.9627],[13.0844,64.5014,684.8478],[13.0889,64.4835,681.408],[13.0786,64.483,609.1969],[13.0831,64.4652,731.9644],[13.0727,64.4647,728.2521],[13.0772,64.4468,856.4213],[13.0669,64.4464,793.9921],[13.0702,64.433,1059.0554]]]]}}