{"type":"Feature","properties":{"GID_2":"NOR.18.15_1","GID_0":"NOR","country":"Norway","GID_1":"NOR.18_1","province":"Vest-Agder","NL_NAME_1":"NA","county":"Vennesla","VARNAME_2":"NA","NL_NAME_2":"NA","TYPE_2":"Kommuner","ENGTYPE_2":"Municipality","CC_2":"NA","HASC_2":"NO.VA.VE","name":"Vennesla.county"},
"geometry":{"type": "MultiPolygon","coordinates": [[[[8.0411,58.354,217.8372],[8.0396,58.3584,258.138],[8.0427,58.3587,249.3717],[8.0467,58.363,275.7833],[8.045,58.368,263.6105],[8.0534,58.3688,218.2498],[8.0519,58.3732,234.8504],[8.0097,58.3692,279.9852],[8.0112,58.3648,277.185],[8.0028,58.364,220.7279],[8.0043,58.3596,277.7279],[7.9959,58.3588,250.4767],[7.9974,58.3544,227.7277],[7.989,58.3535,217.8912],[7.9905,58.3491,239.079],[7.9652,58.3467,196.7589],[7.9667,58.3423,147.9253],[7.9583,58.3415,269.8406],[7.9614,58.3327,245.9489],[7.9698,58.3335,168.5103],[7.9744,58.3202,86.9769],[7.9491,58.3178,93.7176],[7.9476,58.3222,201.7984],[7.9307,58.3206,208.3728],[7.9276,58.3294,100.285],[7.9192,58.3286,229.5616],[7.8977,58.3904,126.6929],[7.8892,58.3895,130.8831],[7.8877,58.394,198.117],[7.8624,58.3915,196.1017],[7.8608,58.3959,275.0163],[7.8524,58.3951,204.4772],[7.8478,58.4083,166.5],[7.8393,58.4075,166.5],[7.8378,58.4119,177.7418],[7.8124,58.4095,166.5],[7.8109,58.4139,211.8486],[7.7855,58.4114,182.6297],[7.784,58.4158,166.5],[7.7755,58.415,167.7565],[7.774,58.4194,289.4021],[7.7824,58.4202,196.4806],[7.7809,58.4246,206.8337],[7.7893,58.4255,257.5383],[7.7878,58.4299,227.129],[7.7962,58.4307,191.2213],[7.7947,58.4351,227.9064],[7.8031,58.4359,200.7119],[7.8015,58.4403,191.7085],[7.81,58.4412,195.653],[7.8038,58.4588,166.5],[7.7953,58.458,183.1056],[7.7938,58.4624,166.5],[7.7769,58.4607,200.1278],[7.7784,58.4563,282.2876],[7.7531,58.4539,399.3699],[7.7515,58.4583,407.2485],[7.7346,58.4566,348.5971],[7.733,58.461,390.8741],[7.7246,58.4602,353.3824],[7.723,58.4646,369.0724],[7.7061,58.463,431.1324],[7.7045,58.4674,447.6887],[7.6961,58.4665,425.2935],[7.6976,58.4621,433.2314],[7.6892,58.4613,415.7758],[7.6908,58.4569,440.4447],[7.6823,58.4561,429.1417],[7.6854,58.4473,441.6205],[7.677,58.4464,411.0106],[7.6801,58.4376,427.8038],[7.6717,58.4368,400.1048],[7.6733,58.4324,433.8523],[7.6648,58.4315,401.0725],[7.668,58.4227,455.1524],[7.6595,58.4219,400.6761],[7.6611,58.4175,400.4156],[7.6527,58.4167,400.109],[7.6558,58.4078,436.224],[7.6474,58.407,413.0882],[7.6489,58.4026,416.4952],[7.6405,58.4018,414.3422],[7.6437,58.3929,437.4172],[7.6352,58.3921,424.666],[7.6399,58.3789,333.7664],[7.6315,58.3781,349.1458],[7.6347,58.3692,363.1664],[7.6262,58.3684,374.1931],[7.6325,58.3508,360.2554],[7.6241,58.3499,336.5164],[7.6288,58.3367,354.3318],[7.6372,58.3376,314.0864],[7.6404,58.3287,323.4229],[7.6488,58.3296,315.0453],[7.6504,58.3252,321.5786],[7.6588,58.326,337.7306],[7.6604,58.3216,325.6858],[7.6772,58.3232,271.5713],[7.6756,58.3277,345.3454],[7.6925,58.3293,309.0631],[7.6893,58.3381,274.7139],[7.7146,58.3406,390.1186],[7.7162,58.3362,378.3353],[7.7246,58.337,392.2061],[7.7277,58.3282,346.8411],[7.7193,58.3274,332.347],[7.7208,58.323,347.6772],[7.7124,58.3222,350.6326],[7.7171,58.3089,352.783],[7.7255,58.3097,368.0858],[7.7286,58.3009,308.6077],[7.7202,58.3001,320.0559],[7.7218,58.2957,320.4211],[7.7134,58.2949,318.0211],[7.7165,58.286,283.9775],[7.7081,58.2852,261.1354],[7.7096,58.2808,287.8472],[7.7012,58.28,231.42],[7.7028,58.2756,240.7405],[7.6944,58.2747,230.033],[7.6991,58.2615,311.4337],[7.7075,58.2624,223.5345],[7.709,58.2579,192.8732],[7.7174,58.2588,283.831],[7.719,58.2544,253.5714],[7.7274,58.2552,281.9238],[7.7383,58.2243,134.5523],[7.7887,58.2293,201.7955],[7.7809,58.2513,243.9396],[7.7893,58.2521,201.696],[7.7878,58.2565,179.0748],[7.7962,58.2574,212.159],[7.7977,58.253,196.8981],[7.8229,58.2554,169.871],[7.8245,58.251,210.8777],[7.8413,58.2526,212.291],[7.8428,58.2482,250.5757],[7.8512,58.249,263.5826],[7.8543,58.2402,245.0497],[7.8627,58.241,242.8711],[7.8612,58.2455,248.3956],[7.878,58.2471,224.1288],[7.8765,58.2515,235.8592],[7.9017,58.2539,287.9832],[7.9048,58.2451,269.1015],[7.9132,58.2459,230.1523],[7.9162,58.2371,171.109],[7.9246,58.2379,163.0012],[7.9262,58.2335,37.4567],[7.9346,58.2343,16.8424],[7.9376,58.2255,5.7699],[7.946,58.2263,162.2854],[7.9475,58.2219,124.8511],[7.9811,58.2251,242.5193],[7.9796,58.2295,243.6576],[7.988,58.2304,271.235],[7.985,58.2392,194.6834],[7.9934,58.24,232.8404],[7.9903,58.2488,92.4064],[7.9988,58.2496,115.7585],[7.9972,58.254,148.0653],[8.0056,58.2548,148.9395],[8.0026,58.2637,134.0783],[8.011,58.2645,185.5349],[8.0095,58.2689,223.2037],[8.0179,58.2697,205.0388],[8.0164,58.2741,225.7442],[8.0248,58.2749,218.4813],[8.0233,58.2793,256.2437],[8.0317,58.2801,262.5599],[8.0302,58.2845,203.7219],[8.0386,58.2854,205.568],[8.0371,58.2898,222.6645],[8.0455,58.2906,229.3371],[8.044,58.295,288.1815],[8.0524,58.2958,302.467],[8.0509,58.3002,297.2515],[8.0593,58.301,290.5062],[8.0563,58.3098,258.2809],[8.0647,58.3106,202.9065],[8.0602,58.3239,204.4248],[8.0686,58.3247,233.8216],[8.064,58.3379,256.9814],[8.0556,58.3371,173.004],[8.0526,58.346,198.0777],[8.0441,58.3451,149.9217],[8.0411,58.354,217.8372]]]]}}