{"type": "Feature","bbox": [17.4651,69.1583,18.5036,69.6021],"geometry": {"type": "MultiPolygon","coordinates": [[[[18.0589,69.213,9.4126],[18.062,69.213,3.4967],[18.062,69.2141,18.944],[18.0589,69.2141,0.0],[18.0589,69.213,9.4126]]],
[[[18.2207,69.2176,22.8684],[18.2459,69.2178,23.1235],[18.2438,69.2448,418.201],[18.2564,69.245,440.0157],[18.2561,69.2495,403.6483],[18.2687,69.2496,535.1279],[18.2683,69.2541,511.2446],[18.281,69.2542,621.5107],[18.2806,69.2587,615.8197],[18.3059,69.259,862.86],[18.3055,69.2635,800.5836],[18.3182,69.2636,631.1237],[18.3178,69.2681,581.3454],[18.3305,69.2682,489.0043],[18.3301,69.2727,437.1893],[18.3554,69.2729,263.563],[18.3551,69.2774,262.4857],[18.3677,69.2776,257.8243],[18.3674,69.2821,257.1418],[18.3801,69.2822,280.4076],[18.3797,69.2867,271.9726],[18.3924,69.2868,343.2905],[18.3921,69.2913,240.2614],[18.4174,69.2915,662.9025],[18.417,69.296,699.3645],[18.4297,69.2961,826.301],[18.4294,69.3006,906.1353],[18.442,69.3008,951.0959],[18.4417,69.3053,915.0582],[18.4544,69.3054,980.1622],[18.4547,69.3009,1093.9069],[18.4962,69.3012,0.0],[18.4995,69.3047,0.0],[18.4964,69.3078,31.8874],[18.4984,69.3099,0.0],[18.5036,69.3109,0.0],[18.5005,69.3141,0.0],[18.5036,69.3182,0.0],[18.4958,69.3187,69.3126],[18.4943,69.3203,41.6666],[18.5016,69.3214,0.0],[18.5036,69.3245,0.0],[18.4943,69.3255,4.0481],[18.4953,69.3287,0.0],[18.4922,69.3297,0.0],[18.4932,69.3328,0.0],[18.4901,69.3339,0.0],[18.4911,69.337,0.0],[18.4875,69.3396,3.8866],[18.488,69.3411,0.0],[18.4953,69.3422,0.0],[18.4922,69.3453,0.0],[18.4974,69.3516,0.0],[18.4943,69.3536,0.0],[18.5036,69.3662,0.0],[18.4964,69.3693,0.0],[18.4974,69.3724,0.0],[18.488,69.3734,15.5135],[18.4891,69.3766,0.0],[18.4813,69.3771,6.5138],[18.4771,69.3792,0.0],[18.4646,69.3792,12.1884],[18.4521,69.3833,7.4264],[18.4458,69.3833,62.8938],[18.4443,69.3839,54.0632],[18.4453,69.387,0.0],[18.4438,69.3875,0.0],[18.4313,69.3875,65.0936],[18.4271,69.3896,23.948],[18.4188,69.3896,56.6764],[18.4172,69.388,120.7882],[18.4203,69.3859,217.3257],[18.4104,69.3854,247.1378],[18.4089,69.387,191.7714],[18.412,69.3912,24.222],[18.4021,69.3958,0.0],[18.3833,69.3958,0.0],[18.3766,69.3901,0.0],[18.3693,69.3891,0.0],[18.3667,69.3854,0.0],[18.3505,69.3859,0.0],[18.3557,69.3922,0.0],[18.3526,69.3953,0.0],[18.3578,69.3964,0.0],[18.3641,69.4026,0.0],[18.3625,69.4042,0.0],[18.3547,69.4047,12.3223],[18.3557,69.4078,0.0],[18.3526,69.4099,0.0],[18.3568,69.4161,15.5316],[18.3641,69.4172,0.0],[18.3609,69.4203,10.0084],[18.3724,69.4339,0.0],[18.3693,69.437,0.0],[18.3745,69.4432,0.0],[18.3672,69.4464,0.0],[18.3682,69.4495,10.9161],[18.3651,69.4516,47.7188],[18.3703,69.4526,0.0],[18.3724,69.4557,0.0],[18.3667,69.4583,41.3801],[18.3542,69.4583,0.0],[18.3443,69.4609,0.0],[18.3458,69.4646,6.5225],[18.3438,69.4667,5.7539],[18.3109,69.4714,2.8753],[18.3026,69.4755,0.0],[18.3036,69.4786,0.0],[18.3021,69.4792,0.0],[18.2896,69.4792,0.0],[18.2854,69.4812,13.7001],[18.2729,69.4812,93.9523],[18.2687,69.4833,4.2833],[18.2646,69.4812,67.584],[18.2417,69.4812,163.1832],[18.2318,69.4766,0.0],[18.2349,69.4734,63.8871],[18.2307,69.4693,23.1634],[18.225,69.4688,0.0],[18.2146,69.4646,3.0619],[18.2042,69.4646,0.0],[18.1979,69.4604,10.4352],[18.1688,69.4625,39.7337],[18.1672,69.463,6.9376],[18.1682,69.4661,0.0],[18.1646,69.4667,2.2143],[18.1604,69.4646,64.4704],[18.1484,69.4641,0.0],[18.1474,69.4609,63.866],[18.1401,69.4599,0.0],[18.1359,69.4557,21.7336],[18.1391,69.4537,0.0],[18.138,69.4484,0.0],[18.1536,69.4411,10.1693],[18.1526,69.438,0.0],[18.1641,69.4328,5.5454],[18.1609,69.4276,0.0],[18.1641,69.4266,0.0],[18.163,69.4234,0.0],[18.1661,69.4213,0.0],[18.1609,69.413,0.0],[18.1641,69.4109,13.295],[18.1599,69.4068,94.4647],[18.1527,69.4057,0.0],[18.1521,69.4042,0.0],[18.1557,69.4016,8.9126],[18.1547,69.3984,8.3226],[18.1682,69.3974,6.6797],[18.1693,69.3943,0.0],[18.1766,69.3912,0.0],[18.1745,69.388,0.0],[18.1672,69.387,0.0],[18.1625,69.3833,12.9741],[18.1437,69.3833,45.1416],[18.1375,69.3854,2.4522],[18.1333,69.3833,42.2935],[18.1063,69.3833,0.0],[18.0964,69.3807,0.0],[18.0943,69.3786,0.0],[18.0943,69.3755,0.0],[18.1016,69.3724,0.0],[18.1005,69.3693,0.0],[18.1078,69.3662,0.0],[18.1047,69.3609,0.0],[18.1078,69.3588,0.0],[18.1005,69.3495,0.0],[18.1036,69.3464,0.0],[18.0995,69.3422,0.0],[18.0818,69.3411,0.0],[18.0661,69.3234,25.7881],[18.0589,69.3224,0.0],[18.0563,69.3187,16.964],[18.0438,69.3167,7.1884],[18.0396,69.3146,35.2179],[18.0333,69.3167,0.0],[18.0125,69.3104,15.1669],[17.9839,69.3099,0.0],[17.9839,69.3068,0.0],[17.9953,69.3016,0.0],[17.9922,69.2963,0.0],[17.9953,69.2943,3.2001],[17.9896,69.2875,0.0],[17.9932,69.2839,37.4652],[17.9911,69.2818,22.8237],[17.9839,69.2807,0.0],[17.9797,69.2755,0.0],[17.987,69.2703,0.0],[17.9859,69.2672,0.0],[17.9953,69.2662,0.0],[17.9943,69.263,0.0],[17.9974,69.262,0.0],[17.9964,69.2589,0.0],[17.9995,69.2568,0.0],[17.9891,69.2443,2.0746],[17.9818,69.2432,0.0],[17.9786,69.238,4.6745],[17.9714,69.237,0.0],[17.9693,69.2349,0.0],[17.9766,69.2307,16.1073],[17.975,69.2292,3.9231],[17.9693,69.2286,2.8967],[17.9734,69.2255,0.0],[17.9771,69.225,0.0],[17.9813,69.2271,14.1329],[17.9979,69.2271,0.0],[18.0021,69.2292,0.0],[18.0104,69.2292,0.0],[18.0229,69.2333,8.632],[18.0271,69.2312,0.0],[18.0354,69.2312,0.0],[18.0396,69.2333,0.0],[18.0583,69.2333,4.0923],[18.0667,69.2292,0.0],[18.087,69.2286,3.1456],[18.0807,69.2214,9.0342],[18.0755,69.2203,0.0],[18.0714,69.2161,0.0],[18.0745,69.213,3.0903],[18.0703,69.2089,29.1222],[18.0642,69.2069,9.8234],[18.1584,69.2079,23.0271],[18.158,69.2124,25.7533],[18.1706,69.2126,22.8524],[18.1703,69.2171,30.5214],[18.1829,69.2172,22.943],[18.1825,69.2217,22.853],[18.1951,69.2218,22.9945],[18.1955,69.2173,22.9781],[18.2207,69.2176,22.8684]]],
[[[18.0651,69.3703,0.0],[18.0688,69.3688,0.0],[18.0766,69.3724,0.0],[18.0688,69.3729,0.0],[18.0651,69.3703,0.0]]],
[[[18.0026,69.338,4.9469],[18.025,69.3375,0.0],[18.0328,69.3401,0.0],[18.0349,69.3432,0.0],[18.025,69.3438,0.0],[18.0208,69.3417,9.0118],[18.0125,69.3417,0.0],[18.0083,69.3396,6.6775],[18.0042,69.3396,0.0],[18.0026,69.338,4.9469]]],
[[[17.6604,69.4729,0.0],[17.6724,69.4708,0.0],[17.6802,69.473,102.0665],[17.689,69.4731,113.8276],[17.6899,69.4641,129.9796],[17.6772,69.4639,87.4454],[17.6786,69.4504,298.4611],[17.6276,69.4498,480.3682],[17.6286,69.4408,449.6225],[17.6159,69.4406,224.7005],[17.6169,69.4316,202.0],[17.6041,69.4314,265.0822],[17.6051,69.4224,274.7743],[17.5924,69.4222,411.9407],[17.5934,69.4132,818.4755],[17.5807,69.4131,609.6472],[17.5817,69.4041,305.5],[17.5689,69.4039,305.5],[17.5694,69.3994,305.5],[17.5567,69.3992,366.9347],[17.5577,69.3902,522.9215],[17.545,69.39,637.2233],[17.546,69.381,785.5016],[17.5587,69.3812,769.3281],[17.5592,69.3767,607.3702],[17.5719,69.3769,633.0079],[17.5724,69.3724,596.0994],[17.5851,69.3725,611.4703],[17.5861,69.3635,278.1333],[17.5988,69.3637,322.384],[17.5993,69.3592,266.9999],[17.5866,69.359,221.6174],[17.5871,69.3545,509.7011],[17.5744,69.3544,623.1985],[17.5749,69.3499,718.6505],[17.5623,69.3497,710.0562],[17.5643,69.3317,391.8367],[17.5769,69.3318,447.8975],[17.5789,69.3138,298.735],[17.5916,69.314,392.9422],[17.5921,69.3095,427.2396],[17.6047,69.3097,494.5858],[17.6052,69.3052,452.3008],[17.6179,69.3053,370.2924],[17.6189,69.2963,421.736],[17.6315,69.2965,376.1385],[17.632,69.292,291.132],[17.6447,69.2922,267.6666],[17.6461,69.2786,197.2494],[17.6587,69.2788,181.579],[17.6616,69.2518,15.2418],[17.649,69.2516,15.2927],[17.6504,69.2381,34.9976],[17.663,69.2383,29.5596],[17.6635,69.2338,31.4835],[17.7266,69.2346,19.1158],[17.7271,69.2301,35.3261],[17.7145,69.2299,38.4829],[17.7154,69.2209,313.7755],[17.7028,69.2208,258.9665],[17.7033,69.2163,335.7702],[17.7411,69.2167,312.387],[17.7415,69.2122,314.8506],[17.792,69.2129,133.6055],[17.7924,69.2084,159.5831],[17.805,69.2085,125.36],[17.8059,69.1995,83.689],[17.8185,69.1996,90.6497],[17.819,69.1951,135.4245],[17.8316,69.1953,185.4522],[17.8329,69.1818,347.1975],[17.8203,69.1816,342.9042],[17.8216,69.1681,113.0557],[17.809,69.168,192.1395],[17.8097,69.1614,9.8188],[17.8082,69.1616,8.1765],[17.8146,69.1583,0.0],[17.8458,69.1583,0.0],[17.8583,69.1625,0.0],[17.8667,69.1625,0.0],[17.8708,69.1646,0.0],[17.875,69.1646,0.0],[17.8792,69.1667,3.4291],[17.8875,69.1667,0.0],[17.8917,69.1687,0.0],[17.9083,69.1687,0.0],[17.9146,69.1729,0.0],[17.9396,69.1729,0.0],[17.9438,69.175,3.3583],[17.9667,69.1771,0.0],[17.9714,69.1807,10.9195],[17.9813,69.1833,24.505],[17.9896,69.1833,0.0],[17.9943,69.187,0.0],[18.0016,69.188,0.0],[18.0099,69.1922,0.0],[18.0042,69.1958,6.8511],[17.9937,69.1958,37.323],[17.9854,69.2,0.0],[17.9708,69.2,0.0],[17.9604,69.1958,56.3175],[17.9542,69.1979,0.0],[17.9396,69.1979,0.0],[17.9333,69.1958,0.0],[17.9318,69.1974,14.5974],[17.9349,69.2016,0.0],[17.9234,69.2068,0.0],[17.9245,69.2099,0.0],[17.9214,69.2109,0.0],[17.9245,69.2161,0.0],[17.9208,69.2167,0.0],[17.9167,69.2146,33.1261],[17.9021,69.2146,13.0399],[17.8979,69.2167,0.0],[17.8875,69.2167,3.12],[17.8807,69.2203,0.0],[17.8729,69.2208,8.9738],[17.8672,69.2234,1.34],[17.8682,69.2266,0.0],[17.8589,69.2276,5.4441],[17.8604,69.2292,0.0],[17.8661,69.2297,0.0],[17.8688,69.2333,0.0],[17.8896,69.2312,0.0],[17.8937,69.2333,0.0],[17.9,69.2333,0.0],[17.9063,69.2312,0.0],[17.9104,69.2333,0.0],[17.9313,69.2333,0.0],[17.9411,69.2359,0.0],[17.9443,69.2391,4.9517],[17.9578,69.2422,0.0],[17.9682,69.2547,0.0],[17.9667,69.2562,0.0],[17.9604,69.2562,17.6414],[17.9562,69.2583,0.0],[17.9422,69.2589,0.0],[17.9495,69.2682,0.0],[17.9464,69.2693,1.4982],[17.9474,69.2724,0.0],[17.9417,69.275,0.0],[17.9229,69.275,21.3555],[17.9167,69.2771,0.0],[17.9125,69.275,5.9571],[17.8964,69.2734,0.0],[17.9005,69.2807,0.0],[17.9104,69.2833,0.0],[17.9224,69.2839,0.0],[17.9245,69.2891,0.0],[17.9172,69.2922,27.5488],[17.9203,69.2974,0.0],[17.913,69.3005,4.2431],[17.9141,69.3037,0.0],[17.9,69.3042,0.0],[17.8958,69.3063,0.0],[17.888,69.3068,8.5747],[17.8911,69.312,0.0],[17.8833,69.3125,0.0],[17.8776,69.3161,0.0],[17.8896,69.3167,0.0],[17.8937,69.3187,0.0],[17.8979,69.3167,0.0],[17.9104,69.3167,3.1624],[17.9146,69.3146,0.0],[17.9245,69.3151,0.0],[17.913,69.3224,2.3531],[17.9151,69.3245,0.0],[17.9203,69.3255,0.0],[17.9286,69.3339,0.0],[17.9297,69.337,2.3019],[17.9396,69.3396,6.9068],[17.9583,69.3375,0.0],[17.963,69.3411,0.0],[17.9729,69.3438,3.5186],[17.9813,69.3438,0.0],[17.9854,69.3417,0.0],[18.0063,69.3479,0.0],[18.0125,69.3458,0.0],[18.0187,69.3458,0.0],[18.025,69.3479,0.0],[18.0313,69.3458,0.0],[18.0359,69.3495,0.0],[18.0438,69.3521,2.6585],[18.0521,69.3521,5.507],[18.0563,69.35,0.0],[18.0646,69.3521,3.6873],[18.0688,69.35,0.0],[18.0812,69.35,0.0],[18.0849,69.3526,0.0],[18.0818,69.3557,0.0],[18.0953,69.3588,0.0],[18.0974,69.3609,0.0],[18.0958,69.3625,0.0],[18.088,69.363,14.3747],[18.0812,69.3667,0.0],[18.075,69.3667,0.0],[18.0688,69.3646,0.0],[18.0646,69.3667,0.0],[18.0583,69.3667,11.9553],[18.0568,69.3672,12.7508],[18.0578,69.3703,0.0],[18.0547,69.3714,0.0],[18.062,69.3745,0.0],[18.0589,69.3755,0.0],[18.0599,69.3807,0.0],[18.0526,69.3849,0.0],[18.0682,69.388,0.0],[18.0682,69.3912,0.0],[18.0609,69.3922,0.0],[18.0604,69.3938,0.0],[18.0609,69.3953,0.0],[18.0667,69.3958,0.0],[18.0682,69.3974,0.0],[18.0589,69.3984,4.1836],[18.0505,69.4036,0.0],[18.0578,69.4047,0.0],[18.0609,69.4078,0.0],[18.0661,69.4089,0.0],[18.063,69.412,3.9021],[18.0672,69.4161,3.4569],[18.0745,69.4172,0.0],[18.0766,69.4193,0.0],[18.0828,69.4287,0.0],[18.0755,69.4318,0.0],[18.0766,69.4349,0.0],[18.0688,69.4354,36.0724],[18.0646,69.4375,6.2289],[18.0521,69.4375,25.4896],[18.0464,69.4401,0.0],[18.0474,69.4432,4.9569],[18.0417,69.4458,0.0],[18.0354,69.4437,54.1076],[18.0193,69.4432,0.0],[18.0016,69.4234,22.033],[17.9964,69.4224,0.0],[17.9922,69.4182,0.0],[17.9953,69.4151,3.9786],[17.9901,69.4089,0.0],[17.9979,69.4083,0.0],[17.9995,69.4068,0.0],[17.9917,69.4042,9.6158],[17.9833,69.4042,24.9166],[17.9792,69.4063,0.0],[17.9714,69.4068,0.0],[17.9646,69.4104,1.4697],[17.9568,69.4109,14.6027],[17.9578,69.4141,0.0],[17.9464,69.4193,15.3517],[17.9484,69.4224,7.3593],[17.962,69.4255,0.0],[17.9682,69.4318,0.0],[17.9651,69.4339,2.736],[17.9672,69.437,0.0],[17.975,69.4396,0.0],[17.9854,69.4396,0.0],[17.9932,69.4422,0.0],[18.0026,69.4516,0.0],[18.0099,69.4526,0.0],[18.0099,69.4557,0.0],[18.0068,69.4578,0.0],[18.0089,69.4599,0.0],[18.0161,69.4609,0.0],[18.0182,69.463,3.7701],[18.0151,69.4651,3.9913],[18.0161,69.4703,0.0],[18.013,69.4724,0.0],[18.0375,69.4729,0.0],[18.0401,69.4766,12.5593],[18.0557,69.4797,0.0],[18.0589,69.4828,0.0],[18.0641,69.4838,0.0],[18.0682,69.488,0.0],[18.0667,69.4896,0.0],[18.0604,69.4896,89.8362],[18.0563,69.4917,50.8574],[18.0438,69.4917,151.0867],[18.037,69.4953,156.6612],[18.0297,69.4964,172.6257],[18.0286,69.4995,95.6997],[18.0214,69.5005,142.2662],[18.0203,69.5036,57.1449],[18.0161,69.5057,57.8094],[18.0089,69.5068,43.3339],[18.0078,69.5099,8.4591],[17.9896,69.5104,209.2794],[17.988,69.5109,189.7956],[17.9891,69.5141,41.0585],[17.9849,69.5162,72.474],[17.9813,69.5167,46.5165],[17.975,69.5146,175.0902],[17.9625,69.5208,8.7104],[17.9589,69.5203,0.0],[17.962,69.5182,30.3208],[17.9604,69.5167,0.0],[17.9443,69.5162,3.54],[17.938,69.5099,0.0],[17.9411,69.5068,186.6998],[17.9339,69.5057,0.0],[17.9339,69.5026,13.477],[17.937,69.5005,173.7295],[17.9328,69.4964,305.1274],[17.9042,69.4958,13.016],[17.9026,69.4943,0.0],[17.9057,69.4922,13.4898],[17.8995,69.4859,26.9407],[17.8859,69.4828,15.5807],[17.8839,69.4807,0.0],[17.8911,69.4766,50.9677],[17.888,69.4714,0.0],[17.8932,69.4703,0.0],[17.8974,69.4672,42.3302],[17.8813,69.45,0.0],[17.8583,69.4479,8.9963],[17.8536,69.4443,104.8449],[17.85,69.4437,164.3293],[17.8443,69.4464,22.7432],[17.8453,69.4495,0.0],[17.837,69.4537,0.0],[17.8172,69.4568,0.0],[17.8208,69.4604,0.0],[17.8354,69.4604,36.6088],[17.8396,69.4583,0.0],[17.8464,69.4641,4.5526],[17.8536,69.4651,0.0],[17.8557,69.4672,0.0],[17.8578,69.4724,0.0],[17.8505,69.4755,4.9749],[17.8516,69.4786,0.0],[17.8484,69.4797,0.0],[17.8495,69.4828,0.0],[17.8464,69.4838,0.0],[17.8484,69.4891,17.9561],[17.8526,69.4932,12.5839],[17.8682,69.4964,0.0],[17.8708,69.5,0.0],[17.8813,69.5,0.0],[17.8854,69.5021,16.1187],[17.8917,69.5,0.0],[17.8953,69.5005,0.0],[17.8964,69.5036,0.0],[17.9036,69.5047,0.0],[17.9057,69.5068,0.0],[17.9026,69.5099,1.6913],[17.9068,69.5141,10.1402],[17.9203,69.5172,0.0],[17.9224,69.5193,0.0],[17.9193,69.5224,9.6774],[17.9224,69.5266,0.0],[17.913,69.5297,0.0],[17.9141,69.5328,0.0],[17.9109,69.5349,7.5892],[17.9172,69.5411,0.0],[17.9224,69.5422,0.0],[17.9193,69.5453,39.8706],[17.9224,69.5495,0.0],[17.9109,69.5547,9.4336],[17.912,69.5578,0.0],[17.9026,69.5589,11.1764],[17.9036,69.562,0.0],[17.8922,69.5609,24.0915],[17.8953,69.5651,0.0],[17.8922,69.5672,14.9229],[17.8932,69.5724,0.0],[17.8807,69.5787,15.5053],[17.8625,69.5813,0.0],[17.8583,69.5792,104.2152],[17.8464,69.5787,2.9914],[17.8479,69.5771,0.0],[17.8557,69.5766,52.7564],[17.8484,69.5734,0.0],[17.8557,69.5703,0.0],[17.8568,69.5672,0.0],[17.8599,69.5661,0.0],[17.8583,69.5646,0.0],[17.8484,69.5651,8.3059],[17.8333,69.5729,8.866],[17.8214,69.5703,143.6576],[17.8245,69.5682,198.011],[17.8234,69.563,398.5879],[17.8307,69.5599,420.2354],[17.8292,69.5583,554.0],[17.8146,69.5646,99.2159],[17.8026,69.562,0.0],[17.7995,69.5589,0.0],[17.7943,69.5578,3.5854],[17.7901,69.5537,0.0],[17.7932,69.5505,0.0],[17.7901,69.5463,0.0],[17.7932,69.5453,0.0],[17.7922,69.5401,0.0],[17.7953,69.538,39.2749],[17.7911,69.5339,0.0],[17.7813,69.5333,0.0],[17.7661,69.5411,6.3341],[17.7583,69.5417,0.0],[17.7526,69.5443,44.1357],[17.7557,69.5495,0.0],[17.7443,69.5547,26.1035],[17.7453,69.5578,0.0],[17.7297,69.5589,10.7413],[17.7328,69.5641,0.0],[17.7161,69.5724,10.0282],[17.7109,69.5734,25.5542],[17.7141,69.5776,0.0],[17.7109,69.5797,0.0],[17.712,69.5828,4.2597],[17.6922,69.5859,260.122],[17.6974,69.5932,0.0],[17.6859,69.5932,20.1135],[17.6891,69.5901,186.8372],[17.6818,69.5891,150.2597],[17.6849,69.587,254.7428],[17.6828,69.5839,411.02],[17.6688,69.5833,491.3778],[17.6646,69.5854,442.2021],[17.6568,69.5859,391.9119],[17.65,69.5896,213.4351],[17.6422,69.5901,294.7258],[17.6313,69.5958,87.5608],[17.6276,69.5953,0.0],[17.6432,69.587,4.3475],[17.6422,69.5839,0.0],[17.6536,69.5787,0.0],[17.6547,69.5755,0.0],[17.662,69.5724,10.8273],[17.6609,69.5693,0.0],[17.6641,69.5682,55.1417],[17.663,69.5651,19.0924],[17.6661,69.5641,68.7021],[17.663,69.5589,0.0],[17.6682,69.5578,26.5426],[17.6672,69.5547,3.8946],[17.6703,69.5526,31.7803],[17.6672,69.5484,7.1801],[17.6703,69.5463,8.774],[17.6542,69.5458,0.0],[17.6526,69.5443,0.0],[17.6583,69.5417,0.0],[17.6646,69.5437,16.733],[17.6708,69.5437,0.0],[17.6766,69.5411,9.8878],[17.6776,69.538,11.3163],[17.6807,69.5359,8.88],[17.6734,69.5276,0.0],[17.6833,69.5229,0.0],[17.7016,69.5203,0.0],[17.7167,69.5125,30.8834],[17.7292,69.5125,222.0897],[17.7333,69.5104,330.0882],[17.7479,69.5104,223.2206],[17.7536,69.512,213.8445],[17.7536,69.5089,224.4283],[17.7521,69.5083,253.9426],[17.7313,69.5083,443.5721],[17.7271,69.5104,394.5544],[17.7146,69.5104,140.4594],[17.7104,69.5125,0.0],[17.7062,69.5104,25.622],[17.6943,69.5099,60.3017],[17.6974,69.5068,182.2226],[17.6917,69.5062,325.0113],[17.6813,69.5021,539.3056],[17.6729,69.5021,331.3265],[17.6714,69.5036,325.5014],[17.6734,69.5057,320.3786],[17.6786,69.5078,203.1661],[17.6714,69.5089,311.3122],[17.6646,69.5125,116.1755],[17.6609,69.512,77.8982],[17.6589,69.5089,2.0091],[17.662,69.5078,7.58],[17.6609,69.5047,0.0],[17.6641,69.5026,3.7087],[17.6609,69.4984,0.0],[17.6682,69.4953,0.0],[17.6693,69.4922,0.0],[17.6771,69.4917,57.4422],[17.6828,69.4891,23.9999],[17.6818,69.4859,0.0],[17.6849,69.4849,54.225],[17.6839,69.4818,61.4557],[17.687,69.4807,156.2435],[17.6854,69.4792,259.6419],[17.675,69.4771,322.4699],[17.6625,69.4812,435.1441],[17.6443,69.4838,601.6219],[17.6453,69.487,552.5234],[17.6437,69.4875,530.1508],[17.6354,69.4854,515.8033],[17.6255,69.4901,400.0146],[17.6292,69.4917,281.1297],[17.6333,69.4896,346.626],[17.6458,69.4896,325.2375],[17.6516,69.4953,0.0],[17.6484,69.4964,15.8444],[17.6495,69.4995,0.0],[17.6479,69.5,40.6175],[17.6339,69.5005,239.3023],[17.6349,69.5036,48.6602],[17.6318,69.5047,2.4185],[17.6328,69.5078,0.0],[17.6255,69.513,31.1466],[17.6271,69.5146,22.9057],[17.6328,69.5151,0.0],[17.6349,69.5172,0.0],[17.6318,69.5193,0.0],[17.6328,69.5245,0.0],[17.6229,69.5292,109.8941],[17.6151,69.5297,124.9374],[17.6161,69.5328,10.6468],[17.6089,69.5359,26.7049],[17.6099,69.5391,0.0],[17.6026,69.5422,12.4183],[17.6057,69.5474,0.0],[17.6026,69.5484,6.2326],[17.6016,69.5516,43.948],[17.5917,69.5542,110.1566],[17.5708,69.5542,231.7638],[17.5667,69.5521,281.4872],[17.5464,69.5526,383.4789],[17.5479,69.5542,284.1976],[17.5625,69.5542,143.8502],[17.5667,69.5563,97.7147],[17.5891,69.5568,3.3488],[17.5818,69.5609,59.8247],[17.5828,69.5641,17.7463],[17.5734,69.5651,349.6858],[17.5583,69.5729,0.0],[17.5443,69.5734,14.1931],[17.5453,69.5766,0.0],[17.5396,69.5792,10.2013],[17.5005,69.5839,386.4557],[17.5021,69.5854,274.4959],[17.5167,69.5854,115.7676],[17.5203,69.588,8.9535],[17.5062,69.5958,217.566],[17.5,69.5958,328.8667],[17.4958,69.5979,348.0277],[17.4797,69.5974,0.0],[17.4839,69.5943,1.715],[17.4917,69.5938,81.2789],[17.4932,69.5922,269.8404],[17.4911,69.5901,163.7678],[17.4859,69.5891,0.0],[17.4839,69.5859,0.0],[17.487,69.5839,0.0],[17.4828,69.5797,99.916],[17.4776,69.5776,170.4813],[17.4896,69.5771,183.7051],[17.4938,69.575,264.6217],[17.5016,69.5745,316.8848],[17.4995,69.5693,527.2247],[17.4896,69.5687,562.985],[17.475,69.5729,293.2314],[17.4667,69.5729,35.0793],[17.4651,69.5714,9.3907],[17.4766,69.5661,19.387],[17.4776,69.563,3.1915],[17.4807,69.562,5.5393],[17.4797,69.5589,0.0],[17.487,69.5557,22.3504],[17.4859,69.5526,0.0],[17.4917,69.55,0.0],[17.4995,69.5495,17.072],[17.4984,69.5463,0.0],[17.5016,69.5453,5.5656],[17.5005,69.5401,0.0],[17.5146,69.5354,0.0],[17.5313,69.5333,37.0878],[17.5438,69.5271,0.0],[17.5516,69.5266,36.2779],[17.5682,69.5182,53.8035],[17.5693,69.5151,0.0],[17.5734,69.513,0.0],[17.5828,69.512,78.2418],[17.5818,69.5089,0.0],[17.5859,69.5068,0.0],[17.5953,69.5057,308.7121],[17.5943,69.5026,0.0],[17.5974,69.5016,171.3841],[17.5964,69.4984,0.0],[17.6036,69.4953,21.7009],[17.6026,69.4922,0.0],[17.612,69.4912,3.1275],[17.6245,69.4849,45.4271],[17.6234,69.4818,0.0],[17.6313,69.4812,0.0],[17.6396,69.4771,0.0],[17.6458,69.4771,18.5666],[17.6519,69.4741,0.0],[17.6604,69.4729,0.0]]],
[[[17.8438,69.5958,7.2451],[17.8396,69.5958,86.8751],[17.8339,69.5984,11.6016],[17.8349,69.6016,0.0],[17.8333,69.6021,0.0],[17.825,69.6021,0.0],[17.8234,69.6005,7.0238],[17.8266,69.5984,17.6047],[17.8151,69.5974,5.1809],[17.8193,69.5943,0.0],[17.8271,69.5938,10.4284],[17.8312,69.5917,0.0],[17.8516,69.5922,11.4589],[17.8474,69.5953,4.8496],[17.8438,69.5958,7.2451]]]]}
,"properties": {"GID_2": "NOR.17.14_1","GID_0": "NOR","country": "Norway","GID_1": "NOR.17_1","province": "Troms","NL_NAME_1": "NA","county": "Lenvik","VARNAME_2": "NA","NL_NAME_2": "NA","TYPE_2": "Kommuner","ENGTYPE_2": "Municipality","CC_2": "NA","HASC_2": "NO.TR.LE","name": "Lenvik.county","area_km2": 926.4468,"hist_schema_id": "Elevation0-9000","hist_area_km2": {"0": 56.1214,"25": 90.2306,"50": 73.868,"75": 52.3625,"100": 52.6845,"125": 45.245,"150": 45.6654,"175": 47.0227,"200": 49.4968,"225": 44.2591,"250": 41.8396,"275": 38.8031,"300": 39.3181,"325": 34.2443,"350": 28.5861,"375": 22.9587,"400": 20.2111,"425": 18.5635,"450": 16.996,"475": 15.4719,"500": 13.1227,"525": 12.0924,"550": 9.8605,"575": 8.6065,"600": 7.902,"625": 7.2733,"650": 5.6472,"675": 4.9163,"700": 4.53,"725": 3.6556,"750": 2.9617,"775": 2.6189,"800": 2.125,"825": 1.4738,"850": 1.452,"875": 1.2576,"900": 1.0332,"925": 0.8612,"950": 0.6514,"975": 0.352,"1000": 0.0749,"1025": 0.0075,"1075": 0.0075,"1100": 0.015}}}