{"type":"Feature","properties":{"GID_2":"NOR.10.4_1","GID_0":"NOR","country":"Norway","GID_1":"NOR.10_1","province":"Nordland","NL_NAME_1":"NA","county":"Beiarn","VARNAME_2":"NA","NL_NAME_2":"NA","TYPE_2":"Kommuner","ENGTYPE_2":"Municipality","CC_2":"NA","HASC_2":"NO.NO.BE","name":"Beiarn.county"},
"geometry":{"type": "MultiPolygon","coordinates": [[[[14.3986,67.1283,220.7623],[14.3871,67.1279,212.3243],[14.3882,67.1235,189.0474],[14.3767,67.1231,231.91],[14.3777,67.1186,219.5938],[14.3662,67.1182,237.1338],[14.3673,67.1137,302.7666],[14.3443,67.1129,418.8678],[14.3495,67.0905,507.2306],[14.3609,67.0909,348.63],[14.364,67.0775,20.7515],[14.3755,67.0779,17.8111],[14.3776,67.0689,393.4874],[14.389,67.0693,433.5982],[14.3911,67.0603,414.2497],[14.4025,67.0607,469.622],[14.4046,67.0518,813.7457],[14.416,67.0521,751.3604],[14.4171,67.0477,684.2075],[14.4056,67.0473,776.3339],[14.4066,67.0428,680.092],[14.3952,67.0424,692.6024],[14.3962,67.0379,561.981],[14.3733,67.0371,698.916],[14.3743,67.0327,732.1114],[14.3629,67.0323,763.2917],[14.3639,67.0278,767.1241],[14.3525,67.0274,844.225],[14.3545,67.0184,861.2885],[14.3431,67.0181,1059.9827],[14.3452,67.0091,929.5522],[14.3337,67.0087,1166.2986],[14.3389,66.9863,868.1732],[14.3275,66.9859,887.6048],[14.3295,66.9769,774.8906],[14.3181,66.9765,780.4977],[14.3212,66.9631,768.1614],[14.3326,66.9635,692.0082],[14.3337,66.959,662.8507],[14.3451,66.9594,643.4872],[14.3461,66.9549,724.4976],[14.3347,66.9545,652.7004],[14.3368,66.9456,577.4958],[14.3254,66.9452,656.0587],[14.3274,66.9362,663.8003],[14.3388,66.9366,561.2388],[14.345,66.9097,1072.9202],[14.3336,66.9093,1161.4146],[14.3377,66.8914,1009.4216],[14.3263,66.891,1014.1882],[14.3356,66.8507,698.7189],[14.3242,66.8503,706.3456],[14.3273,66.8369,597.704],[14.3387,66.8372,537.5389],[14.3407,66.8283,569.1971],[14.3521,66.8287,565.6689],[14.3541,66.8197,645.6921],[14.3655,66.8201,713.4729],[14.3665,66.8156,776.4404],[14.3778,66.816,991.0743],[14.3798,66.8071,914.1918],[14.3685,66.8067,908.2123],[14.3695,66.8022,771.363],[14.3582,66.8018,764.0461],[14.3592,66.7973,710.9446],[14.3479,66.7969,752.2237],[14.3499,66.788,837.6732],[14.3612,66.7884,955.306],[14.3623,66.7839,1092.6627],[14.3736,66.7843,1181.403],[14.3746,66.7798,1027.4153],[14.3973,66.7806,958.651],[14.4003,66.7671,872.7728],[14.389,66.7667,1066.2771],[14.39,66.7622,963.157],[14.3787,66.7619,1135.4128],[14.3797,66.7574,998.3809],[14.3684,66.757,1157.3186],[14.3694,66.7525,1046.8906],[14.3581,66.7521,1187.1166],[14.3591,66.7476,1048.8915],[14.3478,66.7472,1106.1338],[14.3498,66.7383,857.3044],[14.3611,66.7387,774.9401],[14.3641,66.7252,861.0836],[14.3755,66.7256,984.3253],[14.3775,66.7167,889.2636],[14.3888,66.717,962.6868],[14.3878,66.7215,1036.3044],[14.4104,66.7223,1254.0184],[14.4094,66.7268,1335.1433],[14.4207,66.7272,1438.6093],[14.4227,66.7182,1160.4448],[14.4114,66.7178,1167.2242],[14.4144,66.7044,1204.2299],[14.4031,66.704,1158.6208],[14.4041,66.6995,1211.5374],[14.3928,66.6991,1271.11],[14.3938,66.6946,1291.1178],[14.3825,66.6943,1373.9105],[14.3835,66.6898,1323.7507],[14.3948,66.6902,1079.0948],[14.3979,66.6767,1095.6562],[14.4091,66.6771,1184.524],[14.4101,66.6726,1027.5443],[14.4214,66.673,1031.9963],[14.4224,66.6685,980.6231],[14.4563,66.6697,799.3508],[14.4553,66.6742,774.0578],[14.4778,66.6749,1116.327],[14.4769,66.6794,949.8538],[14.4994,66.6802,1157.308],[14.4984,66.6847,1168.1528],[14.5436,66.6862,1058.3656],[14.5426,66.6907,1074.7145],[14.5652,66.6914,1233.5973],[14.5642,66.6959,1257.8984],[14.5981,66.697,930.5175],[14.5971,66.7015,876.6888],[14.6197,66.7022,942.4678],[14.6139,66.7291,1412.3282],[14.6365,66.7299,1106.7157],[14.6356,66.7344,1147.9149],[14.6582,66.7351,1181.3481],[14.6572,66.7396,1231.1028],[14.6799,66.7403,1127.9741],[14.6789,66.7448,1270.4548],[14.7016,66.7455,1252.0278],[14.7006,66.75,1301.1593],[14.7233,66.7507,1315.2689],[14.7299,66.7194,1097.0842],[14.7186,66.719,1086.8234],[14.7281,66.6742,890.0551],[14.7394,66.6745,935.9542],[14.7413,66.6656,1012.2356],[14.7525,66.6659,1085.5237],[14.7573,66.6435,1075.2654],[14.7685,66.6439,1074.1222],[14.7676,66.6484,1090.0366],[14.7901,66.6491,1100.0507],[14.7892,66.6536,1045.0107],[14.8118,66.6543,953.7507],[14.8108,66.6588,974.0344],[14.8334,66.6595,1007.5064],[14.8325,66.664,1049.8292],[14.855,66.6647,1088.2554],[14.856,66.6602,1112.5356],[14.8672,66.6605,1171.0565],[14.8682,66.6561,1202.4791],[14.8795,66.6564,1348.2488],[14.8804,66.6519,1397.2227],[14.9029,66.6526,1116.4508],[14.902,66.6571,1193.8558],[14.9133,66.6575,1165.6245],[14.9124,66.662,1192.699],[14.935,66.6627,965.8324],[14.934,66.6671,1015.2436],[15.0018,66.6692,1197.3214],[14.9973,66.6916,1132.8201],[15.0086,66.692,766.7507],[15.0014,66.7279,675.062],[14.9901,66.7275,694.4632],[14.9792,66.7813,892.3347],[14.9906,66.7817,796.275],[14.986,66.8041,777.1116],[14.9974,66.8045,723.1101],[14.9929,66.8269,911.6845],[14.9815,66.8265,853.5023],[14.9788,66.84,684.6856],[14.9901,66.8403,695.9689],[14.9874,66.8538,671.8217],[14.9988,66.8541,683.2055],[14.9924,66.8855,776.2473],[15.0038,66.8859,743.8276],[15.0029,66.8904,772.5391],[15.0143,66.8907,748.0289],[15.008,66.9221,621.9191],[15.0194,66.9224,591.4469],[15.0121,66.9583,590.587],[15.0007,66.958,674.9482],[14.9989,66.9669,676.3611],[14.9874,66.9666,686.6392],[14.9847,66.9801,584.5672],[14.9733,66.9797,606.8987],[14.9714,66.9887,562.4564],[14.96,66.9883,564.0836],[14.9572,67.0018,560.713],[14.9458,67.0014,551.5089],[14.943,67.0149,562.5629],[14.9316,67.0145,554.0389],[14.9288,67.028,599.1584],[14.9174,67.0276,635.5081],[14.9164,67.0321,720.0073],[14.905,67.0318,678.4299],[14.904,67.0363,600.1708],[14.8926,67.0359,592.4608],[14.8917,67.0404,549.1024],[14.8687,67.0397,645.0886],[14.8678,67.0442,661.0452],[14.8563,67.0438,644.5582],[14.8554,67.0483,730.6323],[14.8325,67.0476,677.2322],[14.8315,67.0521,847.1075],[14.8201,67.0517,772.8226],[14.8191,67.0562,874.499],[14.7962,67.0555,828.6705],[14.7953,67.06,950.2979],[14.7838,67.0596,929.2606],[14.7828,67.0641,1091.9795],[14.7714,67.0637,791.0467],[14.7695,67.0727,781.5018],[14.758,67.0723,841.9442],[14.757,67.0768,775.6409],[14.7455,67.0765,775.6667],[14.7446,67.0809,877.3763],[14.7331,67.0806,1029.1978],[14.7341,67.0761,815.5875],[14.7226,67.0757,848.7577],[14.7236,67.0712,658.0945],[14.7121,67.0709,612.6998],[14.7063,67.0978,754.6976],[14.6948,67.0974,813.6589],[14.6929,67.1064,656.9286],[14.6814,67.106,639.326],[14.6794,67.115,417.8257],[14.6679,67.1146,405.6948],[14.666,67.1236,779.2358],[14.6545,67.1232,798.9189],[14.6555,67.1187,446.9686],[14.6325,67.118,754.3935],[14.6335,67.1135,713.5161],[14.5875,67.112,743.1044],[14.5885,67.1075,531.1061],[14.5655,67.1068,746.5316],[14.5665,67.1023,571.4855],[14.5321,67.1012,711.479],[14.5311,67.1056,612.4424],[14.5081,67.1049,584.3648],[14.5071,67.1094,523.9537],[14.4956,67.109,499.7573],[14.4946,67.1135,322.3144],[14.4831,67.1131,302.582],[14.4821,67.1176,322.0567],[14.4362,67.116,369.9762],[14.4352,67.1205,308.0655],[14.4237,67.1201,200.0545],[14.4226,67.1246,175.2495],[14.4112,67.1242,165.388],[14.4101,67.1287,159.3125],[14.3986,67.1283,220.7623]]]]}}