{"type":"Feature","properties":{"GID_2":"NOR.19.8_1","GID_0":"NOR","country":"Norway","GID_1":"NOR.19_1","province":"Vestfold","NL_NAME_1":"NA","county":"Ramnes","VARNAME_2":"NA","NL_NAME_2":"NA","TYPE_2":"Kommuner","ENGTYPE_2":"Municipality","CC_2":"NA","HASC_2":"NA","name":"Ramnes.county"},
"geometry":{"type": "MultiPolygon","coordinates": [[[[10.1968,59.3298,140.6986],[10.2055,59.3304,161.0707],[10.2068,59.326,158.5351],[10.2155,59.3266,163.5186],[10.2168,59.3222,136.347],[10.2255,59.3229,127.7884],[10.2293,59.3096,70.5612],[10.2468,59.3109,61.3713],[10.2455,59.3153,103.3097],[10.2542,59.316,70.7182],[10.2568,59.3071,95.1173],[10.2742,59.3084,122.2314],[10.2716,59.3173,90.0147],[10.2891,59.3186,114.2638],[10.2916,59.3097,121.6212],[10.3003,59.3104,104.101],[10.2991,59.3148,96.1761],[10.3078,59.3155,112.487],[10.3065,59.3199,74.2449],[10.3501,59.3232,42.3046],[10.3437,59.3454,57.687],[10.335,59.3447,26.7459],[10.3337,59.3492,35.4827],[10.325,59.3485,26.3686],[10.3212,59.3618,59.101],[10.3124,59.3612,105.2946],[10.3086,59.3745,92.5189],[10.2824,59.3725,39.3466],[10.2811,59.377,40.2656],[10.2724,59.3763,40.5875],[10.2749,59.3674,67.785],[10.2662,59.3668,23.367],[10.2688,59.3579,18.3358],[10.2601,59.3572,17.5577],[10.2575,59.3661,37.8653],[10.2488,59.3655,73.5922],[10.2436,59.3832,25.3375],[10.2523,59.3839,26.555],[10.2485,59.3972,49.7109],[10.2397,59.3965,93.25],[10.2359,59.4098,39.7423],[10.2271,59.4092,38.6398],[10.2245,59.4181,64.692],[10.2158,59.4174,48.5185],[10.2132,59.4263,45.3547],[10.2045,59.4256,49.2355],[10.2006,59.4389,87.2473],[10.1918,59.4383,89.3239],[10.184,59.4649,88.7348],[10.1753,59.4642,52.1698],[10.174,59.4687,50.3814],[10.1652,59.468,48.0735],[10.1665,59.4636,44.5],[10.1315,59.4609,182.3783],[10.1354,59.4476,221.2779],[10.0917,59.4443,119.4035],[10.0891,59.4531,104.8895],[10.0628,59.4511,200.6457],[10.0642,59.4467,193.8691],[10.0554,59.446,207.2757],[10.0633,59.4194,374.0808],[10.0546,59.4187,325.7394],[10.0572,59.4098,384.5293],[10.0485,59.4092,408.471],[10.0524,59.3959,358.1991],[10.0437,59.3952,334.4528],[10.0476,59.3819,298.595],[10.0389,59.3812,344.185],[10.0402,59.3768,289.3201],[10.0751,59.3795,376.6446],[10.0738,59.3839,344.4894],[10.0913,59.3852,284.2357],[10.1087,59.3866,112.5539],[10.1101,59.3821,124.4953],[10.1404,59.3845,130.6033],[10.1443,59.3872,158.3275],[10.1437,59.3892,152.1227],[10.1524,59.3899,213.8987],[10.1537,59.3855,214.6285],[10.1482,59.385,185.5779],[10.1463,59.3804,128.6074],[10.1489,59.3715,49.0],[10.1576,59.3722,132.2046],[10.1602,59.3633,66.9055],[10.1689,59.3639,131.7031],[10.1728,59.3506,106.2037],[10.1816,59.3513,140.7529],[10.1854,59.338,161.826],[10.1942,59.3386,148.951],[10.1968,59.3298,140.6986]]]]}}