{"type": "Feature","bbox": [9.1058,59.3228,9.5187,59.5583],"geometry": {"type": "MultiPolygon","coordinates": [[[[9.4651,59.5583,664.5267],[9.4038,59.5533,502.4875],[9.4066,59.5444,378.6712],[9.3891,59.543,410.2927],[9.3905,59.5386,316.7136],[9.3817,59.5378,331.9387],[9.3831,59.5334,318.0657],[9.3656,59.532,185.4323],[9.367,59.5275,235.6938],[9.3408,59.5254,237.2279],[9.3422,59.521,172.4673],[9.3247,59.5195,219.9297],[9.3261,59.5151,88.3853],[9.2999,59.5129,15.5],[9.2985,59.5174,15.5],[9.2722,59.5152,323.8681],[9.2736,59.5108,360.3151],[9.2561,59.5093,408.5066],[9.2576,59.5049,403.5681],[9.2401,59.5034,465.3449],[9.2415,59.499,382.6698],[9.2328,59.4983,498.4285],[9.2313,59.5027,530.2165],[9.2139,59.5012,609.7706],[9.2124,59.5057,622.9222],[9.1949,59.5042,445.7175],[9.1992,59.4909,404.4886],[9.173,59.4887,473.1526],[9.1788,59.471,668.3501],[9.17,59.4703,541.43],[9.1715,59.4659,544.2067],[9.1627,59.4651,560.3134],[9.1613,59.4696,555.4704],[9.1526,59.4688,524.7189],[9.1554,59.46,485.2441],[9.1467,59.4592,521.2267],[9.1496,59.4504,564.1999],[9.1409,59.4497,469.5444],[9.1437,59.4408,368.4555],[9.135,59.4401,107.7651],[9.1379,59.4312,111.7855],[9.1292,59.4305,113.832],[9.1306,59.4261,85.4056],[9.1219,59.4253,101.3047],[9.1233,59.4209,75.5491],[9.1146,59.4202,71.5424],[9.1218,59.398,203.8286],[9.1131,59.3973,296.4542],[9.1145,59.3929,350.0564],[9.1058,59.3921,365.2241],[9.1087,59.3833,348.8287],[9.1174,59.384,366.9966],[9.1303,59.3442,322.0177],[9.1477,59.3457,293.1002],[9.1492,59.3412,317.3892],[9.1579,59.342,198.3085],[9.1593,59.3375,190.9326],[9.168,59.3383,180.4402],[9.1709,59.3294,187.1833],[9.1882,59.3309,115.4442],[9.1897,59.3265,125.9841],[9.1984,59.3272,136.4572],[9.1998,59.3228,103.2618],[9.2172,59.3242,160.1737],[9.2158,59.3286,117.3455],[9.2245,59.3294,66.9301],[9.223,59.3338,32.3201],[9.2317,59.3345,15.5],[9.2303,59.3389,15.5],[9.2912,59.344,361.5595],[9.2898,59.3485,367.0816],[9.3072,59.3499,464.7415],[9.3058,59.3543,427.4982],[9.3407,59.3572,312.5498],[9.3421,59.3528,245.8314],[9.3856,59.3564,498.513],[9.3828,59.3652,501.2233],[9.3741,59.3645,528.8464],[9.3713,59.3734,459.5632],[9.38,59.3741,510.6521],[9.3786,59.3785,484.5344],[9.3873,59.3792,614.5437],[9.3845,59.3881,530.5142],[9.3817,59.397,525.592],[9.373,59.3962,572.9435],[9.3716,59.4007,492.8791],[9.3803,59.4014,714.9829],[9.3761,59.4147,514.2806],[9.3848,59.4154,704.3334],[9.382,59.4242,699.6151],[9.3907,59.425,755.6282],[9.3879,59.4338,716.3198],[9.3966,59.4345,743.5767],[9.3924,59.4478,604.0861],[9.4011,59.4485,716.5931],[9.3997,59.453,691.9763],[9.4085,59.4537,744.1048],[9.4071,59.4581,716.8167],[9.442,59.461,653.8604],[9.4406,59.4654,629.4121],[9.4494,59.4661,629.9973],[9.448,59.4705,638.965],[9.4567,59.4713,645.4924],[9.4553,59.4757,760.0099],[9.464,59.4764,685.4554],[9.4626,59.4808,729.9133],[9.4714,59.4815,777.9924],[9.4672,59.4948,716.0459],[9.4759,59.4955,691.2092],[9.4731,59.5044,613.5007],[9.4819,59.5051,605.1071],[9.4805,59.5095,674.2981],[9.4892,59.5103,660.9597],[9.4878,59.5147,676.7745],[9.4966,59.5154,672.6207],[9.4952,59.5198,609.2292],[9.5039,59.5205,503.713],[9.5026,59.525,522.7735],[9.5113,59.5257,569.9652],[9.5099,59.5301,650.4861],[9.5187,59.5308,707.8338],[9.5173,59.5352,708.1837],[9.5085,59.5345,661.4658],[9.5057,59.5434,684.2042],[9.497,59.5427,685.7038],[9.4956,59.5471,686.045],[9.4868,59.5464,666.0443],[9.4854,59.5508,681.0972],[9.4767,59.5501,674.533],[9.4753,59.5546,675.6362],[9.4665,59.5538,691.7781],[9.4651,59.5583,664.5267]]]]}
,"properties": {"GID_2": "NOR.16.12_1","GID_0": "NOR","country": "Norway","GID_1": "NOR.16_1","province": "Telemark","NL_NAME_1": "NA","county": "Sauherad","VARNAME_2": "NA","NL_NAME_2": "NA","TYPE_2": "Kommuner","ENGTYPE_2": "Municipality","CC_2": "NA","HASC_2": "NO.TE.SA","name": "Sauherad.county","area_km2": 316.4536,"hist_schema_id": "Elevation0-9000","hist_area_km2": {"25": 35.2784,"50": 16.41,"75": 15.9121,"100": 12.9536,"125": 9.6975,"150": 9.0301,"175": 10.6608,"200": 11.5206,"225": 10.2887,"250": 10.1476,"275": 11.0322,"300": 10.5469,"325": 10.1363,"350": 10.8803,"375": 10.9831,"400": 10.5931,"425": 8.9119,"450": 9.1583,"475": 10.2147,"500": 11.6959,"525": 11.2304,"550": 10.0468,"575": 8.6563,"600": 8.2349,"625": 10.6054,"650": 8.5161,"675": 7.577,"700": 3.2835,"725": 1.2923,"750": 0.6034,"775": 0.2694,"800": 0.0861}}}