{"type": "Feature","bbox": [10.9675,61.0235,11.9145,61.5122],"geometry": {"type": "MultiPolygon","coordinates": [[[[11.735,61.2016,767.2061],[11.7338,61.206,786.0],[11.7431,61.2066,773.4895],[11.7419,61.211,757.5195],[11.779,61.2133,744.3044],[11.7778,61.2177,680.8984],[11.7871,61.2183,660.3881],[11.7859,61.2227,598.8737],[11.8044,61.2239,537.1158],[11.8033,61.2283,570.1234],[11.8125,61.2289,532.8654],[11.8114,61.2333,578.1393],[11.8299,61.2344,436.0],[11.8287,61.2389,436.0],[11.838,61.2394,436.0],[11.8368,61.243899999999996,436.0],[11.8554,61.245,436.0],[11.8542,61.2495,447.9231],[11.8635,61.25,463.825],[11.8623,61.2545,466.369],[11.8809,61.2556,545.604],[11.8797,61.26,587.5442],[11.8983,61.2611,675.9994],[11.8971,61.2656,743.3146],[11.9064,61.2661,784.9783],[11.9052,61.2706,807.2231],[11.9145,61.2711,813.1719],[11.9076,61.2979,530.6376],[11.8983,61.2973,514.064],[11.889099999999999,61.333,499.7401],[11.8798,61.3324,513.4697],[11.8705,61.368,598.3378],[11.8612,61.3675,601.4176],[11.8519,61.4031,683.781],[11.8426,61.4026,696.3663],[11.8332,61.4382,721.3275],[11.8239,61.4376,737.3069],[11.8145,61.4733,742.5648],[11.8052,61.4727,733.2733],[11.7958,61.5084,788.4794],[11.7864,61.5078,781.7018],[11.7853,61.5122,800.4523],[11.7666,61.5111,784.1706],[11.7677,61.5067,748.7684],[11.749,61.5056,802.2991],[11.7502,61.5011,766.6292],[11.7222,61.4994,629.0645],[11.7234,61.495,616.9281],[11.6954,61.4933,602.6802],[11.6966,61.4888,588.7891],[11.6685,61.4871,540.0573],[11.6697,61.4827,524.761],[11.6511,61.4815,565.4276],[11.6523,61.4771,574.0143],[11.6243,61.4754,619.1094],[11.6255,61.4709,616.3217],[11.5975,61.4692,648.3926],[11.5987,61.4648,625.8913],[11.5707,61.463,667.761],[11.5719,61.4586,689.2949],[11.5439,61.4569,671.2682],[11.5451,61.4524,657.8637],[11.5171,61.4507,610.237],[11.5183,61.4462,618.9976],[11.4904,61.4445,611.6642],[11.4916,61.4401,672.004],[11.445,61.4372,787.1946],[11.4438,61.4416,798.3422],[11.4158,61.4399,696.0966],[11.417,61.4354,676.6205],[11.389099999999999,61.4337,635.8868],[11.3903,61.4292,606.7992],[11.3531,61.4269,317.817],[11.3543,61.4224,283.5544],[11.3264,61.4206,303.3857],[11.3276,61.4162,330.255],[11.2903,61.4138,593.6107],[11.2953,61.396,583.8777],[11.3046,61.3966,570.4637],[11.3096,61.3788,625.0997],[11.3189,61.3794,617.3812],[11.3251,61.3572,689.1005],[11.3344,61.3578,613.6919],[11.343,61.3266,597.4756],[11.3523,61.3272,556.5535],[11.3609,61.2961,499.4518],[11.3702,61.2966,436.6319],[11.3751,61.2788,393.3688],[11.3566,61.2777,418.1754],[11.3578,61.2732,394.8643],[11.3207,61.2709,285.2422],[11.3269,61.2486,243.1605],[11.3362,61.2492,230.7438],[11.346,61.2136,234.9315],[11.3183,61.2118,290.4539],[11.3195,61.2074,286.3716],[11.2825,61.205,325.79],[11.2813,61.2095,326.8669],[11.2165,61.2053,527.5193],[11.2178,61.2009,520.4955],[11.1993,61.1997,503.155],[11.198,61.2041,590.1625],[11.161,61.2017,642.2293],[11.1497,61.2418,694.346],[11.159,61.2424,710.0193],[11.1565,61.2513,722.8587],[11.1287,61.2494,766.7483],[11.1274,61.2539,778.2116],[11.0626,61.2497,821.4446],[11.0614,61.2541,821.2155],[10.9873,61.2492,906.9197],[10.986,61.2537,911.2304],[10.9675,61.2524,930.2036],[10.9701,61.2436,936.5118],[10.9793,61.2442,930.0402],[10.9819,61.2353,925.5656],[10.9911,61.2359,905.342],[10.9937,61.227,892.5729],[11.0029,61.2276,892.2392],[11.0055,61.2187,906.8198],[11.0147,61.2193,880.8752],[11.0173,61.2104,893.0912],[11.0265,61.211,878.1403],[11.0291,61.2022,887.2288],[11.0383,61.2028,880.6396],[11.0421,61.1894,881.0272],[11.0514,61.19,866.0535],[11.0552,61.1767,859.12],[11.0644,61.1773,851.1337],[11.0669,61.1684,838.6705],[11.0762,61.169,820.3499],[11.08,61.1557,804.3626],[11.0892,61.1563,792.192],[11.093,61.1429,761.166],[11.1022,61.1435,749.2923],[11.106,61.1302,692.5397],[11.1152,61.1308,689.291],[11.119,61.1175,617.033],[11.1282,61.1181,611.6107],[11.132,61.1047,543.2943],[11.1412,61.1053,517.5842],[11.1462,61.0875,601.5228],[11.1554,61.0881,569.2991],[11.1566,61.0837,578.2595],[11.1659,61.0843,540.2927],[11.1671,61.0798,563.7443],[11.1763,61.0804,590.1447],[11.1776,61.076,593.4086],[11.1868,61.0766,590.762],[11.188,61.0721,617.1768],[11.1972,61.0727,612.9991],[11.1985,61.0683,643.0121],[11.2077,61.0689,628.9354],[11.2089,61.0644,666.0958],[11.2181,61.065,636.4111],[11.2194,61.0606,671.3856],[11.2286,61.0612,634.4531],[11.2298,61.0567,673.8259],[11.239,61.0573,667.7054],[11.2415,61.0484,676.3632],[11.2507,61.049,677.7347],[11.2544,61.0357,825.0392],[11.2636,61.0363,838.6554],[11.266,61.0274,696.4479],[11.2752,61.028,642.2181],[11.2765,61.0235,633.9091],[11.442,61.0341,476.6268],[11.4408,61.0385,486.1974],[11.45,61.0391,554.4872],[11.4488,61.0436,546.6971],[11.4672,61.0447,635.9745],[11.466,61.0492,621.2784],[11.4753,61.0497,635.1852],[11.474,61.0542,610.6703],[11.4833,61.0548,557.4749],[11.4821,61.0592,565.9645],[11.4913,61.0598,537.525],[11.4901,61.0643,529.5267],[11.5085,61.0654,605.8497],[11.5073,61.0699,583.7827],[11.5165,61.0704,578.4874],[11.5153,61.0749,597.3543],[11.5245,61.0755,603.8416],[11.5233,61.0799,563.336],[11.5325,61.0805,566.9214],[11.5313,61.0849,505.7425],[11.5406,61.0855,436.5154],[11.5394,61.09,400.8963],[11.5486,61.0905,359.311],[11.5474,61.095,338.0034],[11.5566,61.0956,308.0625],[11.5554,61.1,288.167],[11.5646,61.1006,290.0293],[11.5634,61.105,287.105],[11.5727,61.1056,294.6023],[11.5715,61.1101,305.2819],[11.5807,61.1106,301.0163],[11.5795,61.1151,310.8903],[11.6072,61.1168,460.582],[11.6108,61.1035,350.882],[11.6292,61.1046,356.267],[11.628,61.109,380.46],[11.6373,61.1096,385.3168],[11.6325,61.1274,477.3351],[11.6233,61.1269,518.314],[11.6221,61.1313,552.8788],[11.6313,61.1319,551.1106],[11.6302,61.1363,617.3041],[11.6486,61.1375,525.2498],[11.6474,61.1419,551.1745],[11.6659,61.143,593.1017],[11.6647,61.1475,635.7567],[11.674,61.1481,659.5441],[11.6728,61.1525,665.0475],[11.6913,61.1536,671.7598],[11.6901,61.1581,684.0762],[11.7086,61.1592,558.5],[11.7074,61.1637,574.8831],[11.7167,61.1642,563.528],[11.7131,61.1776,555.5264],[11.7224,61.1782,540.6658],[11.72,61.1871,573.8118],[11.7293,61.1876,587.2034],[11.7269,61.1965,705.9778],[11.7362,61.1971,721.8798],[11.735,61.2016,767.2061]]]]}
,"properties": {"GID_2": "NOR.6.2_1","GID_0": "NOR","country": "Norway","GID_1": "NOR.6_1","province": "Hedmark","NL_NAME_1": "NA","county": "Åmot","VARNAME_2": "NA","NL_NAME_2": "NA","TYPE_2": "Kommuner","ENGTYPE_2": "Municipality","CC_2": "NA","HASC_2": "NO.HE.AM","name": "Åmot.county","area_km2": 1336.101,"hist_schema_id": "Elevation0-9000","hist_area_km2": {"200": 7.063,"225": 20.673,"250": 46.894,"275": 55.081,"300": 62.518,"325": 52.601,"350": 57.294,"375": 47.999,"400": 47.323,"425": 58.829,"450": 59.373,"475": 71.351,"500": 85.387,"525": 64.616,"550": 64.779,"575": 79.563,"600": 73.688,"625": 56.548,"650": 43.121,"675": 42.72,"700": 35.327,"725": 30.135,"750": 30.913,"775": 28.486,"800": 24.153,"825": 26.966,"850": 22.732,"875": 20.575,"900": 9.678,"925": 4.591,"950": 3.135,"975": 1.785,"1000": 0.203}}}