{"type": "Feature","bbox": [7.0276,60.8441,8.2705,61.239],"geometry": {"type": "MultiPolygon","coordinates": [[[[8.0353,60.8976,1723.8315],[8.0535,60.8992,1675.6661],[8.0518,60.9036,1639.5603],[8.0609,60.9044,1569.994],[8.0576,60.9133,1563.9314],[8.0667,60.9141,1472.2256],[8.065,60.9185,1438.9871],[8.0741,60.9193,1375.8959],[8.0724,60.9237,1420.333],[8.0815,60.9245,1452.95],[8.0799,60.9289,1487.6995],[8.089,60.9297,1364.443],[8.0873,60.9341,1385.9871],[8.0964,60.9349,1326.5],[8.0947,60.9394,1329.3333],[8.1038,60.9402,1326.5],[8.1022,60.9446,1326.5],[8.1113,60.9454,1326.5],[8.1096,60.9498,1326.5],[8.1187,60.9506,1326.5],[8.1171,60.955,1326.5],[8.1262,60.9558,1326.5],[8.1245,60.9602,1349.9357],[8.1336,60.961,1409.3668],[8.132,60.9654,1426.9449],[8.1411,60.9663,1463.1968],[8.1377,60.9751,1508.186],[8.1469,60.9759,1190.5129],[8.1452,60.9803,1181.7972],[8.1634,60.9819,1158.3239],[8.1651,60.9775,1186.938],[8.1833,60.9791,1365.6487],[8.185,60.9747,1488.7443],[8.1941,60.9755,1432.3236],[8.1958,60.9711,1534.272],[8.214,60.9727,1527.6143],[8.2157,60.9682,1556.1722],[8.2248,60.969,1494.708],[8.2215,60.9779,1358.3594],[8.2306,60.9787,1392.8931],[8.229,60.9831,1328.2155],[8.2381,60.9839,1322.6874],[8.2348,60.9927,1578.3936],[8.2439,60.9935,1525.951],[8.2406,61.0023,1437.9347],[8.2497,61.0031,1427.052],[8.2481,61.0075,1544.808],[8.2572,61.0083,1603.2897],[8.2539,61.0172,1604.2766],[8.263,61.018,1516.7592],[8.2614,61.0224,1282.2242],[8.2705,61.0232,1283.5621],[8.2639,61.0408,1469.6324],[8.2548,61.04,1553.5919],[8.2531,61.0444,1565.7593],[8.244,61.0437,1561.1023],[8.2423,61.0481,1780.733],[8.2332,61.0473,1730.3668],[8.2282,61.0605,1697.0665],[8.2374,61.0613,1664.509],[8.2357,61.0657,1636.6222],[8.2449,61.0665,1596.8833],[8.2432,61.0709,1491.9008],[8.2523,61.0717,1430.1139],[8.2507,61.0761,1416.3607],[8.2415,61.0754,1426.7385],[8.2382,61.0842,1459.8237],[8.2291,61.0834,1414.6285],[8.2274,61.0878,1415.0013],[8.2183,61.087,1454.1931],[8.2166,61.0914,1415.3134],[8.2075,61.0906,1414.4673],[8.2058,61.095,1415.3693],[8.1966,61.0942,1496.4338],[8.195,61.0986,1580.4005],[8.1858,61.0978,1670.4998],[8.1842,61.1023,1545.0688],[8.175,61.1015,1695.9515],[8.1733,61.1059,1592.7299],[8.1642,61.1051,1721.2208],[8.1608,61.1139,1513.3873],[8.1517,61.1131,1655.856],[8.15,61.1175,1484.2872],[8.1408,61.1167,1454.6853],[8.1392,61.1211,1482.1101],[8.13,61.1203,1633.5667],[8.1283,61.1247,1583.1652],[8.1192,61.1239,1602.4854],[8.1158,61.1327,1369.896],[8.1067,61.1319,1377.881],[8.1016,61.1452,1265.9021],[8.0925,61.1444,1303.5656],[8.0891,61.1532,1209.705],[8.0799,61.1524,1215.809],[8.0766,61.1612,1207.3411],[8.0674,61.1604,1144.0939],[8.0623,61.1736,977.4595],[8.0532,61.1728,934.798],[8.0464,61.1905,1182.5435],[8.0372,61.1897,1092.5146],[8.0304,61.2073,1140.0931],[8.0396,61.2081,1183.7891],[8.0362,61.2169,1326.2992],[8.0454,61.2178,1313.2988],[8.0403,61.231,1435.6599],[8.0495,61.2318,1421.8856],[8.0478,61.2362,1427.0986],[8.0295,61.2346,1398.3038],[8.0277,61.239,1396.1384],[7.9542,61.2325,1473.681],[7.9559,61.2281,1477.853],[7.9468,61.2273,1492.8225],[7.9485,61.2228,1406.1578],[7.9393,61.222,1446.0009],[7.941,61.2176,1472.8739],[7.9502,61.2184,1364.5798],[7.9536,61.2096,1513.5081],[7.9169,61.2063,1746.6545],[7.9203,61.1975,1684.1324],[7.9111,61.1967,1612.2697],[7.9162,61.1835,1375.3279],[7.9071,61.1827,1358.8002],[7.9105,61.1738,1541.5427],[7.9013,61.173,1520.2279],[7.903,61.1686,1522.5697],[7.848,61.1637,1381.8947],[7.8463,61.1681,1484.923],[7.8371,61.1673,1384.8625],[7.8005,61.164,1256.0225],[7.8022,61.1596,1289.9298],[7.7839,61.1579,1375.6283],[7.7908,61.1403,1235.538],[7.7999,61.1411,1307.3041],[7.8016,61.1367,1305.3545],[7.82,61.1383,1418.9681],[7.8217,61.1339,1441.4861],[7.8308,61.1348,1334.9271],[7.8343,61.1259,1487.087],[7.8251,61.1251,1503.9458],[7.8268,61.1207,1431.3741],[7.7079,61.1099,1391.1725],[7.7062,61.1143,1482.7208],[7.6513,61.1093,1303.4525],[7.6495,61.1137,1322.2816],[7.6312,61.1121,1466.5372],[7.6295,61.1165,1420.7771],[7.6203,61.1156,1396.8217],[7.6186,61.12,1448.7964],[7.6095,61.1192,1400.3901],[7.6007,61.1412,1408.6141],[7.5641,61.1379,1487.4949],[7.5623,61.1423,1464.45],[7.544,61.1406,1411.3741],[7.5423,61.145,1243.1274],[7.5331,61.1441,1157.9961],[7.5314,61.1485,1071.519],[7.4948,61.1452,986.8394],[7.493,61.1496,1053.3098],[7.4747,61.1479,1139.078],[7.4729,61.1523,1028.7389],[7.4821,61.1531,1133.329],[7.4785,61.1619,1124.9139],[7.4877,61.1628,1214.744],[7.4859,61.1672,1242.6145],[7.5042,61.1689,1017.3278],[7.5025,61.1733,981.8825],[7.4933,61.1724,972.7712],[7.4888,61.1838,0.0],[7.4859,61.1828,0.0],[7.4833,61.1792,164.9377],[7.4792,61.1813,0.0],[7.475,61.1792,41.3828],[7.4708,61.1813,0.0],[7.4667,61.1792,0.0],[7.4589,61.1786,0.0],[7.4578,61.1755,25.2802],[7.4547,61.1745,42.098],[7.4516,61.1693,174.8734],[7.4484,61.1682,103.6127],[7.4474,61.1651,157.6262],[7.4422,61.1641,106.2884],[7.4411,61.1609,136.7223],[7.4328,61.1568,175.1902],[7.4276,61.1557,103.0252],[7.4307,61.1526,317.2699],[7.4208,61.15,201.5456],[7.4063,61.15,65.9919],[7.3818,61.1432,0.0],[7.3833,61.1417,0.0],[7.3958,61.1417,0.0],[7.4057,61.1391,27.0674],[7.4068,61.1359,0.0],[7.412,61.1328,0.0],[7.413,61.1297,0.0],[7.4161,61.1286,0.0],[7.4193,61.1172,0.0],[7.4224,61.1161,0.0],[7.4255,61.1109,0.0],[7.4375,61.1104,0.0],[7.4417,61.1125,0.0],[7.4458,61.1104,0.0],[7.45,61.1104,0.0],[7.4542,61.1125,0.0],[7.4583,61.1125,158.2154],[7.4609,61.1089,0.0],[7.4682,61.1078,59.9089],[7.4703,61.1057,0.0],[7.4646,61.1021,0.0],[7.4521,61.1083,0.0],[7.4479,61.1063,0.0],[7.4354,61.1063,0.0],[7.425,61.1021,0.0],[7.4234,61.1026,0.0],[7.4245,61.1057,0.0],[7.4146,61.1063,0.0],[7.3922,61.1151,0.0],[7.3932,61.1182,0.0],[7.3901,61.1193,0.0],[7.3891,61.1224,0.0],[7.3792,61.125,0.0],[7.3734,61.1224,69.3077],[7.3688,61.1167,678.6403],[7.3646,61.1188,532.8679],[7.3458,61.1188,461.0327],[7.3458,61.1208,320.2347],[7.3354,61.1208,32.2887],[7.3313,61.1229,0.0],[7.3188,61.1229,65.8672],[7.3146,61.125,0.0],[7.3063,61.125,132.4292],[7.3021,61.1292,0.0],[7.288,61.1297,386.1977],[7.2839,61.1318,365.696],[7.2849,61.1349,109.8002],[7.2833,61.1354,147.3551],[7.2609,61.138,492.9473],[7.2526,61.1422,340.4118],[7.2516,61.1453,118.5713],[7.2417,61.1479,0.0],[7.2359,61.1453,0.0],[7.2328,61.1359,0.0],[7.2297,61.1349,0.0],[7.2266,61.1297,0.0],[7.2234,61.1286,0.0],[7.2224,61.1255,0.0],[7.2193,61.1255,0.0],[7.2188,61.1292,0.0],[7.2245,61.1339,0.0],[7.2245,61.137,0.0],[7.2229,61.1375,0.0],[7.2172,61.137,0.0],[7.2151,61.1349,0.0],[7.2141,61.1297,0.0],[7.2125,61.1292,0.0],[7.2083,61.1312,0.0],[7.2021,61.1312,0.0],[7.2021,61.1292,0.0],[7.2057,61.1286,0.0],[7.2036,61.1234,0.0],[7.2005,61.1224,0.0],[7.1974,61.1172,0.0],[7.1917,61.1146,120.8222],[7.1813,61.1167,19.2429],[7.1813,61.1188,0.0],[7.1625,61.1188,0.0],[7.1583,61.1167,91.8923],[7.1542,61.1188,0.0],[7.1505,61.1161,0.0],[7.1495,61.113,108.3296],[7.1422,61.112,36.3638],[7.1391,61.1068,361.4502],[7.1333,61.1042,454.9938],[7.1193,61.1089,20.345],[7.1245,61.112,0.0],[7.1146,61.1167,0.0],[7.112,61.113,0.0],[7.1026,61.1099,0.0],[7.1063,61.1063,147.3071],[7.1042,61.1042,363.8581],[7.0688,61.1063,343.0222],[7.0672,61.1078,266.508],[7.0703,61.1089,98.3996],[7.0724,61.112,0.0],[7.0667,61.1125,0.0],[7.0401,61.1016,16.4575],[7.037,61.0901,228.8943],[7.0276,61.087,0.0],[7.0318,61.0839,0.0],[7.0391,61.0828,95.0447],[7.0396,61.0792,0.0],[7.0375,61.075,0.0],[7.0411,61.0724,86.2964],[7.0422,61.0672,0.0],[7.0453,61.0661,31.7861],[7.0443,61.063,0.0],[7.0542,61.0625,317.3297],[7.056,61.0581,432.6254],[7.0742,61.0598,789.4011],[7.0797,61.0466,978.3131],[7.0888,61.0475,1015.1589],[7.087,61.0519,903.075],[7.1143,61.0545,1145.7705],[7.1125,61.0589,1016.1196],[7.1308,61.0607,1109.4633],[7.1289,61.0651,984.35],[7.1654,61.0685,1086.8661],[7.1672,61.0641,1084.5782],[7.1764,61.065,1059.8722],[7.1818,61.0518,1146.9955],[7.1909,61.0527,1278.458],[7.1945,61.0439,1212.5485],[7.2036,61.0447,1222.0089],[7.2054,61.0403,1353.9598],[7.2145,61.0412,1297.8245],[7.2163,61.0368,1257.109],[7.2254,61.0377,1232.7379],[7.2272,61.0333,1169.3285],[7.2363,61.0341,1144.1929],[7.2381,61.0297,1160.0895],[7.2472,61.0306,1127.7748],[7.249,61.0262,1092.9144],[7.2581,61.0271,1080.1427],[7.2599,61.0227,1082.5082],[7.2781,61.0244,1064.1825],[7.2764,61.0288,1026.2131],[7.3037,61.0314,963.5623],[7.3019,61.0358,1098.866],[7.3202,61.0375,885.2836],[7.3184,61.0419,965.0806],[7.3275,61.0427,892.0959],[7.3293,61.0383,843.2047],[7.3384,61.0392,762.5269],[7.3455,61.0216,966.8912],[7.3364,61.0207,955.6867],[7.3506,60.9855,1154.3391],[7.3597,60.9864,1150.9939],[7.3632,60.9776,1252.6272],[7.4088,60.9818,1405.481],[7.407,60.9862,1419.1117],[7.4161,60.9871,1447.0824],[7.4179,60.9827,1433.7701],[7.427,60.9835,1440.5066],[7.4287,60.9791,1478.2075],[7.4378,60.98,1512.1462],[7.4414,60.9712,1527.7954],[7.4505,60.972,1527.606],[7.4522,60.9676,1541.6892],[7.4613,60.9685,1451.4247],[7.4631,60.9641,1522.2625],[7.4722,60.9649,1552.5067],[7.4739,60.9605,1573.0826],[7.4921,60.9622,1557.8843],[7.4939,60.9578,1531.4974],[7.5121,60.9595,1582.7772],[7.5138,60.9551,1558.9796],[7.5229,60.9559,1550.7411],[7.5247,60.9515,1555.6323],[7.5338,60.9524,1534.2893],[7.5373,60.9436,1548.0704],[7.5464,60.9444,1531.4493],[7.5481,60.94,1561.4785],[7.5572,60.9409,1485.4395],[7.5607,60.932,1473.7698],[7.5698,60.9329,1455.9326],[7.5715,60.9285,1455.3726],[7.5806,60.9293,1458.0675],[7.5841,60.9205,1465.0439],[7.5932,60.9214,1497.0908],[7.5949,60.917,1526.8552],[7.604,60.9178,1557.5328],[7.6075,60.909,1483.2799],[7.6166,60.9098,1483.4812],[7.6183,60.9054,1454.6926],[7.6274,60.9063,1451.5],[7.6308,60.8974,1609.2971],[7.6399,60.8983,1604.2972],[7.6434,60.8895,1739.8141],[7.6525,60.8903,1647.2889],[7.6559,60.8815,1629.5408],[7.665,60.8823,1663.9265],[7.6684,60.8735,1504.2251],[7.6775,60.8743,1511.6868],[7.681,60.8655,1548.7281],[7.69,60.8664,1558.2213],[7.6935,60.8575,1607.8916],[7.7025,60.8584,1602.9429],[7.7043,60.854,1565.1455],[7.7133,60.8548,1594.373],[7.7151,60.8504,1596.9637],[7.7241,60.8512,1610.0834],[7.7257999999999996,60.8468,1602.8781],[7.744,60.8485,1520.3813],[7.7457,60.8441,1579.1799],[7.7638,60.8457,1544.1686],[7.7604,60.8545,1572.2849],[7.7695,60.8554,1614.3491],[7.7678,60.8598,1525.3331],[7.7769,60.8606,1516.7988],[7.7752,60.865,1490.7],[7.7842,60.8658,1487.0436],[7.7825,60.8703,1500.579],[7.7916,60.8711,1524.5472],[7.7899,60.8755,1524.4297],[7.799,60.8763,1534.6871],[7.7973,60.8807,1522.916],[7.8155,60.8824,1601.1996],[7.8138,60.8868,1619.3309],[7.8228,60.8876,1619.4879],[7.8211,60.892,1530.9613],[7.8302,60.8928,1497.0779],[7.8285,60.8973,1579.0829],[7.8467,60.8989,1571.7701],[7.845,60.9033,1595.6993],[7.8541,60.9041,1665.4539],[7.8524,60.9085,1669.0184],[7.8706,60.9102,1618.2828],[7.8689,60.9146,1585.186],[7.9053,60.9179,1578.6991],[7.907,60.9135,1636.264],[7.9161,60.9143,1635.8145],[7.9177,60.9099,1667.8258],[7.9268,60.9107,1562.561],[7.9285,60.9063,1542.2526],[7.9467,60.9079,1567.2053],[7.9484,60.9035,1529.3907],[7.9575,60.9043,1665.4792],[7.9592,60.8999,1629.1249],[7.9683,60.9007,1662.558],[7.97,60.8963,1621.616],[7.9881,60.8979,1759.6388],[7.9898,60.8935,1722.2068],[7.9989,60.8943,1618.7737],[8.0006,60.8899,1634.6279],[8.0188,60.8916,1673.098],[8.0171,60.896,1718.0557],[8.0353,60.8976,1723.8315]]],
[[[7.3589,61.1224,337.2184],[7.3604,61.1208,466.4061],[7.3641,61.1214,305.3994],[7.3625,61.1229,303.6421],[7.3589,61.1224,337.2184]]],
[[[7.3526,61.1245,93.4921],[7.3542,61.1229,307.2567],[7.3557,61.1234,257.1706],[7.3557,61.1245,160.0844],[7.3526,61.1245,93.4921]]],
[[[7.3651,61.1245,54.1433],[7.3667,61.1229,177.453],[7.3682,61.1234,47.43],[7.3682,61.1245,0.0],[7.3651,61.1245,54.1433]]],
[[[7.1438,61.1167,0.0],[7.1422,61.1151,0.0],[7.1453,61.1151,0.0],[7.1453,61.1161,0.0],[7.1438,61.1167,0.0]]],
[[[7.1849,61.1193,0.0],[7.1849,61.1203,0.0],[7.1813,61.1208,0.0],[7.1813,61.1188,0.0],[7.1849,61.1193,0.0]]],
[[[7.3495,61.1214,304.8309],[7.3495,61.1224,233.3163],[7.3458,61.1229,179.3839],[7.3458,61.1208,320.2347],[7.3495,61.1214,304.8309]]],
[[[7.188,61.1266,0.0],[7.188,61.1234,0.0],[7.1911,61.1234,0.0],[7.1911,61.1266,0.0],[7.188,61.1266,0.0]]],
[[[7.1984,61.1318,0.0],[7.2021,61.1312,0.0],[7.2021,61.1333,0.0],[7.2057,61.1339,0.0],[7.2026,61.1359,0.0],[7.2036,61.1411,0.0],[7.1964,61.1411,0.0],[7.1984,61.1318,0.0]]]]}
,"properties": {"GID_2": "NOR.14.17_1","GID_0": "NOR","country": "Norway","GID_1": "NOR.14_1","province": "SognogFjordane","NL_NAME_1": "NA","county": "Lærdal","VARNAME_2": "NA","NL_NAME_2": "NA","TYPE_2": "Kommuner","ENGTYPE_2": "Municipality","CC_2": "NA","HASC_2": "NO.SF.LA","name": "Lærdal.county","area_km2": 1337.411,"hist_schema_id": "Elevation0-9000","hist_area_km2": {"0": 9.371,"25": 4.859,"50": 5.58,"75": 4.698,"100": 4.071,"125": 3.548,"150": 3.25,"175": 3.209,"200": 3.588,"225": 3.475,"250": 3.701,"275": 3.835,"300": 4.194,"325": 4.347,"350": 4.502,"375": 4.215,"400": 7.875,"425": 8.561,"450": 7.239,"475": 7.014,"500": 7.158,"525": 6.871,"550": 6.297,"575": 6.625,"600": 6.368,"625": 6.676,"650": 8.256,"675": 8.696,"700": 8.492,"725": 9.661,"750": 9.199,"775": 10.306,"800": 10.635,"825": 10.922,"850": 11.886,"875": 12.399,"900": 14.21,"925": 16.184,"950": 16.381,"975": 16.65,"1000": 16.94,"1025": 17.434,"1050": 19.083,"1075": 20.551,"1100": 22.982,"1125": 29.495,"1150": 27.086,"1175": 27.375,"1200": 30.237,"1225": 33.898,"1250": 34.943,"1275": 45.322,"1300": 45.369,"1325": 50.871,"1350": 57.154,"1375": 52.63,"1400": 54.772,"1425": 53.893,"1450": 56.137,"1475": 61.139,"1500": 49.129,"1525": 45.743,"1550": 40.708,"1575": 33.122,"1600": 29.483,"1625": 23.873,"1650": 18.051,"1675": 12.589,"1700": 9.181,"1725": 5.551,"1750": 2.71,"1775": 1.867,"1800": 1.354,"1825": 0.852,"1850": 0.4,"1875": 0.339,"1900": 0.144}}}