{"type": "Feature","bbox": [11.0767,59.7499,11.3493,59.9798],"geometry": {"type": "MultiPolygon","coordinates": [[[[11.3179,59.8807,226.6132],[11.3001,59.8796,265.6442],[11.2989,59.884,258.6261],[11.29,59.8834,244.6758],[11.2889,59.8879,236.0572],[11.28,59.8873,214.6956],[11.2788,59.8917,227.8813],[11.2699,59.8911,242.295],[11.2676,59.9,230.3993],[11.2587,59.8994,230.5376],[11.2551,59.9128,237.6741],[11.2463,59.9122,199.1846],[11.2415,59.93,201.2765],[11.2504,59.9306,234.0187],[11.2469,59.9439,194.8714],[11.238,59.9433,209.8012],[11.2368,59.9478,201.1107],[11.219,59.9466,220.3322],[11.2178,59.9511,199.7009],[11.2089,59.9505,179.7446],[11.2077,59.9549,162.903],[11.1988,59.9543,136.3662],[11.1941,59.9721,197.8072],[11.1852,59.9715,225.4956],[11.184,59.976,248.721],[11.1751,59.9754,287.7863],[11.1739,59.9798,310.6429],[11.165,59.9792,288.4161],[11.1662,59.9748,269.0853],[11.1573,59.9742,248.3147],[11.1585,59.9697,278.546],[11.1407,59.9685,190.5185],[11.1395,59.973,210.3661],[11.0861,59.9694,104.2601],[11.0921,59.9471,105.0762],[11.0832,59.9465,103.525],[11.0856,59.9376,103.2961],[11.0767,59.937,100.4659],[11.0791,59.9281,127.0558],[11.088,59.9287,100.0],[11.0892,59.9243,100.3765],[11.0981,59.9249,100.0],[11.1041,59.9026,165.6269],[11.1308,59.9044,100.0],[11.1415,59.8644,100.0],[11.1504,59.865,100.0],[11.1552,59.8472,100.0],[11.164,59.8478,100.0],[11.1652,59.8434,100.0],[11.1741,59.844,100.0],[11.1765,59.8351,100.0],[11.1853,59.8357,100.0],[11.1901,59.8179,100.0],[11.1989,59.8185,100.0],[11.2037,59.8007,100.0],[11.2125,59.8013,100.0],[11.2196,59.7746,100.0],[11.2284,59.7752,100.0],[11.232,59.7618,100.0],[11.2408,59.7624,100.0],[11.2396,59.7669,100.0],[11.2573,59.7681,131.5189],[11.2585,59.7636,156.9239],[11.2762,59.7648,141.4192],[11.2774,59.7603,182.411],[11.2862,59.7609,158.498],[11.2874,59.7565,189.7131],[11.3051,59.7577,179.8481],[11.3063,59.7532,240.4166],[11.324,59.7544,209.5032],[11.3251,59.7499,226.247],[11.3428,59.7511,234.9225],[11.3405,59.76,256.7448],[11.3493,59.7606,242.1831],[11.3482,59.765,192.0581],[11.3393,59.7645,233.0882],[11.337,59.7734,180.4459],[11.3281,59.7728,230.7183],[11.327,59.7772,227.0265],[11.3181,59.7766,281.2567],[11.3158,59.7855,246.9575],[11.3069,59.785,277.7562],[11.3046,59.7938,216.1304],[11.2958,59.7933,233.158],[11.2946,59.7977,237.525],[11.2857,59.7971,217.7062],[11.2822,59.8105,178.877],[11.2733,59.8099,275.5142],[11.271,59.8188,160.6133],[11.2799,59.8194,208.3043],[11.2787,59.8238,204.9455],[11.2876,59.8244,210.8945],[11.2864,59.8289,243.3566],[11.2952,59.8294,243.2298],[11.2941,59.8339,249.7716],[11.3029,59.8345,311.4929],[11.3018,59.8389,276.4579],[11.3284,59.8407,277.3668],[11.3272,59.8451,232.1683],[11.345,59.8463,218.6635],[11.338,59.873,253.957],[11.3291,59.8724,281.4659],[11.3279,59.8769,253.0085],[11.319,59.8763,248.5131],[11.3179,59.8807,226.6132]]]]}
,"properties": {"GID_2": "NOR.1.7_1","GID_0": "NOR","country": "Norway","GID_1": "NOR.1_1","province": "Akershus","NL_NAME_1": "NA","county": "Fet","VARNAME_2": "NA","NL_NAME_2": "NA","TYPE_2": "Kommuner","ENGTYPE_2": "Municipality","CC_2": "NA","HASC_2": "NO.AK.FE","name": "Fet.county","area_km2": 174.7273,"hist_schema_id": "Elevation0-9000","hist_area_km2": {"100": 58.6307,"125": 10.2736,"150": 13.4506,"175": 14.6819,"200": 23.6925,"225": 24.1428,"250": 15.0561,"275": 9.6138,"300": 4.5564,"325": 0.6075,"350": 0.0213}}}