{"type":"Feature","properties":{"GID_2":"NOR.14.19_1","GID_0":"NOR","country":"Norway","GID_1":"NOR.14_1","province":"SognogFjordane","NL_NAME_1":"NA","county":"Luster","VARNAME_2":"NA","NL_NAME_2":"NA","TYPE_2":"Kommuner","ENGTYPE_2":"Municipality","CC_2":"NA","HASC_2":"NO.SF.LU","name":"Luster.county"},
"geometry":{"type": "MultiPolygon","coordinates": [[[[7.4047,61.3651,94.5084],[7.4083,61.3646,209.8139],[7.4078,61.3682,63.3894],[7.4047,61.3682,0.0],[7.4047,61.3651,94.5084]]],
[[[7.4759,61.4108,0.0],[7.4786,61.4109,0.0],[7.4786,61.412,0.0],[7.4755,61.412,0.0],[7.4759,61.4108,0.0]]],
[[[7.4818,61.4151,0.0],[7.4849,61.4151,0.0],[7.4849,61.4161,0.0],[7.4818,61.4161,0.0],[7.4818,61.4151,0.0]]],
[[[7.9043,61.6781,1680.5223],[7.9037,61.6797,1626.094],[7.913,61.6805,1668.8263],[7.9043,61.7026,1372.1974],[7.9136,61.7034,1395.6868],[7.9049,61.7255,1427.4746],[7.8956,61.7246,1429.0524],[7.8938,61.729,1470.7692],[7.8845,61.7282,1535.3291],[7.8827,61.7326,1570.0928],[7.8641,61.731,1704.7145],[7.8623,61.7354,1744.1327],[7.853,61.7346,1694.6962],[7.8512,61.739,1815.597],[7.8419,61.7382,1938.0333],[7.8401,61.7426,1981.3038],[7.8215,61.7409,1661.2321],[7.8197,61.7453,1800.1772],[7.801,61.7437,1585.5273],[7.7993,61.7481,1613.2749],[7.7806,61.7464,1393.673],[7.7788,61.7508,1427.6001],[7.7601,61.7492,1902.5626],[7.7584,61.7536,1814.2104],[7.7397,61.7519,1549.0343],[7.7415,61.7475,1554.548],[7.6855,61.7425,2009.7026],[7.6873,61.7381,1793.6996],[7.6861,61.738,1874.7469],[7.6779,61.7373,1825.8986],[7.6761,61.7417,1597.2961],[7.6015,61.735,1425.625],[7.5997,61.7394,1476.2196],[7.4971,61.7301,1645.5083],[7.4917,61.7433,1312.0244],[7.501,61.7441,1320.7954],[7.4938,61.7617,1564.6431],[7.5031,61.7626,1575.7341],[7.4995,61.7714,1373.0389],[7.4902,61.7706,1290.4247],[7.4793,61.797,1728.1193],[7.47,61.7961,1584.6827],[7.4591,61.8226,1414.4969],[7.4497,61.8217,1378.0276],[7.4443,61.8349,1706.9856],[7.4349,61.8341,1624.3168],[7.4295,61.8473,1332.8391],[7.4201,61.8464,1310.3566],[7.4219,61.842,1279.5189],[7.4032,61.8403,1255.0],[7.405,61.8359,1273.9938],[7.3863,61.8342,1255.0],[7.3882,61.8298,1255.0],[7.3321,61.8246,1529.0859],[7.3339,61.8202,1511.1202],[7.3152,61.8185,1513.6416],[7.3171,61.8141,1495.1469],[7.3077,61.8133,1498.7222],[7.3095,61.8089,1465.0668],[7.3002,61.808,1614.5452],[7.302,61.8036,1508.7628],[7.2927,61.8027,1569.3529],[7.2945,61.7983,1560.8309],[7.2759,61.7966,1536.9722],[7.2722,61.8054,1480.8949],[7.2628,61.8045,1479.5245],[7.261,61.8089,1410.4197],[7.2423,61.8072,1540.7449],[7.2442,61.8028,1525.7274],[7.2348,61.8019,1634.4445],[7.2367,61.7975,1449.0741],[7.218,61.7958,1624.821],[7.2199,61.7914,1690.7792],[7.2012,61.7897,1943.9033],[7.2067,61.7765,1570.1653],[7.1974,61.7756,1646.8264],[7.2011,61.7668,1826.4603],[7.1918,61.7659,1956.0773],[7.1936,61.7615,1842.1505],[7.1843,61.7607,1842.5066],[7.1862,61.7563,1793.8456],[7.1675,61.7545,1826.4899],[7.1694,61.7501,1818.312],[7.1507,61.7484,1875.3142],[7.1526,61.744,1816.2717],[7.134,61.7423,1780.8313],[7.1358,61.7379,1730.6741],[7.1172,61.7361,1682.5673],[7.119,61.7317,1668.1654],[7.1004,61.73,1671.7544],[7.1023,61.7256,1668.087],[7.0837,61.7238,1719.957],[7.0855,61.7194,1685.9923],[7.0762,61.7185,1691.6272],[7.0781,61.7141,1682.886],[7.0688,61.7133,1697.5165],[7.0706,61.7089,1708.0764],[7.0613,61.708,1729.2441],[7.0651,61.6992,1767.0605],[7.0558,61.6983,1779.5981],[7.0576,61.6939,1823.5763],[7.0483,61.693,1840.2949],[7.0502,61.6886,1871.2231],[7.0409,61.6878,1895.1243],[7.0446,61.679,1932.4778],[7.0353,61.6781,1941.6155],[7.0372,61.6737,1862.6868],[7.0279,61.6728,1865.3756],[7.0298,61.6684,1852.0101],[7.0019,61.6658,1865.6913],[7.0038,61.6614,1873.5299],[6.9852,61.6596,1769.701],[6.9871,61.6552,1748.3231],[6.9778,61.6543,1762.0789],[6.9797,61.6499,1730.7853],[6.9704,61.6491,1778.385],[6.9722,61.6447,1749.9377],[6.963,61.6438,1774.4291],[6.9648,61.6394,1732.7905],[6.9556,61.6385,1695.0283],[6.9574,61.6341,1603.8497],[6.9389,61.6323,1616.3104],[6.9407,61.6279,1575.7834],[6.9315,61.627,1650.3689],[6.9333,61.6226,1638.8636],[6.8962,61.6191,1865.3149],[6.8981,61.6147,1853.3705],[6.8703,61.612,1808.2843],[6.8722,61.6076,1784.2961],[6.8444,61.605,1789.6915],[6.8463,61.6006,1766.8492],[6.837,61.5997,1758.6849],[6.8389,61.5953,1682.8888],[6.8296,61.5944,1683.734],[6.8334,61.5856,1451.0226],[6.8242,61.5847,1522.3975],[6.8298,61.5715,1608.7616],[6.8206,61.5706,1717.7479],[6.8243,61.5618,1500.4531],[6.8151,61.561,1538.0066],[6.817,61.5566,1581.0482],[6.8262,61.5575,1479.0833],[6.83,61.5487,1550.5186],[6.8393,61.5496,1361.5757],[6.8411,61.5452,1499.9681],[6.8504,61.5461,1396.8789],[6.8542,61.5373,1443.9514],[6.8634,61.5382,1340.2247],[6.8653,61.5338,1569.0079],[6.8745,61.5346,1556.4888],[6.8764,61.5303,1581.5702],[6.8857,61.5311,1562.519],[6.8894,61.5224,1616.5914],[6.8987,61.5232,1572.0679],[6.9062,61.5057,636.5587],[6.9154,61.5065,636.9828],[6.9173,61.5022,1235.9539],[6.9081,61.5013,885.1081],[6.9174,61.4793,1158.5682],[6.9082,61.4784,1181.2325],[6.91,61.474,1225.417],[6.9008,61.4731,1274.7518],[6.9046,61.4643,1485.085],[6.8953,61.4634,1491.8558],[6.9047,61.4415,1143.0492],[6.8955,61.4406,1293.6145],[6.9029,61.423,1002.1949],[6.8937,61.4221,1244.6559],[6.8956,61.4177,1369.7367],[6.8864,61.4168,1487.8673],[6.8882,61.4124,1525.6582],[6.9067,61.4142,1440.9921],[6.9085,61.4098,1470.9314],[6.9362,61.4125,1308.494],[6.938,61.4081,1232.4221],[6.9565,61.4098,1444.2499],[6.9583,61.4054,1533.6544],[6.9491,61.4046,1276.8871],[6.951,61.4002,1343.2998],[6.9418,61.3993,1223.0],[6.9474,61.3861,1473.4811],[6.9381,61.3852,1512.5912],[6.9474,61.3632,1493.5378],[6.9566,61.3641,1456.3643],[6.9585,61.3597,1408.451],[6.9677,61.3606,1297.1073],[6.9695,61.3562,1279.465],[6.9879,61.358,1279.1169],[6.9898,61.3536,1230.2939],[7.0082,61.3553,964.7048],[7.01,61.3509,1055.7855],[7.0284,61.3527,1080.6523],[7.034,61.3395,1062.507],[7.0432,61.3404,934.8721],[7.0469,61.3316,882.8131],[7.0377,61.3307,973.1852],[7.0395,61.3263,955.0322],[7.0303,61.3254,1082.6299],[7.034,61.3166,954.9491],[7.0432,61.3175,900.5665],[7.0469,61.3087,889.022],[7.0561,61.3096,843.7825],[7.0579,61.3052,807.517],[7.0671,61.3061,688.293],[7.0726,61.2929,842.6996],[7.0818,61.2937,773.634],[7.0836,61.2893,832.5306],[7.102,61.2911,723.4874],[7.1038,61.2867,760.5313],[7.1589,61.2919,221.0089],[7.1607,61.2875,164.6083],[7.1699,61.2884,224.5465],[7.1717,61.284,254.1243],[7.1809,61.2849,268.6692],[7.1864,61.2717,526.8322],[7.2047,61.2734,670.0934],[7.2029,61.2778,776.2369],[7.2305,61.2804,943.816],[7.2323,61.276,1012.8629],[7.2415,61.2769,942.7888],[7.2451,61.2681,992.8999],[7.2543,61.2689,966.4611],[7.2561,61.2645,984.0361],[7.2653,61.2654,940.2374],[7.2671,61.261,959.4724],[7.2762,61.2619,927.3015],[7.278,61.2575,948.1663],[7.2872,61.2583,1015.8773],[7.289,61.2539,1094.2345],[7.2982,61.2548,1018.1052],[7.3,61.2504,1049.4187],[7.3092,61.2512,962.6771],[7.3146,61.238,755.2442],[7.3054,61.2372,1024.755],[7.3216,61.1976,687.5906],[7.3307,61.1984,742.0961],[7.3343,61.1896,679.8574],[7.3435,61.1905,685.301],[7.347,61.1817,610.4116],[7.3654,61.1834,536.445],[7.3671,61.179,487.7546],[7.3806,61.1808,287.5661],[7.3651,61.1839,414.6699],[7.3703,61.187,70.0581],[7.363,61.188,186.4436],[7.3589,61.1901,305.953],[7.3578,61.1932,64.1708],[7.3505,61.1964,138.4825],[7.3557,61.2016,0.0],[7.3484,61.2047,93.4921],[7.3495,61.2078,0.0],[7.3464,61.2089,31.7445],[7.3453,61.2141,0.0],[7.3422,61.2151,117.9748],[7.3474,61.2182,0.0],[7.3443,61.2193,74.5729],[7.3432,61.2245,21.8839],[7.3401,61.2255,95.3541],[7.3411,61.2307,0.0],[7.338,61.2318,88.6405],[7.3411,61.2339,0.0],[7.338,61.237,76.0573],[7.3417,61.2479,0.0],[7.3411,61.2495,0.0],[7.3339,61.2526,309.3503],[7.3349,61.2578,0.0],[7.3276,61.2589,187.5116],[7.325,61.2625,233.8885],[7.3167,61.2625,537.6698],[7.3125,61.2646,437.5275],[7.3,61.2646,659.2645],[7.2932,61.2682,230.514],[7.2859,61.2693,541.4851],[7.2776,61.2734,481.7016],[7.2786,61.2786,83.0241],[7.2672,61.2839,124.0423],[7.2682,61.287,7.4051],[7.2651,61.288,0.0],[7.2641,61.2911,58.0563],[7.2526,61.2964,29.7435],[7.2547,61.3016,0.0],[7.2604,61.3042,30.5362],[7.2724,61.3047,0.0],[7.2734,61.3078,0.0],[7.287,61.313,0.0],[7.288,61.3161,0.0],[7.2922,61.3182,0.0],[7.2974,61.3193,0.0],[7.3083,61.325,0.0],[7.3229,61.3271,0.0],[7.3318,61.3328,0.0],[7.3391,61.3339,0.0],[7.3422,61.3391,0.0],[7.3453,61.3401,0.0],[7.3464,61.3453,6.6876],[7.3516,61.3464,0.0],[7.3443,61.3505,97.534],[7.3438,61.3542,104.0695],[7.3453,61.3578,0.0],[7.3417,61.3604,78.1961],[7.3432,61.3682,0.0],[7.3375,61.3688,28.6228],[7.3266,61.3745,0.0],[7.3208,61.375,23.6723],[7.3141,61.3786,53.2993],[7.3083,61.3792,78.4104],[7.3026,61.3818,9.64],[7.2995,61.3849,0.0],[7.288,61.3901,0.0],[7.288,61.3932,0.0],[7.2901,61.3953,0.0],[7.3,61.3958,0.0],[7.3083,61.3917,0.0],[7.3167,61.3917,118.5582],[7.3208,61.3896,0.0],[7.325,61.3917,100.7398],[7.3292,61.3917,62.82],[7.3333,61.3896,0.0],[7.3417,61.3896,114.6078],[7.3526,61.3839,24.9254],[7.3667,61.3812,0.0],[7.3724,61.3839,0.0],[7.3755,61.3932,15.9328],[7.3797,61.3953,18.8527],[7.3917,61.3979,0.0],[7.4,61.4021,1.9739],[7.4063,61.4021,0.0],[7.4188,61.4063,27.9703],[7.4292,61.4063,0.0],[7.4391,61.4109,5.7799],[7.4411,61.413,0.0],[7.4417,61.4188,20.354],[7.4443,61.4245,0.0],[7.4474,61.4255,0.0],[7.4495,61.4297,18.3146],[7.4505,61.437,0.0],[7.4557,61.438,0.0],[7.4568,61.4411,0.0],[7.4667,61.4437,0.0],[7.4771,61.4437,0.0],[7.4813,61.4458,0.0],[7.4958,61.4458,0.0],[7.5016,61.4484,0.0],[7.5026,61.4516,0.0],[7.5104,61.4521,0.0],[7.5146,61.4542,0.0],[7.5182,61.4516,0.0],[7.5109,61.4484,0.0],[7.5224,61.4422,562.3085],[7.5146,61.4396,438.6465],[7.5104,61.4396,121.6348],[7.5063,61.4417,0.0],[7.5036,61.438,67.8347],[7.4984,61.437,11.0798],[7.4979,61.4313,135.4164],[7.4953,61.4255,38.6395],[7.4922,61.4245,15.889099999999999],[7.4911,61.4214,18.8677],[7.4859,61.4203,0.0],[7.4896,61.4167,35.9435],[7.487,61.4089,41.9133],[7.4776,61.4036,105.5557],[7.4766,61.3964,366.4105],[7.4604,61.3958,287.97],[7.4563,61.3979,52.9419],[7.4542,61.3958,126.8055],[7.4578,61.3922,442.3029],[7.4375,61.3917,144.8314],[7.4349,61.388,106.8904],[7.4255,61.387,0.0],[7.4271,61.3854,18.9862],[7.437,61.3849,262.7933],[7.437,61.3818,177.1238],[7.4339,61.3807,199.2909],[7.4307,61.3755,700.7781],[7.4151,61.3745,159.2609],[7.413,61.3693,122.9528],[7.4161,61.3672,390.7698],[7.4083,61.3646,209.8139],[7.4083,61.3625,282.9668],[7.4042,61.3625,122.4075],[7.3984,61.3599,0.0],[7.3974,61.3568,116.6774],[7.3922,61.3557,0.0],[7.4,61.35,82.8989],[7.3995,61.3484,72.5589],[7.3943,61.3474,0.0],[7.3938,61.3458,0.0],[7.3974,61.3432,67.2726],[7.3943,61.3411,0.0],[7.3974,61.338,47.1511],[7.3938,61.3271,276.5199],[7.3974,61.3245,646.1179],[7.3974,61.3214,830.0625],[7.3875,61.3229,400.8073],[7.3797,61.3203,171.2499],[7.3786,61.3172,362.5672],[7.3745,61.3151,409.8331],[7.3609,61.3141,0.0],[7.3599,61.3089,259.7314],[7.3505,61.3078,233.778],[7.3578,61.3047,585.4008],[7.3479,61.3,829.3734],[7.3401,61.3005,466.1281],[7.3411,61.3036,335.2748],[7.3396,61.3042,230.7688],[7.325,61.3042,0.0],[7.3151,61.2995,31.3759],[7.3151,61.2964,29.4538],[7.3172,61.2943,0.0],[7.3245,61.2932,51.015],[7.3255,61.2901,0.0],[7.3297,61.288,33.037],[7.3536,61.2828,71.8463],[7.3589,61.2797,64.4051],[7.3609,61.2755,51.937],[7.3708,61.2708,0.0],[7.3807,61.2703,102.1509],[7.3818,61.2672,79.15],[7.387,61.2641,287.2929],[7.3875,61.2583,218.0561],[7.3833,61.2458,0.0],[7.3833,61.2417,0.0],[7.3891,61.237,149.4183],[7.3901,61.2339,111.8807],[7.3932,61.2328,173.1511],[7.3943,61.2276,93.1228],[7.3995,61.2245,314.1268],[7.3995,61.2214,275.0572],[7.3943,61.2182,89.6072],[7.3974,61.2161,269.6603],[7.3975,61.2092,290.9114],[7.4114,61.2105,623.939],[7.4096,61.2149,723.3514],[7.428,61.2166,895.419],[7.4262,61.221,913.3425],[7.4354,61.2219,935.4406],[7.4336,61.2263,933.4977],[7.4428,61.2271,913.6259],[7.441,61.2315,949.6329],[7.4318,61.2307,966.6436],[7.4265,61.243899999999996,1017.7049],[7.4357,61.2447,1027.0814],[7.4321,61.2536,1074.4694],[7.4413,61.2544,1078.1334],[7.4377,61.2632,1138.8027],[7.4469,61.2641,1192.6537],[7.4451,61.2685,1191.4813],[7.4543,61.2693,1184.6288],[7.4507,61.2781,1135.3633],[7.4599,61.279,1134.5416],[7.4582,61.2834,1126.3883],[7.4673,61.2842,1100.0],[7.4656,61.2886,1173.5164],[7.4748,61.2895,1120.5513],[7.473,61.2939,1169.4822],[7.4822,61.2947,1161.1178],[7.4804,61.2991,1167.8595],[7.4896,61.3,1205.3165],[7.4878,61.3044,1280.7216],[7.5062,61.3061,1368.1937],[7.5044,61.3105,1423.1566],[7.5136,61.3113,1446.9397],[7.5083,61.3245,1288.2451],[7.5451,61.3279,1307.9655],[7.5469,61.3235,1305.7004],[7.5837,61.3269,1254.0334],[7.589,61.3137,1289.9227],[7.6258,61.317,1249.7551],[7.6206,61.3303,1205.7134],[7.6113,61.3294,1203.3157],[7.6096,61.3338,1168.0696],[7.6004,61.333,1203.1018],[7.5968,61.3418,1191.5847],[7.6153,61.3435,1192.0059],[7.6135,61.3479,1262.3678],[7.6227,61.3487,1265.3921],[7.621,61.3531,1325.3621],[7.6394,61.3548,1335.9021],[7.6376,61.3592,1381.4023],[7.6561,61.3609,1455.2148],[7.6525,61.3697,1426.4567],[7.6618,61.3705,1370.0105],[7.6565,61.3837,1353.0669],[7.6657,61.3846,1309.2505],[7.6604,61.3978,1466.5491],[7.6512,61.397,1419.5616],[7.6459,61.4102,1442.7861],[7.6367,61.4093,1541.203],[7.6314,61.4226,1411.4548],[7.6222,61.4217,1428.5823],[7.6186,61.4305,1332.4845],[7.6371,61.4322,1448.6409],[7.6353,61.4366,1480.7185],[7.6446,61.4375,1434.1162],[7.6428,61.4419,1503.4264],[7.689,61.446,1357.0017],[7.6908,61.4416,1362.1219],[7.7,61.4425,1305.4419],[7.7018,61.4381,1295.4763],[7.711,61.4389,1352.5027],[7.7128,61.4345,1370.9802],[7.7313,61.4362,1325.2332],[7.733,61.4318,1366.1967],[7.807,61.4384,1724.0756],[7.8052,61.4428,1974.4939],[7.8422,61.4461,1832.86],[7.8405,61.4505,1862.5776],[7.8497,61.4513,1672.3368],[7.848,61.4557,1760.1964],[7.8942,61.4599,1828.3484],[7.896,61.4554,1834.1758],[7.9052,61.4563,1557.9326],[7.907,61.4519,1746.8542],[7.9162,61.4527,1477.3489],[7.9179,61.4483,1784.4741],[7.9364,61.4499,1543.5236],[7.9382,61.4455,1547.8585],[7.9474,61.4463,1540.9854],[7.9491,61.4419,1368.8103],[7.9584,61.4427,1433.8494],[7.9601,61.4383,1484.8945],[7.9693,61.4391,1042.5024],[7.9711,61.4347,957.702],[7.9896,61.4363,622.0479],[7.9913,61.4319,764.7382],[8.0098,61.4336,1212.4457],[8.0115,61.4291,1325.9032],[8.0392,61.4316,1443.7761],[8.0409,61.4272,1467.4633],[8.0779,61.4304,1294.5383],[8.0796,61.426,1362.2268],[8.1074,61.4284,1528.3914],[8.1091,61.424,1681.5924],[8.1553,61.428,1893.4142],[8.1536,61.4324,1854.5973],[8.1814,61.4349,1733.4695],[8.1831,61.4304,1743.1938],[8.3126,61.4416,2035.639],[8.311,61.446,1851.3121],[8.3295,61.4476,1532.0786],[8.3195,61.4741,1536.4523],[8.3102,61.4733,1562.7869],[8.3068,61.4821,1714.2494],[8.2976,61.4813,1656.1033],[8.2942,61.4902,1589.0145],[8.285,61.4894,1592.6733],[8.2816,61.4982,1543.5519],[8.2723,61.4974,1680.2887],[8.269,61.5062,1889.5789],[8.2597,61.5054,2050.1279],[8.2546,61.5187,1692.0098],[8.2454,61.5179,1714.8854],[8.2352,61.5444,1543.2146],[8.2167,61.5428,1750.9501],[8.215,61.5472,1617.3524],[8.1871,61.5448,1726.4703],[8.1854,61.5492,1524.2317],[8.1576,61.5468,1486.9237],[8.1559,61.5512,1472.7578],[8.0909,61.5456,1795.2239],[8.0892,61.55,1778.1971],[8.0335,61.5451,1427.6766],[8.0318,61.5495,1381.424],[8.0132,61.5479,1473.8822],[8.0115,61.5523,1473.5859],[8.0022,61.5515,1453.8997],[8.0005,61.5559,1419.9198],[7.9912,61.5551,1383.8062],[7.9895,61.5595,1397.6892],[7.9616,61.5571,1367.244],[7.9599,61.5615,1415.6907],[7.9413,61.5598,1407.1185],[7.9361,61.5731,1403.0186],[7.9454,61.5739,1399.0493],[7.9315,61.6092,1265.6301],[7.9222,61.6083,1238.7435],[7.9153,61.626,1597.8591],[7.906,61.6252,1659.5763],[7.8938,61.656,1396.6709],[7.9031,61.6569,1415.9379],[7.8979,61.6701,1543.2346],[7.9072,61.6709,1540.89],[7.9043,61.6781,1680.5223]]]]}}