{"type":"Feature","properties":{"GID_2":"NOR.9.16_1","GID_0":"NOR","country":"Norway","GID_1":"NOR.9_1","province":"Nord-Trøndelag","NL_NAME_1":"NA","county":"Namsskogan","VARNAME_2":"NA","NL_NAME_2":"NA","TYPE_2":"Kommuner","ENGTYPE_2":"Municipality","CC_2":"NA","HASC_2":"NO.NT.NS","name":"Namsskogan.county"},
"geometry":{"type": "MultiPolygon","coordinates": [[[[13.0937,64.5063,719.8469],[13.0892,64.5242,683.4312],[13.0996,64.5247,720.9915],[13.0928,64.5515,660.6934],[13.1032,64.5519,655.9079],[13.0965,64.5788,626.8771],[13.1069,64.5792,663.1782],[13.1012,64.6016,736.0773],[13.1116,64.602,721.5153],[13.1049,64.6288,634.6482],[13.1153,64.6293,599.7913],[13.1108,64.6472,558.3131],[13.1004,64.6467,497.6358],[13.097,64.6601,768.1769],[13.0865,64.6596,757.6125],[13.0831,64.673,689.1299],[13.0727,64.6726,744.5461],[13.0579,64.7307,301.3301],[13.0475,64.7302,266.8004],[13.0417,64.7525,628.9866],[13.1255,64.7563,740.7945],[13.1266,64.7518,744.7802],[13.158,64.7533,725.4131],[13.1591,64.7488,689.0877],[13.18,64.7497,781.0541],[13.1722,64.781,967.4472],[13.1827,64.7815,945.9548],[13.1804,64.7904,929.9843],[13.1909,64.7909,893.9658],[13.1898,64.7953,885.6776],[13.2003,64.7958,840.5969],[13.198,64.8048,766.3867],[13.2085,64.8052,789.6665],[13.2074,64.8097,638.1902],[13.2179,64.8102,610.1824],[13.2156,64.8191,462.8805],[13.2261,64.8196,504.5291],[13.225,64.824,550.7232],[13.2355,64.8245,585.3148],[13.2333,64.8334,683.8492],[13.2438,64.8339,696.9338],[13.2427,64.8384,763.9335],[13.2532,64.8388,771.7333],[13.2509,64.8478,673.8036],[13.2614,64.8482,645.3134],[13.2603,64.8527,576.8467],[13.2708,64.8532,540.1817],[13.2686,64.8621,609.5196],[13.2791,64.8626,597.2159],[13.278,64.867,657.9149],[13.2885,64.8675,643.1713],[13.2863,64.8764,737.7928],[13.2968,64.8769,765.4031],[13.2957,64.8814,810.4462],[13.3062,64.8818,792.8951],[13.304,64.8908,799.6646],[13.3145,64.8912,834.9003],[13.3134,64.8957,768.6376],[13.3239,64.8961,806.7419],[13.3228,64.9006,779.3516],[13.3334,64.9011,792.1564],[13.3312,64.91,841.124],[13.3417,64.9105,776.5473],[13.3406,64.9149,788.1964],[13.3511,64.9154,800.7717],[13.3489,64.9243,955.5493],[13.3594,64.9248,979.0378],[13.3561,64.9382,812.7194],[13.3667,64.9387,771.8448],[13.3645,64.9476,632.1082],[13.375,64.9481,600.1391],[13.3717,64.9615,806.1431],[13.3823,64.9619,672.5239],[13.3801,64.9709,684.4913],[13.3906,64.9713,649.9077],[13.3873,64.9847,609.2401],[13.3979,64.9852,606.5323],[13.3957,64.9941,736.9131],[13.4063,64.9946,815.878],[13.4041,65.0035,983.6849],[13.4146,65.004,965.1771],[13.4124,65.0129,1112.8219],[13.423,65.0134,1153.2997],[13.4219,65.0178,1124.3021],[13.4325,65.0183,1090.2131],[13.4248,65.0496,762.9052],[13.4566,65.0509,561.6816],[13.4555,65.0554,556.9479],[13.4979,65.0572,496.3818],[13.4968,65.0617,496.2962],[13.518,65.0626,677.2463],[13.5169,65.067,742.1553],[13.5381,65.0679,904.5012],[13.537,65.0724,796.2845],[13.5476,65.0728,793.2576],[13.5465,65.0773,744.1994],[13.5677,65.0782,848.1986],[13.5666,65.0827,911.7709],[13.5984,65.084,1023.7098],[13.5974,65.0885,996.6833],[13.6292,65.0898,882.066],[13.6281,65.0943,923.7238],[13.6387,65.0947,789.2784],[13.6366,65.1036,900.6641],[13.6472,65.1041,798.0328],[13.6461,65.1086,730.7892],[13.6568,65.109,649.0],[13.6557,65.1135,649.0],[13.6132,65.1117,713.578],[13.6122,65.1162,662.1252],[13.5485,65.1135,1008.4191],[13.5474,65.118,1006.634],[13.5156,65.1167,981.3417],[13.505,65.1162,797.0017],[13.506,65.1118,833.8743],[13.4742,65.1104,568.6337],[13.4753,65.1059,572.7906],[13.3692,65.1014,279.3504],[13.3681,65.1059,273.3748],[13.2939,65.1027,455.9108],[13.2928,65.1072,475.7311],[13.261,65.1058,290.0386],[13.2598,65.1102,276.5802],[13.2174,65.1084,329.8592],[13.2163,65.1128,328.8318],[13.1844,65.1115,586.6221],[13.1833,65.1159,643.7518],[13.0879,65.1117,849.4982],[13.0902,65.1027,689.3312],[13.0796,65.1023,741.3153],[13.0807,65.0978,674.5475],[13.0701,65.0973,723.5214],[13.0724,65.0884,593.3262],[13.0618,65.0879,597.0265],[13.063,65.0834,557.4369],[13.0524,65.083,575.4618],[13.0547,65.074,829.8563],[12.9912,65.0711,869.583],[12.9924,65.0667,889.9252],[12.9818,65.0662,807.6935],[12.9853,65.0528,760.7266],[12.9747,65.0523,735.3137],[12.9782,65.0389,888.1797],[12.9676,65.0384,887.9955],[12.9665,65.0429,847.7725],[12.9242,65.041,826.0608],[12.9254,65.0365,884.4079],[12.9148,65.036,861.5798],[12.916,65.0315,795.2319],[12.9054,65.031,761.3651],[12.9066,65.0266,757.7372],[12.9171,65.0271,771.2632],[12.9183,65.0226,779.5265],[12.9289,65.0231,722.3043],[12.9301,65.0186,710.3804],[12.9348,65.0008,702.6064],[12.9242,65.0003,633.3199],[12.9277,64.9869,953.9846],[12.9172,64.9864,900.6851],[12.9195,64.9774,617.7354],[12.8984,64.9765,590.2239],[12.8996,64.972,590.8477],[12.8574,64.97,747.915],[12.8562,64.9745,735.1489],[12.8141,64.9725,790.374],[12.8129,64.977,750.5378],[12.7707,64.975,783.2402],[12.7767,64.9527,693.1423],[12.7872,64.9532,772.1218],[12.7896,64.9443,706.134],[12.7369,64.9418,775.7833],[12.7394,64.9329,850.7855],[12.7288,64.9324,885.5161],[12.7312,64.9234,840.7612],[12.7207,64.9229,863.1885],[12.7231,64.914,801.3177],[12.7126,64.9135,845.3314],[12.7138,64.909,850.4782],[12.7033,64.9085,781.3165],[12.7045,64.9041,763.3229],[12.715,64.9046,809.3337],[12.7222,64.8778,738.8058],[12.6697,64.8753,757.7456],[12.6709,64.8708,631.0862],[12.6289,64.8688,698.9278],[12.6301,64.8643,703.2444],[12.5986,64.8628,664.2667],[12.5999,64.8583,627.0985],[12.5789,64.8573,627.3615],[12.5776,64.8618,693.4337],[12.5671,64.8613,686.6019],[12.5659,64.8657,661.957],[12.5344,64.8642,689.4182],[12.5356,64.8597,723.3624],[12.5251,64.8592,705.6544],[12.5264,64.8548,700.665],[12.5159,64.8542,706.8306],[12.5171,64.8498,686.3653],[12.5276,64.8503,691.3359],[12.5301,64.8414,632.6248],[12.5406,64.8419,546.7582],[12.5418,64.8374,455.8087],[12.5523,64.8379,403.7518],[12.5535,64.8335,335.0314],[12.564,64.834,485.692],[12.5652,64.8295,469.3065],[12.5757,64.83,597.7695],[12.5769,64.8256,690.8998],[12.5874,64.8261,774.4768],[12.5899,64.8171,744.7828],[12.5794,64.8166,718.5499],[12.5806,64.8122,718.8627],[12.5597,64.8111,534.0114],[12.5609,64.8067,587.1296],[12.5399,64.8057,578.5738],[12.5412,64.8012,642.6028],[12.5202,64.8002,695.3361],[12.5251,64.7823,792.029],[12.5356,64.7828,818.895],[12.543,64.7561,673.4178],[12.5325,64.7555,715.1053],[12.5362,64.7422,733.7867],[12.5257,64.7416,752.0668],[12.5294,64.7282,802.1091],[12.5503,64.7293,704.4796],[12.5515,64.7248,673.2903],[12.6351,64.7289,411.8842],[12.6363,64.7244,422.538],[12.6259,64.7239,456.156],[12.6271,64.7194,409.5466],[12.6166,64.7189,412.9198],[12.6191,64.71,313.2388],[12.6295,64.7105,212.0764],[12.6319,64.7016,365.8546],[12.6424,64.7021,382.8586],[12.6436,64.6976,401.8567],[12.654,64.6981,397.8759],[12.6564,64.6892,499.0473],[12.6669,64.6897,428.9657],[12.6681,64.6852,262.9996],[12.6785,64.6857,195.2962],[12.6809,64.6768,136.5351],[12.6913,64.6773,139.5834],[12.6901,64.6818,123.1415],[12.711,64.6828,120.0385],[12.7098,64.6873,116.9577],[12.7307,64.6883,137.2982],[12.7295,64.6927,110.0],[12.7608,64.6942,128.1288],[12.762,64.6897,137.7316],[12.7933,64.6912,144.1304],[12.7968,64.6778,218.2973],[12.7864,64.6773,231.0776],[12.7876,64.6729,254.3839],[12.8084,64.6739,226.7121],[12.8096,64.6694,261.5783],[12.8305,64.6704,239.2],[12.8316,64.6659,257.8332],[12.8525,64.6669,238.3883],[12.8572,64.649,395.8287],[12.8676,64.6495,434.5821],[12.8699,64.6406,391.756],[12.8804,64.6411,447.449],[12.8827,64.6322,476.3395],[12.8931,64.6326,576.7571],[12.8954,64.6237,659.206],[12.9058,64.6242,732.0674],[12.9082,64.6153,598.8488],[12.9186,64.6158,612.1407],[12.9209,64.6068,592.7639],[12.9313,64.6073,583.5178],[12.9336,64.5984,877.4651],[12.944,64.5989,839.5325],[12.9452,64.5944,869.1713],[12.9556,64.5949,811.2231],[12.9579,64.5859,514.0255],[12.9683,64.5864,610.0401],[12.9705,64.5775,489.0777],[12.9809,64.578,499.9301],[12.9832,64.569,519.8346],[12.9936,64.5695,504.3611],[12.9959,64.5606,542.7095],[13.0063,64.5611,559.5812],[13.0086,64.5521,607.5912],[13.019,64.5526,636.7209],[13.0213,64.5437,669.069],[13.0316,64.5442,739.0889],[13.0328,64.5397,806.225],[13.0432,64.5402,866.4772],[13.0454,64.5312,783.6531],[13.0558,64.5317,798.5774],[13.0581,64.5228,751.6402],[13.0684,64.5232,687.4803],[13.0707,64.5143,873.23],[13.0811,64.5148,897.08],[13.0833,64.5059,751.4194],[13.0937,64.5063,719.8469]]]]}}