{"type": "Feature","bbox": [5.3417,60.4292,5.7141,60.7021],"geometry": {"type": "MultiPolygon","coordinates": [[[[5.7036,60.526,0.0],[5.6941,60.525,480.7453],[5.6882,60.5381,589.942],[5.6614,60.5352,656.3126],[5.6594,60.5396,393.2579],[5.6415,60.5376,200.6635],[5.6316,60.5595,266.0697],[5.6227,60.5586,153.5859],[5.6187,60.5673,247.6603],[5.6098,60.5663,199.8382],[5.6038,60.5795,264.1484],[5.6307,60.5824,452.6004],[5.6326,60.578,456.4301],[5.6416,60.579,549.9105],[5.6396,60.5834,554.9713],[5.6575,60.5853,693.2335],[5.6555,60.5897,688.8303],[5.6734,60.5916,696.0216],[5.6714,60.596,805.4276],[5.6804,60.5969,818.4792],[5.6784,60.6013,793.4479],[5.6874,60.6023,748.7248],[5.6854,60.6067,754.8085],[5.6943,60.6076,692.6068],[5.6924,60.612,658.4155],[5.6834,60.611,695.2871],[5.6775,60.6242,583.2583],[5.6685,60.6232,466.2914],[5.6566,60.6495,405.9914],[5.6656,60.6504,348.5246],[5.6616,60.6592,552.8981],[5.6706,60.6602,488.5328],[5.6686,60.6645,477.7937],[5.6776,60.6655,324.8111],[5.6736,60.6743,255.0966],[5.6647,60.6733,434.6417],[5.6627,60.6777,320.502],[5.6716,60.6786,114.0825],[5.6657,60.6918,232.4822],[5.6693,60.6922,145.6781],[5.6682,60.6953,95.4624],[5.6563,60.7021,168.7753],[5.6438,60.7021,106.9535],[5.6396,60.7,160.4606],[5.6333,60.7,90.73],[5.6276,60.6974,150.1516],[5.6266,60.6943,224.9191],[5.613,60.6891,218.2642],[5.613,60.6859,182.5817],[5.6146,60.6854,197.0583],[5.6271,60.6854,0.0],[5.6297,60.6891,17.1741],[5.6375,60.6896,49.1845],[5.6411,60.687,0.0],[5.6417,60.6833,191.4167],[5.6411,60.6818,168.5197],[5.6276,60.6745,187.6098],[5.6266,60.6714,266.2075],[5.613,60.6661,53.3906],[5.6203,60.662,36.4984],[5.6203,60.6589,127.73],[5.613,60.6557,32.8906],[5.6099,60.6505,0.0],[5.6026,60.6474,0.0],[5.6005,60.6422,6.4924],[5.6042,60.6396,226.918],[5.6005,60.637,257.6822],[5.5995,60.6339,214.3213],[5.5901,60.6307,207.7956],[5.5896,60.625,74.7495],[5.5932,60.6214,64.137],[5.5854,60.6188,5.8477],[5.5729,60.6188,31.94],[5.5661,60.6151,32.3951],[5.5589,60.6141,60.4917],[5.5542,60.6104,0.0],[5.55,60.6104,40.6271],[5.5458,60.6125,91.6376],[5.5292,60.6125,17.6472],[5.525,60.6104,89.4332],[5.5068,60.6099,9.2323],[5.5026,60.6078,26.2087],[5.5005,60.6047,0.0],[5.512,60.6036,2.8079],[5.512,60.5964,2.5427],[5.4979,60.6,20.6226],[5.4839,60.5995,43.055],[5.4828,60.5964,50.3967],[5.4776,60.5953,0.0],[5.4807,60.5922,93.6222],[5.4776,60.5911,115.1034],[5.4771,60.5854,52.8491],[5.4745,60.5797,0.0],[5.4714,60.5797,0.0],[5.4646,60.5833,0.0],[5.4589,60.5807,15.1382],[5.462,60.5786,11.2262],[5.462,60.5755,0.0],[5.4563,60.5729,11.4343],[5.4484,60.5724,0.0],[5.4474,60.5693,0.0],[5.4437,60.5667,32.949],[5.4443,60.563,17.8394],[5.4474,60.562,38.4619],[5.4464,60.5589,0.0],[5.4578,60.5536,0.0],[5.4589,60.5484,0.0],[5.4641,60.5453,0.0],[5.4641,60.5422,0.0],[5.4609,60.5422,0.0],[5.4526,60.5464,0.0],[5.4536,60.5495,0.0],[5.4464,60.5526,0.0],[5.4453,60.5557,0.0],[5.4411,60.5578,0.0],[5.4313,60.5604,2.435],[5.4229,60.5604,0.0],[5.413,60.5578,28.7537],[5.4063,60.5542,0.0],[5.3958,60.5542,0.0],[5.3891,60.5505,17.7797],[5.3792,60.5479,60.3237],[5.3583,60.5479,0.0],[5.3542,60.5458,6.0124],[5.3479,60.5458,0.0],[5.3417,60.5396,0.0],[5.3458,60.5354,56.3561],[5.3443,60.5318,0.0],[5.3542,60.5271,0.0],[5.3599,60.5266,53.5443],[5.3609,60.5234,0.0],[5.3833,60.5187,0.0],[5.3896,60.5146,0.0],[5.3995,60.5141,22.1299],[5.4036,60.512,0.0],[5.4047,60.5068,53.6874],[5.4104,60.5042,30.2372],[5.4146,60.5042,53.9979],[5.4187,60.5021,0.0],[5.4245,60.5036,0.0],[5.4229,60.4979,0.0],[5.4266,60.4953,7.0823],[5.4276,60.4901,72.8413],[5.438,60.4839,0.0],[5.4437,60.4833,79.1531],[5.4495,60.4807,0.0],[5.4505,60.4776,51.5981],[5.4536,60.4766,58.8235],[5.4568,60.4714,0.0],[5.4667,60.4667,0.0],[5.4724,60.4661,16.0302],[5.4734,60.4609,32.0915],[5.4953,60.4516,8.3011],[5.4964,60.4484,11.0295],[5.5062,60.4437,0.0],[5.5161,60.4432,19.1601],[5.5193,60.4401,0.0],[5.5266,60.437,0.0],[5.5276,60.4318,0.0],[5.5333,60.4292,23.5409],[5.5458,60.4292,0.0],[5.5557,60.4318,0.0],[5.5625,60.4354,0.0],[5.5792,60.4354,0.0],[5.5833,60.4375,0.0],[5.5937,60.4375,0.0],[5.5979,60.4354,0.0],[5.6078,60.4359,0.0],[5.612,60.4381,0.0],[5.6089,60.4411,13.5537],[5.6161,60.4443,0.0],[5.6193,60.4495,0.0],[5.6266,60.4547,0.0],[5.6297,60.4599,0.0],[5.637,60.4609,0.0],[5.6411,60.463,0.0],[5.6422,60.4661,0.0],[5.6557,60.4693,0.0],[5.6568,60.4724,0.0],[5.6641,60.4734,0.0],[5.6651,60.4766,0.0],[5.675,60.4792,0.0],[5.6776,60.4755,0.0],[5.6875,60.4729,0.0],[5.7042,60.4729,0.0],[5.7099,60.4714,0.0],[5.7125,60.4771,0.0],[5.7125,60.4854,0.0],[5.7099,60.4953,0.0],[5.7063,60.4979,0.0],[5.7083,60.5021,0.0],[5.7078,60.5078,0.0],[5.7042,60.5104,41.7604],[5.7047,60.512,43.1177],[5.7125,60.5125,0.0],[5.7141,60.5141,0.0],[5.7083,60.5167,0.0],[5.7026,60.5172,31.871],[5.7021,60.5229,0.0],[5.7036,60.526,0.0]]]]}
,"properties": {"GID_2": "NOR.7.23_1","GID_0": "NOR","country": "Norway","GID_1": "NOR.7_1","province": "Hordaland","NL_NAME_1": "NA","county": "Osterøy","VARNAME_2": "NA","NL_NAME_2": "NA","TYPE_2": "Kommuner","ENGTYPE_2": "Municipality","CC_2": "NA","HASC_2": "NO.HO.OT","name": "Osterøy.county","area_km2": 271.2851,"hist_schema_id": "Elevation0-9000","hist_area_km2": {"0": 8.9752,"25": 11.7496,"50": 14.2254,"75": 14.1521,"100": 13.8154,"125": 13.3443,"150": 23.7457,"175": 18.0347,"200": 14.4933,"225": 14.0783,"250": 12.4742,"275": 10.7915,"300": 9.677,"325": 9.8992,"350": 8.8353,"375": 7.8341,"400": 7.1464,"425": 6.6772,"450": 6.5192,"475": 6.1844,"500": 6.2783,"525": 5.8928,"550": 4.7769,"575": 3.8076,"600": 4.4222,"625": 3.2639,"650": 2.9393,"675": 2.261,"700": 1.959,"725": 1.6671,"750": 0.5731,"775": 0.2293,"800": 0.177,"825": 0.1874,"850": 0.1978}}}