{"type":"Feature","properties":{"featurecla":"River","scalerank":6,"rivernum":276,"dissolve":"276River","name":"Vorma10","name_alt":null,"note":null,"min_zoom":5.0,"strokeweig":0.3,"name_en":"Vorma","min_label":6.0},
"geometry":{"type": "LineString","coordinates": [[11.216064453125,59.65180084843162,175.5978],[11.1826171875,59.65375397343162,103.6628],[11.16552734375,59.64423248905662,103.7781],[11.135498046875,59.61456940311912,79.5],[11.103515625,59.59808991093162,110.5116],[11.0966796875,59.58771393436912,93.5144],[11.101318359375,59.566766668744123,96.116],[11.128173828125,59.54645416874412,97.0145],[11.210693359375,59.503924871869117,53.0607],[11.218017578125,59.48480866093162,41.3425]]}}