{"type":"Feature","properties":{"featurecla":"Lake Centerline","scalerank":6,"rivernum":276,"dissolve":"276Lake Centerline","name":"Vorma7","name_alt":null,"note":null,"min_zoom":5.0,"strokeweig":0.3,"name_en":"Vorma","min_label":6.0},
"geometry":{"type": "LineString","coordinates": [[11.170166015625,59.38861725468162,132.43],[11.171777343750023,59.40436432499412,61.0844],[11.174462890625023,59.41596100468162,129.3504],[11.200439453125,59.451922918744117,59.306],[11.213037109375023,59.47308991093162,34.4113],[11.218017578125,59.48480866093162,41.3425]]}}