{"type": "Feature","bbox": [5.5381,58.4688,5.9571,58.704],"geometry": {"type": "MultiPolygon","coordinates": [[[[5.8503,58.474,0.735],[5.8442,58.4724,0.0],[5.8425,58.4688,0.0],[5.8503,58.4715,0.0],[5.8503,58.474,0.735]]],
[[[5.7792,58.5204,0.0],[5.7764,58.5207,0.0],[5.7736,58.5196,0.0],[5.7781,58.519,1.1596],[5.7792,58.5204,0.0]]],
[[[5.7053,58.5285,0.2803],[5.7025,58.5282,0.0],[5.7036,58.526,0.0],[5.7064,58.5268,0.0],[5.7053,58.5285,0.2803]]],
[[[5.9109,58.6266,345.86],[5.9091,58.631,396.3474],[5.8922,58.6291,373.7693],[5.894,58.6247,341.6411],[5.8855,58.6238,353.0986],[5.8873,58.6194,282.4865],[5.8282,58.6128,276.3525],[5.8246,58.6215,303.4908],[5.833,58.6225,320.8206],[5.8294,58.6312,261.048],[5.8209,58.6303,254.487],[5.8191,58.6347,245.1278],[5.8107,58.6337,242.0],[5.8088,58.6381,261.0784],[5.8004,58.6371,242.0],[5.7986,58.6415,244.6378],[5.7901,58.6406,257.0233],[5.7883,58.6449,256.7159],[5.7714,58.643,244.2331],[5.7677,58.6518,244.0595],[5.7593,58.6508,229.69],[5.7538,58.664,175.4186],[5.7622,58.6649,177.38],[5.7586,58.6737,165.2338],[5.7549,58.6824,105.1949],[5.7465,58.6815,99.1693],[5.7446,58.6859,78.6029],[5.7277,58.684,52.0837],[5.7332,58.6708,140.2131],[5.7163,58.6689,137.7547],[5.7126,58.6776,63.7737],[5.7042,58.6767,71.1386],[5.7023,58.6811,39.6372],[5.6939,58.6801,45.7548],[5.692,58.6845,32.0622],[5.6836,58.6835,30.693],[5.6817,58.6879,31.8638],[5.6733,58.6869,23.416],[5.6696,58.6957,21.7472],[5.6442,58.6928,13.3863],[5.6405,58.7016,19.505],[5.6236,58.6996,26.9165],[5.6218,58.704,17.4309],[5.5964,58.7011,8.3],[5.5982,58.6967,29.4362],[5.5813,58.6948,0.8485],[5.5795,58.6992,5.2843],[5.5442,58.6951,0.0],[5.5442,58.6932,0.0],[5.552,58.6902,0.0],[5.5525,58.6876,1.0188],[5.5497,58.6865,1.7256],[5.5503,58.6849,4.0913],[5.5486,58.6835,2.7429],[5.5381,58.6832,0.0],[5.5481,58.6813,1.0454],[5.5481,58.6793,1.1425],[5.5431,58.6771,0.0],[5.5447,58.6729,1.8859],[5.5408,58.669,0.1028],[5.5447,58.6693,0.5978],[5.5447,58.6671,1.3112],[5.5486,58.6638,0.0],[5.5531,58.6629,0.3022],[5.5531,58.6601,6.4311],[5.5503,58.6576,0.476],[5.5564,58.6557,3.6753],[5.5581,58.6529,0.0],[5.5658,58.6529,0.3156],[5.5653,58.6507,0.7859],[5.5725,58.6488,8.862],[5.5731,58.6443,0.308],[5.5869,58.6399,0.0],[5.5858,58.6351,0.097],[5.5869,58.6329,0.0],[5.6003,58.6201,0.0],[5.6036,58.6188,2.1872],[5.6281,58.5932,0.0],[5.6403,58.5849,0.6315],[5.6453,58.5779,2.8874],[5.6458,58.5743,0.0],[5.6514,58.5701,0.0],[5.6503,58.5657,0.1438],[5.6542,58.5635,1.8864],[5.6553,58.5588,0.896],[5.6619,58.5529,0.236],[5.6681,58.5493,0.4424],[5.6781,58.5483,0.1853],[5.6803,58.5471,0.1853],[5.6797,58.544,0.0],[5.6819,58.5415,0.0],[5.6919,58.5393,0.5048],[5.6925,58.5376,0.0],[5.6969,58.536,0.9205],[5.7242,58.5351,0.0],[5.7308,58.5374,0.0],[5.7397,58.5368,0.0],[5.7714,58.529,3.3475],[5.7736,58.5274,1.5818],[5.7736,58.5254,0.0],[5.7797,58.5235,1.9158],[5.7803,58.521,0.0],[5.7825,58.5196,0.3433],[5.7819,58.5182,0.0],[5.7903,58.5174,3.2248],[5.7908,58.5157,0.0],[5.7953,58.5143,3.3332],[5.7953,58.5099,5.9002],[5.7886,58.5085,0.0],[5.7892,58.5051,1.3154],[5.7847,58.5032,0.0],[5.7847,58.4987,1.761],[5.7825,58.4985,1.761],[5.7836,58.4957,0.5054],[5.7897,58.4946,0.3867],[5.7886,58.4915,0.0],[5.7958,58.4893,0.171],[5.8019,58.4899,1.0991],[5.8047,58.4871,0.6666],[5.8086,58.4879,0.0],[5.8086,58.4851,0.0],[5.8114,58.484,0.0],[5.8103,58.4824,0.0],[5.8158,58.4804,0.0],[5.8181,58.4807,0.0],[5.8164,58.4824,0.0],[5.8181,58.4826,0.0],[5.8181,58.4843,0.0],[5.8242,58.4843,2.2287],[5.8242,58.4821,0.0],[5.8219,58.4821,0.0],[5.8214,58.4799,0.0],[5.8253,58.4785,0.0],[5.8336,58.4818,0.5057],[5.8375,58.4807,6.4465],[5.8442,58.4815,0.0],[5.8475,58.4749,0.427],[5.8569,58.4757,1.8499],[5.8569,58.4801,5.6925],[5.8655,58.4796,1.2542],[5.8584,58.4969,72.1403],[5.8668,58.4979,62.644],[5.8632,58.5066,82.7034],[5.8716,58.5076,92.2712],[5.868,58.5164,67.7128],[5.8849,58.5183,92.9779],[5.8813,58.527,118.336],[5.9318,58.5327,156.3212],[5.93,58.5371,163.7769],[5.9344,58.5376,171.3307],[5.9469,58.539,198.2678],[5.9487,58.5346,197.8591],[5.9571,58.5355,205.5416],[5.9517,58.5487,150.7417],[5.9349,58.5468,109.9795],[5.9331,58.5512,128.2434],[5.9246,58.5502,156.3461],[5.9228,58.5546,169.8805],[5.906,58.5527,208.4342],[5.9042,58.5571,256.4007],[5.8957,58.5562,231.4975],[5.8903,58.5693,195.7711],[5.8988,58.5703,173.6183],[5.897,58.5746,212.2857],[5.9054,58.5756,194.4707],[5.9018,58.5844,211.6918],[5.9102,58.5853,270.8626],[5.9066,58.5941,216.1038],[5.9151,58.595,238.3552],[5.9078,58.6125,225.5722],[5.9163,58.6135,259.6446],[5.9145,58.6179,235.9277],[5.906,58.6169,223.0858],[5.9024,58.6257,393.5104],[5.9109,58.6266,345.86]]]]}
,"properties": {"GID_2": "NOR.13.7_1","GID_0": "NOR","country": "Norway","GID_1": "NOR.13_1","province": "Rogaland","NL_NAME_1": "NA","county": "Hå","VARNAME_2": "NA","NL_NAME_2": "NA","TYPE_2": "Kommuner","ENGTYPE_2": "Municipality","CC_2": "NA","HASC_2": "NO.RO.HA","name": "Hå.county","area_km2": 275.5911,"hist_schema_id": "Elevation0-9000","hist_area_km2": {"0": 34.7115,"25": 54.1286,"50": 31.2881,"75": 22.2786,"100": 16.7352,"125": 17.6262,"150": 19.5323,"175": 19.7309,"200": 18.8576,"225": 16.3665,"250": 14.6739,"275": 4.7813,"300": 2.9592,"325": 1.1925,"350": 0.1656,"375": 0.1876,"400": 0.3642,"425": 0.011}}}