{"type":"Feature","properties":{"GID_2":"NOR.4.16_1","GID_0":"NOR","country":"Norway","GID_1":"NOR.4_1","province":"Buskerud","NL_NAME_1":"NA","county":"NoreogUvdal","VARNAME_2":"NA","NL_NAME_2":"NA","TYPE_2":"Kommuner","ENGTYPE_2":"Municipality","CC_2":"NA","HASC_2":"NO.BU.NU","name":"Noreog_Uvdal.county"},
"geometry":{"type": "MultiPolygon","coordinates": [[[[7.4948941176470578,60.098841176470586,1414.0504],[7.4952,60.098,1429.442],[7.4958,60.0967,1345.3029],[7.4948941176470578,60.098841176470586,1414.0504]]],
[[[7.4948,60.0991,1414.0504],[7.4947,60.0993,1414.0504],[7.4948941176470578,60.098841176470586,1414.0504],[7.4948,60.0991,1414.0504]]],
[[[8.4769,60.4852,922.3324],[8.4679,60.4844,1050.6168],[8.4695,60.48,901.8386],[8.4785,60.4808,949.4587],[8.4801,60.4764,779.0494],[8.4981,60.4779,747.5],[8.4997,60.4735,790.3466],[8.5446,60.4774,747.5],[8.5462,60.473,747.5],[8.5552,60.4737,747.5],[8.5583,60.4649,747.5],[8.5673,60.4657,747.5],[8.5689,60.4613,747.5],[8.5779,60.462,747.5],[8.581,60.4532,763.8876],[8.59,60.454,747.5],[8.5916,60.4496,747.5],[8.6005,60.4503,747.5],[8.6021,60.4459,747.5],[8.6111,60.4467,747.5],[8.6127,60.4423,747.5],[8.6216,60.443,747.5],[8.6232,60.4386,747.5],[8.6052,60.4371,766.5674],[8.6068,60.4327,752.475],[8.5799,60.4303,798.0272],[8.5814,60.4259,785.7797],[8.5725,60.4251,785.5826],[8.5756,60.4163,854.0195],[8.5666,60.4155,823.1675],[8.5698,60.4067,967.7659],[8.5518,60.4051,905.4366],[8.5534,60.4007,930.8408],[8.5355,60.3992,931.0066],[8.5339,60.4036,911.4475],[8.507,60.4013,1016.0372],[8.5054,60.4057,906.8677],[8.4785,60.4033,929.045],[8.4801,60.3989,1000.2245],[8.4532,60.3966,946.5057],[8.4548,60.3922,1015.7047],[8.4279,60.3898,1012.0845],[8.4295,60.3854,1113.1639],[8.3847,60.3815,998.2847],[8.3863,60.3771,1051.7627],[8.2967,60.3692,1212.7065],[8.2999,60.3604,1187.8079],[8.2283,60.354,1174.7041],[8.2267,60.3584,1180.264],[8.2088,60.3568,1132.3535],[8.2104,60.3524,1130.072],[8.1657,60.3484,1219.8284],[8.1673,60.344,1182.7286],[8.1405,60.3416,1152.5071],[8.1389,60.346,1141.5421],[8.1299,60.3452,1112.3536],[8.1283,60.3496,1078.0577],[8.1104,60.348,1022.4099],[8.1088,60.3524,1046.1172],[8.1177,60.3532,1011.0506],[8.1161,60.3576,1029.9562],[8.1251,60.3584,997.41],[8.1234,60.3629,970.9558],[8.1145,60.3621,983.2427],[8.1129,60.3665,1001.6476],[8.095,60.3649,1023.3039],[8.0966,60.3604,1022.2173],[8.0698,60.358,1046.8008],[8.0714,60.3536,1036.5839],[8.0624,60.3528,1069.821],[8.0641,60.3484,1055.1064],[8.0462,60.3468,1100.5093],[8.0446,60.3512,1254.9348],[8.0356,60.3504,1189.2762],[8.0323,60.3592,1271.4271],[8.0413,60.36,1247.4664],[8.0396,60.3644,1258.4138],[8.0486,60.3652,1210.5829],[8.0453,60.3741,1292.8344],[8.0543,60.3749,1325.3732],[8.0526,60.3793,1362.4907],[8.0437,60.3785,1271.4073],[8.042,60.3829,1203.4462],[8.0241,60.3813,1179.7982],[8.0225,60.3857,1166.3872],[8.0046,60.3841,1220.4108],[8.0029,60.3885,1185.249],[7.994,60.3877,1199.2129],[7.9923,60.3921,1191.4496],[7.9744,60.3904,1251.2108],[7.9728,60.3948,1203.5956],[7.9638,60.394,1261.8333],[7.9622,60.3984,1220.0264],[7.8995,60.3927,1224.1841],[7.9012,60.3883,1234.3898],[7.8296,60.3818,1115.2561],[7.8313,60.3773,1159.0724],[7.7687,60.3716,1127.2954],[7.767,60.376,1127.4285],[7.758,60.3752,1127.4595],[7.7564,60.3796,1127.3608],[7.7474,60.3787,1127.5623],[7.7457,60.3831,1130.2893],[7.7368,60.3823,1127.4908],[7.7351,60.3867,1127.4572],[7.7262,60.3859,1127.538],[7.7228,60.3947,1127.2822],[7.7138,60.3939,1127.9615],[7.7122,60.3983,1127.3011],[7.7032,60.3974,1127.4684],[7.6998,60.4063,1127.4794],[7.6909,60.4054,1146.5544],[7.6892,60.4098,1147.4519],[7.6803,60.409,1169.2988],[7.687,60.3914,1137.8938],[7.6781,60.3905,1156.3621],[7.6848,60.3729,1190.6719],[7.6759,60.3721,1180.3723],[7.6843,60.35,1156.0981],[7.6754,60.3492,1164.7214],[7.6821,60.3316,1333.4473],[7.6732,60.3308,1336.6984],[7.6799,60.3131,1325.9049],[7.671,60.3123,1365.392],[7.6778,60.2947,1308.6089],[7.6688,60.2938,1276.0833],[7.6705,60.2894,1228.6786],[7.6616,60.2886,1216.0496],[7.6632999999999996,60.2842,1218.0667],[7.6544,60.2834,1227.2499],[7.6561,60.2789,1231.1514],[7.6471,60.2781,1221.2394],[7.6488,60.2737,1216.8475],[7.6399,60.2729,1215.0261],[7.6433,60.2641,1214.2117],[7.6344,60.2632,1213.5438],[7.6361,60.2588,1217.073],[7.6272,60.258,1221.2518],[7.6289,60.2536,1218.1384],[7.6199,60.2527,1217.512],[7.6216,60.2483,1218.9729],[7.6127,60.2475,1220.1537],[7.6144,60.2431,1215.2104],[7.6055,60.2422,1222.6564],[7.6089,60.2334,1225.5699],[7.6,60.2326,1234.7667],[7.6051,60.2194,1259.7867],[7.5962,60.2185,1247.2393],[7.5995,60.2097,1239.6016],[7.5907,60.2089,1235.8496],[7.5957,60.1957,1236.3711],[7.5868,60.1948,1236.5402],[7.5902,60.186,1225.3876],[7.5813,60.1852,1229.4175],[7.5847,60.1764,1354.6837],[7.5758,60.1755,1324.1566],[7.5775,60.1711,1353.9921],[7.5686,60.1703,1306.7078],[7.572,60.1615,1223.8046],[7.5631,60.1606,1259.6553],[7.5648,60.1562,1265.3494],[7.5559,60.1554,1287.0475],[7.5576,60.151,1263.1152],[7.5487,60.1501,1257.3275],[7.5504,60.1457,1253.8746],[7.5416,60.1449,1259.4127],[7.5432,60.1405,1258.6061],[7.5344,60.1396,1260.6409],[7.5361,60.1352,1262.9233],[7.5272,60.1344,1261.2163],[7.5306,60.1256,1294.1036],[7.5217,60.1247,1321.5425],[7.5234,60.1203,1307.9114],[7.5145,60.1195,1308.6034],[7.5162,60.1151,1301.4132],[7.5074,60.1143,1302.0118],[7.5091,60.1098,1345.5699],[7.5002,60.109,1354.5991],[7.5019,60.1046,1386.6307],[7.493,60.1038,1385.9872],[7.4947,60.0993,1414.0504],[7.5213,60.1019,1328.7162],[7.5196,60.1063,1322.9259],[7.5817,60.1122,1241.8215],[7.58,60.1166,1242.803],[7.6332,60.1216,1291.5874],[7.6315,60.126,1305.4656],[7.6582,60.1285,1370.7904],[7.6598,60.1241,1385.8839],[7.6865,60.1266,1319.9852],[7.6881,60.1222,1350.0619],[7.7059,60.1239,1290.8009],[7.7075,60.1195,1348.8774],[7.7342,60.1219,1223.236],[7.7358,60.1175,1226.5476],[7.7536,60.1192,1247.4258],[7.7552,60.1148,1287.5529],[7.773,60.1164,1300.3809],[7.7746,60.112,1277.3575],[7.7835,60.1129,1271.6648],[7.7852,60.1085,1286.3705],[7.794,60.1093,1260.7742],[7.7957,60.1049,1259.3394],[7.8312,60.1082,1282.6007],[7.8295,60.1126,1336.436],[7.8562,60.115,1266.495],[7.8545,60.1194,1296.2119],[7.8723,60.1211,1258.0964],[7.8706,60.1255,1251.9487],[7.8972,60.128,1286.0446],[7.8956,60.1324,1300.6914],[7.9134,60.134,1347.287],[7.9117,60.1384,1399.4198],[7.9473,60.1417,1335.9974],[7.9456,60.1461,1371.2573],[7.9901,60.1502,1335.6646],[7.9884,60.1546,1340.52],[8.0329,60.1586,1335.5352],[8.0312,60.163,1342.4824],[8.0935,60.1687,1351.1273],[8.0919,60.1731,1278.9762],[8.1008,60.1739,1250.8085],[8.0991,60.1783,1188.6809],[8.1169,60.1799,1163.0898],[8.1153,60.1843,1127.5896],[8.1331,60.1859,1120.7224],[8.1315,60.1903,1144.3606],[8.1404,60.1911,1141.3229],[8.1388,60.1956,1214.5386],[8.1566,60.1972,1131.4703],[8.1582,60.1927,1127.535],[8.2027,60.1967,1243.1295],[8.2043,60.1923,1225.835],[8.2311,60.1947,1214.822],[8.2343,60.1859,1189.8384],[8.2432,60.1867,1187.9082],[8.2448,60.1823,1182.1216],[8.2537,60.1831,1188.1257],[8.2553,60.1787,1197.2167],[8.2642,60.1794,1227.4922],[8.2658,60.175,1289.7693],[8.2747,60.1758,1310.3236],[8.2763,60.1714,1344.8098],[8.2852,60.1722,1343.4174],[8.2867,60.1678,1338.3745],[8.3223,60.171,1388.3529],[8.3239,60.1665,1398.2117],[8.3862,60.172,1290.0312],[8.3878,60.1676,1284.6097],[8.4323,60.1716,1265.0054],[8.4339,60.1671,1259.0381],[8.4517,60.1687,1263.2137],[8.4533,60.1643,1280.6648],[8.5423,60.1721,1277.8468],[8.5439,60.1676,1270.8446],[8.6062,60.173,1174.8151],[8.6078,60.1686,1171.546],[8.679,60.1748,1337.7965],[8.6806,60.1704,1372.368],[8.7429,60.1757,1370.2156],[8.7445,60.1713,1313.4445],[8.7623,60.1728,1233.3663],[8.7653,60.164,1215.693],[8.7742,60.1647,1212.7784],[8.7758,60.1603,1212.7018],[8.7847,60.1611,1212.7651],[8.7862,60.1566,1212.8723],[8.804,60.1581,1213.2875],[8.8055,60.1537,1212.755],[8.8234,60.1552,1230.8448],[8.8264,60.1464,1222.0707],[8.8353,60.1472,1257.9493],[8.8368,60.1427,1230.6704],[8.8457,60.1435,1245.3226],[8.8472,60.1391,1240.329],[8.8561,60.1398,1242.4347],[8.8577,60.1354,1244.7692],[8.8666,60.1361,1240.7903],[8.8681,60.1317,1235.3674],[8.877,60.1325,1227.3567],[8.8785,60.1281,1212.7047],[8.8963,60.1296,1196.668],[8.8978,60.1251,1180.7444],[8.9067,60.1259,1171.9869],[8.9097,60.117,1262.4781],[8.9186,60.1178,1309.4716],[8.9201,60.1134,1336.9937],[8.929,60.1141,1284.7267],[8.932,60.1053,1245.3193],[8.9409,60.106,1168.2258],[8.9439,60.0972,1168.6519],[8.9528,60.0979,1145.6598],[8.9573,60.0846,1065.9513],[8.9662,60.0854,1118.2323],[8.9692,60.0765,1118.6958],[8.987,60.078,1246.8339],[8.9885,60.0736,1238.3301],[9.0151,60.0758,1059.5535],[9.0166,60.0714,1003.1717],[9.0433,60.0736,898.3615],[9.0448,60.0692,893.3008],[9.0626,60.0707,861.9221],[9.0611,60.0751,831.3682],[9.0789,60.0766,721.3309],[9.0759,60.0855,316.4296],[9.0848,60.0862,263.0],[9.0833,60.0906,339.9478],[9.0922,60.0914,398.9895],[9.0892,60.1002,799.5977],[9.0981,60.1009,797.8833],[9.0967,60.1054,899.9499],[9.1056,60.1061,816.0436],[9.1041,60.1105,771.3743],[9.113,60.1113,487.6985],[9.1115,60.1157,538.8962],[9.1204,60.1164,460.1243],[9.1189,60.1209,451.4535],[9.1278,60.1216,413.8542],[9.1263,60.126,468.6638],[9.1353,60.1268,452.2708],[9.1338,60.1312,465.6156],[9.1516,60.1327,589.5971],[9.1501,60.1371,579.3578],[9.2036,60.1415,833.2382],[9.2021,60.1459,759.0705],[9.2199,60.1474,783.0064],[9.2185,60.1518,719.5086],[9.2095,60.1511,769.1893],[9.2022,60.1732,839.7297],[9.1933,60.1725,803.4501],[9.1874,60.1902,831.6334],[9.1785,60.1894,927.2609],[9.1652,60.2293,847.5249],[9.1741,60.23,893.0493],[9.1667,60.2521,927.2773],[9.1757,60.2529,969.1606],[9.1683,60.275,1057.8271],[9.1772,60.2757,1067.772],[9.1743,60.2846,972.5721],[9.1653,60.2838,983.0693],[9.1609,60.2971,1010.744],[9.1519,60.2964,1071.4962],[9.1504,60.3008,1074.7679],[9.1415,60.3001,986.6423],[9.134,60.3222,1072.9886],[9.1251,60.3215,1088.7623],[9.1221,60.3303,1090.0192],[9.1311,60.3311,1090.7122],[9.1251,60.3488,1027.7743],[9.1341,60.3495,1011.9603],[9.1326,60.3539,1028.8314],[9.1505,60.3554,1085.2051],[9.1446,60.3731,1155.9517],[9.1356,60.3724,1226.7097],[9.1341,60.3768,1242.0673],[9.1251,60.3761,1201.9321],[9.1236,60.3805,1269.0282],[9.1147,60.3797,1183.2614],[9.1132,60.3842,1245.6216],[9.1042,60.3834,1196.1134],[9.1027,60.3879,1211.3568],[9.0937,60.3871,1176.8971],[9.0907,60.396,1190.5188],[9.0817,60.3952,1238.7417],[9.0802,60.3997,1190.7394],[9.0713,60.3989,1277.0903],[9.0698,60.4033,1265.1227],[9.0608,60.4026,1279.5386],[9.0593,60.407,1277.6115],[9.0503,60.4063,1262.5016],[9.0488,60.4107,1257.7474],[9.0398,60.41,1265.5265],[9.0368,60.4188,1186.3539],[9.0278,60.4181,1149.4062],[9.0263,60.4225,1151.2836],[9.0173,60.4218,1145.359],[9.0158,60.4262,1169.1158],[9.0068,60.4254,1176.4874],[9.0038,60.4343,1144.3423],[8.9948,60.4335,1154.3176],[8.9933,60.438,1153.3926],[8.9843,60.4372,1167.8348],[8.9828,60.4416,1198.4794],[8.9738,60.4409,1185.8972],[8.9723,60.4453,1187.2731],[8.9543,60.4438,1126.6681],[8.9528,60.4482,1132.7183],[8.9258,60.446,1164.7441],[8.9243,60.4504,1174.2253],[8.9153,60.4497,1132.7939],[8.9138,60.4541,1071.3604],[8.9048,60.4533,1055.7479],[8.9033,60.4578,1073.9327],[8.8853,60.4563,995.5722],[8.8838,60.4607,983.4844],[8.8748,60.4599,981.6034],[8.8733,60.4644,977.534],[8.8643,60.4636,968.3832],[8.8627,60.468,965.088],[8.8447,60.4665,912.7542],[8.8432,60.4709,911.3248],[8.8342,60.4702,888.4046],[8.8327,60.4746,875.9849],[8.8237,60.4739,858.4741],[8.8221,60.4783,855.5178],[8.8132,60.4775,842.1603],[8.8116,60.4819,841.7834],[8.8026,60.4812,845.8914],[8.8011,60.4856,864.5045],[8.7831,60.4841,877.8967],[8.7815,60.4885,866.476],[8.7725,60.4877,876.6694],[8.771,60.4922,888.6812],[8.762,60.4914,882.7855],[8.7604,60.4958,962.4119],[8.7515,60.4951,983.8818],[8.7499,60.4995,991.2156],[8.7319,60.498,1022.8904],[8.7303,60.5024,1028.1797],[8.7213,60.5016,1050.8494],[8.7198,60.506,1040.3232],[8.7108,60.5053,1050.4738],[8.7092,60.5097,1041.8856],[8.6912,60.5082,1090.3737],[8.6897,60.5126,1064.6499],[8.6537,60.5095,1014.8329],[8.6552,60.5051,1007.5819],[8.6282,60.5028,952.5],[8.6298,60.4984,952.5],[8.6208,60.4976,1009.295],[8.6192,60.502,952.5],[8.6103,60.5013,952.5],[8.6087,60.5057,952.5],[8.5997,60.5049,952.5],[8.5981,60.5093,952.5],[8.5801,60.5078,1038.2102],[8.5785,60.5122,952.5],[8.5695,60.5114,952.5],[8.5711,60.507,990.622],[8.5441,60.5047,967.0679],[8.5457,60.5003,935.5015],[8.5187,60.4979,1012.4811],[8.5203,60.4935,914.7723],[8.4933,60.4912,851.3106],[8.4949,60.4868,795.1602],[8.4769,60.4852,922.3324]]]]}}