{"type":"Feature","properties":{"GID_2":"NOR.2.1_1","GID_0":"NOR","country":"Norway","GID_1":"NOR.2_1","province":"Ãstfold","NL_NAME_1":"NA","county":"Aremark","VARNAME_2":"NA","NL_NAME_2":"NA","TYPE_2":"Kommuner","ENGTYPE_2":"Municipality","CC_2":"NA","HASC_2":"NO.OF.AR","name":"Aremark.county"},
"geometry":{"type": "MultiPolygon","coordinates": [[[[11.5697,59.318,159.1164],[11.5786,59.2824,216.7048],[11.5699,59.2818,214.3954],[11.5721,59.2729,219.3814],[11.5634,59.2723,236.7545],[11.5656,59.2634,243.5816],[11.5569,59.2628,253.8016],[11.5635,59.2361,213.518],[11.5548,59.2356,218.8567],[11.5559,59.2311,221.7693],[11.5646,59.2317,217.2832],[11.5691,59.2139,218.475],[11.5778,59.2144,218.5401],[11.5811,59.2011,196.8612],[11.5724,59.2005,177.639],[11.5757,59.1872,192.979],[11.5844,59.1877,155.0956],[11.5855,59.1833,131.3044],[11.5942,59.1838,133.2517],[11.5964,59.1749,138.4698],[11.6052,59.1755,152.5151],[11.6063,59.171,165.1621],[11.615,59.1716,181.568],[11.6172,59.1627,180.3649],[11.6259,59.1633,187.5531],[11.6313,59.141,137.198],[11.6227,59.1404,166.4303],[11.6271,59.1226,151.4781],[11.6357,59.1232,176.4042],[11.6368,59.1187,177.1872],[11.6455,59.1193,182.948],[11.6499,59.1015,194.2797],[11.6586,59.1021,183.0652],[11.6597,59.0976,180.757],[11.6684,59.0982,183.2328],[11.6749,59.0715,195.256],[11.6662,59.0709,175.4859],[11.6695,59.0575,168.0],[11.6608,59.057,206.9778],[11.6619,59.0525,209.1623],[11.6706,59.0531,197.4099],[11.6717,59.0486,210.6606],[11.6803,59.0492,170.845],[11.6825,59.0403,216.286],[11.6912,59.0408,170.6926],[11.6923,59.0364,164.0],[11.7009,59.0369,164.0],[11.7031,59.028,164.0],[11.7118,59.0286,164.0],[11.7107,59.0331,164.0],[11.7194,59.0336,183.7316],[11.7183,59.0381,164.0],[11.7269,59.0386,229.9401],[11.7259,59.0431,165.6166],[11.7345,59.0436,224.4604],[11.7324,59.0526,224.6027],[11.741,59.0531,205.3006],[11.74,59.0576,202.7013],[11.7486,59.0581,232.9843],[11.7465,59.067,211.9212],[11.7552,59.0676,196.5594],[11.7541,59.072,171.8412],[11.7628,59.0726,185.2912],[11.7617,59.0771,174.7134],[11.7704,59.0776,173.9669],[11.7682,59.0865,179.7998],[11.7769,59.0871,130.4426],[11.7747,59.096,144.9263],[11.7834,59.0965,129.7186],[11.7813,59.1054,148.6434],[11.7726,59.1049,126.6787],[11.7704,59.1138,145.8184],[11.7617,59.1132,140.0373],[11.7606,59.1177,129.5307],[11.7693,59.1183,160.2381],[11.7672,59.1272,152.3233],[11.7759,59.1277,170.4395],[11.7737,59.1366,146.3755],[11.7824,59.1372,156.7804],[11.7727,59.1773,187.0967],[11.7814,59.1778,207.6801],[11.7781,59.1912,217.7737],[11.7869,59.1917,192.5702],[11.7825,59.2096,201.8633],[11.7912,59.2101,194.2489],[11.7902,59.2146,170.8631],[11.7989,59.2151,189.2583],[11.7967,59.224,183.6569],[11.8054,59.2246,182.0007],[11.8044,59.229,182.9099],[11.8131,59.2296,142.7586],[11.812,59.2341,170.0475],[11.8207,59.2346,114.8805],[11.8196,59.2391,140.2621],[11.8284,59.2396,101.0],[11.8273,59.2441,101.0],[11.836,59.2446,101.0],[11.822,59.3025,101.0],[11.8133,59.302,101.0],[11.8122,59.306399999999996,101.0],[11.8034,59.3059,101.0],[11.8013,59.3148,101.0],[11.7925,59.3142,101.0],[11.7915,59.3187,101.0],[11.7827,59.3181,101.0],[11.7805,59.327,101.0],[11.7718,59.3265,104.4048],[11.7707,59.3309,127.4468],[11.7532,59.3298,165.4098],[11.7521,59.3343,113.8845],[11.6735,59.3292,118.4691],[11.6724,59.3337,107.5],[11.6461,59.332,107.5],[11.6472,59.3275,116.4022],[11.6298,59.3264,108.8543],[11.6309,59.322,117.9824],[11.6221,59.3214,143.2708],[11.6232,59.3169,107.5],[11.6145,59.3164,132.5666],[11.6156,59.3119,139.6153],[11.6069,59.3113,187.677],[11.6058,59.3158,134.5422],[11.5883,59.3147,117.6869],[11.5872,59.3191,135.7097],[11.5697,59.318,159.1164]]]]}}