{"type":"Feature","properties":{"GID_2":"NOR.3.7_1","GID_0":"NOR","country":"Norway","GID_1":"NOR.3_1","province":"Aust-Agder","NL_NAME_1":"NA","county":"Froland","VARNAME_2":"NA","NL_NAME_2":"NA","TYPE_2":"Kommuner","ENGTYPE_2":"Municipality","CC_2":"NA","HASC_2":"NO.AA.FR","name":"Froland.county"},
"geometry":{"type": "MultiPolygon","coordinates": [[[[7.9892,58.7046,475.1143],[7.9908,58.7002,405.6648],[7.9823,58.6994,527.8649],[7.9838,58.695,510.691],[7.9668,58.6934,616.0383],[7.9683,58.689,627.9988],[7.9598,58.6882,617.7065],[7.9614,58.6837,627.7931],[7.9529,58.6829,574.9037],[7.9559,58.6741,588.7217],[7.973,58.6757,580.8099],[7.9745,58.6713,602.8001],[7.983,58.6721,538.9334],[7.9846,58.6677,493.384],[7.9931,58.6685,448.174],[7.9962,58.6597,546.8002],[8.0047,58.6605,521.7113],[8.0078,58.6517,554.3979],[8.0163,58.6525,528.1891],[8.0193,58.6437,594.6264],[8.0279,58.6445,597.6277],[8.0309,58.6356,574.5503],[8.0394,58.6364,538.9463],[8.041,58.632,608.3129],[8.058,58.6336,519.4711],[8.0595,58.6292,520.899],[8.0765,58.6308,496.4099],[8.078,58.6264,488.4755],[8.112,58.6296,413.4731],[8.1136,58.6252,413.7163],[8.1306,58.6268,430.0442],[8.1321,58.6224,433.8342],[8.1576,58.6248,376.2551],[8.1561,58.6292,355.47],[8.1816,58.6316,159.5],[8.1907,58.6051,159.0],[8.1992,58.6059,174.0627],[8.2022,58.5971,162.3439],[8.2107,58.5979,182.7336],[8.2228,58.5626,153.7663],[8.2313,58.5633,203.9682],[8.2373,58.5457,264.7681],[8.2458,58.5465,153.6781],[8.2488,58.5376,217.4829],[8.2573,58.5384,166.1131],[8.2588,58.534,162.9078],[8.2673,58.5348,147.9574],[8.2643,58.5436,166.1425],[8.2728,58.5444,145.0],[8.2713,58.5488,218.0468],[8.2967,58.5512,186.5254],[8.2952,58.5556,214.4448],[8.3207,58.558,300.7817],[8.3222,58.5536,205.609],[8.3561,58.5567,144.4183],[8.3547,58.5611,119.9431],[8.3631,58.5619,109.5597],[8.3602,58.5708,218.2537],[8.3687,58.5715,200.1719],[8.3612,58.5936,295.5721],[8.3952,58.5968,202.9804],[8.3967,58.5923,149.6286],[8.4307,58.5955,312.5813],[8.4322,58.591,267.3053],[8.4407,58.5918,248.455],[8.4421,58.5874,258.0056],[8.4506,58.5882,245.7999],[8.4521,58.5838,284.2633],[8.4436,58.583,289.3651],[8.4466,58.5742,282.585],[8.4381,58.5734,291.4172],[8.4411,58.5645,259.1779],[8.4241,58.563,249.367],[8.4256,58.5586,277.7453],[8.4171,58.5578,236.4122],[8.4186,58.5534,285.8019],[8.4101,58.5526,245.2343],[8.4115,58.5482,277.5277],[8.4031,58.5474,221.8422],[8.4045,58.543,214.8588],[8.3961,58.5422,236.8285],[8.4035,58.5201,296.3895],[8.395,58.5193,296.0624],[8.398,58.5105,295.9362],[8.3895,58.5097,293.6168],[8.3984,58.4832,299.4901],[8.4069,58.484,273.8876],[8.4084,58.4795,300.6666],[8.4168,58.4803,280.9412],[8.4183,58.4759,306.357],[8.4353,58.4775,296.3978],[8.4338,58.4819,278.6952],[8.4507,58.4834,200.805],[8.4522,58.479,206.7691],[8.4607,58.4798,108.0],[8.4621,58.4754,108.0],[8.4706,58.4762,124.5173],[8.4691,58.4806,159.9673],[8.4861,58.4821,181.8184],[8.4846,58.4866,226.037],[8.4931,58.4873,196.7279],[8.4916,58.4917,214.0916],[8.5255,58.4948,184.5362],[8.5299,58.4816,213.1629],[8.5384,58.4824,190.4787],[8.5472,58.4558,128.7037],[8.5557,58.4566,186.397],[8.5542,58.461,137.5468],[8.5796,58.4633,88.3117],[8.5811,58.4589,78.7719],[8.5895,58.4597,95.2169],[8.591,58.4553,108.4987],[8.5995,58.456,138.634],[8.6009,58.4516,151.7747],[8.6094,58.4524,39.6892],[8.6065,58.4612,70.7099],[8.615,58.462,65.1038],[8.612,58.4708,75.1081],[8.6205,58.4716,69.574],[8.6191,58.476,44.4945],[8.653,58.4791,96.2918],[8.6544,58.4747,76.337],[8.6714,58.4762,46.4666],[8.6699,58.4806,79.2607],[8.6784,58.4814,60.112],[8.6712,58.5035,109.6435],[8.6881,58.505,96.8478],[8.6867,58.5094,104.8273],[8.6952,58.5102,108.7056],[8.6937,58.5146,120.9867],[8.7277,58.5177,80.2665],[8.7262,58.5221,84.8578],[8.7347,58.5228,94.4785],[8.7318,58.5317,93.5318],[8.7403,58.5324,105.2476],[8.7374,58.5413,127.7158],[8.7459,58.542,114.5551],[8.7416,58.5553,115.1634],[8.7501,58.5561,94.0656],[8.7458,58.5693,124.4501],[8.7543,58.5701,183.0109],[8.7499,58.5834,150.7133],[8.7584,58.5841,155.3996],[8.7556,58.593,183.9769],[8.747,58.5922,146.0538],[8.7398,58.6143,233.4474],[8.7483,58.6151,197.8218],[8.7454,58.6239,144.3555],[8.754,58.6247,184.5941],[8.7525,58.6291,155.8664],[8.761,58.6299,188.9225],[8.7581,58.6387,149.1878],[8.7496,58.6379,164.9008],[8.7511,58.6335,171.4407],[8.7255,58.6312,152.1783],[8.727,58.6268,120.4347],[8.7099,58.6253,141.2674],[8.7114,58.6209,136.5436],[8.6944,58.6194,122.2585],[8.6915,58.6282,132.1105],[8.6829,58.6274,152.0232],[8.68,58.6363,138.6938],[8.6715,58.6355,136.0],[8.6686,58.6444,139.9],[8.6601,58.6436,144.5001],[8.6586,58.648,139.8058],[8.6501,58.6472,164.2238],[8.6487,58.6517,138.5641],[8.6401,58.6509,146.6769],[8.6387,58.6553,166.0609],[8.6302,58.6546,136.0],[8.6287,58.659,183.1675],[8.6202,58.6582,138.7081],[8.6187,58.6626,136.5],[8.5846,58.6596,136.5],[8.5817,58.6684,136.5],[8.5646,58.6669,299.9511],[8.5632,58.6713,211.6314],[8.5376,58.669,270.1875],[8.5361,58.6734,281.6288],[8.5191,58.6718,343.4208],[8.5176,58.6763,295.8798],[8.4921,58.6739,379.5705],[8.4906,58.6784,365.6141],[8.4735,58.6768,423.3281],[8.478,58.6635,391.7518],[8.4865,58.6643,374.4403],[8.488,58.6599,371.4851],[8.4965,58.6607,357.6766],[8.498,58.6563,379.8057],[8.5065,58.657,298.6872],[8.5109,58.6438,289.7316],[8.4939,58.6422,250.5423],[8.4924,58.6466,283.445],[8.4839,58.6459,282.5834],[8.4824,58.6503,326.9809],[8.4739,58.6495,338.6622],[8.4754,58.6451,291.2859],[8.4669,58.6443,275.9219],[8.4698,58.6355,302.8709],[8.4528,58.6339,344.9664],[8.4543,58.6295,334.3652],[8.4373,58.6279,256.2721],[8.4388,58.6235,268.9174],[8.4303,58.6227,290.2568],[8.4288,58.6272,286.5385],[8.4203,58.6264,272.5261],[8.4188,58.6308,273.6534],[8.4018,58.6292,166.8933],[8.4003,58.6337,205.6735],[8.3918,58.6329,215.1317],[8.3903,58.6373,197.0927],[8.3733,58.6357,257.7592],[8.3718,58.6401,274.9119],[8.3803,58.6409,285.473],[8.3758,58.6542,307.6331],[8.3843,58.655,211.6538],[8.3783,58.6726,193.5211],[8.3698,58.6719,175.501],[8.3638,58.6895,192.1311],[8.3383,58.6872,213.7415],[8.3398,58.6828,217.1479],[8.3227,58.6812,325.8542],[8.3167,58.6988,219.3556],[8.3082,58.6981,220.2012],[8.3067,58.7025,180.517],[8.2896,58.7009,203.2846],[8.2881,58.7053,219.3497],[8.237,58.7006,411.6282],[8.2355,58.705,385.6318],[8.2269,58.7042,437.1495],[8.2254,58.7086,411.5124],[8.2169,58.7078,386.702],[8.2139,58.7166,360.6906],[8.2053,58.7158,419.273],[8.2038,58.7203,436.8665],[8.1953,58.7195,495.9707],[8.1968,58.7151,468.3302],[8.1798,58.7135,295.2347],[8.1813,58.709,329.4231],[8.1728,58.7083,243.5167],[8.1743,58.7038,254.9492],[8.1658,58.703,242.5967],[8.1673,58.6986,227.6345],[8.1588,58.6978,197.5268],[8.1572,58.7022,198.5444],[8.1317,58.6998,448.402],[8.1301,58.7043,457.1078],[8.1046,58.7019,558.2625],[8.1031,58.7063,578.1198],[8.0775,58.7039,565.0129],[8.076,58.7083,562.0485],[8.0504,58.7059,595.5289],[8.0489,58.7103,622.9985],[7.9892,58.7046,475.1143]]]]}}