{"type":"Feature","properties":{"GID_2":"NOR.6.18_1","GID_0":"NOR","country":"Norway","GID_1":"NOR.6_1","province":"Hedmark","NL_NAME_1":"NA","county":"Stor-Elvdal","VARNAME_2":"NA","NL_NAME_2":"NA","TYPE_2":"Kommuner","ENGTYPE_2":"Municipality","CC_2":"NA","HASC_2":"NO.HE.SE","name":"Stor-Elvdal.county"},
"geometry":{"type": "MultiPolygon","coordinates": [[[[10.154,61.9449,1575.5067],[10.1446,61.9443,1550.3208],[10.1431,61.9487,1432.061],[10.1242,61.9474,1294.1606],[10.1271,61.9385,1200.5396],[10.1177,61.9378,1197.2531],[10.122,61.9245,1124.0393],[10.1125,61.9238,1026.3528],[10.114,61.9194,972.4023],[10.1045,61.9187,1029.0717],[10.106,61.9143,963.516],[10.0965,61.9136,945.2388],[10.098,61.9092,825.5885],[10.0886,61.9085,702.2151],[10.0929,61.8952,762.1633],[10.1023,61.8959,701.8357],[10.1038,61.8914,737.7809],[10.1132,61.8921,700.4705],[10.1146,61.8877,700.6176],[10.1241,61.8883,700.4399],[10.1255,61.8839,700.4165],[10.1444,61.8852,700.5788],[10.1458,61.8808,734.1523],[10.1552,61.8815,704.2055],[10.1581,61.8726,783.6342],[10.1487,61.8719,819.3018],[10.1515,61.8631,917.6204],[10.1421,61.8624,849.9238],[10.145,61.8535,879.187],[10.1356,61.8528,943.8192],[10.1384,61.844,1077.7173],[10.129,61.8433,1197.7235],[10.1304,61.8389,1217.5105],[10.121,61.8382,1268.2764],[10.1239,61.8293,1245.7977],[10.1145,61.8286,1220.7476],[10.1159,61.8242,1184.7106],[10.1065,61.8235,1177.285],[10.1094,61.8147,1090.6814],[10.1,61.814,1087.0138],[10.1014,61.8095,1041.8545],[10.092,61.8089,1044.8118],[10.0949,61.8,1058.9651],[10.0855,61.7993,1125.2784],[10.0884,61.7905,1171.7568],[10.079,61.7898,1243.6083],[10.0804,61.7853,1207.3159],[10.071,61.7847,1346.6117],[10.0739,61.7758,1202.5483],[10.0645,61.7751,1212.8239],[10.0674,61.7663,1181.9457],[10.058,61.7656,1175.5334],[10.0594,61.7611,1159.1454],[10.05,61.7605,1152.7756],[10.0543,61.7472,1112.7655],[10.0731,61.7485,1111.7076],[10.0746,61.7441,1093.6328],[10.0839,61.7447,1112.2583],[10.0854,61.7403,1116.4623],[10.1041,61.7416,1173.3315],[10.1056,61.7372,1164.4276],[10.115,61.7379,1236.8008],[10.1164,61.7334,1265.9836],[10.1352,61.7348,1178.1407],[10.1366,61.7304,1083.463],[10.146,61.731,1106.8434],[10.1474,61.7266,1084.446],[10.1662,61.7279,1066.0887],[10.1676,61.7235,1054.4525],[10.177,61.7242,1076.2017],[10.1784,61.7197,1106.5924],[10.1972,61.7211,1320.0613],[10.1986,61.7166,1247.3594],[10.2361,61.7193,1247.6829],[10.2375,61.7148,1322.8547],[10.2563,61.7162,1336.5],[10.2577,61.7117,1313.0641],[10.2764,61.713,1261.0127],[10.2778,61.7086,1248.9233],[10.2966,61.7099,1248.1024],[10.298,61.7055,1186.0348],[10.3074,61.7062,1158.5165],[10.3088,61.7017,1137.0664],[10.3182,61.7024,1110.0747],[10.3196,61.6979,1086.3237],[10.3289,61.6986,1152.22],[10.3303,61.6941,1136.0818],[10.3397,61.6948,1199.1892],[10.3411,61.6904,1148.9403],[10.3505,61.691,1199.9314],[10.3519,61.6866,1146.1991],[10.3613,61.6872,1143.5924],[10.3627,61.6828,1096.8999],[10.372,61.6835,1087.4713],[10.3748,61.6746,1141.0785],[10.3842,61.6752,1159.6034],[10.3856,61.6708,1307.5421],[10.3949,61.6714,1320.1342],[10.3935,61.6759,1161.0408],[10.4029,61.6765,1161.0645],[10.4015,61.681,1175.2839],[10.4109,61.6816,1182.3596],[10.4095,61.6861,1044.4983],[10.4189,61.6867,1055.1244],[10.4175,61.6912,1148.2499],[10.4269,61.6918,1191.3517],[10.4255,61.6962,1256.0409],[10.4349,61.6969,1296.6218],[10.4335,61.7013,1292.6545],[10.4616,61.7033,1242.1219],[10.4603,61.7077,1232.7811],[10.4696,61.7084,1167.5433],[10.4683,61.7128,1140.1163],[10.4777,61.7135,1082.8969],[10.4763,61.7179,1065.5967],[10.4857,61.7186,1019.925],[10.4843,61.723,1024.8579],[10.4937,61.7236,987.6736],[10.4923,61.7281,956.7692],[10.5299,61.7307,829.7644],[10.5285,61.7351,839.7568],[10.5567,61.737,995.4759],[10.5553,61.7415,970.855],[10.5741,61.7428,909.1055],[10.5768,61.7339,966.2943],[10.5862,61.7345,890.684],[10.5903,61.7212,949.0457],[10.5997,61.7218,811.7086],[10.6038,61.7085,806.2513],[10.6132,61.7091,745.7223],[10.6159,61.7003,774.3661],[10.6253,61.7009,760.6688],[10.659,61.5898,1004.1169],[10.6497,61.5892,1081.3329],[10.6591,61.5581,796.0436],[10.6684,61.5587,1012.6701],[10.6791,61.5232,865.0842],[10.6885,61.5238,914.7831],[10.6965,61.4972,1049.8967],[10.6872,61.4965,1023.9033],[10.6898,61.4876,1066.6188],[10.6805,61.487,1063.592],[10.6899,61.4559,1076.1311],[10.6992,61.4565,1060.7408],[10.7032,61.4432,957.2542],[10.7125,61.4438,956.0934],[10.7178,61.4261,963.6858],[10.7271,61.4267,957.1614],[10.7324,61.4089,1076.6338],[10.7417,61.4095,1101.1783],[10.747,61.3918,1010.6057],[10.7563,61.3924,1021.9223],[10.7615,61.3746,1008.9225],[10.7708,61.3753,1004.5889],[10.7774,61.353,1007.9892],[10.7867,61.3537,1004.989],[10.7933,61.3314,966.9398],[10.8025,61.3321,959.3301],[10.8104,61.3054,882.8101],[10.8197,61.306,887.1559],[10.8262,61.2838,852.4174],[10.8355,61.2844,866.9037],[10.8407,61.2666,878.8651],[10.8499,61.2673,934.8553],[10.8486,61.2717,899.9037],[10.8579,61.2723,928.9869],[10.8566,61.2768,914.6354],[10.8659,61.2774,912.559],[10.8646,61.2818,919.71],[10.8738,61.2825,933.8203],[10.8725,61.2869,963.9453],[10.8818,61.2875,984.1938],[10.8805,61.292,1055.4016],[10.8898,61.2926,1030.2439],[10.8885,61.297,1038.9568],[10.8977,61.2977,1014.5888],[10.899,61.2932,1025.8888],[10.9083,61.2938,1024.1432],[10.9109,61.2849,1036.33],[10.9202,61.2856,1043.6793],[10.9227,61.2767,1051.4862],[10.932,61.2773,1067.7562],[10.9346,61.2684,1046.5739],[10.9438,61.269,1057.0499],[10.9464,61.2601,1031.8124],[10.9557,61.2607,1048.4309],[10.9582,61.2518,1020.3759],[10.986,61.2537,911.2304],[10.9873,61.2492,906.9197],[11.0614,61.2541,821.2155],[11.0626,61.2497,821.4446],[11.1274,61.2539,778.2116],[11.1287,61.2494,766.7483],[11.1565,61.2513,722.8587],[11.159,61.2424,710.0193],[11.1497,61.2418,694.346],[11.161,61.2017,642.2293],[11.198,61.2041,590.1625],[11.1993,61.1997,503.155],[11.2178,61.2009,520.4955],[11.2165,61.2053,527.5193],[11.2813,61.2095,326.8669],[11.2825,61.205,325.79],[11.3195,61.2074,286.3716],[11.3183,61.2118,290.4539],[11.346,61.2136,234.9315],[11.3362,61.2492,230.7438],[11.3269,61.2486,243.1605],[11.3207,61.2709,285.2422],[11.3578,61.2732,394.8643],[11.3566,61.2777,418.1754],[11.3751,61.2788,393.3688],[11.3702,61.2966,436.6319],[11.3609,61.2961,499.4518],[11.3523,61.3272,556.5535],[11.343,61.3266,597.4756],[11.3344,61.3578,613.6919],[11.3251,61.3572,689.1005],[11.3189,61.3794,617.3812],[11.3096,61.3788,625.0997],[11.3046,61.3966,570.4637],[11.2953,61.396,583.8777],[11.2903,61.4138,593.6107],[11.281,61.4132,602.2219],[11.2798,61.4177,611.1804],[11.2705,61.4171,601.568],[11.268,61.426,596.8787],[11.2587,61.4254,595.5568],[11.2562,61.4343,585.6343],[11.2469,61.4337,580.6041],[11.2443,61.4426,620.5903],[11.235,61.442,582.8762],[11.2262,61.4731,690.1179],[11.2169,61.4725,693.6038],[11.2131,61.4859,724.8913],[11.2038,61.4853,703.8619],[11.2,61.4986,700.1684],[11.1907,61.498,718.0176],[11.1869,61.5114,674.0975],[11.1775,61.5108,737.9108],[11.1737,61.5241,741.1456],[11.1644,61.5235,787.0988],[11.1606,61.5369,718.1451],[11.1512,61.5363,805.3423],[11.1474,61.5496,617.2963],[11.1381,61.549,654.8193],[11.1317,61.5713,459.52],[11.1411,61.5719,447.6186],[11.1385,61.5808,531.1006],[11.1479,61.5814,509.5567],[11.1428,61.5991,597.7326],[11.1334,61.5985,614.0136],[11.1283,61.6163,709.4626],[11.1189,61.6157,653.4642],[11.1138,61.6335,635.6315],[11.1044,61.6329,619.9316],[11.1006,61.6463,576.827],[11.0912,61.6457,568.9947],[11.0861,61.6634,645.8137],[11.0767,61.6628,609.3884],[11.0715,61.6806,673.7497],[11.0621,61.68,679.3798],[11.0595,61.6889,703.8118],[11.0502,61.6883,714.6796],[11.0476,61.6972,733.4551],[11.0382,61.6966,747.5389],[11.0369,61.701,753.1139],[11.0275,61.7004,769.903],[11.0249,61.7093,773.8174],[11.0155,61.7087,782.6467],[11.0129,61.7176,830.3287],[11.0035,61.717,796.9528],[11.0009,61.7259,807.7333],[10.9915,61.7253,792.9005],[10.9811,61.7608,891.1875],[10.9716,61.7602,815.118],[10.9703,61.7647,829.8239],[10.9421,61.7628,832.8746],[10.9408,61.7673,807.8905],[10.9032,61.7648,814.2507],[10.9045,61.7604,812.0811],[10.8857,61.7591,880.8087],[10.887,61.7547,864.5638],[10.8682,61.7534,778.2523],[10.8695,61.749,795.0432],[10.8507,61.7477,739.644],[10.852,61.7433,799.3433],[10.8332,61.7421,423.7615],[10.8319,61.7465,418.6738],[10.8131,61.7453,354.2934],[10.8104,61.7541,403.5933],[10.801,61.7535,540.7766],[10.7997,61.758,659.4417],[10.7903,61.7573,738.9764],[10.7889,61.7618,925.5983],[10.7795,61.7611,787.6421],[10.7769,61.77,981.3633],[10.7675,61.7694,957.874],[10.7661,61.7739,886.4064],[10.7567,61.7732,863.3029],[10.754,61.7821,820.8468],[10.7446,61.7815,812.3687],[10.7433,61.7859,806.4146],[10.7339,61.7853,818.0609],[10.7312,61.7942,815.9058],[10.7218,61.7936,894.7701],[10.7204,61.798,824.8868],[10.711,61.7974,896.8099],[10.7083,61.8063,857.9319],[10.6989,61.8056,912.0121],[10.6962,61.8145,877.6226],[10.6868,61.8139,876.4175],[10.6841,61.8228,909.7473],[10.6746,61.8221,909.3747],[10.6733,61.8266,924.8286],[10.6639,61.8259,906.964],[10.6625,61.8304,934.7439],[10.6531,61.8297,925.567],[10.6504,61.8386,961.1822],[10.6409,61.838,960.6901],[10.6396,61.8424,968.0051],[10.6301,61.8418,963.5148],[10.6288,61.8462,967.6147],[10.6099,61.845,959.7947],[10.6086,61.8494,968.005],[10.5991,61.8488,955.8762],[10.5978,61.8532,960.2327],[10.5883,61.8526,948.4783],[10.587,61.857,943.6699],[10.5775,61.8564,931.4233],[10.5762,61.8608,942.4763],[10.5667,61.8602,937.4825],[10.5654,61.8646,948.7803],[10.5559,61.864,941.2952],[10.5532,61.8729,972.0527],[10.5437,61.8722,1051.3159],[10.5424,61.8767,1033.8348],[10.5329,61.876,1130.0431],[10.5316,61.8805,1151.0383],[10.5221,61.8798,1176.025],[10.5152,61.902,1030.754],[10.5058,61.9014,1058.7882],[10.503,61.9103,1082.8545],[10.4936,61.9096,1158.8376],[10.4894,61.9229,1123.5588],[10.4799,61.9223,1165.913],[10.4744,61.94,1179.1776],[10.4649,61.9394,1148.0259],[10.4594,61.9572,1194.6826],[10.4499,61.9565,1269.2834],[10.4485,61.961,1295.3879],[10.4201,61.959,1150.3245],[10.4187,61.9634,1168.8301],[10.362,61.9595,1085.5663],[10.3634,61.9551,1092.1101],[10.3445,61.9538,1204.1924],[10.3459,61.9493,1182.874],[10.3364,61.9487,1113.9784],[10.3378,61.9442,1082.8687],[10.3284,61.9436,1046.3456],[10.3298,61.9391,1008.9811],[10.3204,61.9385,998.8549],[10.3232,61.9296,950.5311],[10.3137,61.9289,1100.2617],[10.3151,61.9245,1043.1097],[10.3057,61.9238,1053.4652],[10.3071,61.9194,1013.4905],[10.2693,61.9168,984.9877],[10.2665,61.9256,1012.7939],[10.2571,61.925,1009.8954],[10.2556,61.9294,1020.1989],[10.2462,61.9287,1044.0642],[10.2448,61.9332,1040.0013],[10.2259,61.9319,1099.3959],[10.2244,61.9363,1149.2594],[10.215,61.9356,1146.4199],[10.2136,61.9401,1217.5214],[10.2041,61.9394,1177.889],[10.2027,61.9438,1244.3779],[10.1932,61.9432,1262.9667],[10.1918,61.9476,1287.3271],[10.1824,61.9469,1299.1913],[10.1809,61.9514,1300.0677],[10.1715,61.9507,1415.8387],[10.1729,61.9463,1349.4668],[10.154,61.9449,1575.5067]]]]}}