{"type": "Feature","bbox": [5.6747,59.0999,6.0763,59.2974],"geometry": {"type": "MultiPolygon","coordinates": [[[[5.9003,59.1099,0.0],[5.9008,59.1121,0.0],[5.8914,59.1104,4.3497],[5.8892,59.109,0.0],[5.8897,59.1054,0.0],[5.8919,59.1049,0.0],[5.9003,59.1099,0.0]]],
[[[5.8942,59.1307,3.0241],[5.8953,59.1335,0.0],[5.8914,59.1332,0.0],[5.8919,59.1307,0.0],[5.8942,59.1307,3.0241]]],
[[[5.8858,59.1351,7.9543],[5.8825,59.1365,4.0825],[5.8842,59.1329,4.6227],[5.8886,59.1332,0.0911],[5.8858,59.1351,7.9543]]],
[[[5.93,59.1585,4.9584],[5.9236,59.1596,4.2318],[5.9225,59.1574,17.7924],[5.9181,59.1579,1.2643],[5.9147,59.1551,25.811],[5.9053,59.1551,0.0],[5.9069,59.1532,31.6673],[5.9025,59.1527,0.0],[5.9014,59.1485,29.5509],[5.8986,59.1479,29.5509],[5.8964,59.1446,0.0],[5.8975,59.1413,19.0721],[5.8958,59.1401,0.0],[5.8997,59.1371,21.9407],[5.9003,59.1312,0.0],[5.8964,59.1315,4.4014],[5.8953,59.1296,3.9072],[5.8964,59.1288,3.9072],[5.8914,59.1285,9.3472],[5.8853,59.1312,0.0],[5.8814,59.1312,1.1915],[5.8792,59.1285,0.0],[5.8808,59.1263,5.8422],[5.8753,59.1254,8.3806],[5.8769,59.1218,0.5495],[5.8792,59.1207,0.5495],[5.8781,59.1176,1.4638],[5.8858,59.1165,0.0],[5.8886,59.1212,11.7147],[5.8903,59.1212,4.4981],[5.8942,59.1174,3.3627],[5.8914,59.1157,0.0],[5.8908,59.1124,1.8967],[5.8881,59.1113,0.0],[5.8908,59.1104,4.3497],[5.8947,59.1126,0.0],[5.8953,59.116,0.3707],[5.8981,59.1165,0.0],[5.8997,59.119,3.724],[5.9086,59.1179,2.2264],[5.9097,59.1185,0.0],[5.9092,59.1212,1.3873],[5.9153,59.1201,0.0],[5.9181,59.1226,8.2515],[5.9286,59.1221,0.0],[5.9292,59.1232,0.0],[5.9264,59.1249,6.9189],[5.9336,59.1263,0.0],[5.9386,59.1329,3.1487],[5.9458,59.1312,0.3803],[5.9492,59.1332,1.2601],[5.9492,59.1371,0.5868],[5.9447,59.1365,7.3841],[5.9431,59.1382,3.6161],[5.9519,59.1376,3.0447],[5.9531,59.139,0.0],[5.9403,59.1471,0.0],[5.9364,59.1532,4.227],[5.93,59.1585,4.9584]]],
[[[5.8947,59.1376,0.0],[5.8931,59.1404,10.2959],[5.8903,59.1396,5.6942],[5.8908,59.1371,4.3383],[5.8942,59.1363,1.385],[5.8947,59.1376,0.0]]],
[[[5.8697,59.1571,6.046],[5.8631,59.1579,2.9408],[5.8625,59.156,9.4085],[5.8581,59.1549,2.7265],[5.8558,59.151,0.0],[5.8647,59.1493,0.0],[5.8636,59.1504,0.0],[5.8681,59.151,1.8085],[5.8725,59.154,0.0],[5.8697,59.1571,6.046]]],
[[[5.9469,59.1712,0.0],[5.9464,59.1735,0.0],[5.9442,59.1732,0.0],[5.9431,59.1712,8.4934],[5.9325,59.1729,4.0729],[5.9292,59.1721,0.0],[5.9297,59.1682,5.3554],[5.9325,59.1668,5.7594],[5.9336,59.1632,9.1538],[5.9364,59.1621,9.1538],[5.9353,59.1604,0.0],[5.9381,59.1585,0.0],[5.9425,59.1585,0.0],[5.9497,59.1629,3.0515],[5.9503,59.1604,7.4003],[5.9464,59.1576,0.1561],[5.9469,59.1551,0.0],[5.9486,59.1551,0.0],[5.9503,59.1585,0.0],[5.9547,59.1587,0.0],[5.9542,59.161,0.0],[5.9586,59.161,0.6749],[5.9592,59.1649,10.8614],[5.9564,59.1685,0.8894],[5.9481,59.1676,2.2987],[5.9469,59.1712,0.0]]],
[[[5.9275,59.1732,0.0],[5.9236,59.174,0.0],[5.9253,59.1715,0.0],[5.9275,59.1715,0.0],[5.9275,59.1732,0.0]]],
[[[5.9569,59.151,0.0],[5.9536,59.1524,1.6017],[5.9525,59.1496,3.2841],[5.9564,59.149,1.1451],[5.9581,59.1499,1.1451],[5.9569,59.151,0.0]]],
[[[5.9936,59.1571,7.1735],[5.9947,59.1579,7.1735],[5.9864,59.1571,0.4417],[5.9742,59.1504,0.0],[5.9814,59.1476,3.9941],[5.9825,59.1496,16.9097],[5.9897,59.1521,0.0],[5.9936,59.1571,7.1735]]],
[[[5.9853,59.1646,5.2021],[5.9747,59.1657,0.0],[5.9603,59.1632,0.0],[5.9669,59.1585,0.0],[5.9714,59.1587,0.0],[5.9725,59.1563,0.0],[5.9797,59.1557,4.2939],[5.9869,59.1582,0.4417],[5.9908,59.1615,0.7752],[5.9853,59.1646,5.2021]]],
[[[5.9664,59.1726,7.7751],[5.9636,59.1738,0.0],[5.9603,59.171,2.0365],[5.9608,59.1693,1.155],[5.9647,59.1682,0.0],[5.9658,59.1704,2.852],[5.9697,59.1696,0.9907],[5.9714,59.171,1.3579],[5.9664,59.1726,7.7751]]],
[[[5.9892,59.1729,0.0],[5.9875,59.176,0.0],[5.9803,59.1757,0.0],[5.9808,59.1724,3.3607],[5.9842,59.171,1.6866],[5.9892,59.1712,0.0],[5.9892,59.1729,0.0]]],
[[[5.9853,59.1918,10.8611],[5.9819,59.1929,0.0],[5.9792,59.1896,10.9383],[5.9853,59.1876,3.3958],[5.9914,59.1899,0.0],[5.9892,59.1924,0.0],[5.9853,59.1918,10.8611]]],
[[[5.9497,59.2096,6.8475],[5.9369,59.2104,14.0027],[5.9286,59.204,1.3756],[5.9236,59.2054,12.2445],[5.9197,59.2046,2.7704],[5.9197,59.2029,3.7934],[5.9331,59.1999,0.0],[5.9331,59.1965,0.0],[5.9386,59.194,14.2526],[5.9403,59.1901,3.3729],[5.9447,59.1876,5.258],[5.9492,59.1857,0.0],[5.9575,59.1851,6.0146],[5.9581,59.1824,5.6598],[5.9558,59.1807,0.0],[5.9614,59.1776,0.0],[5.9742,59.1765,0.0],[5.9747,59.1832,0.0],[5.9731,59.1899,4.1376],[5.9742,59.1918,0.6701],[5.9575,59.1968,6.5991],[5.9592,59.199,7.5388],[5.9553,59.2007,2.4836],[5.9558,59.2035,0.0],[5.9497,59.2096,6.8475]]],
[[[5.9725,59.1951,0.0],[5.9731,59.1976,3.5081],[5.9686,59.1963,32.622],[5.9697,59.1949,0.0],[5.9725,59.1951,0.0]]],
[[[5.7969,59.1193,10.0909],[5.7931,59.1199,0.0],[5.7942,59.1149,10.5648],[5.7986,59.1104,0.0],[5.8025,59.1085,0.0],[5.8053,59.109,0.0],[5.8047,59.1104,0.0],[5.8119,59.1101,0.0],[5.8108,59.1076,0.3343],[5.8175,59.1029,1.4547],[5.8203,59.1032,1.4547],[5.8214,59.1054,0.0],[5.8353,59.0999,0.0],[5.8419,59.1001,0.0],[5.8425,59.1026,0.9146],[5.8442,59.1032,0.9146],[5.8525,59.101,0.0],[5.8592,59.1035,1.0484],[5.8603,59.1065,0.0],[5.8586,59.1124,1.4723],[5.8486,59.1149,4.4661],[5.8319,59.1124,5.6104],[5.8297,59.114,0.0],[5.8208,59.1146,7.9126],[5.8108,59.1182,1.8858],[5.8042,59.1176,6.7383],[5.7969,59.1193,10.0909]]],
[[[5.8131,59.121,0.6797],[5.8097,59.1218,3.7882],[5.8069,59.1215,3.7882],[5.8103,59.1199,0.0],[5.8131,59.121,0.6797]]],
[[[5.8347,59.2001,13.2346],[5.8247,59.2007,0.0],[5.8158,59.1971,0.0],[5.8169,59.1937,39.7484],[5.8091,59.1921,0.0],[5.8092,59.1907,0.0],[5.8114,59.1901,0.0],[5.8092,59.1879,0.0],[5.8103,59.1854,7.4411],[5.8036,59.184,0.0],[5.8019,59.1815,5.8061],[5.8025,59.1782,2.2353],[5.8103,59.1712,4.0495],[5.8069,59.1704,3.3868],[5.8058,59.1674,0.0],[5.7986,59.1671,0.0],[5.7975,59.164,0.0],[5.7864,59.1696,11.3633],[5.7858,59.1729,6.9455],[5.7797,59.1751,16.1919],[5.7797,59.1768,0.0],[5.7736,59.1765,0.1989],[5.7714,59.1729,3.0092],[5.7775,59.1718,2.0659],[5.7786,59.1674,2.0029],[5.7753,59.164,0.8318],[5.7747,59.1596,0.1156],[5.7719,59.1587,3.1996],[5.7719,59.1565,1.3921],[5.7725,59.1543,1.5226],[5.7764,59.154,2.3789],[5.7758,59.1515,0.0],[5.7803,59.1474,4.663],[5.7775,59.146,0.0],[5.7858,59.1421,6.694],[5.7897,59.1432,10.6473],[5.7969,59.1382,0.0],[5.8119,59.1418,1.3717],[5.8164,59.141,0.9151],[5.8203,59.1429,12.9879],[5.8281,59.1382,0.0],[5.8292,59.1404,0.0],[5.8353,59.1387,0.0],[5.8381,59.1404,0.0],[5.8419,59.1399,0.0],[5.8436,59.1415,1.3221],[5.8408,59.1432,3.7556],[5.8475,59.1451,0.0],[5.8481,59.1463,0.0],[5.8453,59.1488,4.4264],[5.8486,59.1493,0.0],[5.8475,59.1512,0.0],[5.8519,59.1504,0.0],[5.8542,59.1535,1.2492],[5.8531,59.1557,0.3928],[5.8558,59.1582,1.4003],[5.8636,59.1596,0.0],[5.8664,59.1613,0.0],[5.8653,59.1626,1.8354],[5.8725,59.1618,0.0],[5.8758,59.1629,0.0],[5.8803,59.1665,0.0],[5.8775,59.1693,0.0],[5.8797,59.1721,3.1977],[5.8797,59.1751,8.9926],[5.8747,59.1871,0.0],[5.8569,59.189,7.502],[5.8486,59.1924,1.8957],[5.8458,59.1949,4.0518],[5.8458,59.1968,3.6229],[5.8403,59.1974,0.9636],[5.8347,59.2001,13.2346]]],
[[[5.8164,59.2068,0.0],[5.8181,59.2079,0.4333],[5.8131,59.2085,5.7148],[5.8108,59.2057,0.5616],[5.8125,59.2054,0.0],[5.8164,59.2068,0.0]]],
[[[5.6847,59.1529,0.0],[5.6853,59.154,0.0],[5.6831,59.1546,3.0408],[5.6747,59.1538,0.5194],[5.6769,59.1515,0.0],[5.6847,59.1529,0.0]]],
[[[5.7247,59.1574,0.0],[5.7242,59.1587,0.0],[5.7219,59.1585,0.6138],[5.7231,59.1557,0.3163],[5.7247,59.1574,0.0]]],
[[[5.7414,59.1613,2.0312],[5.7331,59.1621,0.0],[5.7325,59.1596,0.0],[5.7431,59.1599,0.0],[5.7414,59.1613,2.0312]]],
[[[5.7319,59.1676,0.0],[5.7286,59.1685,3.9149],[5.7264,59.1654,0.0],[5.7375,59.1646,1.8933],[5.7353,59.1665,3.9556],[5.7319,59.1676,0.0]]],
[[[5.7425,59.1657,0.6081],[5.7431,59.1682,0.3895],[5.7386,59.1671,0.0],[5.7397,59.166,0.0],[5.7425,59.1657,0.6081]]],
[[[5.7386,59.1693,0.3437],[5.7358,59.1701,0.1649],[5.7336,59.1676,0.0],[5.7375,59.1671,0.0],[5.7386,59.1693,0.3437]]],
[[[5.7019,59.1715,0.0],[5.7025,59.1726,0.0],[5.7003,59.1732,0.6462],[5.6975,59.171,0.2028],[5.7008,59.1707,0.1183],[5.7019,59.1715,0.0]]],
[[[5.6969,59.1732,0.0],[5.6992,59.1735,0.6462],[5.6992,59.1749,0.0],[5.6936,59.1738,0.0],[5.6942,59.1724,0.0],[5.6969,59.1732,0.0]]],
[[[5.7058,59.1757,0.3673],[5.7064,59.1774,0.0],[5.7047,59.1776,0.0],[5.7014,59.1754,0.0],[5.7047,59.1749,0.0],[5.7058,59.1757,0.3673]]],
[[[5.7886,59.2271,0.143],[5.7836,59.2296,0.3816],[5.7831,59.2274,0.5975],[5.7803,59.2274,0.0],[5.7792,59.2257,6.4413],[5.7886,59.2246,0.0],[5.7919,59.2265,0.4833],[5.7903,59.2282,0.7088],[5.7886,59.2271,0.143]]],
[[[5.8025,59.2854,5.0628],[5.8008,59.289,0.0],[5.7942,59.2868,5.1853],[5.7953,59.2813,2.2085],[5.7981,59.2799,0.0],[5.8047,59.2826,0.0],[5.8025,59.2854,5.0628]]],
[[[5.9403,59.1821,0.0],[5.9364,59.1826,0.0],[5.9358,59.1804,0.0],[5.9381,59.1787,0.0],[5.9425,59.1787,0.0],[5.9403,59.1821,0.0]]],
[[[5.8975,59.2407,0.0],[5.8869,59.2415,13.4138],[5.8853,59.2393,12.9658],[5.8786,59.2396,3.5125],[5.8781,59.2374,2.7754],[5.8797,59.2343,0.7228],[5.8769,59.234,0.7228],[5.8781,59.2304,5.3708],[5.8736,59.2296,0.0],[5.8842,59.229,9.8405],[5.8858,59.2285,0.4555],[5.8858,59.2263,0.5128],[5.8936,59.2257,4.1941],[5.8975,59.2279,0.0],[5.8969,59.231,0.0],[5.8997,59.2332,0.0],[5.9014,59.2376,2.1946],[5.9003,59.2399,0.4573],[5.8975,59.2407,0.0]]],
[[[5.8636,59.2796,0.0],[5.8564,59.279,0.0],[5.8569,59.2765,0.0],[5.8608,59.2765,0.0],[5.8614,59.2743,0.0],[5.8531,59.2729,2.0312],[5.8514,59.2687,17.3562],[5.8464,59.2699,0.0],[5.8481,59.2693,0.0],[5.8469,59.2663,0.662],[5.8431,59.2671,0.0],[5.8481,59.2632,3.3169],[5.8464,59.2615,0.0],[5.8464,59.2585,0.0],[5.8508,59.2532,2.9056],[5.8481,59.2529,4.9753],[5.8431,59.2557,0.0],[5.8414,59.2554,7.5054],[5.8403,59.2521,0.9181],[5.8358,59.254,0.0],[5.8358,59.2518,0.0],[5.8397,59.2504,16.7134],[5.8392,59.2457,11.3717],[5.8447,59.2454,0.0],[5.8503,59.249,6.649],[5.8542,59.2487,0.0],[5.8536,59.2513,1.8186],[5.8664,59.2474,2.3992],[5.8725,59.2476,2.7776],[5.8853,59.2557,0.0],[5.8825,59.2593,0.0],[5.8858,59.2596,0.0],[5.8847,59.2624,1.1295],[5.8869,59.2643,0.0],[5.8869,59.2665,0.0],[5.8853,59.2693,0.0],[5.8764,59.274,0.0],[5.8747,59.279,0.0],[5.8714,59.2774,3.456],[5.8636,59.2796,0.0]]],
[[[5.9825,59.2121,0.0],[5.9775,59.2126,0.0],[5.9792,59.211,5.1767],[5.9825,59.211,5.1767],[5.9825,59.2121,0.0]]],
[[[6.0677,59.2812,256.473],[6.0763,59.2821,191.404],[6.0744,59.2865,2.8166],[6.0758,59.2868,2.8166],[6.0603,59.2938,0.0],[6.0597,59.2957,0.0],[6.0558,59.2974,0.0],[6.0408,59.2968,9.1311],[6.0347,59.2935,50.595],[6.0081,59.2935,2.9178],[6.0058,59.2918,15.7247],[5.9903,59.2896,5.1221],[5.9753,59.2926,1.3287],[5.9708,59.2901,18.3589],[5.9581,59.2882,2.9211],[5.9542,59.286,8.2242],[5.9542,59.2837,22.6605],[5.9508,59.2854,9.2733],[5.9464,59.2846,12.9798],[5.9469,59.2793,14.2059],[5.9436,59.2762,12.8002],[5.9308,59.2782,6.6451],[5.9258,59.2757,0.0],[5.9231,59.2732,4.3246],[5.9236,59.2637,15.1958],[5.9208,59.2607,0.0],[5.9219,59.2579,3.6583],[5.9247,59.2568,0.0],[5.9242,59.2524,0.0],[5.9286,59.2504,0.0],[5.9325,59.246,6.5695],[5.9314,59.2404,0.0],[5.9325,59.2393,12.9251],[5.9286,59.2363,0.0],[5.9297,59.2332,9.0917],[5.9281,59.2315,0.6694],[5.9325,59.2315,0.0],[5.9331,59.2363,0.0],[5.9419,59.234,14.5693],[5.9403,59.2318,16.0032],[5.9308,59.2285,1.7983],[5.9314,59.2265,0.0],[5.9442,59.226,0.0],[5.9469,59.2279,22.4487],[5.9531,59.2251,0.0],[5.9703,59.2257,4.6709],[5.9814,59.2299,0.0],[5.9942,59.2301,0.0],[6.0047,59.236,74.5978],[6.0097,59.2351,0.0],[6.0069,59.2365,74.5978],[6.0136,59.236,82.0069],[6.0147,59.2343,11.4563],[6.0236,59.2357,7.4485],[6.0202,59.243899999999996,226.1664],[6.0116,59.243,252.9767],[6.0098,59.2474,295.6646],[6.0012,59.2464,176.0109],[5.9956,59.2596,199.6661],[6.0215,59.2624,205.8369],[6.0233,59.258,264.7204],[6.0577,59.2618,284.3698],[6.0559,59.2662,315.0093],[6.0645,59.2671,356.2266],[6.0609,59.2759,328.4876],[6.0695,59.2768,296.4573],[6.0677,59.2812,256.473]]],
[[[5.8047,59.2096,0.8325],[5.8047,59.2115,0.0],[5.8019,59.2107,0.2777],[5.8042,59.2068,0.0],[5.8069,59.2076,0.0],[5.8047,59.2096,0.8325]]],
[[[5.8503,59.2348,9.11],[5.8481,59.2354,15.8444],[5.8403,59.2326,0.0],[5.8425,59.2271,1.8542],[5.8386,59.2254,3.7624],[5.8364,59.2287,11.3699],[5.8192,59.2279,10.157],[5.8131,59.2296,7.4997],[5.8147,59.231,0.0],[5.8069,59.2324,0.0],[5.8031,59.2313,5.4984],[5.7975,59.2337,12.2667],[5.7925,59.2332,10.3944],[5.7919,59.231,4.8876],[5.8058,59.2238,6.8197],[5.8219,59.2232,0.0],[5.8231,59.2215,0.0],[5.8319,59.2207,10.3177],[5.8392,59.2215,0.0],[5.8403,59.224,0.0],[5.8419,59.224,13.0788],[5.8481,59.2204,0.0],[5.8492,59.2226,0.0],[5.8481,59.2246,3.3748],[5.8547,59.2263,0.0],[5.8536,59.2282,1.2887],[5.8581,59.2324,0.0],[5.8503,59.2348,9.11]]],
[[[5.8292,59.2474,0.0],[5.8281,59.2493,0.0],[5.8247,59.2482,4.0461],[5.8258,59.2471,4.0461],[5.8292,59.2474,0.0]]],
[[[5.8336,59.2704,21.9772],[5.8292,59.2713,7.3592],[5.8236,59.269,0.0],[5.8247,59.2671,4.1849],[5.8219,59.2665,0.0],[5.8219,59.2618,6.9983],[5.8147,59.2637,3.2182],[5.8092,59.2629,2.8977],[5.8069,59.2646,2.4034],[5.8019,59.2621,6.2944],[5.7942,59.2632,3.0482],[5.7925,59.2604,1.7944],[5.7936,59.2588,6.3879],[5.7964,59.2588,6.3879],[5.7964,59.2568,11.3479],[5.7908,59.2526,0.9],[5.7864,59.2565,3.9453],[5.7819,59.2557,8.4207],[5.7842,59.2518,0.0],[5.7836,59.2499,0.0],[5.7875,59.2501,6.4225],[5.7864,59.2479,0.0],[5.7897,59.2471,10.5852],[5.7903,59.2446,0.5939],[5.7964,59.2446,0.0],[5.7981,59.2421,1.9405],[5.8053,59.2393,0.0],[5.8075,59.2418,0.0],[5.8142,59.2429,0.0],[5.8197,59.2415,0.0],[5.8192,59.2368,0.0],[5.8242,59.2354,0.0],[5.8297,59.2363,0.0],[5.8303,59.2385,1.9652],[5.8336,59.2396,2.509],[5.8336,59.2435,7.6179],[5.8225,59.2449,8.646],[5.8175,59.2432,0.0],[5.8142,59.2446,0.0],[5.8164,59.246,0.0],[5.8181,59.2504,2.3809],[5.8236,59.2501,0.0],[5.8281,59.2535,0.0],[5.8369,59.2551,0.0],[5.8381,59.2579,0.0],[5.8414,59.259,0.0],[5.8386,59.2615,11.7196],[5.8419,59.2624,0.0],[5.8403,59.2663,2.4112],[5.8336,59.2704,21.9772]]],
[[[5.8075,59.2651,2.4034],[5.8097,59.2651,2.4034],[5.8114,59.2687,0.4497],[5.8069,59.2676,0.3695],[5.8075,59.2651,2.4034]]],
[[[5.8136,59.2743,1.1225],[5.8125,59.2762,0.0],[5.8086,59.276,0.0],[5.8086,59.2749,0.0],[5.8136,59.2743,1.1225]]],
[[[5.8103,59.2799,0.0],[5.8075,59.281,0.0],[5.8047,59.2796,0.3339],[5.8064,59.2776,1.4567],[5.8092,59.2776,1.4567],[5.8108,59.2782,0.0],[5.8103,59.2799,0.0]]]]}
,"properties": {"GID_2": "NOR.13.4_1","GID_0": "NOR","country": "Norway","GID_1": "NOR.13_1","province": "Rogaland","NL_NAME_1": "NA","county": "Finnøy","VARNAME_2": "NA","NL_NAME_2": "NA","TYPE_2": "Kommuner","ENGTYPE_2": "Municipality","CC_2": "NA","HASC_2": "NO.RO.FI","name": "Finnøy.county","area_km2": 113.38637,"hist_schema_id": "Elevation0-9000","hist_area_km2": {"0": 18.80702,"25": 26.47587,"50": 12.53124,"75": 9.80635,"100": 8.35994,"125": 5.89291,"150": 4.64065,"175": 5.24585,"200": 6.04739,"225": 4.00965,"250": 3.03381,"275": 2.49159,"300": 2.16634,"325": 2.09067,"350": 0.93155,"375": 0.33578,"400": 0.17327,"425": 0.09745,"450": 0.09746,"475": 0.09745,"500": 0.05414}}}