{"type":"Feature","properties":{"GID_2":"NOR.15.9_1","GID_0":"NOR","country":"Norway","GID_1":"NOR.15_1","province":"Sør-Trøndelag","NL_NAME_1":"NA","county":"Malvik","VARNAME_2":"NA","NL_NAME_2":"NA","TYPE_2":"Kommuner","ENGTYPE_2":"Municipality","CC_2":"NA","HASC_2":"NO.ST.MA","name":"Malvik.county"},
"geometry":{"type": "MultiPolygon","coordinates": [[[[10.8519,63.4374,74.3368],[10.8479,63.4333,169.8844],[10.8443,63.4339,46.5904],[10.8396,63.4375,5.1694],[10.8333,63.4354,3.7212],[10.8089,63.4349,13.3993],[10.8026,63.4224,0.0],[10.8057,63.4203,0.0],[10.8057,63.4172,0.0],[10.7979,63.4125,6.2692],[10.7875,63.4125,8.2852],[10.7776,63.4172,21.4645],[10.7786,63.4203,12.9459],[10.775,63.4229,69.5376],[10.7766,63.4266,0.0],[10.7667,63.4313,0.0],[10.7583,63.4313,23.9709],[10.7542,63.4333,0.0],[10.7167,63.4333,0.0],[10.7125,63.4354,0.0],[10.6938,63.4354,13.6003],[10.6839,63.438,0.0],[10.6771,63.4417,0.0],[10.6729,63.4396,24.0171],[10.6583,63.4396,3.3075],[10.6542,63.4417,7.406],[10.6458,63.4417,0.0],[10.6417,63.4437,0.0],[10.6354,63.4437,0.0],[10.625,63.4396,0.0],[10.6125,63.4396,0.0],[10.6083,63.4417,0.0],[10.5938,63.4417,0.0],[10.5915,63.4404,8.4916],[10.597,63.4408,15.3522],[10.6028,63.423,260.5186],[10.5929,63.4224,265.8336],[10.5958,63.4135,350.6503],[10.6058,63.4141,198.2322],[10.613,63.3919,209.2248],[10.623,63.3926,268.6161],[10.6259,63.3837,201.3317],[10.606,63.3824,149.4904],[10.6075,63.378,193.4358],[10.6174,63.3786,239.2463],[10.6189,63.3742,221.1844],[10.6486,63.3761,307.5669],[10.653,63.3627,361.1031],[10.643,63.3621,321.0234],[10.6445,63.3577,225.1088],[10.6346,63.357,148.5],[10.636,63.3526,148.5],[10.6459,63.3532,249.5881],[10.6474,63.3488,190.7617],[10.6573,63.3494,236.6207],[10.6559,63.3539,281.8658],[10.6757,63.3551,274.3992],[10.6858,63.324,363.1515],[10.6957,63.3247,349.0977],[10.6985,63.3158,372.0328],[10.7084,63.3164,343.6049],[10.7113,63.3075,345.0579],[10.7212,63.3082,388.0175],[10.7226,63.3037,306.7215],[10.7424,63.305,274.1569],[10.7439,63.3005,273.1116],[10.7637,63.3018,272.088],[10.7651,63.2973,262.5],[10.7948,63.2992,280.1423],[10.7934,63.3037,334.7803],[10.8132,63.3049,354.8447],[10.8118,63.3094,360.3961],[10.8514,63.3119,370.6646],[10.8528,63.3074,306.4983],[10.8627,63.3081,340.2003],[10.8613,63.3125,386.6085],[10.9207,63.3162,564.2665],[10.9193,63.3207,504.9616],[10.9391,63.3219,475.6575],[10.9377,63.3264,487.0455],[10.9476,63.327,465.6877],[10.9448,63.3359,420.2913],[10.9349,63.3353,412.2017],[10.9335,63.3397,475.5238],[10.9236,63.3391,417.0129],[10.9222,63.3435,409.9215],[10.9123,63.3429,368.0258],[10.9109,63.3474,356.4737],[10.901,63.3468,349.9854],[10.8996,63.3512,305.4731],[10.8896,63.3506,362.3886],[10.8882,63.355,279.2531],[10.8783,63.3544,322.8261],[10.8769,63.3588,311.2185],[10.867,63.3582,271.9462],[10.8656,63.3627,276.654],[10.8556,63.362,283.1147],[10.8528,63.3709,351.0053],[10.8627,63.3716,294.2982],[10.8443,63.4294,269.7442],[10.8543,63.43,247.3329],[10.8519,63.4374,74.3368]]]]}}