{"type":"Feature","properties":{"GID_2":"NOR.9.15_1","GID_0":"NOR","country":"Norway","GID_1":"NOR.9_1","province":"Nord-Trøndelag","NL_NAME_1":"NA","county":"Namsos","VARNAME_2":"NA","NL_NAME_2":"NA","TYPE_2":"Kommuner","ENGTYPE_2":"Municipality","CC_2":"NA","HASC_2":"NO.NT.NM","name":"Namsos.county"},
"geometry":{"type": "MultiPolygon","coordinates": [[[[11.5261,64.2407,231.002],[11.5275,64.2362,292.8617],[11.5377,64.2368,405.5736],[11.5391,64.2323,427.8965],[11.5493,64.2329,394.1574],[11.548,64.2374,366.769],[11.589,64.2397,224.1254],[11.5876,64.2441,236.0139],[11.6286,64.2464,194.5695],[11.6273,64.2509,197.5293],[11.6683,64.2532,155.9301],[11.6669,64.2576,156.716],[11.6977,64.2593,240.2813],[11.6964,64.2638,299.3614],[11.7169,64.2649,306.0164],[11.7155,64.2694,357.026],[11.7361,64.2705,399.7226],[11.7347,64.275,397.1242],[11.745,64.2755,391.1277],[11.7437,64.28,373.455],[11.7539,64.2806,381.7502],[11.7526,64.285,362.0574],[11.7423,64.2844,356.6336],[11.741,64.2889,193.3365],[11.7307,64.2883,185.5185],[11.7294,64.2928,216.92],[11.7191,64.2922,250.4023],[11.7165,64.3011,307.3816],[11.7062,64.3006,333.0238],[11.7049,64.305,409.899],[11.6946,64.3045,387.0724],[11.6932,64.3089,378.9982],[11.683,64.3083,384.2299],[11.6803,64.3172,404.7615],[11.67,64.3167,438.8868],[11.6566,64.3612,264.2412],[11.6668,64.3618,416.4616],[11.6615,64.3796,425.9245],[11.6718,64.3802,413.1042],[11.6596,64.4203,362.5748],[11.6493,64.4197,347.5926],[11.6358,64.4643,269.3311],[11.6461,64.4648,85.097],[11.6438,64.4724,43.6431],[11.6386,64.475,23.608],[11.6313,64.4771,0.0],[11.6104,64.4771,0.0],[11.6026,64.4745,0.0],[11.6016,64.4693,10.9385],[11.5938,64.4667,5.0484],[11.5813,64.4667,0.0],[11.5771,64.4646,18.0065],[11.5729,64.4667,33.4663],[11.5688,64.4667,0.0],[11.5646,64.4646,0.0],[11.5521,64.4646,0.0],[11.5479,64.4625,0.0],[11.5375,64.4646,0.0],[11.5297,64.462,0.0],[11.5328,64.4599,0.0],[11.5313,64.4583,2.55],[11.5151,64.4578,0.0],[11.513,64.4547,1.8449],[11.5203,64.4516,0.0],[11.5203,64.4484,0.0],[11.5167,64.4479,10.5926],[11.5125,64.45,0.0],[11.5083,64.4458,13.4446],[11.4979,64.4479,28.5389],[11.4932,64.4443,0.0],[11.4839,64.4432,7.7556],[11.4828,64.4401,0.0],[11.475,64.4375,49.0701],[11.4708,64.4396,0.0],[11.4646,64.4396,0.0],[11.462,64.4359,0.0],[11.4542,64.4354,8.2535],[11.45,64.4333,20.7114],[11.438,64.4339,87.7056],[11.437,64.4391,0.0],[11.4354,64.4396,0.0],[11.4313,64.4396,6.4962],[11.4208,64.4354,0.0],[11.4146,64.4354,4.9069],[11.413,64.4359,0.0],[11.4141,64.4391,0.0],[11.4109,64.4401,58.918],[11.4083,64.4437,62.532],[11.4042,64.4437,47.8901],[11.3901,64.4391,0.0],[11.3875,64.4354,51.8084],[11.3833,64.4375,0.0],[11.3797,64.437,0.0],[11.3771,64.4313,0.0],[11.3807,64.4307,0.0],[11.3807,64.4276,30.4741],[11.3589,64.4203,0.0],[11.3568,64.4151,0.0],[11.3641,64.4141,86.7522],[11.3651,64.4109,0.0],[11.3734,64.4068,13.9852],[11.3849,64.4057,21.778],[11.3859,64.4026,0.0],[11.389099999999999,64.4005,35.2171],[11.3839,64.3995,3.3193],[11.3833,64.3979,0.0],[11.3859,64.3901,0.0],[11.389099999999999,64.388,0.0],[11.3854,64.3875,16.4601],[11.3755,64.3901,0.0],[11.3755,64.3932,64.7916],[11.3807,64.3943,0.0],[11.3766,64.3974,22.13],[11.3667,64.3979,4.1687],[11.3604,64.4,0.0],[11.3589,64.3995,17.8104],[11.3578,64.3943,57.936],[11.3557,64.3922,42.5213],[11.338,64.3912,0.0],[11.3396,64.3896,11.4071],[11.3453,64.3891,54.3569],[11.3401,64.387,115.77],[11.3411,64.3776,182.4037],[11.3333,64.3771,72.406],[11.3286,64.3734,0.0],[11.3224,64.3714,0.0],[11.313,64.3703,0.0],[11.312,64.3672,59.0817],[11.3026,64.3662,0.0],[11.2995,64.3646,0.0],[11.3012,64.3592,70.7932],[11.291,64.3586,40.4331],[11.2924,64.3541,32.5418],[11.2821,64.3535,41.4025],[11.2849,64.3446,64.8682],[11.3054,64.3458,110.58],[11.3097,64.3325,110.9824],[11.2994,64.3319,82.9633],[11.3022,64.323,224.7119],[11.2919,64.3224,166.4267],[11.2975,64.3046,223.8133],[11.3078,64.3052,242.8831],[11.312,64.2918,461.7294],[11.3325,64.293,369.2753],[11.3339,64.2886,282.1413],[11.3544,64.2897,395.6362],[11.3558,64.2853,421.0964],[11.4174,64.2888,153.8872],[11.4188,64.2844,112.887],[11.429,64.285,111.4516],[11.4304,64.2805,114.3852],[11.4509,64.2817,109.348],[11.4495,64.2861,96.2391],[11.4598,64.2867,127.3103],[11.4626,64.2778,225.6528],[11.4728,64.2784,181.1067],[11.4756,64.2695,144.5314],[11.4858,64.2701,178.663],[11.4886,64.2612,151.9918],[11.4988,64.2618,286.0847],[11.5002,64.2573,191.668],[11.5104,64.2579,283.9243],[11.5159,64.2401,248.1714],[11.5261,64.2407,231.002]]],
[[[11.6443,64.4776,0.0],[11.6453,64.4773,0.0],[11.6433,64.4787,1.1338],[11.6443,64.4776,0.0]]],
[[[11.4521,64.5354,41.1383],[11.4505,64.5349,41.1383],[11.4505,64.5339,49.092],[11.4536,64.5339,13.1137],[11.4521,64.5354,41.1383]]],
[[[11.4839,64.537,18.7496],[11.4839,64.5339,0.0],[11.4854,64.5333,0.0],[11.4891,64.5359,36.8751],[11.4875,64.5375,39.5146],[11.4839,64.537,18.7496]]],
[[[11.3839,64.4807,0.0],[11.3839,64.4776,0.0],[11.387,64.4776,0.0],[11.387,64.4807,26.8817],[11.3839,64.4807,0.0]]],
[[[11.4495,64.537,14.5588],[11.4464,64.537,28.1595],[11.4464,64.5359,14.1073],[11.4495,64.5359,42.9294],[11.4495,64.537,14.5588]]],
[[[11.3505,64.5984,0.0],[11.3563,64.5958,12.7152],[11.3604,64.6,0.0],[11.3599,64.6016,0.0],[11.3542,64.6021,0.0],[11.3505,64.5984,0.0]]],
[[[11.4776,64.5453,0.0],[11.4776,64.5422,0.0],[11.4792,64.5417,0.0],[11.4828,64.5443,16.3419],[11.4813,64.5458,0.0],[11.4776,64.5453,0.0]]],
[[[11.3949,64.5957,35.9183],[11.3828,64.595,0.0],[11.3687,64.5896,0.0],[11.3625,64.5896,0.0],[11.3547,64.587,0.0],[11.3536,64.5839,0.0],[11.3464,64.5787,0.0],[11.3443,64.5745,41.8677],[11.3443,64.5693,21.4485],[11.3474,64.5682,84.6144],[11.3464,64.563,45.1383],[11.3521,64.5604,0.0],[11.3667,64.5604,6.5799],[11.3682,64.5589,36.4466],[11.363,64.5568,20.9391],[11.3672,64.5547,25.4861],[11.3833,64.5542,69.1473],[11.3938,64.5479,0.0],[11.4,64.5479,0.0],[11.4068,64.5443,0.0],[11.4167,64.5417,0.0],[11.4208,64.5437,14.9027],[11.4292,64.5396,0.0],[11.4396,64.5396,0.0],[11.4432,64.5422,0.0],[11.4391,64.5453,0.0],[11.4318,64.5463,4.6466],[11.4333,64.5479,0.0],[11.4437,64.5479,0.0],[11.4479,64.5458,0.0],[11.4521,64.55,0.0],[11.4583,64.55,0.0],[11.4625,64.5479,0.0],[11.4729,64.5479,0.0],[11.4875,64.5542,0.0],[11.5021,64.5479,0.0],[11.5036,64.5484,0.0],[11.5063,64.5542,0.0],[11.5057,64.5557,10.7593],[11.4984,64.5589,0.0],[11.5021,64.5604,0.0],[11.512,64.5578,0.0],[11.5188,64.5542,0.0],[11.5245,64.5537,1.3015],[11.5292,64.55,21.0769],[11.5271,64.5479,0.0],[11.5208,64.5479,8.4716],[11.5167,64.55,0.0],[11.5,64.5437,14.7794],[11.488,64.5432,0.0],[11.4922,64.5401,5.8398],[11.499,64.5392,0.0],[11.5078,64.5349,0.0],[11.5026,64.5328,9.391],[11.4964,64.5276,0.0],[11.5083,64.5271,9.7073],[11.5151,64.5307,10.6556],[11.525,64.5333,0.0],[11.5266,64.5318,0.0],[11.5234,64.5255,3.9256],[11.537,64.5245,0.0],[11.5349,64.5193,0.0],[11.5167,64.5146,0.0],[11.5125,64.5146,0.0],[11.5083,64.5167,0.0],[11.4938,64.5167,4.7775],[11.4896,64.5188,0.0],[11.4729,64.5167,0.0],[11.4688,64.5188,0.0],[11.4609,64.5162,0.0],[11.4599,64.513,8.3196],[11.4458,64.5083,0.0],[11.4443,64.5089,0.0],[11.4443,64.512,0.0],[11.4495,64.513,0.0],[11.451599999999999,64.5151,0.0],[11.4542,64.5229,0.0],[11.4432,64.5307,0.0],[11.4333,64.5354,0.0],[11.4188,64.5375,16.7802],[11.3896,64.5458,24.8383],[11.3833,64.5458,152.2753],[11.375,64.55,15.563],[11.3646,64.55,0.0],[11.3604,64.5479,33.4549],[11.3563,64.55,0.0],[11.3401,64.5495,75.0422],[11.338,64.5463,0.0],[11.3453,64.5432,0.0],[11.3453,64.5401,15.0967],[11.3438,64.5396,15.0967],[11.3,64.5396,0.0],[11.2958,64.5417,0.0],[11.2708,64.5417,7.8246],[11.2693,64.5422,9.6034],[11.2693,64.5453,0.0],[11.2714,64.5474,0.0],[11.2766,64.5484,0.0],[11.2807,64.5589,0.0],[11.2771,64.5625,21.1141],[11.2797,64.5703,0.0],[11.2839,64.5787,0.0],[11.2891,64.5807,0.0],[11.2818,64.5839,0.0],[11.2828,64.5891,0.0],[11.2755,64.5901,0.0],[11.2589,64.5984,0.0],[11.2599,64.6036,0.0],[11.2505,64.6047,5.1181],[11.2443,64.6088,0.0],[11.2458,64.6104,0.0],[11.2536,64.6109,0.0],[11.2464,64.6151,0.0],[11.2453,64.6182,0.0],[11.2292,64.6188,30.4969],[11.225,64.6208,13.6688],[11.2146,64.6208,0.0],[11.2104,64.6188,0.0],[11.2063,64.6188,0.0],[11.2021,64.6208,0.0],[11.1958,64.6208,0.0],[11.1938,64.6188,0.0],[11.1958,64.6167,0.0],[11.225,64.6167,0.0],[11.2286,64.613,0.0],[11.2167,64.6125,19.8036],[11.2125,64.6146,0.0],[11.2083,64.6146,0.0],[11.2042,64.6125,16.954],[11.1875,64.6125,124.6773],[11.1776,64.6151,33.8249],[11.1797,64.6182,0.0],[11.1828,64.6193,18.1242],[11.1813,64.6208,0.0],[11.1667,64.6208,0.0],[11.1609,64.6193,0.0],[11.1568,64.6214,0.0],[11.1557,64.6245,0.0],[11.1401,64.6318,0.0],[11.137,64.637,0.0],[11.1297,64.6401,0.0],[11.1307,64.6432,0.0],[11.1188,64.6438,8.4117],[11.1089,64.6464,0.0],[11.1078,64.6516,0.0],[11.1063,64.6521,0.0],[11.0755,64.6516,0.0],[11.0745,64.6484,34.0347],[11.0693,64.6474,0.0],[11.0641,64.6359,0.0],[11.0521,64.6354,2.8039],[11.0479,64.6375,0.0],[11.0401,64.6349,0.0],[11.0375,64.6312,26.1202],[11.0411,64.6286,9.569],[11.0411,64.6255,0.0],[11.0318,64.6245,0.0],[11.0276,64.6182,0.0],[11.0292,64.6167,0.0],[11.037,64.6162,39.7967],[11.0349,64.6109,26.0682],[11.0297,64.6099,0.0],[11.0292,64.6083,0.0],[11.0328,64.6057,36.5248],[11.0318,64.6005,0.0],[11.0401,64.5964,0.0],[11.05,64.5958,91.2984],[11.0542,64.5938,0.0],[11.0687,64.5938,84.746],[11.0813,64.5896,0.0],[11.0891,64.5891,89.5723],[11.0938,64.5854,0.0],[11.125,64.5854,0.0],[11.1396,64.5896,74.8362],[11.1438,64.5875,0.0],[11.1604,64.5875,0.0],[11.1646,64.5896,40.7656],[11.1688,64.5875,0.0],[11.1729,64.5896,10.7574],[11.1896,64.5896,0.0],[11.1938,64.5917,25.8935],[11.2,64.5917,11.2411],[11.2083,64.5875,0.0],[11.2167,64.5875,0.0],[11.2266,64.5849,25.2187],[11.2234,64.5818,0.0],[11.2286,64.5787,0.0],[11.2292,64.575,0.0],[11.2266,64.5693,56.4756],[11.225,64.5687,32.6632],[11.2188,64.5687,0.0],[11.213,64.5714,50.9183],[11.2141,64.5745,10.931],[11.2109,64.5755,19.0506],[11.2099,64.5787,0.0],[11.2026,64.5818,21.5076],[11.2036,64.5849,0.0],[11.1958,64.5854,34.4579],[11.1917,64.5875,0.0],[11.1839,64.5849,0.0],[11.1828,64.5797,2.966],[11.1688,64.575,0.0],[11.1646,64.5771,26.422],[11.1583,64.5771,0.0],[11.1505,64.5745,0.0],[11.1536,64.5724,3.6489],[11.1536,64.5693,94.7018],[11.1443,64.5682,0.0],[11.1359,64.562,174.4388],[11.1359,64.5589,104.0891],[11.139099999999999,64.5578,95.4176],[11.1375,64.5542,0.0],[11.1396,64.5479,8.2087],[11.138,64.5422,22.6357],[11.1495,64.537,0.0],[11.1505,64.5339,0.0],[11.1557,64.5307,0.0],[11.1568,64.5276,0.0],[11.1599,64.5266,0.0],[11.1589,64.5234,0.0],[11.1703,64.5182,92.1421],[11.1714,64.5151,0.0],[11.1786,64.5141,20.6907],[11.1979,64.5042,0.0],[11.2026,64.5099,66.1021],[11.2208,64.5104,0.0],[11.225,64.5146,20.7265],[11.2292,64.5125,0.0],[11.2354,64.5125,0.0],[11.2396,64.5146,2.202],[11.25,64.5146,0.0],[11.2562,64.5167,5.8008],[11.2604,64.5146,0.0],[11.2688,64.5146,21.215],[11.2729,64.5125,0.0],[11.2833,64.5125,1.5959],[11.2891,64.5099,0.0],[11.287,64.5068,0.0],[11.2839,64.5057,10.9236],[11.2859,64.4984,19.4039],[11.2995,64.4912,0.0],[11.2984,64.4859,0.0],[11.3068,64.4818,0.0],[11.3292,64.4812,0.0],[11.3333,64.4833,23.4655],[11.3375,64.4812,0.0],[11.3417,64.4833,24.6203],[11.3687,64.4833,0.0],[11.3729,64.4854,0.0],[11.3833,64.4854,0.0],[11.3896,64.4875,0.0],[11.3938,64.4833,0.0],[11.3922,64.4776,0.0],[11.3953,64.4766,0.0],[11.3964,64.4734,0.0],[11.4021,64.4708,0.0],[11.4063,64.4729,0.0],[11.4182,64.4734,0.0],[11.4203,64.4766,0.0],[11.4172,64.4776,9.04],[11.4172,64.4807,39.6598],[11.4224,64.4838,0.0],[11.4266,64.4901,0.0],[11.4234,64.4932,15.0698],[11.4266,64.4943,0.0],[11.4297,64.4995,60.1617],[11.4359,64.5036,0.0],[11.4453,64.5036,5.8991],[11.4401,64.5016,0.0],[11.4391,64.4984,0.0],[11.4339,64.4964,0.0],[11.4411,64.4953,0.0],[11.4422,64.4901,0.0],[11.4578,64.487,0.0],[11.4578,64.4838,92.4243],[11.4396,64.4854,0.0],[11.4349,64.4797,0.0],[11.4255,64.4755,0.0],[11.4313,64.4729,0.0],[11.437,64.4724,1.0734],[11.438,64.4693,0.0],[11.4453,64.4682,1.631],[11.4432,64.4609,77.0908],[11.438,64.4599,0.0],[11.438,64.4568,4.1998],[11.4401,64.4547,24.9429],[11.4479,64.4542,0.0],[11.4521,64.4521,0.0],[11.4563,64.4542,49.1383],[11.4641,64.4547,0.0],[11.4667,64.4583,70.4262],[11.4766,64.4589,0.0],[11.4776,64.4641,10.4554],[11.4813,64.4667,4.4916],[11.4917,64.4667,4.1197],[11.5042,64.4604,3.0168],[11.5125,64.4604,0.0],[11.5203,64.463,0.0],[11.5292,64.4688,1.82],[11.5354,64.4667,0.0],[11.5458,64.4667,0.0],[11.5542,64.4708,2.3206],[11.5896,64.4708,0.0],[11.5979,64.4792,88.5804],[11.6021,64.4771,0.0],[11.6063,64.4792,64.8559],[11.6433,64.4787,1.1338],[11.6335,64.4828,117.9298],[11.6193,64.4837,65.8184],[11.6186,64.486,118.5114],[11.629,64.4865,99.0437],[11.6262,64.4954,46.455],[11.6366,64.496,119.8733],[11.6352,64.5005,111.4827],[11.6249,64.4999,90.8506],[11.6235,64.5043,95.374],[11.6132,64.5038,106.2878],[11.6118,64.5082,121.4791],[11.6325,64.5094,235.8936],[11.6311,64.5138,277.3287],[11.6622,64.5155,264.7338],[11.6608,64.52,190.4063],[11.6712,64.5206,243.0843],[11.6698,64.525,309.5595],[11.6802,64.5256,310.0437],[11.6748,64.5434,285.1582],[11.6955,64.5446,332.0629],[11.6968,64.5401,476.4245],[11.7072,64.5407,398.934],[11.7058,64.5451,382.9378],[11.7991,64.5502,561.6224],[11.7978,64.5547,443.3711],[11.8496,64.5575,530.2811],[11.8483,64.5619,573.0938],[11.8898,64.5642,533.4948],[11.8885,64.5686,556.1168],[11.8988,64.5692,561.6633],[11.8975,64.5736,511.2325],[11.9079,64.5742,533.4066],[11.9053,64.5831,306.2582],[11.9156,64.5837,328.1794],[11.9037,64.6238,376.8621],[11.8933,64.6232,332.0681],[11.8894,64.6366,507.8509],[11.7958,64.6316,490.6369],[11.7944,64.636,502.0959],[11.7217,64.6321,242.2792],[11.7203,64.6365,249.8307],[11.6579,64.6331,109.5604],[11.6566,64.6376,189.3367],[11.5838,64.6335,338.8882],[11.5824,64.638,262.946],[11.5617,64.6368,312.5684],[11.563,64.6324,329.3665],[11.5319,64.6306,145.1672],[11.5332,64.6262,139.3597],[11.5229,64.6256,157.1475],[11.5242,64.6211,62.7464],[11.5139,64.6206,115.1354],[11.5152,64.6161,51.8981],[11.5049,64.6155,53.047],[11.5062,64.6111,44.0],[11.4959,64.6105,44.0],[11.4973,64.606,44.0],[11.4869,64.6055,129.8167],[11.4883,64.601,131.7652],[11.4779,64.6004,242.6664],[11.4807,64.5915,320.916],[11.4703,64.5909,44.7298],[11.4721,64.582,54.9486],[11.4627,64.5814,73.1325],[11.4655,64.5725,56.3271],[11.4447,64.5714,199.5756],[11.442,64.5803,212.2525],[11.4316,64.5797,245.7815],[11.4302,64.5841,202.3518],[11.4198,64.5835,132.7497],[11.4184,64.588,24.5],[11.408,64.5874,83.503],[11.4066,64.5919,90.3151],[11.3963,64.5913,27.7943],[11.3949,64.5957,35.9183]]],
[[[11.3458,64.4,21.1279],[11.3443,64.3984,29.2111],[11.3495,64.3984,55.1023],[11.3495,64.3995,29.854],[11.3458,64.4,21.1279]]],
[[[11.2063,64.4563,13.6442],[11.2047,64.4557,8.5826],[11.2047,64.4547,20.3607],[11.2078,64.4547,32.2259],[11.2063,64.4563,13.6442]]],
[[[11.2021,64.4583,15.0865],[11.2005,64.4578,0.0],[11.2005,64.4568,7.9645],[11.2036,64.4568,6.6658],[11.2021,64.4583,15.0865]]],
[[[11.1919,64.4612,0.0],[11.1903,64.4593,0.0],[11.1898,64.4586,0.0],[11.1911,64.4589,0.0],[11.1919,64.4612,0.0]]],
[[[11.3526,64.4057,0.0],[11.3526,64.4026,5.0212],[11.3542,64.4021,11.3753],[11.3661,64.4026,8.5967],[11.3604,64.4063,12.0353],[11.3526,64.4057,0.0]]],
[[[11.375,64.4313,9.7755],[11.3734,64.4297,0.0],[11.3771,64.4292,0.0],[11.3771,64.4313,0.0],[11.375,64.4313,9.7755]]],
[[[11.3672,64.4661,0.0],[11.3672,64.4609,0.0],[11.3703,64.4609,0.0],[11.3724,64.4661,0.0],[11.3672,64.4661,0.0]]],
[[[11.3479,64.4688,17.9431],[11.3443,64.4672,0.0],[11.3641,64.4672,0.0],[11.3583,64.4708,0.0],[11.3521,64.4708,6.8052],[11.3479,64.4688,17.9431]]],
[[[11.1979,64.4646,37.2854],[11.1949,64.4649,0.0],[11.1927,64.4621,0.0],[11.2,64.4625,35.1726],[11.2125,64.4563,70.1002],[11.2167,64.4563,9.5736],[11.2208,64.4583,0.0],[11.2417,64.4583,0.0],[11.2599,64.463,0.0],[11.2609,64.4661,18.718],[11.2688,64.4667,22.7822],[11.2734,64.4703,0.0],[11.2813,64.4708,0.0],[11.2828,64.4724,5.139],[11.2771,64.475,0.0],[11.2651,64.4755,0.0],[11.2766,64.4818,0.0],[11.2734,64.4838,22.6682],[11.2745,64.487,0.0],[11.2646,64.4896,0.0],[11.2542,64.4875,82.6837],[11.2458,64.4917,0.0],[11.2354,64.4917,0.0],[11.2313,64.4896,47.48],[11.2146,64.4896,0.0],[11.212,64.4859,44.0507],[11.2068,64.4849,12.2897],[11.2047,64.4828,5.879],[11.2042,64.4792,0.0],[11.2078,64.4766,67.0458],[11.2068,64.4734,0.0],[11.2125,64.4708,16.3188],[11.2182,64.4703,0.0],[11.2182,64.4672,0.0],[11.2146,64.4646,0.0],[11.2104,64.4667,11.4683],[11.2063,64.4667,43.27],[11.2021,64.4646,75.6203],[11.1979,64.4646,37.2854]]],
[[[11.325,64.5646,7.8111],[11.3214,64.563,0.0],[11.3307,64.563,0.0],[11.3292,64.5646,0.0],[11.325,64.5646,7.8111]]],
[[[11.1208,64.5771,0.0],[11.1172,64.5755,0.0],[11.1292,64.575,0.0],[11.1328,64.5787,17.4973],[11.1271,64.5813,0.0],[11.1208,64.5771,0.0]]]]}}