{"type":"Feature","properties":{"GID_2":"NOR.3.2_1","GID_0":"NOR","country":"Norway","GID_1":"NOR.3_1","province":"Aust-Agder","NL_NAME_1":"NA","county":"Arendal","VARNAME_2":"NA","NL_NAME_2":"NA","TYPE_2":"Kommuner","ENGTYPE_2":"Municipality","CC_2":"NA","HASC_2":"NO.AA.AR","name":"Arendal.county"},
"geometry":{"type": "MultiPolygon","coordinates": [[[[8.7869,58.4004,9.3735],[8.7831,58.401,0.0],[8.7819,58.3988,3.256],[8.7931,58.3976,0.7666],[8.7919,58.3996,0.0],[8.7869,58.4004,9.3735]]],
[[[8.7431,58.4007,0.0],[8.7403,58.4024,0.5868],[8.7303,58.3971,0.1805],[8.7319,58.3968,0.0],[8.7431,58.4007,0.0]]],
[[[8.7281,58.4051,0.0],[8.7197,58.4049,2.647],[8.7192,58.4032,0.0],[8.7258,58.4038,1.4167],[8.7281,58.4051,0.0]]],
[[[8.7919,58.4129,1.6179],[8.7903,58.4135,6.2815],[8.7886,58.4124,0.0],[8.7942,58.4107,0.0],[8.7919,58.4129,1.6179]]],
[[[8.8175,58.4346,0.5959],[8.8119,58.4349,0.0],[8.8092,58.4296,0.0],[8.8119,58.429,3.1797],[8.8192,58.4324,0.0],[8.8175,58.4346,0.5959]]],
[[[8.9481,58.5096,2.5276],[8.9481,58.5118,4.3131],[8.9353,58.5107,1.0534],[8.9386,58.5099,3.8151],[8.9353,58.5066,7.0142],[8.9331,58.5065,9.7993],[8.9308,58.5099,3.3688],[8.9264,58.5096,2.293],[8.9214,58.5068,9.6779],[8.8814,58.4951,5.1032],[8.8692,58.4888,0.0],[8.8631,58.4874,0.0],[8.8608,58.4851,29.3203],[8.8547,58.4846,4.7671],[8.8531,58.4815,16.6511],[8.8497,58.4813,3.0888],[8.8508,58.4774,0.9371],[8.8497,58.4768,10.043],[8.8436,58.4776,0.0],[8.8431,58.471,1.969],[8.8358,58.474,0.0],[8.8336,58.4718,0.0],[8.8347,58.4682,1.7863],[8.8336,58.4674,1.7863],[8.8286,58.4676,1.6827],[8.8292,58.4696,0.0],[8.8242,58.4704,19.4503],[8.8186,58.469,2.165],[8.8164,58.4663,0.0],[8.8031,58.4643,3.6446],[8.7953,58.4579,4.4337],[8.7892,58.461,0.0],[8.7803,58.4596,1.3036],[8.7808,58.4549,0.0],[8.7858,58.4557,0.0],[8.7842,58.4538,7.3326],[8.7842,58.446,10.0284],[8.7858,58.4435,0.0],[8.7864,58.4368,0.0],[8.8108,58.436,2.1511],[8.8147,58.4399,0.0],[8.8131,58.4429,8.5422],[8.8197,58.4429,2.9986],[8.8208,58.4404,0.0],[8.8242,58.4413,0.5196],[8.8214,58.4451,12.5479],[8.8153,58.4485,2.7504],[8.8158,58.4496,1.1929],[8.8192,58.449,6.7264],[8.8247,58.4443,1.2112],[8.8269,58.446,0.0],[8.8342,58.4454,0.0],[8.8336,58.4488,11.3825],[8.8386,58.4482,0.0],[8.8397,58.4446,9.0939],[8.8308,58.4407,0.0],[8.8281,58.4368,6.0606],[8.8231,58.4351,4.7786],[8.8225,58.4326,0.0],[8.8264,58.4321,8.0778],[8.8453,58.4374,0.0],[8.8581,58.444,6.1667],[8.8614,58.4435,0.0],[8.8686,58.4474,9.2229],[8.8747,58.4482,0.0],[8.8742,58.4499,0.0],[8.8803,58.4526,0.0],[8.8814,58.4549,1.9316],[8.8908,58.4579,0.0],[8.8942,58.4615,5.5998],[8.8981,58.4624,0.0],[8.8964,58.4626,1.633],[8.8958,58.4657,0.0],[8.8769,58.4654,28.9908],[8.8703,58.4674,9.2255],[8.8881,58.4668,0.0],[8.8919,58.4685,0.0],[8.8925,58.471,3.5194],[8.8969,58.4704,0.9811],[8.9019,58.4746,10.4291],[8.9108,58.4785,0.0],[8.9103,58.481,3.0937],[8.9119,58.4813,0.0],[8.9125,58.4837,0.0],[8.9175,58.484,0.0],[8.9203,58.486,0.0],[8.9192,58.4882,7.5514],[8.9225,58.4904,0.0],[8.9186,58.4918,6.1138],[8.9253,58.4924,0.0],[8.9242,58.4954,0.0],[8.9297,58.4949,0.0],[8.9297,58.4968,0.0],[8.9319,58.4974,0.0],[8.9308,58.5001,3.0676],[8.9369,58.5004,2.169],[8.9347,58.4996,2.169],[8.9353,58.4985,0.0],[8.9397,58.4999,0.9577],[8.9392,58.5021,3.3486],[8.9464,58.5065,0.0],[8.9481,58.5096,2.5276]]],
[[[8.9242,58.4835,0.0],[8.9181,58.4835,1.2692],[8.9153,58.4804,1.7385],[8.9164,58.4785,3.8802],[8.9153,58.4774,3.8802],[8.9097,58.4768,7.1527],[8.9092,58.474,2.3865],[8.9053,58.4721,3.0827],[8.9008,58.4729,1.0995],[8.9014,58.4715,2.2217],[8.8981,58.4704,0.9811],[8.8997,58.4693,0.7158],[8.8997,58.466,0.0],[8.9019,58.4668,0.0],[8.9019,58.4688,0.7158],[8.9086,58.4704,0.0],[8.9097,58.474,2.3865],[8.9186,58.4746,1.594],[8.9186,58.4768,4.278],[8.9208,58.4771,2.003],[8.9192,58.479,5.2467],[8.9242,58.4835,0.0]]],
[[[8.9003,58.5221,4.557],[8.9014,58.5232,4.557],[8.8942,58.5229,0.0],[8.8969,58.5215,1.5149],[8.9003,58.5221,4.557]]],
[[[8.7675,58.4168,10.3212],[8.7653,58.4174,1.1209],[8.7619,58.4154,0.0],[8.7636,58.4143,4.8547],[8.7631,58.4124,0.8668],[8.7675,58.4135,0.0],[8.7692,58.4162,0.0],[8.7675,58.4168,10.3212]]],
[[[8.8131,58.4274,0.0],[8.7942,58.4265,1.5371],[8.7908,58.4235,0.0],[8.8064,58.4218,0.0],[8.8075,58.4226,0.0],[8.8064,58.4235,0.0],[8.8081,58.4238,2.9366],[8.8108,58.4224,1.4385],[8.8119,58.4232,1.4385],[8.8103,58.4257,0.8935],[8.8131,58.4274,0.0]]],
[[[8.9442,58.5918,2.5008],[8.9425,58.5929,4.6063],[8.9402,58.5864,7.3394],[8.9442,58.5778,92.3577],[8.9357,58.577,43.86],[8.9414,58.5593,4.5],[8.9074,58.5563,30.1147],[8.9088,58.5519,36.6751],[8.8748,58.5489,66.8973],[8.8691,58.5666,91.2408],[8.8776,58.5674,58.7627],[8.8747,58.5762,101.5867],[8.8662,58.5755,151.4276],[8.8648,58.5799,150.1878],[8.8563,58.5791,67.0955],[8.8549,58.5836,65.005],[8.8464,58.5828,64.1402],[8.8435,58.5917,62.5469],[8.835,58.5909,117.6248],[8.8336,58.5953,105.9722],[8.8251,58.5946,96.2657],[8.8222,58.6034,130.1103],[8.8052,58.6019,105.5536],[8.8066,58.5975,112.0351],[8.7981,58.5967,137.6032],[8.7995,58.5923,159.1124],[8.757,58.5885,176.2109],[8.7584,58.5841,155.3996],[8.7499,58.5834,150.7133],[8.7543,58.5701,183.0109],[8.7458,58.5693,124.4501],[8.7501,58.5561,94.0656],[8.7416,58.5553,115.1634],[8.7459,58.542,114.5551],[8.7374,58.5413,127.7158],[8.7403,58.5324,105.2476],[8.7318,58.5317,93.5318],[8.7347,58.5228,94.4785],[8.7262,58.5221,84.8578],[8.7277,58.5177,80.2665],[8.6937,58.5146,120.9867],[8.6952,58.5102,108.7056],[8.6867,58.5094,104.8273],[8.6881,58.505,96.8478],[8.6712,58.5035,109.6435],[8.6784,58.4814,60.112],[8.6699,58.4806,79.2607],[8.6714,58.4762,46.4666],[8.6544,58.4747,76.337],[8.653,58.4791,96.2918],[8.6191,58.476,44.4945],[8.6205,58.4716,69.574],[8.612,58.4708,75.1081],[8.615,58.462,65.1038],[8.6065,58.4612,70.7099],[8.6094,58.4524,39.6892],[8.6009,58.4516,151.7747],[8.5995,58.456,138.634],[8.591,58.4553,108.4987],[8.5895,58.4597,95.2169],[8.5811,58.4589,78.7719],[8.5796,58.4633,88.3117],[8.5542,58.461,137.5468],[8.5557,58.4566,186.397],[8.5472,58.4558,128.7037],[8.5384,58.4824,190.4787],[8.5299,58.4816,213.1629],[8.5255,58.4948,184.5362],[8.5001,58.4925,238.7919],[8.5192,58.4351,116.5057],[8.5276,58.4358,97.6822],[8.532,58.4226,128.2578],[8.5405,58.4234,103.3344],[8.5434,58.4145,100.9604],[8.5519,58.4153,56.5],[8.5548,58.4065,90.1117],[8.5633,58.4072,82.4881],[8.5647,58.4028,58.6159],[8.5732,58.4036,37.5],[8.5717,58.408,37.5],[8.5802,58.4088,37.5],[8.5773,58.4176,80.5909],[8.5857,58.4184,43.916],[8.5843,58.4228,51.1941],[8.6097,58.4251,97.8949],[8.6169,58.403,96.4917],[8.6677,58.4076,39.8617],[8.6691,58.4032,35.6091],[8.6776,58.4039,32.5911],[8.679,58.3995,27.0257],[8.6959,58.401,-0.0441],[8.6974,58.3966,5.2559],[8.7086,58.3976,1.0867],[8.7114,58.4004,1.481],[8.7086,58.4015,2.9006],[8.7081,58.404,1.0337],[8.7158,58.4049,0.0],[8.7208,58.4071,1.3328],[8.7202,58.4088,2.8515],[8.7225,58.4101,0.0],[8.7258,58.4096,0.7938],[8.7236,58.4071,0.0],[8.7319,58.4101,3.252],[8.7403,58.4099,0.0],[8.7419,58.4126,5.3386],[8.7403,58.4162,1.7055],[8.7353,58.419,2.8731],[8.7453,58.4162,1.1868],[8.7453,58.4185,4.9441],[8.7542,58.421,3.7223],[8.7536,58.4251,10.1511],[8.7592,58.424,0.5161],[8.7625,58.4251,0.5161],[8.7692,58.4221,7.6955],[8.7742,58.4229,2.4756],[8.7725,58.4207,3.2569],[8.7747,58.4182,0.0],[8.7808,58.4207,0.0],[8.7725,58.426,0.7136],[8.7753,58.4293,0.0],[8.7725,58.4293,3.0328],[8.7719,58.4307,6.9604],[8.7786,58.4299,0.0],[8.7786,58.4324,7.5426],[8.7819,58.4335,0.0],[8.7814,58.4351,2.9707],[8.7842,58.4374,0.0],[8.7819,58.4415,0.0],[8.7792,58.4454,4.8865],[8.7764,58.4465,4.2853],[8.7764,58.4482,4.0191],[8.7725,58.4485,3.5463],[8.7753,58.4507,0.0],[8.7725,58.4551,0.0],[8.7619,58.4538,0.0],[8.7597,58.4512,32.0362],[8.7553,58.4521,1.0929],[8.7586,58.4557,10.3448],[8.7669,58.4562,0.0],[8.7747,58.459,9.7282],[8.7758,58.461,0.2457],[8.7847,58.4618,0.0],[8.7897,58.4657,5.5835],[8.7931,58.4654,0.0],[8.7992,58.4679,0.618],[8.7981,58.4699,0.0],[8.7997,58.4712,2.4271],[8.8069,58.4679,0.0],[8.8208,58.4718,0.0],[8.8231,58.4729,3.4676],[8.8236,58.4757,4.5934],[8.8292,58.4738,0.0],[8.8292,58.4754,0.0],[8.8331,58.4765,0.0],[8.8308,58.4787,3.9616],[8.8369,58.4821,4.5926],[8.8347,58.4837,9.9623],[8.8436,58.4879,1.0584],[8.8464,58.4857,0.0],[8.8497,58.4854,0.0],[8.8581,58.4882,1.0875],[8.8625,58.4926,9.9121],[8.8708,58.4924,7.4219],[8.8808,58.4974,5.3115],[8.8869,58.4982,0.0],[8.8875,58.5013,0.6399],[8.8919,58.5021,6.8181],[8.8908,58.5035,6.8181],[8.8936,58.5051,1.0271],[8.8931,58.5065,3.8939],[8.8992,58.5088,0.0],[8.9014,58.5118,0.8944],[8.9003,58.5135,4.0442],[8.8975,58.5135,3.9385],[8.8925,58.5101,0.0],[8.8936,58.5082,6.5444],[8.8903,58.5062,11.8671],[8.8847,58.5051,0.983],[8.8814,58.5068,8.3134],[8.8886,58.5096,0.0],[8.8881,58.511,7.3668],[8.8925,58.5124,15.8543],[8.8947,58.516,1.1941],[8.8981,58.5163,2.1388],[8.8969,58.5201,0.0],[8.8897,58.5232,3.2037],[8.8864,58.5229,0.0],[8.8942,58.5254,0.0],[8.8947,58.5271,7.9945],[8.8997,58.5276,5.9979],[8.9003,58.5262,1.8168],[8.9036,58.526,2.0045],[8.9025,58.5243,0.0],[8.9064,58.524,3.3154],[8.9025,58.5229,4.557],[8.9031,58.5207,3.2991],[8.9014,58.5182,0.0],[8.9064,58.519,6.0733],[8.9103,58.5174,9.4932],[8.9097,58.511,3.4283],[8.9225,58.5101,0.0],[8.9253,58.5132,0.0],[8.9192,58.5154,25.5512],[8.9242,58.5154,0.0],[8.9253,58.5171,3.8224],[8.9336,58.5185,0.0],[8.9308,58.5218,2.5865],[8.9358,58.5229,0.9772],[8.9369,58.526,16.4608],[8.9419,58.524,0.6247],[8.9431,58.5179,1.5192],[8.9486,58.5187,0.0],[8.9492,58.5213,1.3584],[8.9547,58.5218,0.0],[8.9542,58.5238,7.2253],[8.9581,58.5249,0.6846],[8.9575,58.5262,0.0],[8.9658,58.5265,0.0],[8.9742,58.5318,0.0],[8.9736,58.5332,3.3327],[8.9769,58.5335,0.0],[8.9753,58.5349,1.1038],[8.9764,58.5376,4.825],[8.9825,58.5418,0.0],[8.9831,58.544,2.5211],[8.9925,58.5496,0.0],[8.9836,58.5515,6.2492],[8.9764,58.5513,0.0],[8.9842,58.5526,4.1153],[8.9931,58.5513,0.0],[9.0014,58.5557,2.3691],[9.0008,58.5571,0.0],[8.9964,58.5568,10.7645],[8.9958,58.5579,7.6178],[8.9975,58.5588,0.0],[8.9958,58.5601,9.7307],[9.0047,58.5601,0.0],[9.0008,58.5629,0.0],[8.9947,58.5626,0.0],[8.9969,58.5657,7.1459],[8.9953,58.569,0.0],[8.9925,58.5699,32.446],[8.9931,58.5715,13.2037],[8.9881,58.5746,1.0947],[8.9881,58.5799,0.0],[8.9792,58.5851,13.3492],[8.9753,58.5851,15.5027],[8.9736,58.5838,0.0],[8.9753,58.5818,10.0346],[8.9753,58.5779,23.8629],[8.9725,58.5754,0.0],[8.9731,58.5718,0.0],[8.9769,58.5693,2.6708],[8.9758,58.5679,0.0],[8.9786,58.5668,1.4594],[8.9753,58.5657,0.8346],[8.9781,58.5607,2.5573],[8.9764,58.5599,0.0],[8.9769,58.5579,1.1841],[8.9664,58.5543,14.7108],[8.9719,58.5588,30.741],[8.9719,58.5604,30.741],[8.9747,58.5612,1.149],[8.9725,58.564,0.0],[8.9669,58.5629,10.4148],[8.9681,58.5646,0.0],[8.9614,58.5682,9.0574],[8.9625,58.5724,6.0307],[8.9664,58.5729,2.7848],[8.9647,58.5754,2.8841],[8.9675,58.5771,0.0],[8.9675,58.5829,7.6389],[8.9714,58.5829,0.0],[8.9692,58.5851,4.5949],[8.9708,58.5879,15.2096],[8.9653,58.5932,30.8893],[8.9681,58.5954,0.0],[8.9631,58.596,7.592],[8.9536,58.5918,21.2948],[8.9492,58.5938,0.0],[8.9442,58.5918,2.5008]]],
[[[8.9642,58.5229,0.5593],[8.9636,58.524,0.8288],[8.9592,58.5232,0.8045],[8.9653,58.5221,0.0],[8.9642,58.5229,0.5593]]],
[[[8.9869,58.5412,7.6967],[8.9847,58.5415,0.0],[8.9853,58.539,3.7027],[8.9819,58.5376,3.262],[8.9886,58.5379,1.0447],[8.9858,58.5393,3.7027],[8.9869,58.5412,7.6967]]],
[[[8.9931,58.5443,0.0],[8.9919,58.5465,0.0],[8.9892,58.5457,0.0],[8.9903,58.5435,0.0],[8.9931,58.5432,0.0],[8.9931,58.5443,0.0]]]]}}