{"type": "Feature","bbox": [15.0359,67.0145,16.4062,67.4475],"geometry": {"type": "MultiPolygon","coordinates": [[[[15.054,67.3217,0.0],[15.0583,67.3229,0.0],[15.0625,67.3208,0.0],[15.0771,67.3208,4.7861],[15.0833,67.3187,0.0],[15.0875,67.3208,0.0],[15.0958,67.3208,0.0],[15.1,67.3229,0.0],[15.1062,67.3208,0.0],[15.1104,67.3229,0.0],[15.1229,67.3229,0.0],[15.1458,67.3292,2.7056],[15.1646,67.3292,3.1571],[15.1703,67.3266,1.0985],[15.1687,67.325,1.1418],[15.163,67.3245,0.0],[15.1661,67.3224,0.0],[15.1661,67.3193,0.0],[15.162,67.313,7.639],[15.1568,67.312,0.0],[15.1547,67.3099,0.0],[15.1578,67.3068,0.0],[15.1516,67.2984,0.0],[15.1422,67.2974,0.0],[15.1354,67.2917,0.0],[15.1292,67.2917,0.0],[15.1167,67.2875,7.893],[15.1104,67.2875,0.0],[15.1057,67.2839,0.0],[15.0979,67.2813,0.0],[15.0917,67.2813,0.0],[15.0875,67.2833,0.0],[15.0688,67.2833,0.0],[15.0646,67.2792,21.6144],[15.0562,67.2792,0.0],[15.0521,67.2771,20.1795],[15.0437,67.2771,0.0],[15.0359,67.2745,0.0],[15.0417,67.2708,0.0],[15.0688,67.2708,0.0],[15.075,67.2729,0.0],[15.0792,67.2708,0.0],[15.0854,67.2729,0.0],[15.0896,67.2708,0.0],[15.0958,67.2708,0.0],[15.1,67.2729,0.0],[15.1125,67.2729,0.0],[15.125,67.2688,0.0],[15.139099999999999,67.2682,0.0],[15.1359,67.263,0.0],[15.1438,67.2625,0.0],[15.1646,67.2542,0.0],[15.1833,67.2542,0.0],[15.1875,67.2562,0.0],[15.2271,67.2562,0.0],[15.2318,67.2599,0.0],[15.237,67.2609,0.0],[15.2339,67.2641,0.0],[15.2479,67.2688,0.0],[15.275,67.2667,14.6388],[15.2833,67.2625,0.0],[15.2896,67.2646,26.2811],[15.3396,67.2646,0.0],[15.3453,67.262,0.0],[15.3443,67.2589,0.0],[15.3474,67.2568,0.0],[15.3453,67.2547,0.0],[15.3401,67.2536,0.0],[15.337,67.2484,0.0],[15.3292,67.2458,4.5772],[15.325,67.2458,0.0],[15.3208,67.2438,0.0],[15.2708,67.2438,0.0],[15.2667,67.2417,38.5001],[15.2479,67.2417,0.0],[15.2464,67.2401,0.0],[15.2495,67.238,13.6119],[15.2443,67.237,0.0],[15.2422,67.2349,0.0],[15.2437,67.2333,0.0],[15.2563,67.2333,0.0],[15.2604,67.2354,3.9592],[15.2646,67.2333,0.0],[15.2875,67.2333,41.398],[15.2891,67.2328,38.9385],[15.288,67.2297,0.0],[15.2896,67.2292,0.0],[15.3021,67.2292,0.0],[15.3062,67.2312,16.0119],[15.3208,67.2333,0.0],[15.3411,67.2401,0.0],[15.3526,67.2474,0.0],[15.3625,67.2479,0.0],[15.3938,67.2583,3.8781],[15.4125,67.2583,0.0],[15.4167,67.2604,0.0],[15.4229,67.2604,0.0],[15.4245,67.2599,0.0],[15.4234,67.2568,0.0],[15.4266,67.2547,0.0],[15.4203,67.2443,5.8569],[15.4042,67.2396,5.8633],[15.3896,67.2375,0.0],[15.3693,67.2307,0.0],[15.3646,67.2271,29.142],[15.3562,67.2271,0.0],[15.3484,67.2245,0.0],[15.3464,67.2214,0.0],[15.3646,67.2208,0.0],[15.3687,67.2188,6.1807],[15.3813,67.2188,0.0],[15.3854,67.2208,0.0],[15.3917,67.2208,0.0],[15.3932,67.2203,0.0],[15.3922,67.2172,0.0],[15.3979,67.2146,8.7579],[15.425,67.2125,38.5677],[15.4297,67.2089,0.0],[15.4391,67.2078,158.4291],[15.4375,67.2042,0.0],[15.4411,67.2016,38.3934],[15.4401,67.1984,0.0],[15.4458,67.1958,0.0],[15.4578,67.1953,0.0],[15.4792,67.1844,0.0],[15.4803,67.1877,94.9205],[15.47,67.1925,105.1809],[15.4745,67.1927,198.4039],[15.4737,67.1971,315.5103],[15.5198,67.1984,312.9505],[15.5206,67.1939,335.6425],[15.5899,67.1957,503.0075],[15.5907,67.1913,587.3038],[15.6022,67.1916,510.8003],[15.6039,67.1826,606.825],[15.6154,67.1829,506.2299],[15.6162,67.1784,617.7223],[15.6393,67.179,886.2277],[15.6401,67.1745,944.2711],[15.6516,67.1748,911.5598],[15.654,67.1614,739.3126],[15.6655,67.1617,767.7424],[15.6719,67.1257,877.8353],[15.6949,67.1263,954.4474],[15.6957,67.1218,976.2362],[15.7072,67.1221,989.2473],[15.708,67.1177,981.6318],[15.7195,67.118,939.2831],[15.7203,67.1135,901.683],[15.7433,67.1141,893.8553],[15.7441,67.1096,891.2357],[15.7556,67.1099,922.0156],[15.7563,67.1054,856.9532],[15.7678,67.1057,851.2167],[15.7686,67.1012,781.7255],[15.7801,67.1015,846.0285],[15.7809,67.097,776.1207],[15.8154,67.0978,965.933],[15.8161,67.0934,920.7382],[15.8621,67.0945,933.5615],[15.8629,67.09,864.284],[15.8744,67.0903,860.0916],[15.8751,67.0858,800.1639],[15.8866,67.0861,823.4274],[15.8874,67.0816,827.4277],[15.8989,67.0819,825.6219],[15.8996,67.0774,810.4516],[15.9111,67.0777,799.8067],[15.9118,67.0732,744.5397],[15.9233,67.0735,706.8887],[15.9241,67.069,680.449],[15.9356,67.0693,683.7405],[15.9363,67.0648,681.6425],[15.9593,67.0653,660.9187],[15.96,67.0609,643.1335],[15.983,67.0614,549.1762],[15.9837,67.0569,515.0623],[15.9952,67.0572,532.0052],[15.9959,67.0527,541.6776],[16.0189,67.0533,509.0],[16.0196,67.0488,523.6556],[16.0311,67.049,549.7658],[16.0318,67.0445,589.0059],[16.0547,67.0451,656.2812],[16.0555,67.0406,679.5775],[16.0784,67.0412,716.7439],[16.0791,67.0367,809.0268],[16.0906,67.0369,830.335],[16.0913,67.0324,772.9474],[16.1142,67.033,943.7141],[16.115,67.0285,884.7697],[16.1264,67.0288,948.3472],[16.1271,67.0243,917.1376],[16.1501,67.0248,998.7136],[16.1508,67.0203,1091.2987],[16.1852,67.0211,1176.0659],[16.1859,67.0166,1211.5969],[16.289,67.019,922.68],[16.2897,67.0145,978.2307],[16.3012,67.0147,890.9571],[16.3005,67.0192,825.6013],[16.3119,67.0195,817.7357],[16.3113,67.024,786.1276],[16.3342,67.0245,758.9271],[16.3335,67.029,725.9419],[16.345,67.0292,710.4341],[16.3443,67.0337,721.4791],[16.3558,67.034,793.9695],[16.3551,67.0385,860.2077],[16.3781,67.039,728.3947],[16.3774,67.0434,755.2385],[16.3889,67.0437,720.6554],[16.3856,67.0662,818.6665],[16.3971,67.0664,978.3006],[16.3898,67.1158,1117.4711],[16.4013,67.1161,1052.1873],[16.3947,67.161,1269.3177],[16.4062,67.1612,1595.692],[16.3983,67.2152,956.7487],[16.3867,67.2149,876.926],[16.3854,67.2239,819.5908],[16.3738,67.2236,819.0787],[16.3718,67.2371,1081.3737],[16.3603,67.2369,1044.6213],[16.3589,67.2459,1100.7317],[16.3473,67.2456,1214.6196],[16.346,67.2546,1264.7863],[16.3344,67.2543,1437.7534],[16.3331,67.2633,1623.6981],[16.3215,67.2631,1477.941],[16.3208,67.2676,1239.5549],[16.3092,67.2673,1022.5524],[16.3085,67.2718,937.7031],[16.2506,67.2705,1300.5095],[16.2499,67.275,1252.9937],[16.192,67.2737,1025.8093],[16.1913,67.2782,1000.5248],[16.1334,67.2769,1184.3822],[16.1327,67.2813,1201.0474],[16.0632,67.2797,1301.1667],[16.0624,67.2842,1284.9586],[16.0045,67.2828,1387.9058],[16.0038,67.2873,1343.3258],[15.9342,67.2857,1345.9388],[15.935,67.2812,1223.1864],[15.8655,67.2795,712.7889],[15.8647,67.284,628.2421],[15.8531,67.2837,705.6883],[15.8524,67.2882,870.1362],[15.8292,67.2876,1065.5011],[15.8277,67.2966,1084.5916],[15.8161,67.2963,1063.7251],[15.8153,67.3008,944.7354],[15.7805,67.2999,997.1157],[15.7797,67.3044,999.1818],[15.7566,67.3038,961.6232],[15.7573,67.2993,1009.8153],[15.7458,67.299,871.8158],[15.7465,67.2945,980.3737],[15.735,67.2942,837.2017],[15.7357,67.2897,903.8308],[15.7242,67.2894,837.3901],[15.7249,67.285,881.1146],[15.7134,67.2847,844.2553],[15.7142,67.2802,848.8997],[15.7026,67.2799,728.1637],[15.7034,67.2754,814.8272],[15.6918,67.2751,690.4233],[15.6926,67.2706,778.9694],[15.681,67.2703,649.6189],[15.6818,67.2658,738.3066],[15.6587,67.2652,570.3049],[15.6595,67.2607,651.1993],[15.6363,67.2601,515.9361],[15.6371,67.2556,489.678],[15.6256,67.2553,515.9985],[15.6264,67.2508,421.7426],[15.5917,67.2499,540.3215],[15.5909,67.2544,703.6584],[15.5793,67.2541,694.0334],[15.5777,67.2631,490.1711],[15.5892,67.2634,405.417],[15.586,67.2813,804.9069],[15.5975,67.2816,629.5807],[15.5967,67.2861,710.4998],[15.5851,67.2858,732.0828],[15.5835,67.2948,683.0562],[15.5719,67.2945,810.5672],[15.5711,67.299,711.7022],[15.5827,67.2993,580.1893],[15.5819,67.3038,460.262],[15.5935,67.3041,272.3795],[15.5927,67.3086,162.207],[15.6042,67.3089,113.0],[15.6018,67.3224,339.6989],[15.5902,67.3221,390.6705],[15.5886,67.331,247.8481],[15.577,67.3307,179.6874],[15.5753,67.3397,119.6407],[15.5521,67.3391,51.661],[15.5513,67.3436,16.1765],[15.5397,67.3433,39.6383],[15.5388,67.3478,95.7659],[15.5272,67.3474,73.8591],[15.5264,67.3519,94.857],[15.5148,67.3516,70.0997],[15.514,67.3561,76.7457],[15.4907,67.3555,180.4447],[15.4899,67.36,339.3377],[15.4783,67.3597,481.8485],[15.4774,67.3642,563.2264],[15.4891,67.3645,466.346],[15.4874,67.3735,617.0526],[15.499,67.3738,575.036],[15.4982,67.3783,646.7485],[15.5098,67.3786,556.2755],[15.5081,67.3875,572.1778],[15.4965,67.3872,628.4877],[15.4931,67.4052,629.4117],[15.4815,67.4049,641.4592],[15.4798,67.4138,690.1783],[15.4682,67.4135,647.4383],[15.4656,67.427,670.2771],[15.454,67.4267,622.8541],[15.4523,67.4357,617.933],[15.429,67.435,432.5107],[15.4281,67.4395,469.0003],[15.4165,67.4392,336.7545],[15.4156,67.4437,462.9513],[15.3923,67.4431,215.3374],[15.3915,67.4475,263.5357],[15.3682,67.4469,302.1911],[15.369,67.4424,268.5917],[15.3574,67.4421,259.6076],[15.3582,67.4376,282.128],[15.3116,67.4363,507.7892],[15.3107,67.4408,636.7552],[15.2991,67.4405,592.5314],[15.2982,67.445,691.6935],[15.2749,67.4443,502.4899],[15.2758,67.4398,635.7545],[15.264099999999999,67.4395,737.7791],[15.265,67.435,503.052],[15.2534,67.4347,518.9062],[15.2543,67.4302,504.7121],[15.2426,67.4299,668.4175],[15.2417,67.4343,596.2242],[15.2068,67.4334,840.1111],[15.2121,67.4064,387.0846],[15.1656,67.4051,836.0458],[15.1674,67.3961,587.5936],[15.179,67.3965,639.5865],[15.1826,67.3785,528.5851],[15.171,67.3782,695.4401],[15.1719,67.3737,594.2968],[15.1603,67.3734,893.616],[15.1612,67.3689,800.9834],[15.1495,67.3685,815.3411],[15.1504,67.3641,718.4014],[15.1388,67.3637,596.3374],[15.1406,67.3547,485.1474],[15.0826,67.3531,869.0896],[15.0844,67.3441,790.8789],[15.0728,67.3437,765.6158],[15.0737,67.3392,599.8436],[15.0389,67.3382,592.9454],[15.0417,67.3248,125.0023],[15.0533,67.3251,103.43],[15.054,67.3217,0.0]]]]}
,"properties": {"GID_2": "NOR.10.11_1","GID_0": "NOR","country": "Norway","GID_1": "NOR.10_1","province": "Nordland","NL_NAME_1": "NA","county": "Fauske","VARNAME_2": "NA","NL_NAME_2": "NA","TYPE_2": "Kommuner","ENGTYPE_2": "Municipality","CC_2": "NA","HASC_2": "NO.NO.FA","name": "Fauske.county","area_km2": 1194.503,"hist_schema_id": "Elevation0-9000","hist_area_km2": {"0": 46.4188,"25": 39.9754,"50": 31.2936,"75": 20.4075,"100": 18.2682,"125": 22.9121,"150": 17.745,"175": 20.8201,"200": 17.8485,"225": 22.681,"250": 20.4709,"275": 20.1122,"300": 19.2905,"325": 21.0188,"350": 20.2166,"375": 21.0659,"400": 23.3031,"425": 21.3893,"450": 23.6104,"475": 20.6329,"500": 23.0813,"525": 20.7324,"550": 21.2932,"575": 19.3337,"600": 17.7793,"625": 17.6382,"650": 20.1401,"675": 29.1061,"700": 29.9122,"725": 26.3748,"750": 20.5633,"775": 24.1739,"800": 28.6449,"825": 30.0327,"850": 22.5751,"875": 27.7138,"900": 26.8265,"925": 29.639,"950": 27.5376,"975": 25.5522,"1000": 22.1512,"1025": 22.4791,"1050": 21.4111,"1075": 20.5412,"1100": 18.3305,"1125": 20.4082,"1150": 18.6576,"1175": 12.8861,"1200": 10.1226,"1225": 8.7328,"1250": 7.334,"1275": 6.5692,"1300": 7.5266,"1325": 6.7648,"1350": 5.6601,"1375": 5.9614,"1400": 3.9579,"1425": 3.0398,"1450": 2.3497,"1475": 2.2599,"1500": 1.89,"1525": 1.71,"1550": 1.3412,"1575": 1.6373,"1600": 0.8475,"1625": 0.5267,"1650": 0.4525,"1675": 0.3622,"1700": 0.1564,"1725": 0.1317,"1750": 0.0494,"1775": 0.0823,"1800": 0.0165,"1825": 0.0165}}}