{"type":"Feature","properties":{"GID_2":"NOR.10.39_1","GID_0":"NOR","country":"Norway","GID_1":"NOR.10_1","province":"Nordland","NL_NAME_1":"NA","county":"Tysfjord","VARNAME_2":"NA","NL_NAME_2":"NA","TYPE_2":"Kommuner","ENGTYPE_2":"Municipality","CC_2":"NA","HASC_2":"NO.NO.TY","name":"Tysfjord.county"},
"geometry":{"type": "MultiPolygon","coordinates": [[[[16.2578,67.9318,78.1805],[16.2568,67.9297,54.159],[16.2604,67.9292,147.1846],[16.2641,67.9328,133.0084],[16.2604,67.9333,59.0372],[16.2578,67.9318,78.1805]]],
[[[16.3896,67.9437,320.7044],[16.388,67.9422,394.5999],[16.3974,67.9422,78.3984],[16.3958,67.9437,114.2485],[16.3896,67.9437,320.7044]]],
[[[16.1953,68.2884,143.4819],[16.1587,68.2881,122.0379],[16.1443,68.287,14.2382],[16.1443,68.2859,5.4701],[16.1521,68.2854,6.2214],[16.1563,68.2833,0.0],[16.1792,68.2833,0.0],[16.1833,68.2813,0.0],[16.2,68.2813,13.3537],[16.2042,68.2792,0.0],[16.2146,68.2792,0.0],[16.2188,68.2771,0.0],[16.2271,68.2792,15.2627],[16.2339,68.2755,0.0],[16.2437,68.2729,0.0],[16.2578,68.2724,0.0],[16.262,68.2703,0.0],[16.2609,68.2672,0.0],[16.2641,68.2662,2.7972],[16.263,68.263,0.0],[16.2687,68.2604,0.0],[16.2854,68.2583,0.0],[16.2896,68.2562,0.0],[16.2938,68.2583,0.0],[16.3042,68.2583,0.0],[16.3208,68.2646,5.4433],[16.3266,68.2651,0.0],[16.3297,68.2682,0.0],[16.3396,68.2708,0.0],[16.3495,68.2662,0.0],[16.3484,68.2631,0.0],[16.3516,68.262,0.0],[16.3505,68.2589,0.0],[16.3578,68.2557,0.0],[16.3568,68.2505,0.0],[16.3641,68.2474,0.0],[16.3542,68.2438,0.0],[16.35,68.2458,0.0],[16.325,68.2458,79.6516],[16.3188,68.2417,303.7413],[16.3146,68.2438,118.3413],[16.3021,68.2438,0.0],[16.3005,68.2422,15.2535],[16.3036,68.2401,135.8671],[16.2917,68.2396,25.0929],[16.2891,68.2359,225.5112],[16.2792,68.2333,229.88],[16.275,68.2354,49.0364],[16.2625,68.2354,20.2046],[16.2583,68.2333,39.255],[16.2271,68.2333,28.5622],[16.2255,68.2338,4.0428],[16.2266,68.237,0.0],[16.225,68.2375,0.0],[16.2188,68.2354,57.8527],[16.2062,68.2354,79.2728],[16.1901,68.2307,167.0748],[16.1932,68.2286,180.2065],[16.1922,68.2255,0.0],[16.1995,68.2224,219.1042],[16.1943,68.2203,59.677],[16.1901,68.2161,0.0],[16.1958,68.2125,8.6028],[16.2146,68.2125,0.0],[16.2188,68.2146,11.8079],[16.2375,68.2167,38.9463],[16.2417,68.2146,0.0],[16.2495,68.2141,15.1626],[16.2484,68.2109,0.0],[16.2542,68.2083,0.0],[16.2667,68.2083,0.0],[16.2766,68.2109,0.0],[16.2813,68.2146,52.4638],[16.2896,68.2146,12.1969],[16.2938,68.2167,11.8152],[16.3021,68.2167,0.0],[16.3125,68.2208,11.131],[16.3208,68.2208,0.0],[16.325,68.2229,0.0],[16.3396,68.2229,0.0],[16.3438,68.225,0.0],[16.425,68.225,15.868],[16.4292,68.2229,0.0],[16.4354,68.225,16.2874],[16.4396,68.2229,0.0],[16.4458,68.2229,0.0],[16.4516,68.2276,0.0],[16.4479,68.2312,0.0],[16.4547,68.2391,13.6173],[16.475,68.2417,0.0],[16.4766,68.2412,0.0],[16.4755,68.238,48.4941],[16.4833,68.2375,198.6789],[16.4849,68.2359,312.0693],[16.4688,68.2354,21.6988],[16.4661,68.2318,40.8291],[16.4604,68.2312,0.0],[16.4589,68.2297,3.6378],[16.462,68.2286,10.3356],[16.4609,68.2255,0.0],[16.4693,68.2214,0.0],[16.4849,68.2203,47.2118],[16.4833,68.2188,34.7667],[16.4734,68.2182,0.0],[16.4766,68.2151,0.0],[16.4714,68.2089,0.0],[16.4745,68.2078,0.0],[16.4755,68.2047,0.0],[16.4854,68.2021,0.0],[16.5125,68.2,79.4343],[16.5141,68.1995,38.9273],[16.513,68.1964,0.0],[16.5146,68.1958,0.0],[16.5313,68.1958,31.4744],[16.5396,68.1917,0.0],[16.5521,68.1917,82.5804],[16.5604,68.1875,0.0],[16.575,68.1854,17.3542],[16.5792,68.1833,0.0],[16.6125,68.1833,37.8755],[16.6182,68.1807,176.3541],[16.6161,68.1755,464.7532],[16.612,68.1713,791.5901],[16.6005,68.1703,658.3168],[16.6036,68.1672,853.8874],[16.5917,68.1625,961.2162],[16.5901,68.163,1053.2683],[16.5911,68.1661,1268.9535],[16.5896,68.1667,1008.4127],[16.5792,68.1667,843.3415],[16.5708,68.1708,499.0464],[16.563,68.1713,305.6668],[16.5589,68.1734,154.6187],[16.5599,68.1766,16.1329],[16.5583,68.1771,0.0],[16.5417,68.1771,49.0119],[16.5375,68.1792,51.2267],[16.5313,68.1792,189.9532],[16.525,68.1813,157.3566],[16.5208,68.1771,404.5306],[16.5083,68.1771,663.7214],[16.5016,68.1807,548.5382],[16.4938,68.1813,559.1393],[16.488,68.1839,153.8605],[16.4896,68.1854,131.4807],[16.4958,68.1854,305.9176],[16.5021,68.1833,376.4561],[16.5083,68.1854,182.2177],[16.5099,68.1849,182.2177],[16.5089,68.1818,324.8965],[16.5167,68.1813,223.9865],[16.5203,68.1839,93.4424],[16.5104,68.1896,0.0],[16.5,68.1896,132.5549],[16.4854,68.1937,74.6608],[16.4583,68.1958,186.4911],[16.4542,68.1979,81.2011],[16.4438,68.1979,225.2323],[16.4271,68.2063,0.0],[16.4,68.2083,4.7313],[16.3901,68.2047,0.0],[16.4042,68.2042,2.6136],[16.4109,68.2005,0.0],[16.4182,68.1995,14.6225],[16.4193,68.1964,38.276],[16.425,68.1937,0.0],[16.4354,68.1937,43.5958],[16.45,68.1896,0.0],[16.4771,68.1896,19.7366],[16.4828,68.187,27.131],[16.4807,68.1818,12.2517],[16.4755,68.1766,0.0],[16.4792,68.1729,0.0],[16.4776,68.1693,0.0],[16.4807,68.1672,0.0],[16.4771,68.1667,0.0],[16.4672,68.1713,33.7675],[16.4682,68.1745,0.0],[16.4667,68.175,0.0],[16.4604,68.175,109.6094],[16.4542,68.1729,309.7489],[16.4479,68.175,182.3778],[16.4438,68.1708,727.2538],[16.4188,68.1708,203.7241],[16.4104,68.175,107.9292],[16.4042,68.175,193.5164],[16.3896,68.1792,11.5064],[16.3859,68.1766,17.7622],[16.3839,68.1713,0.0],[16.3917,68.1708,79.8431],[16.3958,68.1687,0.0],[16.4125,68.1687,23.211],[16.4141,68.1682,49.4813],[16.413,68.1651,0.0],[16.4203,68.162,27.232],[16.4167,68.1583,27.1288],[16.4068,68.1578,0.0],[16.4141,68.1536,34.9209],[16.413,68.1505,0.0],[16.4167,68.1479,33.4576],[16.4151,68.1443,0.0],[16.4182,68.1422,16.1837],[16.4042,68.1417,11.0718],[16.3984,68.1443,61.8573],[16.4036,68.1464,0.0],[16.4057,68.1495,0.0],[16.388,68.1526,86.5854],[16.387,68.1557,0.0],[16.3839,68.1568,46.914],[16.3849,68.1599,0.0],[16.3734,68.1651,151.6873],[16.3745,68.1682,9.7465],[16.3667,68.1708,19.0187],[16.363,68.1682,0.0],[16.3661,68.1661,130.2786],[16.3661,68.163,286.572],[16.3438,68.1604,208.9065],[16.3359,68.1536,40.2332],[16.3396,68.15,0.0],[16.338,68.1464,0.0],[16.3411,68.1443,0.0],[16.3333,68.1417,7.0812],[16.3229,68.1417,0.0],[16.3208,68.1396,7.8129],[16.3214,68.138,57.0767],[16.3312,68.1354,191.6446],[16.3438,68.1396,54.2998],[16.3599,68.1391,226.9775],[16.3542,68.1333,623.4884],[16.325,68.1333,319.8494],[16.3208,68.1354,322.0057],[16.3104,68.1354,274.8801],[16.3063,68.1375,98.452],[16.3,68.1375,195.2629],[16.2984,68.138,140.2138],[16.2995,68.1412,27.3183],[16.2922,68.1443,14.576],[16.2911,68.1474,0.0],[16.2813,68.15,4.4348],[16.2604,68.1479,0.0],[16.2505,68.1432,0.0],[16.2536,68.1401,24.5273],[16.2401,68.137,0.0],[16.2417,68.1354,0.0],[16.2479,68.1354,11.5382],[16.2521,68.1333,0.0],[16.2813,68.1333,24.4954],[16.2911,68.1307,7.5094],[16.2979,68.1271,0.0],[16.3057,68.1266,27.8994],[16.3036,68.1234,7.0581],[16.2984,68.1214,18.938],[16.3057,68.1172,23.0569],[16.2958,68.1167,74.7515],[16.2917,68.1188,0.0],[16.288,68.1151,0.0],[16.2938,68.1125,0.0],[16.3016,68.112,62.2372],[16.3005,68.1088,0.0],[16.3161,68.1036,0.0],[16.3203,68.1016,0.0],[16.3214,68.0984,0.0],[16.3333,68.0979,0.0],[16.3349,68.0974,22.8818],[16.3339,68.0943,0.0],[16.3479,68.0938,24.0572],[16.3521,68.0917,0.0],[16.3688,68.0917,0.0],[16.3813,68.0958,7.353],[16.3896,68.0958,0.0],[16.3932,68.0984,0.0],[16.3964,68.1036,0.0],[16.4245,68.1109,0.0],[16.4286,68.1172,8.5031],[16.4255,68.1203,0.0],[16.4307,68.1214,0.0],[16.4359,68.1266,35.617],[16.45,68.1312,0.0],[16.4583,68.1292,0.0],[16.4625,68.1312,27.2799],[16.4813,68.1312,0.0],[16.4854,68.1333,8.3743],[16.4938,68.1333,18.5257],[16.5036,68.1307,0.0],[16.5104,68.1271,0.0],[16.5224,68.1266,0.0],[16.5234,68.1234,0.0],[16.5307,68.1224,0.0],[16.5391,68.1182,11.9127],[16.5391,68.1151,20.7101],[16.5339,68.1088,0.0],[16.5453,68.1036,0.0],[16.5464,68.1005,0.0],[16.5536,68.0995,9.1721],[16.5604,68.0958,0.0],[16.5729,68.0958,41.2377],[16.5854,68.0917,0.0],[16.6083,68.0917,18.8456],[16.6125,68.0896,0.0],[16.6354,68.0896,0.0],[16.6396,68.0917,23.5341],[16.6583,68.0917,6.9991],[16.6625,68.0896,0.0],[16.6729,68.0896,0.0],[16.6771,68.0875,0.0],[16.7021,68.0875,0.0],[16.7062,68.0896,12.5839],[16.7104,68.0875,0.0],[16.7182,68.087,29.8109],[16.713,68.0849,0.0],[16.7146,68.0833,12.8858],[16.737,68.0828,118.1607],[16.737,68.0797,193.8276],[16.7313,68.0792,187.2827],[16.7208,68.075,379.0145],[16.7083,68.075,388.233],[16.7036,68.0807,102.6049],[16.6938,68.0854,39.3248],[16.6813,68.0813,256.4917],[16.6583,68.0833,238.7337],[16.6542,68.0854,111.132],[16.6443,68.0849,0.0],[16.6443,68.0818,0.0],[16.6542,68.0771,0.0],[16.6583,68.0771,0.0],[16.6625,68.075,0.0],[16.675,68.075,49.096],[16.6849,68.0724,0.0],[16.6771,68.0687,56.0129],[16.6714,68.0682,0.0],[16.6714,68.0651,42.8481],[16.6771,68.0646,92.1922],[16.6786,68.063,166.6539],[16.6708,68.0604,365.5346],[16.6646,68.0604,308.5688],[16.662,68.0641,16.8408],[16.6443,68.0672,11.2301],[16.6453,68.0703,0.0],[16.6422,68.0714,8.2952],[16.6432,68.0766,0.0],[16.6333,68.0813,0.0],[16.6042,68.0813,0.0],[16.6,68.0792,15.7338],[16.5833,68.0792,66.8646],[16.5792,68.0813,0.0],[16.55,68.0813,15.2368],[16.5458,68.0833,9.012],[16.5354,68.0833,138.133],[16.5255,68.088,54.0771],[16.5266,68.0911,0.0],[16.5068,68.1005,18.5667],[16.5078,68.1036,0.0],[16.5047,68.1047,0.0],[16.5036,68.1078,0.0],[16.4964,68.1109,81.3314],[16.4974,68.1141,6.7747],[16.488,68.1151,136.2395],[16.4833,68.1188,54.632],[16.4542,68.1208,11.6279],[16.4526,68.1193,0.0],[16.4599,68.1151,30.6666],[16.4505,68.1099,0.0],[16.4536,68.1068,4.9827],[16.4484,68.1057,0.0],[16.4438,68.1021,13.1089],[16.4339,68.1016,0.0],[16.437,68.0984,0.0],[16.4318,68.0964,0.0],[16.4391,68.0922,66.7295],[16.4328,68.0859,218.9739],[16.4229,68.0833,351.7437],[16.4063,68.0917,0.0],[16.4005,68.087,11.1318],[16.3953,68.0797,11.9093],[16.3901,68.0787,0.0],[16.3849,68.0734,0.0],[16.3734,68.0703,0.0],[16.3703,68.0672,0.0],[16.363,68.0661,0.0],[16.362,68.063,8.0039],[16.3547,68.062,0.0],[16.3583,68.0583,5.1622],[16.3526,68.0484,0.0],[16.3557,68.0474,2.623],[16.3547,68.0443,1.5443],[16.3578,68.0432,6.5836],[16.3568,68.0401,0.0],[16.3667,68.0354,0.0],[16.3854,68.0354,0.0],[16.3979,68.0396,54.8677],[16.4021,68.0375,0.0],[16.425,68.0375,34.3267],[16.4333,68.0333,0.0],[16.45,68.0333,0.0],[16.4729,68.0271,0.0],[16.5099,68.0286,26.4317],[16.5089,68.0255,0.0],[16.512,68.0234,0.0],[16.5099,68.0214,9.9237],[16.5047,68.0203,0.0],[16.5005,68.0162,14.0251],[16.5036,68.013,134.8259],[16.4984,68.0109,103.0024],[16.5063,68.0104,346.3946],[16.5104,68.0125,320.6871],[16.5187,68.0125,555.9237],[16.5203,68.012,590.2665],[16.5193,68.0089,728.5211],[16.5224,68.0068,820.2769],[16.5083,68.0083,631.8313],[16.5016,68.0026,635.2957],[16.4938,68.0,662.0815],[16.4755,68.0026,238.0994],[16.4766,68.0057,26.4978],[16.475,68.0062,17.2048],[16.4688,68.0042,48.7048],[16.4604,68.0042,23.1859],[16.4568,68.0005,0.0],[16.4599,67.9995,11.2362],[16.4589,67.9943,0.0],[16.462,67.9932,0.0],[16.4609,67.9901,0.0],[16.4849,67.9786,22.6693],[16.4833,67.9771,69.1241],[16.4776,67.9766,82.5786],[16.4833,67.9729,0.0],[16.5021,67.9729,0.0],[16.5068,67.9766,0.0],[16.5146,67.9771,0.0],[16.5187,67.975,0.0],[16.5266,67.9745,0.0],[16.5193,67.9714,0.0],[16.5224,67.9703,0.0],[16.5234,67.9672,0.0],[16.5276,67.9651,50.7173],[16.55,67.9646,191.0169],[16.5557,67.962,333.686],[16.5542,67.9604,463.0371],[16.5354,67.9604,531.9533],[16.5313,67.9583,620.5676],[16.5187,67.9583,598.2003],[16.5146,67.9604,404.7582],[16.4917,67.9604,372.8199],[16.4833,67.9646,88.9492],[16.4729,67.9646,197.1672],[16.4688,67.9667,64.8485],[16.4609,67.9672,88.6494],[16.4526,67.9714,115.3295],[16.4557,67.9766,0.0],[16.4526,67.9776,26.5106],[16.4536,67.9807,0.0],[16.4505,67.9818,25.9503],[16.4495,67.9849,0.0],[16.438,67.9901,143.8873],[16.4391,67.9932,0.0],[16.4318,67.9964,11.5313],[16.4328,67.9995,0.0],[16.4297,68.0005,40.0256],[16.4312,68.0042,0.0],[16.4276,68.0068,13.0963],[16.4286,68.0099,0.0],[16.4193,68.0109,107.8152],[16.4224,68.0162,0.0],[16.4125,68.0208,0.0],[16.4047,68.0214,49.2524],[16.4057,68.0245,0.0],[16.4042,68.025,0.0],[16.3875,68.0271,28.865],[16.3833,68.0229,0.0],[16.387,68.0203,146.4704],[16.3859,68.0172,100.6479],[16.3917,68.0146,308.0448],[16.4078,68.012,241.606],[16.4063,68.0104,383.7525],[16.4,68.0104,512.4764],[16.3958,68.0125,407.5159],[16.3854,68.0125,469.2702],[16.3771,68.0167,0.0],[16.3708,68.0167,34.4728],[16.3609,68.0214,30.8523],[16.362,68.0245,0.0],[16.3578,68.0266,17.6411],[16.3417,68.0313,0.0],[16.3354,68.0313,0.7985],[16.3312,68.0292,23.3108],[16.3167,68.0292,0.0],[16.313,68.0266,0.0],[16.3286,68.0182,10.0115],[16.3286,68.0151,5.1518],[16.3255,68.0109,0.0],[16.3328,68.0078,0.0],[16.3297,68.0005,0.0],[16.337,67.9974,43.9602],[16.3339,67.9922,0.0],[16.3536,67.9828,12.212],[16.3526,67.9776,0.0],[16.3807,67.9641,124.8133],[16.3797,67.9609,0.0],[16.3911,67.9557,153.344],[16.3901,67.9526,0.0],[16.3979,67.95,0.0],[16.4021,67.9521,55.099],[16.4104,67.9521,0.0],[16.4146,67.9542,5.4516],[16.4453,67.9537,0.0],[16.4495,67.9516,0.0],[16.4484,67.9484,0.0],[16.4516,67.9474,17.9172],[16.4484,67.9422,0.0],[16.4516,67.9401,80.8796],[16.4401,67.9391,0.0],[16.438,67.9339,0.0],[16.4411,67.9328,0.0],[16.4401,67.9297,0.0],[16.4474,67.9266,105.5748],[16.4464,67.9234,0.0],[16.4646,67.9146,38.9895],[16.4813,67.9146,57.9321],[16.4854,67.9125,71.632],[16.4958,67.9125,110.2217],[16.4984,67.9089,279.588],[16.5016,67.9078,361.582],[16.5,67.9063,495.4008],[16.4917,67.9063,590.037],[16.4875,67.9083,505.1007],[16.4833,67.9063,664.5144],[16.4646,67.9063,607.6082],[16.4417,67.9125,334.1733],[16.4354,67.9125,394.5761],[16.4339,67.9141,282.3458],[16.4411,67.9151,131.6597],[16.438,67.9172,52.6425],[16.437,67.9203,0.0],[16.4297,67.9213,18.8538],[16.4188,67.9271,159.4226],[16.4109,67.9276,258.9687],[16.4141,67.9328,4.1885],[16.4104,67.9354,69.6574],[16.4141,67.9411,0.0],[16.4042,67.9417,128.2232],[16.4016,67.938,297.6173],[16.3917,67.9375,558.5939],[16.3818,67.9401,755.1458],[16.375,67.9437,685.0638],[16.3672,67.9443,779.0819],[16.3688,67.9458,658.657],[16.3786,67.9464,330.8893],[16.3807,67.9495,135.2921],[16.3734,67.9526,200.9964],[16.3745,67.9557,0.0],[16.3672,67.9589,74.157],[16.3682,67.962,6.0143],[16.3557,67.9682,0.0],[16.3458,67.9688,0.0],[16.3401,67.9672,161.4852],[16.3432,67.9766,0.0],[16.3375,67.9792,0.0],[16.3318,67.9797,45.3403],[16.3328,67.9828,0.0],[16.3214,67.988,64.1518],[16.3224,67.9932,0.0],[16.3089,67.9943,27.1331],[16.3089,67.9974,16.9436],[16.312,68.0016,6.552],[16.3042,68.0021,144.7971],[16.2984,68.0047,112.7782],[16.3057,68.0078,0.0],[16.3026,68.0089,0.0],[16.3016,68.012,0.0],[16.2943,68.013,0.0],[16.2911,68.0203,0.0],[16.2839,68.0234,39.0046],[16.2849,68.0266,0.0],[16.2708,68.0271,68.4159],[16.2646,68.025,249.6487],[16.263,68.0255,169.8587],[16.2641,68.0286,5.1936],[16.2625,68.0292,0.0],[16.2563,68.0292,30.3631],[16.2495,68.0328,0.0],[16.2396,68.0354,64.7913],[16.2313,68.0354,95.986],[16.2297,68.0339,37.4155],[16.237,68.0286,86.9635],[16.2359,68.0255,8.9925],[16.2391,68.0234,268.2726],[16.2229,68.0188,180.2307],[16.2167,68.0208,84.2729],[16.2,68.0208,95.7434],[16.1958,68.0229,17.3942],[16.1922,68.0203,31.0284],[16.2021,68.0146,3.8072],[16.2182,68.012,0.0],[16.2224,68.0099,5.4359],[16.2234,68.0068,0.0],[16.2292,68.0042,0.0],[16.2557,67.9995,8.3612],[16.2589,67.9964,0.0],[16.2786,67.987,0.0],[16.2786,67.9838,0.0],[16.2771,67.9833,13.2743],[16.2708,67.9854,0.0],[16.2646,67.9854,10.1658],[16.263,67.9838,10.8648],[16.2661,67.9828,51.028],[16.2651,67.9797,0.0],[16.2766,67.9745,50.0738],[16.2755,67.9714,4.7932],[16.2786,67.9703,14.7394],[16.2776,67.9672,0.0],[16.287,67.9661,64.7897],[16.2849,67.9609,0.0],[16.2792,67.9542,0.0],[16.2828,67.9505,176.7281],[16.2714,67.9495,8.7231],[16.2745,67.9464,96.4379],[16.2672,67.937,47.0525],[16.2687,67.9354,109.253],[16.2807,67.9349,449.6727],[16.2818,67.9318,588.2527],[16.2849,67.9297,678.0997],[16.2776,67.9287,635.3234],[16.275,67.925,762.981],[16.2667,67.925,595.9564],[16.2625,67.9271,269.8677],[16.2526,67.9245,0.0],[16.2557,67.9224,181.8733],[16.2557,67.9193,189.2914],[16.2458,67.9187,0.0],[16.2443,67.9172,0.0],[16.2516,67.9161,0.0],[16.2505,67.913,0.0],[16.2536,67.912,41.4843],[16.2536,67.9089,191.9205],[16.2401,67.9057,0.0],[16.238,67.9026,0.0],[16.2521,67.9021,0.0],[16.2563,67.9042,0.0],[16.2646,67.9042,66.8819],[16.2745,67.9016,34.0286],[16.2813,67.8979,0.0],[16.2891,67.8974,43.2635],[16.288,67.8943,0.0],[16.2979,67.8896,0.0],[16.3042,67.8896,93.9007],[16.3083,67.8875,0.0],[16.3188,67.8875,0.0],[16.3229,67.8854,0.0],[16.3396,67.8854,14.6397],[16.3521,67.8812,0.0],[16.3646,67.8812,0.0],[16.3958,67.8729,0.0],[16.4021,67.8729,41.2082],[16.4036,67.8724,95.4979],[16.4026,67.8693,0.0],[16.4057,67.8682,37.4174],[16.4068,67.8651,0.0],[16.4229,67.8625,0.0],[16.4271,67.8604,0.0],[16.4604,67.8604,0.0],[16.4729,67.8542,105.1839],[16.4833,67.8542,199.8357],[16.4891,67.8505,423.5242],[16.4729,67.85,485.3425],[16.4651,67.8474,565.4557],[16.4583,67.8417,700.3932],[16.4542,67.8438,569.2982],[16.4354,67.8438,0.0],[16.4339,67.8422,0.0],[16.437,67.8411,25.2492],[16.4359,67.838,0.0],[16.4401,67.8359,0.0],[16.4495,67.8349,31.4066],[16.4646,67.8271,0.0],[16.4854,67.8271,143.0656],[16.4896,67.825,0.0],[16.5057,67.8224,12.9481],[16.5104,67.8187,0.0],[16.5099,67.8172,0.0],[16.4964,67.8141,12.8276],[16.4917,67.8104,219.8516],[16.4854,67.8104,342.6839],[16.4771,67.8146,170.7238],[16.4708,67.8125,471.1902],[16.4667,67.8146,307.3658],[16.4396,67.8167,612.0345],[16.438,67.8182,579.0229],[16.4411,67.8224,281.9151],[16.4312,67.8271,244.8422],[16.425,67.8271,498.7447],[16.4109,67.8318,681.5605],[16.4125,67.8333,340.1547],[16.4224,67.8339,0.0],[16.4167,67.8375,0.0],[16.4083,67.8375,279.8138],[16.4042,67.8354,686.5822],[16.4,67.8375,615.9347],[16.3875,67.8375,647.6432],[16.3813,67.8354,661.2283],[16.3714,67.838,440.8863],[16.3911,67.8453,121.4479],[16.3828,67.8495,0.0],[16.375,67.85,19.7272],[16.3693,67.8526,58.547],[16.3703,67.8557,0.0],[16.3625,67.8562,127.4517],[16.3568,67.8588,136.836],[16.3578,67.862,32.2012],[16.3438,67.8604,456.9552],[16.3375,67.8625,392.755],[16.3333,67.8604,523.4532],[16.3271,67.8604,491.431],[16.3229,67.8625,327.3055],[16.3125,67.8625,351.4111],[16.3109,67.863,296.4845],[16.312,67.8682,18.9514],[16.3063,67.8708,132.2129],[16.3005,67.8714,166.0143],[16.2995,67.8745,51.2889],[16.2922,67.8776,49.8472],[16.2932,67.8807,0.0],[16.2797,67.8818,335.7569],[16.2807,67.8849,0.0],[16.2776,67.8859,78.7595],[16.275,67.8896,5.6605],[16.2646,67.8917,157.0843],[16.2604,67.8896,310.6969],[16.2458,67.8896,198.4362],[16.238,67.887,272.5695],[16.2453,67.8828,690.284],[16.2417,67.8812,792.2043],[16.2318,67.8839,548.6561],[16.225,67.8875,222.236],[16.2172,67.888,32.0198],[16.2182,67.8912,0.0],[16.2068,67.8964,0.0],[16.2078,67.8995,0.0],[16.2005,67.9026,4.2057],[16.1995,67.9057,0.0],[16.1964,67.9078,0.0],[16.2005,67.9141,23.6161],[16.2078,67.9151,0.0],[16.2099,67.9172,0.0],[16.2026,67.9245,46.5608],[16.2141,67.9255,0.0],[16.2109,67.9287,32.9061],[16.2224,67.9443,0.0],[16.2193,67.9474,119.8762],[16.2245,67.9484,0.0],[16.2266,67.9505,0.0],[16.2234,67.9526,33.3444],[16.225,67.9563,6.8203],[16.2229,67.9604,50.8305],[16.2245,67.9641,43.1187],[16.2214,67.9651,75.9592],[16.2224,67.9682,0.0],[16.2193,67.9693,68.5064],[16.2182,67.9724,13.2965],[16.2109,67.9755,13.6863],[16.212,67.9786,0.0],[16.2047,67.9797,30.0661],[16.1964,67.9838,112.1709],[16.1953,67.987,74.0019],[16.188,67.9901,123.9246],[16.1911,67.9953,12.4263],[16.1797,68.0005,36.3032],[16.1807,68.0057,0.0],[16.1734,68.0089,52.2601],[16.1745,68.012,13.2463],[16.1672,68.0151,11.9269],[16.1682,68.0182,0.0],[16.1651,68.0193,0.0],[16.1641,68.0224,0.0],[16.1578,68.0266,0.0],[16.1271,68.0271,31.0631],[16.113,68.0318,58.4036],[16.112,68.0349,0.0],[16.1036,68.0391,3.1735],[16.0964,68.0401,4.9557],[16.0953,68.0432,0.0],[16.087,68.0474,3.6347],[16.0672,68.0484,0.0],[16.0693,68.0516,1.8555],[16.0745,68.0526,0.0],[16.0766,68.0547,0.0],[16.0734,68.0578,72.4786],[16.0807,68.0589,0.0],[16.088,68.0703,8.2096],[16.1016,68.0755,0.0],[16.1089,68.0828,17.356],[16.1141,68.0839,0.0],[16.1109,68.0859,30.7801],[16.112,68.0891,0.0],[16.1104,68.0896,0.0],[16.1042,68.0875,80.0633],[16.1005,68.088,77.7054],[16.1036,68.0932,0.0],[16.1005,68.0943,31.5287],[16.1005,68.0974,31.5357],[16.1109,68.1099,3.6466],[16.1161,68.1109,0.0],[16.1182,68.113,0.0],[16.1146,68.1167,27.5602],[16.1161,68.1203,0.0],[16.1089,68.1245,0.0],[16.1109,68.1266,3.0808],[16.1161,68.1276,0.0],[16.1182,68.1307,0.0],[16.1151,68.1328,0.0],[16.1203,68.1339,0.0],[16.1245,68.138,0.0],[16.1214,68.1401,0.0],[16.1214,68.1432,17.6746],[16.1266,68.1484,4.6152],[16.1318,68.1578,7.6004],[16.1391,68.1589,0.0],[16.1474,68.163,0.0],[16.1458,68.1646,0.0],[16.1396,68.1646,15.6495],[16.1339,68.1672,20.7402],[16.1359,68.1703,11.8183],[16.1411,68.1713,0.0],[16.1432,68.1734,0.0],[16.1401,68.1755,0.0],[16.1411,68.1787,1.736],[16.138,68.1797,14.6744],[16.138,68.1828,15.9699],[16.1437,68.1833,0.0],[16.1453,68.1849,0.0],[16.1396,68.1875,11.4499],[16.1318,68.188,13.988],[16.1276,68.1901,25.6894],[16.1286,68.1932,0.0],[16.1208,68.1937,1.6974],[16.1167,68.1958,0.0],[16.113,68.1932,0.0],[16.1161,68.1911,24.4625],[16.1141,68.188,0.0],[16.1,68.1896,3.3041],[16.0922,68.187,6.9934],[16.0953,68.1849,0.0],[16.0943,68.1818,0.0],[16.0974,68.1807,24.7758],[16.0958,68.1792,9.4063],[16.0833,68.1792,0.0],[16.0792,68.1813,0.0],[16.0667,68.1813,12.6066],[16.0625,68.1833,0.0],[16.0562,68.1833,0.0],[16.0458,68.1792,0.0],[16.0422,68.1797,0.0],[16.0339,68.1839,0.0],[16.0349,68.187,0.0],[16.0208,68.1875,5.104],[16.0193,68.1891,2.0486],[16.0229,68.1917,0.0],[16.0479,68.1917,0.0],[16.0521,68.1937,5.1101],[16.0604,68.1937,0.0],[16.0672,68.1995,0.0],[16.0812,68.2042,0.0],[16.1083,68.2063,40.197],[16.1125,68.2042,0.0],[16.1182,68.2099,0.0],[16.1089,68.2109,37.824],[16.1047,68.213,92.2049],[16.1057,68.2161,0.0],[16.0917,68.2229,0.0],[16.075,68.225,0.0],[16.0688,68.2229,0.0],[16.0646,68.225,0.0],[16.0568,68.2255,0.0],[16.0589,68.2286,0.0],[16.0641,68.2297,0.0],[16.0708,68.2375,0.0],[16.0703,68.2391,0.0],[16.063,68.2422,17.0326],[16.0641,68.2453,0.0],[16.0609,68.2464,0.0],[16.062,68.2495,0.0],[16.0589,68.2516,1.881],[16.0641,68.2536,0.0],[16.0583,68.2562,0.0],[16.0521,68.2562,0.0],[16.0458,68.2542,4.5875],[16.0417,68.2562,4.8765],[16.0339,68.2568,0.0],[16.0349,68.2599,27.3477],[16.0333,68.2604,27.3477],[16.0167,68.2604,20.4374],[16.0021,68.2646,0.0],[15.975,68.2646,19.9921],[15.9708,68.2667,0.0],[15.9521,68.2667,0.0],[15.9396,68.2625,0.8007],[15.9297,68.262,0.0],[15.937,68.2578,2.5668],[15.9359,68.2526,0.0],[15.9391,68.2516,0.0],[15.938,68.2484,0.0],[15.9453,68.2453,44.5406],[15.9464,68.2422,0.0],[15.9536,68.2391,0.0],[15.951599999999999,68.2359,7.2103],[15.9464,68.2338,3.0875],[15.9557,68.2286,0.0],[15.9568,68.2255,0.0],[15.9599,68.2245,0.0],[15.9589,68.2214,3.3505],[15.9645,68.22,74.7001],[15.9653,68.2155,100.3283],[15.9894,68.2161,311.3627],[15.9902,68.2116,372.7976],[16.0022,68.2119,479.928],[16.003,68.2074,360.5919],[15.991,68.2071,393.7932],[15.9917,68.2026,309.2225],[15.9677,68.202,46.5016],[15.97,68.1886,391.9916],[15.958,68.1883,342.4075],[15.9611,68.1703,170.8067],[15.9731,68.1706,163.2469],[15.9739,68.1661,151.3051],[15.9979,68.1666,115.1064],[15.9987,68.1622,92.3348],[16.0107,68.1624,52.9227],[16.0161,68.131,92.9511],[16.0041,68.1307,106.5238],[16.0057,68.1217,165.0935],[16.0177,68.122,105.6283],[16.02,68.1085,195.0865],[15.996,68.108,238.9304],[15.9967,68.1035,229.1832],[15.9728,68.1029,273.8781],[15.9735,68.0984,210.2721],[15.9615,68.0981,256.6169],[15.9639,68.0847,57.624],[15.9399,68.0841,92.318],[15.9407,68.0796,58.9709],[15.8928,68.0785,32.9361],[15.8952,68.065,32.843],[15.9191,68.0656,34.1833],[15.9199,68.0611,147.1717],[15.9558,68.0619,34.5437],[15.9589,68.0439,39.345],[15.9709,68.0442,42.1849],[15.9739,68.0262,3.2245],[16.0218,68.0274,6.2828],[16.0233,68.0184,40.4793],[16.0352,68.0186,41.8415],[16.0368,68.0097,26.3679],[16.0487,68.0099,113.6736],[16.0517,67.992,343.8015],[16.0637,67.9922,368.7133],[16.0644,67.9877,361.5768],[16.0763,67.988,384.4611],[16.0771,67.9835,352.2106],[16.089,67.9838,339.635],[16.0898,67.9793,322.649],[16.1017,67.9796,316.7159],[16.1024,67.9751,292.2064],[16.1144,67.9753,281.1492],[16.1159,67.9664,222.135],[16.1039,67.9661,250.5127],[16.1047,67.9616,363.9672],[16.0928,67.9613,231.3013],[16.092,67.9658,300.6839],[16.0682,67.9653,145.7571],[16.0712,67.9473,210.8751],[16.0831,67.9476,345.8384],[16.0906,67.9026,457.6335],[16.0787,67.9024,597.787],[16.0794,67.8979,609.5863],[16.0675,67.8976,701.9178],[16.0683,67.8931,772.2322],[16.0564,67.8928,862.5746],[16.0594,67.8749,850.3195],[16.0713,67.8751,780.3251],[16.072,67.8707,712.8255],[16.0839,67.8709,612.0186],[16.0846,67.8664,585.4301],[16.0965,67.8667,569.3028],[16.098,67.8577,526.9117],[16.1099,67.858,602.2412],[16.1106,67.8535,683.2975],[16.1225,67.8538,698.3809],[16.1232,67.8493,693.5951],[16.1351,67.8495,659.9879],[16.1358,67.845,697.104],[16.1477,67.8453,718.8327],[16.1499,67.8318,872.5026],[16.1617,67.8321,813.8188],[16.1639,67.8186,572.5452],[16.1758,67.8189,552.7311],[16.1816,67.7829,897.5999],[16.1934,67.7832,962.7273],[16.1941,67.7787,1047.3915],[16.2059,67.779,1068.0367],[16.2088,67.761,1206.903],[16.2443,67.7618,990.0405],[16.245,67.7573,866.6768],[16.2568,67.7576,808.7034],[16.2561,67.762,828.7308],[16.2916,67.7628,974.2736],[16.2909,67.7673,1133.4885],[16.3145,67.7678,892.1147],[16.3152,67.7633,798.155],[16.327,67.7636,768.3702],[16.3277,67.7591,813.6395],[16.3396,67.7593,717.6569],[16.3402,67.7549,781.5706],[16.3521,67.7551,801.4306],[16.3555,67.7326,1016.9355],[16.3673,67.7329,986.9019],[16.368,67.7284,953.5893],[16.3798,67.7286,900.0693],[16.3805,67.7242,869.9353],[16.3923,67.7244,852.0696],[16.393,67.7199,1033.2175],[16.4048,67.7202,1085.2396],[16.4055,67.7157,1046.6676],[16.4173,67.7159,861.9821],[16.4207,67.6934,851.3353],[16.4442,67.6939,983.398],[16.4449,67.6894,1047.3369],[16.4685,67.6899,884.9333],[16.4678,67.6944,969.8915],[16.4796,67.6947,940.3174],[16.4789,67.6992,1025.2457],[16.4907,67.6994,1145.7147],[16.4914,67.6949,1014.2676],[16.5032,67.6952,920.9255],[16.5045,67.6862,940.7156],[16.5163,67.6864,852.7766],[16.5183,67.6729,1018.2421],[16.53,67.6732,998.2523],[16.532,67.6597,818.1018],[16.5438,67.6599,763.7006],[16.5464,67.642,856.8591],[16.5581,67.6422,890.9224],[16.5562,67.6557,734.4681],[16.568,67.6559,717.5456],[16.5667,67.6649,711.6808],[16.5784,67.6651,739.2365],[16.5765,67.6786,892.3666],[16.5883,67.6789,934.8775],[16.5857,67.6968,1016.0819],[16.5975,67.6971,955.3239],[16.5956,67.7106,1182.7592],[16.6074,67.7108,968.8061],[16.6055,67.7243,863.4886],[16.6173,67.7245,898.5991],[16.6153,67.738,1014.6896],[16.6272,67.7382,897.5084],[16.6246,67.7562,766.5438],[16.6364,67.7564,931.0541],[16.6345,67.7699,1219.8376],[16.6463,67.7702,1100.1575],[16.6444,67.7837,1054.8933],[16.6563,67.7839,1024.1699],[16.6544,67.7974,945.2327],[16.6662,67.7976,797.92],[16.6643,67.8111,575.4722],[16.6762,67.8113,588.7722],[16.6743,67.8248,590.2148],[16.6861,67.825,633.9731],[16.6842,67.8385,672.8817],[16.6961,67.8388,862.3767],[16.6942,67.8522,728.2316],[16.7061,67.8525,784.7804],[16.7036,67.8704,933.1337],[16.7155,67.8707,769.7225],[16.7136,67.8842,757.8298],[16.7255,67.8844,764.922],[16.7236,67.8979,807.5645],[16.7355,67.8981,788.2332],[16.7336,67.9116,834.6396],[16.7455,67.9118,881.7048],[16.7449,67.9163,875.8343],[16.7568,67.9165,831.43],[16.7562,67.921,788.064],[16.7681,67.9213,691.5225],[16.7675,67.9258,615.0572],[16.7794,67.926,583.246],[16.7788,67.9305,573.9695],[16.7907,67.9307,572.2225],[16.7901,67.9352,604.6036],[16.8139,67.9356,716.4771],[16.8133,67.9401,720.4301],[16.8252,67.9404,747.7383],[16.8246,67.9449,759.5194],[16.8365,67.9451,822.6749],[16.8359,67.9496,786.7477],[16.8597,67.95,757.0909],[16.8591,67.9545,826.2678],[16.8711,67.9547,704.608],[16.8705,67.9592,732.8626],[16.8824,67.9594,687.7485],[16.8818,67.9639,808.3892],[16.8937,67.9641,998.6831],[16.8931,67.9686,968.4508],[16.917,67.9691,1194.5748],[16.9164,67.9736,1302.3948],[16.9283,67.9738,1308.1613],[16.9277,67.9783,1363.5317],[16.9397,67.9785,1307.1055],[16.9391,67.983,1204.4999],[16.963,67.9834,1162.4596],[16.9624,67.9879,1001.5307],[16.9743,67.9881,902.3536],[16.9738,67.9926,928.53],[16.9857,67.9928,886.3903],[16.9851,67.9973,1015.3577],[17.009,67.9977,1360.4072],[17.0084,68.0022,1345.2546],[17.0204,68.0024,1432.2314],[17.0198,68.0069,1186.4865],[17.0437,68.0074,885.6166],[17.0432,68.0118,870.4118],[17.0551,68.0121,685.0],[17.0545,68.0166,685.0],[17.0785,68.017,685.8581],[17.0779,68.0215,715.7422],[17.0899,68.0217,754.3174],[17.0893,68.0262,777.6424],[17.1013,68.0264,915.9313],[17.1007,68.0309,954.8312],[17.1246,68.0313,960.3066],[17.1241,68.0358,1012.9289],[17.136,68.036,910.2484],[17.1355,68.0405,911.199],[17.1594,68.0408,827.5972],[17.1589,68.0453,938.7151],[17.1709,68.0455,1014.7835],[17.1698,68.0545,1154.3452],[17.1578,68.0543,1087.272],[17.1567,68.0633,1168.2007],[17.1447,68.0631,1062.4099],[17.1442,68.0676,1200.7712],[17.1322,68.0674,886.6519],[17.1316,68.0719,1076.3407],[17.1197,68.0717,835.9468],[17.1191,68.0762,973.0432],[17.1071,68.076,821.0173],[17.1066,68.0805,927.2769],[17.0826,68.0801,778.5],[17.082,68.0846,878.0714],[17.07,68.0844,802.4096],[17.0695,68.0889,894.953],[17.0455,68.0885,821.9598],[17.0449,68.093,928.8776],[17.0329,68.0928,788.1226],[17.0323,68.0973,929.0569],[17.0203,68.0971,820.1102],[17.0198,68.1016,913.0656],[17.0078,68.1014,859.5886],[17.0072,68.1059,897.5375],[16.9712,68.1053,945.9781],[16.97,68.1143,875.509],[16.958,68.114,823.6203],[16.9562,68.1275,975.2057],[16.9442,68.1273,1133.3926],[16.9436,68.1318,1145.285],[16.9196,68.1314,1281.9025],[16.919,68.1359,1308.8973],[16.8349,68.1344,1026.6255],[16.8355,68.1299,1256.9651],[16.7995,68.1292,1155.8859],[16.8001,68.1247,1078.4113],[16.7881,68.1245,970.8751],[16.7899,68.111,1125.3826],[16.7659,68.1106,577.8126],[16.7647,68.1195,939.8472],[16.7527,68.1193,657.7583],[16.7521,68.1238,954.1983],[16.7401,68.1236,676.0359],[16.7394,68.1281,789.7648],[16.7034,68.1274,666.6842],[16.7028,68.1319,920.0372],[16.6667,68.1312,803.9141],[16.6654,68.1402,769.5616],[16.6534,68.14,866.8985],[16.6502,68.1625,380.8219],[16.6622,68.1627,548.2713],[16.6616,68.1672,708.1719],[16.6495,68.1669,457.1769],[16.6482,68.1759,663.4219],[16.6362,68.1757,445.9711],[16.6356,68.1802,610.9288],[16.6235,68.18,410.3934],[16.6222,68.189,282.9651],[16.5861,68.1883,367.8768],[16.5854,68.1927,535.5828],[16.5734,68.1925,553.6552],[16.5727,68.197,551.2421],[16.5607,68.1968,500.6284],[16.56,68.2013,605.2156],[16.548,68.201,634.5776],[16.5439,68.228,645.8069],[16.5198,68.2275,555.4562],[16.5192,68.232,905.4242],[16.5071,68.2318,519.9722],[16.5064,68.2363,796.4993],[16.4943,68.236,631.2656],[16.493,68.245,226.4568],[16.4809,68.2448,26.0683],[16.4802,68.2493,205.7418],[16.432,68.2483,729.6583],[16.4313,68.2528,359.5636],[16.4071,68.2523,293.371],[16.4064,68.2568,243.1501],[16.3943,68.2565,260.4838],[16.3936,68.261,235.2048],[16.3816,68.2608,463.7822],[16.3809,68.2653,599.0066],[16.3688,68.265,603.8247],[16.3681,68.2695,395.3111],[16.356,68.2693,97.1033],[16.3553,68.2738,201.5156],[16.3432,68.2735,49.8925],[16.3425,68.278,285.7105],[16.3183,68.2775,526.6495],[16.3176,68.282,446.517],[16.2813,68.2812,423.8942],[16.2806,68.2857,720.7208],[16.2323,68.2847,241.0963],[16.2315,68.2892,270.5671],[16.1953,68.2884,143.4819]]],
[[[16.3583,68.0813,0.0],[16.3568,68.0797,0.0],[16.362,68.0797,4.8206],[16.362,68.0807,1.408],[16.3583,68.0813,0.0]]],
[[[16.2313,67.8917,0.0],[16.2297,67.8901,0.0],[16.2349,67.8901,19.9007],[16.2349,67.8912,0.0],[16.2313,67.8917,0.0]]],
[[[16.1708,68.05,36.2393],[16.1667,68.05,45.9506],[16.1625,68.0521,0.0],[16.1526,68.0516,7.4269],[16.1609,68.0463,0.0],[16.1688,68.0458,14.1192],[16.1729,68.0437,0.0],[16.1854,68.0437,0.0],[16.1891,68.0463,0.0],[16.1875,68.0479,1.4367],[16.175,68.0479,93.8305],[16.1708,68.05,36.2393]]],
[[[16.2958,68.0875,47.9812],[16.2901,68.088,64.7999],[16.2792,68.0938,29.4184],[16.2625,68.0938,60.899],[16.2526,68.0911,123.2842],[16.25,68.0875,168.7938],[16.2193,68.0828,0.0],[16.2161,68.0797,27.5824],[16.2047,68.0766,28.7611],[16.1958,68.0667,183.4075],[16.175,68.0667,59.0179],[16.1729,68.0646,0.0],[16.1766,68.062,35.9634],[16.1755,68.0589,14.9208],[16.1813,68.0563,0.0],[16.1849,68.0568,0.0],[16.1859,68.0599,11.2873],[16.1896,68.0604,0.0],[16.1938,68.0583,0.0],[16.2042,68.0583,0.0],[16.2188,68.0542,0.0],[16.225,68.0542,0.0],[16.2292,68.0521,0.0],[16.2521,68.0521,0.0],[16.2583,68.0542,36.1651],[16.2599,68.0537,9.0488],[16.2589,68.0505,0.0],[16.2714,68.0443,12.0574],[16.2833,68.0437,0.0],[16.2875,68.0417,0.0],[16.2958,68.0437,6.0284],[16.3,68.0417,0.0],[16.3125,68.0417,0.0],[16.3203,68.0443,0.0],[16.3224,68.0474,0.0],[16.3193,68.0484,0.0],[16.3193,68.0516,0.0],[16.3266,68.0609,0.0],[16.3234,68.063,0.0],[16.3245,68.0661,0.0],[16.3214,68.0672,0.0],[16.3214,68.0703,18.3258],[16.3234,68.0724,34.1613],[16.3292,68.0729,0.0],[16.3307,68.0745,0.0],[16.3276,68.0755,10.8245],[16.325,68.0792,0.0],[16.3125,68.075,291.4584],[16.3047,68.0755,443.8321],[16.3099,68.0776,116.6597],[16.312,68.0807,0.0],[16.2958,68.0875,47.9812]]],
[[[16.0604,68.1854,0.0],[16.0703,68.188,0.0],[16.0714,68.1911,0.0],[16.0771,68.1917,0.0],[16.0849,68.1953,0.0],[16.0792,68.1979,19.2917],[16.0729,68.1979,7.5416],[16.0661,68.1922,5.7791],[16.0609,68.1911,0.0],[16.0578,68.188,11.9175],[16.0542,68.1875,21.4873],[16.05,68.1896,0.0],[16.0401,68.187,5.0454],[16.0417,68.1854,0.0],[16.0604,68.1854,0.0]]],
[[[16.3276,68.1943,8.5882],[16.3604,68.1958,0.0],[16.3745,68.2005,1.3748],[16.3786,68.2057,10.492],[16.3708,68.2063,0.0],[16.3583,68.2021,10.5224],[16.35,68.2021,0.0],[16.3396,68.1979,53.1086],[16.3312,68.1979,8.0894],[16.3276,68.1943,8.5882]]],
[[[16.1714,68.2589,0.0],[16.1854,68.2583,0.0],[16.187,68.2599,0.0],[16.1729,68.2667,0.0],[16.163,68.2662,0.0],[16.1661,68.2641,0.0],[16.1672,68.2609,0.0],[16.1714,68.2589,0.0]]]]}}