{"type": "Feature","bbox": [7.6943,63.0167,7.8995,63.1072],"geometry": {"type": "MultiPolygon","coordinates": [[[[7.7839,63.0193,0.0],[7.7854,63.0187,0.0],[7.787,63.0203,0.0],[7.7839,63.0203,0.0],[7.7839,63.0193,0.0]]],
[[[7.7099,63.0589,16.7994],[7.7042,63.0625,2.2279],[7.6943,63.062,3.0217],[7.7042,63.0583,0.0],[7.7099,63.0589,16.7994]]],
[[[7.8398,63.1066,0.0],[7.7964,63.0995,0.0],[7.7943,63.0953,50.361],[7.7901,63.0932,9.2587],[7.7938,63.0896,0.0],[7.7896,63.0854,5.1325],[7.7734,63.0859,0.0],[7.7786,63.0891,0.0],[7.7729,63.0917,0.0],[7.7583,63.0896,0.0],[7.7542,63.0917,0.0],[7.75,63.0896,13.8737],[7.7438,63.0917,0.0],[7.713,63.0828,0.0],[7.7089,63.0807,1.701],[7.712,63.0786,15.075],[7.7109,63.0734,0.0],[7.7141,63.0724,40.419],[7.7109,63.0693,0.0],[7.713,63.0651,0.0],[7.7161,63.0641,31.408],[7.7172,63.0609,0.0],[7.7245,63.0599,76.7292],[7.7245,63.0547,0.0],[7.7208,63.05,0.0],[7.7151,63.0526,48.2751],[7.7125,63.0563,10.0742],[7.7005,63.0536,1.5984],[7.7005,63.0505,0.0],[7.7042,63.0479,7.4011],[7.7026,63.0422,0.0],[7.7057,63.0401,79.2566],[7.6964,63.0391,0.0],[7.6964,63.0359,0.0],[7.7063,63.0333,0.0],[7.725,63.0333,33.2238],[7.7349,63.0286,8.0446],[7.7375,63.025,0.0],[7.7458,63.025,0.0],[7.75,63.0271,0.0],[7.7516,63.0266,0.0],[7.7516,63.0234,2.3393],[7.7484,63.0224,0.0],[7.7464,63.0193,0.6391],[7.7542,63.0187,0.0],[7.7583,63.0167,0.0],[7.7625,63.0187,6.2185],[7.7771,63.0187,0.0],[7.7828,63.0214,2.8143],[7.7813,63.0229,7.0134],[7.7755,63.0234,0.8153],[7.7771,63.025,0.0],[7.7917,63.025,0.0],[7.7958,63.0229,0.0],[7.8042,63.0229,2.6506],[7.8104,63.0208,0.0],[7.813,63.0245,1.667],[7.8172,63.0266,0.0],[7.8266,63.0276,0.0],[7.8234,63.0297,0.0],[7.8234,63.0328,5.614],[7.837,63.0359,0.0],[7.8458,63.0417,0.0],[7.8521,63.0417,0.0],[7.8604,63.0458,3.0005],[7.8682,63.0464,0.0],[7.8714,63.0516,3.5932],[7.8786,63.0526,0.0],[7.8807,63.0547,0.0],[7.8818,63.0599,6.5995],[7.887,63.0609,0.0],[7.888,63.0682,2.6645],[7.8932,63.0724,29.0212],[7.8859,63.0766,16.4097],[7.888,63.0807,39.0772],[7.8974,63.0818,0.0],[7.8943,63.0849,0.0],[7.8974,63.0859,0.0],[7.8995,63.0932,0.0],[7.8964,63.0943,18.4912],[7.8953,63.0995,27.3436],[7.888,63.1005,0.0],[7.8771,63.1063,0.0],[7.8729,63.1063,3.2172],[7.8688,63.1042,10.0176],[7.85,63.1042,10.427],[7.8443,63.1072,0.0],[7.8398,63.1066,0.0]]],
[[[7.7672,63.0943,2.1175],[7.7703,63.0943,2.9556],[7.7703,63.0953,2.8298],[7.7688,63.0958,5.0435],[7.7672,63.0943,2.1175]]]]}
,"properties": {"GID_2": "NOR.8.7_1","GID_0": "NOR","country": "Norway","GID_1": "NOR.8_1","province": "MøreogRomsdal","NL_NAME_1": "NA","county": "Frei","VARNAME_2": "NA","NL_NAME_2": "NA","TYPE_2": "Kommuner","ENGTYPE_2": "Municipality","CC_2": "NA","HASC_2": "NO.MR.FR","name": "Frei.county","area_km2": 65.86816,"hist_schema_id": "Elevation0-9000","hist_area_km2": {"0": 5.9463,"25": 9.0951,"50": 10.8408,"75": 10.61248,"100": 3.9672,"125": 4.13962,"150": 3.91892,"175": 3.40019,"200": 2.90078,"225": 2.60288,"250": 1.77689,"275": 1.47923,"300": 1.17192,"325": 0.58598,"350": 0.47075,"375": 0.47073,"400": 0.52841,"425": 0.51881,"450": 0.42277,"475": 0.25942,"500": 0.29782,"525": 0.16333,"550": 0.18255,"575": 0.05765,"600": 0.05765}}}