{"type": "Feature","id": "915","bbox": [4.64381,60.70234,8.30857,62.2145],"geometry": {"type": "MultiPolygon","coordinates": [[[[4.82488,60.93008,15.7561],[4.8366,60.93317,0.0],[4.84327,60.93887,6.645],[4.83676,60.94318,9.3487],[4.7951,60.93887,0.0],[4.78159,60.93529,3.4511],[4.77687,60.93,8.488],[4.78199,60.92402,4.7745],[4.78403,60.92023,0.0],[4.78159,60.91763,0.0],[4.78386,60.91694,0.0],[4.79135,60.9184,10.7848],[4.8003,60.91694,0.0],[4.80958,60.91185,0.0],[4.81691,60.91169,20.8269],[4.82106,60.91852,0.0],[4.82521,60.92048,0.0],[4.83123,60.9145,15.1473],[4.83318,60.90839,0.0],[4.8309,60.90241,6.6931],[4.83473,60.89521,7.9507],[4.84539,60.89008,0.0],[4.86101,60.88467,0.0],[4.86541,60.88569,0.6449],[4.86817,60.88776,0.0],[4.87224,60.88402,0.0],[4.87241,60.87507,28.3952],[4.87875,60.86514,24.7449],[4.89796,60.85847,0.0],[4.91822,60.85537,0.0],[4.92514,60.85554,10.2012],[4.92897,60.85863,0.0],[4.92937,60.86115,0.0],[4.9284,60.86424,11.1824],[4.92237,60.8675,0.0],[4.9201,60.86835,0.0],[4.92416,60.87116,15.1636],[4.92254,60.87812,17.3502],[4.89723,60.90742,26.1472],[4.88526,60.91372,0.0],[4.87403,60.91767,0.0],[4.87086,60.92377,0.0],[4.87664,60.92593,0.0],[4.88413,60.9256,14.3973],[4.88282,60.93,0.0],[4.87078,60.93293,0.0],[4.85564,60.93252,7.0037],[4.82635,60.92902,15.0251],[4.82488,60.93008,15.7561]]],
[[[4.73959,61.02766,76.196],[4.73268,61.03506,5.9967],[4.72145,61.04023,0.0],[4.71144,61.04829,0.0],[4.71217,61.05516,43.3894],[4.71461,61.06013,37.4058],[4.70916,61.06729,0.0],[4.70558,61.07624,4.2023],[4.70004,61.08222,3.5822],[4.68898,61.08234,0.0],[4.6797,61.07966,0.0],[4.67457,61.07339,7.7655],[4.66847,61.0683,17.4812],[4.66407,61.06745,10.8764],[4.65935,61.06607,0.0],[4.6447,61.06025,14.3173],[4.64381,61.0576,1.7497],[4.64877,61.05467,18.4112],[4.64812,61.05231,0.0],[4.64479,61.04584,0.0],[4.64601,61.03628,0.0],[4.64869,61.02643,5.7159],[4.65626,61.01952,1.8292],[4.66489,61.0187,20.6347],[4.66879,61.01411,5.6265],[4.67237,61.00332,13.7194],[4.68035,60.99714,19.2683],[4.68849,60.99946,20.6274],[4.69174,61.00251,0.0],[4.69744,61.00772,4.475],[4.70541,61.01874,19.4448],[4.70867,61.01972,0.0],[4.70541,61.01044,0.0],[4.70135,61.00161,41.5613],[4.70191,60.99372,0.0],[4.70688,60.98851,4.7829],[4.71844,60.99091,27.7226],[4.73113,60.99995,21.3652],[4.73902,61.01374,20.5537],[4.73959,61.02766,76.196]]],
[[[5.07919,61.11131,0.0],[5.07993,61.12055,211.7467],[5.07415,61.13194,349.4514],[5.0429,61.15656,317.5656],[5.01572,61.16564,0.0],[5.00766,61.16364,22.4922],[5.00766,61.15941,96.1051],[5.01075,61.15261,60.7686],[5.01523,61.12084,344.6429],[5.02459,61.11445,0.0],[5.07244,61.10944,0.0],[5.07919,61.11131,0.0]]],
[[[4.89039,61.14521,0.0],[4.88575,61.16323,56.3439],[4.87281,61.19465,15.8297],[4.86248,61.20344,0.0],[4.84474,61.19733,0.0],[4.86997,61.15013,101.3787],[4.87208,61.13646,95.9119],[4.86329,61.12173,307.8463],[4.85133,61.1293,373.7535],[4.83058,61.16323,0.0],[4.81837,61.15542,21.05],[4.79461,61.15375,0.0],[4.79021,61.14614,0.0],[4.79119,61.13691,11.7307],[4.79558,61.12604,0.0],[4.7964,61.11848,32.0166],[4.79526,61.08291,0.0],[4.79705,61.06281,8.6096],[4.80323,61.04654,0.0],[4.81186,61.05414,27.4768],[4.81414,61.06147,21.3106],[4.8152,61.069,9.5534],[4.82057,61.07754,0.0],[4.82594,61.07941,0.0],[4.85564,61.0965,429.2817],[4.85841,61.10114,443.6208],[4.8755,61.08979,92.0834],[4.88478,61.06977,73.5383],[4.89381,61.0561,45.5285],[4.90968,61.06387,0.0],[4.92652,61.07587,31.0757],[4.96795,61.09227,77.0495],[4.98536,61.10489,272.1531],[4.98732,61.1197,473.4173],[4.96079,61.17744,0.0],[4.95289,61.18513,57.7361],[4.94353,61.19017,0.0],[4.93238,61.19229,25.2149],[4.91993,61.19111,56.7674],[4.92482,61.18643,13.6231],[4.9297,61.18049,0.0],[4.93426,61.17744,12.2337],[4.92604,61.17329,46.0697],[4.91863,61.1706,22.0],[4.91033,61.16938,47.7494],[4.90008,61.16999,123.0597],[4.90333,61.16352,66.531],[4.90577,61.15502,38.7383],[4.9061,61.14643,51.5027],[4.90317,61.13959,0.0],[4.89527,61.13736,48.9796],[4.89039,61.14521,0.0]]],
[[[4.73544,61.31493,0.0],[4.72665,61.31855,1.0269],[4.71664,61.31965,0.0],[4.70753,61.31688,6.984],[4.70558,61.31529,4.9321],[4.70745,61.31236,2.2655],[4.70769,61.31074,6.048],[4.70126,61.31322,2.7329],[4.69776,61.31114,14.2468],[4.69907,61.30801,0.0],[4.70183,61.30577,0.0],[4.6893,61.30423,0.0],[4.68865,61.29873,10.8944],[4.69475,61.29145,0.0],[4.69809,61.28852,7.8393],[4.70362,61.28653,2.71],[4.74789,61.28844,0.0],[4.75896,61.28429,0.0],[4.76328,61.28628,3.1263],[4.77206,61.28526,4.3683],[4.77996,61.28811,0.0],[4.77744,61.29332,14.7155],[4.76808,61.29694,7.317],[4.74765,61.29918,12.085],[4.74252,61.30199,0.0],[4.73968,61.30593,12.7748],[4.73894,61.3107,3.2023],[4.73544,61.31493,0.0]]],
[[[4.85532,61.35895,0.0],[4.85328,61.36091,0.0],[4.85108,61.35883,0.0],[4.84474,61.35899,0.0],[4.83033,61.35436,7.4445],[4.82382,61.34878,0.0],[4.82423,61.34422,0.0],[4.82952,61.34081,0.0],[4.83058,61.33865,0.0],[4.83196,61.33495,0.0],[4.83383,61.33507,0.0],[4.86297,61.35017,8.5768],[4.86166,61.35794,0.0],[4.85532,61.35895,0.0]]],
[[[4.96249,61.52473,0.0],[4.95655,61.52558,0.0],[4.94972,61.52745,26.3072],[4.94785,61.53063,0.0],[4.9336,61.53681,0.0],[4.92994,61.54059,0.0],[4.92579,61.53897,7.9541],[4.92457,61.53705,0.0],[4.92433,61.5351,0.0],[4.92229,61.53311,0.0],[4.92066,61.52806,0.0],[4.92522,61.52652,63.4567],[4.92441,61.5222,0.0],[4.91847,61.52367,0.0],[4.91676,61.51862,0.0],[4.93173,61.51878,0.0],[4.92709,61.51626,6.5688],[4.92872,61.51386,9.8937],[4.93686,61.50918,0.0],[4.94663,61.50662,0.0],[4.95322,61.50389,0.0],[4.96022,61.50255,0.0],[4.97348,61.50068,0.0],[4.98455,61.50585,14.4223],[4.99545,61.51004,0.0],[4.99545,61.51219,0.0],[4.99301,61.51883,3.5581],[4.98837,61.52094,0.0],[4.98463,61.51626,0.0],[4.98032,61.51744,0.0],[4.97722,61.51651,4.5353],[4.97527,61.5148,0.0],[4.9725,61.51813,0.0],[4.96941,61.52102,0.0],[4.96249,61.52473,0.0]]],
[[[4.88054,61.61017,4.1396],[4.85857,61.61465,0.0],[4.85589,61.61929,0.0],[4.85678,61.62486,0.0],[4.85019,61.64171,1.713],[4.84327,61.64415,0.0],[4.84303,61.64232,0.0],[4.84669,61.6413,0.0],[4.83676,61.63414,4.0004],[4.83855,61.6232,0.0],[4.84067,61.6201,0.0],[4.83994,61.61697,0.0],[4.8388,61.61514,0.0],[4.8423,61.61359,0.0],[4.8506,61.60627,2.3673],[4.84506,61.60501,5.3161],[4.83302,61.6055,0.0],[4.81349,61.59675,0.0],[4.80616,61.59626,0.0],[4.7916,61.59121,0.0],[4.79038,61.58999,0.0],[4.7894,61.58718,8.9575],[4.79176,61.58462,4.7746],[4.80087,61.58535,0.0],[4.806,61.58421,1.6636],[4.80877,61.58271,0.0],[4.88836,61.59215,21.699],[4.8982,61.59569,0.0],[4.9017,61.59597,0.5914],[4.89894,61.59785,0.0],[4.89438,61.59878,0.0],[4.88054,61.61017,4.1396]]],
[[[4.90349,61.67617,0.0],[4.89576,61.68452,0.0],[4.8895,61.68846,0.0],[4.88429,61.69571,7.6905],[4.87745,61.701,0.0],[4.87989,61.71198,39.7042],[4.87029,61.71467,12.6798],[4.86305,61.7082,19.3218],[4.85825,61.70222,0.0],[4.84832,61.70161,8.4861],[4.83872,61.69961,0.0],[4.83286,61.69579,5.0717],[4.83025,61.69001,0.0],[4.83188,61.68146,11.1826],[4.83627,61.67455,0.0],[4.84083,61.66962,1.9302],[4.84816,61.66498,6.2471],[4.85328,61.66332,0.0],[4.85719,61.66161,0.0],[4.86541,61.65937,11.2491],[4.88356,61.66429,0.0],[4.8921,61.66279,14.3191],[4.8991,61.65937,0.0],[4.90235,61.65461,0.0],[4.90284,61.65249,0.0],[4.9048,61.66022,0.0],[4.90349,61.67617,0.0]]],
[[[4.8777,61.76093,13.074],[4.88315,61.76797,0.0],[4.8825,61.77782,218.283],[4.87102,61.78937,311.3496],[4.84929,61.80935,0.0],[4.84099,61.81004,0.0],[4.79542,61.79295,0.0],[4.79298,61.79112,48.1788],[4.79746,61.78799,0.0],[4.82871,61.77965,36.3708],[4.84189,61.77005,0.0],[4.84677,61.76854,0.0],[4.84816,61.76647,0.0],[4.84555,61.75349,0.0],[4.84002,61.75271,0.0],[4.83684,61.75084,0.0],[4.84002,61.74864,0.0],[4.84474,61.74677,0.0],[4.8777,61.76093,13.074]]],
[[[4.95297,61.89696,213.2329],[4.90952,61.89818,0.0],[4.86524,61.88939,0.0],[4.86492,61.87303,265.2342],[4.84645,61.86249,398.3746],[4.82195,61.85342,77.7639],[4.80323,61.84162,0.0],[4.82944,61.83421,0.0],[4.89812,61.82705,0.0],[4.92677,61.82795,0.0],[4.91407,61.81611,94.4247],[4.90748,61.81122,13.2883],[4.90008,61.80744,0.0],[4.88071,61.81436,0.0],[4.87078,61.81338,0.0],[4.87208,61.8006,0.0],[4.88966,61.7851,7.2631],[4.91627,61.78095,0.0],[5.01295,61.7958,257.2379],[5.0534,61.80878,48.4589],[5.09059,61.82811,196.5567],[5.12599,61.85586,524.5829],[5.13746,61.84736,366.1437],[5.13868,61.83735,0.0],[5.13185,61.82783,75.6646],[5.11842,61.82111,0.0],[5.17661,61.82567,0.0],[5.20541,61.83393,48.5234],[5.22283,61.84846,755.19],[4.95297,61.89696,213.2329]]],
[[[5.06764,62.00886,0.0],[5.00961,62.03067,0.0],[4.99293,62.03506,1.3985],[4.98512,62.03388,53.8389],[4.98585,62.02741,0.0],[4.98414,62.01862,0.0],[4.98422,62.00947,0.0],[4.98618,62.00528,0.0],[4.99855,61.99624,353.2521],[5.05437,61.97236,0.0],[5.05584,61.95897,0.0],[5.04835,61.95283,0.0],[5.0442,61.95698,18.0698],[5.03663,61.96149,180.6986],[5.02475,61.96019,0.0],[5.01612,61.95246,0.0],[5.01547,61.94343,0.0],[5.02149,61.93887,0.0],[5.03386,61.93504,0.0],[5.04103,61.93464,0.0],[5.07537,61.92719,0.0],[5.09523,61.92744,160.7566],[5.11256,61.93692,19.3667],[5.12322,61.9488,309.9918],[5.12794,61.95856,299.0246],[5.12989,61.96369,214.5],[5.13893,61.97972,0.0],[5.14869,61.98859,53.1791],[5.15211,61.99795,0.0],[5.13356,62.01984,54.2785],[5.12029,62.02578,131.9811],[5.10182,62.02131,0.0],[5.08904,62.01581,4.0868],[5.08579,62.0104,0.0],[5.07976,62.00642,0.0],[5.06764,62.00886,0.0]]],
[[[5.21022,62.19424,36.1311],[5.18181,62.21271,96.8461],[5.16969,62.2145,0.0],[5.14649,62.20474,0.0],[5.14601,62.20238,0.0],[5.14674,62.1933,39.2091],[5.14649,62.19107,171.9602],[5.14145,62.1905,226.7597],[5.13087,62.19164,447.4314],[5.12599,62.19107,453.7662],[5.0962,62.19355,0.0],[5.08497,62.19107,0.0],[5.08416,62.1848,0.0],[5.08237,62.18366,0.0],[5.07814,62.18423,0.0],[5.0818,62.1811,0.0],[5.08815,62.17365,0.0],[5.09181,62.1706,0.0],[5.08644,62.16913,0.0],[5.07643,62.16494,0.0],[5.07065,62.16376,0.0],[5.08025,62.15249,0.0],[5.11109,62.1398,0.0],[5.12599,62.12958,0.0],[5.10971,62.12446,0.0],[5.10157,62.12299,0.0],[5.09181,62.12275,0.0],[5.10914,62.10912,0.0],[5.20851,62.10228,14.4581],[5.29786,62.06818,0.0],[5.31332,62.05711,0.0],[5.32765,62.04393,0.0],[5.34099,62.03685,8.247],[5.37192,62.03681,122.7822],[5.386,62.034,0.0],[5.40016,62.02001,0.0],[5.37672,62.01606,311.4634],[5.33904,62.01923,34.9638],[5.31031,62.02656,0.0],[5.30152,62.00288,315.5884],[5.2889099999999996,61.99274,0.0],[5.25017,61.97875,23.9946],[5.24122,61.97101,233.1644],[5.24024,61.96491,248.4908],[5.23862,61.96064,202.205],[5.22828,61.95832,236.7258],[5.22364,61.95991,314.0983],[5.21022,61.96865,192.6765],[5.20167,61.97134,0.0],[5.19516,61.96955,0.0],[5.1902,61.96442,246.5899],[5.18393,61.95954,420.2208],[5.17384,61.95832,388.3056],[5.16505,61.96353,162.0465],[5.16147,61.97138,57.2528],[5.15553,61.97602,0.0],[5.14031,61.97134,8.5024],[5.14039,61.96796,2.3278],[5.12599,61.94404,77.6883],[5.11378,61.93008,2.1601],[5.09864,61.91669,0.0],[5.13526,61.90131,0.0],[5.15577,61.89606,0.0],[5.17066,61.89997,25.1708],[5.1937,61.91234,123.6595],[5.22153,61.91437,4.7457],[5.27687,61.90986,0.0],[5.30193,61.9134,0.0],[5.34897,61.92731,86.7448],[5.42701,61.93781,8.3622],[5.43727,61.93496,0.0],[5.44361,61.92919,0.0],[5.45021,61.9252,0.0],[5.51661,61.93814,120.1582],[5.64536,61.92479,114.8689],[5.96144,61.91669,102.4399],[5.96144,61.90986,0.0],[5.93328,61.90302,0.0],[5.72926,61.89688,0.0],[5.72926,61.88939,0.0],[5.7964,61.85737,0.0],[5.80445,61.85586,0.0],[5.81031,61.85822,66.8496],[5.82252,61.86742,436.6941],[5.82862,61.86957,423.6763],[5.84311,61.87165,198.5746],[5.87184,61.88105,293.6364],[5.88624,61.88321,310.8257],[5.90699,61.88154,0.0],[5.96144,61.86957,0.0],[6.0184,61.87104,0.0],[6.03712,61.86957,0.0],[6.08188,61.85122,0.0],[6.09547,61.84846,0.0],[6.25856,61.85627,0.0],[6.47625,61.82534,0.0],[6.5101,61.83539,334.2413],[6.52589,61.85073,140.4385],[6.53842,61.86628,49.9964],[6.55551,61.87832,10.7807],[6.65724,61.88939,128.2402],[6.66228,61.89057,235.256],[6.67172,61.8957,391.7098],[6.67799,61.89688,375.6792],[6.68377,61.89496,251.7738],[6.6902,61.88618,0.0],[6.69508,61.88321,0.0],[6.74252,61.87739,0.0],[6.75685,61.87299,0.0],[6.77101,61.87031,0.0],[6.80209,61.87604,169.4613],[6.81861,61.87641,89.8379],[6.81861,61.86957,0.0],[6.80974,61.86542,0.0],[6.80201,61.85977,0.0],[6.78745,61.84504,167.759],[6.77768,61.84125,376.1628],[6.76645,61.84565,518.9202],[6.75563,61.85244,539.6039],[6.74635,61.85586,541.0702],[6.72096,61.85908,644.2789],[6.66733,61.8732,0.0],[6.64015,61.87641,0.0],[6.61378,61.87519,0.0],[6.58961,61.87084,0.0],[6.56813,61.86237,0.0],[6.55047,61.84846,0.0],[6.53321,61.82453,0.0],[6.52133,61.8142,0.0],[6.5027,61.80744,0.0],[6.47381,61.80463,0.0],[6.3838,61.80744,534.5243],[6.35922,61.81184,399.4386],[6.31324,61.83104,512.4476],[6.2907,61.83539,592.5669],[6.05763,61.83539,0.0],[6.05763,61.82795,0.0],[6.07488,61.82494,0.0],[6.09262,61.81786,0.0],[6.10939,61.80801,0.0],[6.12281,61.79686,0.0],[6.13771,61.78913,0.0],[6.15504,61.78579,0.0],[6.17091,61.78046,0.0],[6.18116,61.76655,0.0],[6.12338,61.76992,55.5582],[6.09864,61.77888,135.6431],[6.05893,61.80829,692.2936],[6.01026,61.8312,342.7439],[5.99204,61.83539,0.0],[5.97291,61.83112,301.2612],[5.96437,61.82005,300.2302],[5.9546,61.78701,249.1135],[5.94223,61.7687,105.654],[5.93002,61.75943,52.0976],[5.91635,61.7517,180.6039],[5.89926,61.73859,40.4451],[5.90016,61.75064,803.6335],[5.92709,61.78242,1222.9508],[5.93727,61.81525,294.2322],[5.94321,61.82685,433.6088],[5.9463,61.83735,818.579],[5.94093,61.84504,771.9683],[5.92262,61.85029,355.8795],[5.73552,61.83539,468.5917],[5.64715,61.81525,0.0],[5.6194,61.81493,115.5825],[5.6408,61.83511,176.9166],[5.6753,61.83983,37.8409],[5.71266,61.84056,0.0],[5.74293,61.84846,20.2489],[5.71608,61.86164,256.5985],[5.69142,61.87979,400.8229],[5.67579,61.88695,65.999],[5.63649,61.88886,81.5557],[5.60027,61.89912,9.9565],[5.58074,61.89981,0.0],[5.54029,61.89688,0.0],[5.52231,61.89887,276.6745],[5.4878,61.90786,0.0],[5.39479,61.91108,0.0],[5.36256,61.90546,0.0],[5.29689,61.86835,0.0],[5.29038,61.86213,0.0],[5.29151,61.85151,0.0],[5.30323,61.84886,0.0],[5.32049,61.84772,0.0],[5.33758,61.84162,575.9362],[5.29575,61.84089,0.0],[5.25636,61.83539,0.0],[5.26271,61.83076,0.0],[5.26539,61.82925,0.0],[5.27003,61.82795,0.0],[5.24448,61.81729,0.0],[5.1316,61.79442,295.6202],[5.10385,61.78539,0.0],[5.07895,61.77375,0.0],[5.06446,61.75971,0.0],[5.1902,61.76895,18.0368],[5.14829,61.75926,0.0],[5.12599,61.75218,0.0],[5.13551,61.7438,0.0],[5.16765,61.72553,0.0],[5.14617,61.7176,282.566],[5.13738,61.71695,389.497],[5.12599,61.71809,252.5282],[5.12192,61.72028,47.5313],[5.10483,61.73237,0.0],[5.09889,61.73359,210.5751],[5.08465,61.73176,515.4904],[5.07814,61.73237,400.6765],[5.07683,61.73469,535.7852],[5.07683,61.73867,554.0099],[5.07553,61.74287,655.0355],[5.07065,61.74604,456.7397],[5.05397,61.75039,285.4614],[5.03663,61.75218,123.1352],[5.00343,61.75113,0.0],[4.98813,61.74689,0.0],[4.97446,61.73859,0.0],[4.98064,61.73558,0.0],[4.98341,61.73273,0.0],[4.98536,61.72956,14.9126],[4.98878,61.72553,0.0],[4.97291,61.7248,0.0],[4.96274,61.71711,0.0],[4.96046,61.70669,0.0],[4.96827,61.69766,0.0],[4.95769,61.69408,0.0],[4.94606,61.68749,0.0],[4.93963,61.67837,0.0],[4.9441,61.66718,0.0],[4.96241,61.64175,2.6033],[4.96827,61.63614,6.58],[4.99269,61.63044,0.0],[5.22926,61.62873,81.9349],[5.24187,61.63068,99.5563],[5.2837,61.64232,147.3437],[5.34067,61.64313,84.4462],[5.3201599999999996,61.62873,91.4599],[5.27003,61.61567,204.7057],[5.35043,61.60651,0.0],[5.42701,61.58893,0.0],[5.4026,61.58031,0.0],[5.31031,61.58218,152.7739],[5.31031,61.58893,101.0205],[5.31813,61.58983,47.2642],[5.33758,61.5952,46.3202],[5.14649,61.5952,0.0],[5.17205,61.58552,0.0],[5.33139,61.56127,39.6364],[5.35816,61.56102,89.3143],[5.35816,61.55419,0.0],[5.24643,61.55419,0.0],[5.21404,61.54767,52.9761],[5.20167,61.54682,176.0954],[5.15659,61.55451,88.3164],[5.14031,61.55419,87.5053],[5.14031,61.54682,10.0003],[5.1408,61.54682,10.0003],[5.14649,61.53998,0.0],[5.13893,61.52412,0.0],[5.17823,61.50975,0.0],[5.25318,61.49527,0.0],[5.29029,61.47964,0.0],[5.3978,61.48688,0.0],[5.44125,61.47915,0.0],[5.438,61.46044,0.0],[5.46095,61.45283,36.377],[5.49195,61.45401,0.0],[5.52361,61.46467,204.5624],[5.57472,61.46483,50.3698],[5.58351,61.46743,153.6253],[5.61199,61.48534,257.5186],[5.63787,61.49437,489.7748],[5.66505,61.49836,235.8309],[5.72242,61.49897,0.0],[5.74676,61.49299,0.0],[5.78175,61.46564,292.8757],[5.80445,61.45799,151.7248],[5.80445,61.45116,253.4578],[5.78256,61.45059,534.873],[5.77036,61.45515,471.0653],[5.75278,61.47573,368.1762],[5.73601,61.48461,441.3909],[5.71266,61.48713,117.0118],[5.66725,61.48534,0.0],[5.65089,61.48188,0.0],[5.63852,61.47382,0.0],[5.62859,61.46475,0.0],[5.6194,61.45799,0.0],[5.59938,61.45258,34.7403],[5.55665,61.44977,0.0],[5.53688,61.44432,0.0],[5.54371,61.43696,307.9859],[5.51889,61.43012,936.6827],[5.4839,61.43171,767.6685],[5.33758,61.46483,0.0],[5.3108,61.44941,136.4675],[5.26629,61.45531,138.3672],[5.21811,61.46784,0.0],[5.18051,61.47232,0.0],[5.188,61.46483,0.0],[5.16342,61.45083,203.2723],[5.05714,61.44432,4.2614],[4.94793,61.41641,0.0],[4.94793,61.41022,0.0],[4.98911,61.41112,7.4321],[5.02914,61.41641,417.2293],[5.07146,61.41706,0.0],[5.09246,61.42023,0.0],[5.11166,61.43073,266.6808],[5.11476,61.42683,21.8505],[5.11655,61.42402,0.0],[5.11752,61.42109,0.0],[5.11842,61.41641,0.0],[5.08546,61.41352,0.0],[5.07814,61.41022,0.0],[5.07716,61.40469,0.0],[5.07944,61.38809,426.2964],[5.07814,61.38296,464.6726],[5.06267,61.37458,425.7667],[5.05787,61.38068,413.6237],[5.0547,61.39289,144.1362],[5.04412,61.40278,0.0],[5.02833,61.40156,0.0],[5.01149,61.39155,0.0],[4.99879,61.3769,99.0537],[4.99562,61.3618,211.0232],[5.00636,61.34748,200.2333],[5.02573,61.33954,0.0],[5.03663,61.32831,5.8993],[5.05844,61.32347,0.0],[5.09327,61.3288,22.1729],[5.12794,61.33979,110.9692],[5.15016,61.35155,189.8327],[5.16432,61.35611,103.1083],[5.55454,61.37832,150.3529],[5.59962,61.37592,241.3644],[5.63307,61.3618,381.7595],[5.4406,61.36742,375.6967],[5.25636,61.34813,0.0],[5.27182,61.33869,82.5007],[5.30551,61.32844,192.7791],[5.32081,61.31745,229.8498],[5.32748,61.30573,252.1342],[5.33416,61.28734,142.2772],[5.33741,61.26874,82.4267],[5.33448,61.25601,403.6426],[5.32065,61.25226,459.6904],[5.31023,61.26691,199.4544],[5.29786,61.30097,34.0],[5.28956,61.31224,358.5163],[5.27931,61.32136,323.2894],[5.26629,61.32868,139.1369],[5.25017,61.33446,378.9355],[5.22901,61.33942,280.9963],[5.20151,61.34272,35.5117],[5.17774,61.33942,0.0],[5.15935,61.3111,0.9893],[5.13941,61.3063,24.9793],[5.09523,61.3072,0.0],[5.09018,61.30508,0.0],[5.07399,61.29572,2.4727],[5.06398,61.29352,0.0],[5.03972,61.2919,4.8754],[5.01612,61.2873,0.0],[4.97999,61.27534,5.5886],[4.96412,61.26569,0.0],[4.9546,61.25259,0.0],[4.97316,61.25682,10.0666],[4.98276,61.25698,0.0],[4.98951,61.25235,12.3768],[4.99903,61.24234,0.0],[5.01295,61.23664,0.0],[5.03102,61.23794,0.0],[5.06446,61.24575,169.638],[5.05226,61.23379,35.2628],[5.0315,61.23045,8.4286],[5.00815,61.22944,0.0],[4.98878,61.2246,0.0],[5.02076,61.2165,0.0],[5.13966,61.2246,24.138],[5.16782,61.22077,0.0],[5.19728,61.21088,0.0],[5.25017,61.18366,0.0],[5.21469,61.18366,498.929],[5.21681,61.17902,524.1052],[5.22055,61.16767,221.949],[5.22283,61.16323,83.051],[5.11817,61.18598,303.4588],[5.05934,61.18797,220.2656],[5.04412,61.16323,401.4287],[5.05926,61.1579,197.6433],[5.12517,61.14509,0.0],[5.14332,61.14614,0.0],[5.16188,61.1562,353.1038],[5.18287,61.15396,0.0],[5.20533,61.14696,0.0],[5.22828,61.14273,155.6587],[5.20965,61.1389,73.7993],[5.18832,61.14061,45.915],[5.16993,61.13996,0.0],[5.16017,61.1291,0.0],[5.16944,61.12617,0.0],[5.17465,61.12222,0.0],[5.18434,61.11164,0.0],[5.19386,61.10529,0.0],[5.19939,61.10505,0.0],[5.20493,61.10737,0.0],[5.25994,61.10985,0.0],[5.28102,61.11612,0.0],[5.29786,61.1291,281.9846],[5.33448,61.09687,0.0],[5.37664,61.08047,0.0],[5.42368,61.07966,345.7274],[5.47543,61.09431,14.4299],[5.53688,61.13129,348.2081],[5.5573,61.13646,420.873],[5.67595,61.14228,0.0],[5.6951599999999996,61.14614,139.1434],[5.70216,61.1555,255.3945],[5.71844,61.15656,97.8966],[5.73666,61.15477,0.0],[5.74977,61.15575,0.0],[5.7588,61.1638,0.0],[5.76319,61.18187,686.4361],[5.77027,61.19111,638.2028],[5.78297,61.1966,335.1461],[5.78175,61.18317,746.2457],[5.78346,61.16498,205.0152],[5.80445,61.15575,0.0],[5.87452,61.15835,0.0],[5.94093,61.16999,279.1478],[6.03712,61.20417,692.8915],[6.02784,61.18814,0.0],[6.0066,61.17805,0.0],[5.96144,61.16323,0.0],[6.01401,61.14948,0.0],[6.0735,61.14802,0.0],[6.13014,61.15933,454.0875],[6.17433,61.18366,700.1051],[6.20395,61.14867,0.0],[6.28273,61.12543,0.0],[6.37233,61.11408,197.0279],[6.43434,61.11473,124.4675],[6.48471,61.13076,4.8778],[6.49643,61.13646,231.967],[6.5062,61.14696,548.8287],[6.5075,61.15644,621.4037],[6.50465,61.16694,603.998],[6.5027,61.18057,581.336],[6.4983,61.19233,715.656],[6.48805,61.19794,667.7707],[6.47576,61.20161,233.171],[6.4651,61.20759,732.4884],[6.47096,61.21125,261.0395],[6.53736,61.20417,0.0],[6.52622,61.21235,0.0],[6.52345,61.21996,124.7648],[6.52426,61.22675,610.0885],[6.52377,61.23208,718.6179],[6.51344,61.24746,665.7773],[6.49952,61.26252,268.5439],[6.50115,61.26813,245.8242],[6.50913,61.27643,0.0],[6.5193,61.284,569.4103],[6.52711,61.2873,877.5419],[6.53745,61.28388,402.3803],[6.55299,61.26895,0.0],[6.56471,61.26561,0.0],[6.60336,61.27875,881.4987],[6.63689,61.30956,895.6528],[6.69744,61.39936,372.4006],[6.70191,61.40278,152.2976],[6.71461,61.4003,172.8586],[6.71559,61.39069,476.2375],[6.71046,61.38032,891.4955],[6.70533,61.37547,778.7487],[6.7024,61.37153,867.6371],[6.6963,61.35212,788.6979],[6.69508,61.34471,396.1446],[6.69044,61.34052,350.518],[6.66822,61.32697,397.1678],[6.66033,61.32087,476.8451],[6.62306,61.26935,0.0],[6.60678,61.25747,0.0],[6.57,61.24079,0.0],[6.55787,61.2246,0.0],[6.66472,61.19514,0.0],[6.81007,61.18163,0.0],[6.8943,61.16323,0.0],[6.92221,61.16201,62.5844],[6.95053,61.16722,329.7141],[7.00359,61.18366,533.6313],[6.97999,61.16682,264.6565],[6.94166,61.15233,0.0],[6.91725,61.1363,0.0],[6.93531,61.11473,0.0],[6.95314,61.11164,0.0],[6.97348,61.11579,452.7576],[7.00978,61.1291,245.5317],[7.13722,61.1457,293.607],[7.14747,61.14956,470.0232],[7.15349,61.15461,547.5062],[7.15675,61.16083,450.3441],[7.1587,61.16649,481.5065],[7.16131,61.16999,554.4498],[7.17514,61.17585,434.2522],[7.21372,61.18366,177.701],[7.2295,61.18366,46.9561],[7.23536,61.18146,28.8584],[7.25025,61.17304,0.0],[7.25733,61.16999,33.9157],[7.28053,61.16376,114.055],[7.29225,61.16242,81.7504],[7.30519,61.16323,154.0738],[7.31935,61.16739,472.9424],[7.35971,61.19111,184.678],[7.3401,61.19717,578.5515],[7.32252,61.20539,795.2998],[7.30991,61.2176,837.6556],[7.29819,61.26057,779.424],[7.28102,61.27375,408.0758],[7.25961,61.28327,396.2899],[7.23976,61.29727,83.9266],[7.24497,61.30805,533.7349],[7.30519,61.34813,882.6253],[7.30885,61.36384,642.5353],[7.299,61.37409,145.8243],[7.28159,61.38337,410.9795],[7.26368,61.39594,817.595],[7.28533,61.39452,0.0],[7.32374,61.38605,0.0],[7.3462,61.38911,211.8933],[7.48862,61.46044,676.699],[7.57203,61.48534,0.0],[7.55738,61.46963,0.0],[7.53566,61.45653,0.0],[7.51075,61.4477,0.0],[7.48683,61.44432,0.0],[7.46754,61.43846,0.0],[7.45151,61.42463,0.0],[7.43678,61.40851,0.0],[7.42123,61.39594,0.0],[7.38071,61.37832,0.0],[7.37029,61.36709,0.0],[7.36655,61.34471,0.0],[7.3558,61.32624,0.0],[7.31381,61.30842,0.0],[7.31202,61.2873,0.0],[7.31821,61.28164,0.0],[7.3274,61.279,0.0],[7.3357,61.27436,0.0],[7.33937,61.26252,0.0],[7.34051,61.25239,0.0],[7.34506,61.23286,0.0],[7.3462,61.2215,0.0],[7.3589,61.20563,0.0],[7.38844,61.19819,0.0],[7.44923,61.19733,0.0],[7.60035,61.21235,58.7078],[7.63356,61.2246,0.0],[7.66033,61.22989,0.0],[7.695,61.23208,0.0],[7.65528,61.20685,351.9229],[7.60621,61.19831,0.0],[7.45436,61.19278,0.0],[7.42701,61.18586,0.0],[7.41505,61.17373,0.0],[7.40528,61.16743,0.0],[7.35971,61.15217,0.0],[7.3462,61.14273,0.0],[7.35646,61.13801,0.0],[7.39226,61.11628,0.0],[7.40366,61.11197,0.0],[7.41733,61.10944,0.0],[7.43556,61.10859,0.0],[7.43556,61.10114,238.7402],[7.36915,61.10468,1115.1917],[7.33839,61.11201,520.1427],[7.31544,61.12564,0.0],[7.30445,61.13028,0.0],[7.22267,61.14037,0.0],[7.20924,61.13882,0.0],[7.19532,61.1291,0.0],[7.16627,61.11005,504.3596],[7.05974,61.107,224.2431],[7.01726,61.10114,0.0],[7.00034,61.09292,0.0],[6.99952,61.08714,0.0],[7.00571,61.07909,0.0],[7.01385,61.05174,0.0],[7.02312,61.04304,0.0],[7.03419,61.03539,0.0],[7.04396,61.0266,0.0],[7.08204,60.9748,0.0],[7.09352,60.96381,0.0],[7.1006,60.95946,0.0],[7.1526,60.95344,0.0],[7.16131,60.95087,0.0],[7.17156,60.92402,0.0],[7.15748,60.89745,0.0],[7.1316,60.87531,0.0],[7.10597,60.86156,17.0734],[7.1316,60.91218,935.0385],[7.13014,60.9267,956.9187],[7.11459,60.93936,1094.3058],[7.05144,60.96454,966.8246],[7.011,60.97114,0.0],[6.96502,60.96552,0.0],[6.87379,60.93724,437.976],[6.9393,60.97321,767.4211],[6.97096,60.98168,919.154],[6.98797,60.99018,714.2151],[7.00318,61.00031,983.8373],[7.00978,61.00894,995.0585],[7.00685,61.01935,865.4723],[6.99969,61.029,685.4709],[6.98308,61.04654,558.2667],[6.96502,61.08027,535.0154],[6.95582,61.08808,16.8873],[6.93898,61.09138,0.0],[6.88063,61.08808,22.0344],[6.86817,61.09028,322.0567],[6.86183,61.0965,360.5399],[6.85971,61.10615,771.2814],[6.85955,61.11848,645.3966],[6.85621,61.12812,617.4861],[6.84791,61.13483,364.9014],[6.83668,61.13935,349.8383],[6.78679,61.15034,0.0],[6.64845,61.15746,262.5947],[6.63624,61.16181,81.2595],[6.6128,61.17373,0.0],[6.6006,61.17524,0.0],[6.594,61.16665,0.0],[6.58579,61.14273,0.0],[6.56642,61.11888,0.0],[6.54566,61.10407,0.0],[6.52182,61.0965,0.0],[6.4651,61.09064,0.0],[6.43767,61.08124,0.0],[6.41326,61.06818,0.0],[6.38347,61.04605,832.3065],[6.37452,61.03742,749.4303],[6.36997,61.0266,337.4174],[6.37289,61.01236,0.0],[6.35597,61.01093,0.0],[6.33872,61.01236,211.0933],[6.34832,61.03042,1025.8826],[6.3628,61.04442,1059.3353],[6.37029,61.0563,945.9991],[6.35922,61.06757,257.3218],[6.34718,61.07005,83.8658],[6.32936,61.07046,0.0],[6.31202,61.06851,188.1249],[6.30095,61.06387,492.9973],[6.28745,61.05305,444.6276],[6.27475,61.04792,934.2787],[6.24252,61.04654,864.9727],[6.26629,61.05874,1107.4131],[6.27076,61.07709,744.1514],[6.25807,61.09382,491.429],[6.2295,61.10114,0.0],[6.19508,61.10432,293.6296],[6.13185,61.11864,0.0],[6.09848,61.12222,0.0],[6.03045,61.11473,0.0],[6.011,61.11498,77.6218],[5.97657,61.12079,631.1406],[5.89275,61.12177,87.2372],[5.86362,61.11787,0.0],[5.83172,61.10859,0.0],[5.8353,61.10541,0.0],[5.84539,61.09431,292.2272],[5.83155,61.09223,0.0],[5.81764,61.08674,75.7031],[5.8047,61.07917,95.847],[5.79412,61.07071,85.7706],[5.78094,61.06436,437.7823],[5.78102,61.07713,365.4129],[5.7907,61.10489,605.8568],[5.77394,61.11445,0.0],[5.73609,61.10993,0.0],[5.69646,61.09878,0.0],[5.674,61.08808,427.4419],[5.65626,61.09414,342.9967],[5.63868,61.09345,99.4669],[5.60206,61.08808,0.0],[5.59767,61.08515,0.0],[5.61061,61.07856,70.8138],[5.6399,61.06757,0.0],[5.6399,61.06013,350.2299],[5.60792,61.06281,524.9958],[5.56674,61.07152,0.0],[5.52711,61.07543,0.0],[5.48854,61.05903,0.0],[5.47364,61.05589,0.0],[5.46022,61.04999,0.0],[5.45427,61.03657,0.0],[5.45753,61.02546,17.563],[5.46363,61.01594,0.0],[5.46705,61.00739,250.4419],[5.46168,60.99934,599.727],[5.44842,60.99543,490.8033],[5.44264,61.00454,69.7433],[5.43946,61.01789,315.9786],[5.43385,61.0266,0.0],[5.42107,61.02912,0.0],[5.37582,61.0266,94.518],[5.31227,61.03217,48.6419],[5.28142,61.03848,486.1502],[5.20216,61.06476,232.0],[5.1351,61.07673,0.0],[5.06861,61.07355,0.0],[5.01612,61.04654,0.0],[5.00807,61.03364,0.0],[5.00392,61.01606,0.0],[5.00473,60.99754,20.9686],[5.01271,60.98192,211.3076],[5.02361,60.97822,57.7768],[5.07789,60.97138,150.8405],[5.09327,60.97378,17.9136],[5.12094,60.98379,226.0984],[5.13282,60.98566,352.2018],[5.13136,60.98676,372.7603],[5.13404,60.98884,323.8203],[5.14031,60.99189,308.0272],[5.14283,60.97215,101.2596],[5.13136,60.96552,0.0],[5.11411,60.96186,0.0],[5.09864,60.95087,235.3632],[5.0962,60.93891,191.621],[5.10483,60.89256,22.6899],[5.10076,60.87775,25.0353],[5.09156,60.87788,13.0],[5.08237,60.88882,13.0],[5.07814,60.9062,30.5],[5.08277,60.9409,229.5681],[5.0774,60.94965,267.0855],[5.05714,60.95771,62.9773],[5.03712,60.96235,30.7067],[5.01197,60.96503,14.6641],[4.99057,60.96247,0.0],[4.98194,60.95087,29.1653],[4.9865,60.94375,0.0],[5.00514,60.9313,20.1722],[5.00929,60.9267,26.2907],[5.00945,60.916,140.7963],[5.01051,60.90982,54.7302],[5.01352,60.90518,37.8201],[5.01954,60.89907,22.5192],[5.02858,60.88593,0.0],[5.04005,60.85615,0.0],[5.04713,60.84443,0.0],[5.06666,60.83454,0.0],[5.10478,60.83719,16.6121],[5.10489,60.83732,16.6121],[5.11248,60.84709,11.5],[5.14075,60.88556,257.4104],[5.1637,60.92398,179.5273],[5.20142,60.93757,544.8177],[5.26891,60.95545,521.8717],[5.28131,60.95589,534.8295],[5.3026,60.95367,540.0717],[5.35986,60.93664,102.5],[5.4258,60.93747,616.7338],[5.50398,60.95044,594.1966],[5.52853,60.95721,597.8895],[5.5724,60.97437,836.5995],[5.63002,60.99085,698.5673],[5.70511,60.977,605.2938],[5.7327,60.9769,774.8632],[5.75741,60.98909,687.6675],[5.77802,60.99287,936.8724],[5.79554,60.99178,836.8182],[5.86417,60.97548,558.1821],[6.00178,61.03162,1049.4474],[6.01341,61.03312,1087.3236],[6.02664,61.03317,1133.5409],[6.03842,61.03147,1224.5939],[6.04865,61.0287,1283.9307],[6.05672,61.0247,1203.0133],[6.06323,61.01989,1184.952],[6.06865,61.01493,1159.0385],[6.07563,61.01028,1064.3619],[6.08343,61.00628,958.8992],[6.10839,60.99679,909.4606],[6.11707,60.99214,612.605],[6.12203,60.98827,593.8719],[6.12452,60.97674,843.1884],[6.12855,60.95457,1100.2888],[6.1365,60.95018,992.9264],[6.19779,60.93385,916.8556],[6.26993,60.91778,937.7572],[6.28497,60.91822,906.235],[6.30425,60.92047,998.9958],[6.34021,60.93331,954.2167],[6.4909,60.95959,1067.0236],[6.49927,60.95861,1048.4581],[6.50175,60.95651,1057.6335],[6.50299,60.9537,1071.2928],[6.5016,60.95013,1033.925],[6.49245,60.94036,1023.4867],[6.49447,60.93411,1022.7613],[6.50408,60.92832,1047.678],[6.53281,60.92179,1172.2893],[6.55669,60.92303,1144.1539],[6.57994,60.92827,1140.7823],[6.61968,60.94623,1165.8602],[6.63224,60.95447,1053.3103],[6.64547,60.96677,1220.7242],[6.65353,60.97176,1259.0426],[6.66748,60.97597,1110.6453],[6.67818,60.97594,1001.0849],[6.6959,60.96806,1131.4106],[6.73156,60.95824,912.5214],[6.74365,60.94155,807.2778],[6.81057,60.94259,1312.4503],[6.81817,60.93799,1397.0054],[6.82437,60.93253,1107.6027],[6.81677,60.92579,1343.4889],[6.74443,60.89721,759.2424],[6.73032,60.89008,706.8253],[6.71823,60.88145,523.6922],[6.7173,60.87481,525.8193],[6.72272,60.86884,431.8427],[6.7345,60.86373,803.9645],[6.75083,60.8597,241.8199],[6.84933,60.84967,1405.394],[6.86442,60.84502,1160.9335],[6.86984,60.83947,1118.7941],[6.87,60.83189,1261.1165],[6.86767,60.82295,1216.5924],[6.86065,60.8058,1285.2731],[6.86127,60.79996,1123.3044],[6.86767,60.7981,1083.7899],[6.94198,60.79799,1013.3201],[6.95888,60.79376,1066.6691],[6.96741,60.78864,995.3418],[6.97361,60.78094,1066.1936],[6.97692,60.77345,1212.3862],[6.98389,60.7489,1339.2094],[7.47792,60.70234,1429.5],[7.58484,60.75738,1208.8862],[7.62349,60.77022,1446.9568],[7.65068,60.7705,1477.5052],[7.66897,60.77366,1487.1631],[7.67951,60.77965,1505.8704],[7.68525,60.78833,1435.0],[7.68959,60.80259,1487.6561],[7.73754,60.86003,1521.264],[7.77341,60.88553,1489.3218],[7.87397,60.93044,1425.1227],[7.92875,60.93098,1468.4896],[7.94952,60.92651,1612.1906],[7.98492,60.92284,1699.197],[8.03685,60.93272,1540.8353],[8.07752,60.95385,1338.4382],[8.12207,60.98605,1479.922],[8.1461,60.99958,1115.2352],[8.15995,61.00393,1174.1851],[8.17622,61.01439,1333.7819],[8.19374,61.02305,1300.8252],[8.19808,61.07245,1692.9158],[8.18227,61.10795,1414.8696],[8.07039,61.18779,1079.2009],[8.05148,61.20815,1219.8411],[8.04497,61.22345,1327.4288],[8.04714,61.2312,1386.2368],[8.05473,61.24032,1385.7327],[8.13463,61.28293,1266.8445],[8.20382,61.33729,1094.9054],[8.19173,61.35967,1232.106],[8.17219,61.37708,1278.5457],[8.15075,61.38788,1257.9139],[8.14269,61.39716,1408.1736],[8.14036,61.40354,1314.5],[8.14191,61.42669,1672.5834],[8.16537,61.43615,1764.0486],[8.30857,61.44976,1608.6204],[8.27539,61.47852,1452.0405],[8.20413,61.52364,1393.4351],[8.00538,61.57014,1496.1823],[7.99158,61.57624,1522.8287],[7.9534,61.60828,1262.0],[7.93479,61.62887,1585.3906],[7.92327,61.64828,1396.4553],[7.91753,61.66554,1350.4685],[7.91536,61.6798,1628.2329],[7.91149,61.71148,1412.5675],[7.90436,61.72321,1427.3038],[7.89071,61.7359,1532.5181],[7.86849,61.74502,1874.1401],[7.83811,61.75241,1732.6372],[7.75615,61.76062,1630.5603],[7.5203,61.75416,1595.7501],[7.49239,61.76047,1557.3334],[7.46691,61.78517,1394.0376],[7.42397,61.84067,1319.4207],[7.39353,61.87814,1222.6559],[7.39229,61.89118,1121.2753],[7.39245,61.91439,1632.7006],[7.4047,61.97459,1412.5865],[7.40516,62.00368,1104.3958],[7.39648,62.01818,1099.6851],[7.38516,62.02921,1286.7286],[7.36935,62.03859,1224.5674],[7.35876,62.04353,1123.5875],[7.34837,62.0465,1123.7948],[7.3279,62.0498,1146.5664],[7.13748,62.03554,769.3068],[7.10864,62.02764,1205.243],[7.03356,61.99965,728.2307],[6.80509,61.97304,1061.5824],[6.7823,61.9803,1014.9495],[6.7637,61.99141,939.9699],[6.70567,62.05709,581.6631],[6.67012,62.07817,1214.4449],[6.47462,62.03151,787.8367],[6.45023,62.02779,439.2577],[6.42341,62.01735,815.3851],[6.38135,61.99151,807.6021],[6.36026,61.9802,723.5652],[6.34021,61.97614,515.3729],[6.30921,61.97544,475.3432],[6.27071,61.98211,589.4937],[6.23438,61.99764,756.7081],[6.22926,62.00149,730.7791],[6.2257,62.0034,622.6252],[6.21268,62.00699,535.2881],[6.1933,62.00836,609.3497],[6.14829,62.00061,412.0329],[6.14674,61.99958,500.1316],[6.13712,61.99136,902.0689],[6.13433,61.98542,934.3115],[6.13134,61.98066,861.0182],[6.1256,61.9756,611.9337],[6.10669,61.97327,327.038],[6.0733,61.97405,931.0737],[5.92747,62.00035,946.7869],[5.80304,61.97836,547.7114],[5.72821,61.98748,764.8397],[5.57385,61.96325,759.1634],[5.54062,61.97947,336.0],[5.48073,61.99392,381.9852],[5.46244,61.99609,263.6187],[5.46168,62.00674,0.0],[5.45143,62.06171,0.0],[5.39096,62.08836,4.4623],[5.31788,62.10651,162.4166],[5.27003,62.13581,145.433],[5.2697,62.14102,474.2498],[5.27524,62.15428,211.6491],[5.27687,62.16063,236.6083],[5.27459,62.16942,150.6079],[5.26881,62.17031,189.0135],[5.26108,62.16983,248.3964],[5.25318,62.17426,173.8254],[5.24122,62.18305,52.3141],[5.21022,62.19424,36.1311]]]]}
,"properties": {"ISO3166-1-Alpha-3": "NOR","country": "Norway","fill": "#00F","name": "Sogn og Fjordane","area_km2": 17995.76,"hist_schema_id": "Elevation0-9000","hist_area_km2": {"0": 955.51,"25": 329.97,"50": 309.16,"75": 197.81,"100": 194.2,"125": 216.32,"150": 216.61,"175": 244.14,"200": 256.18,"225": 227.75,"250": 230.17,"275": 232.63,"300": 258.21,"325": 254.77,"350": 267.06,"375": 266.94,"400": 279.05,"425": 279.69,"450": 278.73,"475": 300.17,"500": 294.29,"525": 283.26,"550": 294.6,"575": 287.76,"600": 296.91,"625": 284.49,"650": 286.04,"675": 286.42,"700": 281.08,"725": 270.12,"750": 261.43,"775": 261.65,"800": 250.52,"825": 254.47,"850": 252.97,"875": 251.32,"900": 255.04,"925": 263.53,"950": 258.14,"975": 251.91,"1000": 253.8,"1025": 259.04,"1050": 267.87,"1075": 270.14,"1100": 259.61,"1125": 261.2,"1150": 256.47,"1175": 264.52,"1200": 260.34,"1225": 261.83,"1250": 264.17,"1275": 259.74,"1300": 259.51,"1325": 260.64,"1350": 279.08,"1375": 271.82,"1400": 268.03,"1425": 266.32,"1450": 269.19,"1475": 257.02,"1500": 229.42,"1525": 210.16,"1550": 189.48,"1575": 164.67,"1600": 142.35,"1625": 117.01,"1650": 94.34,"1675": 79.35,"1700": 61.7,"1725": 46.88,"1750": 38.33,"1775": 35.44,"1800": 26.53,"1825": 20.23,"1850": 16.74,"1875": 11.57,"1900": 7.37,"1925": 4.75,"1950": 2.6,"1975": 1.53,"2000": 1.07,"2025": 0.69,"2050": 0.55,"2075": 0.34,"2100": 0.24,"2125": 0.25,"2150": 0.14,"2175": 0.14,"2200": 0.15}}}