{"type":"Feature","properties":{"GID_2":"NOR.13.10_1","GID_0":"NOR","country":"Norway","GID_1":"NOR.13_1","province":"Rogaland","NL_NAME_1":"NA","county":"Karmøy","VARNAME_2":"NA","NL_NAME_2":"NA","TYPE_2":"Kommuner","ENGTYPE_2":"Municipality","CC_2":"NA","HASC_2":"NO.RO.KA","name":"Karmøy.county"},
"geometry":{"type": "MultiPolygon","coordinates": [[[[5.2419,59.1374,1.7423],[5.2342,59.1374,3.311],[5.2358,59.1349,0.0],[5.2397,59.1335,1.1239],[5.2375,59.1321,1.1239],[5.2381,59.1299,0.0],[5.2464,59.1288,0.0],[5.2514,59.131,1.3466],[5.2503,59.1326,1.1156],[5.2442,59.1338,0.1253],[5.2481,59.1351,0.0],[5.2419,59.1374,1.7423]]],
[[[5.2103,59.1349,0.9481],[5.2069,59.1357,0.0],[5.2075,59.1338,4.8955],[5.2153,59.1321,0.8829],[5.2147,59.1332,0.8829],[5.2103,59.1349,0.9481]]],
[[[5.2308,59.1387,0.0],[5.2319,59.1396,0.0],[5.2292,59.1399,0.0],[5.2269,59.1368,0.0],[5.2286,59.1365,0.0],[5.2308,59.1387,0.0]]],
[[[5.3636,59.2449,0.0],[5.3614,59.2443,0.0],[5.3614,59.2429,0.0],[5.3653,59.2432,0.0],[5.3664,59.246,0.0],[5.3647,59.246,0.0],[5.3636,59.2449,0.0]]],
[[[5.3992,59.2543,0.0],[5.3964,59.2557,0.0],[5.3947,59.2524,2.2813],[5.3997,59.2529,0.0],[5.3992,59.2543,0.0]]],
[[[5.3914,59.254,0.0],[5.3897,59.2568,2.5643],[5.3869,59.2562,2.5643],[5.3881,59.2535,0.0],[5.3914,59.254,0.0]]],
[[[5.4269,59.2551,2.772],[5.4269,59.2571,0.9056],[5.4242,59.2571,0.0],[5.4253,59.2546,2.772],[5.4269,59.254,2.772],[5.4269,59.2551,2.772]]],
[[[5.4108,59.2599,0.0],[5.4136,59.2596,0.0],[5.4147,59.2635,10.9209],[5.4103,59.2632,12.3022],[5.3986,59.2574,4.7456],[5.4025,59.2546,0.0],[5.4086,59.2551,0.0],[5.4119,59.2521,0.0],[5.4103,59.2554,1.7466],[5.4031,59.2576,5.0626],[5.4092,59.2579,0.0],[5.4086,59.2599,9.1541],[5.4108,59.2599,0.0]]],
[[[5.3531,59.2515,1.2896],[5.3525,59.254,0.0],[5.3492,59.2526,3.3964],[5.3503,59.2499,0.0],[5.3536,59.2499,0.0],[5.3531,59.2515,1.2896]]],
[[[5.3564,59.2576,0.0],[5.3569,59.2596,0.0],[5.3547,59.2604,0.0],[5.3542,59.2565,0.0],[5.3564,59.2576,0.0]]],
[[[5.3664,59.2685,2.8036],[5.3625,59.269,1.2173],[5.3647,59.2646,8.8956],[5.3608,59.2649,1.4475],[5.3597,59.2615,2.0641],[5.3608,59.2604,3.5769],[5.3581,59.2596,0.0],[5.3597,59.2579,1.2683],[5.3586,59.2532,1.0738],[5.3614,59.2482,0.0],[5.3669,59.2496,2.0006],[5.3664,59.2518,9.1064],[5.3631,59.2526,8.6048],[5.3647,59.2538,0.0],[5.3636,59.2568,0.0],[5.3686,59.2604,0.0],[5.3669,59.2637,14.4284],[5.3686,59.2657,1.1335],[5.3658,59.2663,2.9341],[5.3664,59.2685,2.8036]]],
[[[5.3747,59.2643,0.0],[5.3753,59.2654,0.0],[5.3725,59.266,3.1386],[5.3719,59.2624,0.5062],[5.3742,59.2624,0.0],[5.3747,59.2643,0.0]]],
[[[5.4203,59.2618,2.6521],[5.4214,59.2629,0.0],[5.4186,59.2626,0.0],[5.4164,59.2596,0.0],[5.4242,59.2596,0.8417],[5.4203,59.2604,3.3355],[5.4203,59.2618,2.6521]]],
[[[5.4008,59.2888,0.0],[5.3975,59.2901,9.6853],[5.3964,59.2884,2.3503],[5.3925,59.2879,3.2077],[5.3919,59.2824,0.0],[5.3897,59.2807,0.0],[5.3931,59.2785,9.1519],[5.3908,59.276,0.0],[5.3936,59.2746,0.0],[5.4086,59.2765,3.6621],[5.4081,59.2743,14.0737],[5.4003,59.2693,1.8151],[5.4008,59.2654,0.0],[5.4064,59.264,0.0],[5.4092,59.266,0.0],[5.4058,59.2674,9.2719],[5.4136,59.2693,0.0],[5.4086,59.2696,10.2688],[5.4058,59.2718,2.8765],[5.4108,59.271,4.1589],[5.4164,59.2735,1.1038],[5.4169,59.2754,15.0202],[5.4125,59.2846,20.7633],[5.4069,59.2882,0.8995],[5.4008,59.2888,0.0]]],
[[[5.3975,59.291,0.0],[5.3958,59.2924,0.0],[5.3925,59.291,0.0],[5.3925,59.2896,0.0],[5.3942,59.2893,0.0],[5.3975,59.291,0.0]]],
[[[5.4122,59.2953,0.0],[5.4119,59.2952,0.0],[5.4119,59.2949,0.0],[5.4124,59.2949,0.0],[5.4122,59.2953,0.0]]],
[[[5.1764,59.1529,0.0],[5.1742,59.1538,0.0],[5.1697,59.1515,0.0],[5.1719,59.1471,0.0],[5.1764,59.1468,0.0],[5.1753,59.1496,0.7258],[5.1764,59.1529,0.0]]],
[[[5.1781,59.1662,0.0],[5.1764,59.1674,0.0],[5.1725,59.1651,0.0],[5.1747,59.1646,0.0],[5.1781,59.1662,0.0]]],
[[[5.0753,59.2318,1.0445],[5.0736,59.2335,0.0],[5.0658,59.2335,1.1422],[5.0642,59.2313,0.0],[5.0703,59.2299,0.0],[5.0692,59.2271,0.0],[5.0725,59.2268,0.0],[5.0747,59.229,0.0],[5.0714,59.2296,0.0],[5.0764,59.2304,0.0],[5.0753,59.2318,1.0445]]],
[[[5.0603,59.2363,0.0],[5.0564,59.2382,0.0],[5.0542,59.2374,0.0],[5.0536,59.2346,0.0],[5.0569,59.2318,0.0],[5.0597,59.2318,0.0],[5.0619,59.2326,0.0],[5.0603,59.2363,0.0]]],
[[[5.1664,59.2582,0.0],[5.1614,59.2593,0.0],[5.1625,59.2568,1.0845],[5.1608,59.2557,0.0],[5.1647,59.2546,0.0],[5.1664,59.2582,0.0]]],
[[[5.1519,59.2821,0.0],[5.1469,59.2826,0.0],[5.1508,59.2779,0.0],[5.1531,59.2776,0.1968],[5.1542,59.2804,0.0],[5.1519,59.2821,0.0]]],
[[[5.1575,59.2826,0.0],[5.1603,59.2824,0.0],[5.1614,59.2846,0.4478],[5.1575,59.2846,0.0],[5.1564,59.2832,0.0],[5.1575,59.2826,0.0]]],
[[[5.1786,59.3096,0.1041],[5.1769,59.3104,0.1041],[5.1747,59.3101,0.0],[5.1792,59.3074,0.1057],[5.1786,59.3096,0.1041]]],
[[[5.1931,59.2882,0.0],[5.1903,59.2888,0.0],[5.1919,59.2868,0.0],[5.1958,59.2868,0.0],[5.1931,59.2876,0.0],[5.1931,59.2882,0.0]]],
[[[5.1881,59.2882,0.0],[5.1886,59.2904,0.0],[5.1858,59.2904,0.3541],[5.1853,59.2885,0.0],[5.1881,59.2882,0.0]]],
[[[5.1925,59.3032,1.6423],[5.1886,59.3037,0.1656],[5.1886,59.3021,0.1656],[5.1914,59.3001,0.0],[5.1925,59.3032,1.6423]]],
[[[5.2108,59.3071,0.0],[5.2075,59.3079,0.0],[5.2053,59.3063,0.0],[5.2047,59.3035,0.0],[5.2086,59.3035,0.0],[5.2075,59.3051,0.4315],[5.2108,59.3054,0.3145],[5.2108,59.3071,0.0]]],
[[[5.1931,59.3115,0.5314],[5.1831,59.3115,1.2746],[5.1825,59.3082,0.4072],[5.1914,59.3054,0.0],[5.1908,59.3087,1.916],[5.1936,59.3104,0.0],[5.1931,59.3115,0.5314]]],
[[[5.1931,59.3168,0.0],[5.1919,59.3179,0.2054],[5.1853,59.3174,0.0],[5.1886,59.3154,0.0],[5.1931,59.3168,0.0]]],
[[[5.1958,59.3324,0.0],[5.1875,59.3329,0.0],[5.1931,59.3315,1.1403],[5.1942,59.3296,0.0],[5.1964,59.3299,0.0],[5.1958,59.3324,0.0]]],
[[[5.2081,59.3543,1.0108],[5.2086,59.3551,1.0108],[5.2058,59.3554,1.7929],[5.2086,59.3521,0.0],[5.2081,59.3543,1.0108]]],
[[[5.3697,59.2713,1.5845],[5.3686,59.2726,4.5327],[5.3658,59.2724,0.0],[5.3686,59.2671,1.3686],[5.3708,59.2671,2.3659],[5.3725,59.2687,0.0],[5.3697,59.2713,1.5845]]],
[[[5.2319,59.4157,0.0],[5.2292,59.4174,0.0],[5.2231,59.4168,0.9962],[5.2269,59.414,1.882],[5.2269,59.4115,0.0],[5.2336,59.4104,1.1343],[5.2319,59.4079,2.4654],[5.2347,59.4046,6.094],[5.2286,59.4032,0.0],[5.2325,59.3996,1.0724],[5.2286,59.4001,1.4077],[5.2269,59.4029,3.7521],[5.2208,59.4057,0.0],[5.2203,59.4043,0.8601],[5.2225,59.4026,1.0103],[5.2186,59.4035,0.0],[5.2164,59.401,0.0],[5.2203,59.3993,1.904],[5.2192,59.3963,0.0],[5.2219,59.3943,5.112],[5.2181,59.3935,0.1957],[5.2181,59.391,0.0],[5.2114,59.3915,3.6714],[5.2131,59.3896,0.877],[5.2169,59.3896,0.2803],[5.2164,59.3865,0.0],[5.2181,59.3849,0.0],[5.2164,59.3843,0.0],[5.2197,59.3826,2.2069],[5.2203,59.379,0.6253],[5.2219,59.3785,5.8734],[5.2203,59.3774,1.1169],[5.2164,59.3807,0.0],[5.2153,59.3774,0.0],[5.2231,59.3765,0.0],[5.2253,59.3732,0.9201],[5.2292,59.3732,0.0],[5.2297,59.3693,2.4765],[5.2247,59.369,0.0],[5.2319,59.3646,10.439],[5.2303,59.3629,3.246],[5.2314,59.3607,0.0],[5.2286,59.3604,21.3504],[5.2275,59.3624,3.5412],[5.2231,59.3632,11.0445],[5.2108,59.364,0.0],[5.2081,59.3626,0.4313],[5.2153,59.3599,0.6537],[5.2114,59.3596,0.6537],[5.2142,59.3579,0.0],[5.2142,59.356,0.7506],[5.2069,59.3579,0.0],[5.2114,59.3546,2.0065],[5.2147,59.354,2.0065],[5.2092,59.351,0.6338],[5.2119,59.3496,0.0],[5.2181,59.3504,0.0],[5.2197,59.3465,0.9702],[5.2058,59.3496,3.5125],[5.1919,59.3574,0.0],[5.1858,59.3537,0.0],[5.1886,59.3513,0.0],[5.1881,59.3499,0.4471],[5.1925,59.3501,0.0],[5.1931,59.3485,0.0],[5.1914,59.3474,0.0],[5.1986,59.3432,1.2883],[5.1931,59.3446,4.1566],[5.1897,59.3429,5.9028],[5.1847,59.344,0.0],[5.1881,59.3369,0.0],[5.2014,59.331,6.6874],[5.1942,59.3276,0.0],[5.1964,59.3249,0.0],[5.1958,59.3235,0.0],[5.2069,59.314,0.0],[5.2108,59.3146,0.0],[5.2108,59.3165,1.0239],[5.2092,59.3174,6.6845],[5.2175,59.3157,2.4589],[5.2181,59.3124,0.0],[5.2103,59.3132,0.0],[5.2153,59.3082,0.0],[5.2142,59.3065,0.0],[5.2269,59.3024,0.7936],[5.2286,59.299,0.0],[5.2236,59.299,0.0],[5.2119,59.3049,2.0909],[5.2119,59.3026,1.1347],[5.2042,59.3024,0.0],[5.2014,59.3001,3.6448],[5.1964,59.301,0.0],[5.1936,59.2999,0.1605],[5.1931,59.2979,0.4645],[5.1881,59.299,0.0],[5.1875,59.2976,0.0791],[5.1897,59.2957,2.5352],[5.1964,59.2957,3.7514],[5.1964,59.2938,0.0],[5.2031,59.2957,1.759],[5.2064,59.2951,0.0],[5.2081,59.2926,1.8532],[5.2064,59.2915,0.0],[5.2092,59.2882,5.5182],[5.2047,59.2893,0.0],[5.2042,59.2876,0.0],[5.2058,59.286,0.0],[5.1986,59.2874,0.0],[5.1964,59.2851,1.9488],[5.1875,59.2843,1.9123],[5.1887,59.2812,5.6784],[5.1875,59.2799,3.5675],[5.1853,59.2829,0.6861],[5.1825,59.2832,1.4089],[5.1825,59.2863,0.0],[5.1792,59.2863,0.0],[5.1781,59.2832,0.0],[5.1792,59.281,0.0],[5.1764,59.2774,-0.034],[5.1853,59.2768,2.9323],[5.1858,59.2746,0.0],[5.1908,59.2718,0.3208],[5.1864,59.2718,1.1461],[5.1853,59.2704,0.3068],[5.1903,59.2696,0.0],[5.1908,59.2679,0.7538],[5.1825,59.2676,0.4433],[5.1814,59.266,0.0],[5.1853,59.2651,2.6162],[5.1853,59.2637,1.1],[5.1747,59.2624,0.0],[5.1769,59.2588,1.0468],[5.1764,59.2571,0.0],[5.1786,59.2554,0.6383],[5.1747,59.2557,0.0],[5.1731,59.2543,0.0925],[5.1781,59.254,0.6383],[5.1775,59.2515,0.0],[5.1836,59.2493,0.1162],[5.1914,59.2515,0.2437],[5.1964,59.2493,1.5238],[5.1947,59.2485,0.0],[5.1958,59.2468,2.2983],[5.1947,59.2454,5.3582],[5.1897,59.2443,1.8926],[5.1864,59.2454,0.0],[5.1864,59.2424,0.0],[5.1808,59.2404,0.0],[5.1814,59.2379,0.0],[5.1853,59.2365,0.2515],[5.1847,59.2324,2.4604],[5.1775,59.2337,0.318],[5.1681,59.2282,0.0],[5.1686,59.2257,0.0],[5.1775,59.2207,2.3135],[5.1769,59.2179,0.8285],[5.1797,59.216,0.0],[5.1736,59.2135,0.7189],[5.1719,59.2146,0.4562],[5.1675,59.2137,0.5558],[5.1686,59.2124,0.5558],[5.1725,59.2124,0.7189],[5.1681,59.2107,0.0],[5.1686,59.2065,0.2857],[5.1664,59.206,0.2857],[5.1658,59.204,0.0],[5.1703,59.1976,0.0],[5.1764,59.1993,3.374],[5.1808,59.1988,1.5409],[5.1797,59.1974,0.0],[5.1819,59.1965,0.0],[5.1753,59.1932,1.2918],[5.1747,59.1907,1.5206],[5.1719,59.189,0.0],[5.1719,59.1854,0.0],[5.1786,59.1851,1.7312],[5.1747,59.1821,0.0],[5.1758,59.1796,0.8904],[5.1742,59.1779,0.7157],[5.1797,59.1768,0.0],[5.1792,59.1738,0.0],[5.1858,59.1749,0.0],[5.1897,59.1735,0.9956],[5.1914,59.1707,0.0],[5.1964,59.171,0.0],[5.1942,59.1682,0.4981],[5.1903,59.1668,0.0],[5.1892,59.1643,0.0],[5.1953,59.1613,1.7619],[5.1964,59.1574,0.0],[5.1942,59.1568,0.0],[5.1942,59.1543,0.0],[5.1881,59.1524,0.0],[5.1953,59.1446,0.0],[5.2003,59.1429,0.0],[5.2036,59.1443,1.0685],[5.2103,59.1432,0.0],[5.2136,59.144,0.9491],[5.2131,59.1463,2.9639],[5.2158,59.1471,8.5852],[5.2192,59.1454,0.0],[5.2186,59.1432,0.0],[5.2231,59.1435,0.0],[5.2236,59.1449,0.0],[5.2203,59.1488,0.4948],[5.2203,59.1515,0.0],[5.2219,59.1518,0.0],[5.2281,59.1499,0.4212],[5.2225,59.1463,0.0],[5.2303,59.1471,0.0],[5.2297,59.1485,0.7288],[5.2331,59.1482,0.5619],[5.2336,59.1468,0.0],[5.2375,59.1479,2.3213],[5.2358,59.146,0.0],[5.2369,59.1432,1.2265],[5.2347,59.1421,0.0],[5.2414,59.1407,1.8109],[5.2453,59.1376,2.2084],[5.2536,59.1401,0.0],[5.2547,59.1432,0.0],[5.2581,59.1435,0.0],[5.2575,59.1451,0.2691],[5.2675,59.1463,3.6043],[5.2681,59.1443,0.0],[5.2608,59.1426,0.0],[5.2703,59.1418,0.0],[5.2714,59.1382,0.2064],[5.2747,59.1371,0.2064],[5.2786,59.1379,0.0],[5.2753,59.1396,2.8367],[5.2769,59.1404,2.8367],[5.2753,59.1424,0.0],[5.2764,59.1435,0.0],[5.2758,59.1499,0.0],[5.2775,59.1504,0.3743],[5.2808,59.1476,1.0622],[5.2875,59.1474,1.4615],[5.2908,59.1399,0.0],[5.2975,59.1401,0.0],[5.2997,59.1426,2.0345],[5.2981,59.1429,2.0345],[5.2992,59.1493,2.2186],[5.2975,59.1515,11.0351],[5.2997,59.1576,12.0439],[5.3036,59.1599,0.4609],[5.3036,59.1638,2.477],[5.3053,59.1646,0.4482],[5.3103,59.1626,0.3009],[5.3131,59.1638,0.0],[5.3108,59.1676,0.0],[5.3125,59.1721,0.0],[5.3114,59.1787,1.5016],[5.3169,59.1835,0.0],[5.3147,59.1865,1.1632],[5.3153,59.1937,0.0],[5.3136,59.1949,10.6624],[5.3175,59.1971,0.0],[5.3181,59.2021,5.0741],[5.3203,59.2032,0.0],[5.3197,59.206,11.1267],[5.3214,59.2068,0.0],[5.3208,59.2124,3.6894],[5.3225,59.2129,0.0],[5.3225,59.2154,0.0],[5.3253,59.2165,0.0],[5.3225,59.2185,5.0511],[5.3247,59.2201,0.0],[5.3269,59.2271,0.0],[5.3253,59.2299,3.3716],[5.3269,59.234,0.0],[5.3253,59.2376,0.9364],[5.3269,59.2385,0.0],[5.3258,59.2424,5.489],[5.3281,59.246,1.3295],[5.3269,59.2549,0.0],[5.3297,59.259,0.0],[5.3281,59.2624,4.0344],[5.3286,59.2676,0.0],[5.3308,59.2715,1.525],[5.3269,59.2774,0.0],[5.3225,59.2788,0.0],[5.3219,59.2824,2.1256],[5.3242,59.2837,0.0],[5.3136,59.2857,0.0],[5.3131,59.2874,3.907],[5.3153,59.2899,0.0],[5.3142,59.294,0.0],[5.3058,59.2968,0.0],[5.3047,59.296,0.0],[5.3069,59.2954,4.1983],[5.3069,59.294,4.1983],[5.3058,59.2932,0.0],[5.2992,59.2926,2.0668],[5.3036,59.294,2.2589],[5.3002,59.2974,2.3445],[5.3069,59.2976,0.0],[5.3081,59.3018,0.0],[5.2931,59.3035,1.2794],[5.2892,59.3063,4.8581],[5.2992,59.3057,0.1241],[5.3081,59.3087,0.0],[5.3114,59.3063,0.0],[5.3186,59.3051,0.0],[5.3225,59.309,0.8544],[5.3264,59.3104,0.0],[5.3264,59.3121,0.0],[5.3214,59.3143,4.3773],[5.3231,59.3168,1.0184],[5.3214,59.3168,3.1205],[5.3214,59.319,1.7214],[5.3192,59.321,4.0935],[5.3203,59.3238,0.0],[5.3164,59.3235,0.3924],[5.3153,59.3207,0.4706],[5.3075,59.3204,2.4646],[5.2969,59.3265,2.1826],[5.2981,59.3304,0.0],[5.2936,59.3338,0.0],[5.2836,59.3335,15.6708],[5.2836,59.3357,1.4614],[5.2803,59.3363,8.9508],[5.2808,59.3385,0.0],[5.2792,59.3407,0.0],[5.2825,59.3426,0.0],[5.2864,59.3407,0.7546],[5.2858,59.3365,0.0],[5.2953,59.3382,0.0],[5.3008,59.3338,1.855],[5.3097,59.3349,0.0],[5.3164,59.3335,0.0],[5.3131,59.3365,0.0],[5.3075,59.3354,0.0],[5.3064,59.3376,0.0],[5.3086,59.3407,2.5342],[5.3058,59.3424,1.3724],[5.3069,59.344,0.0],[5.3053,59.3449,1.9476],[5.3008,59.346,1.0997],[5.2953,59.3429,0.3475],[5.2903,59.3426,1.7055],[5.2919,59.3479,0.4989],[5.3025,59.349,0.6756],[5.2986,59.3496,6.6849],[5.2975,59.3535,0.9997],[5.3031,59.3515,0.0],[5.3097,59.3521,12.8436],[5.3103,59.3537,2.3527],[5.3058,59.3563,1.8455],[5.3031,59.356,0.0],[5.3008,59.3582,2.1661],[5.2992,59.3568,0.5197],[5.3008,59.3546,4.2287],[5.2981,59.3543,3.0838],[5.2969,59.3565,0.9983],[5.2886,59.3579,0.9752],[5.2853,59.3557,3.8241],[5.2825,59.3587,0.0],[5.2803,59.359,0.0],[5.2808,59.361,0.6481],[5.2847,59.3624,1.2053],[5.2842,59.3657,0.0],[5.2808,59.3671,2.8445],[5.2947,59.3679,0.0],[5.2942,59.371,0.0],[5.2964,59.3718,0.0],[5.2964,59.3737,0.2119],[5.2931,59.3754,8.528],[5.2908,59.3801,3.5447],[5.2781,59.3885,5.705],[5.2719,59.3965,0.0],[5.2319,59.4157,0.0]]],
[[[5.3392,59.326,2.0351],[5.3375,59.3271,0.0],[5.3358,59.326,0.8632],[5.3364,59.3218,0.0],[5.3403,59.3218,11.4386],[5.3442,59.3246,1.8566],[5.3442,59.3251,1.8566],[5.3392,59.326,2.0351]]],
[[[5.3249,59.3909,58.2363],[5.3162,59.3899,40.0329],[5.3182,59.3856,36.9773],[5.2981,59.3831,1.832],[5.2986,59.3801,0.5808],[5.2969,59.3763,0.0],[5.2997,59.3713,0.0],[5.2986,59.3674,0.0],[5.3036,59.3651,0.0],[5.3036,59.3629,0.0],[5.3164,59.354,7.796],[5.3169,59.3504,11.5878],[5.3152,59.349,1.213],[5.3219,59.3454,0.5072],[5.3236,59.3413,0.0],[5.3231,59.3379,0.0],[5.3275,59.3354,0.0],[5.3286,59.3326,3.689],[5.3325,59.3326,3.689],[5.3336,59.3304,0.0],[5.3386,59.3321,16.3844],[5.3458,59.3285,2.8212],[5.3447,59.3251,1.8566],[5.3469,59.3243,0.0],[5.3464,59.3226,0.0],[5.3481,59.3215,1.5239],[5.3408,59.3215,11.4386],[5.3336,59.3171,0.0],[5.3342,59.3138,0.0],[5.3369,59.3135,12.1699],[5.3353,59.3115,5.0053],[5.3353,59.3068,0.0],[5.3375,59.3054,10.9367],[5.3358,59.296,0.0],[5.3419,59.2876,4.4188],[5.3453,59.2865,12.5804],[5.3436,59.2813,0.4993],[5.3464,59.2804,0.1279],[5.3486,59.2715,0.3783],[5.3531,59.2682,0.696],[5.3569,59.2685,0.0],[5.3619,59.2746,0.0],[5.3614,59.2799,8.8833],[5.3664,59.2818,0.0],[5.3664,59.2774,0.0],[5.3697,59.2768,0.0],[5.3836,59.2835,0.0],[5.3836,59.2865,5.4726],[5.3814,59.2885,7.5721],[5.3814,59.2912,5.6897],[5.3797,59.2918,14.2868],[5.3797,59.2954,14.309],[5.3836,59.2971,1.7046],[5.3814,59.2993,4.9301],[5.3753,59.2971,0.8278],[5.3708,59.2912,8.3203],[5.3642,59.2904,10.9448],[5.3725,59.2971,0.0],[5.3736,59.306,2.9602],[5.3781,59.3096,0.0],[5.3825,59.319,0.0],[5.3792,59.3215,23.4729],[5.3786,59.324,2.3843],[5.3753,59.3224,6.5129],[5.3708,59.3243,10.5181],[5.3747,59.3285,0.0],[5.3803,59.3296,0.0],[5.3786,59.3329,0.0],[5.3703,59.3324,0.0],[5.3664,59.3343,3.7602],[5.3747,59.3368,0.0],[5.3758,59.3451,0.0],[5.3736,59.3474,8.2524],[5.3708,59.3585,1.5081],[5.3681,59.3596,3.0066],[5.3686,59.3624,1.2956],[5.3664,59.3651,6.8068],[5.3681,59.3693,0.0],[5.3664,59.3699,26.0632],[5.3653,59.3757,1.887],[5.3697,59.3818,0.0],[5.3764,59.3865,0.0],[5.3758,59.3918,4.2655],[5.3769,59.3929,0.0],[5.3697,59.4005,2.2146],[5.3402,59.3973,57.4579],[5.3421,59.3929,39.5],[5.3249,59.3909,58.2363]]],
[[[5.3953,59.2976,0.0],[5.3931,59.299,0.0],[5.3903,59.2971,0.0],[5.3942,59.296,0.0],[5.3953,59.2976,0.0]]],
[[[5.3981,59.3066,3.5267],[5.3975,59.3068,3.5267],[5.3986,59.3051,6.6803],[5.3981,59.3066,3.5267]]],
[[[5.3842,59.3074,0.0],[5.3853,59.3082,0.0],[5.3847,59.311,0.0],[5.3819,59.3079,0.0],[5.3842,59.3074,0.0]]],
[[[5.2108,59.3851,1.6987],[5.2075,59.3857,0.8917],[5.2086,59.3835,0.0],[5.2158,59.3832,0.3981],[5.2108,59.3843,1.6987],[5.2108,59.3851,1.6987]]],
[[[5.0281,59.3596,0.0],[5.0225,59.3601,0.1189],[5.0264,59.3582,0.0],[5.0292,59.3587,0.0],[5.0281,59.3596,0.0]]],
[[[5.0331,59.371,0.0],[5.0303,59.3724,0.0],[5.0269,59.3704,0.5231],[5.0303,59.3674,1.0554],[5.0275,59.3668,1.3002],[5.0269,59.3643,0.0],[5.0369,59.3654,0.0],[5.0364,59.371,0.0],[5.0331,59.371,0.0]]],
[[[5.0225,59.3726,0.0],[5.0242,59.3729,0.0],[5.0197,59.3726,0.0],[5.0186,59.3696,0.0],[5.0236,59.3685,0.0],[5.0219,59.3696,0.0],[5.0225,59.3726,0.0]]],
[[[5.0225,59.3776,0.0],[5.0208,59.3799,0.0],[5.0186,59.3799,0.0],[5.0186,59.3776,0.0],[5.0208,59.3763,0.0],[5.0186,59.3754,0.0],[5.0225,59.3757,0.2213],[5.0236,59.3771,0.0],[5.0225,59.3776,0.0]]],
[[[5.2114,59.3665,0.0],[5.2119,59.3676,0.0],[5.2092,59.3682,0.5876],[5.2064,59.366,0.0],[5.2086,59.3643,0.0],[5.2114,59.3665,0.0]]],
[[[5.2047,59.3696,0.0],[5.2047,59.3674,0.0],[5.2075,59.3685,0.0],[5.2075,59.3704,0.0],[5.2047,59.3696,0.0]]],
[[[5.1736,59.3726,0.0],[5.1708,59.3737,2.5673],[5.1697,59.3721,0.0],[5.1869,59.3701,0.0],[5.1836,59.3732,2.0917],[5.1736,59.3726,0.0]]],
[[[5.2119,59.3768,1.046],[5.2086,59.3776,0.0],[5.2081,59.3763,0.5929],[5.2131,59.3737,0.0],[5.2136,59.3754,1.7003],[5.2119,59.3768,1.046]]],
[[[5.1619,59.4029,1.7076],[5.1564,59.4035,0.0],[5.1536,59.4001,0.0],[5.1553,59.3968,5.3867],[5.1525,59.3949,1.2244],[5.1497,59.3957,0.0],[5.1503,59.391,1.8247],[5.1458,59.3879,0.4267],[5.1453,59.3838,0.0],[5.1397,59.3821,0.0],[5.1419,59.3796,0.7439],[5.1375,59.3807,0.0],[5.1358,59.379,0.2943],[5.1447,59.3751,0.0],[5.1447,59.374,0.0],[5.1403,59.3732,0.0],[5.1464,59.369,0.1155],[5.1486,59.369,0.6064],[5.1497,59.3713,2.4464],[5.1519,59.369,0.3717],[5.1564,59.3688,1.1766],[5.1536,59.3654,0.0],[5.1603,59.3679,0.5063],[5.1592,59.3701,2.5529],[5.1608,59.3721,2.6309],[5.1586,59.3754,4.522],[5.1603,59.3763,0.7782],[5.1619,59.376,6.2248],[5.1642,59.3713,1.0305],[5.1686,59.3724,0.0],[5.1642,59.3735,2.1175],[5.1681,59.3751,0.0],[5.1603,59.3788,1.7156],[5.1614,59.3807,8.1128],[5.1636,59.3804,0.0],[5.1631,59.3788,0.0],[5.1697,59.3796,1.4572],[5.1692,59.3776,0.0],[5.1719,59.3765,0.0],[5.1736,59.379,0.0],[5.1692,59.3807,12.0354],[5.1697,59.3818,12.0354],[5.1736,59.3815,0.7441],[5.1747,59.3788,2.8345],[5.1803,59.3807,0.8168],[5.1825,59.3768,0.0],[5.1875,59.3768,0.0],[5.1908,59.3793,0.0],[5.1892,59.381,0.7207],[5.1908,59.3812,0.7207],[5.1908,59.3829,0.3878],[5.1881,59.3832,1.7205],[5.1875,59.3854,1.483],[5.1836,59.3857,0.0],[5.1792,59.3815,0.8168],[5.1764,59.3821,0.0],[5.1753,59.3843,0.0],[5.1714,59.3849,4.3939],[5.1697,59.3882,1.0365],[5.1719,59.3921,0.0],[5.1642,59.394,0.0],[5.1664,59.3988,0.0],[5.1642,59.4024,0.0],[5.1619,59.4029,1.7076]]],
[[[5.2103,59.3887,0.0],[5.2103,59.3907,0.0],[5.2058,59.3899,0.0],[5.2086,59.3868,0.8917],[5.2103,59.3871,0.0],[5.2103,59.3887,0.0]]]]}}