{"type": "Feature","bbox": [11.4989,59.302,11.8243,59.6755],"geometry": {"type": "MultiPolygon","coordinates": [[[[11.5,59.594,204.3595],[11.5057,59.5717,211.5287],[11.5145,59.5723,198.0611],[11.5156,59.5679,217.0888],[11.5244,59.5684,203.099],[11.5278,59.5551,202.3067],[11.5366,59.5556,205.6357],[11.54,59.5423,187.5774],[11.5312,59.5417,201.0599],[11.5335,59.5328,223.8687],[11.5247,59.5322,183.798],[11.5269,59.5233,227.321],[11.5181,59.5228,188.4313],[11.5294,59.4782,231.6442],[11.5382,59.4788,234.3803],[11.5472,59.4432,196.206],[11.5559,59.4438,224.1227],[11.5593,59.4304,186.9735],[11.5681,59.431,198.2784],[11.5703,59.4221,184.789],[11.5791,59.4227,199.6001],[11.5813,59.4137,192.2109],[11.59,59.4143,198.6265],[11.5912,59.4099,194.6924],[11.5999,59.4104,215.905],[11.6021,59.4015,229.5959],[11.5934,59.401,181.195],[11.5956,59.3921,225.4727],[11.5869,59.3915,169.9812],[11.5913,59.3737,234.6963],[11.5826,59.3731,227.5999],[11.5848,59.3642,282.984],[11.576,59.3636,238.5615],[11.5805,59.3458,174.3427],[11.5718,59.3453,179.5846],[11.574,59.3364,126.7895],[11.5652,59.3358,125.1095],[11.5664,59.3313,119.6884],[11.5576,59.3308,163.9414],[11.5598,59.3219,145.437],[11.5686,59.3224,129.149],[11.5697,59.318,159.1164],[11.5872,59.3191,135.7097],[11.5883,59.3147,117.6869],[11.6058,59.3158,134.5422],[11.6069,59.3113,187.677],[11.6156,59.3119,139.6153],[11.6145,59.3164,132.5666],[11.6232,59.3169,107.5],[11.6221,59.3214,143.2708],[11.6309,59.322,117.9824],[11.6298,59.3264,108.8543],[11.6472,59.3275,116.4022],[11.6461,59.332,107.5],[11.6724,59.3337,107.5],[11.6735,59.3292,118.4691],[11.7521,59.3343,113.8845],[11.7532,59.3298,165.4098],[11.7707,59.3309,127.4468],[11.7718,59.3265,104.4048],[11.7805,59.327,101.0],[11.7827,59.3181,101.0],[11.7915,59.3187,101.0],[11.7925,59.3142,101.0],[11.8013,59.3148,101.0],[11.8034,59.3059,101.0],[11.8122,59.306399999999996,101.0],[11.8133,59.302,101.0],[11.822,59.3025,101.0],[11.8155,59.3293,149.2565],[11.8243,59.3298,164.8083],[11.8199,59.3476,197.0663],[11.8112,59.3471,193.2429],[11.8079,59.3604,181.634],[11.7992,59.3599,209.3055],[11.797,59.3688,171.2415],[11.7883,59.3682,188.1112],[11.7872,59.3727,176.3997],[11.7959,59.3732,159.618],[11.7948,59.3777,164.6263],[11.7861,59.3771,159.4313],[11.7763,59.4172,184.1512],[11.7675,59.4167,173.3362],[11.7478,59.4968,260.7272],[11.739,59.4963,257.1228],[11.7358,59.5096,261.6424],[11.727,59.5091,274.8053],[11.7181,59.5447,272.1536],[11.7094,59.5442,255.0335],[11.6994,59.5842,192.1025],[11.6906,59.5837,254.0535],[11.6884,59.5926,188.8125],[11.6972,59.5931,220.9218],[11.6939,59.6065,224.26],[11.7027,59.6071,215.9885],[11.701599999999999,59.6115,232.4401],[11.7104,59.6121,251.7433],[11.7082,59.621,250.9209],[11.717,59.6215,226.9809],[11.7137,59.6349,236.5026],[11.7225,59.6355,267.6792],[11.7158,59.6622,250.171],[11.6982,59.6611,278.5074],[11.6971,59.6655,282.9669],[11.6794,59.6644,262.5016],[11.6783,59.6688,281.3773],[11.6606,59.6677,277.0068],[11.6595,59.6722,209.2819],[11.6419,59.671,268.4811],[11.6408,59.6755,259.839],[11.6319,59.6749,276.1688],[11.633,59.6705,271.0634],[11.6242,59.6699,283.6138],[11.6253,59.6655,261.4694],[11.6165,59.6649,291.4361],[11.6176,59.6604,272.4186],[11.6088,59.6599,281.9099],[11.6099,59.6554,251.2539],[11.5923,59.6543,273.2994],[11.5934,59.6498,268.4256],[11.5846,59.6493,185.011],[11.5857,59.6448,181.1454],[11.5769,59.6442,142.5335],[11.578,59.6398,143.6045],[11.5692,59.6392,125.3878],[11.5681,59.6437,126.6385],[11.5328,59.6414,245.3571],[11.5396,59.6147,192.3394],[11.5307,59.6141,196.1489],[11.5319,59.6096,181.103],[11.5231,59.6091,204.0695],[11.5242,59.6046,212.6115],[11.5154,59.604,204.4398],[11.5165,59.5996,199.3329],[11.4989,59.5984,193.1481],[11.5,59.594,204.3595]]]]}
,"properties": {"GID_2": "NOR.2.10_1","GID_0": "NOR","country": "Norway","GID_1": "NOR.2_1","province": "Ãstfold","NL_NAME_1": "NA","county": "Marker","VARNAME_2": "NA","NL_NAME_2": "NA","TYPE_2": "Kommuner","ENGTYPE_2": "Municipality","CC_2": "NA","HASC_2": "NO.OF.MA","name": "Marker.county","area_km2": 421.0965,"hist_schema_id": "Elevation0-9000","hist_area_km2": {"100": 22.0139,"125": 89.2438,"150": 69.4766,"175": 64.6086,"200": 59.0655,"225": 55.0257,"250": 37.5848,"275": 18.0093,"300": 5.9826,"325": 0.0858}}}