{"type": "Feature","bbox": [5.5903,58.8882,5.8436,59.0229],"geometry": {"type": "MultiPolygon","coordinates": [[[[5.6378,58.9812,31.7541],[5.6086,58.9779,5.4161],[5.6114,58.9757,0.0],[5.6003,58.9738,0.0],[5.5997,58.9724,1.0639],[5.5919,58.9704,0.0],[5.5903,58.9676,0.9979],[5.5953,58.966,1.0418],[5.5953,58.9643,0.0],[5.5981,58.9635,1.4774],[5.5964,58.9621,1.4774],[5.5981,58.961,0.6372],[5.6047,58.9613,1.7946],[5.6086,58.9604,0.8805],[5.6075,58.9582,0.0],[5.6131,58.9596,2.4977],[5.6242,58.956,2.0313],[5.6258,58.9529,0.0],[5.6303,58.951,2.4683],[5.6308,58.9479,1.143],[5.6236,58.9485,0.9892],[5.6219,58.9471,0.0],[5.6281,58.9465,0.0],[5.6308,58.944,0.6513],[5.6363,58.9426,0.2267],[5.6375,58.9404,2.9551],[5.6358,58.9393,0.0],[5.6347,58.9346,0.0],[5.6392,58.9335,0.0],[5.6392,58.9318,0.0],[5.6408,58.9313,0.0],[5.6464,58.9313,2.7829],[5.6692,58.9415,1.3927],[5.6725,58.941,3.525],[5.6769,58.9368,0.0],[5.6808,58.9356,8.1276],[5.6923,58.9369,61.5313],[5.6905,58.9413,74.5741],[5.699,58.9422,103.8504],[5.7009,58.9378,56.2754],[5.7094,58.9388,98.5588],[5.7112,58.9344,61.4315],[5.7027,58.9335,35.4584],[5.7157,58.9028,32.0501],[5.7072,58.9018,21.2518],[5.7109,58.8931,14.6762],[5.7279,58.895,33.7316],[5.7297,58.8906,12.9381],[5.7468,58.8925,12.1845],[5.7486,58.8882,10.7349],[5.7514,58.8885,0.3901],[5.7519,58.8988,0.2545],[5.7481,58.8993,1.8968],[5.7414,58.9065,2.7288],[5.7353,58.909,0.0],[5.7386,58.914,2.5102],[5.7425,58.9121,1.8362],[5.7475,58.9138,0.0],[5.7464,58.916,0.0],[5.7375,58.9196,0.0],[5.7425,58.9221,0.0],[5.7403,58.924,0.739],[5.7503,58.9224,4.638],[5.7491,58.9263,1.3054],[5.7519,58.9263,0.0],[5.7536,58.929,6.2852],[5.7564,58.9296,0.0],[5.7558,58.9326,0.0],[5.7542,58.9335,10.7478],[5.7575,58.9393,0.0],[5.7575,58.941,0.0],[5.7542,58.9418,15.1387],[5.7558,58.944,0.0],[5.7553,58.9476,0.0],[5.7508,58.9482,1.9273],[5.7447,58.9518,1.5722],[5.7475,58.9538,8.0642],[5.7481,58.9524,1.9489],[5.7531,58.9515,0.0],[5.7653,58.9579,0.9681],[5.7686,58.9582,0.0],[5.7697,58.9621,0.0],[5.7681,58.9637,8.0562],[5.7697,58.9654,0.0],[5.7614,58.9676,3.9312],[5.7603,58.9699,1.7133],[5.7564,58.9712,3.5879],[5.7575,58.9726,0.0],[5.7519,58.9726,6.4466],[5.7519,58.9738,0.0],[5.7375,58.9729,0.789],[5.7314,58.9749,2.0859],[5.7275,58.9724,10.4348],[5.7169,58.9826,3.6434],[5.7114,58.9829,2.2007],[5.6836,58.999,0.0],[5.6781,58.9993,3.4153],[5.6747,58.9974,0.2578],[5.6663,58.9988,0.0],[5.6682,58.9938,10.2049],[5.6597,58.9928,22.7123],[5.6671,58.9753,21.9846],[5.6415,58.9724,5.5],[5.6378,58.9812,31.7541]]],
[[[5.7536,58.9874,0.0],[5.7497,58.9879,0.0],[5.7486,58.9865,0.0],[5.7514,58.9843,0.0],[5.7586,58.9851,0.0],[5.7558,58.986,7.307],[5.7536,58.9874,0.0]]],
[[[5.7536,59.0113,1.5127],[5.7353,59.011,0.0],[5.7336,59.0076,0.0],[5.7308,59.0074,0.0],[5.7186,59.0085,0.0],[5.7186,59.0062,1.6168],[5.7147,59.0062,0.0],[5.7153,59.004,0.0],[5.7097,59.0029,1.6001],[5.7097,58.9924,7.9872],[5.7131,58.9901,0.0],[5.7158,58.9921,8.2153],[5.7269,58.9924,2.1907],[5.7225,58.9901,2.8342],[5.7225,58.9865,2.0764],[5.7192,58.9843,0.0],[5.7381,58.9818,2.0889],[5.7364,58.9801,0.6975],[5.7436,58.9807,0.0],[5.7392,58.9779,0.0],[5.7392,58.9757,1.7634],[5.7492,58.9749,0.0],[5.7503,58.9763,3.2263],[5.7469,58.9768,3.2263],[5.7469,58.9813,0.0],[5.7497,58.9829,1.4883],[5.7419,58.9854,2.3476],[5.7547,58.9907,0.0],[5.7531,58.996,0.0],[5.7581,58.9943,1.3493],[5.7614,58.991,0.6702],[5.7575,58.9882,0.7943],[5.7581,58.9868,0.0],[5.7614,58.9854,0.0],[5.7653,58.9874,0.8877],[5.7697,58.9854,0.0],[5.7719,58.9863,0.0],[5.7675,58.9885,1.8698],[5.7697,58.9907,0.0],[5.7681,58.9921,0.0],[5.7686,58.9971,0.0],[5.7608,58.9957,0.0],[5.7597,58.9971,0.0],[5.7614,58.999,0.0],[5.7569,58.9999,1.5072],[5.7531,58.9974,0.0],[5.7492,58.9982,5.1003],[5.7497,59.001,1.4682],[5.7464,59.0035,0.0],[5.7514,59.004,1.9203],[5.7508,59.0015,0.0],[5.7531,59.0004,0.0],[5.7581,59.0029,0.0],[5.7581,59.0043,0.0],[5.7542,59.0051,2.6699],[5.7519,59.0076,8.4037],[5.7542,59.0099,1.6536],[5.7536,59.0113,1.5127]]],
[[[5.7781,59.0129,4.1341],[5.7731,59.0135,4.0733],[5.7686,59.011,0.0],[5.7619,59.0101,0.0],[5.7653,59.0062,1.5493],[5.7669,59.0007,4.2641],[5.7719,59.0001,0.0],[5.7736,59.0015,0.0],[5.7731,59.0051,0.0],[5.7692,59.0079,0.0],[5.7731,59.0093,0.0],[5.7742,59.0121,4.0733],[5.7797,59.0115,0.0],[5.7781,59.0129,4.1341]]],
[[[5.7864,59.0096,2.4843],[5.7831,59.0101,4.8972],[5.7803,59.0088,1.9825],[5.7858,59.0082,0.0],[5.7864,59.0096,2.4843]]],
[[[5.7869,59.0179,1.02],[5.7781,59.0185,5.9867],[5.7753,59.0165,0.0],[5.7753,59.0146,0.0],[5.7825,59.0157,1.3825],[5.7869,59.0179,1.02]]],
[[[5.7764,59.0193,3.1158],[5.7764,59.0207,0.3913],[5.7742,59.0207,0.0],[5.7736,59.019,0.2831],[5.7703,59.0185,4.838],[5.7653,59.0204,0.0],[5.7608,59.0157,0.0],[5.7653,59.0165,1.481],[5.7653,59.0143,2.0793],[5.7686,59.014,5.3166],[5.7719,59.0176,0.7846],[5.7764,59.0193,3.1158]]],
[[[5.7842,59.0224,0.4108],[5.7808,59.0229,1.2513],[5.7769,59.021,0.3913],[5.7842,59.0207,0.8569],[5.7842,59.0224,0.4108]]],
[[[5.8058,58.9746,0.0],[5.8025,58.9754,1.312],[5.8003,58.9738,0.5585],[5.8042,58.9735,0.0],[5.8058,58.9746,0.0]]],
[[[5.8419,58.9824,0.0],[5.8364,58.9826,0.0],[5.8319,58.9787,5.1896],[5.8269,58.9774,1.7387],[5.8336,58.9754,10.2823],[5.8247,58.9746,2.8983],[5.8169,58.976,4.2948],[5.8164,58.9749,5.5584],[5.8319,58.9718,0.0],[5.8386,58.9726,2.1272],[5.8381,58.974,7.0551],[5.8408,58.9754,0.0],[5.8408,58.9785,6.6836],[5.8436,58.9799,0.0],[5.8419,58.9824,0.0]]],
[[[5.8175,58.9826,1.268],[5.8175,58.9843,0.0],[5.8125,58.984,3.7732],[5.8119,58.9813,0.0],[5.8164,58.9813,0.0],[5.8175,58.9826,1.268]]],
[[[5.8292,58.9893,0.0],[5.8219,58.989,0.0],[5.8203,58.9865,0.0],[5.8208,58.984,0.0],[5.8275,58.981,4.7511],[5.8342,58.9829,5.9772],[5.8336,58.9854,10.9468],[5.8297,58.9865,13.1378],[5.8319,58.9882,4.7446],[5.8292,58.9893,0.0]]],
[[[5.7847,58.9621,0.4138],[5.7808,58.9624,0.0],[5.7808,58.959,0.0],[5.7858,58.9582,1.8753],[5.7864,58.9615,5.6548],[5.7847,58.9621,0.4138]]],
[[[5.7875,58.9654,0.9441],[5.7864,58.9679,0.0],[5.7842,58.9674,0.0],[5.7853,58.9637,0.4138],[5.7875,58.9637,0.0],[5.7875,58.9654,0.9441]]],
[[[5.7903,59.0024,0.0],[5.7892,59.0051,4.8294],[5.7819,59.0029,1.1606],[5.7797,59.0004,0.0],[5.7814,58.9985,4.3635],[5.7808,58.9954,0.0],[5.7847,58.994,0.0],[5.7842,58.9912,0.0],[5.7864,58.989,1.2729],[5.7947,58.989,0.0],[5.7947,58.9907,0.0],[5.7908,58.9918,1.0407],[5.7931,58.999,0.0],[5.7903,59.0024,0.0]]],
[[[5.7842,59.0051,2.5082],[5.7819,59.0074,0.0],[5.7803,59.004,1.7962],[5.7825,59.004,2.5082],[5.7842,59.0051,2.5082]]],
[[[5.8108,58.9926,2.1601],[5.8069,58.9932,7.6282],[5.8031,58.9888,5.4175],[5.8108,58.9865,1.0435],[5.8153,58.991,0.0],[5.8108,58.9926,2.1601]]]]}
,"properties": {"GID_2": "NOR.13.20_1","GID_0": "NOR","country": "Norway","GID_1": "NOR.13_1","province": "Rogaland","NL_NAME_1": "NA","county": "Stavanger","VARNAME_2": "NA","NL_NAME_2": "NA","TYPE_2": "Kommuner","ENGTYPE_2": "Municipality","CC_2": "NA","HASC_2": "NO.RO.ST","name": "Stavanger.county","area_km2": 63.49688,"hist_schema_id": "Elevation0-9000","hist_area_km2": {"0": 18.72254,"25": 25.473,"50": 14.17144,"75": 3.98122,"100": 1.03926,"125": 0.10942}}}