{"type": "Feature","bbox": [8.6791,60.3915,9.4323,60.6967],"geometry": {"type": "MultiPolygon","coordinates": [[[[8.6807,60.5118,1118.3373],[8.6897,60.5126,1064.6499],[8.6912,60.5082,1090.3737],[8.7092,60.5097,1041.8856],[8.7108,60.5053,1050.4738],[8.7198,60.506,1040.3232],[8.7213,60.5016,1050.8494],[8.7303,60.5024,1028.1797],[8.7319,60.498,1022.8904],[8.7499,60.4995,991.2156],[8.7515,60.4951,983.8818],[8.7604,60.4958,962.4119],[8.762,60.4914,882.7855],[8.771,60.4922,888.6812],[8.7725,60.4877,876.6694],[8.7815,60.4885,866.476],[8.7831,60.4841,877.8967],[8.8011,60.4856,864.5045],[8.8026,60.4812,845.8914],[8.8116,60.4819,841.7834],[8.8132,60.4775,842.1603],[8.8221,60.4783,855.5178],[8.8237,60.4739,858.4741],[8.8327,60.4746,875.9849],[8.8342,60.4702,888.4046],[8.8432,60.4709,911.3248],[8.8447,60.4665,912.7542],[8.8627,60.468,965.088],[8.8643,60.4636,968.3832],[8.8733,60.4644,977.534],[8.8748,60.4599,981.6034],[8.8838,60.4607,983.4844],[8.8853,60.4563,995.5722],[8.9033,60.4578,1073.9327],[8.9048,60.4533,1055.7479],[8.9138,60.4541,1071.3604],[8.9153,60.4497,1132.7939],[8.9243,60.4504,1174.2253],[8.9258,60.446,1164.7441],[8.9528,60.4482,1132.7183],[8.9543,60.4438,1126.6681],[8.9723,60.4453,1187.2731],[8.9738,60.4409,1185.8972],[8.9828,60.4416,1198.4794],[8.9843,60.4372,1167.8348],[8.9933,60.438,1153.3926],[8.9948,60.4335,1154.3176],[9.0038,60.4343,1144.3423],[9.0068,60.4254,1176.4874],[9.0158,60.4262,1169.1158],[9.0173,60.4218,1145.359],[9.0263,60.4225,1151.2836],[9.0278,60.4181,1149.4062],[9.0368,60.4188,1186.3539],[9.0398,60.41,1265.5265],[9.0488,60.4107,1257.7474],[9.0503,60.4063,1262.5016],[9.0593,60.407,1277.6115],[9.0608,60.4026,1279.5386],[9.0698,60.4033,1265.1227],[9.0713,60.3989,1277.0903],[9.0802,60.3997,1190.7394],[9.0817,60.3952,1238.7417],[9.0907,60.396,1190.5188],[9.0922,60.3915,1192.2874],[9.1281,60.3945,1203.8929],[9.1266,60.3989,1176.1022],[9.1536,60.4011,1100.4407],[9.1521,60.4055,1030.7725],[9.1701,60.407,879.0425],[9.1686,60.4114,866.7372],[9.1955,60.4136,809.5797],[9.194,60.4181,783.3519],[9.212,60.4195,852.5392],[9.2105,60.424,790.6004],[9.2285,60.4254,977.0842],[9.227,60.4298,911.0436],[9.245,60.4313,966.9127],[9.2391,60.449,863.2086],[9.2481,60.4497,854.4328],[9.2466,60.4542,394.6413],[9.2556,60.4549,258.6251],[9.2541,60.4593,189.4192],[9.2721,60.4608,241.6813],[9.2706,60.4652,340.4031],[9.2796,60.4659,476.401],[9.2782,60.4704,616.0026],[9.2872,60.4711,742.3225],[9.2857,60.4755,790.9981],[9.2947,60.4762,834.2919],[9.2932,60.4807,848.2271],[9.3022,60.4814,798.2485],[9.2993,60.4902,798.3944],[9.3083,60.491,961.4326],[9.3053,60.4998,1036.8424],[9.3143,60.5005,1049.8153],[9.3129,60.505,1073.6597],[9.3219,60.5057,959.7305],[9.3189,60.5145,877.8459],[9.328,60.5153,1011.1427],[9.325,60.5241,1049.7422],[9.334,60.5249,1093.3799],[9.3311,60.5337,1033.2963],[9.3401,60.5344,1030.8582],[9.3372,60.5433,1027.8489],[9.3462,60.544,1022.869],[9.3418,60.5573,986.025],[9.3508,60.558,987.7407],[9.3479,60.5669,928.233],[9.3659,60.5683,961.5655],[9.3674,60.5639,1009.4299],[9.4125,60.5675,602.3069],[9.4096,60.5763,608.9676],[9.4186,60.5771,666.5446],[9.4157,60.5859,651.4874],[9.4248,60.5866,723.0571],[9.4233,60.5911,702.1252],[9.4323,60.5918,758.2347],[9.4279,60.6051,748.6816],[9.4189,60.6043,792.103],[9.4174,60.6088,747.715],[9.4084,60.6081,774.049],[9.4069,60.6125,747.2228],[9.3888,60.611,822.4356],[9.3874,60.6155,747.4143],[9.3783,60.6148,758.9769],[9.3769,60.6192,747.2677],[9.3678,60.6185,823.881],[9.3545,60.6583,905.4506],[9.3636,60.659,857.4788],[9.3621,60.6635,872.0885],[9.3531,60.6628,876.5767],[9.3516,60.6672,850.2958],[9.3425,60.6665,855.6763],[9.341,60.6709,835.3939],[9.332,60.6702,834.899],[9.329,60.679,918.1453],[9.32,60.6783,926.8303],[9.317,60.6871,933.6666],[9.3261,60.6879,920.4689],[9.3231,60.6967,820.3199],[9.305,60.6953,856.7618],[9.3064,60.6909,926.0586],[9.2521,60.6865,989.0264],[9.2536,60.6821,939.4507],[9.2445,60.6813,949.2221],[9.246,60.6769,1003.374],[9.2369,60.6762,1069.5471],[9.2384,60.6718,1064.1536],[9.2113,60.6696,1066.9581],[9.2128,60.6651,1087.0364],[9.1765,60.6622,949.3462],[9.178,60.6578,964.8356],[9.1509,60.6556,960.0361],[9.1494,60.66,919.759],[9.1313,60.6585,828.5519],[9.1298,60.663,813.2192],[9.1207,60.6622,785.7047],[9.1222,60.6578,749.6213],[9.0951,60.6556,851.9945],[9.0966,60.6512,822.4767],[9.0785,60.6497,595.7145],[9.083,60.6364,470.726],[9.074,60.6357,380.5369],[9.0755,60.6312,364.4076],[9.0665,60.6305,248.3315],[9.0649,60.6349,192.0802],[9.0559,60.6342,238.8908],[9.0483,60.6563,184.3065],[9.0393,60.6556,264.1789],[9.0377,60.66,236.5742],[9.0196,60.6585,696.9925],[9.0181,60.6629,704.8546],[9.0091,60.6622,809.4667],[9.006,60.671,733.7713],[8.997,60.6703,890.7134],[8.9954,60.6747,857.6858],[8.9683,60.6725,937.0513],[8.9698,60.6681,942.0895],[8.9608,60.6673,969.3591],[8.9592,60.6717,938.6449],[8.923,60.6687,937.1831],[8.9246,60.6643,940.3916],[8.8974,60.6621,903.8712],[8.899,60.6576,878.9587],[8.8718,60.6554,886.8022],[8.8734,60.651,903.6636],[8.8553,60.6494,861.4062],[8.8568,60.645,868.8625],[8.8478,60.6443,882.2025],[8.8493,60.6398,877.2791],[8.8403,60.6391,862.1761],[8.8434,60.6302,915.5678],[8.8343,60.6295,918.4125],[8.8359,60.6251,937.5647],[8.8269,60.6243,955.4869],[8.8284,60.6199,983.4904],[8.8194,60.6191,976.0836],[8.8209,60.6147,994.3782],[8.8119,60.614,998.5098],[8.8134,60.6095,990.9191],[8.8044,60.6088,996.5664],[8.8075,60.5999,1038.1943],[8.7985,60.5992,1044.2814],[8.8016,60.5903,977.0977],[8.7925,60.5896,1003.0896],[8.791,60.594,1025.2834],[8.7549,60.591,1000.8547],[8.7564,60.5865,1024.1672],[8.7384,60.585,1017.5638],[8.74,60.5806,1008.7241],[8.7219,60.5791,1053.8037],[8.7235,60.5746,1112.3729],[8.7145,60.5739,1145.3544],[8.7176,60.565,1133.8989],[8.7266,60.5658,1096.4248],[8.7281,60.5614,1097.7826],[8.7372,60.5621,1088.2406],[8.7387,60.5577,1072.1749],[8.7297,60.557,1096.5483],[8.7313,60.5525,1072.7306],[8.7222,60.5518,1073.0116],[8.7238,60.5474,1080.2667],[8.6968,60.5451,1100.937],[8.6999,60.5362,991.9033],[8.6909,60.5355,990.8963],[8.694,60.5266,998.8262],[8.685,60.5258,1013.3302],[8.6881,60.517,1047.793],[8.6791,60.5162,1070.9391],[8.6807,60.5118,1118.3373]]]]}
,"properties": {"GID_2": "NOR.4.15_1","GID_0": "NOR","country": "Norway","GID_1": "NOR.4_1","province": "Buskerud","NL_NAME_1": "NA","county": "Nes","VARNAME_2": "NA","NL_NAME_2": "NA","TYPE_2": "Kommuner","ENGTYPE_2": "Municipality","CC_2": "NA","HASC_2": "NO.BU.NS","name": "Nes.county","area_km2": 805.8734,"hist_schema_id": "Elevation0-9000","hist_area_km2": {"150": 10.4417,"175": 8.4939,"200": 4.753,"225": 4.2329,"250": 4.3169,"275": 4.5458,"300": 4.3995,"325": 4.5453,"350": 4.5141,"375": 5.2126,"400": 6.4227,"425": 6.4634,"450": 5.6699,"475": 7.251,"500": 8.7292,"525": 9.2795,"550": 9.5915,"575": 8.5925,"600": 9.0633,"625": 9.5858,"650": 10.3178,"675": 12.2236,"700": 14.0568,"725": 15.3273,"750": 20.2626,"775": 18.8495,"800": 20.2637,"825": 26.0167,"850": 42.5312,"875": 44.7835,"900": 47.8386,"925": 64.9934,"950": 58.1569,"975": 55.3919,"1000": 53.8588,"1025": 48.8258,"1050": 29.9345,"1075": 16.465,"1100": 14.1723,"1125": 11.8696,"1150": 12.3675,"1175": 9.915,"1200": 8.2459,"1225": 6.2794,"1250": 3.9763,"1275": 2.5105,"1300": 0.3348}}}