{"type":"Feature","properties":{"GID_2":"NOR.8.15_1","GID_0":"NOR","country":"Norway","GID_1":"NOR.8_1","province":"MøreogRomsdal","NL_NAME_1":"NA","county":"Midsund","VARNAME_2":"NA","NL_NAME_2":"NA","TYPE_2":"Kommuner","ENGTYPE_2":"Municipality","CC_2":"NA","HASC_2":"NO.MR.MI","name":"Midsund.county"},
"geometry":{"type": "MultiPolygon","coordinates": [[[[6.5229,62.6417,69.836],[6.5234,62.6401,6.8097],[6.5266,62.6401,0.0],[6.5328,62.6453,140.9588],[6.5255,62.6453,29.8816],[6.5229,62.6417,69.836]]],
[[[6.5339,62.6465,124.9586],[6.5354,62.6458,162.8178],[6.537,62.6474,140.5586],[6.5354,62.6479,73.4681],[6.5339,62.6465,124.9586]]],
[[[6.5432,62.6474,162.8921],[6.5474,62.6464,38.1899],[6.5516,62.6484,74.7861],[6.5516,62.6516,16.2425],[6.5401,62.6516,40.4789],[6.5401,62.6484,171.8971],[6.5432,62.6474,162.8921]]],
[[[6.6458,62.6729,0.0],[6.6401,62.6734,0.0],[6.6396,62.675,0.0],[6.6422,62.687,0.0],[6.6474,62.688,0.0],[6.6443,62.6901,0.0],[6.6432,62.6953,2.8145],[6.6375,62.6979,17.9626],[6.625,62.6979,2.5621],[6.613,62.6932,4.8234],[6.612,62.6901,4.2876],[6.6068,62.6891,3.7798],[6.6057,62.6839,0.0],[6.5964,62.6807,0.0],[6.5932,62.6714,6.4116],[6.5875,62.6688,10.003],[6.5797,62.6682,0.0],[6.5797,62.663,7.6119],[6.5828,62.6609,5.0869],[6.5672,62.6557,0.0],[6.5667,62.6542,0.0],[6.5672,62.6526,3.1123],[6.5729,62.65,0.0],[6.5917,62.65,0.0],[6.5984,62.6536,4.4929],[6.6063,62.6542,0.0],[6.6104,62.6563,29.7868],[6.6146,62.6542,0.0],[6.6188,62.6542,0.0],[6.6229,62.6563,26.9274],[6.6292,62.6563,26.6579],[6.6333,62.6542,0.0],[6.6479,62.6583,24.7622],[6.6521,62.6563,0.0],[6.6604,62.6604,0.0],[6.6682,62.6609,0.0],[6.6682,62.6641,0.0],[6.6651,62.6651,0.0],[6.6641,62.6682,0.0],[6.6542,62.6729,0.0],[6.6458,62.6729,0.0]]],
[[[6.9022,62.672,0.0],[6.9146,62.675,0.0],[6.9224,62.6786,21.3513],[6.9063,62.6792,0.0],[6.9021,62.6771,31.9964],[6.8943,62.6766,0.0],[6.8896,62.6729,11.1179],[6.8917,62.6708,0.0],[6.8958,62.6729,5.9941],[6.9,62.6708,0.0],[6.9022,62.672,0.0]]],
[[[6.9208,62.7417,77.4593],[6.9224,62.7432,25.3657],[6.9193,62.7443,53.3972],[6.9203,62.7474,44.9698],[6.9167,62.7479,32.0624],[6.9068,62.7453,37.3246],[6.9083,62.7438,43.3876],[6.9141,62.7432,115.3134],[6.9141,62.7401,347.2415],[6.9125,62.7396,383.3634],[6.8896,62.7396,281.8473],[6.8854,62.7417,76.9224],[6.8792,62.7417,103.9987],[6.8646,62.7354,488.3419],[6.8563,62.7396,0.0],[6.8375,62.7396,1.8676],[6.8188,62.7333,24.6491],[6.813,62.7328,42.1401],[6.8146,62.7313,56.5713],[6.8203,62.7307,112.2],[6.8208,62.7292,270.0592],[6.8203,62.7276,411.2495],[6.8125,62.725,675.3877],[6.7813,62.725,596.9976],[6.7714,62.7276,136.0021],[6.7745,62.7297,40.3561],[6.7729,62.7313,22.3099],[6.7625,62.7313,0.0],[6.75,62.7271,2.9828],[6.7422,62.7266,0.0],[6.7411,62.7234,0.0],[6.7333,62.7188,0.0],[6.7276,62.7214,0.0],[6.7255,62.7266,0.0],[6.7391,62.7297,0.0],[6.7391,62.7349,15.7159],[6.7292,62.7354,0.0],[6.7208,62.7396,0.0],[6.6958,62.7375,0.0],[6.6901,62.7349,0.0],[6.6891,62.7318,5.7051],[6.6839,62.7307,3.7515],[6.6833,62.7292,0.0],[6.6854,62.7271,0.0],[6.6953,62.7266,0.0],[6.6953,62.7234,0.0],[6.6896,62.7229,0.0],[6.6776,62.7182,0.0],[6.6849,62.7141,0.0],[6.6839,62.7109,0.0],[6.687,62.7099,13.1093],[6.688,62.7068,0.0],[6.6953,62.7057,1.4617],[6.6953,62.6985,5.3692],[6.6833,62.6979,0.0],[6.6672,62.6911,0.0],[6.6609,62.687,18.8153],[6.6589,62.6797,0.0],[6.6682,62.6786,3.2956],[6.6708,62.675,0.0],[6.6672,62.6714,3.2289],[6.6745,62.6703,24.0133],[6.6828,62.6661,7.8273],[6.6839,62.663,28.7595],[6.6938,62.6625,0.0],[6.7042,62.6667,23.5949],[6.7125,62.6667,0.0],[6.7271,62.6708,2.1997],[6.7333,62.6708,0.0],[6.7443,62.6766,12.5183],[6.7521,62.6771,0.0],[6.7562,62.6792,18.0667],[6.7667,62.6792,0.0],[6.7708,62.6813,17.4966],[6.7854,62.6813,0.0],[6.7938,62.6854,0.0],[6.8042,62.6833,0.0],[6.8083,62.6854,0.0],[6.8354,62.6854,0.0],[6.8396,62.6875,3.4622],[6.85,62.6875,0.0],[6.8687,62.6937,0.0],[6.8833,62.6937,0.0],[6.9104,62.7021,10.2739],[6.9167,62.7021,0.0],[6.9208,62.7042,4.1024],[6.937,62.7068,0.0],[6.937,62.7099,48.7119],[6.9339,62.7109,94.8965],[6.9354,62.7146,0.0],[6.9349,62.7203,36.9094],[6.9318,62.7214,53.8429],[6.9333,62.7271,0.0],[6.9292,62.7313,265.3745],[6.9307,62.7349,11.3572],[6.9276,62.7359,32.3878],[6.9266,62.7391,55.1902],[6.9193,62.7401,249.7585],[6.9208,62.7417,77.4593]]],
[[[6.6438,62.7146,5.1814],[6.6458,62.7125,0.0],[6.6563,62.7125,0.0],[6.662,62.7161,0.0],[6.6563,62.7188,0.0],[6.6521,62.7188,0.0],[6.6443,62.7161,6.086],[6.6438,62.7146,5.1814]]]]}}