{"type": "Feature","bbox": [28.5151,70.4757,29.7655,70.8854],"geometry": {"type": "MultiPolygon","coordinates": [[[[29.7534,70.7236,199.4564],[29.7557,70.7283,29.6692],[29.7655,70.7292,6.087],[29.7604,70.7292,7.2874],[29.7479,70.7333,0.0],[29.7417,70.7333,0.0],[29.7375,70.7354,0.0],[29.7313,70.7354,16.7268],[29.725,70.7375,0.0],[29.7188,70.7333,120.1914],[29.7125,70.7333,125.3593],[29.7083,70.7312,150.5451],[29.6979,70.7312,163.9093],[29.6896,70.7271,194.1408],[29.6813,70.7292,100.5336],[29.6688,70.725,206.261],[29.6625,70.725,188.3253],[29.6609,70.7234,200.6069],[29.6641,70.7214,214.8059],[29.6625,70.7208,212.7502],[29.6542,70.7208,214.5323],[29.6479,70.7229,86.3566],[29.6464,70.7224,49.9291],[29.6474,70.7193,167.7254],[29.6354,70.7188,0.0],[29.6224,70.7109,191.5317],[29.6104,70.7104,223.2601],[29.6021,70.7063,253.7415],[29.5875,70.7104,86.5108],[29.5839,70.7099,0.0],[29.5859,70.7068,203.2032],[29.5891,70.7057,235.598],[29.5875,70.7042,249.968],[29.5667,70.7063,38.7191],[29.5521,70.7021,39.4995],[29.5438,70.7042,38.8077],[29.5396,70.7021,64.9267],[29.5292,70.7021,46.6138],[29.525,70.7,181.5741],[29.5021,70.7,18.7221],[29.4979,70.7021,0.0],[29.4833,70.7021,0.0],[29.4792,70.7,68.9345],[29.4708,70.7,64.5257],[29.4672,70.7026,20.9045],[29.4682,70.7057,0.0],[29.4646,70.7063,0.0],[29.4599,70.7026,15.8828],[29.4505,70.7016,18.0299],[29.4474,70.6984,113.6951],[29.438,70.6974,16.2965],[29.4333,70.6937,156.7851],[29.4255,70.6932,0.0],[29.4208,70.6896,76.851],[29.4063,70.6896,2.0463],[29.4021,70.6917,0.0],[29.3958,70.6917,7.1458],[29.3922,70.6943,6.9635],[29.3932,70.6974,0.0],[29.3896,70.6979,2.8947],[29.3786,70.6901,0.0],[29.3729,70.6875,1.1037],[29.3672,70.687,3.3705],[29.3604,70.6833,33.3574],[29.3422,70.6828,0.0],[29.338,70.6807,0.0],[29.3432,70.6766,0.0],[29.3411,70.6734,55.0857],[29.3255,70.6724,0.0],[29.3234,70.6693,0.0],[29.3266,70.6672,12.1259],[29.3203,70.663,17.6815],[29.3109,70.662,0.0],[29.3016,70.6547,23.3281],[29.2854,70.6542,14.0426],[29.2792,70.6563,0.0],[29.2687,70.6521,1.3141],[29.2609,70.6578,0.0],[29.275,70.6625,0.0],[29.2813,70.6604,0.0],[29.2896,70.6604,0.0],[29.2953,70.663,6.8133],[29.2974,70.6661,0.0],[29.2771,70.6667,22.1692],[29.2729,70.6687,6.701],[29.2583,70.6687,0.2759],[29.2521,70.6667,33.3607],[29.2484,70.6693,2.1579],[29.2505,70.6724,2.3638],[29.2708,70.6729,0.0],[29.2724,70.6745,0.0],[29.2693,70.6766,-0.1739],[29.2833,70.6771,0.0],[29.2896,70.6813,4.3708],[29.3146,70.6813,0.0],[29.3182,70.6839,0.0],[29.3172,70.687,-1.1468],[29.3188,70.6875,1.263],[29.3333,70.6896,0.0],[29.3458,70.6937,0.0],[29.3521,70.6937,0.0],[29.3583,70.6979,5.5084],[29.3771,70.6979,0.0],[29.3786,70.6995,2.0065],[29.3729,70.7021,0.0],[29.3458,70.7021,0.0],[29.3417,70.7,37.3198],[29.3271,70.7,6.5663],[29.3229,70.7021,0.0],[29.3151,70.7026,3.7896],[29.3104,70.7063,0.0],[29.2979,70.7063,0.0],[29.2938,70.7083,0.0],[29.2859,70.7089,24.1882],[29.2875,70.7104,0.0],[29.2953,70.7109,0.0],[29.3063,70.7188,7.5997],[29.3208,70.7188,4.3215],[29.3271,70.7167,0.0],[29.3312,70.7188,37.4541],[29.3391,70.7193,0.0],[29.3411,70.7224,5.6161],[29.3375,70.725,0.0],[29.325,70.725,40.6265],[29.3151,70.7276,48.2857],[29.3161,70.7307,0.0],[29.3146,70.7312,14.0721],[29.2938,70.7312,43.9425],[29.2896,70.7292,12.8916],[29.2818,70.7286,0.0],[29.2911,70.7255,128.3915],[29.275,70.725,68.3078],[29.2693,70.7276,0.0],[29.2745,70.7328,0.0],[29.2672,70.7338,71.4246],[29.2568,70.7412,0.0],[29.2813,70.7458,0.0],[29.2896,70.75,66.4731],[29.2979,70.7479,0.0],[29.3021,70.75,0.0],[29.3125,70.75,0.0],[29.3354,70.7562,0.0],[29.3417,70.7562,0.0],[29.3479,70.7604,27.8994],[29.3557,70.7609,0.0],[29.3526,70.7641,2.1069],[29.3589,70.7682,3.79],[29.3682,70.7693,0.0],[29.3766,70.7755,0.0],[29.375,70.7771,0.0],[29.3693,70.7776,29.7452],[29.3651,70.7807,54.7122],[29.3766,70.7797,0.0],[29.3755,70.7828,11.464],[29.3766,70.7849,1.066],[29.3563,70.7854,141.8064],[29.3521,70.7875,4.109],[29.3417,70.7875,35.0558],[29.3375,70.7896,2.7033],[29.3312,70.7896,0.0],[29.3271,70.7917,0.0],[29.3146,70.7917,2.5497],[29.3104,70.7937,0.0],[29.2958,70.7937,0.0],[29.2896,70.7917,4.8885],[29.2771,70.7958,0.0],[29.2693,70.7963,0.0],[29.263,70.8016,0.0],[29.2693,70.8057,3.5222],[29.2766,70.8068,0.0],[29.2755,70.8099,0.0],[29.2766,70.812,0.0],[29.2693,70.813,0.0],[29.2651,70.8151,3.834],[29.263,70.8182,0.0572],[29.2724,70.8266,5.1254],[29.2687,70.8292,2.9291],[29.2609,70.8297,54.0375],[29.2641,70.8328,2.5426],[29.2547,70.8339,5.3103],[29.2578,70.837,0.0],[29.25,70.8375,6.5002],[29.2443,70.8401,8.7968],[29.2495,70.8453,0.0],[29.2422,70.8464,5.3642],[29.2328,70.8516,4.5104],[29.2229,70.8542,0.0],[29.2167,70.8542,0.1313],[29.2104,70.8562,0.7873],[29.2042,70.8521,16.3374],[29.1917,70.8521,0.9857],[29.1875,70.85,49.7188],[29.1354,70.85,1.1518],[29.125,70.8562,0.9637],[29.1146,70.8562,3.027],[29.1104,70.8542,0.0],[29.1005,70.8547,0.0],[29.0943,70.8599,6.3392],[29.1036,70.8609,0.0],[29.1005,70.8641,9.5441],[29.1036,70.8662,3.1193],[29.0953,70.8703,0.0],[29.0854,70.8729,6.0635],[29.0729,70.8729,4.5432],[29.0688,70.875,0.0],[29.0229,70.875,0.0],[29.0187,70.8729,4.9713],[29.0,70.8729,3.7313],[28.9958,70.8708,0.0],[28.9896,70.8708,0.0],[28.9833,70.8688,2.7188],[28.9797,70.8714,0.0],[28.9818,70.8745,0.0],[28.9849,70.8755,0.934],[28.9797,70.8797,1.8991],[28.9807,70.8828,0.0],[28.9667,70.8833,3.6567],[28.9625,70.8854,0.0],[28.9479,70.8854,0.0],[28.9354,70.8812,17.6249],[28.9292,70.8833,2.2941],[28.9188,70.8812,7.0011],[28.9125,70.8833,0.0],[28.9083,70.8812,3.1794],[28.8917,70.8812,0.8508],[28.8875,70.8792,11.5973],[28.8797,70.8786,9.2283],[28.8813,70.8771,51.4262],[28.8953,70.8766,217.3],[28.8937,70.875,239.601],[28.8729,70.875,227.5624],[28.8688,70.8771,78.2836],[28.8604,70.8771,34.7286],[28.8563,70.875,49.8304],[28.8375,70.875,163.4732],[28.8333,70.8729,222.9069],[28.8229,70.8729,66.486],[28.8141,70.8672,127.0435],[28.7964,70.8641,0.0],[28.7875,70.8583,180.6838],[28.7813,70.8583,128.1286],[28.7687,70.8542,164.2632],[28.7526,70.8516,46.6369],[28.7464,70.8474,12.1059],[28.7474,70.8443,9.2649],[28.7432,70.8401,173.8982],[28.7297,70.8411,8.3055],[28.7245,70.8359,0.0],[28.7089,70.8266,7.1095],[28.712,70.8234,128.1552],[28.6979,70.8229,0.7358],[28.6964,70.8214,1.964],[28.6995,70.8193,42.8241],[28.6938,70.8187,0.0],[28.687,70.8151,4.9698],[28.6813,70.8146,0.9183],[28.6755,70.812,5.3599],[28.6734,70.8099,0.0],[28.6745,70.8068,10.9969],[28.6672,70.8016,4.1843],[28.6703,70.7984,135.5512],[28.6609,70.7932,15.6307],[28.6641,70.7911,13.4052],[28.663,70.788,0.0],[28.6703,70.7828,5.7126],[28.6682,70.7797,10.7982],[28.663,70.7766,22.1509],[28.6661,70.7734,116.3213],[28.6625,70.7729,183.3223],[28.6583,70.775,25.5297],[28.6484,70.7745,46.9987],[28.6505,70.7714,137.3473],[28.6536,70.7703,193.919],[28.6521,70.7688,201.6878],[28.6458,70.7708,154.2438],[28.6333,70.7708,95.8344],[28.6271,70.7729,5.3354],[28.6229,70.7708,6.7513],[28.6125,70.7708,1.3241],[28.6083,70.7688,10.2683],[28.6021,70.7688,0.0],[28.5932,70.763,55.6545],[28.5875,70.7625,0.0],[28.5818,70.7599,0.0],[28.587,70.7547,207.3345],[28.575,70.7542,62.9717],[28.5651,70.7516,2.207],[28.5661,70.7484,76.9527],[28.5625,70.7458,157.65],[28.5484,70.7453,50.6703],[28.5536,70.7412,249.9929],[28.5516,70.738,226.4954],[28.5318,70.7328,188.836],[28.5229,70.7271,203.9058],[28.5151,70.7266,0.0],[28.5245,70.7203,19.5287],[28.5234,70.7172,0.0],[28.5286,70.7141,0.0],[28.5276,70.7109,0.0],[28.5297,70.7089,0.0],[28.5443,70.7005,0.0],[28.5516,70.6995,0.0],[28.563,70.6922,0.0],[28.5724,70.6911,4.1486],[28.5771,70.6875,0.0],[28.5833,70.6875,8.4196],[28.5875,70.6854,0.0],[28.6063,70.6854,0.0],[28.6104,70.6833,0.0],[28.6146,70.6833,0.0],[28.6203,70.6807,0.0],[28.6172,70.6776,0.0],[28.6203,70.6755,1.1628],[28.6042,70.675,8.5698],[28.6,70.6771,0.0],[28.5729,70.6771,0.0],[28.5688,70.675,8.7044],[28.5417,70.675,227.6817],[28.5271,70.6833,23.9073],[28.5183,70.6798,107.333],[28.5292,70.6793,207.6081],[28.5274,70.6748,223.7636],[28.5408,70.6742,240.6642],[28.5389,70.6698,260.439],[28.5523,70.6692,290.3674],[28.5504,70.6647,278.6634],[28.5772,70.6635,295.191],[28.5753,70.6591,320.4953],[28.5887,70.6585,343.6542],[28.5868,70.654,444.754],[28.6001,70.6534,458.4811],[28.5964,70.6445,463.4179],[28.6097,70.6439,476.7949],[28.606,70.6349,511.2401],[28.6193,70.6343,514.2689],[28.6155,70.6254,526.5877],[28.6289,70.6248,519.3204],[28.627,70.6203,501.3456],[28.6404,70.6197,478.8567],[28.6385,70.6153,477.154],[28.6518,70.6146,460.9231],[28.6499,70.6102,473.448],[28.6633,70.6096,476.9064],[28.6614,70.6051,416.4553],[28.6881,70.6039,380.8056],[28.6862,70.5994,351.0524],[28.6995,70.5988,392.4515],[28.6976,70.5944,439.704],[28.7109,70.5938,473.3837],[28.709,70.5893,514.2705],[28.7223,70.5887,503.3528],[28.7166,70.5753,532.5979],[28.7299,70.5747,517.2068],[28.7261,70.5658,487.112],[28.7394,70.5651,543.3226],[28.7356,70.5562,368.5376],[28.7489,70.5556,380.3368],[28.7451,70.5467,479.4047],[28.7584,70.5461,475.0508],[28.7546,70.5371,454.6196],[28.7679,70.5365,450.6633],[28.764,70.5276,495.3243],[28.7773,70.527,502.3406],[28.7735,70.5181,484.3848],[28.7868,70.5174,493.2921],[28.783,70.5085,591.2362],[28.7962,70.5079,606.5408],[28.7943,70.5034,568.6075],[28.8209,70.5022,549.9158],[28.8228,70.5067,559.1807],[28.8759,70.5042,503.4374],[28.8778,70.5087,492.689],[28.9177,70.5068,364.6414],[28.9196,70.5113,394.1978],[28.9727,70.5088,365.1112],[28.9747,70.5132,365.0077],[29.0145,70.5113,446.5464],[29.0125,70.5069,412.9265],[29.0391,70.5056,379.9897],[29.0371,70.5012,301.167],[29.0504,70.5005,269.239],[29.0484,70.4961,302.3584],[29.0749,70.4948,261.042],[29.073,70.4903,277.7994],[29.0995,70.4891,333.9653],[29.0975,70.4846,310.0622],[29.1107,70.484,336.3356],[29.1088,70.4795,338.2463],[29.1883,70.4757,331.3498],[29.1903,70.4801,231.2248],[29.23,70.4782,221.7035],[29.234,70.4871,242.8651],[29.2208,70.487799999999993,353.3629],[29.2228,70.4922,339.743],[29.236,70.4916,287.2847],[29.2401,70.5005,302.7491],[29.2533,70.4999,325.2027],[29.2574,70.5088,356.1565],[29.2706,70.5081,363.7426],[29.2747,70.5171,373.8455],[29.2879,70.5164,367.7223],[29.29,70.5209,363.6241],[29.3032,70.5202,344.2186],[29.3073,70.5291,320.5688],[29.3206,70.5285,324.4464],[29.3247,70.5374,432.1312],[29.3379,70.5368,417.3068],[29.342,70.5457,475.3555],[29.3553,70.545,441.8114],[29.3574,70.5495,433.6111],[29.3706,70.5488,431.3663],[29.3727,70.5533,443.0515],[29.386,70.5526,447.5212],[29.388,70.5571,441.1962],[29.4013,70.5564,426.8942],[29.4034,70.5609,448.3951],[29.4167,70.5602,426.8471],[29.4208,70.5691,438.025],[29.4341,70.5685,415.726],[29.4362,70.5729,420.4649],[29.4495,70.5723,441.0065],[29.4515,70.5767,438.3339],[29.4648,70.5761,431.2608],[29.4669,70.5805,432.7664],[29.4802,70.5799,435.244],[29.4823,70.5843,426.2584],[29.4956,70.5837,426.394],[29.4998,70.5926,413.6902],[29.5131,70.5919,439.2408],[29.5277,70.6231,362.6416],[29.541,70.6225,340.824],[29.5494,70.6403,410.4995],[29.5627,70.6396,378.7365],[29.5669,70.6485,412.2122],[29.5803,70.6479,375.2741],[29.5845,70.6568,406.1198],[29.5979,70.6561,370.2312],[29.6021,70.665,417.8619],[29.6154,70.6643,372.4161],[29.6175,70.6688,393.8264],[29.6309,70.6681,377.6196],[29.6351,70.677,417.3457],[29.6485,70.6764,400.3305],[29.6528,70.6853,392.3341],[29.6661,70.6846,359.8647],[29.6704,70.6935,368.3156],[29.6838,70.6928,351.4275],[29.688,70.7017,274.71],[29.7014,70.7011,334.563],[29.7035,70.7055,304.1764],[29.7169,70.7048,324.6354],[29.7212,70.7137,252.6336],[29.7346,70.7131,271.188],[29.7367,70.7175,228.0377],[29.7501,70.7168,226.6354],[29.7534,70.7236,199.4564]]],
[[[29.3776,70.7245,0.0],[29.3797,70.7266,7.2017],[29.3875,70.7271,8.18],[29.3891,70.7286,39.1714],[29.3729,70.7292,39.5354],[29.3667,70.7271,59.6346],[29.3625,70.7292,48.4299],[29.3542,70.7292,2.6981],[29.3484,70.7266,0.0],[29.3464,70.7234,4.196],[29.375,70.7229,0.0],[29.3776,70.7245,0.0]]],
[[[29.4109,70.7307,8.7275],[29.4125,70.7292,0.0],[29.4161,70.7297,0.0],[29.4146,70.7312,0.0],[29.4109,70.7307,8.7275]]],
[[[29.4039,70.7332,0.0],[29.4026,70.7318,9.6883],[29.4078,70.7318,17.3264],[29.4078,70.7328,5.4168],[29.4039,70.7332,0.0]]],
[[[29.5333,70.7104,0.0],[29.5318,70.7089,0.0],[29.5438,70.7083,0.0],[29.5536,70.712,0.0],[29.5458,70.7146,0.0],[29.5333,70.7104,0.0]]],
[[[29.5988,70.7121,0.0],[29.6,70.7104,197.8748],[29.6036,70.7109,153.6503],[29.6021,70.7125,103.9119],[29.5988,70.7121,0.0]]],
[[[29.5109,70.7151,16.8252],[29.5146,70.7125,0.0],[29.5182,70.713,0.0],[29.5146,70.7167,11.9272],[29.5109,70.7151,16.8252]]],
[[[29.4646,70.7125,0.0],[29.4682,70.713,0.0],[29.4724,70.7161,0.0],[29.4646,70.7188,0.0],[29.4604,70.7167,88.21],[29.4464,70.7161,0.0],[29.4479,70.7146,5.5152],[29.4604,70.7146,2.8037],[29.4646,70.7125,0.0]]],
[[[29.4464,70.7234,1.9848],[29.4562,70.7229,0.0],[29.462,70.7266,5.6947],[29.4479,70.725,0.0],[29.4464,70.7234,1.9848]]],
[[[29.3318,70.7401,0.0],[29.3354,70.7396,0.0],[29.337,70.7412,2.6062],[29.3333,70.7417,5.6327],[29.3318,70.7401,0.0]]]]}
,"properties": {"GID_2": "NOR.5.3_1","GID_0": "NOR","country": "Norway","GID_1": "NOR.5_1","province": "Finnmark","NL_NAME_1": "NA","county": "Berlevåg","VARNAME_2": "NA","NL_NAME_2": "NA","TYPE_2": "Kommuner","ENGTYPE_2": "Municipality","CC_2": "NA","HASC_2": "NO.FI.BE","name": "Berlevåg.county","area_km2": 1121.5317,"hist_schema_id": "Elevation0-9000","hist_area_km2": {"0": 24.0668,"25": 25.811,"50": 24.2216,"75": 27.4383,"100": 29.13,"125": 32.5157,"150": 44.468,"175": 55.1608,"200": 67.7645,"225": 95.4251,"250": 83.2952,"275": 81.5065,"300": 70.4725,"325": 66.7088,"350": 84.6436,"375": 84.1986,"400": 79.8221,"425": 67.2583,"450": 36.6123,"475": 16.6978,"500": 13.7801,"525": 7.4872,"550": 2.2265,"575": 0.5235,"600": 0.2476,"625": 0.0495}}}