{"type": "Feature","bbox": [12.7917,65.4576,13.7709,66.1811],"geometry": {"type": "MultiPolygon","coordinates": [[[[12.7954,65.7179,747.4304],[12.7966,65.7134,745.8177],[12.8183,65.7144,589.4966],[12.8195,65.71,500.935],[12.8304,65.7105,524.4037],[12.8316,65.706,482.8088],[12.8425,65.7065,437.4133],[12.8412,65.711,488.5703],[12.8629,65.7119,402.9184],[12.8846,65.7129,531.1174],[12.8858,65.7085,535.8351],[12.9184,65.7099,747.749],[12.9232,65.692,638.3414],[12.9124,65.6916,660.4484],[12.9148,65.6826,643.183],[12.9256,65.6831,610.3932],[12.9268,65.6786,584.0171],[12.9377,65.6791,574.4747],[12.9401,65.6702,515.6895],[12.9618,65.6712,664.0723],[12.963,65.6667,792.2172],[12.9846,65.6677,712.4259],[12.9858,65.6632,693.7416],[12.9966,65.6637,691.7167],[13.0002,65.6503,784.0465],[12.9894,65.6498,836.4263],[12.9918,65.6409,790.8397],[13.0026,65.6413,802.9138],[13.005,65.6324,825.7047],[13.0158,65.6329,849.1219],[13.023,65.6061,724.6618],[13.0122,65.6056,710.4896],[13.0158,65.5922,809.4],[13.0266,65.5927,740.0936],[13.029,65.5837,686.6646],[13.0397,65.5842,727.5504],[13.0469,65.5574,868.6937],[13.0361,65.5569,926.6085],[13.0468,65.5167,820.9922],[13.036,65.5162,824.1687],[13.0455,65.4805,687.7342],[13.0347,65.48,733.631],[13.0406,65.4576,931.8259],[13.0728,65.4591,854.9275],[13.0717,65.4635,1024.656],[13.1039,65.465,636.9934],[13.1027,65.4694,569.2814],[13.1242,65.4704,725.4111],[13.1231,65.4749,764.3182],[13.1446,65.4758,1056.8683],[13.1434,65.4803,1031.9003],[13.1757,65.4817,1103.4091],[13.1745,65.4862,1220.8583],[13.196,65.4871,1027.0309],[13.1949,65.4916,916.6303],[13.2271,65.493,630.93],[13.226,65.4974,549.351],[13.2475,65.4984,365.9137],[13.2464,65.5028,367.1318],[13.2679,65.5038,403.5956],[13.2667,65.5082,461.4607],[13.299,65.5096,728.705],[13.2979,65.5141,744.9099],[13.3087,65.5145,635.3155],[13.3018,65.5414,792.8451],[13.3126,65.5418,664.4529],[13.3115,65.5463,705.0467],[13.3007,65.5458,813.5873],[13.2995,65.5503,815.9572],[13.2888,65.5499,837.4073],[13.2876,65.5543,812.7347],[13.2768,65.5539,854.4635],[13.2757,65.5583,836.5457],[13.2649,65.5579,859.947],[13.2626,65.5668,822.6848],[13.2518,65.5663,854.5419],[13.2507,65.5708,762.424],[13.2399,65.5704,866.5386],[13.2167,65.6598,649.6262],[13.2059,65.6593,688.9202],[13.1989,65.6861,254.2303],[13.2531,65.6884,97.9781],[13.2542,65.684,94.1097],[13.2868,65.6854,257.0435],[13.2879,65.6809,231.1198],[13.2988,65.6814,260.3488],[13.3011,65.6724,239.6187],[13.3119,65.6729,373.7809],[13.313,65.6684,415.2087],[13.3455,65.6698,809.7733],[13.3467,65.6653,688.175],[13.3683,65.6662,604.1039],[13.3615,65.6931,850.4346],[13.3724,65.6935,833.3608],[13.3655,65.7203,811.8564],[13.3764,65.7208,735.0097],[13.3752,65.7253,802.474],[13.4078,65.7266,751.8036],[13.4044,65.74,745.2817],[13.4153,65.7405,762.6438],[13.4119,65.7539,794.0357],[13.4227,65.7544,760.0533],[13.4216,65.7588,810.5032],[13.4325,65.7593,753.2101],[13.4314,65.7638,720.9843],[13.464,65.7651,526.3181],[13.4629,65.7696,495.7784],[13.5064,65.7714,444.489],[13.5053,65.7759,456.4776],[13.5488,65.7776,446.1629],[13.5499,65.7732,492.4014],[13.5608,65.7736,501.214],[13.5619,65.7691,548.9437],[13.5728,65.7696,688.2119],[13.5739,65.7651,692.936],[13.5956,65.766,703.1459],[13.5967,65.7615,708.1833],[13.6076,65.762,668.1512],[13.6109,65.7485,619.5786],[13.6218,65.749,748.6732],[13.6261,65.7311,948.8813],[13.6479,65.732,894.0906],[13.6457,65.7409,981.2205],[13.6566,65.7413,926.6457],[13.6544,65.7503,1191.8687],[13.6653,65.7507,1105.3199],[13.6642,65.7552,1052.7367],[13.6968,65.7565,1044.8837],[13.6957,65.761,909.90239999999994],[13.7175,65.7618,746.7141],[13.7164,65.7663,768.3856],[13.7381,65.7672,855.8763],[13.7338,65.7851,1235.3483],[13.7447,65.7855,1089.0724],[13.7404,65.8034,735.8262],[13.7513,65.8038,681.1245],[13.7502,65.8083,602.9277],[13.7611,65.8088,611.8223],[13.76,65.8132,562.7145],[13.7709,65.8137,555.1337],[13.7677,65.8271,566.3382],[13.7568,65.8267,616.233],[13.7546,65.8356,629.1992],[13.7437,65.8352,634.7705],[13.7427,65.8396,632.5882],[13.7317,65.8392,627.2566],[13.7307,65.8437,638.7153],[13.7197,65.8433,693.6372],[13.7187,65.8477,697.2695],[13.6968,65.8469,748.6547],[13.6957,65.8513,756.5803],[13.6848,65.8509,783.2634],[13.6826,65.8598,715.2672],[13.6717,65.8594,679.024],[13.6695,65.8684,811.947],[13.6805,65.8688,744.8306],[13.6772,65.8822,835.9727],[13.6881,65.8827,781.9576],[13.687,65.8871,692.9862],[13.6105,65.8841,618.249],[13.6116,65.8796,635.1639],[13.5898,65.8787,511.177],[13.5831,65.9056,691.3707],[13.594,65.906,644.7723],[13.5907,65.9194,803.1349],[13.6017,65.9199,778.5948],[13.5994,65.9288,852.1816],[13.6432,65.9306,969.4544],[13.6443,65.9261,797.7322],[13.6772,65.9274,876.4525],[13.6783,65.9229,811.1957],[13.7002,65.9238,638.2482],[13.6958,65.9417,663.2138],[13.7067,65.9421,557.4763],[13.7045,65.9511,644.7036],[13.7155,65.9515,541.9534],[13.7122,65.9649,723.8586],[13.7013,65.9645,756.267],[13.6925,66.0003,433.4301],[13.7035,66.0007,501.1979],[13.7024,66.0052,496.4487],[13.7134,66.0056,596.6655],[13.7057,66.037,651.4267],[13.7046,66.0414,638.5683],[13.6936,66.041,549.2733],[13.6815,66.0902,496.0],[13.6925,66.0907,496.0],[13.6859,66.1175,662.0375],[13.6969,66.1179,554.717],[13.6947,66.1269,581.9838],[13.7057,66.1273,520.8535],[13.7035,66.1363,522.2678],[13.7146,66.1367,457.9229],[13.7135,66.1412,515.8216],[13.6914,66.1403,547.467],[13.6869,66.1585,96.2658],[13.6792,66.1625,0.0],[13.6729,66.1604,61.0239],[13.6458,66.1604,84.1042],[13.6396,66.1563,136.6476],[13.6229,66.1563,0.0],[13.613,66.1516,0.0],[13.6161,66.1484,191.0704],[13.5979,66.1479,10.4805],[13.5943,66.1453,0.0],[13.5911,66.1401,0.0],[13.5859,66.1391,0.0],[13.5849,66.1359,19.5102],[13.5734,66.1349,0.0],[13.5682,66.1234,81.9908],[13.563,66.1224,0.0],[13.5641,66.1193,87.4889],[13.5589,66.1182,0.0],[13.5625,66.1146,51.5422],[13.5578,66.1068,0.0],[13.55,66.1062,0.0],[13.5401,66.1088,57.2232],[13.5401,66.112,0.0],[13.5453,66.1203,0.0],[13.538,66.1255,115.3634],[13.5396,66.1292,9.4707],[13.5359,66.1328,109.813],[13.5411,66.1339,0.0],[13.5432,66.1359,0.0],[13.5505,66.1495,81.3894],[13.562,66.1505,0.0],[13.5651,66.1557,0.0],[13.576599999999999,66.1589,0.0],[13.5827,66.1732,88.2489],[13.593,66.1777,87.7436],[13.5819,66.1766,254.726],[13.5808,66.1811,417.165],[13.5698,66.1807,521.2212],[13.5709,66.1762,295.1096],[13.5488,66.1753,505.3396],[13.5499,66.1708,297.5156],[13.5389,66.1704,393.8953],[13.54,66.1659,313.826],[13.5179,66.165,484.5501],[13.5191,66.1605,339.912],[13.508,66.1601,500.2548],[13.5091,66.1556,374.067],[13.4871,66.1547,685.9341],[13.4882,66.1503,608.0989],[13.4772,66.1498,757.8749],[13.4783,66.1453,656.6027],[13.4342,66.1435,741.7831],[13.4353,66.1391,587.9122],[13.4243,66.1386,572.8474],[13.4254,66.1341,528.2107],[13.4144,66.1337,687.1137],[13.4156,66.1292,734.4427],[13.4045,66.1287,904.193],[13.4057,66.1243,822.9341],[13.3947,66.1238,912.8979],[13.3958,66.1193,888.8172],[13.3738,66.1184,952.764],[13.3749,66.114,795.9323],[13.3639,66.1135,873.5383],[13.3651,66.109,818.0305],[13.343,66.1081,911.2251],[13.3454,66.0992,767.8128],[13.3343,66.0987,740.1573],[13.3355,66.0942,700.8221],[13.3245,66.0938,732.06],[13.3257,66.0893,717.6674],[13.3147,66.0889,754.8837],[13.3158,66.0844,706.1711],[13.3048,66.0839,750.6768],[13.306,66.0794,701.7891],[13.295,66.079,715.6461],[13.2961,66.0745,705.8171],[13.2851,66.0741,733.3358],[13.2863,66.0696,728.9188],[13.2753,66.0691,772.0983],[13.2765,66.0646,737.1426],[13.2655,66.0642,788.4049],[13.2678,66.0552,674.7621],[13.2568,66.0548,700.5672],[13.2604,66.0414,653.1163],[13.2384,66.0404,634.3391],[13.2396,66.036,586.0889],[13.2176,66.035,617.59],[13.2188,66.0306,703.9208],[13.2078,66.0301,785.0375],[13.2125,66.0122,720.5768],[13.201599999999999,66.0117,766.8606],[13.2039,66.0028,419.7999],[13.193,66.0023,643.1674],[13.1941,65.9979,526.3562],[13.1832,65.9974,733.8053],[13.1844,65.9929,413.9879],[13.1624,65.992,700.1456],[13.1636,65.9875,596.7985],[13.1527,65.987,732.6442],[13.1503,65.996,840.044],[13.1393,65.9955,850.838],[13.1369,66.0044,872.3418],[13.1259,66.004,887.7738],[13.1271,65.9995,881.8929],[13.1052,65.9986,791.3206],[13.1064,65.9941,792.9138],[13.0845,65.9931,713.4153],[13.0857,65.9887,674.9394],[13.0638,65.9877,633.7387],[13.065,65.9832,601.282],[13.054,65.9828,586.0346],[13.0552,65.9783,609.0836],[13.0223,65.9768,506.7384],[13.0211,65.9813,638.7197],[12.9992,65.9804,510.3135],[12.998,65.9848,501.7473],[12.987,65.9843,447.0283],[12.9882,65.9799,437.5462],[12.9663,65.9789,460.9311],[12.9676,65.9744,252.9895],[12.9566,65.9739,317.9782],[12.9578,65.9695,130.854],[12.9471,65.968,81.6171],[12.9395,65.9719,101.464],[12.9085,65.9771,247.5628],[12.9029,65.9836,64.9068],[12.8943,65.9828,0.0],[12.8917,65.9792,0.0],[12.8953,65.9766,43.2415],[12.8943,65.9714,0.0],[12.8984,65.9693,0.0],[12.9104,65.9708,0.0],[12.9146,65.9688,0.0],[12.9396,65.9688,0.0],[12.9422,65.9651,0.0],[12.9495,65.9641,0.0],[12.9578,65.9599,0.0],[12.9589,65.9568,0.0],[12.9646,65.9563,0.0],[12.9714,65.9526,0.0],[12.9771,65.9521,8.325],[12.9839,65.9484,5.5096],[12.9917,65.9479,0.0],[12.9958,65.9458,0.0],[13.0,65.9479,0.0],[13.0063,65.9479,56.3578],[13.0104,65.9458,0.0],[13.0375,65.9458,0.0],[13.0417,65.9479,11.6875],[13.0479,65.9479,0.0],[13.0661,65.9391,63.9517],[13.0651,65.9359,0.0],[13.075,65.9333,0.0],[13.0854,65.9333,0.0],[13.0896,65.9313,0.0],[13.0958,65.9313,0.0],[13.1036,65.9339,0.0],[13.1068,65.937,0.0],[13.1271,65.9437,0.0],[13.1328,65.9432,5.7524],[13.1328,65.9401,0.0],[13.1276,65.9297,0.0],[13.1307,65.9286,0.0],[13.1297,65.9234,0.0],[13.1328,65.9224,0.0],[13.1339,65.9193,0.0],[13.1396,65.9167,0.0],[13.1453,65.9161,0.0],[13.1563,65.9104,0.0],[13.1667,65.9104,0.0],[13.1724,65.9078,7.1216],[13.1651,65.9036,2.7673],[13.1599,65.8922,127.6151],[13.1547,65.8901,0.0],[13.1578,65.8891,0.0],[13.1568,65.8859,0.0],[13.1599,65.8849,32.0885],[13.1589,65.8818,0.0],[13.1661,65.8766,1.5699],[13.1651,65.8734,0.0],[13.1708,65.8708,0.0],[13.1786,65.8703,3.7084],[13.187,65.8661,0.0],[13.1849,65.863,8.439],[13.1797,65.8609,0.0],[13.1911,65.8547,0.0],[13.1828,65.8401,0.0],[13.1797,65.8401,5.1063],[13.1807,65.8453,0.0],[13.1771,65.8458,0.0],[13.1729,65.8438,86.0232],[13.1672,65.8464,57.1589],[13.1682,65.8495,0.0],[13.1646,65.8521,0.0],[13.1661,65.8557,0.0],[13.1422,65.8672,110.7441],[13.1432,65.8724,0.0],[13.1401,65.8734,0.0],[13.1411,65.8766,0.0],[13.1339,65.8818,3.6664],[13.1349,65.887,0.0],[13.1276,65.8901,51.3709],[13.1286,65.8953,0.0],[13.1167,65.8917,12.9343],[13.1042,65.8917,0.0],[13.1,65.8875,22.0272],[13.0938,65.8896,0.0],[13.0792,65.8896,0.0],[13.075,65.8917,0.0],[13.0708,65.8917,0.0],[13.0526,65.9005,99.5458],[13.0516,65.9036,0.0],[13.0484,65.9047,67.0001],[13.0536,65.9161,0.0],[13.0453,65.9203,0.0],[13.038,65.9213,12.8854],[13.0313,65.925,0.0],[13.0208,65.925,64.1527],[13.0167,65.9271,0.0],[13.0104,65.925,74.0614],[13.0042,65.925,97.6007],[13.0,65.9271,0.0],[12.9958,65.925,155.4642],[12.9896,65.925,68.7216],[12.9812,65.9292,5.2286],[12.9771,65.9271,64.5519],[12.9646,65.9271,0.0],[12.9583,65.925,3.826],[12.95,65.9292,0.0],[12.9458,65.9271,0.916],[12.9438,65.9292,0.0],[12.9453,65.9328,0.0],[12.9422,65.9339,0.0],[12.9411,65.937,8.9709],[12.9354,65.9396,23.8967],[12.9193,65.9401,133.082],[12.9182,65.9432,0.0],[12.9151,65.9443,146.4136],[12.9161,65.9474,0.0],[12.9047,65.9526,0.0],[12.9057,65.9557,0.0],[12.8958,65.9604,18.785],[12.8896,65.9604,93.5209],[12.8833,65.9584,132.8872],[12.8849,65.9527,121.8001],[12.8739,65.9522,78.2266],[12.8776,65.9388,186.6056],[12.8886,65.9393,157.444],[12.891,65.9303,405.3072],[12.8801,65.9298,302.1426],[12.8813,65.9254,273.6933],[12.8704,65.9249,266.9218],[12.8729,65.9159,476.6736],[12.8619,65.9154,465.7953],[12.8632,65.911,447.0229],[12.8523,65.9105,438.6485],[12.8535,65.906,120.5421],[12.8644,65.9065,139.0477],[12.8657,65.902,117.4442],[12.8766,65.9025,260.4223],[12.8778,65.8981,152.519],[12.8887,65.8986,299.8379],[12.89,65.8941,346.4079],[12.9009,65.8946,252.8376],[12.9058,65.8767,286.9594],[12.8622,65.8747,447.4461],[12.8609,65.8792,526.8963],[12.8173,65.8772,361.4053],[12.8198,65.8683,331.7528],[12.8088,65.8678,543.3426],[12.8113,65.8589,452.8779],[12.8004,65.8584,656.0709],[12.8029,65.8494,622.4773],[12.792,65.8489,553.9621],[12.7945,65.84,286.9786],[12.8054,65.8405,526.7805],[12.8066,65.836,347.6572],[12.8175,65.8365,465.3472],[12.8188,65.8321,405.8368],[12.8406,65.8331,515.1497],[12.8418,65.8286,511.4816],[12.8527,65.8291,591.9365],[12.8539,65.8246,567.4103],[12.8648,65.8251,629.6758],[12.8685,65.8117,559.609],[12.8794,65.8122,526.9989],[12.8818,65.8033,502.5722],[12.8927,65.8037,484.7346],[12.8952,65.7948,378.7188],[12.906,65.7953,276.561],[12.9134,65.7685,378.7588],[12.9025,65.768,523.697],[12.9062,65.7546,331.4748],[12.8953,65.7541,369.7745],[12.8965,65.7496,320.3797],[12.8531,65.7477,546.079],[12.8543,65.7432,327.9389],[12.8218,65.7417,576.0781],[12.823,65.7373,570.204],[12.8013,65.7363,656.3816],[12.8025,65.7318,602.1944],[12.7917,65.7313,670.4167],[12.7954,65.7179,747.4304]]]]}
,"properties": {"GID_2": "NOR.10.42_1","GID_0": "NOR","country": "Norway","GID_1": "NOR.10_1","province": "Nordland","NL_NAME_1": "NA","county": "Vefsn","VARNAME_2": "NA","NL_NAME_2": "NA","TYPE_2": "Kommuner","ENGTYPE_2": "Municipality","CC_2": "NA","HASC_2": "NO.NO.VF","name": "Vefsn.county","area_km2": 1668.898,"hist_schema_id": "Elevation0-9000","hist_area_km2": {"0": 16.653,"25": 35.448,"50": 60.526,"75": 48.333,"100": 44.889,"125": 51.197,"150": 47.237,"175": 51.46,"200": 61.948,"225": 51.666,"250": 51.53,"275": 54.687,"300": 53.463,"325": 57.363,"350": 54.431,"375": 56.054,"400": 55.974,"425": 56.537,"450": 58.873,"475": 58.085,"500": 57.492,"525": 52.843,"550": 51.906,"575": 50.95,"600": 47.014,"625": 43.775,"650": 44.643,"675": 44.626,"700": 37.752,"725": 32.314,"750": 25.739,"775": 22.875,"800": 20.597,"825": 18.96,"850": 15.776,"875": 13.274,"900": 10.306,"925": 8.886,"950": 7.457,"975": 5.954,"1000": 4.662,"1025": 4.045,"1050": 3.377,"1075": 3.271,"1100": 2.234,"1125": 2.027,"1150": 2.06,"1175": 1.801,"1200": 1.391,"1225": 1.094,"1250": 0.903,"1275": 0.756,"1300": 0.791,"1325": 0.522,"1350": 0.244,"1375": 0.113,"1400": 0.078,"1425": 0.035}}}