{"type": "Feature","bbox": [9.1221,59.8966,9.8629,60.3642],"geometry": {"type": "MultiPolygon","coordinates": [[[[9.149,60.3598,1090.6501],[9.1505,60.3554,1085.2051],[9.1326,60.3539,1028.8314],[9.1341,60.3495,1011.9603],[9.1251,60.3488,1027.7743],[9.1311,60.3311,1090.7122],[9.1221,60.3303,1090.0192],[9.1251,60.3215,1088.7623],[9.134,60.3222,1072.9886],[9.1415,60.3001,986.6423],[9.1504,60.3008,1074.7679],[9.1519,60.2964,1071.4962],[9.1609,60.2971,1010.744],[9.1653,60.2838,983.0693],[9.1743,60.2846,972.5721],[9.1772,60.2757,1067.772],[9.1683,60.275,1057.8271],[9.1757,60.2529,969.1606],[9.1667,60.2521,927.2773],[9.1741,60.23,893.0493],[9.1652,60.2293,847.5249],[9.1785,60.1894,927.2609],[9.1874,60.1902,831.6334],[9.1933,60.1725,803.4501],[9.2022,60.1732,839.7297],[9.2095,60.1511,769.1893],[9.2185,60.1518,719.5086],[9.2258,60.1297,859.2666],[9.2347,60.1304,917.0038],[9.2508,60.0817,666.9086],[9.2597,60.0824,688.7188],[9.2626,60.0736,671.5001],[9.2715,60.0743,669.2188],[9.2729,60.0699,658.7151],[9.2996,60.072,677.6655],[9.3011,60.0676,678.2425],[9.3189,60.069,750.5361],[9.3174,60.0735,740.4739],[9.3441,60.0756,748.9837],[9.3455,60.0712,767.032],[9.3544,60.0719,818.814],[9.3588,60.0586,752.0639],[9.3677,60.0594,669.37],[9.3691,60.0549,706.7488],[9.378,60.0557,675.3558],[9.3794,60.0512,693.6437],[9.3883,60.0519,602.425],[9.3955,60.0298,606.1202],[9.4044,60.0305,502.3889],[9.4073,60.0217,470.6115],[9.4161,60.0224,461.4838],[9.4204,60.0091,480.063],[9.4293,60.0098,491.7002],[9.4336,59.9965,419.7557],[9.4425,59.9972,381.8667],[9.4453,59.9884,409.8463],[9.4808,59.9912,413.7442],[9.4823,59.9868,442.8084],[9.4911,59.9875,384.2908],[9.4926,59.9831,368.8779],[9.5103,59.9845,307.4572],[9.5146,59.9712,367.5031],[9.5234,59.9719,343.6793],[9.5249,59.9675,380.6002],[9.5426,59.9689,346.6784],[9.544,59.9645,382.5199],[9.5795,59.9673,364.8481],[9.5809,59.9629,377.856],[9.5898,59.9636,364.8587],[9.5926,59.9547,374.8966],[9.6015,59.9554,398.8606],[9.6029,59.951,411.4582],[9.6117,59.9517,397.5169],[9.6145,59.9428,431.4517],[9.6234,59.9435,491.2966],[9.6248,59.9391,486.0117],[9.6337,59.9398,453.7603],[9.6351,59.9354,414.0612],[9.6439,59.9361,394.8605],[9.6453,59.9316,359.8625],[9.6542,59.9323,421.7841],[9.657,59.9235,282.4155],[9.6658,59.9242,301.4686],[9.6686,59.9153,324.0399],[9.6775,59.916,308.6194],[9.6789,59.9116,318.9094],[9.6877,59.9123,253.7414],[9.6891,59.9078,274.7552],[9.698,59.9085,221.0643],[9.6994,59.9041,222.9654],[9.7082,59.9048,205.6148],[9.7096,59.9004,266.6424],[9.7185,59.9011,179.1835],[9.7199,59.8966,221.3088],[9.7287,59.8973,175.4926],[9.719,59.9283,236.8424],[9.7102,59.9276,248.1707],[9.7074,59.9365,292.0046],[9.7251,59.9379,298.1997],[9.7237,59.9423,313.4539],[9.7503,59.9444,283.7504],[9.749,59.9489,280.6984],[9.7578,59.9495,272.007],[9.7564,59.954,191.8896],[9.7831,59.9561,114.6505],[9.7844,59.9516,204.5871],[9.8022,59.953,69.0139],[9.8036,59.9486,78.6853],[9.8302,59.9506,92.7201],[9.8391,59.9513,129.98],[9.8377,59.9558,162.9141],[9.8554,59.9571,359.1526],[9.8541,59.9616,365.1007],[9.8629,59.9623,418.436],[9.8588,59.9756,439.2469],[9.8499,59.9749,392.0024],[9.8472,59.9837,396.4531],[9.8383,59.983,354.1649],[9.8356,59.9919,326.9711],[9.8267,59.9912,315.946],[9.8239,60.0001,365.0751],[9.815,59.9994,364.1137],[9.8123,60.0083,454.6548],[9.8034,60.0076,387.1097],[9.8006,60.0165,446.1724],[9.7917,60.0158,359.6633],[9.7793,60.0557,375.6535],[9.7704,60.055,415.2915],[9.7648,60.0727,293.3228],[9.7559,60.072,294.548],[9.7545,60.0764,299.6828],[9.7456,60.0758,304.1335],[9.7442,60.0802,332.6974],[9.7353,60.0795,334.6233],[9.7339,60.0839,376.8096],[9.725,60.0832,385.1312],[9.7236,60.0877,395.2101],[9.7147,60.087,449.9045],[9.7133,60.0914,442.1386],[9.7044,60.0907,427.6248],[9.703,60.0951,425.5543],[9.6852,60.0937,322.7737],[9.6838,60.0982,283.2859],[9.6749,60.0975,270.0929],[9.6735,60.1019,288.7876],[9.6646,60.1012,287.8678],[9.6632,60.1056,282.1927],[9.6543,60.1049,313.9613],[9.6529,60.1094,358.1803],[9.644,60.1087,404.4271],[9.6426,60.1131,384.6432],[9.6336,60.1124,475.7066],[9.6322,60.1168,488.8409],[9.6233,60.1161,522.063],[9.6219,60.1206,523.1147],[9.613,60.1199,509.7613],[9.6116,60.1243,506.1696],[9.5938,60.1229,478.0536],[9.5923,60.1273,507.1066],[9.5834,60.1266,430.5532],[9.582,60.131,421.6833],[9.5731,60.1303,372.311],[9.5717,60.1348,296.8661],[9.5628,60.1341,239.381],[9.5613,60.1385,215.3347],[9.5524,60.1378,221.4589],[9.551,60.1422,328.7939],[9.5421,60.1415,337.6263],[9.5407,60.1459,368.027],[9.5317,60.1452,377.3874],[9.5289,60.1541,469.0773],[9.52,60.1534,436.639],[9.5185,60.1578,486.5619],[9.5096,60.1571,467.9124],[9.5082,60.1615,498.2315],[9.4993,60.1608,466.0659],[9.4978,60.1653,586.1346],[9.4889,60.1645,481.6738],[9.4875,60.169,527.305],[9.4964,60.1697,514.196],[9.4936,60.1785,620.3951],[9.5025,60.1793,554.2669],[9.4996,60.1881,742.6874],[9.5086,60.1888,753.6473],[9.5,60.2154,766.2209],[9.5089,60.2161,783.0168],[9.4989,60.2471,1193.4729],[9.4899,60.2464,1129.1886],[9.4799,60.2774,1347.0792],[9.4709,60.2767,1369.665],[9.4695,60.2811,1306.478],[9.4605,60.2804,1321.8726],[9.4548,60.2981,1369.434],[9.4458,60.2974,1254.3446],[9.4444,60.3019,1238.3342],[9.4354,60.3011,1232.0867],[9.4339,60.3056,1279.9287],[9.416,60.3041,1364.642],[9.4146,60.3086,1306.2872],[9.4056,60.3079,1336.0039],[9.4042,60.3123,1388.1254],[9.3952,60.3116,1313.1803],[9.3938,60.316,1374.1246],[9.3848,60.3153,1220.7808],[9.3833,60.3197,1314.8536],[9.3744,60.319,1199.4423],[9.3715,60.3278,1219.8549],[9.3625,60.3271,1154.3235],[9.361,60.3316,1142.8008],[9.3521,60.3308,1101.802],[9.3506,60.3353,1090.7463],[9.3327,60.3338,965.9123],[9.3312,60.3382,946.8904],[9.3133,60.3368,1083.0332],[9.3118,60.3412,1046.7515],[9.2939,60.3398,1014.6937],[9.2924,60.3442,984.1843],[9.2835,60.3435,1046.7471],[9.282,60.3479,1041.8051],[9.273,60.3472,1032.2777],[9.2715,60.3516,1020.5944],[9.2626,60.3509,1023.0966],[9.2611,60.3553,1099.395],[9.2252,60.3524,1068.1266],[9.2238,60.3568,1042.5653],[9.2148,60.3561,1026.0242],[9.2133,60.3605,977.4469],[9.2043,60.3598,939.9453],[9.2029,60.3642,922.1304],[9.149,60.3598,1090.6501]]]]}
,"properties": {"GID_2": "NOR.4.21_1","GID_0": "NOR","country": "Norway","GID_1": "NOR.4_1","province": "Buskerud","NL_NAME_1": "NA","county": "Sigdal","VARNAME_2": "NA","NL_NAME_2": "NA","TYPE_2": "Kommuner","ENGTYPE_2": "Municipality","CC_2": "NA","HASC_2": "NO.BU.SI","name": "Sigdal.county","area_km2": 853.3792,"hist_schema_id": "Elevation0-9000","hist_area_km2": {"75": 3.3537,"100": 18.9467,"125": 20.5043,"150": 21.1801,"175": 24.4467,"200": 17.432,"225": 20.4809,"250": 22.1315,"275": 25.7411,"300": 28.2237,"325": 26.184,"350": 25.442,"375": 31.8223,"400": 29.248,"425": 34.2024,"450": 30.1486,"475": 26.5479,"500": 23.8991,"525": 20.2864,"550": 18.1038,"575": 15.1166,"600": 14.6568,"625": 14.2109,"650": 15.6224,"675": 18.6251,"700": 19.1569,"725": 19.9329,"750": 22.5789,"775": 21.116,"800": 18.8418,"825": 19.4675,"850": 19.3396,"875": 16.2826,"900": 16.1295,"925": 15.8985,"950": 17.4158,"975": 19.4806,"1000": 17.4974,"1025": 17.8559,"1050": 9.9988,"1075": 7.6665,"1100": 5.5137,"1125": 4.3592,"1150": 3.8655,"1175": 2.8782,"1200": 2.8568,"1225": 2.0588,"1250": 1.2817,"1275": 1.2611,"1300": 1.0088,"1325": 1.1244,"1350": 0.8723,"1375": 0.7147,"1400": 0.3679}}}