{"type":"Feature","properties":{"GID_2":"NOR.7.27_1","GID_0":"NOR","country":"Norway","GID_1":"NOR.7_1","province":"Hordaland","NL_NAME_1":"NA","county":"Stord","VARNAME_2":"NA","NL_NAME_2":"NA","TYPE_2":"Kommuner","ENGTYPE_2":"Municipality","CC_2":"NA","HASC_2":"NO.HO.ST","name":"Stord.county"},
"geometry":{"type": "MultiPolygon","coordinates": [[[[5.4319,59.7265,4.9384],[5.4319,59.7285,0.0],[5.4297,59.7285,10.0527],[5.4236,59.7249,2.0906],[5.4236,59.7226,1.5692],[5.4342,59.721,0.0],[5.4386,59.7251,1.4936],[5.4381,59.7265,2.4011],[5.4319,59.7265,4.9384]]],
[[[5.3936,59.7435,6.0236],[5.3931,59.7449,2.8208],[5.3864,59.7446,2.2261],[5.3864,59.7432,16.5412],[5.3819,59.7421,0.0],[5.3847,59.7401,0.0],[5.3881,59.741,3.6772],[5.3892,59.7388,0.0],[5.3869,59.7363,2.5905],[5.3925,59.7354,7.1146],[5.3931,59.7318,0.0],[5.3958,59.7326,4.7358],[5.3958,59.7343,9.4061],[5.4014,59.7388,1.9435],[5.4081,59.7368,3.3052],[5.4097,59.7335,1.0653],[5.4125,59.7324,1.0653],[5.4181,59.7326,2.538],[5.4197,59.736,3.3953],[5.4247,59.7376,13.7319],[5.4203,59.7426,0.0],[5.4147,59.7438,0.0],[5.4031,59.7426,0.0],[5.3986,59.7396,1.9435],[5.3942,59.7401,21.9397],[5.3936,59.7435,6.0236]]],
[[[5.5358,59.7785,11.6093],[5.5331,59.779,0.0],[5.5308,59.7782,0.0],[5.5375,59.7771,0.0],[5.5358,59.7785,11.6093]]],
[[[5.3522,59.8075,6.4342],[5.3403,59.8063,11.0787],[5.3381,59.804,3.6553],[5.3325,59.8037,0.0],[5.3342,59.7996,0.0],[5.3308,59.7974,4.5782],[5.3342,59.7938,8.2427],[5.3325,59.7926,0.0],[5.3336,59.7901,0.0],[5.3364,59.789,4.4844],[5.3358,59.7863,2.0213],[5.3381,59.7857,20.2317],[5.3353,59.7843,0.0],[5.3492,59.7774,0.0],[5.3542,59.7807,11.1217],[5.3531,59.7826,8.9325],[5.3564,59.7829,2.5991],[5.3575,59.786,0.9404],[5.3658,59.7865,3.4862],[5.3653,59.7846,0.0],[5.3675,59.7835,0.0],[5.3625,59.7782,2.6551],[5.3647,59.776,21.2414],[5.3636,59.7746,13.1215],[5.3664,59.7726,0.0],[5.3786,59.7726,3.3888],[5.3825,59.7704,7.722],[5.3819,59.7685,0.0],[5.3842,59.766,10.8585],[5.3942,59.7671,10.1466],[5.3953,59.7629,3.1748],[5.4081,59.7621,16.9265],[5.4014,59.7613,0.777],[5.4036,59.7596,1.8141],[5.4014,59.7571,0.0],[5.4031,59.7504,0.0],[5.4297,59.7496,4.8439],[5.4353,59.7482,0.0],[5.4403,59.749,6.9323],[5.4597,59.7463,3.0244],[5.4697,59.749,0.0],[5.4658,59.7507,10.4367],[5.4786,59.7538,3.0906],[5.4797,59.7571,0.0],[5.4781,59.7585,2.8517],[5.4825,59.7604,0.0],[5.4808,59.7565,0.0],[5.4897,59.7499,0.0],[5.4947,59.7551,1.7646],[5.4908,59.759,0.0],[5.4881,59.7593,0.0],[5.4881,59.7613,0.3014],[5.4947,59.7601,0.0],[5.4958,59.7621,0.0],[5.4986,59.7604,0.0],[5.5047,59.7613,0.0],[5.5064,59.7626,0.0],[5.5058,59.766,0.0],[5.5008,59.7679,3.3121],[5.5047,59.7699,0.0],[5.5114,59.7699,0.0],[5.5175,59.7729,11.7186],[5.5153,59.7746,3.244],[5.5181,59.776,0.0],[5.5142,59.7771,0.0],[5.5125,59.7793,0.0],[5.5086,59.7804,0.1552],[5.5036,59.7793,0.0],[5.5075,59.786,20.1323],[5.5213,59.7896,0.0],[5.5231,59.7879,1.3226],[5.5231,59.7849,0.0],[5.5258,59.7843,0.0],[5.5247,59.7824,0.0],[5.5264,59.7821,0.0],[5.5336,59.7871,0.4634],[5.5397,59.7863,0.0],[5.5425,59.7879,6.6593],[5.5381,59.7901,9.9242],[5.5392,59.7932,0.0],[5.5364,59.7946,0.0],[5.5414,59.7951,0.0],[5.5414,59.7965,3.2505],[5.5342,59.8007,0.265],[5.5358,59.8026,1.5542],[5.5397,59.8015,0.0],[5.5408,59.8029,1.2726],[5.5358,59.804,1.005],[5.5331,59.8065,4.7599],[5.5347,59.8112,0.0],[5.5303,59.8146,1.3822],[5.5325,59.8165,0.0],[5.5242,59.8204,5.2725],[5.5308,59.8279,1.9871],[5.5319,59.8363,19.8259],[5.5347,59.8393,0.0],[5.5342,59.8468,7.1206],[5.5308,59.8499,11.889],[5.5314,59.854,3.9768],[5.5281,59.8579,6.4035],[5.5275,59.8635,0.0],[5.5292,59.8651,8.0681],[5.5297,59.8724,15.6133],[5.5242,59.8765,5.693],[5.5258,59.879,6.9399],[5.5253,59.884,0.0],[5.5197,59.8882,21.2536],[5.5203,59.8899,0.0],[5.5158,59.8924,1.0024],[5.5164,59.8951,3.2582],[5.5114,59.8982,37.3135],[5.5097,59.9015,0.0],[5.5075,59.9024,32.8827],[5.5075,59.9049,22.6115],[5.5008,59.9093,10.3255],[5.5003,59.9115,0.0],[5.4908,59.914,8.2817],[5.4847,59.9189,14.308],[5.483,59.9187,40.762],[5.4849,59.9143,105.1791],[5.4762,59.9133,325.1806],[5.4781,59.9089,307.5019],[5.4694,59.908,430.9526],[5.4733,59.8992,508.9789],[5.4645,59.8982,718.5432],[5.4665,59.8938,567.7662],[5.4577,59.8929,663.0421],[5.4597,59.8885,651.9079],[5.4509,59.8875,580.3515],[5.4548,59.8788,555.3486],[5.4461,59.8778,496.2548],[5.448,59.8734,508.1201],[5.4393,59.8724,311.1839],[5.4412,59.8681,401.9014],[5.4325,59.8671,330.1323],[5.4364,59.8583,339.6794],[5.4276,59.8573,409.6688],[5.4296,59.853,424.8036],[5.4208,59.852,405.5925],[5.4228,59.8476,437.5871],[5.3878,59.8437,195.3074],[5.3898,59.8393,162.401],[5.3723,59.8373,71.9819],[5.3743,59.833,167.1269],[5.3655,59.832,99.4596],[5.3675,59.8276,78.5167],[5.3588,59.8266,26.765],[5.3627,59.8179,51.6283],[5.3539,59.8169,44.6496],[5.3579,59.8081,13.6285],[5.3522,59.8075,6.4342]]],
[[[5.5397,59.781,3.0293],[5.5369,59.7813,4.3352],[5.5375,59.779,2.9457],[5.5431,59.7788,0.0],[5.5431,59.7796,0.0],[5.5397,59.781,3.0293]]],
[[[5.5408,59.7851,5.6184],[5.5381,59.786,0.472],[5.5364,59.7843,5.7829],[5.5408,59.7829,0.0],[5.5408,59.7851,5.6184]]],
[[[5.6147,59.8401,4.2215],[5.6125,59.841,0.4816],[5.6136,59.8385,0.0],[5.6225,59.8382,1.8323],[5.6225,59.8399,5.7424],[5.6208,59.8404,5.7424],[5.6147,59.8401,4.2215]]],
[[[5.5875,59.8774,12.8893],[5.5781,59.8774,0.0],[5.5758,59.8735,4.9397],[5.5675,59.8662,17.4174],[5.5619,59.8682,0.8335],[5.5564,59.8668,4.9882],[5.5531,59.8568,2.2629],[5.5536,59.8557,2.2629],[5.5581,59.8576,2.5925],[5.5625,59.8565,2.6674],[5.5625,59.8549,5.5645],[5.5592,59.8521,12.7987],[5.5592,59.8468,1.6621],[5.5625,59.8457,26.3855],[5.5619,59.8429,1.9554],[5.5714,59.8426,30.8348],[5.5686,59.8396,0.0],[5.5719,59.8351,10.2182],[5.5675,59.8346,3.9704],[5.5658,59.8326,0.0],[5.5703,59.8321,6.3708],[5.5719,59.8282,1.6772],[5.5747,59.8274,8.7281],[5.5736,59.8238,11.8844],[5.5775,59.8185,0.0],[5.5814,59.8157,3.5451],[5.5853,59.8151,0.0],[5.5897,59.8154,0.0],[5.5947,59.8187,0.0],[5.5942,59.821,0.0],[5.5981,59.8224,4.0192],[5.5997,59.8262,19.6095],[5.6031,59.8282,0.0],[5.6031,59.8321,0.0],[5.6042,59.8324,0.0],[5.6025,59.8329,0.0],[5.6007999999999996,59.8321,0.0],[5.5958,59.8343,6.8519],[5.5969,59.8357,9.0874],[5.6031,59.8351,0.0],[5.6042,59.8368,5.7112],[5.5997,59.8396,19.0122],[5.5958,59.8393,35.1039],[5.5925,59.8424,6.4335],[5.6047,59.8432,0.0],[5.6058,59.8446,2.6995],[5.6014,59.8462,6.7106],[5.6069,59.8462,0.0],[5.6214,59.8546,3.3212],[5.6181,59.8574,0.0],[5.6147,59.856,0.0],[5.6097,59.8601,7.515],[5.6086,59.8646,0.0],[5.6064,59.8665,0.0],[5.6064,59.8701,0.0],[5.5981,59.8732,41.7812],[5.5936,59.8771,0.0],[5.5875,59.8774,12.8893]]]]}}