{"type":"Feature","properties":{"GID_2":"NOR.8.25_1","GID_0":"NOR","country":"Norway","GID_1":"NOR.8_1","province":"MøreogRomsdal","NL_NAME_1":"NA","county":"Skodje","VARNAME_2":"NA","NL_NAME_2":"NA","TYPE_2":"Kommuner","ENGTYPE_2":"Municipality","CC_2":"NA","HASC_2":"NO.MR.SK","name":"Skodje.county"},
"geometry":{"type": "MultiPolygon","coordinates": [[[[6.5503,62.4468,398.0499],[6.5529,62.4412,10.3405],[6.5583,62.4417,0.0],[6.5729,62.4479,22.5809],[6.5833,62.4479,0.0],[6.5917,62.4521,12.8168],[6.5995,62.4526,0.0],[6.6036,62.4547,0.0],[6.6063,62.4583,0.0],[6.6208,62.4583,0.0],[6.625,62.4625,0.0],[6.65,62.4625,0.0],[6.6609,62.4682,27.7607],[6.6703,62.4693,0.0],[6.6714,62.4724,0.0],[6.6807,62.4755,0.0],[6.6818,62.4807,28.9615],[6.6896,62.4813,0.0],[6.7042,62.4875,10.3303],[6.7125,62.4875,0.0],[6.7167,62.4917,11.4183],[6.7,62.4917,12.6731],[6.6958,62.4938,0.0],[6.6917,62.4917,10.446],[6.6813,62.4917,0.0],[6.6714,62.4891,21.2635],[6.6682,62.4839,0.0],[6.6583,62.4813,0.0],[6.6458,62.4854,0.0],[6.638,62.4859,30.9456],[6.6391,62.4891,0.0],[6.6208,62.4979,28.4947],[6.6063,62.4958,0.0],[6.5938,62.5,25.0661],[6.5896,62.5,39.3611],[6.5854,62.4979,32.7621],[6.5563,62.4979,6.4302],[6.5521,62.4958,17.2639],[6.5479,62.4958,16.4355],[6.538,62.4984,7.5119],[6.5313,62.5021,0.0],[6.5229,62.5021,32.1506],[6.5203,62.5057,0.0],[6.5146,62.5062,13.1991],[6.5068,62.5036,11.9301],[6.5057,62.4984,27.676],[6.5042,62.4979,19.9132],[6.5,62.5,0.0],[6.4854,62.5,12.1434],[6.4813,62.4979,194.5206],[6.4583,62.4958,61.029],[6.4479,62.4917,94.2925],[6.4438,62.4938,0.0],[6.4396,62.4917,64.5421],[6.4304,62.4917,35.353],[6.431,62.4903,129.1967],[6.4215,62.4893,74.4958],[6.4275,62.4762,27.0],[6.4371,62.4771,30.7557],[6.4391,62.4727,27.0],[6.5058,62.4791,27.0],[6.5138,62.4616,397.7381],[6.5233,62.4625,340.1292],[6.5273,62.4537,390.9173],[6.5368,62.4546,346.7512],[6.5388,62.4502,450.9332],[6.5483,62.4512,444.0186],[6.5503,62.4468,398.0499]]],
[[[6.5792,62.5125,25.3197],[6.575,62.5125,43.9673],[6.5708,62.5146,0.0],[6.5604,62.5146,0.0],[6.5547,62.5109,10.4685],[6.5604,62.5083,0.0],[6.5729,62.5083,0.0],[6.5807,62.5109,13.8059],[6.5792,62.5125,25.3197]]],
[[[6.529,62.5226,122.5932],[6.5258,62.5223,132.442],[6.5246,62.525,155.5642],[6.5188,62.525,140.607],[6.5146,62.5229,173.9238],[6.4896,62.5208,87.7102],[6.4875,62.5187,45.7382],[6.4896,62.5167,23.4566],[6.5521,62.5167,0.0],[6.5563,62.5187,0.0],[6.5708,62.5187,0.0],[6.575,62.5208,20.0109],[6.5938,62.5208,0.0],[6.5979,62.5229,0.0],[6.6125,62.5229,8.0391],[6.6224,62.5172,12.0934],[6.6167,62.5146,29.4404],[6.6047,62.5141,0.0],[6.6047,62.5109,8.3442],[6.612,62.5099,5.7007],[6.6104,62.5062,0.0],[6.6125,62.5042,33.5784],[6.6167,62.5042,34.451],[6.6208,62.5021,0.0],[6.6313,62.5042,8.6152],[6.6354,62.5021,0.0],[6.6396,62.5042,17.3281],[6.6438,62.5021,0.0],[6.6625,62.5021,20.3128],[6.6708,62.4979,0.0],[6.675,62.4979,0.0],[6.6792,62.5,0.0],[6.7021,62.5,6.1531],[6.7036,62.4984,0.0],[6.6979,62.4979,0.0],[6.6964,62.4964,17.3516],[6.7063,62.4938,0.0],[6.7146,62.4938,0.0],[6.7245,62.4891,15.1829],[6.7193,62.487,0.0],[6.7182,62.4839,19.9095],[6.7093,62.4833,0.0],[6.7072,62.4816,13.0511],[6.7094,62.4802,50.0032],[6.7424,62.4834,265.2462],[6.7405,62.4878,65.6373],[6.7595,62.4896,190.8697],[6.7576,62.494,55.9041],[6.7671,62.4949,88.1153],[6.7632,62.5037,174.7524],[6.7727,62.5046,161.8773],[6.7688,62.5133,178.2557],[6.7879,62.5151,310.4772],[6.7859,62.5195,300.3742],[6.7954,62.5204,320.8858],[6.7935,62.5248,203.9208],[6.8221,62.5275,184.0],[6.8202,62.5319,192.5788],[6.8393,62.5337,199.2185],[6.8373,62.5381,188.5],[6.8564,62.5399,188.5],[6.8545,62.5443,188.5],[6.8449,62.5434,199.755],[6.8429,62.5478,302.8605],[6.8334,62.5469,352.1241],[6.8314,62.5513,620.0398],[6.8219,62.5504,567.1367],[6.8179,62.5592,609.7004],[6.7797,62.5556,408.7338],[6.7777,62.56,538.6262],[6.7681,62.5591,570.4938],[6.7701,62.5547,446.6474],[6.6459,62.5429,237.3521],[6.6479,62.5385,77.4317],[6.6384,62.5376,125.113],[6.6423,62.5289,59.65],[6.6233,62.527,87.9729],[6.6213,62.5314,43.0],[6.5484,62.5245,149.3213],[6.5458,62.5229,126.1009],[6.529,62.5226,122.5932]]],
[[[6.4708,62.5021,5.7413],[6.4729,62.5,54.9991],[6.4828,62.5005,4.8564],[6.4771,62.5042,3.2913],[6.4729,62.5042,0.0],[6.4708,62.5021,5.7413]]],
[[[6.4568,62.5036,23.7858],[6.4583,62.5021,0.0],[6.462,62.5026,0.0],[6.4604,62.5042,0.0],[6.4568,62.5036,23.7858]]],
[[[6.4443,62.5036,14.2245],[6.4458,62.5021,0.0],[6.45,62.5021,0.0],[6.4521,62.5042,30.671],[6.45,62.5062,0.0],[6.4443,62.5036,14.2245]]],
[[[6.4688,62.5146,15.5365],[6.4693,62.513,1.8996],[6.475,62.5125,6.1184],[6.4828,62.5161,21.4672],[6.4708,62.5167,28.216],[6.4688,62.5146,15.5365]]]]}}