{"type":"Feature","properties":{"GID_2":"NOR.14.3_1","GID_0":"NOR","country":"Norway","GID_1":"NOR.14_1","province":"SognogFjordane","NL_NAME_1":"NA","county":"Aurland","VARNAME_2":"NA","NL_NAME_2":"NA","TYPE_2":"Kommuner","ENGTYPE_2":"Municipality","CC_2":"NA","HASC_2":"NO.SF.AU","name":"Aurland.county"},
"geometry":{"type": "MultiPolygon","coordinates": [[[[7.7555,60.843,1525.5205],[7.7548,60.8449,1521.1344],[7.7457,60.8441,1579.1799],[7.744,60.8485,1520.3813],[7.7257999999999996,60.8468,1602.8781],[7.7241,60.8512,1610.0834],[7.7151,60.8504,1596.9637],[7.7133,60.8548,1594.373],[7.7043,60.854,1565.1455],[7.7025,60.8584,1602.9429],[7.6935,60.8575,1607.8916],[7.69,60.8664,1558.2213],[7.681,60.8655,1548.7281],[7.6775,60.8743,1511.6868],[7.6684,60.8735,1504.2251],[7.665,60.8823,1663.9265],[7.6559,60.8815,1629.5408],[7.6525,60.8903,1647.2889],[7.6434,60.8895,1739.8141],[7.6399,60.8983,1604.2972],[7.6308,60.8974,1609.2971],[7.6274,60.9063,1451.5],[7.6183,60.9054,1454.6926],[7.6166,60.9098,1483.4812],[7.6075,60.909,1483.2799],[7.604,60.9178,1557.5328],[7.5949,60.917,1526.8552],[7.5932,60.9214,1497.0908],[7.5841,60.9205,1465.0439],[7.5806,60.9293,1458.0675],[7.5715,60.9285,1455.3726],[7.5698,60.9329,1455.9326],[7.5607,60.932,1473.7698],[7.5572,60.9409,1485.4395],[7.5481,60.94,1561.4785],[7.5464,60.9444,1531.4493],[7.5373,60.9436,1548.0704],[7.5338,60.9524,1534.2893],[7.5247,60.9515,1555.6323],[7.5229,60.9559,1550.7411],[7.5138,60.9551,1558.9796],[7.5121,60.9595,1582.7772],[7.4939,60.9578,1531.4974],[7.4921,60.9622,1557.8843],[7.4739,60.9605,1573.0826],[7.4722,60.9649,1552.5067],[7.4631,60.9641,1522.2625],[7.4613,60.9685,1451.4247],[7.4522,60.9676,1541.6892],[7.4505,60.972,1527.606],[7.4414,60.9712,1527.7954],[7.4378,60.98,1512.1462],[7.4287,60.9791,1478.2075],[7.427,60.9835,1440.5066],[7.4179,60.9827,1433.7701],[7.4161,60.9871,1447.0824],[7.407,60.9862,1419.1117],[7.4088,60.9818,1405.481],[7.3632,60.9776,1252.6272],[7.3597,60.9864,1150.9939],[7.3506,60.9855,1154.3391],[7.3364,61.0207,955.6867],[7.3455,61.0216,966.8912],[7.3384,61.0392,762.5269],[7.3293,61.0383,843.2047],[7.3275,61.0427,892.0959],[7.3184,61.0419,965.0806],[7.3202,61.0375,885.2836],[7.3019,61.0358,1098.866],[7.3037,61.0314,963.5623],[7.2764,61.0288,1026.2131],[7.2781,61.0244,1064.1825],[7.2599,61.0227,1082.5082],[7.2581,61.0271,1080.1427],[7.249,61.0262,1092.9144],[7.2472,61.0306,1127.7748],[7.2381,61.0297,1160.0895],[7.2363,61.0341,1144.1929],[7.2272,61.0333,1169.3285],[7.2254,61.0377,1232.7379],[7.2163,61.0368,1257.109],[7.2145,61.0412,1297.8245],[7.2054,61.0403,1353.9598],[7.2036,61.0447,1222.0089],[7.1945,61.0439,1212.5485],[7.1909,61.0527,1278.458],[7.1818,61.0518,1146.9955],[7.1764,61.065,1059.8722],[7.1672,61.0641,1084.5782],[7.1654,61.0685,1086.8661],[7.1289,61.0651,984.35],[7.1308,61.0607,1109.4633],[7.1125,61.0589,1016.1196],[7.1143,61.0545,1145.7705],[7.087,61.0519,903.075],[7.0888,61.0475,1015.1589],[7.0797,61.0466,978.3131],[7.0742,61.0598,789.4011],[7.056,61.0581,432.6254],[7.0542,61.0625,317.3297],[7.0479,61.0619,42.5567],[7.0479,61.0604,22.199],[7.0516,61.0599,152.9299],[7.0536,61.0526,562.9726],[7.0505,61.0516,348.5986],[7.0495,61.0484,623.2536],[7.0375,61.0479,54.5492],[7.0354,61.0458,0.0],[7.0359,61.0443,0.0],[7.0396,61.0438,25.7454],[7.0396,61.0417,0.0],[7.0432,61.0411,95.5699],[7.0422,61.0318,0.0],[7.0536,61.0266,64.2539],[7.0599,61.0224,164.872],[7.0609,61.0193,64.1527],[7.0667,61.0187,313.3709],[7.0724,61.0203,546.9571],[7.0724,61.0172,760.6671],[7.0609,61.0161,177.099],[7.0547,61.0109,0.0],[7.062,61.0099,0.0],[7.0703,61.0057,57.075],[7.0682,61.0026,0.0],[7.0651,61.0016,0.0],[7.0651,60.9984,0.0],[7.0766,60.9974,216.1682],[7.0766,60.9943,286.7955],[7.0714,60.9932,0.0],[7.0708,60.9917,0.0],[7.0714,60.9901,0.0],[7.0786,60.987,35.5585],[7.0818,60.9776,0.0],[7.0943,60.9714,53.4471],[7.1078,60.9682,0.0],[7.112,60.9661,49.3561],[7.113,60.963,16.766],[7.125,60.9562,0.0],[7.1375,60.9562,31.3482],[7.1417,60.9542,0.0],[7.1646,60.9542,110.7557],[7.1687,60.9521,53.6774],[7.1786,60.9516,97.2313],[7.1818,60.9484,0.0],[7.1891,60.9453,64.6829],[7.1924,60.9395,0.0],[7.1965,60.9237,5.8377],[7.1929,60.9163,7.604],[7.1888,60.9155,0.0],[7.1884,60.908,0.0],[7.182,60.9047,0.0],[7.1716,60.9044,0.0],[7.1677,60.898,0.0],[7.1599,60.8922,0.0],[7.1484,60.8911,0.0],[7.1516,60.888,0.0],[7.1495,60.8818,0.0],[7.1443,60.8786,0.0],[7.1432,60.8734,0.0],[7.1401,60.8724,0.0],[7.1432,60.8693,1.6761],[7.1339,60.8703,0.0],[7.1339,60.8672,0.0],[7.137,60.8651,34.9794],[7.1229,60.8625,0.0],[7.1214,60.863,0.0],[7.1208,60.8667,0.0],[7.1307,60.8734,0.0],[7.1318,60.8807,34.0989],[7.1411,60.8839,0.0],[7.1443,60.8932,0.0],[7.1474,60.8943,0.0],[7.1495,60.8984,0.0],[7.1505,60.9036,0.0],[7.1578,60.9026,0.0],[7.1563,60.9125,0.0],[7.1568,60.9141,0.0],[7.162,60.9161,0.0],[7.1547,60.9214,0.0],[7.1557,60.9266,0.0],[7.1526,60.9286,0.0],[7.1557,60.9297,0.0],[7.1563,60.9333,0.0],[7.1547,60.937,0.0],[7.1578,60.9391,0.0],[7.1479,60.9417,0.0],[7.1396,60.9417,160.7655],[7.1354,60.9437,165.9322],[7.1271,60.9437,340.5517],[7.1188,60.9479,92.7309],[7.1089,60.9484,284.616],[7.1099,60.9516,0.0],[7.1026,60.9526,0.0],[7.1016,60.9557,0.0],[7.0943,60.9568,0.0],[7.0745,60.9682,0.0],[7.0672,60.9693,209.9321],[7.0661,60.9724,29.876],[7.063,60.9734,285.4659],[7.0641,60.9766,0.0],[7.05,60.9813,672.6805],[7.0443,60.9807,211.1086],[7.0396,60.9771,211.2985],[7.0333,60.9771,0.0],[7.0339,60.9755,0.0],[7.0396,60.975,316.9511],[7.0411,60.9734,591.0892],[7.0292,60.9667,930.914],[7.0068,60.9714,0.0],[7.0089,60.9766,0.0],[7.0203,60.9776,0.0],[7.0172,60.9807,67.2749],[7.0224,60.9818,0.0],[7.0234,60.9849,0.0],[7.0266,60.9859,0.0],[7.0297,60.9953,0.0],[7.0391,60.9984,0.0],[7.0359,61.0005,0.0],[7.0349,61.0036,0.0],[7.0318,61.0047,0.0],[7.0307,61.0078,0.0],[7.0276,61.0089,61.4791],[7.0292,61.0125,0.0],[7.0286,61.0182,0.0],[7.0193,61.0214,298.7382],[7.0224,61.0245,7.5233],[7.0167,61.025,288.2349],[7.0151,61.0255,374.8023],[7.0156,61.0267,330.7147],[7.0123,61.0264,453.9844],[7.0141,61.022,454.1571],[6.9959,61.0203,831.5005],[6.9977,61.0159,939.5422],[6.9704,61.0132,965.069],[6.9686,61.0176,887.1258],[6.914,61.0123,1227.3772],[6.9121,61.0167,1321.1381],[6.8575,61.0114,1145.6385],[6.8594,61.007,1383.2018],[6.8321,61.0043,1170.3777],[6.8339,60.9999,1401.6636],[6.7976,60.9963,1444.9677],[6.7994,60.992,1473.5548],[6.7903,60.9911,1440.6145],[6.7922,60.9867,1185.5236],[6.7831,60.9858,1291.9209],[6.7905,60.9682,1460.1516],[6.7814,60.9673,1455.821],[6.7833,60.9629,1287.01],[6.7651,60.9611,1446.765],[6.767,60.9567,1345.9014],[6.7579,60.9558,1240.3528],[6.7597,60.9514,1112.9084],[6.7507,60.9505,1053.0447],[6.7544,60.9417,851.9545],[6.7453,60.9408,776.2759],[6.7527,60.9233,751.3742],[6.7436,60.9224,726.6317],[6.7474,60.9136,705.8441],[6.7564,60.9145,715.0232],[6.7583,60.9101,710.0427],[6.7764,60.9119,996.8484],[6.7746,60.9163,1089.0594],[6.7836,60.9172,1077.5916],[6.7818,60.9216,1295.7643],[6.809,60.9243,1420.1414],[6.8237,60.8891,1066.2946],[6.7513,60.8819,1088.031],[6.7531,60.8775,1201.2708],[6.744,60.8767,1064.5785],[6.7459,60.8723,1243.4813],[6.7368,60.8714,897.562],[6.7405,60.8626,959.2787],[6.7315,60.8617,672.4717],[6.7333,60.8573,799.1431],[6.7243,60.8564,407.7206],[6.7261,60.852,704.6658],[6.7171,60.8511,448.4696],[6.7226,60.8379,925.3021],[6.7317,60.8388,977.0071],[6.7335,60.8344,1097.3174],[6.7607,60.8371,1138.1104],[6.7625,60.8327,1105.4464],[6.7987,60.8363,1159.9518],[6.8005,60.8319,1088.7821],[6.8096,60.8328,1221.9408],[6.8151,60.8196,1321.1583],[6.8784,60.8258,1338.1326],[6.8821,60.817,1212.5747],[6.8911,60.8179,1271.0752],[6.8966,60.8047,1265.9973],[6.8875,60.8039,1296.0344],[6.8912,60.7951,1234.3875],[6.8822,60.7942,1276.0725],[6.8858,60.7854,1244.1908],[6.8768,60.7845,1195.9838],[6.8804,60.7757,1206.5267],[6.8714,60.7748,1098.1183],[6.8732,60.7704,1190.6133],[6.9274,60.7757,938.6096],[6.9292,60.7714,956.1292],[6.9563,60.774,983.7908],[6.9581,60.7696,1018.3011],[6.9762,60.7714,1249.7905],[6.9834,60.7538,1311.5948],[6.9744,60.7529,1326.9603],[6.9907,60.7133,820.7507],[7.0087,60.7151,917.6036],[7.0105,60.7107,1050.9508],[7.0195,60.7116,1176.5145],[7.0213,60.7072,1270.6802],[7.0935,60.7142,1465.0001],[7.0971,60.7054,1372.1696],[7.1061,60.7062,1412.5079],[7.1097,60.6974,1461.1104],[7.1187,60.6983,1253.6951],[7.1205,60.6939,1587.6802],[7.1385,60.6957,1607.4233],[7.1403,60.6913,1572.8885],[7.1763,60.6947,1532.2477],[7.1746,60.6991,1494.4795],[7.2106,60.7026,960.4016],[7.2124,60.6982,1088.9431],[7.2395,60.7008,1329.4772],[7.2412,60.6964,1356.8761],[7.2683,60.699,1348.2573],[7.2701,60.6946,1415.6725],[7.2881,60.6963,1420.6733],[7.2899,60.6919,1536.2698],[7.3169,60.6945,1492.0911],[7.3187,60.6901,1559.5164],[7.3277,60.6909,1469.007],[7.3312,60.6821,1549.5775],[7.3583,60.6847,1493.1198],[7.36,60.6803,1486.1095],[7.3781,60.682,1483.2072],[7.3798,60.6776,1452.5001],[7.4069,60.6802,1482.8527],[7.4086,60.6758,1519.6633],[7.4266,60.6775,1499.6808],[7.4284,60.6731,1580.1135],[7.4554,60.6756,1702.1389],[7.4572,60.6712,1556.6377],[7.4662,60.6721,1632.2948],[7.4645,60.6765,1717.6821],[7.4825,60.6782,1694.3761],[7.4808,60.6826,1697.2628],[7.4898,60.6834,1712.9835],[7.488,60.6878,1661.813],[7.5061,60.6895,1582.8888],[7.5044,60.6939,1523.2133],[7.5224,60.6956,1564.4353],[7.5207,60.7,1455.5503],[7.5297,60.7008,1468.6459],[7.528,60.7052,1483.9707],[7.546,60.7069,1497.4958],[7.5443,60.7113,1426.856],[7.5533,60.7122,1411.9103],[7.5516,60.7166,1375.2882],[7.5697,60.7183,1195.549],[7.5679,60.7227,1209.026],[7.586,60.7244,1181.1859],[7.5843,60.7288,1198.5574],[7.5933,60.7296,1290.7377],[7.5916,60.734,1240.608],[7.6097,60.7357,1320.5972],[7.608,60.7401,1321.6725],[7.617,60.7409,1356.7549],[7.6153,60.7453,1489.6],[7.6243,60.7462,1426.515],[7.626,60.7418,1387.1559],[7.6441,60.7434,1466.9589],[7.6458,60.739,1385.8065],[7.6639,60.7407,1518.7615],[7.6656,60.7363,1478.083],[7.7018,60.7396,1714.6208],[7.7001,60.744,1687.0663],[7.7091,60.7449,1633.5582],[7.7074,60.7493,1600.2273],[7.7165,60.7501,1526.7046],[7.7148,60.7545,1447.5],[7.7238,60.7554,1542.2],[7.7204,60.7642,1595.5507],[7.7294,60.765,1569.8333],[7.726,60.7738,1490.6422],[7.7351,60.7746,1483.079],[7.7282,60.7923,1456.6664],[7.7373,60.7931,1435.0],[7.7339,60.8019,1435.0],[7.7429,60.8027,1435.0],[7.7378,60.816,1435.0],[7.7469,60.8168,1435.0],[7.7435,60.8256,1435.0],[7.7525,60.8264,1435.0],[7.7474,60.8397,1515.9635],[7.7565,60.8405,1508.6387],[7.7555,60.843,1525.5205]]],
[[[7.0474,61.0568,84.5751],[7.0479,61.0604,22.199],[7.0417,61.0604,0.0],[7.0339,61.0578,0.0],[7.0354,61.0563,0.0],[7.0411,61.0557,0.0],[7.0411,61.0526,0.0],[7.038,61.0516,0.0],[7.0396,61.05,92.2339],[7.0453,61.0505,266.6036],[7.0474,61.0568,84.5751]]],
[[[7.0297,60.9776,0.0],[7.0312,60.9771,0.0],[7.0333,60.9771,0.0],[7.0312,60.9792,0.0],[7.0297,60.9776,0.0]]],
[[[7.0318,60.9849,0.0],[7.0333,60.9833,0.0],[7.0349,60.9839,0.0],[7.0333,60.9854,0.0],[7.0318,60.9849,0.0]]],
[[[7.0367,61.0398,0.0],[7.0396,61.0396,0.0],[7.0396,61.0417,0.0],[7.0359,61.0411,0.0],[7.0367,61.0398,0.0]]]]}}