{"type": "Feature","bbox": [12.6984,66.1625,13.3181,66.3396],"geometry": {"type": "MultiPolygon","coordinates": [[[[12.9609,66.163,7.929],[12.9667,66.1646,13.3658],[12.9792,66.1646,0.0],[12.9833,66.1687,0.0],[12.9813,66.1708,0.1941],[12.9646,66.1708,0.0],[12.962,66.1672,0.0],[12.9505,66.1661,0.0],[12.9521,66.1646,1.7729],[12.9583,66.1646,2.2924],[12.9609,66.163,7.929]]],
[[[12.9646,66.2063,0.0],[12.9625,66.2083,24.2588],[12.9641,66.212,0.0],[12.9563,66.2125,6.478],[12.95,66.2104,149.7106],[12.9458,66.2125,0.0],[12.9396,66.2083,91.683],[12.9292,66.2083,62.8911],[12.9229,66.2104,0.0],[12.8984,66.2037,0.0],[12.8964,66.2005,24.164],[12.8995,66.1984,200.7973],[12.8854,66.1979,75.4451],[12.8714,66.1932,0.0],[12.8714,66.1901,0.0],[12.8745,66.1891,27.3032],[12.8724,66.1839,0.0],[12.8703,66.1818,0.4052],[12.8651,66.1807,0.0],[12.8641,66.1776,0.0],[12.8505,66.1724,0.0],[12.8484,66.1651,3.5175],[12.8583,66.1625,0.0],[12.8854,66.1625,0.0],[12.8958,66.1667,0.0],[12.9083,66.1667,0.0],[12.9125,66.1687,0.0],[12.9208,66.1687,0.0],[12.925,66.1708,24.9474],[12.9292,66.1687,0.0],[12.9354,66.1687,0.0],[12.9396,66.1729,0.0],[12.9479,66.1729,0.0],[12.9583,66.1771,0.0],[12.9661,66.1776,0.0],[12.9703,66.1839,0.0],[12.9667,66.1875,0.0],[12.9703,66.1932,0.0],[12.9667,66.1958,0.0],[12.9693,66.2016,0.0],[12.9745,66.2037,0.0],[12.9688,66.2063,0.0],[12.9646,66.2063,0.0]]],
[[[12.9896,66.2167,2.2117],[12.988,66.2151,0.0],[12.9911,66.2151,0.0],[12.9911,66.2161,0.0],[12.9896,66.2167,2.2117]]],
[[[12.9083,66.2292,1.2921],[12.9068,66.2286,0.1606],[12.9068,66.2276,3.7797],[12.9099,66.2276,4.4616],[12.9083,66.2292,1.2921]]],
[[[13.313,66.2474,0.0],[13.3181,66.2484,0.0],[13.3059,66.2924,196.9894],[13.2979,66.2917,77.2554],[13.2813,66.2854,325.4403],[13.2729,66.2854,146.0759],[13.2583,66.2813,251.0585],[13.2443,66.2818,56.8259],[13.2495,66.2839,0.0],[13.2479,66.2854,0.0],[13.2271,66.2854,0.0],[13.2208,66.2813,52.7173],[13.2146,66.2833,0.0],[13.2042,66.2792,44.3203],[13.1917,66.2792,0.0],[13.1839,66.2766,0.0],[13.1828,66.2734,7.3788],[13.1729,66.2729,5.603],[13.1625,66.2688,13.686],[13.1563,66.2688,0.0],[13.1516,66.2651,6.9475],[13.1339,66.2599,0.0],[13.1328,66.2568,0.0],[13.1151,66.2516,0.0],[13.113,66.2484,0.5795],[13.125,66.2479,0.4875],[13.1266,66.2464,1.1724],[13.1245,66.2443,1.474],[13.1193,66.2432,1.0579],[13.1182,66.2401,0.875],[13.1083,66.2396,0.0],[13.1005,66.237,0.0],[13.0995,66.2338,0.0],[13.0943,66.2328,0.0],[13.0911,66.2276,3.2424],[13.0859,66.2266,0.0],[13.0828,66.2234,2.0519],[13.0688,66.2188,0.0],[13.0625,66.2188,0.0],[13.0578,66.2151,6.9512],[13.0464,66.212,0.0],[13.0453,66.2089,0.0],[13.0401,66.2078,0.0],[13.037,66.2047,0.9166],[13.0172,66.2037,0.0],[13.014099999999999,66.2005,0.0],[13.0089,66.1995,3.6194],[13.0047,66.1901,0.0],[13.0078,66.1891,0.0],[13.0068,66.1839,0.0],[13.0161,66.1828,0.0],[13.0151,66.1797,0.0],[13.025,66.175,0.0],[13.0313,66.175,0.0],[13.0354,66.1729,0.0],[13.0396,66.175,7.3034],[13.0625,66.175,0.0],[13.0854,66.1833,0.0],[13.0932,66.1839,0.0],[13.0979,66.1875,8.2447],[13.1104,66.1875,0.0],[13.1146,66.1896,59.0971],[13.1208,66.1875,0.0],[13.1354,66.1917,1.5205],[13.1479,66.1917,0.0],[13.1583,66.1958,15.28],[13.1667,66.1958,0.0],[13.1708,66.1979,0.0],[13.1833,66.1979,0.0],[13.1974,66.2026,0.0],[13.1984,66.2057,12.3629],[13.212,66.2109,0.0],[13.213,66.2141,0.0],[13.2229,66.2146,0.0],[13.2375,66.2188,96.5009],[13.2458,66.2188,0.0],[13.2599,66.2234,0.0],[13.263,66.2307,69.4711],[13.2896,66.2396,130.8135],[13.3036,66.2401,0.0],[13.3068,66.2453,0.0],[13.313,66.2474,0.0]]],
[[[13.15,66.2854,14.0418],[13.1438,66.2854,26.4703],[13.1396,66.2875,0.0],[13.1333,66.2875,0.0],[13.1292,66.2854,152.1665],[13.125,66.2875,0.0],[13.1187,66.2875,30.7453],[13.1125,66.2854,263.05],[13.1083,66.2875,73.8187],[13.1042,66.2854,256.6185],[13.0979,66.2854,267.7831],[13.0938,66.2875,47.8826],[13.0891,66.2839,242.9553],[13.0813,66.2813,385.8091],[13.0646,66.2813,169.5298],[13.0479,66.275,410.197],[13.0354,66.275,204.5008],[13.0229,66.2792,0.0],[13.0104,66.2792,0.0],[13.0062,66.275,11.1088],[12.9938,66.275,0.0],[12.9896,66.2729,4.6306],[12.9813,66.2729,0.0],[12.9786,66.2693,3.9966],[12.9672,66.2682,0.0],[12.9641,66.2609,0.0],[12.962,66.2589,0.0],[12.9568,66.2578,0.0],[12.9599,66.2557,0.0],[12.9599,66.2526,0.0],[12.9547,66.2516,0.0],[12.951599999999999,66.2464,0.0],[12.9464,66.2453,0.0],[12.9432,66.2422,0.0],[12.9318,66.2391,0.0],[12.9307,66.2359,18.2544],[12.9193,66.2328,0.0],[12.9172,66.2297,0.0],[12.9229,66.2271,2.1201],[12.9604,66.2271,0.0],[12.9646,66.2292,24.3009],[12.9917,66.2292,0.0],[13.0021,66.2333,5.6736],[13.0208,66.2354,0.0],[13.0271,66.2396,10.4345],[13.0396,66.2396,0.0],[13.0536,66.2443,0.0],[13.0547,66.2474,10.8134],[13.0646,66.2479,0.0],[13.0813,66.2542,6.2754],[13.0938,66.2542,0.0],[13.0964,66.2578,0.0],[13.1042,66.2604,3.0649],[13.1125,66.2604,0.0],[13.1203,66.263,0.0],[13.1214,66.2662,2.4736],[13.1313,66.2667,0.0],[13.1339,66.2703,0.0],[13.1438,66.2708,0.0],[13.1464,66.2745,4.1155],[13.1563,66.275,0.0],[13.1766,66.2818,0.0],[13.1771,66.2833,3.6059],[13.175,66.2854,1.2618],[13.15,66.2854,14.0418]]],
[[[13.05,66.2833,0.0],[13.0484,66.2818,8.2938],[13.0578,66.2818,76.6652],[13.0563,66.2833,10.463],[13.05,66.2833,0.0]]],
[[[12.7057,66.2318,11.4207],[12.7047,66.2297,0.0],[12.7063,66.2292,0.0],[12.7229,66.2292,0.0],[12.7307,66.2318,0.0],[12.7328,66.2349,0.0],[12.7297,66.2359,1.8149],[12.7271,66.2396,0.0],[12.7057,66.2318,11.4207]]],
[[[12.7229,66.2417,0.0],[12.7214,66.2401,0.0],[12.7245,66.2401,9.6421],[12.7245,66.2412,3.1106],[12.7229,66.2417,0.0]]],
[[[12.8151,66.2953,0.0],[12.8125,66.2937,0.0],[12.8068,66.2963,11.8246],[12.8078,66.3016,7.2105],[12.8042,66.3021,7.3566],[12.7964,66.2995,10.0527],[12.7995,66.2974,0.0],[12.7995,66.2943,53.1394],[12.7859,66.2891,4.1924],[12.7891,66.2859,61.8853],[12.7813,66.2854,11.2757],[12.7708,66.2813,2.4123],[12.7625,66.2813,0.0],[12.7547,66.2786,0.0],[12.7536,66.2755,0.0],[12.7333,66.2688,2.8975],[12.7193,66.2682,0.0],[12.7172,66.2651,0.0],[12.7203,66.263,4.7972],[12.7151,66.262,0.0],[12.7182,66.2599,0.0],[12.7182,66.2568,7.5354],[12.7104,66.2542,0.0],[12.7005,66.2536,0.0],[12.7042,66.25,0.0],[12.7036,66.2484,13.8066],[12.6984,66.2464,5.2682],[12.7083,66.2438,8.9369],[12.7354,66.2438,0.0],[12.7396,66.2458,0.0],[12.7474,66.2453,6.0697],[12.7474,66.2422,0.0],[12.7453,66.2401,0.0],[12.7401,66.2391,0.0],[12.7438,66.2354,0.0],[12.7417,66.2312,0.0],[12.7453,66.2286,0.0],[12.7443,66.2255,0.0],[12.7563,66.225,0.0],[12.7604,66.2229,0.0],[12.7682,66.2224,0.0],[12.7672,66.2193,0.0],[12.7745,66.2182,0.0],[12.7755,66.2151,0.0],[12.7813,66.2125,0.0],[12.7875,66.2125,0.0],[12.7917,66.2146,1.7073],[12.7979,66.2125,0.0],[12.7995,66.2141,4.0528],[12.7964,66.2161,0.0],[12.8182,66.2224,0.0],[12.8182,66.2193,0.0],[12.8161,66.2172,0.0],[12.8083,66.2167,0.0],[12.8047,66.2141,0.0],[12.8083,66.2104,0.0],[12.8068,66.2068,0.0],[12.8104,66.2063,0.0],[12.8182,66.2089,0.0],[12.8214,66.2141,0.0],[12.8328,66.2172,1.2737],[12.8359,66.2224,2.3869],[12.8453,66.2234,0.0],[12.8484,66.2286,4.5531],[12.862,66.2338,0.0],[12.8589,66.237,0.0],[12.8667,66.2375,0.0],[12.8714,66.2412,0.0],[12.8776,66.2432,0.0],[12.8854,66.2438,0.0],[12.8932,66.2464,0.0],[12.8859,66.2516,8.8538],[12.8911,66.2526,0.0],[12.888,66.2557,0.0],[12.8917,66.2625,0.0],[12.888,66.2662,0.0],[12.8901,66.2703,13.0036],[12.8953,66.2714,0.0],[12.8922,66.2745,23.7939],[12.8953,66.2807,0.0],[12.8818,66.2818,39.2302],[12.8828,66.2849,0.0],[12.8755,66.288,0.0],[12.8745,66.2911,0.0],[12.8688,66.2937,0.0],[12.8646,66.2917,6.1136],[12.8583,66.2937,4.7475],[12.8359,66.2932,0.0],[12.8417,66.2896,63.8939],[12.8536,66.2911,21.8404],[12.8526,66.2839,199.9165],[12.8583,66.2813,268.2394],[12.8641,66.2807,232.5775],[12.8625,66.2792,384.22],[12.8417,66.2792,789.816],[12.8271,66.2833,484.0568],[12.8167,66.2833,380.493],[12.8151,66.2849,194.5832],[12.8328,66.2911,15.403],[12.8229,66.2958,12.4146],[12.8151,66.2953,0.0]]],
[[[12.7875,66.2979,5.5034],[12.7859,66.2963,0.0],[12.7953,66.2963,0.0],[12.7938,66.2979,16.0125],[12.7875,66.2979,5.5034]]],
[[[12.8396,66.3063,0.0],[12.8438,66.3042,0.0],[12.85,66.3042,0.0],[12.8521,66.3063,0.0],[12.85,66.3083,6.404],[12.838,66.3078,0.0],[12.8396,66.3063,0.0]]],
[[[12.7979,66.3063,1.3038],[12.8036,66.3047,4.4717],[12.8078,66.312,0.0],[12.8021,66.3146,3.7611],[12.7943,66.3141,3.223],[12.7922,66.312,0.0],[12.7922,66.3089,9.6626],[12.7979,66.3063,1.3038]]],
[[[12.8245,66.313,0.0],[12.8234,66.3109,0.0],[12.825,66.3104,0.0],[12.8286,66.3109,0.0],[12.8292,66.3125,0.0],[12.8271,66.3146,0.0],[12.8245,66.313,0.0]]],
[[[12.7771,66.3396,4.7098],[12.7755,66.338,0.0],[12.7807,66.338,11.8777],[12.7807,66.3391,8.4418],[12.7771,66.3396,4.7098]]]]}
,"properties": {"GID_2": "NOR.10.26_1","GID_0": "NOR","country": "Norway","GID_1": "NOR.10_1","province": "Nordland","NL_NAME_1": "NA","county": "Nesna","VARNAME_2": "NA","NL_NAME_2": "NA","TYPE_2": "Kommuner","ENGTYPE_2": "Municipality","CC_2": "NA","HASC_2": "NO.NO.NE","name": "Nesna.county","area_km2": 189.7887,"hist_schema_id": "Elevation0-9000","hist_area_km2": {"0": 30.7869,"25": 20.4874,"50": 10.6434,"75": 9.0713,"100": 7.7228,"125": 5.9889,"150": 6.2364,"175": 6.3219,"200": 5.9042,"225": 6.5119,"250": 5.844,"275": 6.4163,"300": 6.3901,"325": 5.8763,"350": 5.2534,"375": 5.4921,"400": 5.1503,"425": 3.7844,"450": 3.622,"475": 3.229,"500": 3.0239,"525": 2.7249,"550": 2.8021,"575": 2.8105,"600": 3.2369,"625": 2.9552,"650": 3.0919,"675": 2.4424,"700": 2.5533,"725": 1.3406,"750": 0.555,"775": 0.3926,"800": 0.3414,"825": 0.6657,"850": 0.0768,"875": 0.0341,"900": 0.0085}}}