{"type": "Feature","bbox": [6.7199,58.2181,7.1965,58.8303],"geometry": {"type": "MultiPolygon","coordinates": [[[[7.0613,58.8277,741.4049],[7.0442,58.8259,707.0],[7.0459,58.8215,763.9695],[7.0289,58.8198,712.563],[7.0305,58.8154,709.0349],[7.022,58.8145,707.0],[7.027,58.8013,707.0],[7.0185,58.8005,707.0],[7.0202,58.7961,707.0],[6.9946,58.7934,842.8636],[6.993,58.7978,795.9554],[6.9333,58.7917,784.152],[6.935,58.7873,799.0325],[6.9265,58.7864,732.8987],[6.9316,58.7732,711.6025],[6.9401,58.7741,746.4515],[6.9468,58.7565,642.8901],[6.9383,58.7556,711.9332],[6.9417,58.7468,769.8247],[6.9247,58.7451,721.0986],[6.9264,58.7407,601.4989],[6.9094,58.7389,765.8271],[6.9127,58.7301,763.2124],[6.9042,58.7292,731.07],[6.9076,58.7204,734.6523],[6.8991,58.7196,727.0267],[6.9008,58.7152,728.2228],[6.8923,58.7143,736.4728],[6.894,58.7099,753.8982],[6.9025,58.7108,683.6058],[6.9042,58.7064,697.025],[6.9127,58.7073,668.4061],[6.9143,58.7029,692.9495],[6.9059,58.702,665.1849],[6.9075,58.6976,710.709],[6.899,58.6967,642.7949],[6.9007,58.6923,632.3569],[6.8922,58.6914,753.1171],[6.8939,58.687,694.5804],[6.8685,58.6844,774.6393],[6.8718,58.6756,735.3944],[6.8634,58.6747,743.4595],[6.8684,58.6615,753.6863],[6.8599,58.6606,727.2496],[6.8616,58.6562,761.8986],[6.8531,58.6553,678.5267],[6.8565,58.6465,713.214],[6.848,58.6457,685.0166],[6.8497,58.6413,761.7017],[6.8413,58.6404,697.8936],[6.8446,58.6316,698.7291],[6.8362,58.6307,676.9292],[6.8429,58.6131,677.4004],[6.8344,58.6122,661.3242],[6.8378,58.6034,641.5344],[6.8294,58.6025,619.2537],[6.8327,58.5938,631.8219],[6.8243,58.5929,643.6911],[6.826,58.5885,574.2501],[6.8175,58.5876,592.9571],[6.8192,58.5832,571.762],[6.8107,58.5823,572.553],[6.8225,58.5515,545.2861],[6.831,58.5524,556.8242],[6.8327,58.548,557.3829],[6.8242,58.5471,566.7877],[6.8377,58.512,537.1807],[6.8293,58.5111,565.9338],[6.8309,58.5067,582.3719],[6.8478,58.5084,484.9238],[6.8495,58.5041,470.7653],[6.8579,58.5049,411.3432],[6.8596,58.5005,418.7545],[6.8681,58.5014,431.7448],[6.8882,58.4487,392.723],[6.8797,58.4478,405.1031],[6.8881,58.4258,372.7945],[6.8797,58.4249,426.5443],[6.8897,58.3985,318.5],[6.8981,58.3994,375.6677],[6.9015,58.3906,458.6175],[6.9099,58.3915,396.8575],[6.9115,58.3871,415.9082],[6.92,58.388,399.5487],[6.9349,58.3484,333.7372],[6.9097,58.3457,333.1331],[6.9114,58.3414,339.9361],[6.8861,58.3387,306.0887],[6.8878,58.3343,365.7711],[6.8206,58.3272,153.1903],[6.8189,58.3316,142.1923],[6.8105,58.3307,161.7701],[6.8038,58.3483,195.0348],[6.787,58.3466,220.3872],[6.7887,58.3422,186.779],[6.7719,58.3404,188.2287],[6.7836,58.3096,274.8255],[6.7752,58.3087,305.6175],[6.7836,58.2867,228.2858],[6.7668,58.285,255.1679],[6.7685,58.2806,271.5001],[6.7601,58.2797,287.4163],[6.7668,58.2621,248.9627],[6.7584,58.2612,255.628],[6.7601,58.2568,204.86],[6.7517,58.2559,268.2863],[6.7534,58.2515,217.033],[6.745,58.2506,213.1172],[6.7467,58.2462,231.3539],[6.7383,58.2453,247.2774],[6.7366,58.2497,228.2684],[6.7199,58.248,246.6384],[6.7293,58.2232,4.3167],[6.7308,58.2235,0.0],[6.7303,58.2249,7.5925],[6.7347,58.2251,0.0],[6.7342,58.2265,0.0],[6.7358,58.2268,0.0],[6.7369,58.2301,0.0],[6.7408,58.2326,31.2021],[6.7508,58.2329,0.0],[6.7531,58.236,80.5083],[6.7553,58.236,61.0475],[6.7536,58.2351,0.0],[6.7558,58.2343,0.0],[6.7597,58.2346,0.0],[6.7603,58.2374,12.5043],[6.7642,58.2388,11.5569],[6.7636,58.2399,11.5569],[6.7686,58.2407,9.6241],[6.7725,58.244,110.621],[6.7864,58.2443,0.0],[6.7847,58.2468,0.0],[6.7875,58.2476,0.0],[6.7903,58.2532,4.1323],[6.7992,58.2521,10.743],[6.8042,58.2549,56.0091],[6.8097,58.2538,47.6141],[6.8175,58.2562,0.0],[6.8147,58.259,0.0],[6.8147,58.2615,0.0],[6.8236,58.2615,0.5486],[6.8303,58.2585,0.0],[6.8353,58.2601,0.0],[6.8414,58.2593,0.0],[6.8431,58.261,0.0],[6.8408,58.2624,45.3386],[6.8442,58.2615,0.0],[6.8436,58.2632,2.943],[6.8469,58.2637,0.0],[6.8458,58.2649,6.8461],[6.8475,58.266,73.3799],[6.8569,58.2654,0.0],[6.8619,58.2674,0.0],[6.8608,58.2699,6.8765],[6.8619,58.271,107.246],[6.8697,58.2715,82.371],[6.8714,58.2704,0.0],[6.8697,58.2699,0.0],[6.8719,58.2696,0.0],[6.8764,58.2713,0.0],[6.8781,58.2729,0.0],[6.8769,58.2765,0.0],[6.8781,58.2771,75.2746],[6.8819,58.2779,40.0385],[6.8847,58.274,0.0],[6.8914,58.2732,0.0],[6.9081,58.2826,1.182],[6.9219,58.286,0.9553],[6.9231,58.2857,0.9553],[6.9169,58.2829,7.2747],[6.9081,58.2818,0.3764],[6.9014,58.276,0.0],[6.8842,58.2696,60.3469],[6.8447,58.2604,0.0],[6.8314,58.2526,0.0],[6.8147,58.249,4.4443],[6.8131,58.2479,0.0],[6.8142,58.246,3.5505],[6.7869,58.2399,0.0],[6.7825,58.2379,4.5237],[6.7819,58.2357,16.3524],[6.7714,58.2346,9.4376],[6.7681,58.2332,3.2289],[6.7681,58.2299,13.8215],[6.7642,58.229,0.0],[6.7653,58.2279,9.5226],[6.7625,58.2257,23.6289],[6.7718,58.226,160.8323],[6.7735,58.2216,186.7716],[6.7819,58.2225,209.4417],[6.7835,58.2181,245.4012],[6.817,58.2217,298.1796],[6.8154,58.2261,184.47],[6.8238,58.227,221.6741],[6.8221,58.2314,219.1817],[6.8724,58.2367,156.0581],[6.874,58.2323,183.8395],[6.8908,58.234,293.0074],[6.8925,58.2296,291.5358],[6.926,58.2332,317.2866],[6.9243,58.2376,334.3845],[6.9746,58.2428,338.0181],[6.9763,58.2384,362.3911],[7.0014,58.2411,347.033],[6.9998,58.2454,311.6044],[7.0284,58.2484,320.2832],[7.0333,58.2489,291.4338],[7.035,58.2445,251.9214],[7.0517,58.2463,288.7819],[7.0501,58.2507,280.4694],[7.0585,58.2516,303.5409],[7.0536,58.2648,328.8476],[7.0452,58.2639,314.2128],[7.0435,58.2683,318.1069],[7.0519,58.2692,305.2694],[7.0503,58.2736,326.0239],[7.0587,58.2744,334.4934],[7.057,58.2788,334.9396],[7.0738,58.2806,363.1314],[7.0722,58.285,347.0267],[7.0806,58.2858,338.8456],[7.089,58.2867,349.6206],[7.0906,58.2823,371.4775],[7.1326,58.2866,512.4205],[7.1146,58.335,490.8202],[7.123,58.3359,515.5154],[7.1181,58.3491,493.6568],[7.1266,58.35,543.1887],[7.1216,58.3632,425.7659],[7.1132,58.3623,449.9727],[7.1116,58.3667,443.4656],[7.12,58.3676,470.312],[7.1167,58.3764,423.8661],[7.1251,58.3773,490.0609],[7.1235,58.3817,446.4908],[7.1151,58.3808,411.6587],[7.102,58.416,491.5],[7.1104,58.4169,518.4235],[7.1055,58.4301,538.8351],[7.1139,58.4309,489.2321],[7.1122,58.4353,524.8003],[7.1291,58.4371,542.0425],[7.1275,58.4415,528.5771],[7.1359,58.4423,553.1661],[7.1326,58.4511,570.8258],[7.1242,58.4503,572.7825],[7.1225,58.4547,600.8962],[7.1141,58.4538,549.3718],[7.1059,58.4758,535.2326],[7.0974,58.4749,485.9656],[7.0809,58.5189,473.4522],[7.0725,58.5181,504.8372],[7.0659,58.5357,464.1837],[7.0743,58.5365,475.4312],[7.0694,58.5497,453.9011],[7.0778,58.5506,435.8879],[7.0745,58.5594,439.5164],[7.083,58.5603,408.143],[7.0797,58.5691,521.0467],[7.0881,58.5699,563.2657],[7.0832,58.5831,544.9686],[7.0916,58.584,539.5063],[7.0883,58.5928,576.2665],[7.0968,58.5937,691.4677],[7.0902,58.6113,720.5582],[7.0987,58.6122,689.3354],[7.0821,58.6562,793.1571],[7.1075,58.6588,804.9954],[7.1059,58.6632,778.2782],[7.1483,58.6675,822.8914],[7.1467,58.6719,876.0696],[7.1722,58.6745,745.0191],[7.1688,58.6833,917.4489],[7.1773,58.6842,827.0061],[7.1724,58.6974,819.8033],[7.1809,58.6982,762.9977],[7.1776,58.707,801.3733],[7.1861,58.7079,771.8704],[7.1828,58.7167,784.4094],[7.1913,58.7175,847.6351],[7.188,58.7264,849.1791],[7.1965,58.7272,922.7041],[7.1932,58.736,905.7927],[7.1847,58.7352,851.9191],[7.183,58.7396,880.2398],[7.1745,58.7387,854.1606],[7.1629,58.7695,917.9883],[7.1544,58.7686,872.6538],[7.1461,58.7906,918.2148],[7.1547,58.7915,899.8358],[7.1497,58.8047,849.7316],[7.1582,58.8056,863.4973],[7.1565,58.81,849.163],[7.1651,58.8108,900.4048],[7.1634,58.8152,847.0],[7.1719,58.8161,853.109],[7.1703,58.8205,867.6255],[7.1617,58.8196,848.6508],[7.1601,58.824,847.8022],[7.1516,58.8232,885.566],[7.1499,58.8276,881.5962],[7.1243,58.825,912.2263],[7.1226,58.8294,940.523],[7.0885,58.8259,820.027],[7.0869,58.8303,833.1812],[7.0613,58.8277,741.4049]]]]}
,"properties": {"GID_2": "NOR.18.7_1","GID_0": "NOR","country": "Norway","GID_1": "NOR.18_1","province": "Vest-Agder","NL_NAME_1": "NA","county": "Kvinesdal","VARNAME_2": "NA","NL_NAME_2": "NA","TYPE_2": "Kommuner","ENGTYPE_2": "Municipality","CC_2": "NA","HASC_2": "NO.VA.KV","name": "Kvinesdal.county","area_km2": 946.149,"hist_schema_id": "Elevation0-9000","hist_area_km2": {"0": 7.7352,"25": 4.2901,"50": 3.5993,"75": 4.8685,"100": 6.4389,"125": 11.0046,"150": 12.6289,"175": 18.0076,"200": 18.4415,"225": 22.0042,"250": 27.5635,"275": 34.237,"300": 43.4982,"325": 52.922,"350": 54.9945,"375": 44.8079,"400": 37.3839,"425": 37.7643,"450": 40.7817,"475": 40.0702,"500": 39.411,"525": 33.5574,"550": 29.6469,"575": 25.3096,"600": 23.39,"625": 20.3569,"650": 23.5927,"675": 21.7816,"700": 25.0042,"725": 22.9336,"750": 19.5652,"775": 16.6956,"800": 15.9761,"825": 18.2122,"850": 29.6593,"875": 23.0347,"900": 19.1949,"925": 10.9455,"950": 4.0588,"975": 0.7808}}}