{"type": "Feature","bbox": [4.5089,60.9896,5.0995,61.2229],"geometry": {"type": "MultiPolygon","coordinates": [[[[4.5396,61.0333,14.5556],[4.538,61.0318,12.4126],[4.5411,61.0318,3.3916],[4.5411,61.0328,3.136],[4.5396,61.0333,14.5556]]],
[[[4.7141,61.062,12.3972],[4.7068,61.063,7.0382],[4.7057,61.0661,0.0],[4.7026,61.0672,25.2747],[4.7026,61.0703,42.8248],[4.7078,61.0734,8.812],[4.7047,61.0755,42.5917],[4.7036,61.0807,20.8537],[4.6938,61.0812,0.0],[4.6776,61.0766,0.0],[4.6766,61.0693,33.4634],[4.663,61.0641,30.8751],[4.662,61.0609,25.354],[4.6547,61.0599,39.0997],[4.6521,61.0521,3.4086],[4.6521,61.0458,22.4728],[4.6526,61.0443,20.1091],[4.6583,61.0438,15.6113],[4.6604,61.0417,0.0],[4.6583,61.0396,0.0],[4.6505,61.0391,6.1318],[4.65,61.0292,19.4721],[4.6536,61.0266,17.6492],[4.6526,61.0214,3.8367],[4.6641,61.0161,15.6708],[4.6651,61.013,6.6074],[4.6682,61.012,4.6695],[4.6682,61.0068,4.9247],[4.663,61.0047,10.4497],[4.6688,61.0021,0.0],[4.6745,61.0016,0.0],[4.6786,60.9995,11.2027],[4.6813,60.9958,7.0652],[4.6911,60.9964,0.0],[4.6922,60.9995,0.0],[4.6958,61.0021,0.0],[4.6995,60.9995,0.0],[4.6964,60.9964,0.0],[4.7104,60.9896,13.3862],[4.7203,60.9901,0.0],[4.7214,60.9953,24.8858],[4.7292,60.9958,0.0],[4.7349,60.9984,0.0],[4.7354,61.0042,0.0],[4.738,61.0099,0.0],[4.7453,61.0109,3.6923],[4.7453,61.0161,24.7586],[4.7422,61.0172,15.6117],[4.7438,61.0229,2.9852],[4.7401,61.0255,0.0],[4.7391,61.0307,71.4812],[4.7266,61.037,27.1881],[4.7193,61.038,8.0826],[4.7203,61.0411,0.0],[4.713,61.0443,36.9513],[4.712,61.0474,0.0],[4.7047,61.0505,45.4843],[4.7089,61.0536,0.0],[4.7141,61.0547,10.8219],[4.7141,61.062,12.3972]]],
[[[4.5104,61.0375,8.1906],[4.5089,61.0359,0.0],[4.5161,61.0359,6.9239],[4.5146,61.0375,1.6753],[4.5104,61.0375,8.1906]]],
[[[4.6917,61.0958,23.2125],[4.6974,61.0943,0.0],[4.7016,61.0964,0.0],[4.7036,61.1016,0.0],[4.6901,61.1016,19.7147],[4.6896,61.0979,6.1615],[4.6917,61.0958,23.2125]]],
[[[4.7271,61.1063,8.6876],[4.7255,61.1047,45.921],[4.7286,61.1047,21.0096],[4.7286,61.1057,12.8607],[4.7271,61.1063,8.6876]]],
[[[4.7245,61.1099,0.0],[4.7292,61.1083,4.441],[4.7313,61.1104,10.9034],[4.7307,61.112,9.0377],[4.7224,61.1161,18.5228],[4.7167,61.1167,42.3405],[4.7109,61.1141,15.6884],[4.7083,61.1104,27.4131],[4.7104,61.1083,6.6448],[4.7146,61.1083,26.5831],[4.7188,61.1104,50.9562],[4.7245,61.1099,0.0]]],
[[[4.7208,61.1208,34.6054],[4.7193,61.1193,0.0],[4.7292,61.1188,21.1875],[4.7307,61.1193,21.0996],[4.7328,61.1245,0.0],[4.725,61.125,26.585],[4.7208,61.1208,34.6054]]],
[[[4.8021,61.1125,0.0],[4.8036,61.1141,0.0],[4.8005,61.1151,18.1699],[4.7995,61.1203,22.3992],[4.7974,61.1224,42.4618],[4.7917,61.125,4.2784],[4.788,61.1224,85.9882],[4.788,61.1151,14.5715],[4.8021,61.1125,0.0]]],
[[[4.7682,61.1974,16.513],[4.7651,61.1974,4.65],[4.7651,61.1964,7.1397],[4.7682,61.1964,19.6402],[4.7682,61.1974,16.513]]],
[[[4.7599,61.2182,0.0],[4.7526,61.2193,5.0992],[4.7458,61.2229,0.0],[4.7354,61.2229,14.7769],[4.7297,61.2203,4.1674],[4.7411,61.2141,3.1986],[4.7422,61.2089,7.0357],[4.7453,61.2078,31.4451],[4.7443,61.2047,6.3089],[4.7484,61.2026,0.0],[4.7604,61.2021,0.0],[4.7646,61.2042,0.0],[4.7745,61.1995,11.1087],[4.7734,61.1964,16.7465],[4.787,61.1964,17.3837],[4.787,61.1995,16.2023],[4.7797,61.2047,2.8098],[4.7786,61.2078,15.9755],[4.7688,61.2125,32.4439],[4.763,61.213,0.0],[4.7641,61.2161,0.0],[4.7599,61.2182,0.0]]],
[[[4.7708,61.025,0.0],[4.775,61.0229,0.0],[4.7807,61.0234,5.9144],[4.7792,61.0313,0.0],[4.7828,61.0339,4.7427],[4.7854,61.0438,0.0],[4.7849,61.0453,15.2384],[4.7776,61.0484,61.121],[4.7766,61.0536,11.2715],[4.7708,61.0563,7.0],[4.7625,61.0563,0.0],[4.7563,61.05,0.0],[4.7599,61.0474,46.0861],[4.7589,61.0422,26.056],[4.762,61.0411,40.4644],[4.763,61.0359,8.1524],[4.7703,61.0307,19.7063],[4.7693,61.0255,13.6239],[4.7708,61.025,0.0]]],
[[[4.8087,61.0915,38.8754],[4.8125,61.0896,33.0982],[4.8146,61.0917,5.7926],[4.8125,61.0938,10.2639],[4.8068,61.0932,0.0],[4.8087,61.0915,38.8754]]],
[[[4.8068,61.0995,7.66],[4.8068,61.0964,0.0],[4.8099,61.0964,6.5992],[4.8099,61.0995,25.7281],[4.8068,61.0995,7.66]]],
[[[4.8104,61.1125,17.5058],[4.8161,61.1109,22.1485],[4.8161,61.1161,27.1846],[4.8089,61.1141,0.0],[4.8104,61.1125,17.5058]]],
[[[4.9042,61.0583,0.0],[4.9036,61.0661,20.6178],[4.8964,61.0693,36.4423],[4.8943,61.0714,0.0],[4.8932,61.0766,0.0],[4.8917,61.0771,0.0],[4.8714,61.0766,0.0],[4.8745,61.0734,0.0],[4.8672,61.0682,0.0],[4.8688,61.0667,20.0358],[4.8786,61.0661,0.0],[4.8734,61.062,36.4711],[4.8724,61.0589,15.7826],[4.8693,61.0578,0.0],[4.8724,61.0557,13.0407],[4.8745,61.0474,26.0259],[4.8714,61.0443,5.3822],[4.8771,61.0417,11.6414],[4.8896,61.0417,13.846],[4.9057,61.0464,7.1012],[4.9078,61.0557,0.0],[4.9042,61.0583,0.0]]],
[[[4.8229,61.1042,36.8642],[4.8214,61.1036,62.9735],[4.8214,61.1026,35.1383],[4.8245,61.1026,0.0],[4.8229,61.1042,36.8642]]],
[[[4.8174,61.1079,56.4017],[4.8172,61.1047,84.9978],[4.8203,61.1047,80.1729],[4.8203,61.1078,0.0],[4.8174,61.1079,56.4017]]],
[[[4.9109,61.2109,16.9458],[4.9,61.2146,7.0651],[4.8943,61.2141,0.0],[4.8932,61.2109,16.3318],[4.8839,61.2099,0.0],[4.8833,61.2021,0.0],[4.8818,61.1995,0.0],[4.8849,61.1974,0.0],[4.8859,61.1943,0.0],[4.8891,61.1932,33.4733],[4.8901,61.1901,0.0],[4.8932,61.1891,22.7669],[4.8943,61.1859,0.0],[4.9016,61.1828,35.9758],[4.8995,61.1755,24.9644],[4.8922,61.1724,0.0],[4.8901,61.1693,0.0],[4.8938,61.1667,32.7023],[4.8943,61.1568,0.0],[4.9036,61.1516,0.0],[4.9036,61.1484,75.6219],[4.9005,61.1464,0.0],[4.9078,61.1432,0.0],[4.9083,61.1396,11.0269],[4.9063,61.1333,0.0],[4.9099,61.1307,11.8502],[4.9099,61.1276,0.0],[4.9042,61.1271,0.0],[4.9,61.1292,8.9727],[4.8943,61.1276,17.5219],[4.8943,61.1328,3.0],[4.9016,61.137,0.0],[4.8943,61.1401,0.5],[4.8958,61.1437,21.5736],[4.8953,61.1474,20.8984],[4.888,61.1484,0.0],[4.8891,61.162,0.0],[4.8859,61.163,56.3439],[4.8849,61.1661,21.5952],[4.8776,61.1693,13.0],[4.8828,61.1714,11.2615],[4.8828,61.1745,0.0],[4.8792,61.1771,89.2389],[4.8828,61.1807,0.0],[4.8729,61.1854,37.1539],[4.8688,61.1854,43.1847],[4.8646,61.1875,17.117],[4.8589,61.187,4.4653],[4.8589,61.1818,9.1193],[4.8661,61.1776,0.0],[4.8609,61.1766,2.7475],[4.8609,61.1714,0.0],[4.8641,61.1703,27.6393],[4.8646,61.1667,32.5186],[4.8578,61.1609,40.4866],[4.8521,61.1583,0.0],[4.8479,61.1625,4.823],[4.8396,61.1625,0.148],[4.8313,61.1583,33.8223],[4.825,61.1583,47.8769],[4.8179,61.1546,0.0],[4.8109,61.1536,0.0],[4.8125,61.1521,0.0],[4.8182,61.1516,18.4467],[4.8188,61.1479,27.786],[4.8182,61.1464,0.0],[4.813,61.1453,22.8089],[4.8104,61.1417,12.7074],[4.7979,61.1417,13.3117],[4.7938,61.1396,0.0],[4.7828,61.1453,5.9237],[4.7797,61.1453,2.9828],[4.7797,61.1422,3.9731],[4.7828,61.1411,0.0],[4.7807,61.1359,0.0],[4.7693,61.1307,10.2406],[4.775,61.1271,12.2716],[4.7875,61.1271,0.0],[4.7932,61.1297,0.0],[4.7901,61.1318,2.2818],[4.7901,61.1349,9.1454],[4.7958,61.1354,0.0],[4.8016,61.1328,0.0],[4.8026,61.1297,0.0],[4.8057,61.1286,0.0],[4.8068,61.1214,18.1104],[4.8167,61.1208,16.4177],[4.8182,61.1224,12.836],[4.8151,61.1245,11.8765],[4.8182,61.1266,17.8274],[4.8151,61.1286,26.1173],[4.8182,61.1297,16.8943],[4.8208,61.1333,0.0],[4.8203,61.137,0.0],[4.8172,61.138,11.1976],[4.8172,61.1411,5.2208],[4.8245,61.1411,0.0],[4.8255,61.1339,0.0],[4.8292,61.1312,0.0],[4.8276,61.1276,0.0],[4.8313,61.125,25.1516],[4.8234,61.1193,0.0],[4.8266,61.1182,10.3893],[4.8292,61.1125,6.375],[4.8297,61.1068,0.0],[4.8328,61.1057,84.7783],[4.8339,61.1005,35.271],[4.837,61.0995,45.8226],[4.8318,61.0974,0.0],[4.8313,61.0958,13.1566],[4.8318,61.0901,4.3631],[4.8354,61.0875,6.204],[4.8333,61.0833,0.0],[4.8333,61.0771,20.2946],[4.8411,61.0714,30.7632],[4.8292,61.0667,38.7145],[4.825,61.0667,0.0],[4.8234,61.0682,0.0],[4.8266,61.0703,4.394],[4.8214,61.0734,4.3246],[4.8203,61.0786,0.0],[4.813,61.0797,0.0],[4.812,61.0849,23.1117],[4.8063,61.0854,31.6316],[4.8021,61.0833,37.3279],[4.7922,61.0839,28.432],[4.7917,61.0917,7.1189],[4.7938,61.0979,4.1238],[4.7917,61.1,3.9543],[4.7792,61.0979,75.8079],[4.775,61.1,8.1047],[4.7646,61.0958,157.1726],[4.7604,61.0979,7.9201],[4.7583,61.0958,6.1699],[4.7578,61.0901,113.3698],[4.7526,61.0891,35.0372],[4.7516,61.0859,0.0],[4.7458,61.0854,54.6802],[4.7417,61.0875,38.7943],[4.7375,61.0875,24.4507],[4.7359,61.087,23.4203],[4.7349,61.0818,106.5194],[4.7297,61.0786,0.0],[4.737,61.0745,23.6005],[4.738,61.0693,49.0391],[4.7411,61.0682,52.6453],[4.7411,61.0651,128.1132],[4.7359,61.063,60.3209],[4.7391,61.062,65.6933],[4.7396,61.0521,3.5017],[4.7432,61.0495,34.8958],[4.7422,61.0464,14.3724],[4.7516,61.0464,0.0],[4.7526,61.0516,3.2546],[4.7563,61.0542,0.0],[4.7521,61.0583,51.4309],[4.7542,61.0604,36.5064],[4.7604,61.0583,23.3865],[4.7672,61.062,13.1657],[4.7729,61.0625,7.0],[4.7745,61.062,7.0],[4.7755,61.0568,7.0],[4.7813,61.0563,0.0],[4.7911,61.0589,13.2464],[4.788,61.062,34.632],[4.7938,61.0625,0.0],[4.7964,61.0589,11.7554],[4.7995,61.0578,12.9977],[4.8005,61.0547,11.6974],[4.8104,61.05,20.0216],[4.8161,61.0526,0.0],[4.8167,61.0542,0.0],[4.813,61.0568,23.2248],[4.813,61.0599,47.3154],[4.8208,61.0604,21.582],[4.8245,61.0578,16.4502],[4.8255,61.0547,0.0],[4.8286,61.0536,20.6672],[4.8297,61.0505,0.0],[4.8479,61.0458,14.4227],[4.8536,61.0484,0.0],[4.8547,61.0516,0.0],[4.8599,61.0526,4.505],[4.8599,61.0578,0.0],[4.8568,61.0589,20.1687],[4.8563,61.0625,0.0],[4.8568,61.0641,8.1566],[4.862,61.0651,0.0],[4.8589,61.0672,50.2305],[4.862,61.0703,15.245],[4.8589,61.0724,57.7408],[4.862,61.0734,7.2428],[4.863,61.0786,3.3528],[4.8682,61.0797,12.0656],[4.8953,61.0922,0.0],[4.8964,61.0953,38.1095],[4.9042,61.1,0.0],[4.9083,61.1,25.461],[4.9141,61.0974,5.1757],[4.913,61.0943,0.0],[4.9161,61.0932,0.0],[4.9172,61.088,11.7562],[4.9203,61.087,47.3313],[4.9208,61.0812,0.0],[4.9188,61.0771,0.0],[4.9188,61.0708,0.0],[4.9224,61.0682,0.0],[4.9255,61.063,0.0],[4.9286,61.062,5.0871],[4.9286,61.0589,13.3665],[4.9255,61.0568,17.7251],[4.9354,61.0563,6.2238],[4.937,61.0568,6.2424],[4.9396,61.0646,24.4594],[4.9401,61.0724,24.7954],[4.9495,61.0755,0.0],[4.9547,61.0828,19.0638],[4.9792,61.0875,0.0],[4.9859,61.0911,10.0406],[4.9938,61.0917,0.0],[5.0047,61.0974,79.8187],[5.0182,61.1005,0.0],[5.0182,61.1036,0.0],[5.0151,61.1057,55.912],[5.0224,61.1089,0.0],[5.025,61.1146,0.0],[5.0208,61.1188,33.684],[5.025,61.1229,0.0],[5.0224,61.1307,0.0],[5.0188,61.1333,7.8327],[5.0208,61.1437,0.0],[5.0167,61.1479,61.3273],[5.0182,61.1557,0.0],[5.0109,61.1589,50.0666],[5.0099,61.1682,56.75],[5.0036,61.1724,0.0],[4.9979,61.1729,0.0],[4.9922,61.1755,49.0639],[4.9953,61.1776,32.5319],[4.9964,61.1807,0.0],[4.9995,61.1818,0.0],[4.9984,61.187,0.0],[5.0016,61.188,0.0],[5.0016,61.1953,98.9978],[4.9917,61.2,187.7663],[4.9833,61.2,172.7281],[4.9708,61.2042,107.9922],[4.9583,61.2042,28.6802],[4.9557,61.2005,64.6239],[4.9505,61.1974,19.2551],[4.9578,61.1932,25.8744],[4.9589,61.188,0.0],[4.9661,61.187,11.7494],[4.9729,61.1833,0.0],[4.9813,61.1833,12.4535],[4.9833,61.1813,0.0],[4.9828,61.1797,0.0],[4.9755,61.1786,38.0668],[4.9708,61.175,0.0],[4.9625,61.175,26.6108],[4.9599,61.1786,22.5961],[4.9568,61.1797,25.7209],[4.9578,61.1849,19.9694],[4.9495,61.1891,38.5168],[4.9464,61.1891,16.9122],[4.9443,61.1818,0.0],[4.9516,61.1766,20.4592],[4.9521,61.1729,12.16],[4.9516,61.1714,0.0],[4.9464,61.1703,0.0],[4.95,61.1667,54.5857],[4.9458,61.1625,21.3492],[4.9542,61.1563,88.6348],[4.9516,61.1526,21.9329],[4.9484,61.1516,0.0],[4.9479,61.1479,0.0],[4.9484,61.1464,0.0],[4.9557,61.1432,41.3105],[4.9505,61.1411,0.0],[4.95,61.1333,27.9921],[4.9479,61.1312,0.0],[4.9458,61.1333,0.0],[4.9458,61.1417,0.0],[4.9432,61.1516,0.0],[4.9359,61.1568,52.1477],[4.9375,61.1625,39.2023],[4.9333,61.1667,37.198],[4.9349,61.1766,2.5281],[4.9276,61.1797,11.7811],[4.9271,61.1813,6.3791],[4.9276,61.1891,9.818],[4.937,61.1922,0.0],[4.937,61.1974,13.0077],[4.9234,61.2047,22.1634],[4.9224,61.2078,10.9527],[4.9167,61.2104,17.716],[4.9109,61.2109,16.9458]]],
[[[5.0417,61.1646,297.795],[5.025,61.1667,92.4803],[5.0229,61.1646,35.5901],[5.0313,61.1563,89.5689],[5.0255,61.1516,25.533],[5.0245,61.1484,18.4001],[5.0214,61.1474,0.0],[5.0292,61.1417,0.0],[5.0271,61.1354,0.0],[5.0313,61.1312,19.3571],[5.0297,61.1214,0.0],[5.0396,61.1188,0.0],[5.0521,61.1188,13.0277],[5.0563,61.1167,0.0],[5.0646,61.1167,12.9301],[5.0688,61.1146,0.0],[5.0792,61.1167,7.5404],[5.0833,61.1146,0.0],[5.0875,61.1146,0.0],[5.0974,61.1193,0.0],[5.0995,61.1266,0.0],[5.0922,61.1318,0.0],[5.0911,61.1349,0.0],[5.0839,61.138,92.9185],[5.0807,61.1432,0.0],[5.0651,61.1505,71.7902],[5.0641,61.1557,34.9658],[5.0609,61.1568,203.5485],[5.062,61.1599,30.186],[5.0417,61.1646,297.795]]],
[[[4.8786,61.2036,0.0],[4.8755,61.2047,14.6232],[4.8745,61.2099,0.0],[4.862,61.2161,20.0448],[4.8547,61.2141,0.0],[4.8547,61.2089,18.6438],[4.862,61.2078,0.0],[4.863,61.2047,16.4021],[4.8703,61.2036,26.5178],[4.8693,61.2005,0.0],[4.8786,61.2005,0.0],[4.8786,61.2036,0.0]]],
[[[4.8318,61.2026,0.0],[4.8375,61.2,12.0122],[4.8432,61.2005,8.5557],[4.8443,61.2036,0.0],[4.8474,61.2047,0.0],[4.8495,61.2089,0.0],[4.8495,61.2141,0.0],[4.8396,61.2188,16.9097],[4.8313,61.2188,9.8851],[4.8193,61.212,0.0],[4.8224,61.2099,14.3939],[4.8234,61.2068,0.0],[4.8318,61.2026,0.0]]]]}
,"properties": {"GID_2": "NOR.14.23_1","GID_0": "NOR","country": "Norway","GID_1": "NOR.14_1","province": "SognogFjordane","NL_NAME_1": "NA","county": "Solund","VARNAME_2": "NA","NL_NAME_2": "NA","TYPE_2": "Kommuner","ENGTYPE_2": "Municipality","CC_2": "NA","HASC_2": "NO.SF.SL","name": "Solund.county","area_km2": 203.2648,"hist_schema_id": "Elevation0-9000","hist_area_km2": {"0": 27.7643,"25": 49.1695,"50": 40.8511,"75": 20.7888,"100": 11.7158,"125": 7.5382,"150": 6.1442,"175": 6.3385,"200": 5.3557,"225": 4.4341,"250": 3.82,"275": 3.5843,"300": 3.277,"325": 3.1643,"350": 2.8057,"375": 2.0378,"400": 1.362,"425": 1.0753,"450": 0.6658,"475": 0.4814,"500": 0.5941,"525": 0.2253,"550": 0.0717}}}