{"type":"Feature","properties":{"GID_2":"NOR.2.22_1","GID_0":"NOR","country":"Norway","GID_1":"NOR.2_1","province":"Ãstfold","NL_NAME_1":"NA","county":"Våler","VARNAME_2":"NA","NL_NAME_2":"NA","TYPE_2":"Kommuner","ENGTYPE_2":"Municipality","CC_2":"NA","HASC_2":"NO.HE.VA","name":"Våler.county"},
"geometry":{"type": "MultiPolygon","coordinates": [[[[10.766,59.4941,73.7378],[10.7748,59.4947,74.0644],[10.7821,59.468,43.3757],[10.7734,59.4674,29.5899],[10.7746,59.463,32.7131],[10.7571,59.4617,38.2678],[10.762,59.4439,24.7854],[10.7795,59.4452,38.543],[10.7819,59.4363,36.5217],[10.7732,59.4357,28.6375],[10.7756,59.4268,28.6726],[10.7669,59.4262,22.5],[10.7717,59.4084,44.1859],[10.7805,59.409,35.3143],[10.7817,59.4046,34.9067],[10.7905,59.4052,27.4298],[10.7917,59.4007,43.9255],[10.8004,59.4014,33.4841],[10.8016,59.3969,27.8511],[10.8104,59.3975,22.5],[10.8116,59.3931,38.373],[10.8291,59.3943,22.5],[10.8303,59.3899,22.5],[10.8478,59.3911,22.5],[10.849,59.3867,22.5],[10.8665,59.3879,22.5],[10.8629,59.4013,22.5],[10.8716,59.4019,32.7231],[10.8704,59.4063,22.5],[10.8879,59.4076,36.4155],[10.889099999999999,59.4031,52.6787],[10.8979,59.4037,22.5],[10.8991,59.3993,24.4549],[10.9078,59.3999,55.8221],[10.909,59.3955,40.9063],[10.9265,59.3967,92.0091],[10.9277,59.3922,71.5279],[10.9627,59.3947,108.1531],[10.9639,59.3902,105.6611],[10.9726,59.3908,116.1429],[10.9714,59.3953,109.6768],[11.0064,59.3977,124.3403],[11.0076,59.3933,117.7731],[11.0164,59.3939,168.8346],[11.0176,59.3894,141.447],[11.0525,59.3919,129.0267],[11.0537,59.3874,141.3499],[11.08,59.3892,180.3386],[11.0788,59.3937,196.1197],[11.0963,59.3949,100.7705],[11.0951,59.3993,114.3206],[11.1039,59.3999,134.5585],[11.1027,59.4044,118.5082],[11.1114,59.405,154.3905],[11.1103,59.4094,143.2313],[11.119,59.41,132.1442],[11.1178,59.4145,134.532],[11.1266,59.4151,127.6855],[11.1242,59.424,147.6154],[11.1155,59.4234,144.1994],[11.1096,59.4456,121.6018],[11.1008,59.445,130.6649],[11.0985,59.4539,161.3321],[11.0897,59.4533,154.7142],[11.0885,59.4578,164.2202],[11.0798,59.4571,178.1409],[11.0762,59.4705,198.9208],[11.0674,59.4699,200.3875],[11.0662,59.4743,201.3685],[11.0575,59.4737,172.7997],[11.0492,59.5049,174.4837],[11.0316,59.5037,169.6711],[11.0304,59.5081,176.0933],[11.0216,59.5075,154.3426],[11.0129,59.5069,141.9801],[11.014,59.5024,120.4036],[10.9877,59.5006,122.0075],[10.9853,59.5095,128.3816],[10.9941,59.5101,131.6787],[10.9881,59.5323,117.4501],[10.9705,59.5311,112.5157],[10.9693,59.5356,138.9034],[10.8903,59.5301,131.0317],[10.8915,59.5256,137.7645],[10.8476,59.5225,73.3383],[10.8464,59.527,84.0154],[10.8376,59.5263,55.1445],[10.8364,59.5308,49.772],[10.8188,59.5295,79.534],[10.8201,59.5251,57.244],[10.8113,59.5245,73.9606],[10.8125,59.52,46.8791],[10.8037,59.5194,64.1382],[10.805,59.515,56.7575],[10.7962,59.5143,73.7235],[10.7974,59.5099,67.3602],[10.7886,59.5093,79.576],[10.7874,59.5137,71.2067],[10.7786,59.5131,40.9396],[10.7774,59.5175,35.0853],[10.7686,59.5169,45.0259],[10.7735,59.4991,48.8114],[10.7648,59.4985,54.2678],[10.766,59.4941,73.7378]]]]}}