{"type":"Feature","properties":{"GID_2":"NOR.11.3_1","GID_0":"NOR","country":"Norway","GID_1":"NOR.11_1","province":"Oppland","NL_NAME_1":"NA","county":"Gausdal","VARNAME_2":"NA","NL_NAME_2":"NA","TYPE_2":"Kommuner","ENGTYPE_2":"Municipality","CC_2":"NA","HASC_2":"NO.OP.GA","name":"Gausdal.county"},
"geometry":{"type": "MultiPolygon","coordinates": [[[[9.629,61.1569,1265.1973],[9.6567,61.159,1112.0925],[9.6581,61.1546,1130.8671],[9.7318,61.1602,1060.7958],[9.7332,61.1558,1070.2279],[9.7424,61.1565,995.9366],[9.7439,61.152,988.6296],[9.7531,61.1527,955.9174],[9.7545,61.1483,967.1422],[9.7729,61.1497,985.3097],[9.7744,61.1453,1012.8416],[9.7928,61.1466,993.1813],[9.7942,61.1422,963.1299],[9.8218,61.1443,850.6519],[9.8204,61.1487,866.1589],[9.8296,61.1494,851.1446],[9.8253,61.1627,901.4429],[9.8345,61.1634,919.2133],[9.8359,61.159,925.1161],[9.8636,61.161,922.7344],[9.865,61.1566,927.7382],[9.8834,61.158,916.0148],[9.8848,61.1535,923.6182],[9.9125,61.1556,905.3699],[9.9139,61.1512,947.3957],[9.9415,61.1532,732.0],[9.9429,61.1488,746.3663],[9.9521,61.1495,732.0],[9.9536,61.145,732.0],[9.9628,61.1457,732.0],[9.9699,61.1235,732.0],[9.9791,61.1242,760.6978],[9.9819,61.1153,788.2593],[10.1015,61.1241,915.1666],[10.1029,61.1197,886.9547],[10.1213,61.121,921.8795],[10.1227,61.1166,914.412],[10.1319,61.1173,905.4725],[10.1333,61.1128,909.8699],[10.1425,61.1135,846.2913],[10.1439,61.1091,857.7362],[10.1807,61.1117,770.6837],[10.1793,61.1162,709.0023],[10.1977,61.1175,560.0068],[10.1963,61.1219,479.8443],[10.2055,61.1226,397.9511],[10.2042,61.127,346.3747],[10.2226,61.1284,380.774],[10.2212,61.1328,439.184],[10.2304,61.1335,520.2756],[10.2249,61.1512,780.891],[10.2156,61.1506,790.3643],[10.2073,61.1772,792.2719],[10.2166,61.1779,828.0551],[10.2152,61.1823,822.4156],[10.2336,61.1836,796.9044],[10.2322,61.1881,789.7629],[10.2599,61.19,639.534],[10.2691,61.1907,430.2415],[10.2705,61.1863,493.7953],[10.2982,61.1882,177.0549],[10.2968,61.1927,167.7891],[10.3153,61.194,275.1755],[10.3139,61.1984,289.1139],[10.3231,61.1991,367.2194],[10.3218,61.2035,376.653],[10.331,61.2042,467.8141],[10.3296,61.2086,495.4446],[10.3388,61.2093,592.7905],[10.3375,61.2137,735.2317],[10.3467,61.2144,650.0528],[10.3453,61.2188,708.9407],[10.3546,61.2195,701.2946],[10.3532,61.2239,727.0045],[10.3624,61.2246,752.5311],[10.3611,61.229,776.9514],[10.3703,61.2297,739.0687],[10.3689,61.2341,760.7043],[10.3782,61.2348,764.988],[10.3755,61.2436,783.72],[10.3662,61.243,781.6714],[10.3635,61.2519,757.7332],[10.3542,61.2512,726.3175],[10.3529,61.2556,691.3381],[10.3159,61.253,697.9588],[10.3131,61.2619,593.6599],[10.2946,61.2606,624.7504],[10.2932,61.265,593.9778],[10.2655,61.263,663.9501],[10.2627,61.2719,635.2122],[10.2535,61.2713,653.5333],[10.2521,61.2757,603.8944],[10.2429,61.275,636.2625],[10.2401,61.2839,600.9268],[10.2308,61.2832,608.9996],[10.2281,61.2921,558.1865],[10.2188,61.2915,598.3101],[10.216,61.3003,529.1709],[10.2068,61.2997,531.7318],[10.1984,61.3263,767.6039],[10.2077,61.327,807.7056],[10.2049,61.3358,838.6348],[10.2141,61.3365,866.9542],[10.2113,61.3454,895.6637],[10.2021,61.3447,862.5736],[10.1993,61.3536,838.3641],[10.19,61.3529,874.1799],[10.1886,61.3574,942.1425],[10.1793,61.3567,1026.8473],[10.1723,61.3789,915.1639],[10.163,61.3782,884.792],[10.1616,61.3827,878.933],[10.1431,61.3813,903.7116],[10.1417,61.3858,913.3504],[10.1324,61.3851,906.3881],[10.131,61.3895,935.1353],[10.1124,61.3882,996.0093],[10.111,61.3926,1140.16],[10.0924,61.3913,1197.9661],[10.091,61.3957,1157.4962],[10.0725,61.3944,1156.1532],[10.071,61.3988,1126.2864],[10.0432,61.3968,1143.2883],[10.0446,61.3923,1186.0863],[10.0075,61.3896,1029.9261],[10.0089,61.3852,1044.6511],[9.9718,61.3825,942.646],[9.9704,61.3869,950.1829],[9.9611,61.3862,975.0311],[9.9597,61.3907,990.5828],[9.9411,61.3893,948.8076],[9.9397,61.3937,944.9912],[9.9304,61.3931,939.7309],[9.929,61.3975,948.8219],[9.9197,61.3968,923.4281],[9.9183,61.4012,947.9437],[9.909,61.4006,906.0124],[9.9075,61.405,925.7961],[9.889,61.4036,907.32],[9.8875,61.408,919.1678],[9.8782,61.4074,917.1801],[9.8768,61.4118,929.1704],[9.8582,61.4104,971.6975],[9.8568,61.4149,943.7792],[9.8011,61.4107,915.9667],[9.7996,61.4151,918.7496],[9.7903,61.4144,896.2708],[9.7918,61.41,899.2465],[9.7361,61.4058,705.7322],[9.7376,61.4014,703.6832],[9.6912,61.3979,949.0094],[9.6897,61.4024,972.0771],[9.6712,61.401,1021.627],[9.6697,61.4054,1033.5594],[9.6512,61.404,1081.6481],[9.6497,61.4084,1144.8016],[9.6311,61.407,1189.0996],[9.6296,61.4114,1262.1353],[9.6111,61.41,1223.666],[9.6096,61.4145,1361.6959],[9.5911,61.413,1198.4156],[9.5896,61.4175,1221.4796],[9.5525,61.4146,788.7839],[9.5539,61.4102,724.8551],[9.5354,61.4088,774.7914],[9.5384,61.3999,1056.7831],[9.5291,61.3992,1168.4709],[9.5306,61.3948,1152.0516],[9.5213,61.3941,1232.4589],[9.5228,61.3897,1187.5652],[9.5136,61.3889,1265.8579],[9.5151,61.3845,1193.1843],[9.5058,61.3838,1302.7885],[9.5073,61.3794,1228.09],[9.498,61.3787,1226.3942],[9.4995,61.3742,1211.5464],[9.4903,61.3735,1171.3839],[9.4918,61.3691,1144.5144],[9.4825,61.3684,1146.0739],[9.484,61.3639,1134.709],[9.4747,61.3632,1094.144],[9.4762,61.3588,1068.1351],[9.467,61.3581,1080.848],[9.4685,61.3536,1034.0989],[9.4592,61.3529,1060.9001],[9.4607,61.3485,1069.9417],[9.4515,61.3478,1157.3282],[9.453,61.3434,1148.5885],[9.4437,61.3426,1185.9844],[9.4452,61.3382,1221.1533],[9.436,61.3375,1222.5062],[9.4375,61.3331,1231.0297],[9.419,61.3316,1244.7139],[9.4205,61.3272,1285.4406],[9.4112,61.3265,1277.9775],[9.4127,61.3221,1301.5763],[9.3942,61.3206,1298.4584],[9.3958,61.3162,1330.1891],[9.3773,61.3148,1478.4875],[9.3788,61.3103,1420.502],[9.3695,61.3096,1299.5404],[9.371,61.3052,1325.17],[9.3526,61.3037,1373.839],[9.3541,61.2993,1456.9543],[9.3264,61.2971,1199.4916],[9.3248,61.3016,1163.1813],[9.3156,61.3008,1159.2607],[9.3171,61.2964,1166.4271],[9.3079,61.2957,1260.9097],[9.3094,61.2913,1205.3942],[9.3186,61.292,1212.865],[9.3202,61.2876,1178.803],[9.3294,61.2883,1333.9167],[9.3309,61.2838,1160.226],[9.3402,61.2846,1164.5302],[9.3417,61.2801,1156.6382],[9.3509,61.2809,1169.5902],[9.3524,61.2764,1156.2791],[9.3616,61.2772,1177.9501],[9.3632,61.2727,1152.6371],[9.3724,61.2735,1169.3071],[9.3739,61.269,1151.3101],[9.3831,61.2697,1183.7637],[9.3846,61.2653,1143.4583],[9.3939,61.266,1133.198],[9.3954,61.2616,1150.4675],[9.4046,61.2623,1097.3163],[9.4061,61.2579,1131.4692],[9.4153,61.2586,1070.4949],[9.4168,61.2542,1099.7404],[9.4353,61.2556,1061.3413],[9.4368,61.2512,1010.5846],[9.446,61.2519,991.4766],[9.4475,61.2475,972.2136],[9.4567,61.2482,971.3042],[9.4582,61.2438,942.5975],[9.4675,61.2445,941.9359],[9.4705,61.2356,948.7313],[9.4797,61.2363,943.2996],[9.4812,61.2319,1009.1804],[9.4904,61.2326,1003.6633],[9.4934,61.2238,1036.5238],[9.5026,61.2245,1032.4506],[9.5041,61.22,1040.6224],[9.5133,61.2208,1064.8275],[9.5163,61.2119,991.2018],[9.5255,61.2126,972.9126],[9.527,61.2082,952.0411],[9.5362,61.2089,935.5606],[9.5392,61.2,1015.0396],[9.5484,61.2007,1038.467],[9.5499,61.1963,1067.2533],[9.5591,61.197,1068.3552],[9.562,61.1882,1028.9177],[9.5712,61.1889,989.4507],[9.5727,61.1844,1019.0743],[9.5819,61.1851,958.5],[9.5849,61.1763,1004.1033],[9.5941,61.177,982.8306],[9.5956,61.1726,1021.1805],[9.6048,61.1733,1033.1586],[9.6077,61.1644,1189.2134],[9.6169,61.1651,1120.8521],[9.6184,61.1607,1167.8494],[9.6276,61.1614,1204.4071],[9.629,61.1569,1265.1973]]]]}}