{"type": "Feature","bbox": [8.3573,59.5319,9.0128,59.855],"geometry": {"type": "MultiPolygon","coordinates": [[[[8.8079,59.8536,1020.0717],[8.7991,59.8528,1064.585],[8.8006,59.8484,1046.3099],[8.7124,59.8408,1136.2002],[8.7139,59.8364,1152.1216],[8.6257,59.8287,982.2737],[8.6227,59.8375,986.9647],[8.6139,59.8368,1081.2593],[8.6123,59.8412,1059.8043],[8.6035,59.8404,1126.1824],[8.602,59.8448,1147.8682],[8.5932,59.8441,1200.8951],[8.5916,59.8485,1192.6976],[8.574,59.847,1180.6536],[8.5724,59.8514,1098.6521],[8.5636,59.8506,1213.0653],[8.5621,59.855,1122.0374],[8.5003,59.8496,1073.2383],[8.5019,59.8452,1169.5413],[8.4843,59.8436,1032.8772],[8.4858,59.8392,1033.2395],[8.4594,59.8369,1219.0757],[8.4609,59.8324,1220.292],[8.4433,59.8309,1184.3804],[8.4448,59.8265,1175.8446],[8.4272,59.8249,1219.3076],[8.4288,59.8205,1218.4944],[8.4111,59.8189,1223.2631],[8.4127,59.8145,1235.7244],[8.3951,59.8129,1230.0735],[8.3966,59.8085,1223.6694],[8.3878,59.8077,1172.3395],[8.3894,59.8033,1154.9],[8.3718,59.8018,1156.2812],[8.3734,59.7973,1126.9897],[8.3646,59.7965,1126.5264],[8.3661,59.7921,1105.8849],[8.3573,59.7913,1131.7985],[8.3604,59.7825,1041.6396],[8.3692,59.7833,1104.396],[8.3708,59.7789,1182.6078],[8.3796,59.7797,1215.7715],[8.3811,59.7752,1168.9893],[8.3899,59.776,1169.3337],[8.3915,59.7716,1197.2332],[8.4003,59.7724,1208.2375],[8.4019,59.768,1227.5798],[8.4106,59.7688,1224.573],[8.4122,59.7644,1316.7041],[8.421,59.7651,1237.5065],[8.4256,59.7519,1211.9956],[8.4169,59.7511,1218.1588],[8.4215,59.7379,1096.9407],[8.4303,59.7386,1090.2133],[8.4365,59.721,1179.6244],[8.4453,59.7217,1187.9673],[8.4499,59.7085,945.6387],[8.4587,59.7093,1052.6371],[8.4664,59.6872,980.5679],[8.4752,59.688,1057.0217],[8.4829,59.6659,828.9408],[8.4916,59.6666,914.8663],[8.4978,59.649,912.4421],[8.5066,59.6498,1000.1711],[8.5081,59.6453,924.7172],[8.5169,59.6461,979.6337],[8.5276,59.6152,779.1013],[8.5363,59.616,834.653],[8.5378,59.6115,806.0754],[8.5466,59.6123,757.6163],[8.5481,59.6079,753.9678],[8.5569,59.6087,729.1375],[8.5584,59.6042,738.3594],[8.5672,59.605,733.9017],[8.5748,59.5829,532.1988],[8.6185,59.5868,681.7762],[8.6201,59.5824,701.9341],[8.6288,59.5831,747.1549],[8.6303,59.5787,775.8915],[8.6828,59.5833,734.2313],[8.6843,59.5789,827.5123],[8.6931,59.5796,867.1396],[8.6961,59.5708,986.6361],[8.7048,59.5716,1037.6904],[8.7094,59.5583,1308.3264],[8.7181,59.5591,1322.8806],[8.7196,59.5546,1365.1196],[8.7283,59.5554,1366.7284],[8.7298,59.551,1348.0004],[8.7473,59.5525,1209.2932],[8.7503,59.5437,911.2761],[8.7591,59.5444,901.314],[8.7621,59.5356,681.6498],[8.7708,59.5363,709.6808],[8.7723,59.5319,847.5197],[8.8248,59.5365,767.648],[8.8262,59.532,759.1491],[8.8612,59.535,800.8886],[8.8597,59.5395,940.283],[8.8772,59.541,1019.451],[8.8757,59.5454,1040.5986],[8.8932,59.5469,1092.7349],[8.8918,59.5513,1060.885],[8.918,59.5536,731.7069],[8.9165,59.558,656.9663],[8.934,59.5595,760.1603],[8.9326,59.5639,931.4891],[8.9588,59.5662,785.9724],[8.9574,59.5706,588.673],[8.9749,59.5721,502.0911],[8.9734,59.5765,410.681],[8.9909,59.578,363.3181],[8.9895,59.5824,330.0262],[8.9982,59.5831,313.3177],[8.9967,59.5876,354.191],[9.0055,59.5883,338.4077],[9.004,59.5927,159.4941],[9.0128,59.5935,140.0545],[8.9996,59.6333,166.7276],[9.0084,59.634,163.9124],[9.0055,59.6429,168.6445],[9.004,59.6473,180.937],[8.9952,59.6466,242.8604],[8.9923,59.6554,281.698],[8.9835,59.6547,328.9585],[8.982,59.6591,322.1429],[8.9645,59.6576,479.2451],[8.963,59.662,494.7881],[8.9454,59.6605,595.8891],[8.944,59.665,616.4016],[8.9264,59.6635,446.7339],[8.9249,59.6679,608.2479],[8.9074,59.6664,436.6808],[8.9088,59.662,328.6254],[8.9001,59.6612,300.4292],[8.8825,59.6597,305.2983],[8.881,59.6642,268.2787],[8.8722,59.6634,303.4379],[8.8678,59.6767,364.2718],[8.9029,59.6797,555.1841],[8.9014,59.6841,635.8704],[8.9102,59.6848,717.4022],[8.8998,59.7158,679.1938],[8.9086,59.7166,675.3393],[8.9042,59.7298,855.6044],[8.8954,59.7291,777.9004],[8.8939,59.7335,842.987],[8.8851,59.7327,893.0447],[8.8806,59.746,959.3292],[8.8894,59.7468,781.4101],[8.8864,59.7556,680.2646],[8.8952,59.7564,761.6169],[8.8923,59.7652,984.2692],[8.8835,59.7645,903.7138],[8.8775,59.7822,903.9185],[8.8863,59.7829,902.0323],[8.8833,59.7917,896.2742],[8.8745,59.791,899.015],[8.873,59.7954,896.0353],[8.8642,59.7947,896.2928],[8.8597,59.8079,895.7888],[8.8509,59.8072,896.0793],[8.8404,59.8381,928.4484],[8.8316,59.8374,937.1734],[8.8301,59.8418,987.1651],[8.8213,59.8411,941.535],[8.8183,59.8499,1049.0723],[8.8094,59.8491,1025.6609],[8.8079,59.8536,1020.0717]]]]}
,"properties": {"GID_2": "NOR.16.5_1","GID_0": "NOR","country": "Norway","GID_1": "NOR.16_1","province": "Telemark","NL_NAME_1": "NA","county": "Hjartdal","VARNAME_2": "NA","NL_NAME_2": "NA","TYPE_2": "Kommuner","ENGTYPE_2": "Municipality","CC_2": "NA","HASC_2": "NO.TE.HJ","name": "Hjartdal.county","area_km2": 800.1786,"hist_schema_id": "Elevation0-9000","hist_area_km2": {"50": 0.8153,"75": 2.5956,"100": 3.6247,"125": 4.7399,"150": 8.9974,"175": 5.3404,"200": 4.6971,"225": 4.9864,"250": 6.1765,"275": 7.9373,"300": 8.0983,"325": 8.5273,"350": 7.153,"375": 6.2938,"400": 7.0391,"425": 6.696,"450": 8.0742,"475": 8.1272,"500": 8.5145,"525": 9.7223,"550": 9.5944,"575": 10.7838,"600": 11.9053,"625": 13.895,"650": 16.3274,"675": 18.7148,"700": 22.0799,"725": 21.6033,"750": 28.4195,"775": 27.6121,"800": 32.1036,"825": 32.4988,"850": 33.5018,"875": 36.9035,"900": 39.0339,"925": 40.3748,"950": 36.8352,"975": 39.2329,"1000": 31.0458,"1025": 25.1004,"1050": 22.3282,"1075": 19.7318,"1100": 20.1924,"1125": 18.274,"1150": 15.6778,"1175": 11.8348,"1200": 8.8456,"1225": 7.9807,"1250": 4.8122,"1275": 2.4972,"1300": 2.3186,"1325": 2.0306,"1350": 1.8823,"1375": 1.7532,"1400": 0.9709,"1425": 0.9171,"1450": 0.5971,"1475": 0.6288,"1500": 0.7566,"1525": 0.2451,"1550": 0.1385,"1575": 0.0426}}}