{"type":"Feature","properties":{"GID_2":"NOR.14.4_1","GID_0":"NOR","country":"Norway","GID_1":"NOR.14_1","province":"SognogFjordane","NL_NAME_1":"NA","county":"Balestrand","VARNAME_2":"NA","NL_NAME_2":"NA","TYPE_2":"Kommuner","ENGTYPE_2":"Municipality","CC_2":"NA","HASC_2":"NO.SF.BA","name":"Balestrand.county"},
"geometry":{"type": "MultiPolygon","coordinates": [[[[6.674,61.2726,222.2529],[6.6798,61.2731,364.0364],[6.6807,61.2708,568.0969],[6.6908,61.2696,954.9075],[6.6927,61.2652,1145.9003],[6.711,61.267,1137.3671],[6.7129,61.2626,1395.6226],[6.7221,61.2635,1323.8473],[6.7202,61.2679,1172.6357],[6.7385,61.2697,1000.3452],[6.7254,61.3005,919.7516],[6.7162,61.2996,1069.7678],[6.7143,61.304,1196.2537],[6.7418,61.3067,771.3029],[6.74,61.3111,723.85],[6.7491,61.312,1064.9891],[6.7583,61.3129,1273.6844],[6.7602,61.3085,1261.6676],[6.7877,61.3112,1581.2919],[6.7896,61.3068,1410.0221],[6.7988,61.3077,1501.6201],[6.7969,61.312,1578.3573],[6.8061,61.3129,1434.2118],[6.7949,61.3393,1447.3622],[6.804,61.3402,1470.033],[6.8022,61.3446,1124.9077],[6.8114,61.3455,1098.946],[6.8095,61.3499,1145.6487],[6.8187,61.3508,1339.4609],[6.8168,61.3552,1461.5277],[6.826,61.3561,1514.5771],[6.8241,61.3605,1521.4454],[6.8333,61.3614,1402.9447],[6.8296,61.3701,1586.3694],[6.8388,61.371,1367.9661],[6.835,61.3798,1292.1488],[6.8442,61.3807,1343.4482],[6.8424,61.3851,1273.0756],[6.8516,61.386,1274.9573],[6.8497,61.3904,1364.1609],[6.8589,61.3913,1391.472],[6.8533,61.4045,1454.08],[6.8625,61.4054,1286.7993],[6.8606,61.4098,1497.8335],[6.879,61.4115,1537.5237],[6.8772,61.4159,1554.8],[6.8956,61.4177,1369.7367],[6.8937,61.4221,1244.6559],[6.9029,61.423,1002.1949],[6.8955,61.4406,1293.6145],[6.9047,61.4415,1143.0492],[6.8953,61.4634,1491.8558],[6.9046,61.4643,1485.085],[6.9008,61.4731,1274.7518],[6.91,61.474,1225.417],[6.9082,61.4784,1181.2325],[6.9174,61.4793,1158.5682],[6.9081,61.5013,885.1081],[6.9173,61.5022,1235.9539],[6.9154,61.5065,636.9828],[6.9062,61.5057,636.5587],[6.8987,61.5232,1572.0679],[6.8894,61.5224,1616.5914],[6.8857,61.5311,1562.519],[6.8764,61.5303,1581.5702],[6.8745,61.5346,1556.4888],[6.8653,61.5338,1569.0079],[6.8634,61.5382,1340.2247],[6.8542,61.5373,1443.9514],[6.8504,61.5461,1396.8789],[6.8411,61.5452,1499.9681],[6.8393,61.5496,1361.5757],[6.83,61.5487,1550.5186],[6.8262,61.5575,1479.0833],[6.817,61.5566,1581.0482],[6.8151,61.561,1538.0066],[6.7873,61.5583,1649.5092],[6.7892,61.5539,1649.9901],[6.7707,61.5521,1641.0742],[6.7726,61.5477,1644.0015],[6.7541,61.5459,1614.0002],[6.756,61.5415,1608.4819],[6.7375,61.5397,1621.5017],[6.7394,61.5353,1612.9512],[6.7302,61.5344,1634.1958],[6.734,61.5256,1590.4144],[6.7247,61.5247,1592.7971],[6.7285,61.5159,1603.6897],[6.7193,61.515,1576.3467],[6.7231,61.5063,1395.3623],[6.7139,61.5054,1395.2417],[6.7177,61.4966,1239.9056],[6.7084,61.4957,1364.9673],[6.7103,61.4913,1209.8602],[6.7011,61.4904,1281.4075],[6.7049,61.4816,1053.9213],[6.6957,61.4807,1200.0404],[6.7014,61.4675,1111.7512],[6.6921,61.4666,1419.8224],[6.694,61.4622,1242.3285],[6.6756,61.4604,1018.7424],[6.6775,61.456,901.9758],[6.6683,61.4551,1056.0127],[6.6702,61.4507,906.8116],[6.6517,61.4489,1396.3295],[6.6537,61.4445,1315.3842],[6.6352,61.4427,1347.0001],[6.6371,61.4383,1124.6519],[6.6095,61.4356,1252.3124],[6.6114,61.4312,1221.6115],[6.5838,61.4285,1331.9769],[6.5857,61.4241,1343.9012],[6.558,61.4214,1405.3845],[6.56,61.417,1347.0818],[6.5231,61.4133,1582.5482],[6.5251,61.409,1560.2992],[6.4975,61.4062,1479.5023],[6.4994,61.4018,1439.4829],[6.5086,61.4027,1471.7584],[6.5124,61.394,1293.642],[6.494,61.3921,1094.421],[6.496,61.3877,1275.1798],[6.4868,61.3868,1094.2394],[6.4887,61.3824,1103.2898],[6.4795,61.3815,1057.252],[6.4814,61.3771,993.2101],[6.4722,61.3762,1158.4952],[6.4741,61.3718,931.0383],[6.465,61.3709,931.118],[6.4669,61.3665,930.7692],[6.4577,61.3656,944.4443],[6.4596,61.3612,931.0726],[6.4504,61.3603,930.8001],[6.4524,61.3559,1026.2465],[6.4432,61.355,931.1312],[6.4451,61.3506,887.9967],[6.4267,61.3488,992.8716],[6.4287,61.3444,747.0358],[6.4195,61.3435,760.9024],[6.4214,61.3391,755.7079],[6.4122,61.3381,617.6772],[6.4142,61.3338,607.1327],[6.405,61.3328,597.2296],[6.4108,61.3197,939.3156],[6.4016,61.3188,1019.1488],[6.4035,61.3144,1106.8716],[6.376,61.3116,715.6993],[6.378,61.3072,689.5223],[6.3596,61.3054,818.9674],[6.3615,61.301,906.7922],[6.3432,61.2991,1110.5083],[6.3548,61.2728,1410.4651],[6.364,61.2737,1353.7616],[6.3679,61.265,1237.5928],[6.377,61.2659,1338.8218],[6.3789,61.2615,1332.0061],[6.3881,61.2624,1397.4401],[6.39,61.258,1330.37],[6.3992,61.2589,1338.6116],[6.4011,61.2546,1204.5735],[6.4103,61.2555,1344.0179],[6.4141,61.2467,1207.1515],[6.3775,61.243,1366.5547999999999],[6.3794,61.2386,1308.9919],[6.3611,61.2368,1444.7596],[6.3592,61.2412,1378.3267],[6.3409,61.2393,1305.2454],[6.339,61.2437,1224.0146],[6.3298,61.2428,1240.0385],[6.3318,61.2384,1185.6439],[6.2586,61.231,1139.7404],[6.2605,61.2266,998.0218],[6.224,61.2229,903.2048],[6.2259,61.2185,975.7353],[6.2168,61.2176,1069.5354],[6.2187,61.2132,1195.2662],[6.2004,61.2113,1005.8914],[6.2024,61.2069,1221.7206],[6.1841,61.205,1284.4114],[6.1861,61.2007,1161.2601],[6.1769,61.1997,1105.6768],[6.1789,61.1953,867.5916],[6.1698,61.1944,1054.9529],[6.1717,61.19,957.3589],[6.1535,61.1881,1027.3427],[6.1554,61.1838,858.7968],[6.1463,61.1828,906.9587],[6.1482,61.1784,724.3509],[6.1391,61.1775,818.0916],[6.1411,61.1731,660.4446],[6.1319,61.1722,739.5554],[6.1391,61.1561,169.3951],[6.1546,61.16,216.8925],[6.1701,61.1608,141.0949],[6.1825,61.1635,96.3068],[6.1965,61.1801,138.7464],[6.2066,61.1848,90.058],[6.2221,61.1878,0.0],[6.2195,61.1854,0.0],[6.2229,61.1854,0.0],[6.2245,61.1839,29.7226],[6.2151,61.1807,0.0],[6.2141,61.1755,8.9812],[6.2089,61.1745,0.0],[6.2078,61.1672,71.3892],[6.2047,61.1661,0.0],[6.2068,61.163,0.0],[6.2266,61.1578,0.0],[6.2432,61.1495,0.0],[6.2422,61.1464,0.0],[6.2505,61.1422,0.0],[6.2578,61.1411,0.0],[6.2589,61.138,0.0],[6.2661,61.137,0.0],[6.2688,61.1333,0.0],[6.2896,61.1333,0.0],[6.2937,61.1354,0.0],[6.2979,61.1333,0.0],[6.3078,61.1328,0.0],[6.3104,61.1292,11.9355],[6.3187,61.1292,29.3697],[6.3229,61.1271,0.0],[6.3354,61.1271,33.3628],[6.338,61.1234,17.399],[6.3422,61.1214,38.4987],[6.3479,61.1208,0.0],[6.3536,61.1182,70.0987],[6.3568,61.113,0.0],[6.3667,61.1125,33.469],[6.3708,61.1104,0.0],[6.3938,61.1104,0.0],[6.4146,61.1167,17.6587],[6.4229,61.1125,0.0],[6.4542,61.1125,0.0],[6.4583,61.1146,26.7151],[6.4708,61.1146,0.0],[6.475,61.1188,0.0],[6.4708,61.1229,0.0],[6.4714,61.1266,0.0],[6.4729,61.1271,5.5127],[6.4875,61.1271,0.0],[6.4891,61.1286,0.0],[6.4859,61.1307,0.0],[6.4875,61.1312,0.0],[6.5104,61.1312,0.0],[6.5188,61.1354,9.1701],[6.5313,61.1354,0.0],[6.5354,61.1375,15.4199],[6.5432,61.138,7.5037],[6.5474,61.1401,0.0],[6.5437,61.1437,6.5327],[6.5453,61.1474,0.0],[6.5417,61.15,0.0],[6.5422,61.1557,16.5253],[6.5474,61.1568,0.0],[6.5479,61.1583,0.0],[6.5437,61.1625,5.4975],[6.5458,61.1688,0.0],[6.5453,61.1703,0.0],[6.538,61.1734,0.0],[6.537,61.1766,0.0],[6.5339,61.1776,7.9703],[6.5396,61.1833,0.0],[6.5391,61.1849,0.0],[6.5318,61.1859,15.9343],[6.5333,61.1917,0.0],[6.5297,61.1943,0.0],[6.5328,61.1964,0.0],[6.5354,61.2021,0.0],[6.5359,61.2078,3.2913],[6.5391,61.2099,0.0],[6.5313,61.2125,0.0],[6.5208,61.2104,137.4835],[6.5083,61.2146,0.0],[6.5,61.2146,0.0],[6.4943,61.2172,0.0],[6.4922,61.2203,0.0],[6.5146,61.2188,42.5507],[6.5188,61.2167,0.0],[6.5354,61.2167,6.1122],[6.5396,61.2125,0.0],[6.5437,61.2125,0.0],[6.5479,61.2146,21.5069],[6.5604,61.2146,0.0],[6.5646,61.2125,25.2248],[6.5682,61.2161,0.0],[6.5609,61.2172,13.6278],[6.5599,61.2224,0.0],[6.5484,61.2276,5.5172],[6.5505,61.237,99.0088],[6.5557,61.238,0.0],[6.5563,61.2438,0.0],[6.5557,61.2453,0.0],[6.5484,61.2484,99.1045],[6.5495,61.2516,0.0],[6.5464,61.2526,0.0],[6.5453,61.2578,0.0],[6.5422,61.2589,0.0],[6.5432,61.262,0.0],[6.5313,61.2625,46.9436],[6.5234,61.2651,25.917],[6.5068,61.2734,0.0],[6.5068,61.2766,0.0],[6.525,61.2708,0.0],[6.5453,61.2714,0.0],[6.55,61.275,0.0],[6.5495,61.2786,0.0],[6.5464,61.2807,58.0912],[6.5516,61.2818,0.0],[6.5521,61.2833,0.0],[6.5516,61.2891,0.0],[6.5484,61.2911,33.7342],[6.5536,61.2943,0.0],[6.5547,61.2995,0.0],[6.5661,61.2974,37.1263],[6.5661,61.288,40.7823],[6.5609,61.2859,0.0],[6.5682,61.2818,75.8757],[6.5651,61.2807,0.0],[6.5625,61.275,0.0],[6.5625,61.2708,0.0],[6.5661,61.2682,27.5711],[6.5651,61.263,0.0],[6.5682,61.262,0.0],[6.5693,61.2568,0.0],[6.5729,61.2521,0.0],[6.5771,61.2542,17.2227],[6.5849,61.2547,0.0],[6.5917,61.2583,0.0],[6.5974,61.2589,0.0],[6.6047,61.2641,14.5834],[6.612,61.2651,0.0],[6.6151,61.2703,0.0],[6.6328,61.2776,0.0],[6.6339,61.2807,142.0042],[6.6438,61.2833,88.4158],[6.65,61.2813,0.0],[6.6557,61.2839,0.0],[6.6578,61.2932,6.4529],[6.6547,61.2953,31.4121],[6.6578,61.2964,0.0],[6.6609,61.3036,0.0],[6.6641,61.3047,0.0],[6.6651,61.3099,0.0],[6.6703,61.3109,0.0],[6.6714,61.3182,0.0],[6.6849,61.3234,0.0],[6.6818,61.3266,14.1736],[6.6911,61.3297,0.0],[6.6922,61.3349,0.0],[6.6974,61.3359,0.0],[6.6984,61.3391,0.0],[6.7026,61.3411,0.0],[6.7078,61.3422,0.0],[6.7089,61.3453,17.4083],[6.7188,61.3479,0.0],[6.7307,61.3484,0.0],[6.7234,61.3526,0.0],[6.7271,61.3563,0.0],[6.725,61.3604,0.0],[6.725,61.3667,0.0],[6.7255,61.3682,15.0183],[6.7307,61.3693,0.0],[6.7318,61.3766,9.1595],[6.737,61.3776,0.0],[6.738,61.3807,0.0],[6.7411,61.3818,0.0],[6.738,61.3849,37.533],[6.7432,61.3859,0.0],[6.7432,61.3911,0.0],[6.7396,61.3937,35.656],[6.7417,61.3979,0.0],[6.7422,61.4057,0.0],[6.7443,61.4099,0.0],[6.7474,61.4109,0.0],[6.7505,61.4182,0.0],[6.7536,61.4182,0.0],[6.762,61.4141,12.777],[6.7599,61.4109,19.7684],[6.7568,61.4099,0.0],[6.7599,61.4068,32.5638],[6.7568,61.4057,0.0],[6.7542,61.4021,0.0],[6.7578,61.3984,46.7346],[6.7547,61.3974,0.0],[6.7516,61.388,0.0],[6.7484,61.387,0.0],[6.7458,61.3833,0.0],[6.7464,61.3776,0.0],[6.7495,61.3755,6.789],[6.7438,61.3708,0.0],[6.7479,61.3667,25.8662],[6.7417,61.3604,0.0],[6.7458,61.3563,0.0],[6.7432,61.3464,48.7582],[6.7339,61.3453,0.0],[6.7328,61.3401,47.1298],[6.7234,61.3391,0.0],[6.7109,61.3328,0.0],[6.7078,61.3276,0.0],[6.7047,61.3266,0.0],[6.7078,61.3234,124.291],[6.6984,61.3224,0.0],[6.6974,61.3193,0.0],[6.6943,61.3182,0.0],[6.6974,61.3151,24.8081],[6.6839,61.312,0.0],[6.6833,61.3083,0.0],[6.6854,61.3042,0.0],[6.6818,61.3016,0.0],[6.6792,61.2938,0.0],[6.6797,61.2901,0.0],[6.6833,61.2875,0.0],[6.6807,61.2776,205.4051],[6.6714,61.2766,0.0],[6.6714,61.2734,138.9017],[6.674,61.2726,222.2529]]]]}}