{"type":"Feature","properties":{"GID_2":"NOR.13.13_1","GID_0":"NOR","country":"Norway","GID_1":"NOR.13_1","province":"Rogaland","NL_NAME_1":"NA","county":"Lund","VARNAME_2":"NA","NL_NAME_2":"NA","TYPE_2":"Kommuner","ENGTYPE_2":"Municipality","CC_2":"NA","HASC_2":"NO.RO.LU","name":"Lund.county"},
"geometry":{"type": "MultiPolygon","coordinates": [[[[6.2858,58.4849,189.6907],[6.2893,58.4761,276.7289],[6.3061,58.4779,198.1506],[6.3096,58.4692,327.431],[6.3012,58.4682,368.2692],[6.3064,58.4551,358.2002],[6.3149,58.456,333.6056],[6.3201,58.4428,347.7906],[6.3117,58.4419,417.9783],[6.3187,58.4243,329.5094],[6.4028,58.4335,395.709],[6.4011,58.4379,326.759],[6.4095,58.4388,334.7341],[6.4078,58.4432,378.7842],[6.4162,58.4441,427.5764],[6.4144,58.4485,349.0466],[6.4229,58.4494,397.3043],[6.4177,58.4626,450.7538],[6.4514,58.4662,414.1667],[6.4531,58.4619,593.157],[6.4615,58.4628,585.4421],[6.4667,58.4496,543.4939],[6.4751,58.4505,572.3546],[6.4768,58.4461,548.2567],[6.4853,58.447,549.0848],[6.4922,58.4295,527.3647],[6.5006,58.4304,501.7179],[6.5177,58.3864,350.6689],[6.5093,58.3855,404.4207],[6.5111,58.3811,435.623],[6.4942,58.3793,370.3544],[6.4994,58.3662,444.3922],[6.491,58.3652,490.0879],[6.4944,58.3565,507.1162],[6.486,58.3556,427.7772],[6.4895,58.3468,463.4492],[6.4811,58.3459,397.8068],[6.4828,58.3415,339.7779],[6.4744,58.3406,359.7161],[6.4778,58.3318,380.3514],[6.4694,58.3309,383.6092],[6.4728,58.3221,330.0385],[6.4645,58.3212,382.4802],[6.4713,58.3036,210.1902],[6.4797,58.3045,175.6315],[6.478,58.3089,159.1698],[6.4864,58.3098,139.1606],[6.4847,58.3142,142.8686],[6.5015,58.316,142.5419],[6.4997,58.3204,204.5804],[6.5081,58.3213,212.2447],[6.5064,58.3257,259.7438],[6.5232,58.3275,281.4892],[6.5215,58.3319,354.9394],[6.5299,58.3328,191.0692],[6.5282,58.3372,150.5],[6.545,58.339,274.342],[6.5433,58.3434,253.1828],[6.5517,58.3443,343.748],[6.55,58.3487,336.0212],[6.5668,58.3505,288.8825],[6.5651,58.3549,332.0869],[6.5735,58.3558,225.584],[6.5717,58.3602,347.4898],[6.5886,58.362,47.0],[6.5869,58.3664,206.3923],[6.5953,58.3673,47.0],[6.5936,58.3717,198.5205],[6.6104,58.3735,47.0],[6.5916,58.4218,47.0],[6.6,58.4227,47.0],[6.5983,58.4271,47.0],[6.6067,58.428,249.1409],[6.605,58.4324,173.1129],[6.6135,58.4333,293.4972],[6.6117,58.4377,130.1428],[6.6202,58.4386,398.6074],[6.6185,58.443,174.7629],[6.6353,58.4448,350.7512],[6.6319,58.4536,377.8049],[6.6235,58.4527,351.3695],[6.6167,58.4703,392.1248],[6.6082,58.4694,371.8504],[6.5997,58.4913,494.143],[6.5912,58.4904,456.9679],[6.5861,58.5036,513.6273],[6.5945,58.5045,556.058],[6.5911,58.5133,579.5922],[6.5995,58.5142,554.9174],[6.5961,58.523,558.0527],[6.6046,58.5239,581.4196],[6.6029,58.5283,617.327],[6.6113,58.5292,568.8302],[6.6062,58.5424,521.1846],[6.6146,58.5433,516.9319],[6.6095,58.5565,579.1154],[6.6179,58.5574,658.6622],[6.6111,58.5749,480.9358],[6.6026,58.574,479.3848],[6.5975,58.5872,559.1942],[6.589,58.5863,510.9398],[6.5838,58.5995,535.64],[6.5923,58.6004,595.5864],[6.5906,58.6048,547.3496],[6.599,58.6057,582.1298],[6.5956,58.6145,545.836],[6.6041,58.6154,675.1135],[6.6024,58.6198,544.0021],[6.6108,58.6207,660.8793],[6.6074,58.6294,605.1353],[6.5651,58.6249,491.8903],[6.5633,58.6293,374.357],[6.5125,58.6239,537.6948],[6.5143,58.6195,508.8656],[6.4973,58.6177,575.8572],[6.4991,58.6133,522.065],[6.4906,58.6124,546.1249],[6.4923,58.608,565.0235],[6.4754,58.6062,562.1412],[6.4771,58.6018,484.6442],[6.4518,58.599,343.71],[6.4535,58.5947,517.3189],[6.4197,58.591,546.5316],[6.4214,58.5866,524.655],[6.413,58.5857,554.601],[6.4147,58.5813,589.5864],[6.4063,58.5804,572.139],[6.408,58.576,595.2432],[6.3742,58.5724,311.5],[6.3725,58.5767,314.8536],[6.364,58.5758,462.3202],[6.3623,58.5802,536.7682],[6.3369,58.5775,676.3018],[6.3387,58.5731,684.6574],[6.2964,58.5685,596.7186],[6.2982,58.5641,547.6814],[6.2813,58.5622,511.1949],[6.2883,58.5447,189.5211],[6.2799,58.5438,192.107],[6.2816,58.5394,257.766],[6.2901,58.5403,222.5724],[6.3006,58.514,462.2577],[6.2921,58.513,475.4476],[6.2974,58.4999,374.9418],[6.289,58.499,423.6802],[6.2942,58.4858,181.1209],[6.2858,58.4849,189.6907]]]]}}