{"type":"Feature","properties":{"GID_2":"NOR.7.29_1","GID_0":"NOR","country":"Norway","GID_1":"NOR.7_1","province":"Hordaland","NL_NAME_1":"NA","county":"Sveio","VARNAME_2":"NA","NL_NAME_2":"NA","TYPE_2":"Kommuner","ENGTYPE_2":"Municipality","CC_2":"NA","HASC_2":"NO.HO.SV","name":"Sveio.county"},
"geometry":{"type": "MultiPolygon","coordinates": [[[[5.5511,59.5515,1.634],[5.5503,59.5501,5.5633],[5.55,59.5496,5.5633],[5.5514,59.5507,1.634],[5.5511,59.5515,1.634]]],
[[[5.5615,59.5754,0.0],[5.5614,59.5757,7.3518],[5.5614,59.5754,0.0],[5.5615,59.5754,0.0]]],
[[[5.5597,59.5762,0.0],[5.5613,59.576,7.3518],[5.5603,59.5782,0.0],[5.5586,59.5774,0.0],[5.5597,59.5762,0.0]]],
[[[5.4497,59.6199,12.7933],[5.4503,59.6213,0.0],[5.4475,59.6215,0.0],[5.4458,59.6193,1.903],[5.4481,59.619,12.7933],[5.4497,59.6199,12.7933]]],
[[[5.2669,59.5596,0.0],[5.2658,59.5607,0.0],[5.2619,59.5599,0.0],[5.2647,59.5582,0.0],[5.2675,59.5585,8.1458],[5.2669,59.5596,0.0]]],
[[[5.2775,59.5671,0.0],[5.2758,59.5685,0.7717],[5.2731,59.5682,0.0],[5.2742,59.5663,0.0],[5.2775,59.5671,0.0]]],
[[[5.4331,59.4951,40.4243],[5.4586,59.498,5.1749],[5.4575,59.499,0.0],[5.4581,59.5088,0.0],[5.4525,59.5121,0.0],[5.4475,59.5113,12.4379],[5.4464,59.5129,0.2962],[5.4553,59.5185,0.0],[5.4586,59.5246,3.6836],[5.4536,59.5257,0.0],[5.4425,59.5218,11.2821],[5.4458,59.5254,0.0],[5.4553,59.5285,0.0],[5.4553,59.5304,0.0],[5.4603,59.531,0.0],[5.4592,59.5376,7.0997],[5.4514,59.5393,3.7488],[5.4603,59.5401,0.0],[5.4553,59.5426,2.933],[5.4558,59.5454,2.0411],[5.4592,59.5446,0.0],[5.4603,59.5418,0.0],[5.4625,59.541,5.5433],[5.4608,59.536,1.0223],[5.4664,59.5324,14.362],[5.4647,59.5301,0.0],[5.4686,59.5293,17.196],[5.4719,59.5251,0.0],[5.4803,59.5257,13.1154],[5.4869,59.5243,4.1344],[5.4897,59.5204,0.0],[5.4942,59.5224,14.5358],[5.4997,59.5215,0.0],[5.5092,59.5262,5.4868],[5.5092,59.5279,10.1761],[5.5053,59.5315,2.9938],[5.5086,59.5337,0.0],[5.5064,59.5382,19.7809],[5.5064,59.5415,12.8308],[5.5081,59.5435,3.3193],[5.4975,59.5488,0.0],[5.4997,59.5504,0.0],[5.4992,59.5518,10.9174],[5.5047,59.5482,0.0],[5.5142,59.5474,0.0],[5.5169,59.551,9.3049],[5.5147,59.5549,0.0],[5.5158,59.5576,5.2647],[5.5225,59.5615,0.0],[5.5308,59.5626,4.6151],[5.5375,59.5693,0.0],[5.5375,59.5718,0.0],[5.5314,59.5757,2.032],[5.5314,59.5785,3.8323],[5.5292,59.5796,9.8875],[5.5292,59.584,4.7944],[5.5225,59.5857,2.2504],[5.5242,59.5887,0.0],[5.5219,59.5915,7.1956],[5.5258,59.5924,3.2539],[5.5264,59.594,0.0],[5.5208,59.5946,1.1626],[5.5225,59.5957,0.0],[5.5214,59.5974,16.6034],[5.5242,59.5999,0.0],[5.5242,59.6026,0.0],[5.5219,59.6065,14.5077],[5.5231,59.611,0.0],[5.5219,59.6157,3.4542],[5.5203,59.6171,3.5186],[5.5214,59.6176,3.5186],[5.5208,59.6204,14.1693],[5.5264,59.6224,0.0],[5.5258,59.626,0.0],[5.5214,59.6274,11.086],[5.5219,59.6296,9.6479],[5.5169,59.6324,16.2909],[5.5164,59.6343,9.7072],[5.5125,59.6349,26.6394],[5.5169,59.6396,8.3122],[5.5214,59.6399,0.0],[5.5319,59.6485,0.0],[5.5314,59.6535,23.8178],[5.5331,59.6551,0.0],[5.5269,59.6596,0.0],[5.5308,59.6676,7.7329],[5.5353,59.6704,0.0],[5.5358,59.6763,9.022],[5.5397,59.6818,0.0],[5.5381,59.6888,15.8832],[5.5397,59.6907,0.0],[5.5403,59.6968,3.7333],[5.5392,59.6982,0.0],[5.5403,59.6993,0.7429],[5.5386,59.7018,0.0],[5.5419,59.7057,3.9109],[5.5397,59.7074,0.0],[5.5425,59.709,8.5346],[5.5397,59.711,1.3126],[5.5414,59.7135,5.9176],[5.5375,59.7163,3.1036],[5.5258,59.7143,2.4312],[5.5169,59.7188,11.9653],[5.5214,59.7212,6.5315],[5.5236,59.7207,8.7239],[5.5231,59.719,5.3842],[5.5275,59.7199,0.0],[5.5275,59.7226,6.3494],[5.5303,59.7251,0.0],[5.5297,59.7279,23.7839],[5.5347,59.7307,0.0],[5.5347,59.7326,0.0],[5.5286,59.7324,3.0719],[5.5258,59.7337,13.2794],[5.5242,59.7315,24.8779],[5.5186,59.7296,1.6101],[5.5169,59.7268,10.3079],[5.5103,59.7249,2.6342],[5.5108,59.7232,11.8978],[5.5069,59.7221,0.0],[5.5069,59.7204,7.0496],[5.4981,59.7179,2.1045],[5.4992,59.7163,0.0],[5.4775,59.7099,10.6583],[5.4764,59.7082,0.0],[5.4792,59.7074,17.2805],[5.4714,59.7054,0.0],[5.4681,59.7012,0.0],[5.4686,59.6996,3.4665],[5.4664,59.6999,5.4803],[5.4681,59.7043,1.331],[5.4614,59.7043,1.8513],[5.4553,59.6982,8.3],[5.4553,59.6949,2.1585],[5.4586,59.6921,1.1219],[5.4519,59.6937,0.0],[5.4531,59.6915,11.0682],[5.4475,59.6901,3.0599],[5.4475,59.6885,24.3652],[5.4375,59.6885,0.0],[5.4381,59.6854,0.0],[5.4408,59.6835,11.5436],[5.4342,59.6818,8.9293],[5.433,59.6785,0.0],[5.4375,59.6754,0.0],[5.4442,59.6749,5.5116],[5.4475,59.6726,0.0],[5.4464,59.6704,0.0],[5.4475,59.6696,0.0],[5.4458,59.669,0.0],[5.4464,59.666,0.0],[5.4397,59.666,4.2127],[5.4364,59.6638,0.0],[5.4292,59.664,0.0],[5.4269,59.6618,0.0],[5.4269,59.6593,0.9973],[5.4242,59.6579,1.615],[5.4214,59.6596,0.0],[5.4214,59.6621,5.8998],[5.4231,59.6626,5.8998],[5.4225,59.6657,0.0],[5.4131,59.6629,0.0],[5.4136,59.6579,0.0],[5.4164,59.6568,0.0],[5.4169,59.6532,0.0],[5.4292,59.6512,0.0],[5.4292,59.6488,0.0],[5.4258,59.649,2.0947],[5.4242,59.6468,0.0],[5.4364,59.6468,0.0],[5.4514,59.6507,2.0699],[5.4481,59.6463,3.92],[5.4436,59.6449,0.0],[5.4436,59.6424,0.0],[5.4386,59.6429,0.0],[5.4375,59.6401,0.7312],[5.4325,59.6385,0.0],[5.4431,59.6332,0.0],[5.4481,59.6354,0.0],[5.4447,59.6382,5.2318],[5.4458,59.6387,5.2318],[5.4592,59.6326,0.0],[5.4647,59.6326,11.1323],[5.4647,59.6307,8.2047],[5.4757999999999996,59.6243,2.5825],[5.4747,59.6213,26.0547],[5.4714,59.619,0.0],[5.4708,59.614,0.0],[5.4636,59.6149,3.2285],[5.4619,59.6137,0.0],[5.4614,59.6093,2.2987],[5.4525,59.6087,12.4008],[5.4486,59.6049,4.0014],[5.4469,59.6104,10.3959],[5.4503,59.6113,0.0],[5.4508,59.6135,0.0],[5.4575,59.6151,0.0],[5.4564,59.6162,0.0],[5.4603,59.6154,0.0],[5.4581,59.6196,4.0632],[5.4525,59.6201,18.4011],[5.4481,59.6151,7.0484],[5.4458,59.6165,6.3777],[5.4397,59.616,9.6059],[5.4336,59.6218,0.0],[5.4225,59.624,0.0],[5.4231,59.626,2.592],[5.4203,59.6288,0.0],[5.4192,59.6288,0.0],[5.4181,59.6235,7.2053],[5.4136,59.6226,2.7828],[5.4114,59.6249,6.2192],[5.4136,59.626,5.6061],[5.4131,59.6343,13.0812],[5.4147,59.6357,26.1738],[5.4131,59.6399,12.4754],[5.4142,59.6418,17.2038],[5.4081,59.6524,2.2091],[5.4008,59.6515,0.0],[5.3992,59.6476,6.8544],[5.4008,59.6463,6.8992],[5.3975,59.6457,1.0258],[5.3975,59.6443,2.1035],[5.3947,59.6485,0.0],[5.3975,59.6499,0.0],[5.3947,59.6521,0.0],[5.3897,59.6515,0.0],[5.3881,59.6488,0.0],[5.3831,59.6465,7.7367],[5.3714,59.6465,0.0],[5.3725,59.6443,4.4373],[5.3692,59.6432,0.0],[5.3747,59.6407,9.4355],[5.3736,59.6379,0.0],[5.3764,59.6368,15.507],[5.3764,59.6354,10.7885],[5.3731,59.6357,0.0],[5.3714,59.6329,6.0618],[5.3675,59.6326,20.0213],[5.3675,59.6346,7.2291],[5.3653,59.6349,7.2291],[5.3619,59.6332,24.0132],[5.3547,59.6332,1.8171],[5.3475,59.6288,5.7013],[5.3414,59.6301,4.5776],[5.3375,59.629,0.8491],[5.3369,59.6268,12.0009],[5.3275,59.626,2.1286],[5.3281,59.6237,16.213],[5.3247,59.6243,0.0],[5.3208,59.6204,11.5928],[5.3147,59.6193,4.7056],[5.3147,59.6174,7.5337],[5.3175,59.6157,9.4969],[5.3175,59.6129,3.1697],[5.3208,59.6121,6.8445],[5.3219,59.6099,0.0],[5.3219,59.6074,0.0],[5.3175,59.6068,7.4694],[5.3197,59.6046,0.0],[5.3192,59.6021,9.7702],[5.3158,59.6024,1.8026],[5.3158,59.5999,0.0],[5.3181,59.599,11.1044],[5.3164,59.5979,1.1611],[5.3169,59.596,12.6991],[5.3142,59.5957,1.3998],[5.3119,59.5974,4.8241],[5.3119,59.6004,21.2527],[5.3069,59.6018,8.0659],[5.3058,59.5996,0.0],[5.3103,59.5976,4.8241],[5.3042,59.5971,3.8611],[5.3064,59.5932,26.4311],[5.2947,59.5915,9.8344],[5.2892,59.589,0.0],[5.2903,59.5851,0.0],[5.2936,59.5832,31.5374],[5.2914,59.5826,0.0],[5.2914,59.5804,12.5114],[5.2869,59.5771,0.0],[5.2875,59.5693,16.4904],[5.2842,59.5674,0.0],[5.2864,59.5643,1.7581],[5.2831,59.5621,1.0073],[5.2803,59.5626,2.7378],[5.2808,59.5638,0.7106],[5.2786,59.5657,0.0],[5.2725,59.5646,2.2552],[5.2753,59.5615,6.8585],[5.2669,59.5576,8.1458],[5.2664,59.5526,5.1124],[5.2631,59.5546,0.9107],[5.2564,59.5537,12.7522],[5.2542,59.5543,1.5146],[5.2542,59.5563,2.4481],[5.2469,59.5568,2.189],[5.2475,59.5551,2.6602],[5.2447,59.5507,1.6752],[5.2469,59.549,4.0745],[5.2403,59.5465,2.5439],[5.2381,59.5432,1.816],[5.2369,59.5368,9.8077],[5.2308,59.5349,0.0],[5.2331,59.5343,0.0],[5.2364,59.5357,9.8077],[5.2358,59.5296,1.5009],[5.2242,59.5279,2.7449],[5.2242,59.526,7.8214],[5.2303,59.5246,5.7503],[5.2319,59.5226,3.2738],[5.2569,59.5221,1.2585],[5.2681,59.5168,2.3653],[5.2664,59.5165,16.7184],[5.2519,59.5213,0.0],[5.2436,59.521,0.0],[5.242,59.5195,0.0],[5.2392,59.5207,0.0],[5.2386,59.5199,0.0],[5.2425,59.5185,0.0],[5.2469,59.5193,3.698],[5.2486,59.5179,1.3079],[5.2447,59.5151,5.8881],[5.2303,59.5168,5.2292],[5.2275,59.5132,0.0],[5.2319,59.5118,7.3228],[5.2319,59.5104,0.0],[5.2425,59.511,5.3562],[5.2436,59.5099,6.0729],[5.2397,59.5074,0.0],[5.2435,59.5052,0.0],[5.2552,59.5047,18.5528],[5.2571,59.5026,17.4784],[5.2657,59.5036,4.5],[5.2677,59.4992,6.2568],[5.2763,59.5002,7.5162],[5.2783,59.4958,19.8383],[5.2869,59.4968,24.1274],[5.2889,59.4925,6.8076],[5.2975,59.4935,0.0],[5.2995,59.4891,7.094],[5.3168,59.4911,55.8468],[5.3187,59.4867,53.2327],[5.3706,59.4926,29.8003],[5.3687,59.497,12.7257],[5.3773,59.498,28.7964],[5.3793,59.4936,51.8759],[5.3879,59.4946,28.7747],[5.3898,59.4902,42.3264],[5.4331,59.4951,40.4243]]],
[[[5.4492,59.6282,14.1824],[5.4425,59.6285,11.2383],[5.4447,59.6254,9.9067],[5.4414,59.6237,0.0],[5.4414,59.6221,0.0],[5.4481,59.6229,2.9129],[5.4519,59.6257,8.8087],[5.4492,59.6282,14.1824]]],
[[[5.5253,59.6376,0.0],[5.5247,59.6393,0.0],[5.5219,59.6387,0.0],[5.5231,59.6363,0.0],[5.5253,59.6376,0.0]]],
[[[5.4208,59.6746,4.7224],[5.4131,59.6732,0.0],[5.4142,59.6712,0.0],[5.4197,59.671,0.0],[5.4225,59.6724,0.0],[5.4208,59.6746,4.7224]]]]}}