{"type":"Feature","properties":{"id":95744.0,"fillOpacity":1,"fill":"#F0F","name":"Lake~Blåsjø","lge_id":"no","pfafstette":53.0,"lke_type":"B","altitude":1121,"objectid":51118,"scalerank":11,"featurecla":"Lake","note":null,"funkyname":0,"min_zoom":6.7,"min_label":7.7},
"geometry":{"type": "Polygon","coordinates": [[[6.9720565113337329,59.386236883587827,1110.6821],[6.9720565113337329,59.386236883587827,1110.6821],[6.9677840503962329,59.385321356244077,1094.4203],[6.9626570972712329,59.384405828900327,1075.4451],[6.9456893238337329,59.398382879681577,1083.6974],[6.9340926441462329,59.418097235150327,1202.6411],[6.9183455738337329,59.427557684369077,1103.7522],[6.8991805347712329,59.436651922650327,1106.3184],[6.8828231128962329,59.440924383587827,1120.2261],[6.8708602222712329,59.435187078900327,1047.0618],[6.8775740894587329,59.430914617962827,1046.0],[6.8796492847712329,59.424200750775327,1046.0],[6.8591414722712329,59.417486883587827,1113.4845],[6.8349715503962329,59.412970282025327,1176.4105],[6.8353377613337329,59.399298407025327,1046.0],[6.8508406910212329,59.391974188275327,1046.0],[6.8645125660212329,59.387457586712827,1046.0],[6.8610945972712329,59.377447821087827,1088.981],[6.8714705738337329,59.370733953900327,1046.0],[6.8933211597712329,59.362189032025327,1046.0],[6.9028426441462329,59.354925848431577,1046.0],[6.9101668628962329,59.340948797650327,1046.0],[6.9161483082087329,59.320868231244077,1046.0],[6.9326278003962329,59.312689520306577,1046.0],[6.9571639332087329,59.323309637494077,1046.0],[6.9732772144587329,59.361273504681577,1084.7864],[6.9720565113337329,59.386236883587827,1110.6821]]]}}