{"type": "Feature","id": "912","bbox": [6.81507,58.15695,9.38659,59.69103],"geometry": {"type": "Polygon","coordinates": [[[7.36496,59.65858,1196.6345],[7.33938,59.6621,1143.8918],[7.32465,59.66571,1195.5769],[7.30801,59.67357,1145.7418],[7.2984,59.6762,1186.9646],[7.26724,59.67649,1104.4854],[7.24393,59.69103,1090.6451],[7.19959,59.68013,1052.1152],[7.19163,59.67951,1054.625],[7.18171,59.67967,1050.4045],[7.17505,59.68184,1050.4065],[7.16419,59.6824,1050.5039],[7.14838,59.68101,1052.5106],[7.12213,59.67553,1072.9447],[7.10942,59.67005,982.6686],[7.08239,59.64732,1140.7362],[7.0551,59.63217,1132.6011],[6.99382,59.61011,1095.1814],[6.98606,59.60417,1169.3567],[6.98436,59.59574,1286.2888],[6.98529,59.58626,1229.8901],[6.98715,59.57874,1362.4834],[6.98793,59.5697,1193.0918],[6.98405,59.54474,1157.4093],[6.98482,59.52913,1387.7883],[7.00513,59.50836,1168.4716],[7.01149,59.50355,1160.3406],[7.01366,59.50123,1160.3005],[7.01444,59.50019,1160.3583],[7.01459,59.49882,1160.3583],[7.00916,59.49368,1163.8459],[6.99692,59.48484,1164.2654],[6.96322,59.4695,1309.0853],[6.94043,59.46283,1137.5327],[6.90907,59.45802,1101.6447],[6.9024,59.45503,1085.7402],[6.90039,59.448,1149.5659],[6.90163,59.44387,1147.8181],[6.89961,59.43927,1132.3008],[6.89449,59.43524,1105.2635],[6.88008,59.42795,1046.0],[6.86705,59.41942,1100.7058],[6.85863,59.40247,1046.0],[6.85289,59.37245,1110.1914],[6.84204,59.35785,1128.8593],[6.8239,59.33772,1090.7786],[6.81677,59.32532,1094.6838],[6.81507,59.31271,1068.7278],[6.82747,59.26215,1106.9542],[6.82716,59.21967,1148.5273],[6.83026,59.21148,1139.1865],[6.85693,59.20264,1178.5522],[6.94261,59.20858,883.0],[7.0225,59.20584,895.3181],[7.16993,59.18042,1103.7234],[7.1797,59.17768,1085.7445],[7.18342,59.17355,1032.5275],[7.18202,59.16869,1231.3108],[7.17163,59.16264,1324.7238],[7.16326,59.15644,1269.86],[7.15722,59.14569,1190.9626],[7.15443,59.1258,913.0],[7.14683,59.0975,959.2365],[7.14621,59.0811,913.0],[7.15117,59.06298,913.0],[7.15768,59.05174,913.0],[7.1614,59.041,916.5381],[7.1583,59.03304,912.7451],[7.14559,59.02624,916.5974],[7.13081,59.02477,963.2292],[7.11841,59.01919,954.4097],[7.14228,58.99309,946.0865],[7.16109,58.97038,910.7849],[7.16683,58.96141,867.537],[7.1645,58.94891,828.1761],[7.15226,58.93341,822.1887],[7.07991,58.88178,811.2665],[7.07045,58.86974,726.3123],[7.06472,58.8608,769.2966],[7.07169,58.84726,707.0],[7.11097,58.83985,853.6306],[7.15768,58.83589,908.434],[7.17039,58.83677,935.7009],[7.18016,58.83966,997.0217],[7.18202,58.84674,908.729],[7.19861,58.85537,900.066],[7.34775,58.87005,820.0237],[7.42268,58.88643,945.2129],[7.54097,58.88666,686.2123],[7.58127,58.88219,924.3607],[7.59404,58.87842,910.2891],[7.60179,58.87232,788.317],[7.62241,58.84277,657.9471],[7.67843,58.78801,798.3528],[7.67796,58.76928,621.4432],[7.66881,58.74572,575.4197],[7.65657,58.72156,683.1518],[7.6438,58.71047,713.5486],[7.63528,58.70629,704.2205],[7.62814,58.70458,675.5598],[7.61543,58.69947,693.7445],[7.60923,58.69807,650.2327],[7.60256,58.69748,540.9089],[7.59073,58.69776,547.8974],[7.58577,58.69091,405.8142],[7.58329,58.6774,553.6765],[7.58639,58.64391,546.7133],[7.59807,58.62758,520.6241],[7.61729,58.60779,421.1138],[7.619,58.60007,413.9704],[7.61636,58.59074,493.9933],[7.60443,58.58056,513.3162],[7.59481,58.57467,486.082],[7.55864,58.56252,467.0403],[7.55135,58.5586,517.642],[7.54624,58.54583,585.2568],[7.55771,58.51837,339.1681],[7.56562,58.50335,294.6791],[7.5805,58.48041,291.0583],[7.59466,58.47395,321.259],[7.61621,58.46935,371.0372],[7.6837,58.46873,420.7993],[7.7132,58.48485,399.6048],[7.7239,58.48615,311.592],[7.76504,58.48077,215.3703],[7.79062,58.47111,174.4689],[7.8055,58.45896,166.5],[7.81092,58.4494,166.5],[7.81154,58.43504,166.5],[7.81371,58.43093,166.5],[7.82756,58.42605,188.828],[7.90218,58.40786,167.2105],[7.93076,58.39489,222.4419],[7.94735,58.38155,324.7691],[7.95557,58.36429,277.3732],[7.96347,58.35308,253.7249],[7.97541,58.34512,182.0253],[7.98833,58.3428,248.1834],[7.99965,58.3476,271.6082],[8.0043,58.35571,304.0818],[8.00941,58.36135,234.5635],[8.03546,58.36781,264.5685],[8.0921,58.35654,279.1149],[8.09597,58.34197,280.3578],[8.09804,58.3351,248.0295],[8.10207,58.33143,221.3129],[8.10672,58.32579,240.2295],[8.10672,58.32107,303.9131],[8.10253,58.31753,315.7079],[8.09675,58.31499,277.2422],[8.09272,58.3122,260.9097],[8.11261,58.30321,221.7605],[8.21069,58.28869,177.8617],[8.22465,58.26466,129.9435],[8.22883,58.25381,119.8724],[8.22868,58.24616,133.6178],[8.22573,58.23484,122.743],[8.21581,58.22637,151.955],[8.20961,58.22254,144.0021],[8.20491,58.22074,145.6942],[8.20165,58.21877,120.6889],[8.19715,58.21477,116.2549],[8.19188,58.20764,94.6876],[8.18553,58.20262,57.5573],[8.18475,58.19627,31.3576],[8.18553,58.19118,93.3229],[8.21488,58.16947,33.4242],[8.22463,58.15695,11.1791],[8.22722,58.16315,27.6783],[8.24887,58.17133,23.3302],[8.25758,58.17866,33.0206],[8.27174,58.19628,5.5277],[8.2649,58.19892,1.9308],[8.25131,58.20246,29.5999],[8.24366,58.20311,54.6817],[8.25929,58.20751,55.6026],[8.29526,58.21271,0.0],[8.30885,58.21988,32.3663],[8.31723,58.22582,52.681],[8.34498,58.2414,66.7824],[8.35353,58.2447,65.3266],[8.38893,58.24189,0.0],[8.40626,58.24421,2.3937],[8.4048,58.25434,23.9248],[8.40056,58.26581,44.208],[8.40935,58.27204,25.3765],[8.42351,58.27021,0.0],[8.43539,58.25776,0.0],[8.45582,58.26406,29.8731],[8.47926,58.25926,0.0],[8.50123,58.25723,0.0],[8.51808,58.27139,9.8958],[8.50636,58.28311,34.2702],[8.51344,58.29336,6.8439],[8.54526,58.31297,2.7059],[8.57936,58.34748,35.2906],[8.58774,58.34154,23.9708],[8.58839,58.33417,6.0447],[8.59498,58.33145,0.0],[8.60727,58.33283,0.0],[8.6194,58.33869,30.1195],[8.62745,58.34764,29.9334],[8.63404,58.35692,23.3066],[8.64161,58.36392,75.7437],[8.65284,58.3664,32.2981],[8.66871,58.36791,19.587],[8.68279,58.37079,21.0025],[8.7073,58.37891,20.2565],[8.71452,58.3918,4.4588],[8.7328,58.4039,0.0],[8.74018,58.41564,7.0505],[8.7541,58.42759,17.5529],[8.77745,58.43409,31.2098],[8.79426,58.44038,19.7885],[8.82352,58.45282,37.7516],[8.84729,58.46739,29.2891],[8.90942,58.50089,30.9507],[8.92808,58.51349,0.0],[8.94388,58.52599,42.6491],[8.95009,58.54718,46.8771],[8.9463,58.56932,69.6327],[8.9489,58.57966,89.8999],[8.9406,58.58666,7.3394],[8.91871,58.59663,87.3375],[8.91334,58.60688,113.4087],[8.9253,58.607,73.2168],[8.94947,58.60033,0.0],[8.95509,58.5974,13.1122],[8.96388,58.58869,66.1912],[8.9712,58.58674,5.2659],[8.97771,58.58845,0.0],[8.98178,58.59252,10.1775],[8.98561,58.59724,28.7618],[8.99098,58.60033,23.3919],[9.03384,58.59475,10.7644],[9.08918,58.61442,18.4866],[9.15222,58.64327,0.261],[9.1902,58.66486,0.0],[9.20053,58.67235,21.2174],[9.18287,58.68635,50.6149],[9.15602,58.68854,83.1685],[9.08912,58.68325,84.5876],[9.05934,58.68293,43.6614],[9.09506,58.69025,3.2259],[9.1867,58.6916,37.7455],[9.21632,58.70279,0.0],[9.21469,58.72163,39.86],[9.10084,58.73753,5.2699],[9.11427,58.73111,6.8432],[9.16912,58.71646,60.3749],[9.14357,58.70978,79.3728],[9.063,58.72382,90.5735],[9.05844,58.72704,3.1381],[9.06235,58.73412,118.0778],[9.07097,58.7412,64.0765],[9.08009,58.74437,47.0089],[9.24928,58.73359,0.0],[9.30649,58.73871,0.0],[9.34051,58.75117,0.0],[9.35141,58.76553,16.6455],[9.37094,58.77802,13.5338],[9.38659,58.78483,5.7884],[9.25683,58.81044,102.2194],[9.22598,58.81026,72.5661],[9.21337,58.81385,97.5884],[9.20655,58.8177,91.2468],[9.20438,58.85248,167.1912],[9.2019,58.86816,203.4443],[9.19663,58.87465,212.0761],[9.19058,58.88359,199.6595],[9.15735,58.90597,144.3143],[9.03121,58.97193,172.5745],[9.02517,58.98529,130.0247],[9.01354,58.9973,210.151],[9.01524,58.99991,180.4545],[9.01555,59.00118,185.6596],[9.01571,59.00317,181.1142],[9.01478,59.00601,178.5427],[8.99132,59.00994,205.3992],[8.90119,59.00772,323.7591],[8.84704,59.00332,376.5508],[8.8396,59.00152,384.6206],[8.83789,59.00084,385.8891],[8.8368,59.00033,409.2353],[8.82642,58.99165,338.2252],[8.81598,58.97718,345.8811],[8.81102,58.96258,443.9388],[8.82998,58.93811,231.6812],[8.8337,58.93,245.1643],[8.83246,58.92426,297.6288],[8.82234,58.91418,323.9566],[8.80513,58.89444,492.961],[8.80435,58.88984,473.3246],[8.80451,58.88338,438.7415],[8.80714,58.87731,430.8969],[8.80637,58.87126,396.5385],[8.80187,58.86581,382.2248],[8.79257,58.86132,391.1649],[8.78358,58.85878,384.7117],[8.76074,58.85708,375.2401],[8.73159,58.86633,381.7701],[8.68457,58.88891,285.3036],[8.62514,58.92449,220.3158],[8.60106,58.93614,294.0558],[8.57935,58.94136,377.5475],[8.54974,58.93927,290.4786],[8.52768,58.9333,173.2897],[8.49295,58.91808,293.0971],[8.47553,58.91677,365.0574],[8.45399,58.92049,385.518],[8.4237,58.9333,504.0698],[8.41006,58.94291,204.5164],[8.39502,58.95684,546.0189],[8.38293,58.96074,731.7794],[8.36986,58.96276,616.0216],[8.33249,58.95547,270.5],[8.26749,58.96922,697.4777],[8.20475,58.99314,743.0067],[8.18692,58.998,729.6532],[8.16847,59.00071,756.8412],[8.15013,58.99785,832.8323],[8.12966,58.99165,696.0668],[8.12563,58.98865,714.0204],[8.12796,58.98699,747.946],[8.13525,58.98668,742.1403],[8.13959,58.98596,736.8644],[8.14207,58.98426,761.7147],[8.14176,58.98095,794.9484],[8.13556,58.97718,790.0846],[8.11881,58.97516,733.5385],[8.09179,58.97464,663.0076],[8.03391,58.9825,668.7617],[7.972,59.0009,884.1812],[7.96843,59.00312,844.4915],[7.84245,59.12182,939.8862],[7.81418,59.13582,887.9851],[7.78348,59.14748,979.7993],[7.77139,59.15711,906.599],[7.76287,59.17132,885.7918],[7.75956,59.1953,913.0004],[7.76504,59.21163,788.8373],[7.77713,59.22522,981.2909],[7.78906,59.23318,925.0709],[7.78906,59.24414,799.4561],[7.77945,59.26026,818.6596],[7.72592,59.31902,1014.9476],[7.6606,59.35793,851.5316],[7.63497,59.35994,848.5549],[7.62272,59.36449,1090.6052],[7.61001,59.37276,1061.7976],[7.59512,59.39105,1135.7225],[7.57662,59.40924,1141.6765],[7.53533,59.42348,1383.4219],[7.52727,59.42748,1332.1902],[7.52929,59.43162,1259.9834],[7.53756,59.43591,1093.9586],[7.5667,59.4419,1333.5917],[7.58313,59.44914,1183.5388],[7.5976,59.45911,1296.6732],[7.61543,59.48043,1332.7416],[7.61946,59.49337,1433.0991],[7.61357,59.50611,1389.4994],[7.59027,59.52541,1328.046],[7.54825,59.53678,1414.5017],[7.53771,59.54146,1313.8016],[7.53053,59.54949,1400.8105],[7.51921,59.57068,1385.2742],[7.51766,59.58231,1303.0898],[7.51782,59.5897,1314.2733],[7.54593,59.6145,1095.5059],[7.5096,59.62075,1060.9208],[7.49983,59.62548,1072.8102],[7.48634,59.63869,1027.5836],[7.47436,59.65491,896.0],[7.46924,59.66018,896.0],[7.46195,59.66556,963.9922],[7.45265,59.67067,991.1503],[7.4387,59.67641,1052.4116],[7.42521,59.67866,1132.9683],[7.39865,59.67775,1141.1538],[7.38656,59.67507,1024.9467],[7.38005,59.67104,1034.5818],[7.37958,59.66447,1068.3706],[7.37478,59.66029,1242.6276],[7.36496,59.65858,1196.6345]]]}
,"properties": {"ISO3166-1-Alpha-3": "NOR","country": "Norway","fill": "#F0F","name": "Aust-Agder","area_km2": 9150.606,"hist_schema_id": "Elevation0-9000","hist_area_km2": {"0": 108.604,"25": 140.262,"50": 237.378,"75": 206.069,"100": 205.347,"125": 193.588,"150": 226.859,"175": 296.583,"200": 459.321,"225": 413.035,"250": 368.031,"275": 303.921,"300": 258.347,"325": 225.496,"350": 186.16,"375": 162.212,"400": 151.953,"425": 146.235,"450": 134.507,"475": 142.752,"500": 140.635,"525": 134.637,"550": 145.551,"575": 147.072,"600": 137.462,"625": 131.293,"650": 127.594,"675": 128.333,"700": 140.416,"725": 148.364,"750": 157.015,"775": 140.164,"800": 155.682,"825": 146.151,"850": 151.566,"875": 173.228,"900": 179.05,"925": 184.886,"950": 141.667,"975": 129.635,"1000": 119.908,"1025": 126.922,"1050": 184.172,"1075": 151.453,"1100": 143.947,"1125": 132.526,"1150": 118.712,"1175": 154.798,"1200": 129.427,"1225": 106.833,"1250": 86.239,"1275": 68.695,"1300": 48.287,"1325": 29.052,"1350": 18.723,"1375": 13.28,"1400": 5.505,"1425": 2.528,"1450": 1.517,"1475": 0.646,"1500": 0.377}}}