{"type":"Feature","properties":{"GID_2":"NOR.8.35_1","GID_0":"NOR","country":"Norway","GID_1":"NOR.8_1","province":"MøreogRomsdal","NL_NAME_1":"NA","county":"Ulstein","VARNAME_2":"NA","NL_NAME_2":"NA","TYPE_2":"Kommuner","ENGTYPE_2":"Municipality","CC_2":"NA","HASC_2":"NO.MR.UL","name":"Ulstein.county"},
"geometry":{"type": "MultiPolygon","coordinates": [[[[5.8839,62.2464,0.0],[5.8854,62.2458,0.0],[5.887,62.2474,0.0],[5.8839,62.2474,0.0],[5.8839,62.2464,0.0]]],
[[[5.9488,62.4152,513.809],[5.9468,62.4196,359.2565],[5.948,62.4197,374.7284],[5.9458,62.4208,268.0939],[5.9063,62.4208,0.7817],[5.9047,62.4193,27.18],[5.9078,62.4172,160.9039],[5.9063,62.4167,289.4405],[5.9,62.4167,204.6413],[5.8958,62.4188,4.9357],[5.8833,62.4188,0.0],[5.8688,62.4125,0.489],[5.863,62.412,0.0],[5.8599,62.4089,5.0179],[5.8526,62.4078,0.0],[5.8495,62.4026,1.8498],[5.8464,62.4016,0.0],[5.8453,62.3964,2.7833],[5.8401,62.3953,0.0],[5.8391,62.3901,160.7493],[5.8297,62.3849,17.177],[5.8286,62.3797,101.3139],[5.8151,62.3766,0.0],[5.8188,62.3729,20.8015],[5.8167,62.3688,0.0],[5.8167,62.3646,2.6859],[5.8203,62.362,8.1421],[5.8193,62.3568,0.0],[5.8266,62.3536,8.2684],[5.8229,62.35,0.0],[5.8234,62.3464,0.0],[5.8265,62.3453,0.0],[5.8255,62.3422,5.5652],[5.8432,62.3411,0.0],[5.8516,62.337,3.4292],[5.8505,62.3339,0.0],[5.862,62.3286,13.4259],[5.8625,62.3271,6.9201],[5.862,62.3234,0.0],[5.8542,62.3208,0.0],[5.8474,62.3245,0.0],[5.8417,62.325,0.0],[5.8359,62.3276,19.0167],[5.837,62.3307,0.0],[5.8313,62.3333,12.9161],[5.825,62.3292,0.0],[5.8083,62.3292,0.0],[5.8042,62.3312,0.0],[5.7979,62.3312,5.3195],[5.7896,62.3271,0.6534],[5.7792,62.3271,5.3946],[5.7734,62.3245,11.796],[5.7734,62.3214,2.4584],[5.7833,62.3208,5.6642],[5.7891,62.3182,0.0],[5.787,62.3026,0.0],[5.7818,62.3016,9.4211],[5.7813,62.2979,24.7997],[5.7818,62.2964,8.9921],[5.7917,62.2938,0.0],[5.7958,62.2958,4.5166],[5.812,62.2984,0.0],[5.8161,62.3005,14.1208],[5.813,62.3036,0.0],[5.8167,62.3063,9.8951],[5.8396,62.3083,0.0],[5.8495,62.3057,0.0],[5.8495,62.3026,14.6703],[5.8375,62.3021,0.0],[5.8354,62.3,9.5773],[5.8359,62.2984,0.0],[5.8432,62.2974,22.5002],[5.8443,62.2943,0.0],[5.8474,62.2932,0.0],[5.8474,62.2901,13.734],[5.838,62.2891,0.0],[5.8354,62.2875,0.0],[5.8317,62.2779,0.0],[5.8207,62.2699,14.9434],[5.8092,62.2676,22.8193],[5.8094,62.2649,0.0],[5.8125,62.2667,9.2734],[5.8167,62.2646,0.0],[5.8229,62.2646,0.0],[5.8313,62.2687,5.9934],[5.8411,62.2661,0.0],[5.838,62.2641,0.0],[5.8349,62.2589,0.0],[5.8234,62.2578,5.667],[5.8224,62.2547,0.0],[5.8172,62.2526,0.0],[5.8229,62.25,0.0],[5.8646,62.25,0.0],[5.8688,62.2479,0.0],[5.8813,62.2479,0.0],[5.8854,62.25,0.0],[5.8974,62.2495,0.0],[5.8922,62.2474,0.0],[5.8911,62.2443,8.9232],[5.8792,62.2438,0.0],[5.8734,62.2411,11.8357],[5.8724,62.2359,38.9064],[5.8703,62.2339,68.4638],[5.8646,62.2354,0.0],[5.8625,62.2333,12.8773],[5.8646,62.2313,29.1736],[5.8786,62.2307,0.0],[5.8797,62.2276,0.0],[5.8896,62.2229,0.0],[5.8932,62.2276,14.4525],[5.8932,62.2307,17.3226],[5.8833,62.2313,0.0],[5.8818,62.2328,0.0],[5.8875,62.2333,0.0],[5.8995,62.238,0.0],[5.9036,62.2401,0.0],[5.9047,62.2432,48.4582],[5.9141,62.2443,0.0],[5.9148,62.2507,0.0],[5.9172,62.2536,0.0],[5.9245,62.2526,0.0],[5.9255,62.2578,0.0],[5.9307,62.2589,0.0],[5.9318,62.2661,0.0],[5.937,62.2672,0.0],[5.9422,62.2745,0.0],[5.9474,62.2755,0.0],[5.9482,62.2799,77.4477],[5.9356,62.2762,242.8031],[5.9292,62.2893,444.3975],[5.9387,62.2902,524.1027],[5.9366,62.2946,222.5341],[5.9461,62.2956,215.3301],[5.944,62.3,214.9859],[5.9534,62.3009,239.0432],[5.9431,62.3228,258.9857],[5.9336,62.3219,273.17],[5.9232,62.3438,128.6462],[5.9137,62.3428,150.7671],[5.8991,62.3735,407.5029],[5.9086,62.3744,446.4175],[5.9065,62.3788,491.7987],[5.9539,62.3836,429.4683],[5.9498,62.3923,405.4933],[5.9593,62.3933,418.2148],[5.9551,62.4021,589.7141],[5.9646,62.403,458.8646],[5.9583,62.4162,554.8652],[5.9488,62.4152,513.809]]],
[[[5.7917,62.3479,0.0],[5.7854,62.35,0.0],[5.7818,62.3495,0.0],[5.7807,62.3464,6.5025],[5.775,62.3458,0.0],[5.7714,62.3432,11.701],[5.7714,62.338,0.0],[5.7849,62.338,0.0],[5.7849,62.3411,0.0],[5.7818,62.3432,3.2127],[5.7953,62.3464,0.0],[5.7917,62.3479,0.0]]],
[[[5.7734,62.3693,3.0069],[5.7792,62.3688,0.0],[5.7849,62.3724,12.061],[5.7792,62.3729,5.9176],[5.7734,62.3693,3.0069]]]]}}