{"type":"Feature","properties":{"GID_2":"NOR.1.12_1","GID_0":"NOR","country":"Norway","GID_1":"NOR.1_1","province":"Akershus","NL_NAME_1":"NA","county":"Nannestad","VARNAME_2":"NA","NL_NAME_2":"NA","TYPE_2":"Kommuner","ENGTYPE_2":"Municipality","CC_2":"NA","HASC_2":"NO.AK.NA","name":"Nannestad.county"},
"geometry":{"type": "MultiPolygon","coordinates": [[[[11.0796,60.3267,173.0],[11.0784,60.3312,173.0],[11.0694,60.3306,173.0],[11.0681,60.335,173.0],[11.0592,60.3344,173.0],[11.0579,60.3389,173.0],[11.0399,60.3376,173.0],[11.0387,60.3421,173.0],[11.0117,60.3403,221.7972],[11.0105,60.3447,223.0695],[10.9745,60.3423,340.5388],[10.9757,60.3378,409.6219],[10.9487,60.336,423.254],[10.95,60.3315,510.7058],[10.932,60.3303,596.7996],[10.9307,60.3348,518.8372],[10.9217,60.3341,576.6314],[10.9205,60.3386,513.9479],[10.9025,60.3374,546.1152],[10.9037,60.3329,607.1204],[10.8947,60.3323,632.1785],[10.896,60.3278,674.0369],[10.887,60.3272,654.248],[10.8882,60.3228,622.3594],[10.8792,60.3222,525.0975],[10.8805,60.3177,465.3863],[10.8715,60.3171,497.414],[10.8728,60.3127,508.8044],[10.8638,60.312,558.9257],[10.865,60.3076,521.3429],[10.856,60.307,518.1114],[10.8573,60.3025,518.8658],[10.8483,60.3019,499.4748],[10.8496,60.2975,454.1096],[10.8406,60.2968,500.9643],[10.8418,60.2924,452.5511],[10.8328,60.2918,468.6016],[10.8341,60.2873,385.1138],[10.8251,60.2867,367.1864],[10.8264,60.2823,337.0644],[10.8174,60.2816,325.0166],[10.8186,60.2772,336.0447],[10.8097,60.2766,347.0012],[10.8109,60.2721,463.0806],[10.8019,60.2715,491.6645],[10.8045,60.2626,537.6165],[10.7955,60.262,549.1306],[10.7967,60.2576,542.4045],[10.7878,60.2569,520.7228],[10.7903,60.248,513.3434],[10.7813,60.2474,505.0898],[10.7838,60.2385,585.0989],[10.7749,60.2379,551.6857],[10.7799,60.2201,563.4318],[10.771,60.2195,490.8189],[10.7722,60.2151,474.4288],[10.7543,60.2138,580.5811],[10.7606,60.1916,632.4633],[10.7696,60.1922,519.5201],[10.7733,60.1789,607.3717],[10.8002,60.1808,514.8824],[10.8027,60.1719,481.763],[10.8116,60.1725,492.1737],[10.8104,60.1769,481.6159],[10.8283,60.1782,527.3922],[10.827,60.1826,541.3943],[10.8449,60.1839,522.2374],[10.8462,60.1794,521.3034],[10.8551,60.18,514.1816],[10.8589,60.1667,407.4183],[10.8678,60.1673,406.5343],[10.8703,60.1584,349.3501],[10.8793,60.1591,352.892],[10.8805,60.1546,342.5875],[10.8895,60.1552,329.5064],[10.8944,60.1374,359.1497],[10.9034,60.1381,327.246],[10.9046,60.1336,314.1392],[10.9225,60.1348,307.477],[10.9237,60.1304,303.482],[10.9416,60.1316,327.934],[10.9428,60.1272,315.8253],[10.9875,60.1302,279.3022],[10.9888,60.1258,226.1748],[11.0066,60.127,208.5563],[11.0103,60.1137,167.1924],[11.0461,60.1161,180.6037],[11.0473,60.1117,189.7452],[11.0652,60.1129,160.1957],[11.0639,60.1173,159.9763],[11.0818,60.1185,148.6911],[11.0721,60.1541,129.5547],[11.0632,60.1535,157.6181],[11.0595,60.1668,139.3961],[11.0685,60.1674,151.1817],[11.0672,60.1719,177.2175],[11.0851,60.1731,176.407],[11.0839,60.1776,199.8404],[11.075,60.1769,197.6163],[11.0725,60.1858,199.2618],[11.0457,60.184,170.7613],[11.042,60.1974,158.6103],[11.051,60.198,158.7509],[11.0497,60.2024,187.7474],[11.0677,60.2036,200.265],[11.0664,60.2081,200.5111],[11.0754,60.2087,202.1434],[11.0742,60.2131,203.2533],[11.0921,60.2143,204.9088],[11.0909,60.2188,205.3924],[11.0999,60.2194,206.3187],[11.0962,60.2327,209.578],[11.1052,60.2333,208.6957],[11.104,60.2378,209.6308],[11.1219,60.239,204.1061],[11.1207,60.2434,206.6959],[11.1387,60.2446,211.3339],[11.135,60.258,202.002],[11.1261,60.2574,204.4628],[11.1224,60.2707,201.8572],[11.1134,60.2701,198.1036],[11.1098,60.2835,173.0],[11.1008,60.2829,173.0],[11.0959,60.3006,173.0],[11.0869,60.3,173.0],[11.0857,60.3045,173.0],[11.0947,60.3051,173.0],[11.0898,60.3229,173.0],[11.0808,60.3223,173.0],[11.0796,60.3267,173.0]]]]}}