{"type":"Feature","properties":{"GID_2":"NOR.14.15_1","GID_0":"NOR","country":"Norway","GID_1":"NOR.14_1","province":"SognogFjordane","NL_NAME_1":"NA","county":"Hyllestad","VARNAME_2":"NA","NL_NAME_2":"NA","TYPE_2":"Kommuner","ENGTYPE_2":"Municipality","CC_2":"NA","HASC_2":"NO.SF.HY","name":"Hyllestad.county"},
"geometry":{"type": "MultiPolygon","coordinates": [[[[5.0132,61.2495,11.9455],[5.0109,61.2495,0.0],[5.0109,61.2443,0.0],[5.0167,61.2417,0.0],[5.025,61.2417,14.5662],[5.0292,61.2396,4.0559],[5.0729,61.2396,0.0],[5.0745,61.238,8.7476],[5.0333,61.2375,16.5211],[5.0286,61.2318,12.3575],[5.0203,61.2276,0.0],[5.0104,61.2271,0.0],[5.0068,61.2245,4.9901],[5.0125,61.2208,7.3908],[5.0354,61.2208,14.0879],[5.0396,61.2188,0.0],[5.0438,61.2208,25.2259],[5.0479,61.2208,26.2019],[5.0521,61.2188,0.0],[5.0563,61.2208,30.9704],[5.0604,61.2208,32.1497],[5.0646,61.2188,12.3777],[5.0729,61.2188,0.0],[5.0771,61.2208,21.1189],[5.0833,61.2188,0.0],[5.0917,61.2229,5.7772],[5.0958,61.2208,0.0],[5.1,61.2229,0.0],[5.1438,61.2229,0.0],[5.1479,61.225,17.9835],[5.1521,61.2229,0.0],[5.1563,61.225,7.2619],[5.175,61.225,0.0],[5.1792,61.2271,5.9067],[5.1891,61.2245,7.0991],[5.1958,61.2208,0.0],[5.2167,61.2188,14.4389],[5.2193,61.2151,6.7014],[5.2313,61.2104,0.0],[5.2417,61.2104,0.0],[5.2458,61.2083,0.0],[5.2667,61.2042,0.0],[5.2714,61.2005,0.0],[5.2786,61.1995,0.0],[5.2964,61.1901,0.0],[5.312,61.187,0.0],[5.312,61.1839,6.3222],[5.3104,61.1833,23.3092],[5.2979,61.1833,0.0],[5.2911,61.187,49.4445],[5.2813,61.1896,-0.0719],[5.2729,61.1896,165.0564],[5.2688,61.1917,89.0794],[5.2568,61.1911,65.4376],[5.2568,61.188,0.0],[5.2641,61.1849,39.0359],[5.2651,61.1818,29.3119],[5.2974,61.1766,0.0],[5.2943,61.1745,0.0],[5.2932,61.1714,13.6017],[5.2854,61.1688,108.5921],[5.2813,61.1708,42.7958],[5.2688,61.1667,189.4735],[5.2604,61.1708,0.0],[5.238,61.1755,7.3532],[5.2339,61.1776,48.0641],[5.2328,61.1807,0.0],[5.2245,61.1849,0.0],[5.2146,61.1854,480.3654],[5.2104,61.1875,394.573],[5.1896,61.1917,413.6766],[5.1813,61.1958,242.6645],[5.1729,61.1958,536.6285],[5.1604,61.2,173.86],[5.1521,61.2,484.4175],[5.1479,61.2021,230.6314],[5.1438,61.2021,300.9439],[5.1396,61.2,397.539],[5.1354,61.2021,249.0865],[5.1313,61.2,335.7262],[5.1271,61.2021,202.9187],[5.1042,61.2021,42.0107],[5.0943,61.1995,0.0],[5.0932,61.1943,24.0012],[5.088,61.1911,28.1601],[5.087,61.1859,0.0],[5.0797,61.1828,11.117],[5.0766,61.1776,45.1782],[5.0734,61.1766,0.0],[5.0766,61.1734,88.7768],[5.0734,61.1714,5.7634],[5.0792,61.1688,11.5508],[5.0917,61.1667,29.944],[5.0958,61.1646,0.0],[5.1,61.1667,0.0],[5.1083,61.1667,56.9579],[5.1167,61.1625,0.0],[5.1391,61.1578,44.6283],[5.1401,61.1547,0.0],[5.1474,61.1536,18.8488],[5.1542,61.15,0.0],[5.1641,61.1495,5.6888],[5.163,61.1464,0.0],[5.1771,61.1396,2.5131],[5.1979,61.1354,6.0161],[5.2063,61.1312,0.0],[5.2146,61.1312,5.1389],[5.2214,61.1276,0.0],[5.2286,61.1266,4.1493],[5.2271,61.1104,22.2032],[5.2297,61.1047,0.0],[5.25,61.1042,0.0],[5.2557,61.1068,20.8509],[5.2568,61.1099,0.0],[5.2609,61.112,0.0],[5.2703,61.113,0.0],[5.2714,61.1182,46.8702],[5.2729,61.1188,40.109],[5.2771,61.1188,0.0],[5.2828,61.1161,0.0],[5.2854,61.1125,21.6198],[5.2979,61.1125,0.0],[5.3021,61.1146,12.026],[5.3104,61.1146,0.0],[5.3307,61.1234,0.0],[5.3297,61.1286,0.0],[5.3354,61.1312,7.4131],[5.3438,61.1312,0.0],[5.3495,61.1276,0.0],[5.3464,61.1266,0.0],[5.3453,61.1234,36.134],[5.3401,61.1214,33.975],[5.3432,61.1203,24.3121],[5.3443,61.113,0.0],[5.3516,61.1099,111.7735],[5.35,61.1063,104.7216],[5.3505,61.1005,8.7898],[5.363,61.0943,0.0],[5.3786,61.0911,0.0],[5.3818,61.0859,0.0],[5.3891,61.0828,85.396],[5.3901,61.0797,18.9486],[5.3974,61.0766,157.1849],[5.3964,61.0714,118.1263],[5.3979,61.0708,93.7657],[5.4056,61.0708,32.1075],[5.4049,61.0723,124.6231],[5.423,61.0743,12.5497],[5.421,61.0787,337.5732],[5.4392,61.0806,149.3387],[5.4351,61.0894,460.4641],[5.4441,61.0904,379.6183],[5.4421,61.0947,512.6789],[5.4512,61.0957,428.2661],[5.445,61.1088,657.0505],[5.4541,61.1098,613.6456],[5.448,61.1229,545.7079],[5.4571,61.1239,472.4965],[5.4509,61.1371,350.8476],[5.46,61.138,310.4156],[5.4498,61.1599,343.1921],[5.4589,61.1609,331.8238],[5.4548,61.1696,432.2784],[5.4639,61.1706,392.0924],[5.4618,61.175,431.562],[5.4709,61.176,263.8841],[5.4566,61.2066,595.9875],[5.4475,61.2056,555.393],[5.4454,61.21,571.9821],[5.4363,61.209,518.9133],[5.426,61.2308,119.6524],[5.4169,61.2299,325.0289],[5.4148,61.2342,373.8837],[5.4057,61.2333,399.3759],[5.3995,61.2464,73.0833],[5.3904,61.2454,108.9521],[5.3883,61.2498,44.5],[5.3792,61.2488,99.1308],[5.3812,61.2444,393.6818],[5.3721,61.2434,397.7629],[5.3742,61.239,416.0334],[5.3468,61.2361,403.8949],[5.3448,61.2404,379.4796],[5.3356,61.2394,286.9595],[5.3336,61.2438,231.2357],[5.3244,61.2428,303.0592],[5.3203,61.2516,434.9246],[5.3112,61.2506,409.6735],[5.3091,61.2549,425.6289],[5.3,61.2539,508.4371],[5.2979,61.2583,388.049],[5.2888,61.2573,488.0479],[5.2867,61.2617,297.6266],[5.2775,61.2607,425.8002],[5.2755,61.2651,448.3004],[5.2663,61.2641,514.0995],[5.2642,61.2684,506.8756],[5.2551,61.2674,416.3786],[5.2509,61.2762,299.8581],[5.2144,61.2722,125.8837],[5.2165,61.2678,306.9183],[5.2074,61.2668,341.7791],[5.2095,61.2625,219.1212],[5.1913,61.2605,241.8095],[5.1892,61.2648,282.1188],[5.18,61.2638,32.4889],[5.1779,61.2682,20.5],[5.1688,61.2672,20.5],[5.1646,61.2759,24.3421],[5.1464,61.2739,124.7781],[5.1443,61.2783,85.3083],[5.126,61.2763,128.5511],[5.1239,61.2806,126.7564],[5.1148,61.2796,99.0113],[5.1127,61.284,122.9538],[5.1035,61.283,162.0365],[5.112,61.2655,71.0261],[5.1029,61.2645,47.7898],[5.105,61.2601,46.8795],[5.0958,61.2591,52.7893],[5.0979,61.2548,0.0],[5.0341,61.2477,119.2917],[5.032,61.2521,31.0598],[5.0229,61.2511,14.4377],[5.025,61.2467,103.883],[5.0177,61.2459,26.531],[5.0132,61.2495,11.9455]]],
[[[5.0333,61.1958,374.5857],[5.0255,61.1974,112.4942],[5.0229,61.1896,25.6885],[5.0234,61.188,0.0],[5.0307,61.1849,66.3142],[5.0318,61.1797,7.1125],[5.038,61.1755,0.0],[5.0479,61.1729,0.0],[5.0682,61.1734,0.0],[5.0682,61.1786,0.0],[5.0646,61.1813,21.0372],[5.0667,61.1854,0.0],[5.0661,61.1932,35.3268],[5.0563,61.1958,306.7176],[5.0333,61.1958,374.5857]]],
[[[4.9778,61.2275,10.9289],[4.9833,61.2271,7.1772],[4.9849,61.2286,1.7187],[4.9792,61.2292,7.9392],[4.9778,61.2275,10.9289]]]]}}