{"type": "Feature","bbox": [5.6698,60.7292,6.2102,61.0334],"geometry": {"type": "MultiPolygon","coordinates": [[[[5.6997,60.7413,305.0729],[5.7021,60.7416,332.482],[5.6971,60.7417,244.9338],[5.6916,60.7386,305.6223],[5.6927,60.736,391.6785],[5.7017,60.737,509.4214],[5.6997,60.7413,305.0729]]],
[[[5.6798,60.7438,137.4039],[5.6807,60.7422,0.0],[5.687,60.7464,0.0],[5.688,60.7516,39.2419],[5.6922,60.7536,0.0],[5.6943,60.7578,0.0],[5.7016,60.7589,0.0],[5.7026,60.7641,162.6708],[5.7104,60.7667,208.3891],[5.7146,60.7646,0.0],[5.7271,60.7646,2.3124],[5.7292,60.7625,31.857],[5.7266,60.7589,0.0],[5.7208,60.7562,26.4616],[5.7068,60.7599,0.0],[5.7057,60.7568,115.6779],[5.7026,60.7557,0.0],[5.7005,60.7516,0.0],[5.7042,60.7479,0.0],[5.7042,60.7438,238.4105],[5.7021,60.7416,332.482],[5.7087,60.7423,300.9302],[5.7147,60.7292,509.5264],[5.7596,60.734,315.4931],[5.7557,60.7428,383.6541],[5.7647,60.7437,434.0285],[5.7627,60.7481,539.5111],[5.7987,60.7519,484.8903],[5.7928,60.7651,766.3657],[5.8018,60.766,604.8065],[5.7998,60.7704,806.6024],[5.8088,60.7714,724.4752],[5.8068,60.7757,752.9384],[5.8158,60.7767,729.0816],[5.8119,60.7855,694.3135],[5.8209,60.7864,632.2083],[5.8189,60.7908,738.3834],[5.8369,60.7927,576.8466],[5.835,60.7971,764.2629],[5.853,60.799,569.2736],[5.851,60.8034,712.5878],[5.9141,60.8101,939.0933],[5.9161,60.8057,964.5383],[5.9612,60.8104,914.3657],[5.9592,60.8148,877.8566],[5.9772,60.8167,886.4391],[5.9753,60.8211,929.3731],[5.9843,60.8221,1027.6008],[5.9824,60.8264,1006.3932],[5.9914,60.8274,1014.7813],[5.9953,60.8186,897.9868],[6.0223,60.8215,917.1622],[6.0204,60.8258,957.5114],[6.0294,60.8268,868.575],[6.0275,60.8312,949.5],[6.0365,60.8321,1060.7482],[6.0346,60.8365,1084.9374],[6.0436,60.8374,1065.0479],[6.0416,60.8418,1091.6819],[6.0507,60.8428,1038.2153],[6.0487,60.8471,1036.4062],[6.0668,60.849,956.0],[6.0648,60.8534,989.7071],[6.0829,60.8553,956.0],[6.081,60.8597,1026.072],[6.09,60.8606,956.0],[6.0881,60.865,1016.9327],[6.1061,60.8669,956.0],[6.1042,60.8713,956.0],[6.1223,60.8731,969.3549],[6.1203,60.8775,956.0],[6.1294,60.8785,963.6125],[6.1255,60.8872,956.0],[6.1345,60.8882,956.0],[6.1326,60.8926,956.0],[6.1507,60.8944,971.5561],[6.1526,60.89,947.4762],[6.1617,60.891,871.1263],[6.1597,60.8954,1027.8203],[6.1688,60.8963,980.6428],[6.1649,60.9051,1002.2333],[6.2102,60.9097,1011.2265],[6.2083,60.9141,1076.4556],[6.1901,60.9123,1093.0574],[6.1882,60.9166,1043.2896],[6.1701,60.9148,1133.4775],[6.1682,60.9192,994.2676],[6.1591,60.9182,1116.3605],[6.1572,60.9226,1133.3376],[6.1481,60.9217,1138.3784],[6.1365,60.948,926.9164],[6.1456,60.9489,841.6597],[6.1398,60.9621,909.4432],[6.1488,60.963,895.6229],[6.1411,60.9805,836.2841],[6.1229,60.9787,873.2123],[6.121,60.9831,604.7202],[6.1119,60.9821,594.1395],[6.11,60.9865,699.614],[6.1009,60.9856,776.0663],[6.0989,60.9899,941.1845],[6.0899,60.989,992.285],[6.084,61.0022,963.8675],[6.0749,61.0012,1004.975],[6.0671,61.0187,1161.1227],[6.058,61.0178,1177.2671],[6.0541,61.0266,1253.8656],[6.0451,61.0256,1244.8044],[6.0431,61.03,1211.5062],[6.034,61.0291,1179.7051],[6.0321,61.0334,1187.9971],[6.023,61.0325,1033.1405],[6.0249,61.0281,1108.905],[5.9977,61.0253,1050.786],[5.9997,61.0209,1046.7782],[5.9815,61.019,1107.9042],[5.9835,61.0146,1049.517],[5.9472,61.0108,1155.3331],[5.9491,61.0064,1133.6368],[5.931,61.0045,1223.9316],[5.933,61.0002,1215.9691],[5.9239,60.9992,1201.2511],[5.9259,60.9948,1159.4402],[5.9168,60.993899999999996,1073.4171],[5.9188,60.9895,983.5001],[5.9097,60.9885,1095.5459],[5.9117,60.9842,1025.4082],[5.9026,60.9832,1170.6969],[5.9066,60.9744,1110.6134],[5.8975,60.9735,1022.4819],[5.9015,60.9647,1121.0531],[5.8924,60.9638,986.4988],[5.8964,60.955,987.5435],[5.8511,60.9502,1013.2452],[5.859,60.9327,806.7606],[5.8499,60.9318,905.9871],[5.8519,60.9274,870.6938],[5.8429,60.9264,864.1588],[5.8449,60.9221,805.8999],[5.8268,60.9201,894.1061],[5.8307,60.9114,779.0],[5.8217,60.9104,861.65],[5.8256,60.9017,745.5],[5.8166,60.9007,764.0],[5.8206,60.8919,745.5],[5.8115,60.891,770.3892],[5.8135,60.8866,745.5],[5.8045,60.8856,745.5],[5.8065,60.8813,867.1686],[5.7974,60.8803,767.3344],[5.7994,60.8759,806.3826],[5.7904,60.875,773.4836],[5.7844,60.8881,886.2505],[5.7664,60.8862,902.5831],[5.7723,60.873,716.0125],[5.7452,60.8702,691.0],[5.7472,60.8658,703.0762],[5.7292,60.8639,635.0],[5.7312,60.8595,867.1763],[5.7221,60.8585,705.6064],[5.7321,60.8366,854.0982],[5.7231,60.8357,843.592],[5.731,60.8181,800.4072],[5.722,60.8172,840.1021],[5.726,60.8084,774.2243],[5.717,60.8075,910.336],[5.7189,60.8031,864.4441],[5.7099,60.8021,799.4957],[5.7119,60.7977,791.3357],[5.7029,60.7968,692.7244],[5.7049,60.7924,745.9827],[5.6959,60.7914,669.4772],[5.6999,60.7827,428.145],[5.6909,60.7817,430.554],[5.6929,60.7773,392.5792],[5.6839,60.7764,330.5792],[5.6858,60.772,315.7346],[5.6768,60.771,412.2468],[5.6788,60.7666,339.4163],[5.6698,60.7657,466.6661],[5.6798,60.7438,137.4039]]]]}
,"properties": {"GID_2": "NOR.7.19_1","GID_0": "NOR","country": "Norway","GID_1": "NOR.7_1","province": "Hordaland","NL_NAME_1": "NA","county": "Modalen","VARNAME_2": "NA","NL_NAME_2": "NA","TYPE_2": "Kommuner","ENGTYPE_2": "Municipality","CC_2": "NA","HASC_2": "NO.HO.MO","name": "Modalen.county","area_km2": 404.7278,"hist_schema_id": "Elevation0-9000","hist_area_km2": {"0": 5.1002,"25": 1.9546,"50": 1.8925,"75": 1.8408,"100": 5.1731,"125": 4.7716,"150": 3.7809,"175": 3.8942,"200": 4.2048,"225": 4.1429,"250": 4.0903,"275": 3.8939,"300": 4.3078,"325": 4.5348,"350": 4.8863,"375": 5.2478,"400": 5.3721,"425": 5.6505,"450": 5.8057,"475": 5.5781,"500": 6.217,"525": 6.4957,"550": 6.4541,"575": 8.1927,"600": 7.0606,"625": 6.863,"650": 8.0113,"675": 9.1429,"700": 9.9271,"725": 10.362,"750": 13.2398,"775": 14.1353,"800": 12.1825,"825": 12.1811,"850": 11.8477,"875": 12.0937,"900": 13.4323,"925": 13.9248,"950": 17.7105,"975": 17.2421,"1000": 18.3254,"1025": 17.7136,"1050": 13.9629,"1075": 13.5158,"1100": 11.907,"1125": 9.2047,"1150": 7.7212,"1175": 5.5263,"1200": 2.4076,"1225": 1.4091,"1250": 0.1953}}}