{"type":"Feature","properties":{"GID_2":"NOR.4.2_1","GID_0":"NOR","country":"Norway","GID_1":"NOR.4_1","province":"Buskerud","NL_NAME_1":"NA","county":"Drammen","VARNAME_2":"NA","NL_NAME_2":"NA","TYPE_2":"Kommuner","ENGTYPE_2":"Municipality","CC_2":"NA","HASC_2":"NO.BU.DR","name":"Drammen.county"},
"geometry":{"type": "MultiPolygon","coordinates": [[[[10.2452,59.7451,0.0],[10.2475,59.7464,0.761],[10.245,59.7462,5.8177],[10.2437,59.7507,13.8258],[10.2349,59.75,34.0648],[10.2336,59.7544,52.6465],[10.2247,59.7538,84.0444],[10.2234,59.7582,111.7732],[10.2146,59.7576,241.091],[10.212,59.7664,194.9124],[10.2031,59.7658,248.1092],[10.1979,59.7835,205.1046],[10.189,59.7829,193.5376],[10.1877,59.7873,235.05],[10.1789,59.7866,274.8891],[10.1776,59.7911,293.9976],[10.1599,59.7897,474.2041],[10.1573,59.7986,482.2086],[10.1484,59.798,520.5713],[10.1471,59.8024,538.2977],[10.1383,59.8017,544.1313],[10.1356,59.8106,515.6485],[10.1179,59.8093,508.7469],[10.1166,59.8137,507.0338],[10.0989,59.8124,439.8557],[10.1202,59.7414,122.9151],[10.1113,59.7407,143.9137],[10.1127,59.7363,346.2377],[10.1038,59.7356,353.2973],[10.1052,59.7312,366.835],[10.0963,59.7305,353.3729],[10.0977,59.7261,336.4028],[10.08,59.7247,366.9809],[10.0827,59.7158,352.1551],[10.0739,59.7152,344.3118],[10.0779,59.7019,303.2821],[10.0691,59.7012,326.0165],[10.0717,59.6923,255.7815],[10.0629,59.6916,256.6117],[10.0642,59.6872,214.5745],[10.0554,59.6865,276.1113],[10.0568,59.6821,309.4593],[10.0391,59.6807,404.666],[10.0405,59.6763,416.6846],[10.0229,59.675,380.2913],[10.0242,59.6705,406.8775],[10.0154,59.6699,326.606],[10.0181,59.661,395.5093],[10.0093,59.6603,364.5625],[10.0119,59.6514,333.0067],[10.0207,59.6521,461.1956],[10.0234,59.6432,479.981],[10.0498,59.6453,519.4092],[10.0511,59.6408,522.5766],[10.0951,59.6442,462.4644],[10.0924,59.653,490.8771],[10.1012,59.6537,446.2376],[10.0986,59.6626,386.5852],[10.1074,59.6633,372.4403],[10.1061,59.6677,364.9243],[10.1413,59.6704,333.0798],[10.1426,59.6659,248.5047],[10.1778,59.6686,263.1777],[10.1791,59.6642,265.0244],[10.276,59.6714,198.2344],[10.2773,59.667,221.8159],[10.3125,59.6696,240.7721],[10.3099,59.6785,256.4554],[10.3187,59.6791,239.1851],[10.3149,59.6924,0.0],[10.2981,59.6963,12.7209],[10.2742,59.7076,10.2411],[10.2703,59.7124,0.0],[10.2675,59.7124,0.0],[10.2664,59.7174,22.7014],[10.2681,59.7204,0.0],[10.2647,59.7229,1.7654],[10.2542,59.7254,20.9968],[10.2553,59.7268,0.8492],[10.2464,59.7296,3.4522],[10.2458,59.7321,0.0],[10.2286,59.7307,1.3419],[10.2075,59.7399,0.4412],[10.1919,59.7443,0.8232],[10.1958,59.7449,1.9116],[10.2147,59.7399,0.1879],[10.2225,59.7399,0.0],[10.2242,59.739,0.0],[10.2169,59.7374,0.0],[10.2286,59.7326,0.8824],[10.2353,59.7324,0.497],[10.2375,59.7329,0.0],[10.2342,59.734,0.0],[10.2325,59.7371,3.8634],[10.2381,59.7379,1.3108],[10.2381,59.7396,0.5699],[10.2353,59.7404,1.3826],[10.2452,59.7451,0.0]]]]}}