{"type": "Feature","bbox": [5.981,61.4414,6.8629,61.6927],"geometry": {"type": "MultiPolygon","coordinates": [[[[6.8151,61.561,1538.0066],[6.8243,61.5618,1500.4531],[6.8206,61.5706,1717.7479],[6.8298,61.5715,1608.7616],[6.8242,61.5847,1522.3975],[6.8334,61.5856,1451.0226],[6.8296,61.5944,1683.734],[6.8389,61.5953,1682.8888],[6.837,61.5997,1758.6849],[6.8463,61.6006,1766.8492],[6.8444,61.605,1789.6915],[6.8629,61.6068,1780.3608],[6.861,61.6111,1815.4631],[6.8518,61.6103,1806.1108],[6.8499,61.6147,1803.391],[6.8406,61.6138,1782.4622],[6.8387,61.6182,1761.8097],[6.8294,61.6173,1741.9524],[6.8275,61.6217,1716.9944],[6.8183,61.6208,1673.1448],[6.8164,61.6252,1643.4999],[6.8071,61.6243,1564.0991],[6.8033,61.633,1568.8914],[6.794,61.6322,1658.588],[6.7883,61.6453,1463.4054],[6.7791,61.6444,1587.979],[6.7714,61.662,1083.2512],[6.7622,61.6611,1231.6427],[6.7564,61.6743,1341.1541],[6.7472,61.6734,1392.7577],[6.7433,61.6822,1640.6068],[6.734,61.6813,1606.7185],[6.7321,61.6857,1496.1559],[6.7228,61.6848,1447.5704],[6.7209,61.6892,1477.1704],[6.7116,61.6883,1517.0958],[6.7097,61.6927,1577.2683],[6.6911,61.6909,1604.6754],[6.6969,61.6777,1677.2037],[6.6876,61.6768,1743.3545],[6.6895,61.6724,1669.4575],[6.671,61.6706,1633.6249],[6.6729,61.6662,1610.5402],[6.6636,61.6653,1574.4177],[6.6655,61.6609,1478.7],[6.647,61.6591,1058.473],[6.6489,61.6547,1228.2079],[6.6396,61.6538,849.393],[6.6415,61.6494,1056.2496],[6.623,61.6476,749.9896],[6.6249,61.6432,745.4756],[6.6156,61.6423,1064.2006],[6.6175,61.6379,1023.9831],[6.599,61.6361,1240.0697],[6.5971,61.6405,1064.0],[6.5693,61.6377,995.1783],[6.5673,61.6421,927.6984],[6.5395,61.6394,1109.5996],[6.5376,61.6438,1018.645],[6.5098,61.6411,504.7525],[6.5078,61.6454,589.3207],[6.4707,61.6418,1004.1369],[6.4688,61.6462,1173.8882],[6.4039,61.6397,1451.4983],[6.4059,61.6353,1459.7804],[6.3966,61.6344,1401.9891],[6.4044,61.6169,962.4301],[6.3951,61.616,917.2319],[6.3971,61.6116,877.7911],[6.3878,61.6106,896.9708],[6.3898,61.6063,875.1139],[6.3805,61.6053,940.4872],[6.3825,61.6009,1068.3959],[6.3455,61.5972,1007.8513],[6.3416,61.606,1079.2844],[6.3323,61.6051,907.0894],[6.3225,61.627,1053.673],[6.3317,61.628,1269.7246],[6.3219,61.6499,1270.6562],[6.3126,61.649,1364.5227],[6.3087,61.6577,1410.5255],[6.2994,61.6568,1215.704],[6.2975,61.6612,1192.2697],[6.2882,61.6603,1063.0382],[6.2902,61.6559,1127.6531],[6.2809,61.655,1237.0981],[6.2848,61.6462,1320.9971],[6.2756,61.6453,1430.8311],[6.2854,61.6233,794.5658],[6.2762,61.6224,900.2745],[6.2801,61.6136,1033.9113],[6.2709,61.6127,1238.3885],[6.2728,61.6083,1180.4188],[6.2636,61.6074,1154.4413],[6.2656,61.603,1112.3571],[6.2101,61.5974,1322.9335],[6.212,61.593,1080.8568],[6.2028,61.5921,1032.3342],[6.2048,61.5877,954.9608],[6.1955,61.5868,1132.9336],[6.2015,61.5736,991.7339],[6.1922,61.5727,1175.0629],[6.1942,61.5683,1142.1935],[6.185,61.5673,1178.0751],[6.1869,61.563,1050.7592],[6.1777,61.562,1150.3876],[6.1817,61.5533,880.3251],[6.1632,61.5514,934.754],[6.1652,61.547,1108.2206],[6.119,61.5423,744.6301],[6.121,61.5379,791.7601],[6.1025,61.536,827.8143],[6.1045,61.5317,709.0748],[6.0953,61.5307,744.7082],[6.0973,61.5263,601.4242],[6.0604,61.5226,389.5365],[6.0624,61.5182,434.5036],[6.0347,61.5153,666.9464],[6.0367,61.511,612.232],[6.0275,61.51,624.0837],[6.0295,61.5056,523.0316],[6.0203,61.5047,643.1436],[6.0263,61.4915,602.3834],[6.0171,61.4906,672.9978],[6.0191,61.4862,640.0391],[6.0098,61.4853,679.2226],[6.0118,61.4809,650.1754],[6.0026,61.4799,731.6021],[6.0046,61.4756,656.086],[5.9954,61.4746,729.5965],[5.9974,61.4702,611.6299],[5.9882,61.4693,789.8941],[5.9902,61.4649,599.6203],[5.981,61.4639,610.9867],[5.985,61.4552,422.9945],[5.9942,61.4561,345.7647],[5.9962,61.4517,272.0441],[6.0146,61.4536,117.659],[6.0186,61.4449,92.1396],[6.0278,61.4458,180.4015],[6.0298,61.4414,128.5925],[6.0758,61.4462,755.0355],[6.0738,61.4505,892.1635],[6.1198,61.4553,851.2947],[6.1218,61.4509,961.1612],[6.131,61.4518,866.1021],[6.133,61.4474,943.611],[6.1422,61.4484,804.6254],[6.1442,61.444,1005.0524],[6.1626,61.4459,944.9016],[6.1646,61.4415,1023.1417],[6.1922,61.4443,1040.5282],[6.1902,61.4487,1122.6826],[6.2362,61.4533,1207.916],[6.2343,61.4577,1189.3147],[6.2527,61.4596,1251.5872],[6.2547,61.4552,1268.572],[6.2639,61.4561,1403.1531],[6.2658,61.4517,1404.1974],[6.275,61.4527,1350.7999],[6.2731,61.4571,1291.1776],[6.3007,61.4598,999.3396],[6.2987,61.4642,1178.4894],[6.3172,61.4661,1349.2819],[6.3191,61.4617,1016.3118],[6.4205,61.4718,1448.2754],[6.4186,61.4762,1381.671],[6.437,61.4781,1406.2971],[6.4351,61.4825,1385.2887],[6.4443,61.4834,1263.502],[6.4462,61.479,1199.5],[6.5108,61.4854,1530.4973],[6.5127,61.481,1499.4547],[6.5496,61.4847,1576.5701],[6.5515,61.4803,1530.1138],[6.6069,61.4857,1156.355],[6.6088,61.4813,1026.1589],[6.6273,61.4832,952.7819],[6.6444,61.4436,1350.0754],[6.6537,61.4445,1315.3842],[6.6517,61.4489,1396.3295],[6.6702,61.4507,906.8116],[6.6683,61.4551,1056.0127],[6.6775,61.456,901.9758],[6.6756,61.4604,1018.7424],[6.694,61.4622,1242.3285],[6.6921,61.4666,1419.8224],[6.7014,61.4675,1111.7512],[6.6957,61.4807,1200.0404],[6.7049,61.4816,1053.9213],[6.7011,61.4904,1281.4075],[6.7103,61.4913,1209.8602],[6.7084,61.4957,1364.9673],[6.7177,61.4966,1239.9056],[6.7139,61.5054,1395.2417],[6.7231,61.5063,1395.3623],[6.7193,61.515,1576.3467],[6.7285,61.5159,1603.6897],[6.7247,61.5247,1592.7971],[6.734,61.5256,1590.4144],[6.7302,61.5344,1634.1958],[6.7394,61.5353,1612.9512],[6.7375,61.5397,1621.5017],[6.756,61.5415,1608.4819],[6.7541,61.5459,1614.0002],[6.7726,61.5477,1644.0015],[6.7707,61.5521,1641.0742],[6.7892,61.5539,1649.9901],[6.7873,61.5583,1649.5092],[6.8151,61.561,1538.0066]]]]}
,"properties": {"GID_2": "NOR.14.16_1","GID_0": "NOR","country": "Norway","GID_1": "NOR.14_1","province": "SognogFjordane","NL_NAME_1": "NA","county": "Jølster","VARNAME_2": "NA","NL_NAME_2": "NA","TYPE_2": "Kommuner","ENGTYPE_2": "Municipality","CC_2": "NA","HASC_2": "NO.SF.JO","name": "Jølster.county","area_km2": 676.3817,"hist_schema_id": "Elevation0-9000","hist_area_km2": {"50": 2.1255,"75": 0.6954,"100": 0.5547,"125": 1.1628,"150": 1.6176,"175": 3.2572,"200": 46.5095,"225": 11.9125,"250": 10.6801,"275": 11.251,"300": 12.2191,"325": 11.483,"350": 10.0603,"375": 8.8071,"400": 9.5575,"425": 9.2742,"450": 9.9217,"475": 10.8301,"500": 10.497,"525": 10.1639,"550": 11.4083,"575": 12.5296,"600": 12.3573,"625": 12.3657,"650": 12.4169,"675": 13.1129,"700": 12.8705,"725": 13.3352,"750": 12.9005,"775": 15.474,"800": 13.5746,"825": 13.4127,"850": 13.5128,"875": 13.745,"900": 13.3502,"925": 13.6457,"950": 12.8274,"975": 13.8473,"1000": 13.8083,"1025": 12.4019,"1050": 12.7943,"1075": 12.5017,"1100": 11.4816,"1125": 10.6645,"1150": 10.3304,"1175": 9.723,"1200": 10.0586,"1225": 9.0786,"1250": 8.6641,"1275": 9.0269,"1300": 8.1095,"1325": 8.5533,"1350": 9.0479,"1375": 8.5444,"1400": 8.1994,"1425": 7.522,"1450": 6.6542,"1475": 6.6855,"1500": 7.0879,"1525": 6.2392,"1550": 6.6041,"1575": 7.0889,"1600": 8.279,"1625": 7.1057,"1650": 3.1767,"1675": 2.1682,"1700": 1.5127,"1725": 0.8369,"1750": 0.857,"1775": 1.3207,"1800": 0.9678,"1825": 0.0202}}}