{"type": "Feature","bbox": [13.0009,67.9687,13.4599,68.1687],"geometry": {"type": "MultiPolygon","coordinates": [[[[13.0922,68.0203,0.0],[13.0938,68.0188,1.6881],[13.1,68.0188,31.1319],[13.1161,68.0245,148.378],[13.1063,68.025,0.0],[13.1021,68.0229,2.8102],[13.0943,68.0224,0.0],[13.0922,68.0203,0.0]]],
[[[13.2005,68.0828,4.4796],[13.2005,68.0818,3.0687],[13.2036,68.0818,0.0],[13.2036,68.0828,0.0],[13.2005,68.0828,4.4796]]],
[[[13.1521,68.1062,5.21],[13.1542,68.1042,0.0],[13.1578,68.1078,0.0],[13.1542,68.1083,0.0],[13.1521,68.1062,5.21]]],
[[[13.0755,68.1078,10.1622],[13.0771,68.1062,52.7728],[13.0849,68.1068,286.8896],[13.0833,68.1083,270.9272],[13.0755,68.1078,10.1622]]],
[[[13.2375,67.9958,0.0],[13.2339,67.9974,53.429],[13.2391,68.0057,0.0],[13.2312,68.0083,13.3436],[13.2276,68.0057,0.0],[13.2214,67.9922,0.0],[13.2292,67.9917,3.4639],[13.2391,67.9943,0.0],[13.2375,67.9958,0.0]]],
[[[13.1525,67.9731,385.0432],[13.1538,67.9687,234.4155],[13.1654,67.9696,103.9238],[13.1821,67.9796,45.0566],[13.1792,67.9812,52.2683],[13.1667,67.9812,470.7889],[13.1604,67.9833,599.8602],[13.1563,67.9812,581.1364],[13.1438,67.9812,389.705],[13.1375,67.9792,404.7127],[13.1359,67.9797,335.5356],[13.137,67.9828,180.7912],[13.1339,67.9838,207.521],[13.1339,67.987,225.1054],[13.1375,67.9896,129.4907],[13.1479,67.9854,193.0212],[13.1542,67.9854,367.8576],[13.162,67.988,264.9334],[13.1589,67.9912,241.8273],[13.1724,67.9943,0.0],[13.1734,67.9974,0.0],[13.1849,67.9984,0.0],[13.1776,68.0026,0.0],[13.1766,68.0057,16.742],[13.1693,68.0089,5.2208],[13.1714,68.0141,9.2275],[13.1786,68.0151,0.0],[13.1792,68.0167,0.0],[13.1745,68.0203,8.4126],[13.1651,68.0214,3.7322],[13.1703,68.0307,0.0],[13.1651,68.0318,6.0016],[13.1661,68.0349,5.983],[13.163,68.037,27.3334],[13.1724,68.037,0.0],[13.1734,68.0339,0.0],[13.1766,68.0328,0.0],[13.1755,68.0276,0.0],[13.1828,68.0245,0.0],[13.1818,68.0193,7.3695],[13.1875,68.0167,0.7781],[13.1917,68.0188,10.521],[13.1953,68.0182,0.0],[13.1943,68.013,8.6462],[13.201599999999999,68.0078,22.7355],[13.2005,68.0047,5.1685],[13.2146,68.0042,16.0757],[13.2182,68.0068,7.0491],[13.2193,68.0099,10.8042],[13.2245,68.0109,0.0],[13.2266,68.013,0.0],[13.2234,68.0162,40.4491],[13.2266,68.0224,10.9113],[13.2208,68.025,49.4502],[13.2146,68.025,390.951],[13.213,68.0266,214.6121],[13.2229,68.0271,37.1316],[13.2307,68.0297,15.7205],[13.2339,68.0349,106.787],[13.2391,68.0359,0.0],[13.2359,68.0391,62.2415],[13.2411,68.0474,0.0],[13.2359,68.0484,8.069],[13.237,68.0516,0.0],[13.2333,68.0542,0.0],[13.2354,68.0563,0.0],[13.2453,68.0557,0.0],[13.2443,68.0526,0.0],[13.2479,68.05,0.0],[13.2464,68.0463,0.0],[13.2599,68.0411,0.0],[13.2563,68.0354,0.0],[13.2599,68.0328,6.2602],[13.2589,68.0276,0.0],[13.262,68.0266,0.0],[13.2583,68.0188,0.0],[13.262,68.0151,8.045],[13.2563,68.0146,0.0],[13.2547,68.013,0.0],[13.262,68.0078,9.1741],[13.2609,68.0026,1.8323],[13.2667,68.0,0.0],[13.2854,68.0021,7.6458],[13.3141,68.0109,10.4146],[13.3172,68.0141,0.0],[13.3224,68.0151,0.0],[13.3255,68.0203,16.0882],[13.3307,68.0214,15.6977],[13.3375,68.0271,25.1471],[13.3578,68.0276,2.8249],[13.3563,68.0292,3.225],[13.3484,68.0297,8.1996],[13.3505,68.0349,7.9205],[13.3542,68.0375,0.0],[13.362,68.037,231.0836],[13.363,68.0339,79.0682],[13.3661,68.0328,93.5152],[13.3651,68.0297,26.143],[13.3667,68.0292,27.1105],[13.387,68.0297,0.0],[13.3974,68.0484,15.4126],[13.3938,68.0521,51.5596],[13.3974,68.0568,9.7522],[13.3943,68.0589,45.413],[13.3943,68.062,7.059],[13.4036,68.0672,0.0],[13.4036,68.0703,25.7344],[13.4005,68.0724,123.8935],[13.4057,68.0734,41.5786],[13.4089,68.0766,65.1632],[13.4141,68.0776,27.9523],[13.4161,68.0797,3.5291],[13.4224,68.0911,0.0],[13.4125,68.0917,226.9934],[13.4083,68.0896,269.954],[13.4,68.0896,216.9474],[13.3958,68.0875,334.9071],[13.3792,68.0875,366.5103],[13.3776,68.0891,319.5921],[13.3875,68.0896,199.5661],[13.3917,68.0917,62.263],[13.4042,68.0917,174.4436],[13.4104,68.0958,24.6016],[13.4146,68.0938,38.1927],[13.4182,68.0943,16.0128],[13.4203,68.0974,0.0],[13.4167,68.1,0.0],[13.4193,68.1057,11.1882],[13.4266,68.1068,0.0],[13.4234,68.1099,28.2255],[13.4286,68.1109,0.0],[13.4318,68.1162,0.0],[13.437,68.1172,0.0],[13.4391,68.1193,0.0],[13.4432,68.1266,0.0],[13.438,68.1286,28.548],[13.4422,68.1328,5.2482],[13.4599,68.138,0.0],[13.4568,68.1401,0.0],[13.4578,68.1453,0.0],[13.4417,68.15,0.0],[13.4375,68.1479,134.8059],[13.4187,68.1479,497.8011],[13.4141,68.1443,714.6334],[13.4104,68.1438,658.4591],[13.4005,68.1464,369.2205],[13.4,68.1479,252.141],[13.4005,68.1495,147.6717],[13.4057,68.1505,127.6103],[13.4089,68.1536,37.5151],[13.4141,68.1547,15.9091],[13.4083,68.1583,0.0],[13.3917,68.1583,388.9775],[13.3849,68.162,315.1855],[13.3771,68.1625,197.4423],[13.3688,68.1667,0.0],[13.3625,68.1646,6.0088],[13.3583,68.1667,0.0],[13.3354,68.1667,233.6918],[13.3313,68.1687,53.2543],[13.3229,68.1687,27.1555],[13.3214,68.1682,0.0],[13.3109,68.1495,0.0],[13.3109,68.1464,0.0],[13.3141,68.1443,0.0],[13.3089,68.1359,15.0958],[13.3333,68.1354,242.1274],[13.3391,68.1318,482.8426],[13.3313,68.1312,455.3646],[13.325,68.1333,285.0946],[13.3208,68.1312,380.686],[13.3146,68.1333,157.2607],[13.3104,68.1312,348.8366],[13.3005,68.1307,118.045],[13.2984,68.1276,0.0],[13.3286,68.1224,3.3762],[13.337,68.1182,0.0],[13.3359,68.1151,0.0],[13.3396,68.1125,0.0],[13.338,68.1088,0.0],[13.3417,68.1062,0.0],[13.3401,68.1026,0.0],[13.3583,68.1021,257.093],[13.3641,68.0995,467.0767],[13.3625,68.0979,405.3971],[13.35,68.0979,493.2536],[13.3458,68.1,128.7054],[13.338,68.0995,0.0],[13.3333,68.0917,0.0],[13.337,68.0891,0.0],[13.3354,68.0854,0.0],[13.3391,68.0818,0.0],[13.3313,68.0792,0.0],[13.3104,68.0792,0.0],[13.3083,68.0771,14.222],[13.312,68.0745,128.3042],[13.3104,68.0729,251.4925],[13.2958,68.0729,389.3383],[13.2917,68.0708,414.9294],[13.2729,68.0708,632.5152],[13.2714,68.0724,612.3306],[13.2813,68.075,218.0554],[13.2896,68.075,131.1601],[13.2974,68.0776,14.1816],[13.3005,68.0828,0.0],[13.3141,68.088,0.0],[13.3193,68.0974,4.4327],[13.326599999999999,68.0984,0.0],[13.3286,68.1036,0.0],[13.3208,68.1042,4.5782],[13.3141,68.1078,0.0],[13.3062,68.1083,4.7743],[13.3021,68.1104,0.0],[13.2833,68.1042,1.4232],[13.2708,68.1042,3.4525],[13.2646,68.1062,0.0],[13.2604,68.1042,14.6749],[13.2542,68.1042,5.2854],[13.2479,68.1062,0.0],[13.2438,68.1042,0.0],[13.2375,68.1062,0.0],[13.2339,68.1036,0.0],[13.2339,68.1005,0.0],[13.2411,68.0995,0.0],[13.2411,68.0964,0.0],[13.2333,68.0938,0.0],[13.225,68.0958,0.0],[13.2109,68.0911,0.0],[13.2125,68.0896,0.0],[13.2245,68.0891,1.522],[13.2255,68.0859,0.0],[13.2286,68.0849,0.0],[13.2266,68.0797,0.0],[13.213,68.0766,0.0],[13.213,68.0734,46.62],[13.2161,68.0724,76.1651],[13.2146,68.0708,266.5433],[13.1979,68.0771,0.0],[13.1901,68.0745,0.0],[13.1974,68.0693,6.0513],[13.1797,68.0682,0.0],[13.1813,68.0667,0.0],[13.1938,68.0667,2.5513],[13.1953,68.0651,30.3682],[13.1911,68.0589,98.9844],[13.1797,68.0578,0.0],[13.1828,68.0547,0.0],[13.1776,68.0537,0.0],[13.1745,68.0484,0.0],[13.1359,68.037,0.0],[13.139099999999999,68.0339,100.7975],[13.137,68.0318,218.4241],[13.1318,68.0307,194.5635],[13.1276,68.0234,419.3292],[13.1354,68.0229,414.1018],[13.137,68.0214,304.4217],[13.1208,68.0208,469.991],[13.1042,68.0146,459.4666],[13.0854,68.0125,455.9434],[13.0776,68.0151,78.4093],[13.0797,68.0182,6.2358],[13.0849,68.0203,0.0],[13.075,68.025,119.4077],[13.0583,68.025,247.5269],[13.0568,68.0255,191.8022],[13.0578,68.0286,34.8266],[13.0526,68.0307,4.8702],[13.0583,68.0354,0.0],[13.0708,68.0354,4.0835],[13.075,68.0333,0.0],[13.0917,68.0333,0.0],[13.0958,68.0375,0.0],[13.0922,68.0411,12.1776],[13.1021,68.0437,5.4284],[13.113,68.038,0.7953],[13.1182,68.038,1.302],[13.1151,68.0411,0.0],[13.1203,68.0432,0.0],[13.1172,68.0453,0.0],[13.1333,68.05,6.772],[13.1521,68.0521,0.0],[13.1568,68.0557,0.0],[13.1682,68.0589,0.0],[13.1651,68.0609,5.8247],[13.1661,68.0641,0.0],[13.1604,68.0667,14.9228],[13.1542,68.0667,32.5941],[13.15,68.0646,1.979],[13.1401,68.0641,0.0],[13.1328,68.0547,4.261],[13.1255,68.0568,0.0],[13.1276,68.0641,0.0],[13.1297,68.0661,0.0],[13.1349,68.0672,0.0],[13.138,68.0724,0.0],[13.1458,68.075,35.5638],[13.1604,68.075,0.0],[13.1641,68.0776,0.0],[13.1651,68.0807,0.0],[13.1729,68.0833,0.0],[13.1979,68.0833,0.0],[13.201599999999999,68.0859,0.0],[13.1943,68.0901,0.0],[13.1953,68.0953,0.0],[13.1922,68.0964,0.2485],[13.1911,68.0995,0.9556],[13.1854,68.1021,0.0],[13.1729,68.1021,0.0],[13.1688,68.1,0.0],[13.1563,68.1,1.1226],[13.1521,68.0979,0.0],[13.1438,68.0979,0.0],[13.138,68.1005,0.0],[13.1432,68.1036,0.0],[13.1401,68.1047,0.0],[13.1411,68.1099,19.6131],[13.137,68.112,93.2029],[13.1313,68.1104,225.5338],[13.1104,68.1104,0.0],[13.1063,68.1083,0.0],[13.0979,68.1083,14.3518],[13.0875,68.1042,491.5258],[13.0792,68.1042,314.0529],[13.0755,68.0995,0.0],[13.087,68.0932,33.4062],[13.0854,68.0875,29.4236],[13.0891,68.0849,21.2007],[13.088,68.0818,0.0],[13.0974,68.0807,109.9633],[13.0964,68.0776,0.0],[13.1057,68.0766,90.97],[13.1057,68.0734,373.2476],[13.0667,68.0729,206.3479],[13.0625,68.0708,470.892],[13.0583,68.0729,461.144],[13.0484,68.0724,44.6978],[13.0453,68.0651,157.8306],[13.0396,68.0646,0.0],[13.038,68.063,20.0749],[13.062,68.0557,461.8253],[13.0578,68.0505,443.6085],[13.05,68.0521,653.3949],[13.0438,68.05,734.8799],[13.037,68.0537,592.8179],[13.0292,68.0542,623.989],[13.0208,68.0583,72.3718],[13.0172,68.0547,0.0],[13.0203,68.0537,40.597],[13.0214,68.0505,78.2137],[13.0245,68.0484,327.2434],[13.0172,68.0443,74.5694],[13.025,68.0437,329.0844],[13.0307,68.0401,423.4995],[13.0208,68.0396,416.3553],[13.0167,68.0375,792.6016],[13.0104,68.0375,714.8493],[13.0042,68.0396,369.167],[13.0009,68.0378,515.6107],[13.0031,68.0305,235.5942],[13.015,68.031,472.4013],[13.0176,68.022,603.3662],[13.0296,68.0225,233.356],[13.0322,68.0136,401.3148],[13.0441,68.014,321.8317],[13.0534,67.9827,335.525],[13.0653,67.9832,398.7991],[13.0666,67.9787,601.2733],[13.1023,67.9802,200.5698],[13.1036,67.9757,110.9771],[13.1274,67.9767,676.9624],[13.1287,67.9722,667.006],[13.1525,67.9731,385.0432]]],
[[[13.4193,68.1536,71.4752],[13.4208,68.1521,179.8244],[13.4307,68.1526,0.0],[13.425,68.1563,0.0],[13.4214,68.1557,4.8289],[13.4193,68.1536,71.4752]]]]}
,"properties": {"GID_2": "NOR.10.12_1","GID_0": "NOR","country": "Norway","GID_1": "NOR.10_1","province": "Nordland","NL_NAME_1": "NA","county": "Flakstad","VARNAME_2": "NA","NL_NAME_2": "NA","TYPE_2": "Kommuner","ENGTYPE_2": "Municipality","CC_2": "NA","HASC_2": "NO.NO.FL","name": "Flakstad.county","area_km2": 170.738,"hist_schema_id": "Elevation0-9000","hist_area_km2": {"0": 23.5519,"25": 16.9139,"50": 10.2774,"75": 13.85,"100": 8.6661,"125": 8.6738,"150": 8.6503,"175": 7.9276,"200": 7.2465,"225": 7.2784,"250": 6.6759,"275": 6.1852,"300": 5.5276,"325": 5.1864,"350": 4.6323,"375": 4.4827,"400": 4.2606,"425": 3.3191,"450": 2.9471,"475": 2.2021,"500": 2.1306,"525": 1.7983,"550": 1.4975,"575": 1.2519,"600": 1.2443,"625": 1.1732,"650": 0.8165,"675": 0.7455,"700": 0.5232,"725": 0.3885,"750": 0.333,"775": 0.1347,"800": 0.1348,"825": 0.0793,"850": 0.0079,"875": 0.0238}}}