{"type":"Feature","properties":{"GID_2":"NOR.1.15_1","GID_0":"NOR","country":"Norway","GID_1":"NOR.1_1","province":"Akershus","NL_NAME_1":"NA","county":"Oppegård","VARNAME_2":"NA","NL_NAME_2":"NA","TYPE_2":"Kommuner","ENGTYPE_2":"Municipality","CC_2":"NA","HASC_2":"NO.AK.OP","name":"Oppegård.county"},
"geometry":{"type": "MultiPolygon","coordinates": [[[[10.8179,59.7606,86.749],[10.8268,59.7612,96.8527],[10.8256,59.7656,127.8664],[10.8344,59.7663,128.7119],[10.8307,59.7796,157.3089],[10.8396,59.7802,136.8221],[10.8371,59.7891,166.5779],[10.8459,59.7897,135.2972],[10.8398,59.812,156.2461],[10.8221,59.8107,174.8482],[10.8208,59.8152,170.3091],[10.812,59.8145,153.1169],[10.8108,59.819,124.9947],[10.8019,59.8184,135.9822],[10.8007,59.8228,136.7185],[10.7918,59.8222,83.5526],[10.7906,59.8266,85.9945],[10.7817,59.826,98.5543],[10.7805,59.8304,81.9023],[10.773,59.8299,53.8674],[10.7708,59.8321,0.0],[10.7597,59.8293,0.0],[10.7592,59.8268,38.6411],[10.7519,59.8237,0.0],[10.7514,59.8224,0.0],[10.7531,59.821,7.2439],[10.7481,59.8185,3.6601],[10.7436,59.8126,0.0],[10.7436,59.8099,14.1161],[10.7353,59.8029,2.7169],[10.7331,59.7946,3.886],[10.7319,59.774,0.0],[10.7347,59.7669,52.2216],[10.7384,59.7649,118.5153],[10.7448,59.7645,136.0301],[10.746,59.76,143.8882],[10.8079,59.7644,84.3024],[10.8091,59.76,66.316],[10.8179,59.7606,86.749]]]]}}