{"type": "Feature","bbox": [18.789683464458733,74.348517157025356,19.297251823833733,74.528509832806634],"geometry": {"type": "Polygon","coordinates": [[[19.16016686289629,74.5271670593691,0.0],[19.114512566021233,74.528509832806634,0.0],[19.026499870708733,74.5139834656191,0.0],[18.981455925396205,74.5210025085878,0.0],[18.874644401958705,74.517401434369077,0.0],[18.820323112896261,74.505194403119077,0.0],[18.789683464458733,74.479376532025356,30.8713],[18.813243034771233,74.4695498718691,28.6442],[18.86536705820879,74.4315860046816,27.1231],[18.931773308208705,74.406439520306634,22.0118],[18.950694206646261,74.393439032025356,61.6561],[18.962901237896261,74.387274481244134,101.3095],[19.002452019146233,74.378363348431577,65.9453],[19.016123894146261,74.377020574994077,205.1848],[19.026377800396205,74.374151922650327,212.6545],[19.03455651133379,74.367438055462884,372.4628],[19.046885612896233,74.352484442181549,58.4612],[19.073496941021233,74.348517157025356,299.716],[19.167613151958705,74.362066961712856,0.0],[19.19495690195879,74.3701236023378,0.0],[19.187510612896261,74.377020574994077,0.0],[19.23462975352129,74.400274969525327,0.0],[19.234873894146233,74.414679266400327,0.0],[19.236704948833761,74.4198062195253,17.67],[19.262339714458733,74.4359195007753,0.0],[19.276377800396261,74.440436102337827,0.0],[19.28309166758379,74.445257879681634,0.0],[19.28443444102129,74.449652410931549,0.0],[19.278208855083761,74.457098699994049,0.0],[19.279795769146233,74.461981512494077,0.0],[19.294322136333761,74.4747988953066,0.0],[19.297251823833733,74.4822451843691,0.0],[19.286265495708733,74.485602117962884,0.0],[19.250743034771261,74.490668035931549,0.0],[19.16016686289629,74.5271670593691,0.0]]]}
,"properties": {"featurecla": "Island","name": "Bjørnøya","namealt": "Bear I.","region": "Europe","subregion": null,"min_label": 5.4,"max_label": 10.0,"scalerank": 5,"area_km2": 191.9682,"hist_schema_id": "Elevation0-9000","hist_area_km2": {"0": 38.6326,"25": 68.8199,"50": 24.4297,"75": 15.4513,"100": 16.0643,"125": 7.4196,"150": 4.5212,"175": 1.8884,"200": 1.9733,"225": 2.8682,"250": 2.5935,"275": 1.8465,"300": 1.3966,"325": 1.5167,"350": 1.1109,"375": 0.6038,"400": 0.3246,"425": 0.262,"450": 0.1766,"475": 0.0456,"500": 0.0171,"525": 0.0057}}}