{"type":"Feature","properties":{"featurecla":"Plateau","name":"Finnmarks-vidda","namealt":null,"region":"Europe","subregion":null,"min_label":5.4,"max_label":10.0,"scalerank":5},
"geometry":{"type": "Polygon","coordinates": [[[23.719971088766613,68.855711312234973,512.252],[26.398692253521233,69.179327703900356,352.9786],[26.4733579198643,69.177712431225814,309.0134],[26.404673698833733,69.2859561218691,337.8842],[26.202403191021233,69.446417547650327,352.1828],[25.998179558208761,69.554205633587827,347.528],[25.826548698833705,69.618658758587827,309.0128],[25.64161217539629,69.6730410828066,275.8844],[25.261729362896261,69.750738836712827,304.1189],[25.093028191021261,69.772406317181577,225.3265],[24.83765709727129,69.767767645306634,362.2927],[24.587290886333761,69.7179629578066,586.9915],[24.093272331646233,69.5880801453066,418.5143],[23.924449089458705,69.519720770306634,505.7471],[23.77173912852129,69.394537664837827,455.7789],[23.66102135508379,69.233465887494077,333.5356],[23.61829674570879,69.0575015320253,441.145],[23.719971088766613,68.855711312234973,512.252]]]}}