{"type": "Feature","bbox": [8.1268147688135741,59.318876160739052,9.4404403003962329,60.71476282855366],"geometry": {"type": "Polygon","coordinates": [[[9.4295127349956829,60.71476282855366,848.8236],[9.38489830820879,60.690314032025384,800.8428],[8.7900496753962329,60.185797430462856,1217.7324],[8.1268147688135741,59.318876160739052,339.0],[8.5698348316462329,59.510565496869077,699.5624],[8.6608992847712329,59.564642645306577,957.2221],[8.7219344410212329,59.627203680462827,939.414],[8.83033287852129,59.783880926556577,880.8015],[8.92628014414629,59.883612371869134,189.0],[9.2600203785212329,60.133063055462856,775.8088],[9.2965194019587329,60.171820379681549,636.2645],[9.3288680347712329,60.215826727337827,784.6611],[9.3571883472712329,60.264227606244049,689.278],[9.3813582691462614,60.316351629681606,1196.9081],[9.4127303394587614,60.409369207806634,441.5679],[9.43238365977129,60.506293035931577,833.8778],[9.4404403003962329,60.603399969525327,782.8525],[9.4366561207087614,60.696661688275327,814.2192],[9.4295127349956829,60.71476282855366,848.8236]]]}
,"properties": {"featurecla": "Range/mtn","name": "Hardanger-vidda","namealt": null,"region": "Europe","subregion": null,"min_label": 5.4,"max_label": 10.0,"scalerank": 5,"area_km2": 2815.732,"hist_schema_id": "Elevation0-9000","hist_area_km2": {"75": 9.421,"100": 0.615,"125": 1.0,"150": 10.44,"175": 9.5,"200": 39.719,"225": 11.834,"250": 13.746,"275": 26.743,"300": 18.487,"325": 18.381,"350": 18.589,"375": 19.545,"400": 21.121,"425": 25.051,"450": 27.664,"475": 31.053,"500": 31.973,"525": 36.554,"550": 40.279,"575": 44.089,"600": 61.901,"625": 65.099,"650": 66.812,"675": 70.494,"700": 78.034,"725": 82.105,"750": 97.052,"775": 103.418,"800": 124.374,"825": 125.394,"850": 142.975,"875": 140.182,"900": 136.429,"925": 133.881,"950": 125.214,"975": 125.672,"1000": 111.513,"1025": 104.755,"1050": 79.832,"1075": 65.445,"1100": 56.276,"1125": 50.036,"1150": 41.331,"1175": 36.43,"1200": 33.566,"1225": 42.359,"1250": 24.086,"1275": 12.561,"1300": 6.011,"1325": 3.08,"1350": 1.999,"1375": 1.693,"1400": 1.162,"1425": 1.172,"1450": 1.066,"1475": 1.002,"1500": 1.279,"1525": 0.767,"1550": 0.692,"1575": 0.692,"1600": 0.554,"1625": 0.256,"1650": 0.266,"1675": 0.256,"1700": 0.149,"1725": 0.202,"1750": 0.106,"1775": 0.138,"1800": 0.053,"1825": 0.043,"1850": 0.064}}}