{"type":"Feature","properties":{"featurecla":"Range/mtn","name":"KJØLEN MOUNTAINS","namealt":null,"region":"Europe","subregion":null,"min_label":4.0,"max_label":8.0,"scalerank":3},
"geometry":{"type": "Polygon","coordinates": [[[9.4295127349956829,60.71476282855366,848.8236],[10.105845573833761,61.085394598431606,811.5273],[11.71863854258379,62.126715399212856,661.5],[12.87525475352129,62.996344305462827,1291.5786],[16.824595573833761,66.367254949994134,836.6401],[17.196018442615696,66.6337683461008,1071.5237],[18.153330925396261,67.320685125775327,636.5195],[19.652964714458733,68.143377996869134,577.197],[21.034140287602696,68.708471690079847,756.8066],[21.13282311289629,68.7488467468691,680.066],[24.282115105083761,69.700384832806577,389.5741],[24.445689323833761,69.8718325867128,543.2222],[23.846690300396261,70.004217840619077,499.0804],[22.861338737896261,70.062872625775327,651.0732],[21.86573326914629,70.0131289734316,35.8603],[20.778941276958705,69.787359930462827,375.3108],[17.845957878521261,68.8595645203066,115.9111],[16.339121941021233,68.2810733093691,243.1671],[15.09131920664629,67.642157293744077,0.0],[14.106211784771233,66.913275457806577,211.8014],[12.247569206646233,65.281683660931634,27.9007],[10.51575768320879,63.959784246869106,294.3669],[9.5717879566462614,63.420172430462827,131.2977],[6.05152428477129,61.880926824994077,559.342],[5.6291610035212054,61.403876043744049,926.6219],[5.58765709727129,60.643683172650384,0.0],[5.7016707691462329,59.754095770306634,0.0],[5.8999129566462054,59.065497137494077,61.1515],[6.36194908945879,58.634772039837884,756.0657],[7.26697838633379,58.518744207806577,509.5746],[7.7410994800837329,58.814703680462856,644.4216],[8.1268147688135741,59.318876160739052,339.0],[8.7900496753962329,60.185797430462856,1217.7324],[9.38489830820879,60.690314032025384,800.8428],[9.4295127349956829,60.71476282855366,848.8236]]]}}