{"type": "Feature","id": "99?","bbox": [4.95493,60.84418,11.22893,63.81623],"geometry": {"type": "MultiPolygon","coordinates": [[[[5.03338,60.84695,0.0],[5.03476,60.84947,10.7329],[5.03216,60.85358,11.3745],[5.00587,60.91787,157.5617],[4.99423,60.93395,61.9091],[4.97812,60.94001,0.0],[4.96599,60.942,32.0102],[4.95688,60.94107,0.0],[4.95493,60.93659,0.0],[4.96079,60.89907,0.0],[4.96884,60.88687,0.0],[4.96966,60.88198,0.0],[4.96664,60.87954,23.1866],[4.96453,60.87661,0.0],[4.96355,60.87177,0.0],[4.96453,60.86734,0.0],[4.97356,60.85509,0.0],[4.98211,60.8474,0.0],[4.9922,60.84431,0.0],[5.01238,60.84683,0.0],[5.02565,60.84418,0.0],[5.0302,60.84435,3.926],[5.03338,60.84695,0.0]]],
[[[8.91228,63.73892,14.6551],[8.90618,63.74014,13.7204],[8.89389,63.73969,2.4561],[8.88201,63.73749,1.0861],[8.87517,63.73672,0.0],[8.86801,63.73465,6.0198],[8.86142,63.73501,0.0],[8.86647,63.73005,0.0],[8.87273,63.71959,0.0],[8.87892,63.71446,0.0],[8.88632,63.71634,0.0],[8.89251,63.71817,1.1841],[8.8956,63.71735,0.0],[8.89983,63.71955,0.0],[8.90284,63.72443,0.0],[8.90748,63.72716,4.3467],[8.91594,63.72846,0.0],[8.92278,63.7305,0.0],[8.92246,63.73656,5.8172],[8.91326,63.73611,17.7388],[8.91228,63.73892,14.6551]]],
[[[11.21404,63.79796,0.0],[11.22893,63.8065,0.0],[11.22714,63.80964,16.7366],[11.21827,63.81485,33.9627],[11.20875,63.81623,2.4368],[11.07285,63.79723,0.0],[11.05787,63.7989,0.0],[11.0468,63.79597,46.0454],[11.03582,63.78819,0.0],[11.02947,63.77171,0.0],[11.00579,63.75646,0.0],[10.99944,63.74649,0.0],[11.00538,63.74209,0.0],[11.03037,63.74274,0.0],[11.0385,63.74518,0.0],[11.04819,63.75222,20.5688],[11.05218,63.75682,6.399],[11.14731,63.79605,0.0],[11.15952,63.79776,0.0],[11.19492,63.79365,6.5811],[11.21404,63.79796,0.0]]]]}
,"properties": {"ISO3166-1-Alpha-3": "NOR","country": "Norway","name": null,"area_km2": 62.2021,"hist_schema_id": "Elevation0-9000","hist_area_km2": {"0": 10.8545,"25": 15.30313,"50": 7.70295,"75": 6.94321,"100": 7.23409,"125": 6.13892,"150": 3.61535,"175": 2.32199,"200": 1.65876,"225": 0.4292}}}