{"type": "Feature","bbox": [4.4954940113337614,59.05711374675198,28.94145875800001,71.097297923634954],"geometry": {"type": "MultiPolygon","coordinates": [[[[23.719971088766613,68.855711312234973,512.252],[22.709605339458761,68.733648992962827,487.8088],[22.179942253521261,68.708441473431549,466.3812],[21.17554772227129,68.721625067181577,681.6972],[21.034140287602696,68.708471690079847,756.8066],[19.652964714458733,68.143377996869134,577.197],[18.153330925396261,67.320685125775327,636.5195],[17.196018442615696,66.6337683461008,1071.5237],[17.019297722271233,66.249273992962856,464.4141],[17.349742058208733,65.777655340619077,552.5973],[17.902232292583761,65.6333682312441,432.1029],[18.498423698833705,65.643988348431634,443.4254],[19.09522545664629,65.749029852337827,467.759],[21.249522331646261,66.368353582806577,246.6415],[21.57581627695879,66.4281680359316,281.1328],[23.502207878521261,66.602484442181577,143.1738],[23.916148308208705,66.602850653119077,95.2005],[25.508666064275928,66.4929048714385,115.7871],[27.50452721445879,68.1145694031191,247.9091],[28.94145875800001,69.124319003736332,119.6161],[26.4733579198643,69.177712431225814,309.0134],[26.531626823833733,69.0858828796816,444.7374],[26.51002037852129,68.8591372742128,144.5],[26.408579948833705,68.7413394226503,203.196],[26.260996941021261,68.644781805462827,266.4509],[25.806773308208761,68.3992373718691,315.3141],[25.64600670664629,68.3620669617128,301.7473],[25.47461998789629,68.356756903119077,288.5285],[24.841563347271261,68.394964910931549,341.8379],[24.288706901958761,68.467047430462856,333.3428],[23.817393425396261,68.662359930462856,424.6409],[23.719971088766613,68.855711312234973,512.252]]],
[[[23.798476166161652,71.0878823567858,0.0],[23.814443882520663,71.065599434413457,0.0],[23.829982275070392,71.040611666583459,0.0],[23.843853120520237,71.014661139986515,0.0],[23.849623902676512,71.0019247523598,0.0],[23.860171199351498,71.02520313217417,0.0],[23.874042044801342,71.051153658771057,0.0],[23.889580437351071,71.076141426601055,0.0],[23.904740968727648,71.097297923634954,0.0],[23.798476166161652,71.0878823567858,0.0]]],
[[[20.045563993895588,70.630571538747759,0.0],[20.054982762118357,70.627714386643788,0.0],[20.082521787002349,70.617349431622074,0.0],[20.10932394822737,70.605205530361843,0.0],[20.135274474824428,70.591334684911828,0.0],[20.14986104763841,70.582540639833383,0.0],[20.169072806976317,70.570456206027586,0.0],[20.184925983362859,70.5668156113357,0.0],[20.200664318137854,70.56290131545876,0.0],[20.212077930623707,70.559439033963486,0.0],[20.228822280348254,70.554359691005175,0.0],[20.256361305232247,70.5439947359838,0.0],[20.283163466457211,70.5318508347234,0.0],[20.309113993054325,70.517979989273556,0.0],[20.334101760884323,70.502441596723827,0.0],[20.358019768489385,70.485302194856843,0.0],[20.380765595288892,70.4666351772226,0.0],[20.402241840160627,70.446520478856485,0.0],[20.422356538526742,70.42504423398475,0.0],[20.441023556161156,70.402298407185071,0.0],[20.45816295802797,70.37838039958001,0.0],[20.461256428337038,70.37340569465988,0.0],[20.46880763191183,70.37111506209817,0.0],[20.496346656795822,70.3607501070768,0.0],[20.51770226375362,70.351074007449142,0.0],[20.534303922182062,70.354944971273426,0.0],[20.563335894837849,70.35973816935774,0.0],[20.592619197965064,70.3626223229777,0.0],[20.622028435964637,70.363585081744645,0.0],[20.635648275636868,70.363378767889742,0.0],[20.83220406061389,70.357422531981342,0.0],[20.924354880275587,70.363541637792878,0.0],[20.925170189864673,70.365827450835411,0.0],[20.934575300541781,70.39096803514559,0.0],[20.9402978058921,70.405491425048353,0.0],[20.952441707152502,70.4322935862732,0.0],[20.966312552602346,70.458244112870261,0.0],[20.981850945151848,70.483231880700259,0.0],[20.998990347018889,70.507149888305321,0.0],[21.017657364653303,70.529895715105,0.0],[21.037772063019418,70.551371959976564,0.0],[21.059248307891153,70.571486658342849,0.0],[21.069001628908268,70.579491002041834,0.0],[21.081994134690603,70.590153675977092,0.0],[21.105912142295836,70.607293077844076,0.0],[21.130899910125834,70.6228314703938,0.0],[21.156850436722607,70.63670231584365,0.0],[21.1836525979478,70.648846217104051,0.0],[21.211191622831734,70.659211172125424,0.0],[21.239349585042191,70.667752796579009,0.0],[21.268005907862118,70.674434513917731,0.0],[21.296643669755383,70.6791756358391,0.0],[21.479681592933218,70.703437720799911,0.0],[21.48007580369557,70.703489796963254,0.0],[21.509359106822956,70.706373950583156,0.0],[21.538768344822529,70.707336709350272,0.0],[21.547877316528513,70.707038512492147,0.0],[21.548740366985726,70.715801210839345,0.0],[21.553533565070211,70.7448331834949,0.0],[21.560215282409104,70.773489506314831,0.0],[21.568756906862518,70.801647468525289,0.0],[21.579121861884062,70.829186493409225,0.0],[21.591265763144463,70.855988654634245,0.0],[21.605136608594478,70.88193918123136,0.0],[21.612772450234928,70.894218613449951,0.0],[21.234751823833761,70.860724188275327,0.0],[20.045563993895588,70.630571538747759,0.0]]],
[[[16.102055656017118,69.748350243968076,0.0],[16.106736602073227,69.74788921102197,0.0],[16.135768574728843,69.743096012937485,0.0],[16.164424897548713,69.73641429559882,0.0],[16.19258285975917,69.727872671145178,0.0],[16.19500326496734,69.727043367413216,0.0],[16.276445322259576,69.698879711814072,0.0],[16.301563941935171,69.689344060524661,0.0],[16.328366103160192,69.67720015926426,0.0],[16.354316629757307,69.663329313814415,0.0],[16.379304397587305,69.647790921264743,0.0],[16.403222405192366,69.6306515193977,0.0],[16.425968231992044,69.611984501763516,0.0],[16.447444476863552,69.591869803397344,0.0],[16.467559175229894,69.570393558525666,0.0],[16.48622619286391,69.547647731725988,0.0],[16.503365594731122,69.523729724120926,0.0],[16.518903987280623,69.498741956290928,0.0],[16.532774832730638,69.472791429693984,0.0],[16.542116000854833,69.452175032316461,0.0],[16.563204197006826,69.467390234493564,0.0],[16.5664527834669,69.4745286215466,0.0],[16.567445100097359,69.478297245567433,0.0],[16.575986724551171,69.50645520777789,0.0],[16.586351679572374,69.533994232661826,0.0],[16.598495580832775,69.560796393886847,0.0],[16.61236642628279,69.586746920483961,0.0],[16.627904818832292,69.611734688313959,0.0],[16.645044220699333,69.635652695919021,0.0],[16.66371123833369,69.658398522718642,0.0],[16.683825936699861,69.6798747675902,0.0],[16.705302181571597,69.699989465956492,0.0],[16.728048008371047,69.718656483590735,0.0],[16.751966015976109,69.735795885457719,0.0],[16.776953783806107,69.751334278007448,0.0],[16.802904310403221,69.765205123457292,0.0],[16.815723049983944,69.771277189477075,0.0],[16.896958401546897,69.808200000349643,0.0],[16.910941823190967,69.814271835590262,0.0],[16.93593990488273,69.823765784235491,0.0],[16.955416113864089,69.841892949029955,0.0],[16.978161940663767,69.860559966664312,0.0],[17.002079948268829,69.877699368531353,0.0],[17.027067716098827,69.893237761080854,0.0],[17.053018242695941,69.907108606530869,0.0],[17.079820403920735,69.919252507791271,0.0],[17.107359428804898,69.929617462812644,0.0],[17.1355173910153,69.938159087266285,0.0],[17.15326500703037,69.942529959664,0.0],[17.240426414377112,69.962126068693465,0.0],[17.248893148130492,69.967580391894558,0.0],[17.263775960630596,69.976933826139657,0.0],[17.278215177037509,69.985635222018857,0.0],[17.304165703634226,69.9995060674687,0.0],[17.330967864859417,70.0116499687291,0.0],[17.358506889743353,70.022014923750476,0.0],[17.38666485195381,70.030556548204117,0.0],[17.415321174773737,70.03723826554284,0.0],[17.444353147429354,70.042031463627325,0.0],[17.473636450556739,70.0449156172474,0.0],[17.503045688556313,70.045878376014173,0.0],[17.532454926555829,70.0449156172474,0.0],[17.561738229683272,70.042031463627325,0.0],[17.590770202338831,70.03723826554284,0.0],[17.619426525158588,70.030556548204117,0.0],[17.647584487369215,70.022014923750476,0.0],[17.675123512252981,70.0116499687291,0.0],[17.684832550074532,70.0074941121286,0.0],[17.756169902328907,70.01186170512392,0.0],[17.813057953900739,70.011739347715661,0.0],[17.842341257028011,70.008855194095872,0.0],[17.846709505788567,70.008133993306672,0.0],[17.858644864539656,70.01555587631583,0.0],[17.8845953911366,70.029426721765674,0.0],[17.911397552361791,70.041570623026075,0.0],[17.938936577245556,70.051935578047448,0.0],[17.967094539456184,70.0604772025012,0.0],[17.995750862276111,70.067158919839926,0.0],[18.009924862184278,70.069742963905071,0.0],[18.013864770461396,70.072449558117967,0.0],[18.018658724314491,70.075697618857816,0.0],[18.026220906914432,70.080641345491586,0.0],[18.03134058514263,70.085844819675231,0.0],[18.052816830014535,70.105959518041686,0.0],[18.075562656814043,70.124626535675759,0.0],[18.099480664419104,70.141765937542914,0.0],[18.124468432249103,70.157304330092472,0.0],[18.15041895884616,70.171175175542089,0.0],[18.177221120071181,70.183319076802547,0.0],[18.204760144955173,70.193684031824091,0.0],[18.232918107165574,70.202225656277847,0.0],[18.244352719969413,70.205129329202009,0.0],[18.301300148354926,70.218797745543156,0.0],[18.318521858371014,70.222575789957546,0.0],[18.34755383102663,70.227368988042031,0.0],[18.376837134154073,70.23025314166199,0.0],[18.392353576668029,70.231001232224457,0.0],[18.412803053950938,70.247668120962715,0.0],[18.436721061556,70.264807522829756,0.0],[18.461708829385998,70.280345915379428,0.0],[18.484115575255032,70.2924497203964,0.0],[18.573608487685192,70.337566817438585,0.0],[18.586011408856091,70.34809312271058,0.0],[17.742076042583733,70.184759832806577,0.0],[16.102055656017118,69.748350243968076,0.0]]],
[[[15.176444980352143,69.451461394784573,0.0],[15.196342910507099,69.448406200784461,0.0],[15.215824727068878,69.444974675045842,0.0],[15.244481049888748,69.438292957706949,0.0],[15.259677236727953,69.433683244825716,0.0],[15.270776822302878,69.439856600982125,0.0],[15.437278287147421,69.528998446685648,0.0],[15.450635430189493,69.535865116945956,0.0],[15.477437591414514,69.548009018206358,0.0],[15.478915133082694,69.548617962169885,0.0],[15.523359002381483,69.5668424314801,0.0],[15.560470362010742,69.593288729597276,0.0],[15.176444980352143,69.451461394784573,0.0]]],
[[[12.768489124056691,67.959772238981131,0.0],[12.76519656492593,67.970884693451239,0.0],[12.758514847587094,67.999541016271166,0.0],[12.753721649502779,68.028572988926953,0.0],[12.75083749588282,68.057856292054225,0.0],[12.749874737115874,68.087265530053571,0.0],[12.75083749588282,68.116674768053088,0.0],[12.753721649502779,68.14595807118053,0.0],[12.758514847587094,68.174990043836146,0.0],[12.76519656492593,68.203646366656073,0.0],[12.773738189379571,68.231804328866815,0.0],[12.784103144400945,68.259343353750637,0.0],[12.796247045661346,68.2861455149756,0.0],[12.81011789111119,68.312096041572545,0.0],[12.825656283660919,68.337083809402543,0.0],[12.842795685527904,68.3610018170076,0.0],[12.861462703162147,68.383747643807283,0.0],[12.881577401528261,68.405223888679018,0.0],[12.903053646400167,68.425338587045132,0.0],[12.925799473199845,68.444005604679546,0.0],[12.949717480804679,68.461145006546531,0.0],[12.970851691058044,68.474432977266531,0.0],[12.98849876881178,68.484856388576986,0.0],[12.999264719350492,68.49455329028882,0.0],[13.00371933650456,68.498512415170637,0.0],[13.026465163304238,68.517179432804824,0.0],[13.029119967301312,68.519081838445686,0.0],[13.0503831709093,68.534318834671865,0.0],[13.075370938739468,68.549857227221537,0.0],[13.101321465336412,68.563728072671552,0.0],[13.128123626561205,68.575871973931953,0.0],[13.155662651445368,68.586236928953156,0.0],[13.183820613655598,68.5947785534068,0.0],[13.212476936475696,68.601460270745463,0.0],[13.241508909131312,68.606253468829948,0.0],[13.259921959384883,68.608292680433465,0.0],[13.268671006376508,68.609079561184217,0.0],[13.288198112316365,68.622892239620114,0.0],[13.313185880146534,68.638430632169673,0.0],[13.339136406743478,68.65230147761946,0.0],[13.365938567968442,68.664445378879918,0.0],[13.393477592852435,68.674810333901291,0.0],[13.421635555062835,68.683351958355047,0.0],[13.450291877882762,68.690033675693769,0.0],[13.465683511960435,68.69281788945284,0.0],[13.615338459877876,68.717209165494637,0.0],[13.628978798455819,68.719218149819824,0.0],[13.658262101583261,68.722102303439783,0.0],[13.674904765617157,68.722883794250833,0.0],[13.771332988273684,68.725622645162446,0.0],[13.784099562239305,68.725803913118284,0.0],[13.813508800238878,68.724841154351338,0.0],[13.838401865938124,68.722513022876569,0.0],[13.923779915586408,68.71212651974713,0.0],[13.924719331825031,68.740822717274341,0.0],[13.92760348544499,68.770106020401784,0.0],[13.932396683529305,68.799137993057514,0.0],[13.939078400868198,68.827794315877441,0.0],[13.947620025321783,68.8559522780879,0.0],[13.957984980343156,68.883491302971834,0.0],[13.970128881603557,68.910293464196855,0.0],[13.983999727053401,68.9362439907938,0.0],[13.99953811960313,68.961231758623967,0.0],[14.016677521470115,68.985149766229029,0.0],[14.035344539104358,69.007895593028479,0.0],[14.055459237470473,69.029371837900385,0.0],[14.069719778500907,69.0427282921165,0.0],[13.255137566021233,68.7418887390566,0.0],[12.997935417583733,68.608648992962856,0.0],[12.649546745708733,68.335394598431577,0.0],[12.38135826914629,67.996954657025356,0.0],[11.93787682383379,67.225653387494134,0.0],[11.732310417583733,66.8192202820253,0.0],[11.370616081646261,65.9826113953066,0.0],[11.15357506602129,65.583929754681549,0.0],[11.031785619889172,65.428252567182284,0.0],[11.142779841218271,65.425734642717032,0.0],[11.161991059342824,65.424887541056876,0.0],[11.191274362470267,65.422003387436973,0.0],[11.220306335125883,65.417210189352488,0.0],[11.24896265794581,65.410528472013766,0.0],[11.277120620156211,65.401986847560011,0.0],[11.304659645040203,65.391621892538808,0.0],[11.311339535643526,65.388595273482451,0.0],[11.31727808618939,65.391285995728879,0.0],[11.344817111073553,65.401650950750252,0.0],[11.358963317884843,65.406193719231624,0.0],[11.372680687889897,65.410350065423813,0.0],[11.697036589376808,65.5086295035054,0.0],[11.706752883980016,65.5344450790003,0.0],[11.718896785240418,65.561247240225157,0.0],[11.732767630690262,65.587197766822044,0.0],[11.748306023239991,65.612185534652212,4.804],[11.750063259072363,65.614795608792349,21.2425],[11.834089137978879,65.738664016995983,0.0],[11.849471304013491,65.759971950460908,0.0],[11.857458848675947,65.770078416600427,0.0],[11.919936894929378,65.846844078082029,0.0],[11.911908320178725,65.864563520150682,0.0],[11.901543365157352,65.892102545034618,0.0],[11.893001740703767,65.920260507245075,0.0],[11.886320023364874,65.948916830065,0.0],[11.881526825280559,65.977948802720732,0.0],[11.8786426716606,66.007232105848175,0.0],[11.877679912893711,66.036641343847521,0.0],[11.8786426716606,66.0660505818471,0.0],[11.881526825280559,66.09533388497448,0.0],[11.886320023364874,66.1243658576301,0.0],[11.893001740703767,66.153022180450023,0.0],[11.893650817553635,66.155161900068038,0.0],[11.901543365157352,66.181180142660423,0.0],[11.902785300390406,66.184788392315227,0.0],[11.918184877213207,66.228920065492446,0.0],[11.927307897001697,66.2528508407218,0.0],[11.939451798262098,66.27965300194694,0.0],[11.953322643712113,66.305603528543713,0.0],[11.968861036261671,66.330591296373882,0.0],[11.986000438128485,66.354509303978944,0.0],[12.004667455762899,66.377255130778451,0.0],[12.024782154129184,66.398731375650129,0.0],[12.046258399000749,66.418846074016471,0.0],[12.069004225800427,66.437513091650658,0.0],[12.092922233405488,66.4546524935177,0.0],[12.109707026989497,66.465338265261778,0.0],[12.12321319144047,66.481486494711021,0.0],[12.143327889806642,66.502962739582756,0.0],[12.16480413467832,66.523077437948871,-0.3128],[12.187549961477998,66.541744455583284,0.0],[12.21146796908306,66.558883857450269,0.0],[12.236455736913058,66.574422249999827,0.0],[12.262406263510002,66.588293095449671,0.0],[12.289208424735193,66.600436996710073,0.0],[12.299384297054871,66.604507412865132,0.0],[12.365530130388549,66.630035570417249,0.0],[12.382893282952637,66.636330109283733,0.0],[12.411051245163037,66.644871733737375,0.0],[12.439707567982964,66.65155345107604,0.0],[12.46873954063858,66.656346649160525,0.0],[12.498022843765966,66.659230802780485,0.0],[12.527432081765539,66.66019356154743,0.0],[12.556841319765056,66.659230802780485,2.6606],[12.586124622892498,66.656346649160525,0.0],[12.615156595548115,66.65155345107604,0.0],[12.643812918368042,66.644871733737375,0.0],[12.663702428857277,66.638838316691931,0.0],[12.678418069887471,66.682630897150943,0.0],[12.678860259691703,66.683940152428079,0.0],[12.689225214713076,66.711479177312071,0.0],[12.701369115973478,66.738281338537263,0.0],[12.715239961423492,66.76423186513415,0.0],[12.730778353972994,66.789219632964148,0.0],[12.747917755840035,66.813137640569209,0.0],[12.766584773474221,66.835883467369058,0.0],[12.786699471840564,66.857359712240452,0.0],[12.808175716712299,66.877474410606737,0.0],[12.83092154351192,66.896141428240981,0.0],[12.852531957748681,66.911728602075641,0.0],[12.854681264955047,66.914552638942041,0.0],[12.873348282589291,66.937298465741549,0.0],[12.893462980955405,66.958774710613284,0.0],[12.914939225827311,66.9788894089794,0.0],[12.937685052626819,66.997556426613812,0.0],[12.96160306023188,67.014695828480626,0.0],[12.977706187405261,67.024967706642542,0.0],[13.078061818916126,67.086023411395331,0.0],[13.086946459572687,67.091289925783485,0.0],[13.112896986169631,67.105160771233159,0.0],[13.139699147394651,67.11730467249356,0.0],[13.167238172278587,67.127669627514933,0.0],[13.195396134489044,67.136211251968575,0.0],[13.224052457309142,67.142892969307411,0.0],[13.253084429964701,67.147686167391726,0.0],[13.267727922695144,67.149370343860255,0.0],[13.273387481474458,67.149927436894359,0.0],[13.277721713350047,67.156897448720883,0.0],[13.294861115217259,67.180815456325945,0.0],[13.313528132851275,67.203561283125453,0.0],[13.333642831217787,67.225037527997188,0.0],[13.355119076089522,67.245152226363643,0.0],[13.377864902888973,67.263819243997716,0.0],[13.401782910494035,67.280958645864871,0.0],[13.426770678324033,67.296497038414429,0.0],[13.452721204920977,67.310367883864274,0.0],[13.479523366146168,67.322511785124675,0.0],[13.479997004003792,67.322707656174543,0.0],[13.555031183691483,67.3536876773336,0.0],[13.582096570717795,67.36385676130493,0.0],[13.606272231214973,67.371311715710021,0.0],[13.688024347100566,67.394023507702173,0.0],[13.692006648814015,67.3951101777509,0.0],[13.708262238953978,67.399142937214663,0.0],[13.749874654558084,67.430836466117512,0.0],[13.77250963575591,67.446995022818385,0.0],[13.797497403585908,67.462533415368057,0.0],[13.810685825403993,67.469855589056976,0.0],[13.897192173060546,67.516002643093657,0.0],[13.909954277839574,67.522551314854638,0.0],[13.936756439064538,67.53469521611504,0.0],[13.964295463948531,67.545060171136413,0.0],[13.992453426158932,67.55360179559,0.0],[14.021109748979029,67.560283512928891,0.0],[14.050141721634645,67.565076711013376,0.0],[14.079425024762088,67.567960864633164,0.0],[14.089236009979174,67.568282043034,0.0],[14.091608348293278,67.571592637317167,0.0],[14.110275365927464,67.594338464116618,0.0],[14.130390064293806,67.615814708988523,0.0],[14.151866309165484,67.635929407354467,0.0],[14.174612135965162,67.654596424988881,0.0],[14.198530143570053,67.671735826855922,0.0],[14.223517911400222,67.6872742194056,0.0],[14.249468437997166,67.701145064855268,0.0],[14.255573560171342,67.704098750823619,0.0],[14.265344226962384,67.708735241124657,0.0],[14.281987565676502,67.724089400844434,0.0],[14.292037002638381,67.73233676061875,0.0],[14.290850543250087,67.73245361666892,0.0],[14.2889666718321,67.732705684633686,0.0],[14.19698262235255,67.745211381248282,0.0],[14.169834521114922,67.749752511367888,0.0],[14.149668950999512,67.7544544628476,0.0],[14.145633393634455,67.75323028990465,0.0],[14.116977070814528,67.746548572565587,0.0],[14.089187440131695,67.741920693563088,0.0],[14.059229908821123,67.737891733603647,0.0],[14.048824279487462,67.731695724162478,0.0],[14.022873752890519,67.71782487871269,0.0],[13.996071591665554,67.705680977452232,0.0],[13.973951655142173,67.6971941813897,0.0],[13.928373041860937,67.6810711345147,0.0],[13.922953953500098,67.67919297555602,0.0],[13.894795991289698,67.6706513511021,0.0],[13.866139668469771,67.663969633763372,0.0],[13.837107695814154,67.659176435678887,0.0],[13.807824392686769,67.656292282058928,0.0],[13.779080332987576,67.655330015287632,0.0],[13.7086524257453,67.655225831992936,0.0],[13.688148786890622,67.645487200266814,0.0],[13.66730612942473,67.636227852451952,0.0],[13.639767104540738,67.625862897430522,0.0],[13.611609142330337,67.617321272976767,0.0],[13.58295281951041,67.610639555638045,0.0],[13.568991910162708,67.6080908949694,0.0],[13.563539853382622,67.605790433831942,0.0],[13.536000828498629,67.595425478810739,0.0],[13.518279923309194,67.589815750740229,0.0],[13.478902481902765,67.578240229906783,0.0],[13.4684654248818,67.575308333523537,0.0],[13.439809102061872,67.568626616184815,0.0],[13.410777129406085,67.56383341810033,0.0],[13.404012188198863,67.5629949120501,0.0],[13.310815529152478,67.552159917148458,0.0],[13.281332337938011,67.548732216737676,0.0],[13.258813976017791,67.546686569167946,0.0],[13.229404738018445,67.545723810401,0.0],[13.199995500018872,67.546686569167946,0.0],[13.170712196891486,67.5495707227879,0.0],[13.14168022423587,67.554363920872163,0.0],[13.113023901415772,67.561045638211056,0.0],[13.084865939205542,67.5695872626647,0.0],[13.05732691432155,67.579952217686071,0.0],[13.030524753096529,67.592096118946472,0.0],[13.004574226499471,67.605966964396316,0.0],[12.979586458669473,67.621505356945988,0.0],[12.955668451064412,67.63864475881303,0.0],[12.932922624264734,67.657311776447216,0.0],[12.911446379393169,67.677426474813558,0.0],[12.891331681026884,67.698902719685123,0.0],[12.87266466339247,67.721648546484744,0.0],[12.855525261525656,67.7455665540898,0.0],[12.84542890447994,67.761802816945163,0.0],[12.803477409771233,67.752752996869134,0.0],[12.742930534771233,67.769049383587856,0.0],[12.704478386333733,67.814215399212827,0.0],[12.705088737896261,67.879278875775356,0.0],[12.761607292583733,67.955023504681634,0.0],[12.768489124056691,67.959772238981131,0.0]]],
[[[8.9267468456722217,64.223827467693624,0.0],[8.93674216456202,64.220065496049642,0.0],[8.9635443257869838,64.207921594789241,0.0],[8.9894948523839275,64.194050749339567,0.0],[9.0144826202139257,64.1785123567899,0.0],[9.0332545506315114,64.1652633488614,0.0],[9.0777996352671835,64.132087079330176,0.0],[9.0829457124544888,64.128196685391288,0.0],[9.1056915392543374,64.109529667757045,0.0],[9.1271677841260725,64.08941496939093,0.0],[9.1472824824921872,64.0679387245192,0.0],[9.16594950012643,64.045192897719517,0.0],[9.166104736904515,64.0449762650465,0.0],[9.214629389343088,64.03633617635063,0.0],[9.2235289913678571,64.03465891981574,0.0],[9.2332505621491237,64.03239216743242,0.0],[9.2408621755736817,64.044632637510631,0.0],[9.2580015774406661,64.068550645115693,0.0],[9.27666859507508,64.09129647191503,0.0],[9.2967832934411945,64.112772716786765,0.0],[9.31825953831293,64.13288741515305,0.0],[9.3410053651124372,64.1515544327873,0.0],[9.3445626364459144,64.1542560574087,0.0],[9.4377869203003684,64.224329299596491,0.0],[9.4581476565719527,64.238767076842237,0.0],[9.4831354244021213,64.254305469391625,0.0],[9.5090859509990082,64.268176314841639,0.0],[9.5358881122240291,64.280320216102041,0.0],[9.5634271371080217,64.290685171123414,0.0],[9.5639150767085539,64.2908504926292,0.0],[9.6198530557902018,64.309767431394,0.0],[9.64072659064368,64.339799918307335,0.0],[9.653222931608866,64.356905137304125,0.0],[9.6580114598929967,64.3627399759007,0.0],[9.2653914722712614,64.300299383587827,0.0],[8.9390975269587329,64.228094793744049,0.0],[8.9267468456722217,64.223827467693624,0.0]]],
[[[5.7626050457771756,62.84219615532438,0.0],[5.7870665625249558,62.849044928694241,0.0],[5.7919203857616139,62.850374663409809,0.0],[5.82057670858137,62.857056380748531,0.0],[5.8496086812371573,62.861849578832846,0.0],[5.8788919843645431,62.864733732452919,0.0],[5.9083012223641163,62.865696491219865,0.0],[5.9223816480504752,62.865235545809639,0.0],[5.9347537187595663,62.880310957587255,0.0],[5.94909567046413,62.895623703577257,0.0],[5.90980065195879,62.890387274212827,0.0],[5.7626050457771756,62.84219615532438,0.0]]],
[[[4.7151447605231507,59.05711374675198,0.0],[4.7058068742431374,59.081923915450147,0.0],[4.697265249789325,59.110081877660548,0.0],[4.69058353245066,59.138738200480475,0.0],[4.6857903343663452,59.167770173136432,0.0],[4.6829061807463859,59.197053476263534,0.0],[4.68194342197944,59.22646271426305,0.0],[4.6829061807463859,59.255871952262623,0.0],[4.6857903343663452,59.285155255390009,0.0],[4.69058353245066,59.314187228045625,0.0],[4.6938862418103326,59.329408380615064,0.0],[4.7208136686648459,59.443902028744674,0.0],[4.7074384518789429,59.4689252993299,0.0],[4.6952945506185424,59.495727460554917,0.0],[4.6849295955971684,59.523266485438853,0.0],[4.6763879711435834,59.55142444764931,0.0],[4.6697062538046907,59.580080770469237,0.0],[4.6649130557203762,59.609112743124854,0.0],[4.6629651163541439,59.626523542479447,0.0],[4.6570740030728643,59.690421451008206,0.0],[4.6561377888191373,59.702293954781226,0.0],[4.6551750300522494,59.731703192780742,0.0],[4.6561377888191373,59.761112430780145,0.0],[4.6590219424390966,59.79039573390753,0.0],[4.6595711064667853,59.794426098867007,0.0],[4.6725496078550464,59.886559453146674,0.0],[4.6640425286386744,59.89548632147671,0.0],[4.6227013828050758,59.941013258325825,0.0],[4.6175214596396472,59.94681775871652,0.0],[4.59885444200529,59.9695635855162,0.0],[4.5817150401382492,59.99348159312126,0.0],[4.5661766475887484,60.018469360951258,0.0],[4.5523058021389033,60.044419887548372,0.0],[4.54037022390844,60.070719971055496,0.0],[4.5282779387521259,60.09981380243596,0.0],[4.5280696157221882,60.100315880153687,0.0],[4.5177046607008151,60.12785490503768,0.0],[4.5125113201624387,60.144975054421089,0.0],[4.4954940113337614,59.847479559369049,0.0],[4.5009871753962329,59.632635809369077,0.0],[4.52698815195879,59.431524969525327,0.0],[4.5915633472712054,59.241278387494106,0.0],[4.71314537852129,59.058783270306549,0.0],[4.7151447605231507,59.05711374675198,0.0]]],
[[[4.5406509071631254,60.636909498909866,0.0],[4.5561868825861316,60.661893379684273,0.0],[4.5733262844531168,60.685811387289334,0.0],[4.5741988816243966,60.686944840629792,0.0],[4.5776765978133653,60.691447359117774,0.0],[4.5741844152677231,60.693313969577048,0.0],[4.549196647437725,60.70885236212672,0.0],[4.5449406313355309,60.711902180135475,0.0],[4.5406509071631254,60.636909498909866,0.0]]]]}
,"properties": {"featurecla": "Pen/cape","name": "SCANDINAVIA","namealt": null,"region": "Europe","subregion": null,"min_label": 3.0,"max_label": 6.0,"scalerank": 1,"area_km2": 114455.99,"hist_schema_id": "Elevation0-9000","hist_area_km2": {"0": 16037.54,"25": 8.64,"50": 27.32,"75": 332.12,"100": 1008.32,"125": 3315.76,"150": 3667.48,"175": 5843.79,"200": 6952.08,"225": 6411.24,"250": 6360.73,"275": 6450.17,"300": 6220.18,"325": 5575.77,"350": 4836.93,"375": 4955.22,"400": 4209.98,"425": 5246.31,"450": 4562.12,"475": 3620.64,"500": 3258.47,"525": 2699.54,"550": 2269.79,"575": 1982.37,"600": 1559.76,"625": 1310.83,"650": 1025.79,"675": 805.07,"700": 692.43,"725": 580.98,"750": 475.09,"775": 388.77,"800": 309.64,"825": 244.89,"850": 208.89,"875": 175.5,"900": 164.13,"925": 124.56,"950": 106.53,"975": 85.71,"1000": 65.45,"1025": 50.88,"1050": 41.11,"1075": 29.06,"1100": 24.38,"1125": 19.88,"1150": 17.74,"1175": 14.99,"1200": 10.54,"1225": 9.88,"1250": 9.28,"1275": 8.74,"1300": 7.52,"1325": 6.46,"1350": 6.07,"1375": 5.85,"1400": 4.34,"1425": 3.41,"1450": 2.74,"1475": 2.29,"1500": 2.04,"1525": 1.04}}}