{"type": "Feature","bbox": [14.324961784771233,68.1751162781191,16.63636315195879,69.406500555462856],"geometry": {"type": "Polygon","coordinates": [[[15.178111198833705,68.4841983093691,21.7768],[15.195201042583733,68.479620672650356,24.4938],[15.204356316021233,68.472235418744077,0.0],[15.20203698008379,68.4614932312441,0.0],[15.184702995708733,68.447333074994049,0.0],[15.063975456646233,68.366278387494049,0.0],[15.013560417583761,68.3394229187441,0.0],[14.98353112070879,68.317877508587856,0.0],[14.958140495708761,68.2902285828066,50.3768],[14.95521080820879,68.2792422546816,0.0],[14.95399010508379,68.253912664837884,0.0],[14.96570885508379,68.225165106244077,0.0],[15.00147545664629,68.204107977337856,0.0],[15.083506706646205,68.187506414837856,0.0],[15.219737175396261,68.1751162781191,0.0],[15.400157097271233,68.182135321087827,0.0],[15.614634636333733,68.224066473431549,0.0],[15.804331901958761,68.280401922650356,0.0],[15.931285026958761,68.327398992962827,0.0],[16.017344597271205,68.3756778015566,0.0],[16.14539635508379,68.493109442181549,0.0],[16.162242058208761,68.505743719525356,0.0],[16.187876823833733,68.521979071087856,0.0],[16.206797722271261,68.531134344525356,0.0],[16.218394401958733,68.5352236999941,0.0],[16.222422722271261,68.536139227337827,0.0],[16.326548698833733,68.547735907025384,78.8367],[16.367442253521233,68.549017645306577,44.7576],[16.41578209727129,68.543768621869077,0.0],[16.446421745708733,68.5374209656191,0.0],[16.467295769146233,68.538519598431577,0.0],[16.489512566021233,68.543646551556549,0.0],[16.512583855083705,68.551642157025384,3.409],[16.525523308208761,68.5630557312441,0.0],[16.533702019146261,68.581183172650356,0.0],[16.541026237896233,68.601385809369077,0.0],[16.586558464458761,68.679754949994077,9.4244],[16.618540886333705,68.774481512494077,0.0],[16.63636315195879,68.882757879681634,0.0],[16.629161003521261,68.9843203796816,0.0],[16.56739342539629,69.104925848431577,0.0],[16.43616783945879,69.2498233093691,0.0],[16.24659264414629,69.3674990906191,0.0],[16.010020378521233,69.406500555462856,0.0],[15.74524987070879,69.349249578900327,0.0],[15.20020592539629,69.127875067181549,0.0],[14.942759636333733,69.051642157025356,0.0],[14.736949089458733,69.003363348431577,0.0],[14.59693444102129,68.947333074994049,0.0],[14.497569206646205,68.888434149212827,0.0],[14.41419518320879,68.831427313275356,0.0],[14.350474480083761,68.766058660931549,0.0],[14.324961784771233,68.689581610150327,0.0],[14.336314323833733,68.617926336712884,88.2909],[14.383189323833761,68.567206121869049,0.0],[14.49012291758379,68.5334536804628,0.0],[14.650157097271205,68.5050723328066,0.0],[14.814707878521261,68.486273504681577,0.0],[14.934947136333733,68.4816348328066,0.0],[15.074391901937702,68.483104883046451,0.0],[15.178111198833705,68.4841983093691,21.7768]]]}
,"properties": {"featurecla": "Island","name": "Vesterålen","namealt": null,"region": "Europe","subregion": null,"min_label": 5.4,"max_label": 10.0,"scalerank": 5,"area_km2": 7918.398,"hist_schema_id": "Elevation0-9000","hist_area_km2": {"0": 4419.753,"25": 580.37,"50": 257.353,"75": 185.726,"100": 170.397,"125": 166.45,"150": 153.458,"175": 151.232,"200": 147.778,"225": 145.564,"250": 139.618,"275": 132.799,"300": 124.188,"325": 117.524,"350": 115.688,"375": 106.211,"400": 97.895,"425": 93.886,"450": 87.965,"475": 79.249,"500": 70.406,"525": 62.906,"550": 52.021,"575": 42.551,"600": 38.841,"625": 32.036,"650": 28.724,"675": 24.493,"700": 20.315,"725": 17.508,"750": 14.139,"775": 11.331,"800": 9.01,"825": 6.903,"850": 5.004,"875": 3.258,"900": 2.112,"925": 1.245,"950": 0.751,"975": 0.526,"1000": 0.364,"1025": 0.248,"1050": 0.201,"1075": 0.124,"1100": 0.085,"1125": 0.062}}}