{"type":"Feature","properties":{"featurecla":"River","scalerank":9,"rivernum":995,"dissolve":"995River","name":"Indalsälven4","name_alt":null,"note":"Version 1.2 edit in N. America and Europe","min_zoom":7.1,"strokeweig":0.15,"name_en":"Indalsälven","min_label":8.1},
"geometry":{"type": "LineString","coordinates": [[12.220605468750023,63.097040106244123,904.2476],[12.158105468750023,63.126092840619123,801.2872],[12.0986328125,63.15033600468162,764.8524],[12.087646484375,63.160174871869117,742.9245],[12.091796875,63.168719793744117,773.7975],[12.10302734375,63.176532293744117,767.0056],[12.110595703125,63.18598053593162,703.1861],[12.099755859375023,63.21076080936912,680.0862],[12.106835937500023,63.220575262494123,647.254],[12.16796875,63.24249909061912,719.4271]]}}