{"type":"Feature","properties":{"GID_2":"NOR.6.16_1","GID_0":"NOR","country":"Norway","GID_1":"NOR.6_1","province":"Hedmark","NL_NAME_1":"NA","county":"Sør-Odal","VARNAME_2":"NA","NL_NAME_2":"NA","TYPE_2":"Kommuner","ENGTYPE_2":"Municipality","CC_2":"NA","HASC_2":"NO.HE.SO","name":"Sør-Odal.county"},
"geometry":{"type": "MultiPolygon","coordinates": [[[[11.8348,60.0541,321.8395],[11.8337,60.0586,332.7734],[11.8426,60.0591,310.7256],[11.8393,60.0725,330.526],[11.8929,60.0758,345.8264],[11.8918,60.0803,334.6187],[11.9008,60.0808,331.67],[11.8953,60.1031,308.3783],[11.8863,60.1025,351.7534],[11.8852,60.107,317.6633],[11.9031,60.1081,311.1105],[11.8965,60.1348,348.3766],[11.9055,60.1354,355.0775],[11.9044,60.1398,373.1646],[11.9133,60.1404,383.2211],[11.9122,60.1448,415.3815],[11.9212,60.1454,395.3519],[11.9157,60.1676,229.8177],[11.9246,60.1682,220.3046],[11.9235,60.1726,229.0215],[11.9146,60.1721,214.3169],[11.9135,60.1766,252.3121],[11.9045,60.176,215.962],[11.9034,60.1805,199.4177],[11.8944,60.1799,172.5506],[11.8889,60.2022,136.0448],[11.9068,60.2033,152.7119],[11.9057,60.2077,140.0],[11.9147,60.2083,140.0],[11.9114,60.2217,267.1236],[11.9024,60.2211,239.06],[11.898,60.2389,348.9908],[11.916,60.24,352.5523],[11.9148,60.2445,349.9045],[11.9238,60.245,370.2195],[11.9227,60.2495,371.5996],[11.9317,60.25,418.9421],[11.9262,60.2723,359.3396],[11.9172,60.2718,346.9444],[11.9083,60.3074,463.5025],[11.8993,60.3068,446.9437],[11.8982,60.3113,477.1496],[11.8892,60.3108,476.1972],[11.887,60.3197,477.1399],[11.878,60.3191,487.2891],[11.8769,60.3236,483.1894],[11.8679,60.323,480.118],[11.8656,60.3319,484.0644],[11.8566,60.3314,501.0],[11.8555,60.3358,469.2117],[11.8465,60.3353,486.5726],[11.8443,60.3442,411.8488],[11.8352,60.3436,441.929],[11.8341,60.3481,405.7575],[11.8251,60.3475,418.4315],[11.8229,60.3564,344.8138],[11.8138,60.3559,375.442],[11.8127,60.3603,338.7164],[11.8037,60.3598,392.1606],[11.8026,60.3642,337.0227],[11.7936,60.3637,353.2898],[11.7924,60.3681,335.3619],[11.7834,60.3676,313.8188],[11.7823,60.372,331.9555],[11.7642,60.3709,311.1333],[11.7631,60.3754,283.946],[11.7541,60.3748,263.1314],[11.753,60.3793,274.1859],[11.7439,60.3787,302.8921],[11.7451,60.3743,311.7818],[11.736,60.3737,343.2338],[11.7383,60.3648,214.6079],[11.7293,60.3642,191.9382],[11.7316,60.3553,170.2212],[11.7045,60.3536,130.0],[11.7034,60.3581,130.0],[11.6944,60.3575,130.0],[11.6932,60.362,130.0],[11.6482,60.3592,130.0],[11.647,60.3636,130.0],[11.629,60.3625,133.9738],[11.6267,60.3714,130.0],[11.6177,60.3708,130.0],[11.6165,60.3753,130.0],[11.5985,60.3741,130.0],[11.6088,60.3341,141.5299],[11.6178,60.3346,136.2686],[11.619,60.3302,134.0228],[11.61,60.3296,137.5975],[11.6157,60.3073,183.0354],[11.5887,60.3056,345.6536],[11.5876,60.3101,293.631],[11.5426,60.3072,387.1676],[11.5437,60.3028,337.4091],[11.5258,60.3016,319.1201],[11.5269,60.2972,253.5211],[11.5179,60.2966,258.8677],[11.5191,60.2921,256.2996],[11.5281,60.2927,284.5981],[11.5292,60.2883,320.425],[11.5382,60.2888,374.1229],[11.5394,60.2844,403.368],[11.5574,60.2855,377.5164],[11.5585,60.2811,317.3554],[11.5675,60.2817,309.2827],[11.5687,60.2772,315.4674],[11.5777,60.2778,323.4637],[11.5788,60.2733,317.2267],[11.5878,60.2739,290.8481],[11.589,60.2695,305.4376],[11.598,60.27,239.8187],[11.5991,60.2656,198.0267],[11.5901,60.265,232.2092],[11.5936,60.2516,144.8773],[11.5846,60.2511,180.8611],[11.5915,60.2244,136.0007],[11.5825,60.2238,132.888],[11.5871,60.206,140.2101],[11.5781,60.2054,133.0183],[11.5804,60.1965,129.0],[11.5715,60.1959,137.0625],[11.5726,60.1915,129.0],[11.5636,60.1909,135.9992],[11.5671,60.1776,134.3332],[11.5761,60.1781,150.8426],[11.5784,60.1692,263.7239],[11.5873,60.1698,212.0506],[11.5896,60.1609,236.9323],[11.5986,60.1615,194.6125],[11.6009,60.1526,263.4551],[11.6098,60.1531,217.3188],[11.611,60.1487,293.5214],[11.6199,60.1492,276.8979],[11.6222,60.1403,351.2927],[11.6312,60.1409,326.4324],[11.6334,60.132,334.5129],[11.6424,60.1326,259.2025],[11.6435,60.1281,289.6076],[11.6525,60.1287,256.3936],[11.6536,60.1242,275.4688],[11.6626,60.1248,291.6399],[11.6637,60.1203,294.4143],[11.6816,60.1215,340.7052],[11.6827,60.117,359.1656],[11.6917,60.1176,335.5455],[11.6928,60.1131,310.0677],[11.7018,60.1137,336.0678],[11.7029,60.1092,316.7345],[11.7208,60.1104,327.1955],[11.7219,60.1059,324.1893],[11.7309,60.1065,320.7765],[11.732,60.102,297.8006],[11.7409,60.1026,306.5583],[11.7421,60.0981,276.5039],[11.751,60.0987,259.6735],[11.7521,60.0942,259.3082],[11.77,60.0953,258.9817],[11.7812,60.0508,206.0609],[11.8348,60.0541,321.8395]]]]}}