{"type":"Feature","properties":{"GID_2":"NOR.9.17_1","GID_0":"NOR","country":"Norway","GID_1":"NOR.9_1","province":"Nord-Trøndelag","NL_NAME_1":"NA","county":"Overhalla","VARNAME_2":"NA","NL_NAME_2":"NA","TYPE_2":"Kommuner","ENGTYPE_2":"Municipality","CC_2":"NA","HASC_2":"NO.NT.OV","name":"Overhalla.county"},
"geometry":{"type": "MultiPolygon","coordinates": [[[[11.8894,64.6366,507.8509],[11.8933,64.6232,332.0681],[11.9037,64.6238,376.8621],[11.9156,64.5837,328.1794],[11.9053,64.5831,306.2582],[11.9079,64.5742,533.4066],[11.8975,64.5736,511.2325],[11.8988,64.5692,561.6633],[11.8885,64.5686,556.1168],[11.8898,64.5642,533.4948],[11.8483,64.5619,573.0938],[11.8496,64.5575,530.2811],[11.7978,64.5547,443.3711],[11.7991,64.5502,561.6224],[11.7058,64.5451,382.9378],[11.7072,64.5407,398.934],[11.6968,64.5401,476.4245],[11.6955,64.5446,332.0629],[11.6748,64.5434,285.1582],[11.6802,64.5256,310.0437],[11.6698,64.525,309.5595],[11.6712,64.5206,243.0843],[11.6608,64.52,190.4063],[11.6622,64.5155,264.7338],[11.6311,64.5138,277.3287],[11.6325,64.5094,235.8936],[11.6118,64.5082,121.4791],[11.6132,64.5038,106.2878],[11.6235,64.5043,95.374],[11.6249,64.4999,90.8506],[11.6352,64.5005,111.4827],[11.6366,64.496,119.8733],[11.6262,64.4954,46.455],[11.629,64.4865,99.0437],[11.6186,64.486,118.5114],[11.6193,64.4837,65.8184],[11.6335,64.4828,117.9298],[11.6403,64.4808,0.0],[11.6526,64.4734,0.0],[11.6599,64.4724,5.1607],[11.6563,64.4688,0.0],[11.6453,64.4745,0.0],[11.6386,64.475,23.608],[11.6438,64.4724,43.6431],[11.6461,64.4648,85.097],[11.6358,64.4643,269.3311],[11.6493,64.4197,347.5926],[11.6596,64.4203,362.5748],[11.6718,64.3802,413.1042],[11.6615,64.3796,425.9245],[11.6668,64.3618,416.4616],[11.6566,64.3612,264.2412],[11.67,64.3167,438.8868],[11.6803,64.3172,404.7615],[11.683,64.3083,384.2299],[11.6932,64.3089,378.9982],[11.6946,64.3045,387.0724],[11.7049,64.305,409.899],[11.7062,64.3006,333.0238],[11.7165,64.3011,307.3816],[11.7191,64.2922,250.4023],[11.7294,64.2928,216.92],[11.7307,64.2883,185.5185],[11.741,64.2889,193.3365],[11.7423,64.2844,356.6336],[11.7526,64.285,362.0574],[11.7539,64.2806,381.7502],[11.7642,64.2811,432.3083],[11.7629,64.2856,359.0158],[11.7731,64.2861,428.507],[11.7718,64.2906,188.1718],[11.7923,64.2917,319.2628],[11.791,64.2962,233.5459],[11.8116,64.2973,230.9756],[11.8102,64.3018,255.3565],[11.8205,64.3023,271.5419],[11.8192,64.3068,259.172],[11.8397,64.3079,276.895],[11.8384,64.3123,347.2834],[11.8693,64.314,308.055],[11.868,64.3185,368.8882],[11.8885,64.3196,260.0747],[11.8872,64.3241,249.1868],[11.9181,64.3257,350.5219],[11.9168,64.3302,400.1682],[11.9373,64.3313,553.164],[11.9399,64.3224,521.0245],[11.9502,64.3229,543.0854],[11.9554,64.3051,395.8441],[11.9862,64.3067,313.0],[11.9849,64.3112,313.0],[12.0261,64.3134,313.0],[12.0248,64.3178,313.0],[12.0556,64.3195,345.479],[12.0544,64.3239,324.6873],[12.0852,64.3256,313.0],[12.0839,64.33,321.56],[12.1354,64.3327,313.0],[12.1328,64.3417,407.3394],[12.1431,64.3422,375.3208],[12.1406,64.3511,515.33],[12.1509,64.3516,531.4138],[12.1484,64.3606,499.5786],[12.1587,64.3611,581.4393],[12.1485,64.3968,647.8494],[12.1382,64.3962,620.4988],[12.1369,64.4007,568.621],[12.1266,64.4002,564.4647],[12.1253,64.4046,527.8128],[12.115,64.4041,462.9026],[12.1112,64.4175,526.9608],[12.1009,64.4169,451.6862],[12.0996,64.4214,388.0102],[12.1099,64.4219,401.6347],[12.1086,64.4264,307.9004],[12.119,64.4269,273.0018],[12.1151,64.4403,130.7507],[12.1254,64.4408,136.6949],[12.1204,64.4584,98.3489],[12.1247,64.4634,88.6331],[12.1294,64.4637,104.92],[12.1281,64.4681,29.5753],[12.1178,64.4676,6.5],[12.1142,64.4629,51.4264],[12.088,64.4615,24.645],[12.0868,64.466,5.5],[12.0764,64.4654,24.0382],[12.0726,64.4788,210.9802],[12.0829,64.4793,233.3734],[12.0816,64.4838,374.7493],[12.092,64.4843,373.1334],[12.0907,64.4888,442.3898],[12.1217,64.4904,374.7743],[12.1204,64.4949,290.2354],[12.1411,64.496,127.1774],[12.1399,64.5004,175.3177],[12.1502,64.501,290.1707],[12.1489,64.5054,260.7722],[12.1593,64.506,337.9295],[12.158,64.5104,185.2155],[12.1995,64.5126,332.0668],[12.2007,64.5081,308.8091],[12.2111,64.5086,304.7674],[12.2098,64.5131,336.5658],[12.2202,64.5136,327.587],[12.2176,64.5226,422.8052],[12.2073,64.522,360.9804],[12.206,64.5265,416.8905],[12.1956,64.5259,268.4463],[12.1931,64.5349,260.6347],[12.1827,64.5343,239.4328],[12.1815,64.5388,227.3317],[12.1711,64.5383,242.6373],[12.1685,64.5472,65.5784],[12.1582,64.5466,73.3987],[12.1569,64.5511,6.0],[12.1258,64.5495,6.0],[12.1232,64.5584,29.6112],[12.1128,64.5579,128.3421],[12.109,64.5712,284.3185],[12.0986,64.5707,293.5863],[12.096,64.5796,382.5803],[12.0856,64.5791,377.1115],[12.0818,64.5924,352.4492],[12.0922,64.593,294.2136],[12.0909,64.5974,203.3801],[12.1013,64.598,172.0017],[12.0974,64.6114,239.1671],[12.087,64.6108,262.8678],[12.0857,64.6153,260.2863],[12.0753,64.6147,267.5988],[12.0727,64.6237,181.6923],[12.0623,64.6231,304.2385],[12.0597,64.632,321.1846],[12.0493,64.6315,373.911],[12.0389,64.6672,632.9555],[12.0285,64.6666,649.6217],[12.0259,64.6755,620.9276],[12.005,64.6744,568.2726],[12.0063,64.67,470.4646],[11.9855,64.6689,399.8618],[11.9868,64.6644,453.7428],[11.9764,64.6639,411.7559],[11.9777,64.6594,481.497],[11.9569,64.6583,323.986],[11.9582,64.6538,347.8095],[11.9374,64.6527,438.2112],[11.9387,64.6483,478.4887],[11.9283,64.6477,505.669],[11.9296,64.6433,498.4675],[11.9088,64.6422,544.8489],[11.9102,64.6377,483.8085],[11.8894,64.6366,507.8509]]]]}}