{"type": "Feature","bbox": [12.538,67.5,12.7703,67.7542],"geometry": {"type": "MultiPolygon","coordinates": [[[[12.538,67.5005,0.0],[12.5417,67.5,0.0],[12.5432,67.5016,0.0],[12.5396,67.5021,0.0],[12.538,67.5005,0.0]]],
[[[12.7266,67.6922,2.2954],[12.7208,67.6958,0.0],[12.7146,67.6937,4.9544],[12.7083,67.6958,0.0],[12.7042,67.6937,10.1722],[12.6854,67.6937,0.0],[12.6625,67.6875,0.0],[12.6563,67.6875,0.0],[12.6526,67.6849,0.0],[12.6516,67.6818,66.351],[12.6318,67.6766,0.0],[12.6286,67.6734,0.0],[12.6172,67.6703,1.0942],[12.6167,67.6687,0.0],[12.6188,67.6667,17.9584],[12.6292,67.6667,133.9972],[12.6307,67.6651,400.4549],[12.6229,67.6625,269.5205],[12.6146,67.6625,9.296],[12.6104,67.6604,62.5326],[12.6021,67.6604,0.0],[12.598,67.6563,101.8894],[12.5833,67.6563,111.1278],[12.5792,67.6542,89.6147],[12.5708,67.6542,0.0],[12.5693,67.6536,19.4144],[12.5661,67.6464,46.2305],[12.5609,67.6443,3.4033],[12.5667,67.6417,0.0],[12.5745,67.6412,46.8984],[12.5714,67.6359,0.0],[12.576599999999999,67.6349,79.4314],[12.5755,67.6318,0.0],[12.5958,67.6312,0.0],[12.6005,67.637,0.0],[12.6057,67.638,0.0],[12.6042,67.6396,22.3165],[12.5901,67.6401,154.8118],[12.5917,67.6417,9.3458],[12.5974,67.6422,0.0],[12.6,67.6479,0.0],[12.5964,67.6516,14.0879],[12.6188,67.6604,0.0],[12.625,67.6604,0.0],[12.6292,67.6583,0.0],[12.637,67.6578,0.0],[12.638,67.6547,0.0],[12.6479,67.65,0.0],[12.6521,67.6542,0.0],[12.6484,67.6568,43.2329],[12.6505,67.662,0.0],[12.6526,67.6641,0.0],[12.6625,67.6667,8.806],[12.6828,67.6599,9.2616],[12.6818,67.6568,0.0],[12.6932,67.6516,3.3028],[12.6943,67.6484,2.1677],[12.6974,67.6474,22.495],[12.6964,67.6422,0.0],[12.7042,67.6396,0.0],[12.7078,67.6443,0.0],[12.7047,67.6464,0.0],[12.7047,67.6495,0.0],[12.7099,67.6505,1.1034],[12.7146,67.6542,0.0],[12.7245,67.6547,4.713],[12.725,67.6563,6.7697],[12.7214,67.6589,1.6382],[12.7224,67.662,0.0],[12.7078,67.6682,8.1704],[12.7005,67.6693,30.5779],[12.7005,67.6724,0.0],[12.7026,67.6766,0.0],[12.7078,67.6776,0.0],[12.712,67.6818,0.0],[12.7151,67.6891,8.8193],[12.7266,67.6922,2.2954]]],
[[[12.7297,67.6943,0.0],[12.7438,67.6937,0.0],[12.7453,67.6953,0.0],[12.7313,67.6958,0.0],[12.7297,67.6943,0.0]]],
[[[12.7646,67.7521,123.885],[12.7583,67.7542,46.2114],[12.7484,67.7516,0.0],[12.7578,67.7464,209.6131],[12.7479,67.7458,133.4285],[12.7401,67.7422,0.0],[12.7563,67.7396,74.9833],[12.7604,67.7375,0.0],[12.764099999999999,67.738,0.0],[12.7651,67.7412,6.1526],[12.7703,67.7422,0.0],[12.7672,67.7453,36.8288],[12.7703,67.7516,0.0],[12.7646,67.7521,123.885]]]]}
,"properties": {"GID_2": "NOR.10.40_1","GID_0": "NOR","country": "Norway","GID_1": "NOR.10_1","province": "Nordland","NL_NAME_1": "NA","county": "Værøy","VARNAME_2": "NA","NL_NAME_2": "NA","TYPE_2": "Kommuner","ENGTYPE_2": "Municipality","CC_2": "NA","HASC_2": "NO.NO.VR","name": "Værøy.county","area_km2": 18.20464,"hist_schema_id": "Elevation0-9000","hist_area_km2": {"0": 6.94411,"25": 2.65795,"50": 1.22439,"75": 0.93425,"100": 0.69258,"125": 0.67664,"150": 0.70069,"175": 0.57983,"200": 0.56379,"225": 0.51549,"250": 0.46727,"275": 0.49939,"300": 0.45107,"325": 0.28996,"350": 0.46737,"375": 0.29812,"400": 0.21759,"425": 0.02416}}}