{"type": "Feature","bbox": [10.7175,59.255,10.9786,59.4076],"geometry": {"type": "MultiPolygon","coordinates": [[[[10.9128,59.2825,55.72],[10.9116,59.2869,64.0257],[10.9204,59.2875,53.93],[10.9144,59.3098,11.2],[10.9318,59.311,30.4187],[10.9306,59.3154,22.2037],[10.9568,59.3173,19.4538],[10.952,59.335,88.3368],[10.9608,59.3357,85.7072],[10.9596,59.3401,94.8179],[10.9683,59.3407,77.419],[10.9671,59.3452,65.7104],[10.9758,59.3458,104.4097],[10.9746,59.3502,99.9536],[10.9659,59.3496,60.0963],[10.9623,59.3629,89.6015],[10.9711,59.3636,115.4451],[10.9699,59.368,91.1329],[10.9786,59.3686,93.4204],[10.9726,59.3908,116.1429],[10.9639,59.3902,105.6611],[10.9627,59.3947,108.1531],[10.9277,59.3922,71.5279],[10.9265,59.3967,92.0091],[10.909,59.3955,40.9063],[10.9078,59.3999,55.8221],[10.8991,59.3993,24.4549],[10.8979,59.4037,22.5],[10.889099999999999,59.4031,52.6787],[10.8879,59.4076,36.4155],[10.8704,59.4063,22.5],[10.8716,59.4019,32.7231],[10.8629,59.4013,22.5],[10.8665,59.3879,22.5],[10.849,59.3867,22.5],[10.8478,59.3911,22.5],[10.8303,59.3899,22.5],[10.8291,59.3943,22.5],[10.8116,59.3931,38.373],[10.8104,59.3975,22.5],[10.8016,59.3969,27.8511],[10.8053,59.3836,51.7171],[10.7966,59.383,49.0579],[10.7978,59.3785,46.5438],[10.789,59.3779,48.4982],[10.7903,59.3735,56.6773],[10.7815,59.3728,51.3691],[10.7827,59.3684,47.5984],[10.7653,59.3671,27.7829],[10.7701,59.3494,2.7088],[10.7439,59.3475,1.3297],[10.7453,59.3443,0.7423],[10.7525,59.3432,0.0],[10.7464,59.3393,0.0289],[10.7464,59.334,0.0],[10.7481,59.3312,2.0362],[10.7547,59.3293,0.0],[10.7519,59.3265,0.0],[10.7525,59.3237,0.0],[10.7542,59.3232,0.2132],[10.7536,59.3196,1.6078],[10.7497,59.3196,1.2092],[10.7486,59.3215,0.0287],[10.7397,59.3235,0.8161],[10.7364,59.3213,5.3478],[10.7358,59.3165,-0.0187],[10.7314,59.3199,0.3971],[10.7258,59.3176,0.0],[10.7192,59.3182,0.0],[10.7197,59.3165,0.0],[10.7175,59.3149,0.0],[10.7175,59.3126,0.0],[10.7269,59.3132,0.7843],[10.7203,59.3082,0.6256],[10.7225,59.3037,0.0],[10.7275,59.3063,2.631],[10.7369,59.3051,0.0],[10.7403,59.3096,21.7362],[10.7475,59.3101,0.0],[10.7453,59.3121,4.748],[10.7497,59.3138,0.0],[10.7503,59.3162,0.5928],[10.7542,59.3151,0.2804],[10.7547,59.3124,0.0],[10.7608,59.3132,1.9352],[10.7575,59.3118,0.7682],[10.7597,59.311,6.4433],[10.7592,59.3093,6.0499],[10.7558,59.3107,0.0],[10.7514,59.3088,0.0],[10.7514,59.304,0.2738],[10.7553,59.3057,0.0],[10.7564,59.3088,2.7099],[10.7642,59.3085,0.0],[10.7764,59.3154,0.0],[10.7758,59.3168,1.0935],[10.7786,59.3199,2.3385],[10.7981,59.3218,4.4154],[10.7975,59.3201,11.7389],[10.7914,59.3185,1.3686],[10.7886,59.3132,1.5053],[10.7747,59.3096,0.0],[10.7753,59.3073,0.0],[10.7731,59.3057,0.808],[10.7642,59.3029,0.0],[10.7475,59.2918,7.6798],[10.7464,59.284,0.0],[10.7486,59.2813,0.4737],[10.7469,59.2782,15.0472],[10.7414,59.2807,0.0],[10.7314,59.2813,0.0],[10.7292,59.2751,3.44],[10.7258,59.2743,0.3523],[10.7242,59.2682,5.0325],[10.7264,59.2668,0.0],[10.7286,59.2699,0.8785],[10.7314,59.2693,2.5267],[10.7331,59.2671,3.9559],[10.7375,59.2687,0.0],[10.7397,59.2704,2.5278],[10.7375,59.2721,0.0],[10.7381,59.2743,1.8223],[10.7453,59.2721,6.7107],[10.7436,59.2704,0.0],[10.7486,59.2696,2.1358],[10.7447,59.2674,5.406],[10.7447,59.2643,7.7506],[10.7469,59.2637,9.9356],[10.7456,59.2596,1.7847],[10.7494,59.255,23.5045],[10.753,59.2582,25.6517],[10.7497,59.2731,15.2868],[10.7523,59.2767,14.9341],[10.7509,59.28,8.2164],[10.7623,59.2808,33.1948],[10.761,59.2853,36.8433],[10.7872,59.2871,24.5324],[10.7835,59.3005,28.8884],[10.7923,59.3011,32.2126],[10.7935,59.2967,25.3757],[10.8022,59.2973,39.1035],[10.8034,59.2928,48.2449],[10.8296,59.2947,102.8351],[10.832,59.2858,37.2162],[10.8494,59.287,80.4611],[10.8482,59.2915,45.176],[10.8656,59.2927,70.6695],[10.8644,59.2972,56.94],[10.8732,59.2978,68.4899],[10.872,59.3022,17.3259],[10.8981,59.3041,25.2248],[10.8993,59.2996,26.8649],[10.8906,59.299,8.1991],[10.8966,59.2768,26.8129],[10.9053,59.2774,2.4575],[10.9041,59.2818,14.6579],[10.9128,59.2825,55.72]]]]}
,"properties": {"GID_2": "NOR.2.13_1","GID_0": "NOR","country": "Norway","GID_1": "NOR.2_1","province": "Ãstfold","NL_NAME_1": "NA","county": "Råde","VARNAME_2": "NA","NL_NAME_2": "NA","TYPE_2": "Kommuner","ENGTYPE_2": "Municipality","CC_2": "NA","HASC_2": "NO.OF.RD","name": "Råde.county","area_km2": 127.53969,"hist_schema_id": "Elevation0-9000","hist_area_km2": {"0": 22.35008,"25": 53.05896,"50": 30.43922,"75": 13.37214,"100": 7.43369,"125": 0.88561}}}