{"type": "Feature","bbox": [6.3944,58.1951,6.9349,58.6357],"geometry": {"type": "MultiPolygon","coordinates": [[[[6.5425,58.2104,3.9661],[6.5381,58.2107,0.0],[6.5381,58.2076,0.3709],[6.5414,58.2079,0.0],[6.5425,58.2104,3.9661]]],
[[[6.5636,58.2101,3.2614],[6.5658,58.2124,0.0],[6.5581,58.2115,5.3152],[6.5553,58.2088,0.0],[6.5603,58.2079,0.0],[6.5636,58.2101,3.2614]]],
[[[6.5325,58.2449,5.2938],[6.5203,58.2446,0.0],[6.5242,58.2376,6.8827],[6.5219,58.2354,9.5041],[6.5169,58.2354,0.0],[6.5192,58.2335,0.0],[6.5231,58.2351,2.3081],[6.5269,58.2324,17.4395],[6.5303,58.2324,0.0],[6.5319,58.234,13.112],[6.5336,58.2315,1.8592],[6.5253,58.2307,0.0],[6.5214,58.2326,0.0],[6.5114,58.231,5.2976],[6.5014,58.2329,0.0],[6.4986,58.2321,0.0],[6.4975,58.2296,0.0],[6.5014,58.2274,0.5673],[6.5025,58.2249,0.0],[6.5064,58.2243,1.3405],[6.5075,58.2207,0.0],[6.5136,58.2196,0.0],[6.5236,58.2215,0.0],[6.5225,58.2265,0.0],[6.5242,58.2282,7.414],[6.5247,58.2246,0.0],[6.5314,58.2243,0.0],[6.5342,58.2204,0.0],[6.5369,58.2199,6.1696],[6.5308,58.2154,0.0],[6.5392,58.216,42.9988],[6.5392,58.214,26.0924],[6.5436,58.211,0.0],[6.5508,58.2107,6.9438],[6.5642,58.2126,6.0701],[6.5653,58.2143,0.0],[6.5642,58.2151,30.63],[6.5681,58.2171,1.0935],[6.5686,58.2199,1.8334],[6.5664,58.2235,4.9647],[6.5592,58.2249,0.0],[6.5597,58.2279,0.0],[6.5581,58.2285,7.8703],[6.5597,58.2287,0.0],[6.5592,58.2318,0.0],[6.5603,58.2318,0.0],[6.5647,58.229,1.4168],[6.5669,58.2243,0.0],[6.5692,58.224,18.8179],[6.5686,58.2221,0.0],[6.5708,58.2207,14.8168],[6.5708,58.2185,0.0],[6.5731,58.2179,5.0738],[6.5736,58.2149,3.8124],[6.5831,58.2151,18.238],[6.5803,58.2121,2.1052],[6.5786,58.2132,0.0],[6.5792,58.2113,0.9838],[6.5764,58.2118,0.0],[6.5825,58.2082,16.4321],[6.5814,58.2065,0.0],[6.5825,58.204,5.0984],[6.5969,58.2004,2.2699],[6.5981,58.1988,2.2699],[6.6108,58.1979,0.0],[6.6142,58.1993,3.3433],[6.6197,58.1985,0.8209],[6.6214,58.1963,0.0],[6.6258,58.1951,0.0],[6.6314,58.1965,0.0],[6.6308,58.1982,6.8625],[6.6331,58.2001,0.0],[6.6319,58.2065,0.0],[6.6336,58.2118,3.7231],[6.6381,58.2124,0.0],[6.6369,58.2221,0.0],[6.6303,58.2254,16.5138],[6.6297,58.2299,0.0],[6.6142,58.2354,29.7347],[6.6119,58.2379,1.6224],[6.5642,58.2424,0.0],[6.5597,58.2407,0.0],[6.5347,58.2435,38.1712],[6.5325,58.2449,5.2938]]],
[[[6.5025,58.2412,0.0],[6.4975,58.241,0.0],[6.4953,58.2371,0.0],[6.4958,58.2354,0.0],[6.5131,58.2343,0.0],[6.5125,58.2365,0.0],[6.5142,58.2371,0.0],[6.5086,58.2379,7.4748],[6.5086,58.2396,0.0],[6.5025,58.2412,0.0]]],
[[[6.5719,58.2093,1.4809],[6.5642,58.2085,0.0],[6.5653,58.2065,0.0],[6.5697,58.2079,2.8874],[6.5708,58.2051,1.3452],[6.5692,58.2051,0.0],[6.5703,58.2032,0.3383],[6.5686,58.2018,0.0],[6.5758,58.2026,0.0],[6.5736,58.2051,0.0],[6.5797,58.2043,0.0],[6.5775,58.2071,0.0],[6.5725,58.2074,0.0],[6.5719,58.2093,1.4809]]],
[[[6.6742,58.2332,1.5803],[6.6647,58.2329,0.8339],[6.6558,58.2296,0.0],[6.6514,58.2251,0.0],[6.6519,58.2212,4.9326],[6.6536,58.221,4.9326],[6.6519,58.2149,6.9387],[6.6536,58.2143,6.9387],[6.6525,58.2126,0.0],[6.6542,58.2096,27.125],[6.6503,58.2071,0.0],[6.6475,58.2018,0.0],[6.6525,58.2007,13.4503],[6.6553,58.1974,0.0],[6.6614,58.1982,0.0],[6.6642,58.1999,0.0],[6.6642,58.2018,0.0],[6.6786,58.209,0.0],[6.6808,58.2118,0.0],[6.6803,58.2132,0.0],[6.6847,58.2157,0.0],[6.6847,58.219,0.1162],[6.6819,58.2226,32.3475],[6.6819,58.2251,4.505],[6.6842,58.226,-0.0204],[6.6786,58.2287,0.0],[6.6814,58.2299,0.0],[6.6803,58.2318,0.0],[6.6742,58.2332,1.5803]]],
[[[6.6669,58.2349,0.0],[6.6642,58.2357,0.0],[6.6625,58.2329,0.0],[6.6675,58.234,0.0],[6.6669,58.2349,0.0]]],
[[[6.6592,58.2607,6.2624],[6.6564,58.2613,0.0],[6.6569,58.259,0.0],[6.6636,58.2574,0.0],[6.6631,58.259,0.0],[6.6592,58.2607,6.2624]]],
[[[6.5064,58.2451,0.6727],[6.5031,58.2451,0.0],[6.5014,58.2429,0.0],[6.5081,58.2399,0.0],[6.5169,58.2412,0.0],[6.5158,58.2429,0.0],[6.5081,58.2435,9.0514],[6.5064,58.2451,0.6727]]],
[[[6.478,58.3089,159.1698],[6.4797,58.3045,175.6315],[6.4629,58.3027,243.8432],[6.4647,58.2983,45.5705],[6.4479,58.2965,60.1257],[6.4496,58.2921,45.0522],[6.4328,58.2903,2.9194],[6.4346,58.2859,171.6143],[6.4178,58.2841,0.0],[6.4195,58.2797,158.2035],[6.3944,58.2769,116.7902],[6.3969,58.2704,0.0],[6.4042,58.2701,0.0],[6.4064,58.2682,0.0],[6.4131,58.2668,0.0],[6.4192,58.2676,7.7052],[6.4397,58.2651,0.0],[6.4408,58.2624,0.6797],[6.4442,58.2615,0.0],[6.4542,58.2623,19.7866],[6.4508,58.2613,0.0],[6.4525,58.2601,0.0],[6.4625,58.2624,0.0],[6.4636,58.2649,2.3436],[6.4608,58.2685,0.0],[6.4658,58.2696,17.0713],[6.4675,58.2679,10.353],[6.4642,58.2674,0.0],[6.4642,58.2649,2.3436],[6.4675,58.2615,0.0],[6.4725,58.2596,0.0],[6.4736,58.2568,0.0],[6.4786,58.2551,0.0],[6.4858,58.2554,0.0],[6.4886,58.2538,0.0],[6.4975,58.2532,0.0],[6.5019,58.2551,0.0],[6.5081,58.254,0.0],[6.5114,58.2571,10.7408],[6.5131,58.2554,6.4208],[6.5103,58.254,0.7071],[6.5142,58.2532,0.0],[6.5203,58.2582,0.0],[6.5214,58.2554,12.3492],[6.5192,58.254,0.0],[6.5219,58.2518,0.0],[6.5275,58.2526,40.8344],[6.5264,58.2515,21.747],[6.5275,58.2513,21.747],[6.5258,58.2513,0.0],[6.5269,58.2485,0.0],[6.5336,58.2482,0.0],[6.5336,58.2496,0.0],[6.5364,58.2507,110.7023],[6.5431,58.2476,0.0],[6.5814,58.2429,4.7437],[6.5864,58.2438,93.305],[6.6153,58.2407,33.5636],[6.6303,58.2415,0.0],[6.6403,58.2379,11.9368],[6.6447,58.234,2.9623],[6.6514,58.2374,0.0],[6.6575,58.2376,0.0],[6.6586,58.2393,0.9271],[6.6669,58.2385,0.0],[6.6675,58.241,0.0],[6.6653,58.2438,0.0],[6.6664,58.2443,0.0],[6.6642,58.2468,0.0],[6.6653,58.2485,0.0],[6.6708,58.2471,7.6836],[6.6719,58.2485,7.6836],[6.6786,58.2487,0.0],[6.6725,58.2535,0.0],[6.6703,58.2513,1.1789],[6.6614,58.2513,0.0],[6.6586,58.2574,1.5438],[6.6497,58.2626,0.0],[6.6481,58.269,0.0],[6.6464,58.269,0.0],[6.6458,58.2707,18.7659],[6.6486,58.2707,7.9086],[6.6486,58.2726,33.3246],[6.6542,58.2729,0.0],[6.6508,58.2751,0.9362],[6.6514,58.2835,4.681],[6.6575,58.2837,0.0],[6.6586,58.2854,0.0],[6.6564,58.2876,0.0],[6.6519,58.2876,0.0],[6.6519,58.2915,0.0],[6.6475,58.294,15.8962],[6.6542,58.2951,0.6003],[6.6614,58.2932,0.0],[6.6569,58.2899,0.0],[6.6581,58.2874,0.0],[6.6625,58.2865,2.0465],[6.6647,58.2835,0.0],[6.6692,58.284,11.69],[6.6725,58.2807,15.6254],[6.6703,58.2801,0.0],[6.6697,58.2774,0.0],[6.6619,58.2738,0.0],[6.6614,58.2701,22.1163],[6.6575,58.269,0.0],[6.6592,58.2651,2.3764],[6.6569,58.2651,0.0],[6.6581,58.2635,2.6708],[6.6569,58.2624,0.0],[6.6669,58.2618,7.9011],[6.6692,58.2579,0.0],[6.6764,58.2574,0.0],[6.6781,58.2621,4.9625],[6.6825,58.2629,0.0],[6.6808,58.2582,0.0],[6.6853,58.256,11.1971],[6.6875,58.2518,0.0],[6.6908,58.2501,0.0],[6.6958,58.2513,0.0],[6.6964,58.2496,11.563],[6.6931,58.2487,3.9915],[6.6925,58.2451,0.0],[6.6975,58.2407,41.9279],[6.6969,58.239,0.0],[6.7003,58.2368,14.8455],[6.7003,58.2346,0.0],[6.7031,58.2332,9.8465],[6.7031,58.2315,0.0],[6.7086,58.2287,9.0455],[6.7075,58.2265,3.4722],[6.7092,58.226,3.4722],[6.7086,58.2246,0.0],[6.7136,58.221,19.4689],[6.7208,58.2196,0.0],[6.7258,58.2232,17.5806],[6.7293,58.2232,4.3167],[6.7199,58.248,246.6384],[6.7366,58.2497,228.2684],[6.7383,58.2453,247.2774],[6.7467,58.2462,231.3539],[6.745,58.2506,213.1172],[6.7534,58.2515,217.033],[6.7517,58.2559,268.2863],[6.7601,58.2568,204.86],[6.7584,58.2612,255.628],[6.7668,58.2621,248.9627],[6.7601,58.2797,287.4163],[6.7685,58.2806,271.5001],[6.7668,58.285,255.1679],[6.7836,58.2867,228.2858],[6.7752,58.3087,305.6175],[6.7836,58.3096,274.8255],[6.7719,58.3404,188.2287],[6.7887,58.3422,186.779],[6.787,58.3466,220.3872],[6.8038,58.3483,195.0348],[6.8105,58.3307,161.7701],[6.8189,58.3316,142.1923],[6.8206,58.3272,153.1903],[6.8878,58.3343,365.7711],[6.8861,58.3387,306.0887],[6.9114,58.3414,339.9361],[6.9097,58.3457,333.1331],[6.9349,58.3484,333.7372],[6.92,58.388,399.5487],[6.9115,58.3871,415.9082],[6.9099,58.3915,396.8575],[6.9015,58.3906,458.6175],[6.8981,58.3994,375.6677],[6.8897,58.3985,318.5],[6.8797,58.4249,426.5443],[6.8881,58.4258,372.7945],[6.8797,58.4478,405.1031],[6.8882,58.4487,392.723],[6.8681,58.5014,431.7448],[6.8596,58.5005,418.7545],[6.8579,58.5049,411.3432],[6.8495,58.5041,470.7653],[6.8478,58.5084,484.9238],[6.8309,58.5067,582.3719],[6.8293,58.5111,565.9338],[6.8377,58.512,537.1807],[6.836,58.5164,518.238],[6.7347,58.5057,448.129],[6.733,58.5101,377.044],[6.7161,58.5083,514.1718],[6.7144,58.5127,518.8795],[6.706,58.5118,494.9783],[6.7043,58.5162,382.7364],[6.6958,58.5153,196.4827],[6.6907,58.5285,49.0],[6.6992,58.5294,49.0],[6.6941,58.5426,211.3294],[6.7025,58.5435,49.0],[6.6991,58.5522,49.0],[6.7076,58.5531,49.0],[6.6973,58.5795,49.0],[6.7058,58.5804,49.0],[6.6973,58.6024,97.7395],[6.7057,58.6033,49.0],[6.6989,58.6208,131.3572],[6.7074,58.6217,49.0],[6.7023,58.6349,49.0],[6.6684,58.6313,398.9994],[6.6667,58.6357,413.0996],[6.6328,58.6321,542.5616],[6.6345,58.6278,627.0171],[6.6091,58.625,642.2227],[6.6108,58.6207,660.8793],[6.6024,58.6198,544.0021],[6.6041,58.6154,675.1135],[6.5956,58.6145,545.836],[6.599,58.6057,582.1298],[6.5906,58.6048,547.3496],[6.5923,58.6004,595.5864],[6.5838,58.5995,535.64],[6.589,58.5863,510.9398],[6.5975,58.5872,559.1942],[6.6026,58.574,479.3848],[6.6111,58.5749,480.9358],[6.6179,58.5574,658.6622],[6.6095,58.5565,579.1154],[6.6146,58.5433,516.9319],[6.6062,58.5424,521.1846],[6.6113,58.5292,568.8302],[6.6029,58.5283,617.327],[6.6046,58.5239,581.4196],[6.5961,58.523,558.0527],[6.5995,58.5142,554.9174],[6.5911,58.5133,579.5922],[6.5945,58.5045,556.058],[6.5861,58.5036,513.6273],[6.5912,58.4904,456.9679],[6.5997,58.4913,494.143],[6.6082,58.4694,371.8504],[6.6167,58.4703,392.1248],[6.6235,58.4527,351.3695],[6.6319,58.4536,377.8049],[6.6353,58.4448,350.7512],[6.6185,58.443,174.7629],[6.6202,58.4386,398.6074],[6.6117,58.4377,130.1428],[6.6135,58.4333,293.4972],[6.605,58.4324,173.1129],[6.6067,58.428,249.1409],[6.5983,58.4271,47.0],[6.6,58.4227,47.0],[6.5916,58.4218,47.0],[6.6104,58.3735,47.0],[6.5936,58.3717,198.5205],[6.5953,58.3673,47.0],[6.5869,58.3664,206.3923],[6.5886,58.362,47.0],[6.5717,58.3602,347.4898],[6.5735,58.3558,225.584],[6.5651,58.3549,332.0869],[6.5668,58.3505,288.8825],[6.55,58.3487,336.0212],[6.5517,58.3443,343.748],[6.5433,58.3434,253.1828],[6.545,58.339,274.342],[6.5282,58.3372,150.5],[6.5299,58.3328,191.0692],[6.5215,58.3319,354.9394],[6.5232,58.3275,281.4892],[6.5064,58.3257,259.7438],[6.5081,58.3213,212.2447],[6.4997,58.3204,204.5804],[6.5015,58.316,142.5419],[6.4847,58.3142,142.8686],[6.4864,58.3098,139.1606],[6.478,58.3089,159.1698]]]]}
,"properties": {"GID_2": "NOR.18.4_1","GID_0": "NOR","country": "Norway","GID_1": "NOR.18_1","province": "Vest-Agder","NL_NAME_1": "NA","county": "Flekkefjord","VARNAME_2": "NA","NL_NAME_2": "NA","TYPE_2": "Kommuner","ENGTYPE_2": "Municipality","CC_2": "NA","HASC_2": "NO.VA.FL","name": "Flekkefjord.county","area_km2": 620.5456,"hist_schema_id": "Elevation0-9000","hist_area_km2": {"0": 14.8908,"25": 15.4511,"50": 39.981,"75": 16.2296,"100": 21.1055,"125": 26.6823,"150": 27.0127,"175": 29.5271,"200": 38.6446,"225": 42.9836,"250": 43.2813,"275": 41.9781,"300": 42.7081,"325": 37.6326,"350": 29.9003,"375": 23.6403,"400": 23.0178,"425": 22.5323,"450": 19.1389,"475": 14.6444,"500": 10.4176,"525": 8.4894,"550": 9.4272,"575": 8.7598,"600": 5.8823,"625": 2.8746,"650": 2.1332,"675": 1.0492,"700": 0.4527,"725": 0.0773}}}