{"type":"Feature","properties":{"GID_2":"NOR.9.9_1","GID_0":"NOR","country":"Norway","GID_1":"NOR.9_1","province":"Nord-Trøndelag","NL_NAME_1":"NA","county":"Levanger","VARNAME_2":"NA","NL_NAME_2":"NA","TYPE_2":"Kommuner","ENGTYPE_2":"Municipality","CC_2":"NA","HASC_2":"NO.NT.LV","name":"Levanger.county"},
"geometry":{"type": "MultiPolygon","coordinates": [[[[10.8887,63.609,31.3711],[10.8889,63.6081,0.0],[10.8915,63.6092,8.4397],[10.8893,63.609,31.3711],[10.8887,63.609,31.3711]]],
[[[10.8972,63.6141,85.5212],[10.8983,63.6104,0.0],[10.9057,63.6078,11.3196],[10.9047,63.6047,7.6592],[10.9063,63.6042,0.0],[10.9141,63.6047,0.0],[10.9151,63.6078,0.0],[10.9188,63.6104,0.0],[10.9245,63.6099,0.0],[10.9245,63.6068,20.064],[10.9193,63.6047,18.8013],[10.9266,63.6005,16.6392],[10.9146,63.6,15.1547],[10.9,63.5938,24.427],[10.8922,63.5932,0.0],[10.8938,63.5917,8.3796],[10.9021,63.5917,0.0],[10.9063,63.5938,3.367],[10.9099,63.5932,0.0],[10.9161,63.5891,0.0],[10.9161,63.5859,2.8966],[10.9146,63.5854,10.7375],[10.9104,63.5875,0.0],[10.9,63.5833,33.3298],[10.8958,63.5854,24.6262],[10.8854,63.5854,21.097],[10.8813,63.5875,15.7284],[10.8771,63.5875,27.1615],[10.8734,63.5849,0.0],[10.8724,63.5818,78.86],[10.8589,63.5786,0.0],[10.8568,63.5766,27.3495],[10.8568,63.5734,25.1273],[10.8708,63.5729,0.0],[10.8729,63.5708,135.9926],[10.8708,63.5687,69.7249],[10.863,63.5682,0.0],[10.8609,63.563,29.6694],[10.8771,63.5625,0.0],[10.8813,63.5646,13.3614],[10.8875,63.5646,11.1363],[10.8917,63.5625,13.8587],[10.8958,63.5625,0.0],[10.9063,63.5667,0.0],[10.912,63.5641,0.0],[10.9146,63.5604,0.0],[10.9271,63.5625,28.6556],[10.9642,63.5638,229.6484],[10.9656,63.5593,185.2239],[10.9756,63.56,221.84],[10.9742,63.5644,260.855],[10.9942,63.5656,390.2633],[10.9927,63.5701,376.6644],[11.0327,63.5725,366.5343],[11.0341,63.5681,363.4868],[11.0841,63.5712,365.1746],[11.0855,63.5667,349.6742],[11.1355,63.5697,270.5],[11.1369,63.5653,323.3663],[11.1569,63.5665,336.6836],[11.1555,63.571,270.5],[11.2055,63.574,300.75],[11.2041,63.5784,283.4467],[11.264099999999999,63.582,356.028],[11.2655,63.5776,410.0045],[11.2755,63.5782,461.8654],[11.2769,63.5737,476.4095],[11.2869,63.5743,468.7075],[11.2882,63.5699,382.2976],[11.3583,63.574,353.7843],[11.3596,63.5696,354.2451],[11.3996,63.5719,350.8839],[11.3983,63.5764,314.5603],[11.4183,63.5775,433.8557],[11.417,63.582,499.0437],[11.447,63.5837,453.7574],[11.4456,63.5882,457.2782],[11.4857,63.5905,433.4026],[11.4844,63.595,455.4132],[11.5545,63.599,396.5955],[11.5558,63.5946,394.4727],[11.5658,63.5952,415.0083],[11.5684,63.5863,395.16],[11.6185,63.5891,431.3524],[11.6172,63.5936,395.0],[11.6272,63.5942,402.1497],[11.6259,63.5986,398.467],[11.6459,63.5998,401.0694],[11.6473,63.5953,395.0],[11.6573,63.5959,400.4733],[11.6586,63.5914,400.5273],[11.7187,63.5948,422.1101],[11.7174,63.5993,475.3014],[11.7374,63.6004,426.8533],[11.7361,63.6049,540.2558],[11.7261,63.6043,541.6549],[11.7248,63.6088,640.6013],[11.7148,63.6082,597.5361],[11.7135,63.6127,657.1861],[11.7035,63.6121,663.6774],[11.7022,63.6165,655.86],[11.6721,63.6148,583.9193],[11.6695,63.6237,535.4566],[11.6595,63.6232,481.6553],[11.6582,63.6276,468.8761],[11.6481,63.6271,459.0018],[11.6455,63.636,504.9473],[11.6355,63.6354,477.6549],[11.6329,63.6443,502.1641],[11.6228,63.6437,486.7428],[11.6215,63.6482,508.329],[11.6115,63.6476,508.7401],[11.6088,63.6565,584.7991],[11.5988,63.6559,550.7806],[11.5975,63.6604,590.1418],[11.5875,63.6598,582.2027],[11.5861,63.6643,511.361],[11.5962,63.6648,598.9728],[11.5869,63.696,434.6339],[11.597,63.6966,445.9838],[11.5917,63.7144,447.8498],[11.5817,63.7138,448.5451],[11.5777,63.7272,216.7339],[11.5576,63.726,189.1799],[11.5562,63.7305,241.2594],[11.5462,63.7299,168.123],[11.5448,63.7344,164.2543],[11.5348,63.7338,163.252],[11.5334,63.7382,165.9627],[11.5234,63.7377,151.0719],[11.5207,63.7466,187.7589],[11.5006,63.7454,148.7656],[11.4992,63.7499,202.571],[11.469,63.7481,106.3502],[11.4663,63.757,91.6342],[11.4563,63.7564,49.1735],[11.4522,63.7698,2.138],[11.4422,63.7692,1.8356],[11.4391,63.7793,0.0],[11.4348,63.7742,1.8818],[11.4274,63.7738,0.0],[11.4266,63.7714,0.6026],[11.4188,63.7687,0.0],[11.4036,63.7766,0.0],[11.3854,63.7813,0.0],[11.3776,63.7786,0.0],[11.3745,63.7734,4.9916],[11.3687,63.7708,61.6442],[11.3521,63.7708,22.1145],[11.3479,63.7687,81.951],[11.3438,63.7708,0.0],[11.3333,63.7708,0.0],[11.3318,63.7703,3.6975],[11.3318,63.7672,0.0],[11.3391,63.7661,0.0],[11.337,63.763,0.0],[11.3297,63.762,2.1219],[11.3208,63.7562,4.2847],[11.3146,63.7583,0.0],[11.2938,63.7521,0.0],[11.288,63.7547,0.0],[11.2891,63.7578,0.0],[11.2818,63.7609,0.0],[11.2792,63.7646,0.0],[11.2646,63.7646,0.0],[11.25,63.7583,25.1965],[11.213,63.7578,0.0],[11.2068,63.7536,0.0],[11.2099,63.7516,5.5601],[11.2104,63.7479,11.558],[11.2047,63.7339,0.0],[11.212,63.7328,3.5054],[11.2125,63.7313,2.2024],[11.2099,63.7276,0.0],[11.2068,63.7266,0.0],[11.2099,63.7245,1.1727],[11.2078,63.7193,0.0],[11.1984,63.7182,0.0],[11.1974,63.7151,2.8108],[11.1896,63.7125,0.0],[11.1729,63.7125,0.0],[11.1688,63.7104,51.4769],[11.162,63.7141,6.3849],[11.1547,63.7151,5.5089],[11.1557,63.7182,0.0],[11.1521,63.7188,0.0],[11.15,63.7167,4.9907],[11.1516,63.7109,2.5296],[11.1438,63.7062,0.0],[11.125,63.7083,0.0],[11.1208,63.7062,90.22],[11.1167,63.7083,0.0],[11.1104,63.7083,0.0],[11.1021,63.7042,59.7418],[11.0917,63.7042,1.341],[11.0859,63.7068,3.3551],[11.0833,63.7104,0.0],[11.0776,63.7078,0.0],[11.0786,63.7026,0.0],[11.0724,63.7005,0.0],[11.0604,63.7,0.0],[11.0563,63.6979,0.0],[11.0458,63.6979,0.0],[11.0443,63.6995,0.0],[11.0474,63.7057,0.0],[11.0443,63.7078,14.4785],[11.0474,63.7099,0.0],[11.0453,63.712,0.0],[11.0292,63.7125,23.9734],[11.025,63.7146,0.0],[11.0104,63.7146,0.0],[11.0063,63.7125,0.0],[10.9984,63.712,8.8803],[11.0016,63.7099,0.0],[11.0005,63.7068,0.0],[11.0036,63.7047,0.0],[10.9917,63.7,101.7394],[10.9875,63.7021,19.9537],[10.9771,63.7021,0.0],[10.9729,63.7,0.0],[10.9667,63.7,39.6525],[10.9625,63.7021,0.0],[10.9583,63.7,73.8367],[10.9505,63.6995,37.7974],[10.937,63.6901,91.3819],[10.9276,63.6891,0.0],[10.9172,63.6849,22.403199999999998],[10.9161,63.6818,124.336],[10.9083,63.6813,3.424],[10.8995,63.6755,126.4057],[10.8943,63.6745,44.349],[10.8937,63.6728,109.7268],[10.8987,63.6731,174.9826],[10.9015,63.6642,283.8488],[10.9115,63.6648,275.9756],[10.9144,63.6559,322.9766],[10.9244,63.6566,231.1087],[10.9301,63.6388,339.868],[10.9201,63.6382,300.3088],[10.9215,63.6337,231.438],[10.9115,63.6331,279.4397],[10.9129,63.6286,205.048],[10.9029,63.628,230.7876],[10.9057,63.6191,139.7484],[10.8957,63.6185,154.1007],[10.8972,63.6141,85.5212]]],
[[[11.1193,63.7297,11.0177],[11.1286,63.7318,0.0],[11.1328,63.7339,44.7937],[11.1349,63.737,14.7962],[11.1271,63.7375,22.0425],[11.1193,63.7349,16.0521],[11.1193,63.7297,11.0177]]],
[[[11.225,63.8104,18.4689],[11.2214,63.8109,9.5575],[11.2172,63.8141,13.496],[11.2266,63.8151,0.0],[11.225,63.8167,5.3582],[11.1875,63.8167,0.0],[11.1771,63.8104,95.5549],[11.1604,63.8083,9.2618],[11.15,63.8042,8.051],[11.1396,63.8042,0.0],[11.1292,63.8,22.2523],[11.1188,63.8,0.0],[11.1146,63.7979,55.437],[11.1104,63.8,0.0],[11.1063,63.7979,33.9058],[11.0896,63.7979,9.4243],[11.0854,63.7958,20.9381],[11.0813,63.7958,0.0],[11.0771,63.7979,0.0],[11.0625,63.7979,29.891],[11.0583,63.8,2.4133],[11.0542,63.7979,17.7536],[11.0479,63.7979,14.4644],[11.0443,63.7953,0.0],[11.0432,63.7922,62.868],[11.038,63.7911,0.0],[11.0354,63.7833,0.0],[11.0391,63.7797,101.5277],[11.0349,63.7734,125.2701],[11.0255,63.7682,0.0],[11.0224,63.763,169.9151],[11.0146,63.7625,17.1472],[11.012,63.7589,58.1034],[11.0068,63.7578,0.0],[11.0036,63.7505,0.0],[10.9984,63.7495,0.0],[10.9979,63.7479,9.8732],[10.9984,63.7464,0.0],[11.0083,63.7417,0.0],[11.0125,63.7417,0.0],[11.0167,63.7438,26.2605],[11.0229,63.7438,40.7244],[11.0271,63.7417,0.0],[11.0313,63.7438,10.0037],[11.0375,63.7438,0.0],[11.0401,63.7474,12.1422],[11.0453,63.7484,0.0],[11.0464,63.7516,25.9953],[11.0516,63.7526,0.0],[11.0542,63.7573,0.0],[11.0589,63.7599,0.0],[11.0667,63.7604,0.0],[11.0849,63.7651,0.0],[11.0953,63.7693,0.0],[11.0964,63.7724,16.2443],[11.1016,63.7734,0.0],[11.1026,63.7766,5.9741],[11.1104,63.7771,0.0],[11.1411,63.788,0.0],[11.138,63.7911,9.1647],[11.1422,63.7932,0.0],[11.1464,63.7995,7.0181],[11.1708,63.7979,6.5909],[11.175,63.7958,0.0],[11.1833,63.7958,0.0],[11.1875,63.7938,0.0],[11.1979,63.7938,28.7521],[11.2021,63.7958,49.9158],[11.2141,63.7964,0.0],[11.2286,63.8068,0.0],[11.2286,63.8099,3.7606],[11.225,63.8104,18.4689]]]]}}