{"type":"Feature","properties":{"GID_2":"NOR.5.12_1","GID_0":"NOR","country":"Norway","GID_1":"NOR.5_1","province":"Finnmark","NL_NAME_1":"NA","county":"Måsøy","VARNAME_2":"NA","NL_NAME_2":"NA","TYPE_2":"Kommuner","ENGTYPE_2":"Municipality","CC_2":"NA","HASC_2":"NO.FI.MA","name":"Måsøy.county"},
"geometry":{"type": "MultiPolygon","coordinates": [[[[24.5807,70.8005,0.0],[24.5776,70.7984,0.0],[24.5958,70.7979,0.0],[24.5995,70.8016,0.0],[24.5896,70.8063,0.0],[24.5812,70.8063,0.0],[24.5776,70.8037,0.0],[24.5807,70.8005,0.0]]],
[[[24.9254,70.6241,436.9124],[24.9243,70.6196,443.3644],[24.9512,70.6189,525.582],[24.9501,70.6144,510.0701],[24.977,70.6137,465.9579],[24.9781,70.6182,601.4746],[24.9915,70.6179,503.576],[24.9937,70.6268,520.5334],[25.0072,70.6265,542.0627],[25.0083,70.631,498.7201],[25.0217,70.6306,506.6065],[25.0239,70.6396,499.1891],[25.0374,70.6393,461.5956],[25.0385,70.6438,508.1334],[25.0519,70.6434,391.2225],[25.0541,70.6524,467.7566],[25.0676,70.6521,423.4909],[25.0687,70.6565,471.2718],[25.0822,70.6562,403.4393],[25.0844,70.6652,438.4445],[25.0979,70.6648,391.8105],[25.099,70.6693,406.7991],[25.1125,70.669,416.0446],[25.1147,70.678,376.6299],[25.1282,70.6776,390.626],[25.1293,70.6821,380.619],[25.1428,70.6817,389.3063],[25.1451,70.6907,380.7252],[25.1586,70.6904,401.5505],[25.1597,70.6949,405.7617],[25.1732,70.6945,406.2518],[25.1755,70.7035,405.2358],[25.189,70.7031,441.1824],[25.1901,70.7076,409.6513],[25.2036,70.7073,370.6834],[25.2059,70.7162,350.8211],[25.2194,70.7159,333.9252],[25.2205,70.7204,371.9856],[25.234,70.72,302.2093],[25.2364,70.729,300.9275],[25.2499,70.7286,309.9978],[25.251,70.7331,281.3969],[25.2645,70.7328,307.4189],[25.2669,70.7418,280.1318],[25.2804,70.7414,304.298],[25.2815,70.7459,279.8557],[25.2951,70.7455,289.1238],[25.2974,70.7545,284.3088],[25.3109,70.7541,340.6209],[25.3133,70.7631,347.1707],[25.3268,70.7627,294.3042],[25.3315,70.7807,271.6715],[25.3451,70.7803,332.9762],[25.3486,70.7938,254.4254],[25.3622,70.7934,294.975],[25.3658,70.8069,177.848],[25.3793,70.8066,216.3477],[25.3829,70.82,162.2466],[25.3965,70.8197,201.0967],[25.3977,70.8242,196.3074],[25.3841,70.8245,173.5495],[25.3865,70.8335,120.885],[25.3729,70.8339,81.0918],[25.3753,70.8429,38.2704],[25.3617,70.8433,18.5234],[25.363,70.8481,0.0],[25.3563,70.8479,0.0],[25.3464,70.8411,0.0],[25.3391,70.8339,0.0],[25.3297,70.8328,0.0],[25.3255,70.8287,0.0],[25.3286,70.8255,3.0418],[25.3255,70.8234,0.0],[25.3328,70.8193,0.0],[25.3229,70.8125,36.5435],[25.3193,70.813,93.1371],[25.3203,70.8161,0.0],[25.3141,70.8203,0.0],[25.3016,70.8266,0.0],[25.2854,70.8271,0.0],[25.2818,70.8245,0.0],[25.2849,70.8214,12.4766],[25.2703,70.8109,5.3365],[25.2604,70.8104,8.7613],[25.2563,70.8125,6.3835],[25.2417,70.8125,0.0],[25.237,70.8089,0.0],[25.2318,70.8089,0.0],[25.2359,70.8141,0.0],[25.2453,70.8151,0.0],[25.2422,70.8182,1.1241],[25.2479,70.8187,0.0],[25.2536,70.8214,0.0],[25.2505,70.8245,0.0],[25.2536,70.8287,0.0],[25.2359,70.8318,193.8294],[25.237,70.8349,112.4015],[25.2339,70.8359,77.6309],[25.2354,70.8375,53.1984],[25.2411,70.838,0.0],[25.2401,70.8411,0.0],[25.2432,70.8443,0.0],[25.238,70.8484,21.2611],[25.2391,70.8516,1.1939],[25.2318,70.8547,14.4161],[25.237,70.8588,0.0],[25.2339,70.8609,0.0],[25.2349,70.8641,0.0],[25.2255,70.8693,106.5713],[25.2266,70.8724,25.9046],[25.2172,70.8734,37.4802],[25.2151,70.8755,18.0451],[25.2161,70.8786,8.5977],[25.2089,70.8818,39.3541],[25.212,70.8839,0.0],[25.2089,70.8859,25.0154],[25.2099,70.8891,0.0],[25.2042,70.8917,52.5558],[25.1984,70.8922,55.881],[25.1995,70.8953,18.4585],[25.1896,70.9,80.1203],[25.1568,70.9005,0.0],[25.1526,70.9036,28.2898],[25.1557,70.9047,2.0888],[25.1578,70.9078,15.0666],[25.1484,70.9089,89.5277],[25.1495,70.912,0.0],[25.1474,70.9141,0.0],[25.138,70.9151,82.8535],[25.1391,70.9182,0.0],[25.1333,70.9208,27.671],[25.1255,70.9213,106.93],[25.1208,70.925,74.6104],[25.1068,70.9224,0.0],[25.1021,70.9187,-1.5],[25.0938,70.9208,14.9979],[25.0625,70.9083,69.7075],[25.0505,70.9078,27.9492],[25.0443,70.9036,0.0],[25.0474,70.9016,25.0026],[25.0453,70.8984,36.4771],[25.0255,70.8932,0.0],[25.0203,70.888,0.0],[25.0172,70.887,0.0],[25.0151,70.8839,0.0],[25.0182,70.8818,15.2285],[25.013,70.8786,0.0],[25.0161,70.8766,0.0],[25.0146,70.875,0.0],[25.0063,70.8771,0.0],[24.9964,70.8745,0.0],[24.9875,70.8688,4.888],[24.9813,70.8708,0.0],[24.975,70.8708,2.0613],[24.9708,70.8729,0.0],[24.9458,70.8729,0.0],[24.9443,70.8734,0.0],[24.9453,70.8766,0.0],[24.9391,70.8807,0.0],[24.9354,70.8812,0.0],[24.9292,70.8792,77.5044],[24.925,70.8812,0.0],[24.9188,70.8812,0.0],[24.9172,70.8828,0.0],[24.9307,70.8839,0.0],[24.9401,70.8912,0.0],[24.9458,70.8917,0.0],[24.9516,70.8943,0.0],[24.9589,70.9016,9.9009],[24.9682,70.9026,0.0],[24.9797,70.912,8.1885],[24.9917,70.9125,0.0],[25.0026,70.9203,0.0],[25.0146,70.9208,0.0],[25.0203,70.9234,0.0],[25.0172,70.9266,51.6351],[25.0307,70.9276,0.0],[25.037,70.9318,0.0],[25.0339,70.9339,0.0],[25.037,70.938,0.0],[25.036,70.9412,63.1291],[25.0432,70.9422,0.0],[25.0401,70.9453,82.6601],[25.0474,70.9464,0.0],[25.0464,70.9495,26.659],[25.0474,70.9516,21.3681],[25.0339,70.9589,0.0],[25.0349,70.962,0.0],[25.0276,70.9651,2.4798],[25.0245,70.9682,0.0],[25.0167,70.9688,84.3933],[25.0083,70.9729,89.2716],[25.0021,70.9708,117.2981],[24.9875,70.9708,75.1881],[24.9833,70.9729,22.4809],[24.9604,70.9729,51.9546],[24.9589,70.9714,21.8654],[24.962,70.9703,67.747],[24.9609,70.9672,13.3762],[24.9641,70.9661,28.9913],[24.9589,70.962,0.0],[24.962,70.9589,76.0158],[24.9578,70.9547,83.5125],[24.9484,70.9537,0.0],[24.9516,70.9505,70.1349],[24.9391,70.9401,107.4905],[24.9313,70.9354,83.9459],[24.9276,70.9359,1.3665],[24.9286,70.9391,0.0],[24.925,70.9396,0.0],[24.9203,70.9359,0.0],[24.9146,70.9354,0.0],[24.9089,70.9328,0.0],[24.9104,70.9313,0.0],[24.9229,70.9313,20.4065],[24.9339,70.9255,0.0],[24.9432,70.9245,9.885],[24.9411,70.9213,0.0],[24.937,70.9193,14.6753],[24.9271,70.9167,12.9325],[24.9208,70.9187,0.0],[24.9146,70.9187,49.967],[24.9063,70.9229,0.0],[24.8984,70.9234,86.4484],[24.8964,70.9255,0.0],[24.8974,70.9287,0.0],[24.8937,70.9292,13.5662],[24.8896,70.9271,38.9795],[24.8693,70.9266,0.0],[24.8672,70.9245,0.0],[24.8703,70.9224,0.0],[24.8688,70.9208,21.4297],[24.8583,70.9208,0.0],[24.8438,70.9167,0.0],[24.8354,70.9167,8.4023],[24.8292,70.9187,0.0],[24.8167,70.9146,0.0],[24.8083,70.9146,0.0],[24.8026,70.9172,0.0],[24.8047,70.9203,0.0],[24.85,70.9208,0.0],[24.8516,70.9224,0.0],[24.8458,70.925,0.0],[24.838,70.9255,0.0],[24.8391,70.9328,0.0],[24.8333,70.9354,0.0],[24.8255,70.9359,134.2153],[24.8266,70.9391,0.0],[24.8172,70.9401,194.9074],[24.8203,70.9432,0.0],[24.8,70.9437,267.5501],[24.7854,70.9479,17.571],[24.7792,70.9479,187.3693],[24.7734,70.9516,13.7637],[24.7828,70.9526,0.0],[24.7797,70.9547,0.0],[24.7807,70.9578,2.8676],[24.775,70.9604,40.8935],[24.7568,70.963,25.2879],[24.7641,70.9693,0.0],[24.7609,70.9724,5.7791],[24.7641,70.9734,0.0],[24.7703,70.9797,13.7751],[24.7693,70.9828,3.8698],[24.7703,70.9849,0.0],[24.7672,70.986,20.7863],[24.7682,70.9891,10.4295],[24.7396,70.9896,0.0],[24.7359,70.987,13.3509],[24.737,70.9838,19.926],[24.7188,70.9792,105.9446],[24.7125,70.9812,216.4952],[24.7042,70.9812,0.0],[24.6984,70.9786,0.0],[24.6849,70.9672,138.0387],[24.6729,70.9646,0.0],[24.6714,70.9651,0.0],[24.6724,70.9682,0.0],[24.6693,70.9703,40.8312],[24.6745,70.9734,0.0],[24.6786,70.9786,33.133],[24.6714,70.9828,156.2565],[24.6771,70.9854,0.0],[24.6911,70.988,0.0],[24.6891,70.9912,31.7091],[24.6813,70.9917,18.145],[24.6797,70.9932,0.0],[24.6953,70.9964,0.0],[24.6922,70.9984,0.0],[24.6938,71.0,5.4853],[24.6979,71.0,25.9611],[24.7021,70.9979,0.0],[24.7104,70.9979,0.0],[24.712,70.9995,0.0],[24.7042,71.0,14.4221],[24.7,71.0021,23.0845],[24.6854,71.0021,5.8233],[24.6792,71.0,109.2854],[24.6646,71.0042,0.0],[24.6583,71.0042,40.8369],[24.6516,71.0078,31.8807],[24.6437,71.0083,91.6369],[24.6396,71.0104,97.0463],[24.6146,71.0104,223.8461],[24.6104,71.0125,223.3753],[24.5979,71.0125,227.1099],[24.5896,71.0167,101.5175],[24.5771,71.0167,246.3442],[24.5729,71.0188,252.2321],[24.5646,71.0188,239.051],[24.5599,71.0151,266.0027],[24.5505,71.0141,94.7117],[24.5484,71.0109,119.6787],[24.5563,71.0104,161.6301],[24.5646,71.0062,0.0],[24.5708,71.0062,0.0],[24.5792,71.0021,0.0],[24.5854,71.0021,48.5506],[24.5896,71.0,0.0],[24.6,71.0,23.1792],[24.6083,70.9958,0.0],[24.6161,70.9953,1.6321],[24.6203,70.9932,0.0],[24.6172,70.9891,0.0],[24.6182,70.9859,150.3177],[24.6047,70.9849,0.0],[24.6078,70.9828,50.302],[24.6057,70.9797,255.2701],[24.5979,70.9792,274.629],[24.5854,70.975,295.2339],[24.5792,70.9771,198.9397],[24.5708,70.9771,0.0],[24.5667,70.975,173.7952],[24.5521,70.9729,266.5304],[24.5422,70.9661,9.4026],[24.5401,70.963,0.0],[24.5563,70.9646,0.0],[24.5625,70.9625,0.0],[24.5688,70.9646,24.044],[24.5771,70.9604,0.0],[24.5833,70.9625,7.762],[24.625,70.9625,0.0],[24.6266,70.962,0.0],[24.6255,70.9589,0.0],[24.6266,70.9568,106.9487],[24.6167,70.9542,197.9822],[24.6083,70.9563,26.4202],[24.6042,70.9542,181.5134],[24.5938,70.9542,158.0832],[24.5896,70.9521,174.8308],[24.5729,70.9521,166.879],[24.5667,70.9542,126.6556],[24.5625,70.9521,178.5652],[24.5521,70.9521,186.5397],[24.5479,70.95,94.1634],[24.5438,70.95,35.2725],[24.5422,70.9484,0.0],[24.5516,70.9422,9.2159],[24.5484,70.9391,156.4679],[24.5495,70.9359,97.541],[24.5438,70.9354,0.0],[24.5422,70.9339,0.0],[24.5536,70.9287,11.9385],[24.5505,70.9255,57.0959],[24.5563,70.9229,7.9987],[24.5641,70.9224,65.8071],[24.563,70.9193,0.0],[24.5646,70.9187,0.0],[24.5854,70.9187,0.0],[24.5896,70.9208,19.9834],[24.5979,70.9208,25.7687],[24.6021,70.9187,0.0],[24.6099,70.9182,0.0],[24.6057,70.913,15.3565],[24.5979,70.9125,0.0],[24.5932,70.9089,53.0074],[24.5859,70.9078,7.3895],[24.5901,70.9047,111.6714],[24.5938,70.9042,139.438],[24.5979,70.9063,113.6289],[24.625,70.9063,100.5298],[24.6307,70.9026,236.6947],[24.6104,70.9021,321.4616],[24.6063,70.9,331.4143],[24.6,70.9021,313.2102],[24.5812,70.9021,210.8877],[24.5797,70.9036,176.9658],[24.5828,70.9057,75.1809],[24.575,70.9083,17.643],[24.5708,70.9063,37.5837],[24.5547,70.9036,59.949],[24.5526,70.9005,21.7255],[24.5583,70.8979,0.0],[24.5708,70.8979,4.2548],[24.5938,70.8917,0.0],[24.6063,70.8917,0.0],[24.6125,70.8896,0.0],[24.6188,70.8917,76.5548],[24.6333,70.8875,0.0],[24.6521,70.8875,1.5881],[24.6563,70.8854,0.0],[24.6641,70.8849,0.0],[24.675,70.8792,0.0],[24.6813,70.8792,0.0],[24.6938,70.875,0.0],[24.7016,70.8745,0.0],[24.6995,70.8714,0.0],[24.6896,70.8688,0.0],[24.6688,70.8688,6.4922],[24.6646,70.8708,0.0],[24.6313,70.8708,41.2641],[24.6271,70.8729,12.7425],[24.6188,70.8729,16.6095],[24.6141,70.8693,203.7965],[24.6104,70.8688,191.067],[24.6063,70.8708,10.7405],[24.6,70.8708,62.0423],[24.5938,70.8729,0.0],[24.587,70.8672,0.8644],[24.5776,70.8662,4.7389],[24.5703,70.8588,146.06],[24.5672,70.8578,40.0979],[24.5745,70.8536,13.7453],[24.5714,70.8484,0.0],[24.5771,70.8479,66.5583],[24.5828,70.8453,2.9348],[24.5818,70.8422,11.4685],[24.5849,70.8401,34.2553],[24.5797,70.8359,0.0],[24.5875,70.8354,0.0],[24.5932,70.8318,41.9621],[24.5875,70.8271,83.1409],[24.5812,70.8292,24.778199999999998],[24.5708,70.8292,0.0],[24.5672,70.8255,0.0],[24.5729,70.8229,0.0],[24.5917,70.8229,9.4152],[24.5958,70.8208,0.0],[24.6161,70.8203,19.5437],[24.6151,70.8172,0.0],[24.6245,70.8161,53.1429],[24.6214,70.8141,0.0],[24.6245,70.8109,16.4215],[24.6214,70.8078,0.0],[24.6224,70.8047,0.0],[24.6193,70.8005,0.0],[24.6266,70.7963,28.352],[24.6208,70.7937,0.0],[24.6068,70.7911,0.0],[24.5974,70.7839,6.4747],[24.5938,70.7833,11.2994],[24.5896,70.7854,8.9432],[24.5714,70.788,16.9928],[24.5693,70.7901,2.8921],[24.5703,70.7932,0.0],[24.5646,70.7958,20.7529],[24.5521,70.7958,7.3444],[24.5479,70.7979,0.0],[24.5401,70.7984,44.2227],[24.5333,70.8021,2.3192],[24.5276,70.8026,38.7896],[24.5083,70.8125,17.4964],[24.4896,70.8125,120.9093],[24.4833,70.8167,20.0914],[24.4708,70.8167,113.6166],[24.4667,70.8187,47.0881],[24.4583,70.8187,52.0224],[24.4521,70.8167,77.0858],[24.4297,70.8276,0.0],[24.437,70.8339,0.0],[24.4339,70.837,0.0],[24.4432,70.838,0.0],[24.4453,70.8411,0.0],[24.4359,70.8422,12.3834],[24.425,70.8479,0.0],[24.4188,70.8458,18.8814],[24.4104,70.8458,25.5155],[24.4063,70.8479,4.2398],[24.4,70.8458,0.0],[24.3964,70.8464,0.0],[24.3922,70.8484,0.0],[24.3932,70.8557,0.0],[24.3901,70.8578,11.7049],[24.3974,70.8588,0.0],[24.4016,70.862,0.0],[24.3917,70.8667,0.0],[24.3646,70.8708,54.9582],[24.3563,70.875,21.2129],[24.3479,70.875,52.4753],[24.3438,70.8729,104.3411],[24.3396,70.8729,96.3145],[24.3349,70.8693,208.875],[24.325,70.8667,159.8026],[24.3109,70.8662,0.0],[24.3141,70.8641,8.6264],[24.313,70.8609,0.0],[24.3203,70.8578,0.0],[24.3224,70.8547,0.0],[24.3125,70.8542,6.0746],[24.3109,70.8547,23.9397],[24.312,70.8578,0.0],[24.3021,70.8583,72.3643],[24.3005,70.8568,188.6878],[24.3036,70.8557,94.2686],[24.3021,70.8542,181.2684],[24.2917,70.8542,284.2698],[24.2875,70.8521,294.7021],[24.2771,70.8521,96.1688],[24.2687,70.8479,203.0073],[24.2583,70.8479,10.0912],[24.2422,70.8349,48.5574],[24.2526,70.8276,0.0],[24.2604,70.8271,55.4876],[24.2661,70.8245,31.7353],[24.2651,70.8172,16.8304],[24.2724,70.8141,0.0],[24.2714,70.8109,0.0],[24.2745,70.8099,31.8357],[24.2714,70.8068,0.0],[24.2745,70.8047,61.6454],[24.2589,70.8016,8.179],[24.2484,70.7932,0.0],[24.2536,70.788,37.4766],[24.2464,70.787,0.0],[24.2495,70.7849,7.1581],[24.2484,70.7818,7.2442],[24.2516,70.7797,28.2652],[24.2484,70.7786,37.819],[24.2464,70.7755,0.0],[24.2521,70.7729,0.0],[24.2583,70.7729,6.212],[24.2667,70.7688,0.0],[24.2854,70.7688,56.9847],[24.2917,70.7667,0.0],[24.2979,70.7688,63.9218],[24.3021,70.7667,0.0],[24.3099,70.7662,0.0],[24.3188,70.7604,0.0],[24.3224,70.7609,0.0],[24.3271,70.7646,0.0],[24.3625,70.7646,64.9461],[24.3724,70.7609,2.462],[24.3703,70.7589,11.2471],[24.363,70.7578,15.8075],[24.3609,70.7547,19.2671],[24.3672,70.7505,0.0],[24.375,70.75,53.5865],[24.3792,70.7479,0.0],[24.3854,70.75,77.5168],[24.3917,70.7479,0.0],[24.4,70.7479,0.0],[24.4042,70.75,43.9268],[24.4125,70.75,45.1872],[24.4271,70.7458,0.0],[24.4813,70.7458,0.0],[24.4875,70.7479,11.8261],[24.4917,70.7458,0.0],[24.5125,70.7458,0.0],[24.5271,70.75,0.0],[24.537,70.7443,0.0],[24.5276,70.7432,0.0],[24.5307,70.7401,7.222],[24.5255,70.7349,0.0],[24.5266,70.7318,0.0],[24.5208,70.7312,0.0],[24.5193,70.7297,0.0],[24.5271,70.7292,33.3574],[24.5286,70.7276,55.9143],[24.5234,70.7245,21.745],[24.5214,70.7214,0.0],[24.5292,70.7208,10.1067],[24.5375,70.7167,0.0],[24.5438,70.7188,44.098],[24.5521,70.7188,54.5792],[24.5563,70.7167,0.0],[24.5703,70.7161,0.0],[24.5682,70.713,3.8906],[24.5641,70.7109,30.4365],[24.5458,70.7104,67.8522],[24.5422,70.7068,0.0],[24.55,70.7063,36.3491],[24.5542,70.7042,0.0],[24.5625,70.7042,0.0],[24.5667,70.7063,5.7505],[24.5786,70.7068,4.8726],[24.5807,70.7089,0.0],[24.5776,70.7109,0.0],[24.5792,70.7125,0.0],[24.5896,70.7125,4.7733],[24.5958,70.7083,0.0],[24.6021,70.7083,0.0],[24.6063,70.7063,0.0],[24.6125,70.7063,33.2801],[24.6167,70.7042,0.0],[24.6349,70.7016,19.3324],[24.637,70.6995,20.9528],[24.6359,70.6964,0.0],[24.6391,70.6943,17.733],[24.6354,70.6937,13.4162],[24.6313,70.6958,0.0],[24.6167,70.6958,10.2953],[24.6026,70.6911,17.028],[24.5984,70.6859,0.0],[24.6042,70.6833,0.0],[24.6182,70.6828,35.5364],[24.6203,70.6807,23.6284],[24.6193,70.6776,0.0],[24.6307,70.6724,22.5033],[24.6339,70.6693,0.0],[24.6437,70.6646,0.0],[24.6516,70.6641,14.8466],[24.662,70.6578,40.5276],[24.6609,70.6547,14.8036],[24.6703,70.6536,34.7018],[24.6812,70.6469,0.0],[24.6811,70.6483,0.0],[24.6875,70.6481,88.4274],[24.6886,70.6526,173.0426],[24.7828,70.6503,130.6185],[24.7818,70.6458,112.2536],[24.8087,70.6451,177.1502],[24.8076,70.6406,152.1506],[24.8345,70.64,108.2219],[24.8335,70.6355,68.707],[24.8738,70.6344,242.394],[24.8727,70.6299,257.4983],[24.8996,70.6293,333.702],[24.8985,70.6248,368.4943],[24.9254,70.6241,436.9124]]],
[[[25.2734,70.8318,0.0],[25.2813,70.8292,0.0],[25.2911,70.8318,0.0],[25.2974,70.837,0.0],[25.2651,70.837,0.0],[25.2734,70.8318,0.0]]],
[[[25.0042,70.9042,0.0],[25.0005,70.9036,0.0],[25.0005,70.9026,0.0],[25.0057,70.9026,0.0],[25.0042,70.9042,0.0]]],
[[[24.4833,70.8229,0.0],[24.4797,70.8224,0.0],[24.4797,70.8214,0.0],[24.4849,70.8214,0.0],[24.4833,70.8229,0.0]]],
[[[24.4854,70.8292,0.0],[24.4818,70.8287,0.0],[24.4818,70.8276,0.0],[24.487,70.8276,0.0],[24.4854,70.8292,0.0]]],
[[[24.4672,70.8359,0.0],[24.4708,70.8354,0.0],[24.4724,70.837,0.0],[24.4667,70.8396,0.0],[24.4568,70.8391,0.0],[24.4583,70.8375,0.0],[24.4646,70.8375,0.0],[24.4672,70.8359,0.0]]],
[[[24.4724,70.8464,0.0],[24.4693,70.8443,0.0],[24.4813,70.8438,0.0],[24.4849,70.8474,0.0],[24.475,70.8479,0.0],[24.4724,70.8464,0.0]]],
[[[25.4911,70.9166,295.6138],[25.4963,70.9354,16.052],[25.4813,70.9375,23.5121],[25.4703,70.9432,0.0],[25.4609,70.9443,19.504],[25.4578,70.9474,0.0],[25.4484,70.9484,0.0],[25.4516,70.9537,0.0],[25.4422,70.9547,110.5556],[25.4401,70.9568,67.661],[25.4411,70.9599,0.0],[25.4396,70.9604,0.0],[25.4333,70.9604,26.9331],[25.4292,70.9625,5.7439],[25.4167,70.9625,108.1661],[25.4125,70.9646,0.0],[25.4042,70.9625,127.2511],[25.3896,70.9667,56.0458],[25.3833,70.9667,147.2718],[25.3792,70.9688,0.0],[25.3667,70.9688,0.0],[25.3651,70.9703,2.2539],[25.3729,70.9708,0.0],[25.3745,70.9724,0.0],[25.3646,70.9729,19.4718],[25.3583,70.9708,181.0915],[25.3542,70.9729,196.2692],[25.3464,70.9734,197.6932],[25.3474,70.9766,83.4068],[25.3458,70.9771,71.6111],[25.3187,70.9771,22.8878],[25.313,70.9745,75.1703],[25.3057,70.9672,76.648],[25.3026,70.9661,0.0],[25.3042,70.9646,104.8606],[25.312,70.9641,242.5498],[25.3026,70.9547,18.2282],[25.3099,70.9516,212.5485],[25.3068,70.9484,0.0],[25.3161,70.9474,178.6623],[25.3151,70.9443,59.7461],[25.3182,70.9422,87.0269],[25.3151,70.9401,4.4573],[25.3208,70.9375,0.0],[25.3333,70.9375,16.5249],[25.3432,70.9328,0.0],[25.3464,70.9297,5.0969],[25.362,70.9224,36.0328],[25.3641,70.9203,0.0],[25.363,70.9172,0.0],[25.3849,70.9057,4.1209],[25.3818,70.9026,0.0],[25.3875,70.9,0.0],[25.3953,70.8995,9.586],[25.388,70.8922,0.0],[25.3953,70.8891,3.7687],[25.3922,70.8859,0.0],[25.3953,70.8839,6.9462],[25.388,70.8828,10.201599999999999],[25.3807,70.8776,31.0714],[25.3708,70.875,26.9245],[25.3646,70.8771,0.0],[25.3609,70.8766,3.6785],[25.3589,70.8745,6.1618],[25.3599,70.8714,1.4161],[25.3526,70.8703,0.0],[25.3583,70.8667,0.0],[25.3661,70.8662,0.0],[25.3599,70.8609,0.0],[25.35,70.8604,38.9981],[25.3458,70.8625,24.5432],[25.3312,70.8625,39.8873],[25.3297,70.8609,40.2297],[25.3328,70.8588,26.5811],[25.3297,70.8578,0.0],[25.3312,70.8562,0.0],[25.3375,70.8562,0.0],[25.3417,70.8542,0.0],[25.3542,70.8542,0.0],[25.3634,70.8497,0.0],[25.3677,70.8657,20.8022],[25.3813,70.8654,91.1187],[25.3825,70.8699,141.7426],[25.3961,70.8695,115.0865],[25.3985,70.8785,66.4053],[25.4121,70.8781,178.0267],[25.4145,70.8871,77.1021],[25.4281,70.8867,89.3022],[25.4293,70.8912,129.8785],[25.443,70.8908,245.0632],[25.4454,70.8998,255.459],[25.459,70.8994,269.7131],[25.4602,70.9039,296.1498],[25.4738,70.9035,233.561],[25.4763,70.9125,264.012],[25.4899,70.9121,369.2946],[25.4911,70.9166,295.6138]]],
[[[25.2797,70.9172,1.4449],[25.2854,70.9146,0.0],[25.3078,70.9151,4.1274],[25.2958,70.9229,30.6332],[25.2734,70.9224,0.0],[25.2755,70.9193,6.6481],[25.2797,70.9172,1.4449]]],
[[[25.1168,70.9292,0.0],[25.1151,70.9276,22.2346],[25.1203,70.9276,6.8415],[25.1203,70.9287,0.0],[25.1168,70.9292,0.0]]],
[[[24.9562,71.0021,24.675],[24.9526,71.0016,0.0],[24.9526,71.0005,0.0],[24.9578,71.0005,60.3482],[24.9562,71.0021,24.675]]],
[[[24.9734,71.0422,125.9279],[24.9745,71.0453,3.4852],[24.9688,71.0479,78.9395],[24.9625,71.0458,53.9908],[24.9562,71.0479,80.0295],[24.9526,71.0474,10.9124],[24.9464,71.0422,0.0],[24.9542,71.0417,175.8631],[24.9557,71.0401,192.7231],[24.9484,71.0391,142.6811],[24.9318,71.0266,16.4414],[24.9359,71.0234,0.0],[24.9438,71.0229,23.573],[24.9536,71.0182,75.661],[24.9505,71.0151,0.0],[24.9599,71.0141,33.9625],[24.9589,71.0109,0.0],[24.9604,71.0104,0.0],[24.9667,71.0104,11.0435],[24.9708,71.0083,0.0],[24.9911,71.0078,0.0],[24.9875,71.0042,19.6727],[24.975,71.0042,0.5498],[24.9609,70.9995,13.3071],[24.9667,70.9958,0.0],[24.9833,70.9958,0.0],[24.9875,70.9979,0.0],[24.9979,70.9979,0.0],[25.0026,71.0016,13.7516],[25.0104,71.0021,10.3249],[25.0141,71.0047,8.3982],[25.0125,71.0062,0.0],[25.0047,71.0068,3.2538],[25.0063,71.0083,0.0],[25.0146,71.0083,0.0],[25.0187,71.0062,0.0],[25.0286,71.0068,0.0],[25.0234,71.0109,0.0],[25.0245,71.0141,0.0],[25.0214,71.0162,0.0],[25.025,71.0188,0.0],[25.0391,71.0193,0.0],[25.0359,71.0224,0.0],[25.0432,71.0276,6.3339],[25.0401,71.0307,65.0128],[25.0474,71.0359,55.6026],[25.0417,71.0396,3.9109],[25.0271,71.0396,0.0],[25.0167,71.0333,150.4464],[24.9958,71.0333,0.0],[24.9943,71.0339,0.0],[24.9953,71.037,6.6598],[24.9911,71.0391,13.4975],[24.9734,71.0422,125.9279]]],
[[[24.7354,71.1125,23.9956],[24.7167,71.1146,0.0],[24.7125,71.1125,41.8215],[24.7005,71.112,112.9824],[24.7016,71.1088,113.8678],[24.7005,71.1068,0.0],[24.7083,71.1062,25.5181],[24.7099,71.1047,37.0652],[24.7078,71.1026,4.8755],[24.7021,71.1021,0.0],[24.7005,71.1005,4.0336],[24.7042,71.0979,0.0],[24.712,71.0974,5.29],[24.7229,71.0917,0.0],[24.7292,71.0917,8.2131],[24.7375,71.0875,0.0],[24.7453,71.087,0.0],[24.7474,71.0839,0.0],[24.7432,71.0797,0.0],[24.7359,71.0787,0.0],[24.738,71.0755,0.0],[24.7411,71.0745,0.0],[24.737,71.0693,22.9505],[24.7172,71.0693,210.0917],[24.7109,71.0734,153.3869],[24.712,71.0766,0.0],[24.7047,71.0797,0.0],[24.7078,71.0828,4.118],[24.7021,71.0854,110.7243],[24.6958,71.0854,165.1402],[24.6917,71.0875,97.0296],[24.6792,71.0875,268.856],[24.675,71.0896,219.2512],[24.6604,71.0896,140.3029],[24.6563,71.0875,235.1226],[24.6484,71.087,109.4174],[24.6464,71.0839,0.0],[24.6495,71.0818,84.5562],[24.637,71.0714,255.2642],[24.6125,71.0667,130.8023],[24.6068,71.063,0.0],[24.6125,71.0604,0.0],[24.6203,71.0599,-0.3943],[24.6193,71.0568,0.0],[24.625,71.0542,0.0],[24.6313,71.0542,0.0],[24.6542,71.0479,0.0],[24.6729,71.0479,0.0],[24.6771,71.0458,0.0],[24.6849,71.0453,55.5059],[24.6839,71.0422,0.0],[24.6896,71.0396,0.0],[24.7021,71.0396,14.7926],[24.7062,71.0375,0.0],[24.7125,71.0375,25.0971],[24.7141,71.037,18.0266],[24.713,71.0339,0.0],[24.7167,71.0313,0.0],[24.7333,71.0292,0.0],[24.7375,71.0271,0.0],[24.7438,71.0292,0.0],[24.7583,71.0292,37.435],[24.7625,71.0271,0.0],[24.7667,71.0271,0.0],[24.7766,71.0297,0.0],[24.7807,71.0339,0.0],[24.7786,71.037,0.0],[24.7693,71.038,105.2542],[24.7708,71.0396,6.8119],[24.7766,71.0401,0.0],[24.7734,71.0422,21.5416],[24.7755,71.0453,48.1089],[24.7911,71.0463,0.0],[24.8016,71.0557,3.7171],[24.7875,71.0563,3.702],[24.7859,71.0568,12.4621],[24.787,71.0599,0.0],[24.7854,71.0604,0.0],[24.7729,71.0604,19.9061],[24.7672,71.063,4.1882],[24.7651,71.0661,2.8683],[24.775,71.0687,0.0],[24.7854,71.0687,0.0],[24.7943,71.0745,0.0],[24.8042,71.0771,0.0],[24.8125,71.0771,0.0],[24.8167,71.075,0.0],[24.8266,71.0755,0.0],[24.8307,71.0787,27.3058],[24.825,71.0813,0.0],[24.8063,71.0813,42.8681],[24.8047,71.0828,3.3328],[24.8104,71.0875,0.0],[24.8245,71.088,0.0],[24.8266,71.0911,0.0],[24.8234,71.0932,40.3129],[24.8312,71.0938,0.0],[24.8359,71.0974,0.0],[24.8417,71.0979,0.0],[24.8474,71.1005,0.0],[24.8458,71.1021,53.4391],[24.8354,71.1021,159.7839],[24.8312,71.1,181.2629],[24.8146,71.1,130.3161],[24.8104,71.0979,250.5426],[24.8021,71.1,9.6714],[24.7875,71.0958,0.0],[24.7792,71.0958,0.0],[24.7776,71.0964,0.0],[24.7786,71.0995,7.9687],[24.7771,71.1,0.0],[24.763,71.1005,1.0756],[24.7661,71.1026,0.0],[24.763,71.1047,0.0],[24.7641,71.1078,0.0],[24.7557,71.112,8.2472],[24.7521,71.1125,0.0],[24.7458,71.1104,9.5884],[24.7417,71.1125,0.0],[24.7354,71.1125,23.9956]]],
[[[24.1771,70.7937,11.6569],[24.1729,70.7937,17.4021],[24.1714,70.7922,24.5849],[24.1828,70.7922,0.0],[24.1812,70.7937,12.4352],[24.1771,70.7937,11.6569]]],
[[[24.0734,70.8224,0.0],[24.0792,70.8187,11.7495],[24.0938,70.8187,0.0],[24.0995,70.8214,0.0],[24.0938,70.825,0.0],[24.0875,70.8229,88.2958],[24.0734,70.8224,0.0]]],
[[[24.2354,70.8521,0.0],[24.2313,70.8521,0.0],[24.2297,70.8505,0.0],[24.2474,70.8505,0.0],[24.2438,70.8542,0.0],[24.2396,70.8542,0.0],[24.2354,70.8521,0.0]]],
[[[24.2083,70.8521,0.0],[24.212,70.8526,0.0],[24.2167,70.8562,0.0],[24.2328,70.8588,0.0],[24.2375,70.8625,29.8107],[24.25,70.8625,0.0],[24.2599,70.8651,0.0],[24.2646,70.8688,0.0],[24.2792,70.8708,0.0],[24.2839,70.8745,0.0],[24.2911,70.8755,0.0],[24.2958,70.8792,0.0],[24.3083,70.8792,0.0],[24.3099,70.8807,0.0],[24.2979,70.8854,0.0],[24.2932,70.8818,10.8607],[24.2875,70.8792,8.7386],[24.2818,70.8786,0.0],[24.2771,70.875,26.0665],[24.2604,70.875,0.0],[24.2458,70.8708,32.7452],[24.2354,70.8708,5.7966],[24.2229,70.8667,95.0474],[24.2042,70.8667,0.0],[24.2,70.8646,7.0346],[24.1896,70.8646,0.0],[24.1828,70.8588,0.0],[24.1734,70.8578,0.0],[24.175,70.8562,0.0],[24.1891,70.8557,90.8089],[24.188,70.8526,0.0],[24.1896,70.8521,0.0],[24.1979,70.8521,0.0],[24.2042,70.8542,0.0],[24.2083,70.8521,0.0]]],
[[[24.4646,70.8562,0.0],[24.4609,70.8526,0.0],[24.4646,70.8521,0.0],[24.4682,70.8547,0.0],[24.4646,70.8562,0.0]]],
[[[24.4182,70.8662,0.0],[24.4146,70.8667,0.0],[24.413,70.8651,0.0],[24.4167,70.8646,0.0],[24.4182,70.8662,0.0]]],
[[[24.3818,70.8766,0.0],[24.3875,70.8729,0.0],[24.3958,70.8729,0.0],[24.3974,70.8745,0.0],[24.3943,70.8766,0.0],[24.4016,70.8828,0.0],[24.3875,70.8812,0.0],[24.3818,70.8766,0.0]]],
[[[24.3568,70.8828,0.0],[24.3625,70.8792,0.0],[24.3661,70.8797,0.0],[24.3682,70.8818,0.0],[24.3667,70.8833,0.0],[24.3568,70.8828,0.0]]],
[[[24.3005,70.8932,0.0],[24.3063,70.8938,0.0],[24.3078,70.8953,0.0],[24.2979,70.9,0.0],[24.2771,70.9,0.0],[24.2755,70.8984,0.0],[24.2813,70.8958,0.0],[24.2875,70.8958,0.0],[24.2891,70.8943,0.0],[24.2693,70.8891,0.0],[24.2672,70.8859,0.0],[24.2729,70.8833,0.0],[24.2813,70.8833,0.0],[24.2875,70.8875,0.0],[24.2917,70.8875,0.0],[24.2958,70.8896,0.0],[24.3042,70.8896,0.0],[24.3125,70.8854,0.0],[24.3208,70.8854,0.0],[24.3276,70.8891,0.0],[24.3349,70.8901,0.0],[24.3333,70.8917,0.0],[24.325,70.8917,0.0],[24.3208,70.8896,0.0],[24.3125,70.8896,0.0],[24.3083,70.8917,0.0],[24.3021,70.8917,0.0],[24.3005,70.8932,0.0]]],
[[[24.5036,70.9203,13.0198],[24.5,70.9208,5.7976],[24.4984,70.9193,11.7002],[24.5021,70.9187,17.5669],[24.5036,70.9203,13.0198]]],
[[[24.4875,70.9208,30.3168],[24.4771,70.9208,10.651],[24.4708,70.9229,0.0],[24.4672,70.9193,0.0],[24.4953,70.9172,0.0],[24.4911,70.9203,32.8265],[24.4875,70.9208,30.3168]]],
[[[24.4349,70.9266,22.9624],[24.4193,70.9287,17.5468],[24.4292,70.9229,19.5463],[24.4328,70.9234,44.413],[24.4349,70.9266,22.9624]]],
[[[24.2276,70.8807,0.0],[24.2333,70.8771,13.4414],[24.2479,70.8771,0.0],[24.2516,70.8797,0.0],[24.2484,70.8828,0.0],[24.2578,70.8839,0.0],[24.2599,70.887,0.0],[24.2438,70.8875,25.6858],[24.2349,70.8818,65.0566],[24.2276,70.8807,0.0]]],
[[[24.2766,70.9568,0.0],[24.275,70.9583,0.0],[24.2687,70.9583,0.0],[24.2625,70.9604,0.0],[24.2589,70.9578,0.0],[24.2599,70.9547,0.0],[24.2568,70.9505,0.0],[24.2604,70.95,0.0],[24.2693,70.9557,0.0],[24.2766,70.9568,0.0]]],
[[[24.043,71.0333,6.9508],[24.0208,71.0354,45.4144],[24.012,71.0276,5.2509],[24.0063,71.025,0.0],[23.9964,71.0255,0.0],[23.9922,71.0276,11.9284],[23.9953,71.0307,0.0],[23.9896,71.0333,0.0],[23.9813,71.0333,177.2668],[23.9771,71.0313,186.5351],[23.9729,71.0313,288.9864],[23.9667,71.0333,101.4391],[23.9625,71.0313,266.7241],[23.9458,71.0313,23.3312],[23.9333,71.0271,339.1406],[23.8937,71.025,41.2676],[23.8922,71.0234,51.2617],[23.8979,71.0208,3.847],[23.9104,71.0208,32.8608],[23.9146,71.0188,0.0],[23.9292,71.0167,0.0],[23.9432,71.0089,251.1589],[23.9333,71.0083,212.1299],[23.9271,71.0104,53.1678],[23.9229,71.0083,133.116],[23.8917,71.0083,0.0],[23.8859,71.0026,18.9235],[23.8896,71.0021,12.3687],[23.8937,71.0042,0.0],[23.9271,71.0042,0.0],[23.9286,71.0026,0.0],[23.925,71.0,0.0],[23.9083,71.0,26.7485],[23.9021,70.9958,135.498],[23.8979,70.9958,79.6213],[23.8937,70.9979,51.3719],[23.8729,70.9979,124.885],[23.8687,70.9958,169.7967],[23.8583,70.9958,245.6786],[23.8547,70.9922,8.5323],[23.8583,70.9917,0.0],[23.8646,70.9938,102.3874],[23.8687,70.9917,0.0],[23.8813,70.9917,0.0],[23.8828,70.9901,0.0],[23.8776,70.9859,0.0],[23.8917,70.9854,140.7363],[23.8932,70.9849,140.7363],[23.8922,70.9818,0.0],[23.8937,70.9812,0.0],[23.9,70.9833,0.0],[23.9125,70.9833,0.0],[23.9167,70.9854,0.0],[23.925,70.9833,0.0],[23.9292,70.9854,0.0],[23.9583,70.9854,0.0],[23.9625,70.9875,9.489],[23.9708,70.9875,12.3406],[23.975,70.9854,0.0],[24.0,70.9854,0.0],[24.0057,70.9828,0.0],[24.0021,70.9792,3.215],[23.9958,70.9812,8.1714],[23.9562,70.9812,9.722],[23.9521,70.9792,116.6963],[23.9396,70.9792,12.0843],[23.9333,70.975,164.7641],[23.9172,70.9724,0.0],[23.9203,70.9693,4.4887],[23.9141,70.963,224.297],[23.9047,70.962,162.3498],[23.8964,70.9537,141.6668],[23.9,70.95,0.0],[23.9036,70.9505,0.0],[23.9026,70.9537,161.8217],[23.9063,70.9542,253.7719],[23.913,70.9505,0.0],[23.9229,70.9479,0.0],[23.9271,70.9479,0.0],[23.9313,70.95,82.0866],[23.9396,70.95,0.0],[23.9438,70.9479,0.0],[23.95,70.95,7.4462],[23.9536,70.9495,76.8795],[23.9464,70.9422,0.0],[23.9625,70.9437,0.0],[23.9667,70.9417,5.8679],[23.9729,70.9417,65.271],[23.9745,70.9401,239.6361],[23.9646,70.9375,232.1194],[23.9271,70.9375,0.0],[23.9255,70.9359,29.6071],[23.9313,70.9333,60.6068],[23.9391,70.9328,0.0],[23.938,70.9297,0.0],[23.9438,70.9271,0.0],[23.9771,70.9271,0.0],[23.9833,70.9292,0.0],[23.9932,70.9245,140.839],[23.9859,70.9213,0.0],[23.9953,70.9203,115.4863],[23.9922,70.9182,0.0],[23.9938,70.9167,0.0],[24.0229,70.9146,0.0],[24.0271,70.9125,0.0],[24.0562,70.9125,0.0],[24.0604,70.9146,51.8223],[24.0724,70.9151,0.0],[24.0745,70.9182,180.0498],[24.0714,70.9203,168.1088],[24.0807,70.9213,0.0],[24.087,70.9276,24.8829],[24.0839,70.9307,0.0],[24.0979,70.9354,0.0],[24.1063,70.9354,52.6097],[24.1188,70.9292,0.0],[24.1313,70.9292,0.0],[24.1354,70.9271,0.0],[24.1437,70.9271,0.0],[24.1536,70.9297,0.0],[24.1578,70.9349,1.3071],[24.1479,70.9375,0.0],[24.1354,70.9375,3.3022],[24.1339,70.9391,13.1509],[24.1646,70.9396,0.0],[24.1688,70.9417,56.3981],[24.2,70.9417,0.0],[24.2182,70.9464,0.0],[24.2125,70.95,21.075],[24.1875,70.95,71.4088],[24.1818,70.9537,7.8685],[24.1896,70.9542,0.0],[24.1938,70.9563,3.5793],[24.2167,70.9563,0.0],[24.2203,70.9589,13.8116],[24.2182,70.962,0.0],[24.2,70.9646,95.4269],[24.1958,70.9667,69.3054],[24.1833,70.9667,84.6928],[24.1792,70.9688,0.0],[24.1708,70.9667,66.7719],[24.1667,70.9688,13.5904],[24.1417,70.9688,0.0],[24.1375,70.9708,45.9472],[24.1271,70.9708,0.0],[24.1208,70.9688,29.5337],[24.1167,70.9708,0.0],[24.1083,70.9708,21.8317],[24.1042,70.9688,57.0955],[24.0938,70.9688,0.0],[24.0896,70.9667,65.2801],[24.0833,70.9688,0.0],[24.075,70.9688,0.0],[24.0604,70.9646,6.5587],[24.0464,70.9672,0.0],[24.0547,70.9745,0.0],[24.0724,70.9776,0.0],[24.0651,70.9818,6.5288],[24.0661,70.9849,0.0],[24.063,70.9859,0.0],[24.0646,70.9875,0.0],[24.0833,70.9875,0.0],[24.0896,70.9896,13.0471],[24.0958,70.9875,0.0],[24.1005,70.9912,0.0],[24.1078,70.9922,0.0],[24.1146,70.9958,0.0],[24.1208,70.9938,0.0],[24.1292,70.9938,0.0],[24.1339,70.9974,0.0],[24.1437,71.0,0.0],[24.1542,71.0,1.9867],[24.1641,70.9974,35.8464],[24.1568,70.9943,0.0],[24.1646,70.9938,0.0],[24.1688,70.9917,0.0],[24.175,70.9938,15.136],[24.2,70.9938,2.2121],[24.2016,70.9953,26.8345],[24.1958,70.9979,17.4912],[24.1896,70.9979,40.5749],[24.1854,71.0,9.3953],[24.1792,71.0,117.7873],[24.1646,71.0042,0.0],[24.1208,71.0042,9.2803],[24.1167,71.0062,0.0],[24.075,71.0062,29.4593],[24.0708,71.0042,39.2095],[24.0562,71.0042,4.7554],[24.0521,71.0062,0.0],[24.0458,71.0062,1.8004],[24.0401,71.0099,0.0],[24.0438,71.0125,0.0],[24.0516,71.013,0.0],[24.0547,71.0162,0.0],[24.062,71.0172,0.0],[24.0703,71.0245,0.0],[24.0646,71.0271,0.0],[24.0583,71.0271,2.3756],[24.0474,71.0328,3.6223],[24.043,71.0333,6.9508]]],
[[[24.125,70.9917,1.89],[24.1208,70.9917,0.0],[24.1193,70.9901,0.0],[24.1307,70.9901,0.0],[24.1292,70.9917,0.8176],[24.125,70.9917,1.89]]],
[[[24.15,71.075,1.0873],[24.1443,71.0776,0.6026],[24.1453,71.0807,0.0],[24.1313,71.0875,4.5596],[24.1167,71.0833,-1.4733],[24.1063,71.0833,0.0],[24.1021,71.0813,1.0491],[24.0958,71.0813,0.0],[24.0896,71.0771,1.3369],[24.0708,71.0792,0.0],[24.0651,71.0818,0.0],[24.0661,71.0849,0.0],[24.0583,71.0854,2.5221],[24.0542,71.0875,0.0],[24.0458,71.0875,13.003],[24.0443,71.0859,17.4343],[24.0474,71.0839,17.8853],[24.0354,71.0833,50.4648],[24.0313,71.0813,26.1582],[24.0146,71.0813,4.6528],[24.0104,71.0833,9.1744],[24.0021,71.0833,7.604],[24.0005,71.0818,6.1806],[24.0047,71.0797,0.0],[24.0125,71.0792,3.1789],[24.0234,71.0734,0.0],[24.0313,71.0729,0.0],[24.0411,71.0682,1.4671],[24.0432,71.0651,13.7471],[24.0401,71.0609,0.0],[24.0479,71.0604,3.2772],[24.0495,71.0589,0.7843],[24.0333,71.0583,13.9324],[24.0271,71.0604,15.8261],[24.0214,71.0578,10.2488],[24.0245,71.0547,0.0],[24.0146,71.0542,0.0],[24.0104,71.0563,0.0],[24.0026,71.0568,8.4139],[24.0036,71.0599,0.0],[23.9995,71.062,0.0],[23.9901,71.063,29.9172],[23.9932,71.0661,0.0],[23.9875,71.0687,31.3832],[23.9562,71.0708,251.6428],[23.9505,71.0682,33.8722],[23.9536,71.0651,150.535],[23.9505,71.0609,57.5681],[23.9536,71.0589,106.4904],[23.9505,71.0578,1.9982],[23.9464,71.0526,0.0],[23.9557,71.0516,94.1383],[23.9599,71.0495,22.5734],[23.9589,71.0463,0.0],[23.9667,71.0458,141.2917],[23.9708,71.0437,0.0],[23.9917,71.0437,0.0],[23.9958,71.0458,11.109],[24.0063,71.0458,0.0],[24.0104,71.0479,0.0],[24.025,71.0479,0.0],[24.0318,71.0443,0.0],[24.0396,71.0437,0.0],[24.0438,71.0417,0.0],[24.0667,71.0417,0.0],[24.0708,71.0437,0.0],[24.0812,71.0437,0.0],[24.0938,71.0479,0.0],[24.1,71.0479,0.0],[24.1036,71.0505,1.4452],[24.1021,71.0521,0.0],[24.0818,71.0526,0.0],[24.0776,71.0547,0.0],[24.0786,71.0578,0.0],[24.0755,71.0599,1.181],[24.0917,71.0625,0.0],[24.0958,71.0646,0.0],[24.1125,71.0646,0.0],[24.1167,71.0667,0.0],[24.1229,71.0667,0.0],[24.1437,71.0729,6.7278],[24.1516,71.0734,0.0],[24.15,71.075,1.0873]]],
[[[23.9938,71.0813,0.0],[23.9922,71.0797,3.0541],[23.9974,71.0797,0.9716],[23.9974,71.0807,0.0],[23.9938,71.0813,0.0]]],
[[[24.1729,71.0833,18.2123],[24.1771,71.0813,0.0],[24.1807,71.0818,0.0],[24.175,71.0854,22.1528],[24.1714,71.0849,18.8169],[24.1729,71.0833,18.2123]]],
[[[24.0729,71.0875,0.0],[24.0714,71.0859,0.879],[24.0766,71.0859,2.4765],[24.0766,71.087,1.1306],[24.0729,71.0875,0.0]]]]}}