{"type":"Feature","properties":{"GID_2":"NOR.18.5_1","GID_0":"NOR","country":"Norway","GID_1":"NOR.18_1","province":"Vest-Agder","NL_NAME_1":"NA","county":"Hægebostad","VARNAME_2":"NA","NL_NAME_2":"NA","TYPE_2":"Kommuner","ENGTYPE_2":"Municipality","CC_2":"NA","HASC_2":"NO.VA.HA","name":"Hægebostad.county"},
"geometry":{"type": "MultiPolygon","coordinates": [[[[7.1722,58.6745,745.0191],[7.1467,58.6719,876.0696],[7.1483,58.6675,822.8914],[7.1059,58.6632,778.2782],[7.1075,58.6588,804.9954],[7.0821,58.6562,793.1571],[7.0987,58.6122,689.3354],[7.0902,58.6113,720.5582],[7.0968,58.5937,691.4677],[7.0883,58.5928,576.2665],[7.0916,58.584,539.5063],[7.0832,58.5831,544.9686],[7.0881,58.5699,563.2657],[7.0797,58.5691,521.0467],[7.083,58.5603,408.143],[7.0745,58.5594,439.5164],[7.0778,58.5506,435.8879],[7.0694,58.5497,453.9011],[7.0743,58.5365,475.4312],[7.0659,58.5357,464.1837],[7.0725,58.5181,504.8372],[7.0809,58.5189,473.4522],[7.0974,58.4749,485.9656],[7.1059,58.4758,535.2326],[7.1141,58.4538,549.3718],[7.1225,58.4547,600.8962],[7.1242,58.4503,572.7825],[7.1326,58.4511,570.8258],[7.1359,58.4423,553.1661],[7.1275,58.4415,528.5771],[7.1291,58.4371,542.0425],[7.1122,58.4353,524.8003],[7.1139,58.4309,489.2321],[7.1055,58.4301,538.8351],[7.1104,58.4169,518.4235],[7.102,58.416,491.5],[7.1151,58.3808,411.6587],[7.1235,58.3817,446.4908],[7.1251,58.3773,490.0609],[7.1167,58.3764,423.8661],[7.12,58.3676,470.312],[7.1116,58.3667,443.4656],[7.1132,58.3623,449.9727],[7.1216,58.3632,425.7659],[7.1266,58.35,543.1887],[7.1181,58.3491,493.6568],[7.123,58.3359,515.5154],[7.1146,58.335,490.8202],[7.1326,58.2866,512.4205],[7.141,58.2875,487.4518],[7.1394,58.2919,550.2161],[7.1562,58.2936,443.4134],[7.1546,58.298,406.3065],[7.163,58.2989,397.7475],[7.1613,58.3033,395.5388],[7.1697,58.3042,426.194],[7.1681,58.3086,397.2946],[7.1849,58.3103,451.0065],[7.1833,58.3147,404.5068],[7.2001,58.3164,416.6451],[7.1985,58.3208,327.7679],[7.2069,58.3217,219.5685],[7.2085,58.3173,145.2296],[7.2169,58.3181,150.0399],[7.2202,58.3093,223.4966],[7.2286,58.3102,294.3829],[7.2302,58.3058,336.5885],[7.2554,58.3084,403.9677],[7.2538,58.3128,410.0107],[7.2622,58.3136,429.1058],[7.2874,58.3162,328.7169],[7.289,58.3118,328.4622],[7.2974,58.3126,359.4252],[7.2958,58.317,345.6919],[7.3042,58.3179,331.4886],[7.3026,58.3223,312.5133],[7.2942,58.3214,336.887],[7.2894,58.3347,328.3021],[7.2978,58.3355,397.4755],[7.2962,58.3399,378.5397],[7.313,58.3416,323.9736],[7.3098,58.3504,319.0138],[7.3182,58.3513,321.5915],[7.3101,58.3733,458.0967],[7.3186,58.3742,475.0115],[7.3153,58.383,497.0464],[7.3238,58.3838,456.5695],[7.3221,58.3882,464.9451],[7.3306,58.3891,421.3915],[7.3257,58.4023,399.2016],[7.3173,58.4014,377.2126],[7.3124,58.4146,539.4531],[7.3209,58.4155,498.9924],[7.3144,58.4331,471.5333],[7.3229,58.434,425.8347],[7.3196,58.4428,477.602],[7.3365,58.4445,439.3229],[7.3349,58.4489,374.8496],[7.3518,58.4506,302.829],[7.3502,58.455,319.2092],[7.367,58.4567,397.5223],[7.3541,58.4919,443.5926],[7.3626,58.4928,507.0189],[7.361,58.4972,413.3007],[7.3694,58.498,469.8729],[7.363,58.5156,399.4975],[7.3545,58.5148,349.5497],[7.3529,58.5192,264.4713],[7.3275,58.5166,507.3875],[7.3259,58.521,589.5093],[7.3174,58.5202,547.5787],[7.3142,58.529,592.285],[7.3057,58.5281,595.1617],[7.3009,58.5413,665.7321],[7.2924,58.5405,653.8071],[7.2908,58.5449,691.6696],[7.2823,58.544,638.6898],[7.2807,58.5484,595.9724],[7.2722,58.5476,637.7885],[7.2706,58.552,584.2004],[7.2621,58.5511,633.7791],[7.2588,58.5599,788.8149],[7.2673,58.5608,634.9672],[7.2624,58.574,714.6085],[7.2709,58.5749,649.5453],[7.2611,58.6013,802.4417],[7.2526,58.6004,799.2377],[7.2428,58.6268,719.1239],[7.2257999999999996,58.6251,647.6719],[7.2242,58.6295,779.8323],[7.2157,58.6287,663.1018],[7.2141,58.6331,708.1493],[7.2226,58.6339,788.272],[7.2176,58.6471,831.6255],[7.2091,58.6463,734.083],[7.2075,58.6507,740.4725],[7.1905,58.6489,804.1687],[7.1856,58.6621,754.9824],[7.1771,58.6613,840.858],[7.1722,58.6745,745.0191]]]]}}