{"type":"Feature","properties":{"GID_2":"NOR.16.10_1","GID_0":"NOR","country":"Norway","GID_1":"NOR.16_1","province":"Telemark","NL_NAME_1":"NA","county":"Notodden","VARNAME_2":"NA","NL_NAME_2":"NA","TYPE_2":"Kommuner","ENGTYPE_2":"Municipality","CC_2":"NA","HASC_2":"NO.TE.NT","name":"Notodden.county"},
"geometry":{"type": "MultiPolygon","coordinates": [[[[9.1891,59.8265,1156.7367],[9.1802,59.8258,1206.7131],[9.1817,59.8214,1258.0345],[9.1729,59.8206,1201.7949],[9.1758,59.8118,1232.4517],[9.1669,59.8111,1269.9158],[9.1684,59.8066,1262.0199],[9.1596,59.8059,1239.989],[9.1625,59.7971,1165.2312],[9.1537,59.7963,1198.0256],[9.1522,59.8007,1229.2355],[9.1258,59.7985,688.3284],[9.1287,59.7897,664.7677],[9.1199,59.789,656.7194],[9.1228,59.7801,542.8406],[9.1052,59.7786,373.6472],[9.1037,59.7831,331.6107],[9.0773,59.7808,341.8206],[9.0802,59.772,313.1749],[9.0714,59.7713,323.7802],[9.0728,59.7668,327.3942],[9.0288,59.7631,189.0],[9.0273,59.7676,189.0],[9.0185,59.7668,234.0725],[9.0082,59.7978,189.0],[9.017,59.7985,189.0],[9.0082,59.8251,189.0],[8.9993,59.8243,258.4213],[8.9964,59.8332,189.0],[8.9876,59.8324,189.0],[8.9861,59.8369,189.0],[8.9773,59.8361,189.0],[8.9758,59.8405,189.0],[8.9669,59.8398,189.0],[8.964,59.8486,189.0],[8.9552,59.8479,189.0],[8.9507,59.8612,189.0],[8.9419,59.8604,212.1767],[8.9389,59.8693,189.0],[8.9301,59.8685,217.3584],[8.9256,59.8818,189.0],[8.9167,59.881,189.0],[8.9123,59.8943,189.0],[8.9034,59.8936,190.1673],[8.9019,59.898,189.0],[8.8931,59.8972,355.2166],[8.8946,59.8928,553.4984],[8.8769,59.8913,1098.7183],[8.8784,59.8869,1151.973],[8.8696,59.8861,1165.8721],[8.8711,59.8817,1221.251],[8.8622,59.881,1243.192],[8.8667,59.8677,975.2244],[8.8491,59.8662,879.9989],[8.8506,59.8618,903.8766],[8.8329,59.8603,1095.0636],[8.8344,59.8558,1130.6936],[8.8079,59.8536,1020.0717],[8.8094,59.8491,1025.6609],[8.8183,59.8499,1049.0723],[8.8213,59.8411,941.535],[8.8301,59.8418,987.1651],[8.8316,59.8374,937.1734],[8.8404,59.8381,928.4484],[8.8509,59.8072,896.0793],[8.8597,59.8079,895.7888],[8.8642,59.7947,896.2928],[8.873,59.7954,896.0353],[8.8745,59.791,899.015],[8.8833,59.7917,896.2742],[8.8863,59.7829,902.0323],[8.8775,59.7822,903.9185],[8.8835,59.7645,903.7138],[8.8923,59.7652,984.2692],[8.8952,59.7564,761.6169],[8.8864,59.7556,680.2646],[8.8894,59.7468,781.4101],[8.8806,59.746,959.3292],[8.8851,59.7327,893.0447],[8.8939,59.7335,842.987],[8.8954,59.7291,777.9004],[8.9042,59.7298,855.6044],[8.9086,59.7166,675.3393],[8.8998,59.7158,679.1938],[8.9102,59.6848,717.4022],[8.9014,59.6841,635.8704],[8.9029,59.6797,555.1841],[8.8678,59.6767,364.2718],[8.8722,59.6634,303.4379],[8.881,59.6642,268.2787],[8.8825,59.6597,305.2983],[8.9001,59.6612,300.4292],[8.9088,59.662,328.6254],[8.9074,59.6664,436.6808],[8.9249,59.6679,608.2479],[8.9264,59.6635,446.7339],[8.944,59.665,616.4016],[8.9454,59.6605,595.8891],[8.963,59.662,494.7881],[8.9645,59.6576,479.2451],[8.982,59.6591,322.1429],[8.9835,59.6547,328.9585],[8.9923,59.6554,281.698],[8.9952,59.6466,242.8604],[9.004,59.6473,180.937],[9.0055,59.6429,168.6445],[9.0084,59.634,163.9124],[8.9996,59.6333,166.7276],[9.0128,59.5935,140.0545],[9.004,59.5927,159.4941],[9.0055,59.5883,338.4077],[8.9967,59.5876,354.191],[8.9982,59.5831,313.3177],[8.9895,59.5824,330.0262],[8.9909,59.578,363.3181],[8.9734,59.5765,410.681],[8.9749,59.5721,502.0911],[8.9574,59.5706,588.673],[8.9588,59.5662,785.9724],[8.9326,59.5639,931.4891],[8.934,59.5595,760.1603],[8.9165,59.558,656.9663],[8.918,59.5536,731.7069],[8.8918,59.5513,1060.885],[8.8932,59.5469,1092.7349],[8.8757,59.5454,1040.5986],[8.8772,59.541,1019.451],[8.8597,59.5395,940.283],[8.8612,59.535,800.8886],[8.8262,59.532,759.1491],[8.8248,59.5365,767.648],[8.7723,59.5319,847.5197],[8.7812,59.5054,1091.7748],[8.79,59.5061,1067.4445],[8.793,59.4973,1072.1453],[8.8104,59.4988,1102.1918],[8.8119,59.4944,1038.8236],[8.8206,59.4951,1071.3278],[8.8221,59.4907,1112.5167],[8.8571,59.4937,1185.9609],[8.8585,59.4893,1242.5092],[8.9022,59.4931,1117.4543],[8.9007,59.4975,1102.9065],[8.9444,59.5012,1055.3522],[8.9429,59.5057,1009.3003],[8.9866,59.5094,1031.1382],[8.9852,59.5138,839.9282],[9.0027,59.5153,505.6328],[8.9997,59.5241,605.7308],[9.0085,59.5249,519.5977],[9.0056,59.5337,662.5514],[9.0143,59.5345,653.3571],[9.0128,59.5389,684.9823],[9.0391,59.5411,509.5785],[9.0405,59.5367,550.8412],[9.0493,59.5374,511.1992],[9.0522,59.5286,684.7947],[9.061,59.5293,692.6381],[9.0624,59.5249,736.7887],[9.0886,59.5271,335.6719],[9.0872,59.5315,267.1559],[9.1222,59.5345,575.8708],[9.1236,59.5301,573.7501],[9.1324,59.5308,636.0873],[9.1338,59.5264,623.2205],[9.1426,59.5271,666.9781],[9.1512,59.5005,511.5514],[9.16,59.5013,610.2681],[9.1628,59.4924,532.2305],[9.1716,59.4932,502.8158],[9.173,59.4887,473.1526],[9.1992,59.4909,404.4886],[9.1949,59.5042,445.7175],[9.2124,59.5057,622.9222],[9.2139,59.5012,609.7706],[9.2313,59.5027,530.2165],[9.2328,59.4983,498.4285],[9.2415,59.499,382.6698],[9.2401,59.5034,465.3449],[9.2576,59.5049,403.5681],[9.2561,59.5093,408.5066],[9.2736,59.5108,360.3151],[9.2722,59.5152,323.8681],[9.2985,59.5174,15.5],[9.2999,59.5129,15.5],[9.3261,59.5151,88.3853],[9.3247,59.5195,219.9297],[9.3422,59.521,172.4673],[9.3408,59.5254,237.2279],[9.367,59.5275,235.6938],[9.3656,59.532,185.4323],[9.3831,59.5334,318.0657],[9.3817,59.5378,331.9387],[9.3905,59.5386,316.7136],[9.3891,59.543,410.2927],[9.4066,59.5444,378.6712],[9.4038,59.5533,502.4875],[9.4651,59.5583,664.5267],[9.4525,59.5981,517.9753],[9.4437,59.5974,552.821],[9.4324,59.6329,695.2169],[9.4236,59.6322,710.0084],[9.4109,59.672,544.433],[9.4021,59.6713,595.5701],[9.3965,59.689,679.0143],[9.3789,59.6876,717.0731],[9.3774,59.692,741.9968],[9.3687,59.6913,725.3502],[9.3672,59.6957,737.7411],[9.3496,59.6943,753.7675],[9.3482,59.6987,668.2783],[9.3306,59.6973,603.7888],[9.3292,59.7017,603.5449],[9.338,59.7024,596.8683],[9.3337,59.7157,599.8138],[9.3425,59.7164,540.6933],[9.3382,59.7297,455.5273],[9.347,59.7304,427.9314],[9.3442,59.7393,461.5396],[9.353,59.74,434.9119],[9.3487,59.7533,625.9192],[9.3575,59.754,649.6666],[9.3532,59.7673,690.903],[9.3621,59.768,716.0513],[9.3592,59.7769,722.5206],[9.368,59.7776,746.9202],[9.3666,59.782,739.7399],[9.3578,59.7813,723.6317],[9.3549,59.7902,731.7709],[9.3461,59.7894,746.2486],[9.3447,59.7939,767.4504],[9.3358,59.7932,782.4581],[9.3344,59.7976,765.7982],[9.3256,59.7969,782.9896],[9.3242,59.8013,795.3462],[9.3065,59.7998,854.5244],[9.3051,59.8043,849.0113],[9.2962,59.8035,867.1792],[9.2948,59.808,848.7809],[9.2772,59.8065,885.324],[9.2757,59.811,856.0259],[9.2581,59.8095,913.8993],[9.2566,59.8139,854.1947],[9.2478,59.8132,883.7213],[9.2464,59.8176,861.3705],[9.2287,59.8162,958.3807],[9.2273,59.8206,1006.9891],[9.2184,59.8199,1156.3645],[9.217,59.8243,1137.278],[9.1993,59.8228,1150.6576],[9.1979,59.8273,1156.8301],[9.1891,59.8265,1156.7367]]]]}}