{"type":"Feature","properties":{"GID_2":"NOR.8.13_1","GID_0":"NOR","country":"Norway","GID_1":"NOR.8_1","province":"MøreogRomsdal","NL_NAME_1":"NA","county":"Herøy","VARNAME_2":"NA","NL_NAME_2":"NA","TYPE_2":"Kommuner","ENGTYPE_2":"Municipality","CC_2":"NA","HASC_2":"NO.MR.HE","name":"Herøy.county"},
"geometry":{"type": "MultiPolygon","coordinates": [[[[5.55,62.2812,0.4889],[5.5495,62.278,0.249],[5.5672,62.2798,237.6945],[5.5693,62.2754,186.1915],[5.5788,62.2764,217.0962],[5.5809,62.272,270.2376],[5.5998,62.274,377.606],[5.6019,62.2696,310.9728],[5.6207,62.2715,226.7661],[5.6229,62.2672,230.4517],[5.6323,62.2681,220.1313],[5.6344,62.2638,353.8318],[5.6533,62.2657,308.2289],[5.6554,62.2613,331.4056],[5.6743,62.2633,570.1161],[5.6764,62.2589,544.5388],[5.6952,62.2608,570.8296],[5.6974,62.2565,529.0],[5.7068,62.2574,549.59],[5.7089,62.2531,544.9728],[5.7183,62.254,431.7446],[5.7267,62.2365,442.1199],[5.7362,62.2375,242.6906],[5.7446,62.22,291.1488],[5.754,62.2209,304.8362],[5.7561,62.2166,368.0252],[5.7655,62.2175,325.6641],[5.7676,62.2132,362.2032],[5.7864,62.2151,79.8815],[5.7881,62.2115,0.0],[5.7812,62.2083,0.0],[5.7854,62.2083,0.0],[5.7953,62.213,0.0],[5.7984,62.2203,0.0],[5.8042,62.2229,0.0],[5.812,62.2234,0.0],[5.8125,62.2313,0.0],[5.8141,62.2339,0.0],[5.8109,62.2359,0.0],[5.8099,62.2391,12.3304],[5.8042,62.2417,0.0],[5.788,62.2422,0.0],[5.7901,62.2516,0.0],[5.7953,62.2526,0.0],[5.7964,62.2557,0.0],[5.8036,62.2568,4.2872],[5.8036,62.2599,14.0275],[5.8005,62.262,0.0],[5.8094,62.2649,0.0],[5.8092,62.2676,22.8193],[5.8207,62.2699,14.9434],[5.8317,62.2779,0.0],[5.8358,62.2866,5.7121],[5.8339,62.287,0.0],[5.8292,62.2833,0.0],[5.8208,62.2875,42.4665],[5.8125,62.2875,10.1112],[5.8083,62.2854,12.1919],[5.8042,62.2854,0.0],[5.7958,62.2896,0.0],[5.7854,62.2896,0.0],[5.7771,62.2854,0.0],[5.7729,62.2875,14.9989],[5.7667,62.2875,0.0],[5.7625,62.2854,7.6594],[5.7417,62.2854,0.0],[5.7401,62.2859,0.0],[5.7401,62.2891,0.0],[5.7432,62.2901,0.0],[5.7443,62.2932,0.0],[5.75,62.2917,11.3452],[5.7578,62.2922,16.4297],[5.7464,62.2964,0.0],[5.75,62.3,0.0],[5.7495,62.3036,9.5883],[5.7464,62.3047,0.0],[5.7474,62.3078,0.0],[5.7396,62.3083,15.877],[5.7354,62.3104,0.0],[5.7271,62.3063,0.0],[5.7229,62.3063,0.0],[5.713,62.3089,0.0],[5.7104,62.3125,0.0],[5.7,62.3125,0.0],[5.6958,62.3146,0.0],[5.6792,62.3146,0.0],[5.6776,62.3141,12.299],[5.6755,62.3089,0.0],[5.6813,62.3063,0.0],[5.7083,62.3063,0.0],[5.7141,62.3036,11.6929],[5.7141,62.2964,0.0],[5.7021,62.2958,5.3749],[5.6937,62.3,0.0],[5.6854,62.3,9.3872],[5.6813,62.2979,0.0],[5.6542,62.2979,6.1127],[5.65,62.3,0.0],[5.6458,62.2979,13.0477],[5.6354,62.2979,0.0],[5.6313,62.2938,5.499],[5.6271,62.2958,0.0],[5.6167,62.2958,3.1049],[5.6125,62.2979,0.0],[5.6083,62.2979,0.0],[5.6042,62.2958,1.0337],[5.5854,62.2958,0.0],[5.5813,62.2938,23.0975],[5.5651,62.2932,2.0104],[5.5609,62.2911,4.5044],[5.5599,62.288,73.519],[5.5505,62.287,0.0],[5.55,62.2812,0.4889]]],
[[[5.4859,62.3193,21.8699],[5.4917,62.3187,0.0],[5.4958,62.3208,0.0],[5.5036,62.3214,0.0],[5.5047,62.3245,0.0],[5.512,62.3255,0.0],[5.5141,62.3307,5.7203],[5.5,62.3375,27.921],[5.4937,62.3333,347.9959],[5.4839,62.3328,81.9088],[5.4813,62.3292,0.0],[5.4813,62.3229,20.9019],[5.4859,62.3193,21.8699]]],
[[[5.6453,62.3693,76.4061],[5.6422,62.3693,59.5733],[5.6313,62.375,52.0595],[5.6271,62.375,68.3413],[5.6245,62.3714,139.1984],[5.6193,62.3703,111.4772],[5.6188,62.3667,37.024],[5.6193,62.3651,11.9014],[5.6292,62.3604,0.0],[5.6563,62.3604,0.0],[5.6604,62.3625,0.0],[5.6708,62.3625,0.0],[5.6724,62.3609,0.0],[5.6672,62.3578,0.0],[5.6672,62.3526,0.0],[5.6745,62.3516,20.9443],[5.687,62.3443,0.0],[5.6792,62.3417,0.6865],[5.6667,62.3458,35.1471],[5.6625,62.3458,23.1264],[5.6583,62.3438,133.7426],[5.6438,62.3438,60.2265],[5.6396,62.3417,3.5822],[5.6354,62.3438,0.0],[5.6313,62.3438,0.0],[5.6271,62.3417,4.7686],[5.6125,62.3396,0.0],[5.6068,62.3422,0.0],[5.6057,62.3453,0.0],[5.6026,62.3464,2.0406],[5.6016,62.3516,8.9345],[5.6,62.3521,0.0],[5.5958,62.3521,8.3986],[5.5917,62.3542,38.7819],[5.5672,62.3547,194.4984],[5.5641,62.3599,0.0],[5.5568,62.3609,4.2259],[5.5599,62.3641,0.0],[5.5568,62.3651,0.0],[5.5557,62.3703,0.0],[5.55,62.3729,136.9282],[5.5188,62.3667,106.315],[5.5109,62.3641,197.8977],[5.5104,62.3625,150.957],[5.5109,62.3609,0.0],[5.5224,62.3557,4.0682],[5.5229,62.3521,0.0],[5.5214,62.3484,35.3899],[5.5245,62.3474,181.8113],[5.5172,62.3432,139.4455],[5.5151,62.3401,0.0],[5.5224,62.337,0.0],[5.5234,62.3339,0.0],[5.5333,62.3292,0.0],[5.5375,62.3292,0.0],[5.5417,62.3312,0.0],[5.5521,62.3312,0.0],[5.5563,62.3333,0.651],[5.5708,62.3333,0.0],[5.575,62.3354,0.0],[5.5896,62.3354,0.0],[5.5979,62.3396,2.8831],[5.5995,62.3391,0.0],[5.6005,62.3339,0.0],[5.6036,62.3328,21.3897],[5.5984,62.3297,0.0],[5.6083,62.325,0.0],[5.6188,62.325,37.7898],[5.6271,62.3208,2.6465],[5.6354,62.3208,9.8088],[5.6396,62.3187,0.0],[5.6542,62.3187,0.0],[5.6583,62.3229,0.0],[5.6854,62.3229,5.1471],[5.6896,62.3208,0.0],[5.6979,62.3208,7.7945],[5.7021,62.3187,0.0],[5.7063,62.3208,3.1144],[5.7208,62.3208,0.0],[5.725,62.3167,0.0],[5.7276,62.3203,0.0],[5.737,62.3234,0.0],[5.737,62.3307,12.804],[5.7313,62.3312,0.0],[5.7292,62.3333,0.0],[5.7318,62.3411,15.5799],[5.7411,62.3443,0.0],[5.7422,62.3495,7.143],[5.7458,62.3521,0.0],[5.7443,62.3557,1.5982],[5.7474,62.3568,0.7574],[5.7443,62.3589,0.8245],[5.7432,62.3641,1.5177],[5.7417,62.3646,5.343],[5.7359,62.3641,53.803],[5.7271,62.3583,0.0],[5.7188,62.3583,16.9167],[5.713,62.3609,143.3333],[5.7104,62.3646,17.5944],[5.7063,62.3625,173.9369],[5.6958,62.3625,36.7501],[5.6917,62.3604,145.7581],[5.6875,62.3625,0.0],[5.6833,62.3625,0.0],[5.6776,62.3651,0.7867],[5.6786,62.3703,0.0],[5.6771,62.3708,0.0],[5.6479,62.3708,0.0],[5.6453,62.3693,76.4061]]],
[[[5.6125,62.4083,63.5836],[5.6062,62.4104,151.8848],[5.5896,62.4104,207.723],[5.5859,62.4068,0.0],[5.5932,62.4036,45.9816],[5.5943,62.4005,0.0],[5.6141,62.3911,26.8711],[5.6167,62.3875,4.6428],[5.6313,62.3875,0.0],[5.6354,62.3896,11.5586],[5.6396,62.3875,0.0],[5.6438,62.3875,0.0],[5.6599,62.3964,0.0],[5.6604,62.3979,0.0],[5.6568,62.4005,4.6027],[5.6578,62.4036,0.0],[5.6563,62.4042,12.3934],[5.6458,62.4,169.0287],[5.6417,62.4021,0.0],[5.6333,62.4021,20.2234],[5.625,62.4063,0.0],[5.6125,62.4083,63.5836]]]]}}