{"type": "Feature","bbox": [7.8693,62.7832,8.4485,63.1104],"geometry": {"type": "MultiPolygon","coordinates": [[[[8.381,62.8788,63.2891],[8.3792,62.8832,9.6048],[8.3811,62.8834,0.0],[8.3729,62.8875,0.0],[8.3547,62.8828,0.0],[8.3521,62.8792,0.0],[8.3401,62.8786,0.0],[8.3391,62.8734,0.0],[8.3313,62.8708,10.4389],[8.3234,62.8703,0.0],[8.3224,62.8672,0.0],[8.3167,62.8646,0.0],[8.3109,62.8672,0.0],[8.3109,62.8724,0.0],[8.3161,62.8734,0.0],[8.3172,62.8786,0.0],[8.3224,62.8797,0.0],[8.3234,62.8828,0.0],[8.3297,62.887,0.0],[8.3391,62.8901,0.0],[8.3391,62.8932,0.0],[8.3318,62.8984,39.6316],[8.3328,62.9036,0.0],[8.3255,62.9047,9.5068],[8.3245,62.9099,0.0],[8.3224,62.912,0.0],[8.3167,62.9146,0.0],[8.3109,62.9151,17.3284],[8.3042,62.9188,0.0],[8.2984,62.9193,3.9827],[8.2974,62.9224,0.0],[8.2901,62.9266,0.0],[8.2958,62.9292,0.0],[8.3036,62.9297,0.0],[8.3021,62.9313,0.0],[8.2964,62.9318,0.0],[8.2984,62.9391,7.3983],[8.3078,62.9401,0.0],[8.3089,62.9453,0.0],[8.3141,62.9464,0.0],[8.3151,62.9495,0.0],[8.3193,62.9516,0.0],[8.3271,62.9542,0.0],[8.3349,62.9547,0.0],[8.3349,62.9578,0.0],[8.3313,62.9604,30.0372],[8.3328,62.9661,0.0],[8.3208,62.9667,121.4264],[8.3193,62.9672,103.4107],[8.3203,62.9703,0.0],[8.313,62.9714,74.4406],[8.312,62.9745,0.0],[8.2917,62.9771,137.6683],[8.2818,62.9797,133.26],[8.275,62.9833,0.0],[8.2604,62.9771,0.0],[8.2479,62.9792,0.0],[8.2464,62.9797,0.0],[8.2464,62.9828,0.0],[8.2557,62.9859,0.0],[8.2557,62.9891,4.0866],[8.2526,62.9911,7.3116],[8.2578,62.9922,0.0],[8.2578,62.9953,0.0],[8.2521,62.9958,75.1519],[8.2437,63.0,59.4793],[8.2354,63.0,223.415],[8.2313,63.0021,98.2042],[8.2271,63.0,314.0146],[8.2208,63.0,245.0157],[8.2167,63.0042,119.7707],[8.2125,63.0021,313.4844],[8.2083,63.0021,282.2027],[8.2068,63.0036,237.1894],[8.2099,63.0057,66.0028],[8.2042,63.0062,109.1982],[8.1974,63.0099,0.0],[8.1917,63.0104,33.8635],[8.1859,63.013,47.4885],[8.187,63.0182,0.0],[8.1745,63.0245,28.2368],[8.1688,63.0229,160.9998],[8.1646,63.025,66.5908],[8.1542,63.025,8.4629],[8.1474,63.0286,0.0],[8.1401,63.0297,7.1985],[8.137,63.0349,0.0],[8.1339,63.0359,0.0],[8.1333,63.0417,0.0],[8.1349,63.0453,0.0],[8.1229,63.0458,0.0],[8.1214,63.0474,0.0],[8.1266,63.0505,0.0],[8.1292,63.0563,0.0],[8.1255,63.0589,0.0],[8.1255,63.062,0.0],[8.1318,63.0661,0.0],[8.1411,63.0693,0.0],[8.1432,63.0745,0.0],[8.1375,63.075,0.0],[8.1318,63.0776,0.0],[8.1354,63.0812,0.0],[8.1318,63.0839,0.0],[8.1328,63.087,0.0],[8.1271,63.0875,8.1285],[8.1172,63.0922,0.0],[8.112,63.0995,0.0],[8.1089,63.1005,0.0],[8.1104,63.1042,0.0],[8.1083,63.1063,0.0],[8.0979,63.1042,154.6561],[8.0854,63.1104,0.0],[8.0667,63.1104,0.0],[8.0625,63.1063,48.2666],[8.0563,63.1063,30.0224],[8.0521,63.1042,50.0159],[8.0375,63.1042,0.0],[8.0188,63.0979,51.9448],[8.013,63.0984,0.0],[8.0172,63.1016,30.8959],[8.0292,63.1042,0.0],[8.0328,63.1068,0.0],[8.0292,63.1083,3.8296],[7.9984,63.0995,42.2463],[8.0,63.0979,0.0],[8.0083,63.0979,0.0],[8.0099,63.0964,28.658],[8.0042,63.0938,27.8152],[7.9964,63.0932,0.0],[7.9896,63.0896,28.2019],[7.9818,63.0891,5.5801],[7.9776,63.087,7.8513],[7.9745,63.0818,46.021],[7.9693,63.0786,0.0],[7.9693,63.0755,52.9918],[7.9729,63.0729,20.6395],[7.9714,63.0693,0.0],[7.9745,63.0682,0.0],[7.9755,63.063,0.0],[7.9786,63.062,0.0],[7.9766,63.0568,90.7822],[7.9714,63.0536,0.0],[7.9745,63.0516,0.0],[7.9745,63.0464,8.1854],[7.9609,63.0432,0.0],[7.9563,63.0396,22.1287],[7.9521,63.0417,9.1609],[7.9292,63.0417,31.8477],[7.925,63.0396,47.3961],[7.9104,63.0396,0.0],[7.9089,63.0391,0.0],[7.9057,63.0318,15.9603],[7.9026,63.0307,0.0],[7.9099,63.0276,202.4345],[7.8938,63.0271,0.0],[7.8859,63.0245,0.574],[7.8854,63.0229,0.0],[7.8859,63.0214,0.0],[7.8932,63.0182,8.3771],[7.8922,63.0151,0.0],[7.9016,63.0141,16.487],[7.8901,63.0078,0.0],[7.8938,63.0042,0.0],[7.8901,63.0005,0.0],[7.8922,62.9964,45.7981],[7.8953,62.9953,11.4813],[7.8953,62.9922,49.1996],[7.8818,62.9911,1.9453],[7.8833,62.9896,12.1063],[7.8917,62.9896,28.9134],[7.8958,62.9875,0.0],[7.9104,62.9938,38.5374],[7.9542,62.9979,0.0],[7.9578,63.0005,0.0],[7.9589,63.0036,0.0],[7.9693,63.0099,0.0],[7.987,63.013,0.0],[7.9891,63.0151,0.0],[7.9901,63.0203,0.0],[7.9979,63.0229,0.0],[8.0078,63.0203,7.6974],[8.0021,63.0167,11.7452],[7.9943,63.0161,0.0],[7.9911,63.0089,0.0],[7.988,63.0068,0.0],[7.9995,63.0057,6.578],[7.9984,62.9984,0.0],[8.0104,63.0,24.8685],[8.0245,62.9953,0.0],[8.0255,62.9922,0.0],[8.0328,62.9911,0.0],[8.0318,62.988,0.0],[8.0432,62.9828,0.0],[8.0443,62.9797,0.0],[8.0474,62.9786,20.229],[8.0505,62.9734,0.0],[8.0625,62.9729,0.0],[8.0667,62.975,12.3853],[8.0693,62.9714,0.0],[8.0766,62.9703,0.0],[8.0776,62.9651,0.0],[8.0958,62.9625,0.0],[8.1068,62.9568,0.0],[8.1141,62.9557,0.0],[8.1151,62.9526,0.0],[8.1208,62.9521,6.8436],[8.1276,62.9484,0.0],[8.1333,62.9479,5.9165],[8.1391,62.9453,12.7184],[8.138,62.938,0.0],[8.1438,62.9354,0.0],[8.1495,62.9349,0.0],[8.1484,62.9297,0.0],[8.1521,62.9271,44.7524],[8.1505,62.9193,0.0],[8.1578,62.9161,0.0],[8.1526,62.912,0.0],[8.1526,62.9089,7.8726],[8.1583,62.9104,0.0],[8.1875,62.9104,0.0],[8.1958,62.9146,18.1753],[8.1995,62.9141,7.7815],[8.2026,62.9089,0.0],[8.2057,62.9068,44.9506],[8.1938,62.9063,0.0],[8.1854,62.9021,0.5151],[8.175,62.9021,0.0],[8.1708,62.9,0.0],[8.1646,62.9,0.0],[8.163,62.8995,0.0],[8.162,62.8943,68.2237],[8.1526,62.8932,0.0],[8.1505,62.8891,0.0],[8.1578,62.8849,7.7218],[8.1583,62.8812,11.4444],[8.1568,62.8776,0.0],[8.1599,62.8766,0.0],[8.1609,62.8734,0.0],[8.1646,62.8708,20.9554],[8.162,62.8609,0.0],[8.1568,62.8568,0.0],[8.1641,62.8536,54.1768],[8.163,62.8505,0.0],[8.1766,62.8495,63.6783],[8.175,62.8458,0.0],[8.1755,62.8422,0.0],[8.1786,62.8411,3.3399],[8.1807,62.837,0.0],[8.1849,62.8349,0.0],[8.1859,62.8318,0.0],[8.1891,62.8307,18.7355],[8.1901,62.8276,0.0],[8.2083,62.8229,0.0],[8.2167,62.8229,0.0],[8.2292,62.8167,0.0],[8.2391,62.8161,100.8914],[8.2401,62.813,0.0],[8.2432,62.812,0.0],[8.2458,62.8083,0.0],[8.2542,62.8083,0.0],[8.2583,62.8104,33.0866],[8.2625,62.8083,0.0],[8.2771,62.8083,0.0],[8.2813,62.8063,0.0],[8.3083,62.8063,172.0494],[8.3182,62.8036,0.0],[8.325,62.8,0.0],[8.3307,62.7995,0.0],[8.3315,62.7972,0.0],[8.3624,62.7998,805.2835],[8.3641,62.7954,748.3578],[8.3835,62.7969,761.6094],[8.3852,62.7925,729.4069],[8.3949,62.7933,789.7698],[8.3967,62.7889,781.5119],[8.416,62.7905,834.1081],[8.4178,62.7861,957.8852],[8.4352,62.7875,801.6552],[8.4389,62.7832,1076.1205],[8.4485,62.784,980.7921],[8.4468,62.7884,1043.7032],[8.4408,62.7879,917.0691],[8.4363,62.7898,820.0143],[8.4249,62.8186,974.9901],[8.4152,62.8178,946.7852],[8.4047,62.8443,226.4343],[8.3853,62.8427,377.9899],[8.3836,62.8471,446.5861],[8.3739,62.8463,564.8054],[8.3721,62.8507,613.4638],[8.3624,62.8499,565.1353],[8.3607,62.8544,500.9781],[8.351,62.8536,545.3832],[8.3474,62.8624,367.9005],[8.3571,62.8632,394.0637],[8.3554,62.8676,253.1764],[8.3748,62.8692,360.215],[8.373,62.8736,333.7025],[8.3827,62.8744,257.7507],[8.381,62.8788,63.2891]]],
[[[7.8693,63.0151,0.0],[7.8729,63.0146,9.7729],[7.8745,63.0161,12.2236],[7.8708,63.0167,1.8378],[7.8693,63.0151,0.0]]],
[[[7.9443,63.0547,30.3501],[7.9479,63.0542,0.0],[7.9495,63.0557,0.0],[7.9458,63.0563,18.2055],[7.9443,63.0547,30.3501]]],
[[[7.9589,63.0901,33.4207],[7.9667,63.0896,0.0],[7.9708,63.0917,19.5782],[7.975,63.0917,0.0],[7.9786,63.0953,0.0],[7.9755,63.0964,0.0],[7.9745,63.1016,5.2866],[7.9729,63.1021,0.0],[7.9609,63.0974,5.8624],[7.9589,63.0901,33.4207]]]]}
,"properties": {"GID_2": "NOR.8.33_1","GID_0": "NOR","country": "Norway","GID_1": "NOR.8_1","province": "MøreogRomsdal","NL_NAME_1": "NA","county": "Tingvoll","VARNAME_2": "NA","NL_NAME_2": "NA","TYPE_2": "Kommuner","ENGTYPE_2": "Municipality","CC_2": "NA","HASC_2": "NO.MR.TI","name": "Tingvoll.county","area_km2": 336.1921,"hist_schema_id": "Elevation0-9000","hist_area_km2": {"0": 19.9926,"25": 21.7848,"50": 23.7285,"75": 30.1185,"100": 25.3711,"125": 18.5991,"150": 15.6678,"175": 16.3614,"200": 14.3885,"225": 15.247,"250": 14.6358,"275": 14.5088,"300": 12.6737,"325": 12.0586,"350": 11.5615,"375": 9.9534,"400": 8.8158,"425": 7.9602,"450": 6.7267,"475": 6.997,"500": 6.2334,"525": 4.4975,"550": 3.5141,"575": 2.7407,"600": 2.0269,"625": 1.7376,"650": 1.3622,"675": 0.6973,"700": 0.688,"725": 0.5329,"750": 0.5426,"775": 0.9789,"800": 0.6784,"825": 0.3974,"850": 0.2714,"875": 0.2423,"900": 0.1744,"925": 0.2326,"950": 0.2132,"975": 0.281,"1000": 0.3198,"1025": 0.3101,"1050": 0.1356,"1075": 0.1163,"1100": 0.0969,"1125": 0.0194}}}