{"type": "Feature","bbox": [10.13,63.5255,10.9767,63.7945],"geometry": {"type": "MultiPolygon","coordinates": [[[[10.6643,63.7945,357.7119],[10.6039,63.7906,281.853],[10.6053,63.7862,323.4392],[10.5852,63.7849,389.069],[10.5867,63.7805,397.416],[10.5565,63.7785,272.5919],[10.558,63.7741,434.9353],[10.5379,63.7728,357.6944],[10.5394,63.7684,432.0703],[10.5193,63.7671,454.5909],[10.5208,63.7626,431.5683],[10.5007,63.7613,438.1645],[10.5021,63.7569,436.215],[10.482,63.7556,391.8944],[10.4835,63.7511,354.5313],[10.4634,63.7498,390.7831],[10.4649,63.7454,434.6579],[10.4348,63.7434,261.996],[10.4363,63.739,337.9048],[10.4263,63.7383,257.0375],[10.4278,63.7339,433.3981],[10.4177,63.7332,407.3065],[10.4192,63.7288,345.8192],[10.4092,63.7282,279.5075],[10.4107,63.7237,301.7831],[10.4007,63.7231,233.5753],[10.4022,63.7186,251.7508],[10.3821,63.7173,224.7585],[10.3836,63.7129,342.5406],[10.3736,63.7122,326.874],[10.3751,63.7078,283.6958],[10.3651,63.7071,319.1882],[10.3666,63.7027,389.2207],[10.3465,63.7013,304.0026],[10.348,63.6969,397.5133],[10.328,63.6956,301.4478],[10.3295,63.6911,491.9483],[10.3095,63.6898,335.8727],[10.311,63.6854,458.8987],[10.2909,63.6841,365.6056],[10.2924,63.6796,457.6242],[10.2724,63.6783,368.6283],[10.2739,63.6738,406.5175],[10.2539,63.6725,228.596],[10.2554,63.6681,331.7465],[10.2354,63.6667,285.7097],[10.2369,63.6623,222.6283],[10.2069,63.6603,241.112],[10.21,63.6514,188.1344],[10.2,63.6508,185.4546],[10.203,63.6419,127.76],[10.193,63.6412,131.0545],[10.1961,63.6323,129.3309],[10.1861,63.6317,144.7649],[10.1876,63.6272,153.0972],[10.1776,63.6265,142.4935],[10.1807,63.6177,127.9847],[10.1707,63.617,128.6842],[10.1738,63.6081,206.122],[10.1638,63.6074,146.4522],[10.1653,63.603,128.5939],[10.1553,63.6023,188.0135],[10.1569,63.5979,135.2232],[10.1469,63.5972,231.554],[10.1484,63.5928,131.7852],[10.1384,63.5921,150.5181],[10.14,63.5877,141.5575],[10.13,63.587,143.8858],[10.1408,63.5559,219.8475],[10.1507,63.5566,240.9599],[10.1615,63.5255,67.0693],[10.1729,63.5271,0.0],[10.1812,63.5313,76.594],[10.1875,63.5313,0.0],[10.1953,63.5339,0.0],[10.2057,63.5401,0.0],[10.2078,63.5422,0.0],[10.2089,63.5474,23.1505],[10.2141,63.5484,0.0],[10.2151,63.5516,6.2688],[10.2229,63.5542,9.3491],[10.2333,63.5542,0.0],[10.2375,63.5563,36.2798],[10.2479,63.5563,77.654],[10.2521,63.5542,0.0],[10.2563,63.5542,0.0],[10.2604,63.5563,55.414],[10.2937,63.5563,11.0906],[10.2979,63.5542,0.0],[10.3083,63.5542,0.0],[10.3109,63.5578,21.9523],[10.3224,63.5609,0.0],[10.3292,63.5646,59.0665],[10.3411,63.5651,0.0],[10.3443,63.5703,0.0],[10.3562,63.575,76.4556],[10.3667,63.575,13.1506],[10.3708,63.5729,0.0],[10.3938,63.5729,4.8833],[10.4062,63.5687,0.0],[10.4167,63.5687,0.0],[10.4245,63.5714,0.0],[10.4167,63.5771,33.724],[10.4193,63.5807,0.0],[10.4245,63.5839,0.0],[10.4255,63.587,0.0],[10.4417,63.5917,32.3378],[10.4479,63.5917,0.0],[10.462,63.5964,0.0],[10.4646,63.6,0.0],[10.4917,63.6042,0.0],[10.4943,63.6078,0.0],[10.4984,63.6099,34.3688],[10.5063,63.6104,0.0],[10.5125,63.6146,30.3858],[10.5203,63.6151,0.0],[10.5214,63.6182,24.399],[10.5333,63.6229,0.0],[10.5396,63.6208,0.0],[10.5437,63.625,0.0],[10.5583,63.625,0.0],[10.5724,63.6297,0.0],[10.5734,63.6328,0.0],[10.5786,63.6339,0.0],[10.5797,63.637,68.9529],[10.5891,63.638,0.0],[10.5901,63.6411,31.7244],[10.6057,63.6464,0.0],[10.6078,63.6485,0.0],[10.612,63.6609,0.0],[10.6089,63.6641,0.0],[10.6141,63.6651,0.0],[10.6151,63.6682,4.6245],[10.6375,63.675,15.4842],[10.6687,63.6771,0.0],[10.6755,63.6807,0.0],[10.687,63.6839,0.0],[10.6896,63.6875,16.084],[10.6958,63.6875,0.0],[10.7042,63.6917,0.0],[10.7104,63.6937,0.0],[10.7167,63.6937,0.0],[10.7208,63.6958,13.3312],[10.7312,63.6958,0.0],[10.7354,63.6979,0.0],[10.7417,63.6979,0.0],[10.7495,63.7005,0.0],[10.7521,63.7042,70.2248],[10.7625,63.7042,0.0],[10.7771,63.7083,3.8964],[10.7979,63.7083,0.0],[10.8125,63.7125,24.7046],[10.8188,63.7125,0.0],[10.8229,63.7146,99.1129],[10.8333,63.7146,0.0],[10.8375,63.7167,8.3924],[10.8438,63.7167,0.0],[10.8583,63.7229,94.8904],[10.8646,63.7229,0.0],[10.8687,63.725,2.232],[10.8792,63.725,0.0],[10.8833,63.7271,68.3525],[10.9,63.7292,0.0],[10.9083,63.7333,10.6453],[10.9208,63.7333,0.0],[10.925,63.7354,22.9375],[10.9292,63.7354,0.0],[10.9536,63.7443,0.0],[10.9547,63.7474,59.3577],[10.9599,63.7484,0.0],[10.963,63.7557,30.7457],[10.9682,63.7568,0.0],[10.9693,63.7599,0.0],[10.9745,63.7609,0.0],[10.9767,63.7655,0.0],[10.9645,63.7582,108.7649],[10.9446,63.742,5.5853],[10.8791,63.731,139.9981],[10.8416,63.723,257.5908],[10.8283,63.764,408.0147],[10.8183,63.7633,446.3935],[10.8168,63.7678,440.6525],[10.8068,63.7672,438.9938],[10.8053,63.7716,388.8553],[10.7953,63.771,371.7601],[10.7938,63.7754,213.5],[10.7838,63.7748,213.5],[10.7823,63.7792,213.5],[10.7722,63.7786,213.5],[10.7708,63.7831,276.735],[10.7607,63.7824,239.5893],[10.7593,63.7869,213.5],[10.7391,63.7856,213.5],[10.7377,63.7901,213.5],[10.7075,63.7881,321.9606],[10.706,63.7926,343.0089],[10.6657,63.79,490.1519],[10.6643,63.7945,357.7119]]]]}
,"properties": {"GID_2": "NOR.9.8_1","GID_0": "NOR","country": "Norway","GID_1": "NOR.9_1","province": "Nord-Trøndelag","NL_NAME_1": "NA","county": "Leksvik","VARNAME_2": "NA","NL_NAME_2": "NA","TYPE_2": "Kommuner","ENGTYPE_2": "Municipality","CC_2": "NA","HASC_2": "NO.NT.LK","name": "Leksvik.county","area_km2": 450.2644,"hist_schema_id": "Elevation0-9000","hist_area_km2": {"0": 4.2267,"25": 3.7584,"50": 3.72,"75": 4.5668,"100": 4.9814,"125": 22.5874,"150": 14.4552,"175": 13.8678,"200": 16.2657,"225": 32.8843,"250": 35.9697,"275": 39.0706,"300": 43.1196,"325": 41.8343,"350": 43.5671,"375": 41.5532,"400": 32.4651,"425": 21.9641,"450": 13.4012,"475": 8.4264,"500": 4.3219,"525": 2.3346,"550": 0.7722,"575": 0.1414,"600": 0.0094}}}