{"type": "Feature","bbox": [12.4505,66.3934,13.8676,66.8208],"geometry": {"type": "MultiPolygon","coordinates": [[[[13.2195,66.4059,830.539],[13.2207,66.4014,869.0242],[13.2318,66.4019,891.2133],[13.233,66.3974,753.9481],[13.2441,66.3979,1008.0099],[13.2453,66.3934,767.5214],[13.2899,66.3953,308.545],[13.2887,66.3997,787.6619],[13.311,66.4006,764.5064],[13.3074,66.4141,716.2801],[13.3186,66.4145,734.8038],[13.3174,66.419,724.9937],[13.3397,66.4199,774.1162],[13.3385,66.4244,766.6357],[13.372,66.4258,833.0668],[13.3708,66.4302,924.3473],[13.3931,66.4312,800.1121],[13.392,66.4356,889.5986],[13.4031,66.4361,845.2335],[13.402,66.4406,857.175],[13.4243,66.4415,736.0433],[13.4231,66.4459,812.8608],[13.4454,66.4468,651.4226],[13.4443,66.4513,692.026],[13.4555,66.4518,663.3182],[13.4543,66.4562,647.2875],[13.499,66.458,477.8192],[13.5001,66.4536,423.8246],[13.5336,66.4549,1021.8071],[13.5348,66.4504,1005.3578],[13.5683,66.4518,817.5814],[13.5672,66.4563,1055.1562],[13.6789,66.4606,665.246],[13.6778,66.4651,820.907],[13.7113,66.4664,528.287],[13.7102,66.4709,606.4359],[13.7438,66.4722,397.9917],[13.7426,66.4767,386.0],[13.765,66.4775,448.7739],[13.7628,66.4865,407.2198],[13.7964,66.4878,291.7199],[13.7975,66.4833,356.4754],[13.8199,66.4842,350.2145],[13.8166,66.4976,837.2627],[13.8277,66.498,833.206],[13.8233,66.5159,685.8361],[13.8346,66.5164,472.412],[13.8324,66.5253,586.3503],[13.8211,66.5249,492.365],[13.8189,66.5338,589.8216],[13.8077,66.5334,595.6044],[13.8066,66.5379,687.6951],[13.7842,66.537,713.5715],[13.7809,66.5505,1100.4897],[13.7921,66.5509,942.0058],[13.7899,66.5598,1010.3278],[13.8011,66.5603,1077.9252],[13.7989,66.5692,1306.3175],[13.8101,66.5696,1231.0389],[13.809,66.5741,1377.802],[13.8202,66.5745,1335.6798],[13.818,66.5835,904.7552],[13.8293,66.5839,891.212],[13.8281,66.5884,861.5897],[13.8394,66.5888,810.5308],[13.8372,66.5978,1117.0665],[13.8484,66.5982,1143.5638],[13.8462,66.6072,1261.4484],[13.8575,66.6076,1301.3756],[13.8564,66.6121,1334.9811],[13.8676,66.6125,1343.1166],[13.8643,66.6259,1441.7339],[13.8418,66.6251,1385.2058],[13.8407,66.6295,1408.0497],[13.8295,66.6291,1409.0745],[13.8283,66.6336,1398.4952],[13.8171,66.6332,1409.4932],[13.816,66.6376,1387.2316],[13.7935,66.6368,1362.184],[13.7924,66.6413,1318.6779],[13.7811,66.6408,1304.595],[13.78,66.6453,1282.4479],[13.7575,66.6444,1199.7378],[13.7563,66.6489,1175.9109],[13.7451,66.6485,1149.1533],[13.744,66.653,1075.7634],[13.7327,66.6525,1056.6743],[13.7316,66.657,991.8747],[13.6527,66.654,784.2535],[13.6516,66.6584,650.9702],[13.6403,66.658,651.173],[13.638,66.667,865.1247],[13.6268,66.6665,772.3908],[13.6256,66.671,824.9956],[13.6144,66.6705,427.9814],[13.6132,66.675,632.2886],[13.6019,66.6746,368.6467],[13.6008,66.6791,589.8309],[13.5557,66.6773,270.2886],[13.5545,66.6818,636.6201],[13.532,66.6809,696.9462],[13.5308,66.6853,755.0219],[13.5196,66.6849,637.769],[13.5184,66.6894,781.8994],[13.5071,66.6889,614.3741],[13.506,66.6934,670.4443],[13.4947,66.6929,551.6778],[13.4935,66.6974,455.8251],[13.4822,66.697,297.6918],[13.4811,66.7014,167.1913],[13.4585,66.7005,64.0502],[13.4573,66.705,51.1437],[13.446,66.7046,174.7452],[13.4449,66.709,310.5394],[13.411,66.7077,104.7724],[13.4098,66.7122,203.741],[13.3872,66.7112,159.4395],[13.3814,66.7333,38.6761],[13.3604,66.7333,0.0],[13.3563,66.7312,43.261],[13.3521,66.7333,0.0],[13.3458,66.7333,0.0],[13.3417,66.7312,43.3612],[13.3188,66.7312,0.0],[13.3146,66.7333,0.0],[13.2875,66.7333,30.8932],[13.2833,66.7354,0.0],[13.2771,66.7333,19.0807],[13.2729,66.7354,0.0],[13.2667,66.7354,0.0],[13.2563,66.7312,10.8832],[13.2271,66.7292,0.0],[13.2193,66.7266,0.0],[13.2161,66.7234,6.4892],[13.2047,66.7193,6.3875],[13.2078,66.7182,9.1686],[13.2104,66.7146,0.0],[13.2354,66.7146,4.6174],[13.2396,66.7125,0.0],[13.25,66.7125,0.0],[13.2542,66.7104,0.0],[13.262,66.7099,0.0],[13.2688,66.7063,0.0],[13.2792,66.7104,3.3336],[13.2854,66.7104,6.0847],[13.287,66.7099,13.0515],[13.287,66.7068,6.5143],[13.2755,66.7057,0.0],[13.2755,66.7026,0.0],[13.2891,66.7016,0.0],[13.2932,66.6995,24.6068],[13.2917,66.6958,0.0],[13.2938,66.6937,0.0],[13.3292,66.6937,0.0],[13.3333,66.6917,0.0],[13.3708,66.6917,0.0],[13.375,66.6896,0.0],[13.4021,66.6896,39.738],[13.4146,66.6854,0.0],[13.4458,66.6854,0.0],[13.4557,66.6807,0.0],[13.4583,66.6771,16.0007],[13.5,66.6771,73.4903],[13.5099,66.6745,11.2234],[13.5167,66.6708,9.094],[13.5271,66.6708,0.0],[13.5313,66.6687,0.0],[13.5391,66.6682,42.8806],[13.5432,66.6661,71.0932],[13.538,66.663,0.0],[13.5411,66.662,30.4492],[13.5401,66.6589,0.0],[13.5432,66.6578,0.0],[13.5443,66.6547,0.0],[13.5583,66.65,0.0],[13.5646,66.65,0.0],[13.5661,66.6484,0.0],[13.5625,66.6458,40.6435],[13.5417,66.6458,0.0],[13.5375,66.6479,0.0],[13.5271,66.6479,0.0],[13.5229,66.65,0.0],[13.5151,66.6505,0.0],[13.5266,66.6547,11.9292],[13.5286,66.6568,0.0],[13.5271,66.6583,0.0],[13.5208,66.6563,0.0],[13.5104,66.6563,15.3921],[13.5063,66.6583,0.0],[13.4938,66.6583,89.7717],[13.4896,66.6563,266.7281],[13.4771,66.6563,196.9239],[13.4708,66.6521,506.0551],[13.4693,66.6526,506.0551],[13.4693,66.6557,213.69],[13.4714,66.6578,117.6409],[13.4766,66.6589,50.1285],[13.4786,66.662,0.0],[13.4604,66.6625,0.0],[13.4563,66.6646,0.0],[13.4464,66.662,32.5031],[13.4557,66.6589,137.3017],[13.4458,66.6583,271.0788],[13.4313,66.6542,895.1252],[13.4229,66.6542,308.0141],[13.4187,66.6521,348.313],[13.4161,66.6557,72.6014],[13.4089,66.6568,0.0],[13.4021,66.6604,0.0],[13.3854,66.6604,19.0904],[13.3786,66.6641,0.0],[13.3714,66.6651,0.0],[13.3703,66.6682,0.0],[13.3646,66.6708,0.0],[13.3604,66.6687,67.5272],[13.3479,66.6687,7.3889],[13.3438,66.6667,20.5125],[13.3313,66.6667,38.5493],[13.3271,66.6687,0.0],[13.3193,66.6693,0.0],[13.3125,66.6729,13.7348],[13.2896,66.6646,548.496],[13.2833,66.6646,343.5349],[13.275,66.6687,18.5761],[13.2688,66.6687,0.0],[13.2625,66.6667,9.3467],[13.2583,66.6687,0.0],[13.2438,66.6687,10.4362],[13.238,66.6713,0.0],[13.237,66.6745,0.0],[13.2297,66.6755,0.0],[13.2297,66.6787,12.6777],[13.2349,66.6807,0.0],[13.2271,66.6813,0.0],[13.2245,66.6776,7.3014],[13.1984,66.6703,0.0],[13.1953,66.6651,56.0208],[13.1813,66.6646,0.0],[13.1771,66.6625,10.8194],[13.1693,66.662,2.2237],[13.1672,66.6599,0.0],[13.1672,66.6568,0.0],[13.1792,66.6563,48.6785],[13.1859,66.6526,0.0],[13.1932,66.6516,0.0],[13.1943,66.6484,6.7628],[13.201599999999999,66.6474,12.0041],[13.2026,66.6443,0.0],[13.2057,66.6432,0.0],[13.2047,66.6401,0.0],[13.2104,66.6375,0.0],[13.2182,66.637,0.0],[13.2167,66.6354,5.7187],[13.2109,66.6349,0.0],[13.2167,66.6312,0.0],[13.2245,66.6318,15.1845],[13.2292,66.6354,3.9887],[13.2583,66.6354,0.0],[13.2625,66.6375,13.161],[13.275,66.6375,0.0],[13.2917,66.6438,8.3144],[13.325,66.6438,26.676],[13.3292,66.6417,0.0],[13.35,66.6417,0.0],[13.3542,66.6396,0.0],[13.3646,66.6396,51.2328],[13.3688,66.6375,0.0],[13.3792,66.6375,25.8082],[13.3807,66.6359,0.0],[13.3667,66.6354,9.3565],[13.3625,66.6333,0.0],[13.3333,66.6333,13.3568],[13.3292,66.6354,0.0],[13.3229,66.6333,0.0],[13.3146,66.6375,0.0],[13.3104,66.6354,33.7187],[13.2979,66.6354,13.3362],[13.2943,66.6318,0.0],[13.3141,66.6307,0.0],[13.312,66.6255,0.0],[13.2979,66.625,40.2295],[13.2854,66.6292,0.0],[13.2771,66.6292,0.0],[13.2771,66.6271,0.0],[13.2807,66.6266,32.0718],[13.2891,66.6214,0.0],[13.2833,66.6167,0.0],[13.2672,66.6214,11.9019],[13.2682,66.6245,0.0],[13.2604,66.625,0.0],[13.2526,66.6224,0.0],[13.2495,66.6193,18.2992],[13.2443,66.6182,0.0],[13.2432,66.6151,0.0],[13.2318,66.6141,0.0],[13.2318,66.6109,13.4118],[13.2349,66.6099,10.2489],[13.2339,66.6068,0.0],[13.2453,66.6005,6.6664],[13.2375,66.6,0.0],[13.2333,66.6021,0.0],[13.2234,66.5995,0.0],[13.2167,66.5854,0.0],[13.2172,66.5839,0.0],[13.2255,66.5797,465.563],[13.2417,66.5771,555.798],[13.2432,66.5755,668.4913],[13.2354,66.5729,879.457],[13.2292,66.5729,731.5212],[13.225,66.5771,581.7323],[13.2146,66.5771,41.7751],[13.2083,66.5729,18.4416],[13.1958,66.5729,19.6317],[13.1911,66.5693,8.7559],[13.1859,66.5682,9.4357],[13.201599999999999,66.5599,22.907],[13.2026,66.5568,0.0],[13.2146,66.5563,13.9815],[13.2188,66.5583,36.7112],[13.2312,66.5583,26.342],[13.2328,66.5578,37.1396],[13.2318,66.5547,0.0],[13.2333,66.5542,0.0],[13.2438,66.5542,25.6313],[13.2479,66.5521,0.0],[13.2646,66.5521,66.0535],[13.2688,66.55,0.0],[13.2938,66.5479,0.0],[13.325,66.5583,16.9282],[13.3375,66.5583,0.0],[13.3479,66.5625,63.6946],[13.3521,66.5604,0.0],[13.3583,66.5604,0.0],[13.3646,66.5625,90.371],[13.3688,66.5604,0.0],[13.3938,66.5604,19.8414],[13.4,66.5583,0.0],[13.4042,66.5604,26.7614],[13.4229,66.5604,0.0],[13.4271,66.5625,19.8842],[13.4333,66.5604,0.0],[13.4375,66.5625,90.2091],[13.4542,66.5625,0.0],[13.4589,66.5661,0.0],[13.4641,66.5672,0.0],[13.4672,66.5745,0.0],[13.4932,66.5839,0.0],[13.4984,66.5911,0.0],[13.5063,66.5938,32.5752],[13.5333,66.5938,0.0],[13.538,66.5974,0.0],[13.5432,66.5984,0.0],[13.5464,66.6016,0.0],[13.5667,66.6083,0.0],[13.5708,66.6062,0.0],[13.5771,66.6062,0.0],[13.5813,66.6083,0.0],[13.6,66.6104,0.0],[13.6099,66.6078,0.0],[13.6099,66.6047,0.0],[13.5896,66.6042,0.0],[13.575,66.6,89.3504],[13.5625,66.6,48.2694],[13.5583,66.5958,0.0],[13.5589,66.5943,35.0933],[13.5646,66.5917,223.6728],[13.5813,66.5938,332.9831],[13.5911,66.5901,706.713],[13.5833,66.5875,794.0902],[13.5771,66.5896,652.4234],[13.5708,66.5896,431.5994],[13.5682,66.5859,675.1865],[13.5646,66.5854,723.9687],[13.5547,66.588,479.3409],[13.5557,66.5932,81.9462],[13.5521,66.5938,34.4592],[13.538,66.5891,0.0],[13.5354,66.5833,106.9218],[13.5391,66.5807,306.5203],[13.5375,66.5792,393.9047],[13.5297,66.5797,338.5075],[13.5307,66.5849,0.0],[13.5188,66.5854,62.4134],[13.5125,66.5875,0.0],[13.4985,66.5828,0.0],[13.5021,66.5792,94.6924],[13.4995,66.5755,0.0],[13.488,66.5745,106.2504],[13.4818,66.5724,24.8714],[13.4792,66.5687,149.7856],[13.4714,66.5703,0.0],[13.4693,66.5682,0.0],[13.4693,66.5651,9.5345],[13.4724,66.5641,27.6991],[13.4714,66.5609,0.0],[13.4729,66.5604,0.0],[13.5,66.5604,51.5006],[13.5042,66.5583,0.0],[13.525,66.5583,0.0],[13.5313,66.5604,12.109],[13.5354,66.5583,0.0],[13.55,66.5583,68.4809],[13.5729,66.5521,0.0],[13.5792,66.5521,22.1858],[13.5917,66.5479,0.0],[13.6036,66.5474,86.8599],[13.5984,66.5453,0.0],[13.6,66.5437,0.0],[13.6167,66.5437,110.7403],[13.6292,66.5396,0.0],[13.6458,66.5396,40.9317],[13.6557,66.5349,0.0],[13.6547,66.5318,0.0],[13.6578,66.5307,0.0],[13.6568,66.5276,0.0],[13.6599,66.5266,0.0],[13.6609,66.5234,0.0],[13.6682,66.5203,0.0],[13.6667,66.5188,0.0],[13.65,66.5188,0.0],[13.6458,66.5229,0.0],[13.6354,66.5229,0.0],[13.6339,66.5234,0.0],[13.6349,66.5266,0.0],[13.6318,66.5276,0.0],[13.6307,66.5307,0.0],[13.6234,66.5318,0.0],[13.6125,66.5375,0.0],[13.6,66.5375,0.0],[13.5958,66.5354,5.0862],[13.5875,66.5396,0.0],[13.5813,66.5396,0.0],[13.5688,66.5437,0.0],[13.5417,66.5458,0.0],[13.5375,66.5437,82.4148],[13.5229,66.5479,0.0],[13.5063,66.5479,0.0],[13.5021,66.5458,87.9242],[13.4958,66.5479,12.1506],[13.4917,66.5458,97.7962],[13.4875,66.5479,21.9611],[13.4438,66.5479,31.698],[13.4359,66.5453,53.2207],[13.4333,66.5417,168.6368],[13.3938,66.5417,10.866],[13.3833,66.5375,154.2658],[13.3583,66.5437,26.7616],[13.3542,66.5417,79.2264],[13.3401,66.5411,18.2915],[13.3432,66.538,156.2087],[13.338,66.537,99.6429],[13.3349,66.5318,9.0666],[13.3271,66.5292,17.2945],[13.3083,66.5292,24.4062],[13.3042,66.5271,6.2382],[13.2938,66.5271,24.8281],[13.2896,66.5292,0.0],[13.2729,66.5292,50.343],[13.2667,66.5271,219.8992],[13.2625,66.5292,0.0],[13.2589,66.5255,0.0],[13.2745,66.5182,0.0],[13.2734,66.5151,0.0],[13.2828,66.5141,8.2416],[13.2964,66.5068,0.0],[13.3036,66.5057,0.0],[13.3042,66.5042,0.0],[13.3036,66.5026,0.0],[13.2984,66.5016,0.0],[13.2953,66.4984,10.4368],[13.2901,66.4974,7.2407],[13.2891,66.4943,0.0],[13.287,66.4922,0.0],[13.2818,66.4912,0.0],[13.2807,66.488,8.0329],[13.2734,66.487,0.0],[13.2714,66.4818,0.0],[13.2786,66.4786,0.0],[13.2786,66.4755,0.0],[13.2766,66.4714,16.4903],[13.2651,66.4703,0.0],[13.2651,66.4672,0.0],[13.2708,66.4646,0.0],[13.3021,66.4646,0.0],[13.3062,66.4667,0.0],[13.3188,66.4667,0.0],[13.3292,66.4708,0.0],[13.3375,66.4708,0.0],[13.3417,66.4729,0.0],[13.3438,66.4708,0.0],[13.3391,66.4609,6.5553],[13.3125,66.4583,0.0],[13.3083,66.4542,18.2019],[13.2938,66.4542,0.0],[13.2911,66.4505,0.0],[13.2833,66.45,40.7295],[13.2792,66.4521,0.0],[13.2714,66.4526,0.0],[13.2729,66.4542,0.0],[13.2786,66.4547,0.0],[13.2771,66.4563,0.0],[13.2479,66.4563,0.0],[13.2438,66.4542,15.1682],[13.2151,66.4547,0.0],[13.2167,66.4563,0.0],[13.2266,66.4568,0.0],[13.2312,66.4604,0.0],[13.2391,66.4609,8.3931],[13.25,66.4812,7.3799],[13.2495,66.4828,0.0],[13.2422,66.4859,0.0],[13.2432,66.4891,0.0],[13.225,66.4896,0.0],[13.2193,66.4922,0.0],[13.2161,66.4974,0.0],[13.213,66.4984,0.0],[13.2151,66.5016,0.0],[13.2203,66.5026,0.0],[13.2224,66.5068,0.0],[13.2193,66.5089,10.1348],[13.2182,66.512,0.0],[13.2151,66.513,13.2686],[13.2161,66.5182,0.0],[13.2,66.5208,5.9153],[13.1875,66.5271,0.0],[13.1833,66.525,0.0],[13.1771,66.525,0.0],[13.1688,66.5292,0.0],[13.1568,66.5297,0.0],[13.1458,66.5354,4.6138],[13.1396,66.5354,5.1508],[13.1354,66.5375,0.0],[13.125,66.5375,6.1528],[13.1234,66.5391,0.0],[13.1307,66.5432,1.5609],[13.1214,66.5443,0.0],[13.1224,66.5474,4.1979],[13.1167,66.55,0.0],[13.1042,66.55,0.0],[13.1,66.5479,1.98],[13.0875,66.5479,0.0],[13.0833,66.5458,27.462],[13.0708,66.5458,0.0],[13.0505,66.5391,0.0],[13.0479,66.5354,84.4086],[13.0354,66.5354,24.6717],[13.025,66.5313,0.0],[13.0021,66.5313,2.8077],[12.9979,66.5333,0.0],[12.9875,66.5333,0.0],[12.9797,66.5307,0.0],[12.9755,66.5266,0.0],[12.9755,66.5234,0.0],[12.9844,66.5212,0.0],[12.9841,66.5225,0.6177],[12.9953,66.523,198.9975],[12.9965,66.5185,76.069],[13.0077,66.519,130.756],[13.009,66.5145,5.4795],[13.0537,66.5164,97.0014],[13.0525,66.5209,202.7172],[13.0749,66.5219,210.0838],[13.0736,66.5263,317.4102],[13.096,66.5273,152.5113],[13.0973,66.5228,175.141],[13.1308,66.5243,228.1289],[13.1357,66.5064,386.0591],[13.1469,66.5068,429.777],[13.1481,66.5024,344.9225],[13.1593,66.5028,480.8198],[13.1606,66.4984,303.688],[13.1717,66.4988,408.3611],[13.1766,66.481,283.8092],[13.1878,66.4814,411.2137],[13.189,66.477,296.9735],[13.2002,66.4774,465.8997],[13.2038,66.464,75.3292],[13.1926,66.4635,51.5],[13.1962,66.4501,140.5871],[13.2074,66.4506,151.8731],[13.2098,66.4417,197.1607],[13.1987,66.4412,311.968],[13.2023,66.4278,431.0922],[13.1911,66.4273,634.5129],[13.1923,66.4228,526.1971],[13.1935,66.4184,481.9709],[13.2158,66.4193,693.2722],[13.2195,66.4059,830.539]]],
[[[13.137,66.5922,2.0202],[13.1354,66.5938,0.0],[13.1276,66.5943,0.0],[13.1286,66.5995,4.7039],[13.1255,66.6005,30.9513],[13.1286,66.6078,0.0],[13.1255,66.6088,4.2053],[13.1255,66.612,0.0],[13.1276,66.6162,7.1328],[13.1328,66.6172,0.0],[13.1255,66.6214,0.0],[13.1286,66.6255,12.3801],[13.1286,66.6286,5.5431],[13.1229,66.6312,9.6926],[13.1172,66.6266,0.0],[13.1161,66.6234,24.4459],[13.0922,66.6182,0.0],[13.0901,66.613,0.0],[13.0938,66.6104,15.9892],[13.0922,66.6068,0.0],[13.0995,66.6036,43.2923],[13.0979,66.5979,0.0],[13.1016,66.5953,19.8379],[13.0984,66.5901,0.0],[13.1078,66.5891,25.4436],[13.1068,66.5839,53.9904],[13.1125,66.5813,36.1787],[13.1203,66.5839,0.0],[13.1255,66.5891,0.0],[13.1333,66.5896,9.8012],[13.137,66.5922,2.0202]]],
[[[13.2672,66.6297,12.1091],[13.2771,66.6292,0.0],[13.2771,66.6312,0.0],[13.2688,66.6312,0.0],[13.2672,66.6297,12.1091]]],
[[[13.2828,66.6995,0.0],[13.2792,66.7,0.0],[13.2776,66.6984,0.0],[13.2813,66.6979,0.0],[13.2828,66.6995,0.0]]],
[[[13.1625,66.7438,0.0],[13.1667,66.7479,2.3833],[13.162,66.7516,0.0],[13.1542,66.7521,0.0],[13.15,66.75,27.5856],[13.1438,66.7521,3.3896],[13.1422,66.7516,8.8727],[13.138,66.7422,10.4311],[13.1417,66.7417,0.0],[13.1458,66.7438,3.9983],[13.1521,66.7417,0.0],[13.1563,66.7438,32.1825],[13.1625,66.7438,0.0]]],
[[[13.1516,66.7599,33.6638],[13.1479,66.7604,1.4954],[13.1464,66.7589,5.7068],[13.15,66.7583,1.3343],[13.1516,66.7599,33.6638]]],
[[[13.1099,66.7589,0.0],[13.1068,66.7547,0.0],[13.1208,66.7542,0.0],[13.1349,66.7589,0.0],[13.137,66.762,0.0],[13.1292,66.7646,0.0],[13.1187,66.7604,12.2627],[13.1125,66.7604,0.0],[13.1099,66.7589,0.0]]],
[[[13.139099999999999,66.7776,1.831],[13.139099999999999,66.7786,0.4017],[13.1359,66.7786,-0.1427],[13.1359,66.7776,0.0],[13.139099999999999,66.7776,1.831]]],
[[[13.0771,66.7625,0.0],[13.0813,66.7604,0.0],[13.0849,66.7641,0.0],[13.0792,66.7667,5.939],[13.0729,66.7667,7.2294],[13.0651,66.7641,14.59],[13.0667,66.7625,0.0],[13.0771,66.7625,0.0]]],
[[[13.0896,66.7771,0.0],[13.0859,66.7734,7.704],[13.1,66.7729,0.0],[13.1021,66.775,0.0],[13.1,66.7771,0.0],[13.0896,66.7771,0.0]]],
[[[13.062,66.7891,0.0],[13.0583,66.7896,2.5414],[13.0568,66.788,4.1363],[13.0604,66.7875,1.2422],[13.062,66.7891,0.0]]],
[[[13.1245,66.788,0.1345],[13.1229,66.7896,0.0],[13.1167,66.7896,0.0],[13.1125,66.7917,21.2421],[13.1083,66.7896,0.0],[13.0984,66.7891,0.0],[13.1042,66.7854,0.0],[13.1245,66.788,0.1345]]],
[[[13.1432,66.7849,10.9698],[13.1401,66.7849,1.1023],[13.1401,66.7839,0.0],[13.1432,66.7839,4.1487],[13.1432,66.7849,10.9698]]],
[[[13.1557,66.787,6.5422],[13.1521,66.7875,0.0],[13.1505,66.7859,1.9255],[13.1542,66.7854,0.0],[13.1557,66.787,6.5422]]],
[[[13.1417,66.8,1.8049],[13.1375,66.8,6.6857],[13.1359,66.7984,2.0417],[13.1516,66.7984,0.0],[13.15,66.8,0.0],[13.1417,66.8,1.8049]]],
[[[12.9234,66.6349,6.0277],[12.9208,66.6312,10.8095],[12.9229,66.6292,0.0],[12.9328,66.6339,1.5356],[12.9312,66.6354,2.1213],[12.9234,66.6349,6.0277]]],
[[[12.9417,66.6375,0.0],[12.938,66.6339,0.0],[12.9474,66.6339,2.3442],[12.9474,66.6349,7.5138],[12.9417,66.6375,0.0]]],
[[[12.9333,66.6542,9.3825],[12.9292,66.6542,0.0],[12.9276,66.6526,0.0],[12.9458,66.6521,0.8576],[12.9495,66.6557,0.0],[12.9417,66.6563,0.0],[12.9375,66.6542,0.0],[12.9333,66.6542,9.3825]]],
[[[12.9391,66.6651,0.0],[12.951599999999999,66.6693,0.0],[12.951599999999999,66.6724,0.0],[12.9458,66.675,0.0],[12.9292,66.675,0.2676],[12.9151,66.6703,2.6561],[12.9167,66.6687,0.0],[12.9245,66.6682,0.0],[12.9193,66.6661,3.6554],[12.9208,66.6646,2.3717],[12.9391,66.6651,0.0]]],
[[[12.975,66.6729,13.3471],[12.9708,66.6729,9.8252],[12.9693,66.6713,11.6313],[12.9786,66.6713,9.7855],[12.975,66.6729,13.3471]]],
[[[12.9833,66.6937,0.0],[12.9849,66.6953,6.4844],[12.9729,66.6979,0.0],[12.9589,66.6932,2.3286],[12.962,66.6911,0.0],[12.9604,66.6896,0.0],[12.9417,66.6896,0.0],[12.9375,66.6875,0.3213],[12.9312,66.6875,0.0],[12.9234,66.6849,5.1472],[12.9151,66.6797,-0.0824],[12.9396,66.6792,0.0],[12.9438,66.6813,2.4579],[12.951599999999999,66.6807,0.0],[12.9464,66.6787,0.0],[12.9479,66.6771,0.4702],[12.9646,66.6771,0.0],[12.9688,66.6792,0.2762],[12.975,66.6792,0.0],[12.9786,66.6818,2.6091],[12.9828,66.688,0.0],[12.9797,66.6901,0.0],[12.9797,66.6932,0.5688],[12.9833,66.6937,0.0]]],
[[[13.0042,66.6667,0.0],[13.0005,66.663,5.1456],[13.0161,66.663,0.0],[13.0104,66.6667,0.0],[13.0042,66.6667,0.0]]],
[[[13.1005,66.6911,0.0],[13.1083,66.6896,10.0549],[13.1109,66.6932,11.9982],[13.1161,66.6953,0.0],[13.1089,66.6984,0.0],[13.1099,66.7016,0.0],[13.1083,66.7021,0.0],[13.0958,66.7021,0.0],[13.0813,66.6979,7.4878],[13.0625,66.6979,0.0],[13.0589,66.6953,0.0],[13.0578,66.6922,11.3657],[13.0464,66.6891,0.0],[13.0443,66.687,0.0],[13.0443,66.6839,13.3565],[13.0516,66.6797,221.8775],[13.0375,66.6813,0.0],[13.0359,66.6797,0.0],[13.0391,66.6787,13.7348],[13.0391,66.6755,0.0],[13.0188,66.6729,0.0],[13.0172,66.6734,0.0],[13.0182,66.6766,6.2284],[13.0151,66.6776,6.1937],[13.014099999999999,66.6807,5.2231],[13.0083,66.6833,0.0],[13.0047,66.6807,3.6988],[13.0078,66.6776,1.877],[12.9979,66.6771,1.1386],[12.9901,66.6745,8.0931],[12.9896,66.6729,0.0],[12.9901,66.6713,0.0],[12.9958,66.6687,0.0],[13.0292,66.6687,7.9551],[13.0333,66.6708,0.0],[13.0396,66.6708,0.0],[13.0521,66.6646,0.0],[13.0583,66.6667,8.3154],[13.0682,66.6609,0.0],[13.0604,66.6604,48.3789],[13.0542,66.6625,14.9453],[13.0464,66.6589,0.0],[13.0578,66.6536,16.364],[13.0604,66.65,0.0],[13.0771,66.6563,2.779],[13.087,66.6568,0.0],[13.087,66.6599,6.5889],[13.0839,66.662,0.0],[13.0974,66.6672,0.0],[13.088,66.6703,17.0577],[13.0932,66.6713,0.0],[13.0995,66.6797,3.0246],[13.0995,66.6828,3.56],[13.0964,66.6849,0.0],[13.1005,66.6911,0.0]]],
[[[13.013,66.7349,14.8615],[13.0068,66.7318,5.5575],[13.0146,66.7312,-0.1861],[13.0224,66.7338,9.7048],[13.0208,66.7354,4.1029],[13.013,66.7349,14.8615]]],
[[[13.075,66.7375,1.7712],[13.076599999999999,66.738,0.0],[13.076599999999999,66.7391,0.2369],[13.0734,66.7391,3.5534],[13.075,66.7375,1.7712]]],
[[[13.0703,66.7974,0.0],[13.0729,66.7937,0.0],[13.0776,66.7974,0.4589],[13.087,66.7984,0.0],[13.0911,66.8057,3.8356],[13.0833,66.8063,12.3242],[13.0786,66.8026,0.0],[13.0693,66.8016,0.0],[13.0672,66.7984,7.1563],[13.0703,66.7974,0.0]]],
[[[13.0943,66.8203,0.0],[13.0943,66.8172,1.2644],[13.0958,66.8167,0.0],[13.1021,66.8167,0.0],[13.1042,66.8187,0.0],[13.1021,66.8208,3.1693],[13.0943,66.8203,0.0]]],
[[[12.875,66.5167,2.5328],[12.8714,66.5162,2.6191],[12.8714,66.513,0.0],[12.8807,66.513,0.0],[12.8807,66.5141,0.0],[12.875,66.5167,2.5328]]],
[[[12.8708,66.5458,0.0],[12.8672,66.5463,0.0],[12.8672,66.5495,0.0],[12.8724,66.5505,0.0],[12.875,66.5542,0.0],[12.8745,66.5557,0.0],[12.8672,66.5589,16.3393],[12.8703,66.5641,0.0],[12.8646,66.5667,0.0],[12.8521,66.5667,0.0],[12.8484,66.5641,0.0],[12.8474,66.5609,0.0],[12.8396,66.5583,0.0],[12.8313,66.5583,0.0],[12.8208,66.5542,0.0],[12.8083,66.5542,2.6569],[12.8005,66.5516,0.0],[12.8099,66.5484,0.0],[12.8078,66.5463,0.0],[12.7964,66.5422,5.1681],[12.8021,66.5396,26.1506],[12.8083,66.5417,97.17],[12.8099,66.5411,134.1907],[12.8099,66.538,288.5142],[12.8,66.5375,74.6558],[12.7922,66.5339,0.0],[12.812,66.5245,49.9631],[12.8109,66.5193,0.0],[12.8167,66.5167,3.897],[12.8229,66.5188,8.7292],[12.8354,66.5188,0.0],[12.8396,66.5208,0.0],[12.8521,66.5208,0.0],[12.8766,66.5276,0.0],[12.8797,66.5328,9.026],[12.8849,66.5339,0.0],[12.887,66.5359,0.0],[12.8839,66.5391,2.0982],[12.889099999999999,66.5401,0.0],[12.8792,66.5458,0.0],[12.8708,66.5458,0.0]]],
[[[12.8271,66.5667,0.0],[12.8234,66.5661,0.0],[12.8234,66.563,0.0],[12.8313,66.5625,1.1516],[12.8391,66.5651,0.0],[12.8375,66.5667,0.0],[12.8271,66.5667,0.0]]],
[[[12.8411,66.5787,1.2105],[12.8375,66.5792,4.8198],[12.8359,66.5776,7.1575],[12.8396,66.5771,1.3979],[12.8411,66.5787,1.2105]]],
[[[12.9688,66.5583,0.0],[12.9651,66.5547,34.5815],[12.9688,66.5542,24.548],[12.9766,66.5568,0.0],[12.975,66.5583,33.8851],[12.9688,66.5583,0.0]]],
[[[12.9578,66.5734,11.0035],[12.9578,66.5745,8.9462],[12.9547,66.5745,15.5065],[12.9547,66.5734,9.3766],[12.9578,66.5734,11.0035]]],
[[[12.9333,66.5938,0.0],[12.925,66.5938,0.0],[12.9208,66.5958,3.4728],[12.9083,66.5958,9.5852],[12.9036,66.5901,55.568],[12.8984,66.5891,0.0],[12.8979,66.5875,0.0],[12.9016,66.5849,0.0],[12.9005,66.5797,0.0],[12.9104,66.575,0.0],[12.9146,66.5771,33.6196],[12.9208,66.575,8.8672],[12.9271,66.575,0.0],[12.9312,66.5771,0.0],[12.9354,66.575,0.0],[12.9432,66.5755,0.0],[12.9359,66.5807,5.1451],[12.938,66.5849,10.3136],[12.9432,66.5859,0.0],[12.9453,66.5891,0.0],[12.9422,66.5901,0.0],[12.9411,66.5932,3.4755],[12.9333,66.5938,0.0]]],
[[[12.9391,66.6057,9.1256],[12.9354,66.6062,8.5226],[12.9339,66.6047,10.4669],[12.9375,66.6042,0.0],[12.9391,66.6057,9.1256]]],
[[[13.0667,66.575,0.0],[13.0526,66.5818,8.6484],[13.0536,66.5849,0.0],[13.0479,66.5875,10.6656],[13.0417,66.5875,6.5976],[13.037,66.5839,19.2407],[13.0292,66.5833,0.0],[13.0188,66.5792,10.0261],[13.0068,66.5818,8.7557],[13.0,66.5854,0.0],[12.9875,66.5854,2.8618],[12.9849,66.5818,4.2729],[12.9776,66.5807,0.0],[12.9766,66.5776,0.0],[12.9714,66.5766,4.4168],[12.9688,66.5729,4.2575],[12.9693,66.5714,10.5359],[12.975,66.5708,0.0],[12.9807,66.5682,4.2924],[12.9818,66.5651,2.8119],[12.9953,66.5641,0.0],[12.9938,66.5625,0.0],[12.9854,66.5625,0.0],[12.9839,66.5609,0.0],[12.9917,66.5604,0.0],[12.9984,66.5568,8.5746],[13.0083,66.5542,0.0],[13.0208,66.5542,0.0],[13.0354,66.5583,0.0],[13.0479,66.5583,0.0],[13.0641,66.563,0.0],[13.0688,66.5729,0.0],[13.0667,66.575,0.0]]],
[[[13.038,66.6036,16.4828],[13.0432,66.6047,0.0],[13.0432,66.6078,0.0],[13.0401,66.6099,59.5428],[13.0495,66.6151,0.0],[13.0516,66.6203,0.0],[13.0484,66.6214,0.0],[13.0484,66.6245,0.0],[13.0505,66.6286,8.9069],[13.0557,66.6297,0.0],[13.0599,66.6359,0.0],[13.0599,66.6391,3.1062],[13.0568,66.6401,8.5179],[13.0578,66.6432,0.0],[13.05,66.6438,0.0],[13.0458,66.6417,2.0129],[13.0167,66.6417,0.0],[13.014099999999999,66.638,60.3091],[13.0089,66.637,0.0],[13.0036,66.6297,28.0151],[12.9984,66.6286,31.3283],[13.0016,66.6255,0.0],[12.988,66.6203,0.0],[12.9917,66.6167,0.0],[12.988,66.6088,0.0],[12.9974,66.6078,12.6306],[12.9964,66.6047,23.7053],[12.9979,66.6042,10.2852],[13.0057,66.6036,0.0],[13.0047,66.5984,0.0],[13.0089,66.5964,0.0],[13.025,66.5938,0.0],[13.0292,66.5917,12.3835],[13.0354,66.5917,0.0],[13.037,66.5932,0.0],[13.0297,66.5974,0.0],[13.0391,66.5984,0.0],[13.0411,66.6016,0.0],[13.038,66.6036,16.4828]]],
[[[12.9854,66.6375,46.9563],[12.9818,66.637,27.4255],[12.9818,66.6339,0.0],[12.9938,66.6333,0.0],[13.0016,66.6359,0.0],[13.0036,66.6391,29.3904],[12.9958,66.6396,0.0],[12.9917,66.6375,0.0],[12.9854,66.6375,46.9563]]],
[[[13.0,66.6563,0.0],[12.988,66.6568,0.0],[12.9896,66.6625,1.4997],[12.9875,66.6646,0.0],[12.9828,66.6609,0.0],[12.9776,66.6599,0.0],[12.9807,66.6578,0.0],[12.9807,66.6547,11.1074],[12.9755,66.6536,28.3621],[12.9734,66.6505,0.0],[12.9792,66.6479,0.0],[13.0125,66.6479,0.0],[13.0167,66.65,13.8831],[13.0292,66.65,0.0],[13.0313,66.6521,0.0],[13.0292,66.6542,6.822],[13.0146,66.6542,9.3893],[13.0104,66.6563,0.0],[13.0,66.6563,0.0]]],
[[[12.9286,66.6068,11.7811],[12.9286,66.6078,0.0],[12.9255,66.6078,3.8738],[12.9255,66.6068,9.4334],[12.9286,66.6068,11.7811]]],
[[[12.9458,66.6229,0.0],[12.9474,66.6245,0.0],[12.9401,66.6276,5.2189],[12.9411,66.6307,7.0723],[12.9396,66.6312,5.2176],[12.9359,66.6307,0.0],[12.9333,66.6271,0.0],[12.9271,66.6292,0.0],[12.9234,66.6266,19.6718],[12.925,66.625,6.5557],[12.9312,66.625,12.1959],[12.9354,66.6229,3.3101],[12.9458,66.6229,0.0]]],
[[[12.9542,66.6312,0.0],[12.9505,66.6276,4.8393],[12.9557,66.6276,1.7508],[12.9557,66.6307,0.0],[12.9542,66.6312,0.0]]],
[[[12.951599999999999,66.6318,9.6876],[12.951599999999999,66.6328,9.6016],[12.9484,66.6328,6.8238],[12.9484,66.6318,0.0],[12.951599999999999,66.6318,9.6876]]],
[[[12.6696,66.578,16.5788],[12.6686,66.5818,27.5395],[12.6632,66.5852,55.988],[12.6732,66.5938,1.0053],[12.6625,66.5938,0.0],[12.6609,66.5953,0.0],[12.6724,66.5984,0.0],[12.6745,66.6016,0.0],[12.6667,66.6021,4.0801],[12.6599,66.6057,0.0],[12.65,66.6083,0.0],[12.6438,66.6083,0.0],[12.6333,66.6042,0.0],[12.6276,66.6036,0.0],[12.6224,66.5943,0.0],[12.6146,66.5917,0.0],[12.6068,66.5911,0.0],[12.6016,66.5839,5.7799],[12.5901,66.5807,2.0213],[12.6042,66.5729,0.0],[12.6205,66.5729,0.0],[12.6176,66.5741,19.648],[12.6288,66.5746,0.0],[12.6275,66.5791,41.9223],[12.6499,66.5801,245.3949],[12.6512,66.5757,86.6779],[12.6674,66.5764,32.8452],[12.6696,66.578,16.5788]]],
[[[12.5958,66.5938,7.5459],[12.5922,66.5932,13.4931],[12.5901,66.5901,0.0],[12.5979,66.5896,0.0],[12.6021,66.5938,4.4144],[12.6,66.5958,15.639099999999999],[12.5958,66.5938,7.5459]]],
[[[12.6286,66.6078,0.0],[12.6257,66.6079,0.0],[12.6255,66.6068,0.0],[12.6286,66.6068,0.0],[12.6286,66.6078,0.0]]],
[[[12.6229,66.6083,14.1995],[12.6245,66.6088,9.906],[12.6245,66.6099,0.0],[12.6214,66.6099,0.0],[12.6229,66.6083,14.1995]]],
[[[12.8375,66.5875,0.0],[12.8339,66.5849,0.0],[12.8339,66.5818,10.5105],[12.837,66.5818,0.0],[12.8391,66.5839,6.0366],[12.8391,66.587,11.5095],[12.8375,66.5875,0.0]]],
[[[12.7839,66.5901,0.0],[12.7917,66.5896,3.7891],[12.8016,66.5922,0.0],[12.8016,66.5953,0.0],[12.7984,66.5974,2.0843],[12.8036,66.5984,0.0],[12.8057,66.6016,0.0],[12.7917,66.6021,0.0],[12.7901,66.6005,4.6874],[12.7932,66.5984,4.1183],[12.7792,66.5979,1.8046],[12.7755,66.5953,0.0],[12.7755,66.5922,0.0],[12.7839,66.5901,0.0]]],
[[[12.8318,66.6016,0.0],[12.8255,66.5984,9.3497],[12.8333,66.5979,0.0],[12.8411,66.6005,12.8695],[12.8396,66.6021,38.8504],[12.8318,66.6016,0.0]]],
[[[12.825,66.6021,0.0],[12.826599999999999,66.6026,0.0],[12.826599999999999,66.6036,0.0],[12.8234,66.6036,7.6491],[12.825,66.6021,0.0]]],
[[[12.6542,66.6125,6.2192],[12.6625,66.6104,14.3743],[12.6646,66.6125,5.7317],[12.6625,66.6146,0.0],[12.6505,66.6141,2.0972],[12.6542,66.6125,6.2192]]],
[[[12.6766,66.6182,0.0],[12.663,66.6193,0.0],[12.6641,66.6224,0.0],[12.6625,66.6229,0.0],[12.65,66.6229,15.2263],[12.6479,66.6208,6.4729],[12.6484,66.6193,0.0],[12.6542,66.6167,0.0],[12.6688,66.6167,0.1701],[12.6771,66.6125,1.448],[12.6807,66.613,4.4046],[12.6807,66.6162,6.4346],[12.6766,66.6182,0.0]]],
[[[12.6333,66.6167,2.406],[12.6349,66.6172,5.3524],[12.6349,66.6182,4.2501],[12.6318,66.6182,0.0],[12.6333,66.6167,2.406]]],
[[[12.7328,66.6234,0.0],[12.7313,66.625,0.0],[12.7276,66.6245,15.2607],[12.7292,66.6229,0.0],[12.7328,66.6234,0.0]]],
[[[12.7292,66.6104,10.9896],[12.7307,66.6099,7.4348],[12.7297,66.6068,2.0861],[12.7313,66.6062,6.3029],[12.7438,66.6062,0.0],[12.7453,66.6068,12.3676],[12.7479,66.6125,0.0],[12.7458,66.6146,0.0],[12.7234,66.6141,6.8504],[12.7292,66.6104,10.9896]]],
[[[12.8208,66.6125,0.0],[12.8172,66.612,0.0],[12.8151,66.6088,19.4432],[12.8229,66.6083,0.0],[12.8307,66.6109,8.268],[12.8292,66.6125,0.0],[12.8208,66.6125,0.0]]],
[[[12.7396,66.6229,32.0607],[12.738,66.6214,0.0],[12.7438,66.6188,0.0],[12.7474,66.6214,3.6019],[12.7458,66.6229,26.7749],[12.7396,66.6229,32.0607]]],
[[[12.8578,66.763,3.8102],[12.8563,66.7646,0.0],[12.8526,66.7641,0.0],[12.8542,66.7625,1.2642],[12.8578,66.763,3.8102]]],
[[[12.6583,66.6479,5.3099],[12.6547,66.6443,0.0],[12.6599,66.6443,0.0],[12.6599,66.6474,5.3099],[12.6583,66.6479,5.3099]]],
[[[12.5417,66.6604,0.0],[12.5422,66.6589,0.0],[12.5479,66.6563,23.0082],[12.562,66.6609,0.0],[12.5661,66.6682,2.6838],[12.5625,66.6687,2.9485],[12.5583,66.6667,0.0],[12.5417,66.6667,7.7191],[12.538,66.663,0.0],[12.5417,66.6604,0.0]]],
[[[12.4958,66.7333,2.8187],[12.4917,66.7333,9.0569],[12.4901,66.7318,13.9728],[12.4995,66.7318,0.0],[12.4958,66.7333,2.8187]]],
[[[12.4943,66.7536,0.0],[12.4953,66.7557,0.0972],[12.488,66.7589,0.0],[12.4932,66.762,0.0],[12.4901,66.763,0.0],[12.4891,66.7662,7.8799],[12.4833,66.7688,0.0],[12.4693,66.7662,8.4451],[12.4672,66.763,0.0],[12.4703,66.762,0.0],[12.4703,66.7589,0.0],[12.4563,66.7604,0.0],[12.4526,66.7557,0.0],[12.4542,66.7542,0.0],[12.4708,66.7542,0.0],[12.475,66.7562,0.0],[12.4813,66.7562,0.0],[12.4854,66.7521,0.0],[12.4917,66.7521,0.0],[12.4943,66.7536,0.0]]],
[[[12.6042,66.7667,0.0],[12.6005,66.7662,0.0],[12.6005,66.763,26.7199],[12.6099,66.7651,0.9353],[12.6083,66.7667,12.2366],[12.6042,66.7667,0.0]]],
[[[12.4557,66.7724,1.4122],[12.4521,66.7729,0.0],[12.4505,66.7714,0.0],[12.4542,66.7708,0.6547],[12.4557,66.7724,1.4122]]],
[[[12.7495,66.7984,37.291],[12.7443,66.7963,0.0],[12.7521,66.7958,0.0],[12.7542,66.7979,35.2175],[12.7521,66.8,0.0],[12.7495,66.7984,37.291]]],
[[[12.7349,66.8016,0.7716],[12.7313,66.8021,0.0],[12.7297,66.8005,4.0888],[12.7333,66.8,8.185],[12.7349,66.8016,0.7716]]]]}
,"properties": {"GID_2": "NOR.10.29_1","GID_0": "NOR","country": "Norway","GID_1": "NOR.10_1","province": "Nordland","NL_NAME_1": "NA","county": "Rødøy","VARNAME_2": "NA","NL_NAME_2": "NA","TYPE_2": "Kommuner","ENGTYPE_2": "Municipality","CC_2": "NA","HASC_2": "NO.NO.RD","name": "Rødøy.county","area_km2": 731.4397,"hist_schema_id": "Elevation0-9000","hist_area_km2": {"0": 73.2798,"25": 55.1201,"50": 38.3403,"75": 30.4284,"100": 22.4078,"125": 17.6121,"150": 16.878,"175": 17.9799,"200": 15.9251,"225": 15.0156,"250": 13.2561,"275": 13.9418,"300": 12.7876,"325": 13.7091,"350": 14.4792,"375": 16.2105,"400": 15.9509,"425": 16.2535,"450": 17.1828,"475": 15.7153,"500": 15.6767,"525": 14.5481,"550": 13.9749,"575": 15.892,"600": 16.8159,"625": 18.3949,"650": 15.9323,"675": 15.4355,"700": 13.6659,"725": 13.7866,"750": 13.0175,"775": 10.7548,"800": 8.2668,"825": 7.2362,"850": 6.6364,"875": 8.0918,"900": 6.6409,"925": 5.816,"950": 4.9113,"975": 4.8599,"1000": 4.6397,"1025": 3.7288,"1050": 3.5763,"1075": 3.5238,"1100": 3.4478,"1125": 3.7766,"1150": 3.5657,"1175": 2.73,"1200": 2.4424,"1225": 2.4672,"1250": 2.1299,"1275": 2.2646,"1300": 2.441,"1325": 2.0202,"1350": 1.717,"1375": 1.7673,"1400": 1.7921,"1425": 0.5217,"1450": 0.059}}}