{"type": "Feature","id": "900","bbox": [15.63877,68.3502,22.93341,70.3109],"geometry": {"type": "MultiPolygon","coordinates": [[[[17.10499,68.75804,314.4878],[17.14568,68.77033,190.7973],[17.1316,68.78339,242.7144],[17.07342,68.81208,54.81],[17.05291,68.81753,74.9317],[17.02703,68.84699,75.2396],[17.02198,68.84886,19.7786],[17.01564,68.86001,3.9506],[17.00099,68.85859,0.0],[16.97429,68.84545,0.0],[16.91098,68.79706,0.0],[16.87794,68.7875,0.0],[16.84425,68.77326,0.0],[16.83717,68.76659,0.0],[16.83522,68.75625,0.0],[16.83033,68.74714,0.0],[16.82358,68.73998,0.0],[16.81666,68.73558,0.0],[16.84099,68.72541,0.0],[17.10499,68.75804,314.4878]]],
[[[17.22592,68.8614,349.6952],[17.19663,68.87279,415.9253],[17.17237,68.88581,366.4234],[17.1312,68.91543,81.3601],[17.1045,68.92503,0.0],[17.08351,68.91376,0.0],[17.08717,68.8985,0.0],[17.10963,68.88622,0.0],[17.1587,68.86591,175.1676],[17.17237,68.84797,7.1329],[17.17823,68.81501,0.0],[17.19337,68.8039,0.0],[17.22364,68.79304,0.0],[17.26222,68.79365,0.0],[17.29982,68.80366,0.0],[17.34897,68.83515,391.7593],[17.44044,68.86591,536.2101],[17.40553,68.89228,358.5243],[17.36427,68.90933,549.5652],[17.31967,68.91844,235.5756],[17.22495,68.92113,186.1622],[17.20533,68.91328,49.9458],[17.20639,68.89326,0.5],[17.22047,68.88223,0.5],[17.26482,68.86872,0.5],[17.28224,68.85847,20.4382],[17.25587,68.85541,398.4853],[17.22592,68.8614,349.6952]]],
[[[15.82399,68.75617,7.489],[15.84034,68.76659,4.5059],[15.84791,68.77302,2.3736],[15.86329,68.7829,57.6117],[15.87078,68.79023,94.0164],[15.87477,68.79755,56.3138],[15.87582,68.81049,136.9113],[15.87818,68.81753,94.2527],[15.91481,68.86933,49.8587],[15.92408,68.88642,355.5377],[15.917,68.89574,371.7378],[15.90455,68.90388,94.9149],[15.89796,68.91743,111.1668],[15.90284,68.93675,49.8723],[15.90984,68.94977,9.8979],[15.90789,68.95734,12.4818],[15.90785,68.9575,12.4818],[15.89167,68.95223,296.7699],[15.88097,68.94509,282.4384],[15.87415,68.93507,198.4979],[15.874,68.92491,187.5876],[15.88345,68.90375,138.7972],[15.88578,68.89533,179.9009],[15.88531,68.88675,185.4126],[15.88097,68.87657,473.0539],[15.84702,68.8357,478.0879],[15.79163,68.7889,703.758],[15.72956,68.75772,313.2886],[15.72176,68.75136,165.5789],[15.7199,68.74371,39.318],[15.72455,68.73338,90.6815],[15.73824,68.72537,79.5485],[15.75731,68.71849,252.766],[15.77266,68.71113,392.3888],[15.78274,68.70131,256.6004],[15.78201,68.68762,458.8923],[15.7753,68.6739,57.2324],[15.75003,68.65527,141.1263],[15.73514,68.64702,542.301],[15.71292,68.63912,421.975],[15.67959,68.61726,46.2606],[15.64218,68.54605,508.1807],[15.64063,68.53664,334.8455],[15.64419,68.53024,583.1],[15.65706,68.51551,566.2702],[15.67525,68.50006,595.7296],[15.67541,68.49858,659.9962],[15.67525,68.49515,547.4387],[15.67153,68.49065,336.485],[15.66512,68.48535,247.738],[15.64249,68.47096,474.4134],[15.63877,68.46724,575.7159],[15.63892,68.46378,556.5544],[15.64326,68.46089,420.6758],[15.65675,68.46228,390.3874],[15.67758,68.46797,253.8361],[15.87214,68.54956,199.2889],[15.89901,68.56589,546.0294],[15.91637,68.57995,659.5928],[15.92428,68.58904,737.2968],[15.93405,68.59643,790.7842],[15.96169,68.60222,384.1414],[16.03042,68.59127,448.6169],[16.24581,68.62863,441.4892],[16.4961,68.57933,18.4891],[16.49204,68.58234,12.8282],[16.48707,68.59467,158.637],[16.49106,68.60578,58.6147],[16.50099,68.61221,37.4374],[16.51319,68.61677,104.9412],[16.52467,68.62263,236.7005],[16.54233,68.63703,311.1653],[16.55893,68.65522,112.2371],[16.56088,68.6717,128.4062],[16.53484,68.68098,13.9443],[16.56715,68.6992,38.5659],[16.577,68.70767,127.0276],[16.52858,68.72199,106.4852],[16.5337,68.74112,142.7187],[16.52573,68.75263,255.5025],[16.52613,68.76097,223.4421],[16.55592,68.77033,21.7207],[16.54672,68.78266,4.5981],[16.53061,68.78901,26.3225],[16.51197,68.79096,159.4987],[16.49448,68.79023,132.3458],[16.50554,68.80317,38.5945],[16.53981,68.81501,83.4987],[16.55592,68.82494,32.9464],[16.53045,68.826,0.0],[16.45558,68.81533,15.4792],[16.43979,68.82807,193.487],[16.44044,68.84235,445.8403],[16.43881,68.84955,198.6641],[16.43002,68.852,141.5669],[16.39096,68.85444,315.8787],[16.31463,68.8701,49.961],[16.25465,68.90323,153.5544],[16.24684,68.89997,0.0],[16.24952,68.88418,0.0],[16.26246,68.86669,0.0],[16.29526,68.85493,0.0],[16.29396,68.84736,0.0],[16.28403,68.84032,10.0574],[16.26791,68.83861,143.9493],[16.25359,68.84296,237.1766],[16.22462,68.85602,224.9899],[16.20704,68.85847,184.3505],[16.19174,68.85716,124.0249],[16.10743,68.83613,0.0],[16.09718,68.8312,0.0],[16.08888,68.81489,0.0],[16.09457,68.80166,0.0],[16.10857,68.79145,0.0],[16.12387,68.784,0.0],[16.17888,68.77167,18.5097],[16.20102,68.76073,0.0],[16.21323,68.73558,0.0],[16.10743,68.74071,26.8975],[16.07618,68.73558,75.3384],[16.06813,68.73127,50.7197],[16.04542,68.71507,0.0],[16.03321,68.71137,0.0],[16.03891,68.70344,0.0],[16.05063,68.69599,139.0102],[16.05567,68.694,391.5198],[16.08107,68.67251,54.7824],[16.09002,68.6562,62.1127],[16.08302,68.63874,0.0],[16.06129,68.63032,123.3677],[16.04542,68.64301,241.6749],[16.02784,68.67414,0.0],[16.00514,68.67756,0.0],[15.9782,68.67154,0.0],[15.93214,68.65302,0.0],[15.85857,68.63418,0.0],[15.8366,68.62572,0.0],[15.81674,68.61083,13.5881],[15.81511,68.59809,0.0],[15.81902,68.58381,0.0],[15.81617,68.56428,0.0],[15.80291,68.55134,236.378],[15.78102,68.54121,294.904],[15.74041,68.5301,8.1417],[15.75261,68.54572,0.0],[15.76661,68.55378,0.0],[15.77784,68.56216,108.9096],[15.78191,68.57856,175.7943],[15.77711,68.59199,225.6213],[15.76922,68.60322,121.6984],[15.7658,68.61567,0.0],[15.77442,68.63255,102.8786],[15.7933,68.64297,171.7445],[15.84791,68.64834,0.0],[15.87078,68.65302,201.1252],[15.87867,68.6579,21.2749],[15.89519,68.67158,158.5222],[15.9048,68.67756,54.6885],[15.91529,68.68098,51.6932],[15.92449,68.68207,39.9821],[15.93312,68.68415,39.3821],[15.94239,68.69062,72.979],[15.95387,68.70478,78.984],[15.9712,68.73225,580.424],[15.98365,68.74555,414.8754],[15.98959,68.7635,390.2831],[15.9769,68.78132,213.223],[15.95558,68.79165,29.3789],[15.93556,68.7871,0.0],[15.89894,68.76362,344.6773],[15.85353,68.74763,191.3587],[15.80551,68.73847,0.0],[15.76149,68.73558,5.7716],[15.82399,68.75617,7.489]]],
[[[16.72128,68.97207,0.0],[16.71022,68.97378,0.0],[16.69809,68.97272,0.6193],[16.69011,68.96975,2.2325],[16.68572,68.96495,18.9038],[16.65992,68.95982,0.0],[16.6539,68.95563,6.7371],[16.65577,68.9523,1.9072],[16.6683,68.9405,0.0],[16.67148,68.935,49.408],[16.67571,68.93114,18.4027],[16.76645,68.95628,0.0],[16.76905,68.95828,0.0],[16.76677,68.96052,0.0],[16.75148,68.95921,0.4007],[16.72128,68.97207,0.0]]],
[[[16.41505,68.97248,0.0],[16.35939,68.99014,0.0],[16.30633,68.99531,0.0],[16.26173,68.96833,17.0972],[16.28517,68.95209,15.5287],[16.3436,68.93374,0.0],[16.39487,68.902,0.0],[16.43474,68.8913,83.6285],[16.47625,68.88581,109.9304],[16.56707,68.8874,124.4541],[16.58717,68.89745,106.9933],[16.58326,68.92113,347.4655],[16.6019,68.93122,185.3127],[16.59946,68.94717,112.9925],[16.58465,68.96186,65.3545],[16.56617,68.96833,0.0],[16.52052,68.96214,0.0],[16.46681,68.96214,0.0],[16.41505,68.97248,0.0]]],
[[[17.40113,68.98933,0.0],[17.41896,68.99641,0.0],[17.44223,69.01679,26.7386],[17.45786,69.02717,5.5788],[17.47828,69.03461,0.0],[17.50123,69.03946,12.5065],[17.52491,69.04792,37.4538],[17.53891,69.05561,0.0],[17.54428,69.06049,7.1902],[17.54721,69.06712,117.2578],[17.54591,69.07461,36.1838],[17.55128,69.08124,0.0],[17.56658,69.08588,0.0],[17.57211,69.08954,20.0145],[17.55836,69.09199,49.8534],[17.54713,69.09211,0.0],[17.45151,69.08491,9.2609],[17.41969,69.07917,102.1499],[17.38649,69.06354,0.0],[17.36443,69.04711,0.0],[17.35255,69.03474,0.0],[17.34881,69.02391,0.0],[17.35076,69.0163,0.0],[17.34938,69.00934,0.0],[17.34409,69.00324,0.0],[17.3519,68.99575,213.299],[17.37664,68.98933,99.7211],[17.40113,68.98933,0.0]]],
[[[17.73569,69.5517,258.4389],[17.70737,69.58535,26.7318],[17.69923,69.59199,0.0],[17.68775,69.59951,0.0],[17.67384,69.60346,0.0],[17.65895,69.59955,0.0],[17.65301,69.59414,0.0],[17.65366,69.58959,172.6032],[17.65699,69.58466,422.2357],[17.65895,69.57787,131.6703],[17.65984,69.56924,0.0],[17.66472,69.55077,0.0],[17.66578,69.54059,10.2987],[17.6701,69.53197,0.0],[17.68922,69.52969,214.6029],[17.69361,69.52017,0.0],[17.68263,69.50926,158.5546],[17.65789,69.50849,0.0],[17.63209,69.51284,0.0],[17.61793,69.51704,214.5629],[17.55397,69.57486,0.0],[17.51686,69.59699,0.0],[17.46762,69.59955,0.0],[17.47348,69.59345,0.0],[17.47364,69.58662,0.0],[17.469,69.57925,0.0],[17.46022,69.57168,0.0],[17.46852,69.55988,0.0],[17.47478,69.55296,0.0],[17.49513,69.54059,0.0],[17.56642,69.52326,422.289],[17.57163,69.51874,288.4163],[17.58473,69.49714,0.0],[17.59067,69.48969,0.0],[17.60288,69.48212,0.0],[17.61647,69.47606,0.0],[17.64527,69.46865,0.0],[17.64527,69.46182,293.8677],[17.60133,69.46369,0.0],[17.58302,69.46796,0.0],[17.53094,69.49014,182.1048],[17.51197,69.49437,97.5162],[17.48854,69.49592,7.8909],[17.47804,69.49921,42.5324],[17.46144,69.51374,68.5029],[17.45037,69.51704,0.0],[17.42091,69.51952,45.5767],[17.4048,69.52265,159.9954],[17.37176,69.53388,0.0],[17.34327,69.53754,21.8951],[17.31715,69.53498,342.4156],[17.30323,69.52326,0.0],[17.32667,69.51773,0.0],[17.36817,69.49079,0.0],[17.3921,69.48225,0.0],[17.37273,69.47663,354.1658],[17.30323,69.48225,0.0],[17.30795,69.47712,0.0],[17.31625,69.46182,31.1414],[17.30201,69.46353,211.9382],[17.28159,69.46992,266.291],[17.26344,69.47842,454.8623],[17.24643,69.49604,19.7461],[17.2256,69.50096,157.2694],[17.18653,69.50275,0.0],[17.24293,69.45474,0.0],[17.32545,69.43944,0.0],[17.49578,69.42829,8.5232],[17.44663,69.41429,439.8262],[17.28224,69.41401,12.607],[17.29623,69.41136,6.3358],[17.33058,69.39354,0.0],[17.37062,69.38703,0.0],[17.38941,69.38044,0.0],[17.39942,69.3662,0.0],[17.36842,69.36689,205.3818],[17.27605,69.39354,209.763],[17.14194,69.40034,321.0723],[17.12485,69.39777,0.0],[17.09498,69.38736,0.0],[17.07667,69.38605,13.2754],[17.06251,69.38915,50.8234],[17.03907,69.39838,313.2216],[17.02174,69.40034,0.0],[17.0145,69.3981,0.0],[17.00424,69.38833,16.5127],[16.99822,69.38605,26.1699],[16.99106,69.38715,65.7907],[16.97901,69.39228,34.5289],[16.94988,69.39802,244.1464],[16.93849,69.39838,11.4992],[16.92652,69.39354,0.0],[16.93092,69.38378,1.2977],[16.93393,69.37987,9.2515],[16.90724,69.3686,157.7432],[16.89332,69.36579,165.2097],[16.87867,69.3662,0.0],[16.87867,69.35936,0.0],[16.97136,69.35651,0.0],[17.05567,69.36445,0.0],[17.08465,69.36176,0.0],[17.11085,69.35253,158.6124],[17.07545,69.35204,442.6278],[17.05844,69.34984,361.1836],[17.042,69.34512,0.0],[17.05828,69.3343,0.0],[17.0774,69.33051,0.0],[17.11769,69.33145,12.6861],[17.10401,69.32526,24.2991],[17.1242,69.31371,30.2096],[17.13185,69.31098,0.0],[16.91529,69.31757,110.7966],[16.89763,69.31171,0.0],[16.90602,69.29792,0.0],[16.92555,69.29344,0.0],[17.00782,69.29792,30.9857],[16.9961,69.28775,201.7872],[16.99041,69.28535,71.4566],[16.98113,69.28368,98.1598],[16.98113,69.2768,0.0],[17.04038,69.26826,291.9469],[17.07057,69.26805,350.2069],[17.08351,69.28026,42.1762],[17.08888,69.28954,324.1349],[17.10011,69.28124,103.2391],[17.10971,69.26822,0.0],[17.11085,69.26313,53.7392],[17.1089,69.26142,97.3865],[17.10694,69.25658,18.6116],[17.1089,69.25178,16.2749],[17.11769,69.2495,110.951],[17.12379,69.25023,160.9286],[17.14568,69.25633,273.0715],[17.08676,69.22895,0.0],[16.94483,69.23652,5.3287],[16.87867,69.22215,0.0],[16.88917,69.22232,0.0],[16.89942,69.22093,0.0],[16.91912,69.2154,0.0],[16.91432,69.20946,0.0],[16.91236,69.20576,0.0],[16.9087,69.20319,95.8816],[16.89861,69.20112,33.21],[16.89861,69.19489,0.0],[16.97429,69.19489,149.0727],[17.04949,69.18061,0.0],[17.08237,69.18159,18.8907],[17.17237,69.20112,558.215],[17.14454,69.18407,0.0],[17.05633,69.16014,0.0],[17.05934,69.15664,0.0],[17.06129,69.15327,47.03],[17.06422,69.15009,0.0],[17.06983,69.14712,0.0],[17.056,69.13288,307.0859],[17.03305,69.13203,32.8863],[16.98854,69.13963,210.3888],[16.89234,69.12665,0.0],[16.89625,69.10423,324.4147],[16.87241,69.1044,181.4771],[16.81666,69.11921,270.2853],[16.78647,69.10814,0.0],[16.77312,69.0882,0.0],[16.77963,69.07014,0.0],[16.80983,69.0646,0.0],[16.82325,69.05443,18.5664],[17.10987,69.0847,328.9889],[17.13803,69.07201,17.879],[17.12233,69.0683,0.0],[17.10564,69.06635,4.4448],[17.09156,69.06171,0.0],[17.08351,69.05028,0.0],[17.08741,69.04898,0.0],[17.09718,69.04409,0.0],[17.07862,69.0432,0.0],[17.05828,69.03921,0.0],[17.04347,69.03071,0.0],[17.042,69.01679,6.0474],[17.07301,69.00812,4.7696],[17.12941,69.01154,0.0],[17.18507,69.0244,13.8676],[17.21388,69.04409,11.682],[17.19947,69.04824,26.203],[17.17237,69.0456,10.2488],[17.1587,69.05028,47.463],[17.18832,69.08348,0.0],[17.23463,69.10619,458.9376],[17.37843,69.15396,216.2334],[17.41993,69.18061,142.7406],[17.44695,69.19286,0.0],[17.47218,69.20014,0.0],[17.49871,69.20283,0.0],[17.5298,69.20112,0.0],[17.50408,69.17984,58.006],[17.49391,69.16889,4.8814],[17.48829,69.15396,38.1637],[17.51905,69.15795,8.2793],[17.61109,69.15396,22.6309],[17.7072,69.17292,276.7547],[17.82065,69.1695,137.024],[17.95826,69.18049,109.7103],[17.98845,69.18745,78.8749],[18.00896,69.20112,0.0],[17.99155,69.20307,0.0],[17.96892,69.20222,0.0],[17.94907,69.20515,0.0],[17.94068,69.21882,0.0],[17.93247,69.22724,0.0],[17.91375,69.23408,5.4618],[17.87867,69.24266,23.7009],[17.87867,69.2495,103.5511],[17.92693,69.24726,36.8651],[17.95069,69.2508,26.101],[17.96746,69.26313,0.0],[17.95899,69.26781,0.0],[17.93539,69.27774,0.0],[17.92644,69.28368,0.0],[17.92107,69.29413,0.0],[17.92123,69.30402,0.0],[17.91912,69.31232,0.0],[17.90594,69.31843,2.4612],[17.92311,69.33234,8.5226],[17.95533,69.34268,26.8845],[18.0158,69.35253,14.7489],[18.07081,69.34907,0.0],[18.08473,69.35253,0.0],[18.09099,69.35834,0.0],[18.09767,69.36762,0.0],[18.09864,69.37613,3.8105],[18.08815,69.37987,0.0],[18.08107,69.38764,0.0],[18.07862,69.42499,0.0],[18.07081,69.43793,0.0],[18.04859,69.44294,0.0],[18.02467,69.44086,18.3195],[18.01002,69.43305,7.2702],[18.0158,69.42084,47.1746],[18.00229,69.40998,35.4289],[17.98227,69.41315,0.0],[17.94068,69.42829,64.8086],[17.98439,69.44961,39.5672],[17.99391,69.46284,78.5444],[17.98227,69.48225,49.9207],[18.02117,69.48102,138.2483],[18.03907,69.48477,209.3961],[18.05055,69.49592,0.0],[17.97267,69.52001,0.0],[17.9441,69.52326,0.0],[17.93458,69.52009,0.0],[17.91774,69.50593,0.0],[17.89137,69.49872,0.0],[17.88299,69.48949,0.0],[17.87525,69.47236,0.0],[17.85768,69.45234,0.0],[17.84498,69.44522,70.822],[17.83082,69.44815,69.8669],[17.82276,69.45751,0.0],[17.82472,69.46577,90.6357],[17.83766,69.48225,54.5719],[17.84108,69.49213,111.848],[17.8423,69.49775,194.7127],[17.84457,69.50251,222.6134],[17.85133,69.50959,150.0204],[17.86134,69.5163,127.6695],[17.88307,69.52704,250.4548],[17.89283,69.53685,149.7314],[17.87387,69.57315,198.4865],[17.85914,69.58674,0.0],[17.83741,69.59211,0.0],[17.81772,69.5871,0.0],[17.79982,69.5751,0.0],[17.77223,69.5478,0.0],[17.7531,69.54059,61.064],[17.73569,69.5517,258.4389]]],
[[[18.1207,69.67711,73.343],[18.10239,69.67971,108.0423],[18.08025,69.67801,3.6905],[18.07325,69.67272,0.0],[18.11842,69.6647,0.0],[18.12306,69.66096,20.6623],[18.08351,69.65941,0.0],[18.09034,69.65408,0.0],[18.09262,69.65021,0.0],[18.0866,69.64659,5.467],[18.07626,69.64728,56.5833],[18.07,69.64623,0.0],[18.07472,69.6433,0.0],[18.1124,69.64269,0.0],[18.12428,69.64297,0.0],[18.16399,69.65465,1.5509],[18.16928,69.66307,19.2684],[18.16277,69.67068,14.4257],[18.14682,69.67438,90.8269],[18.12875,69.67398,92.3377],[18.1207,69.67711,73.343]]],
[[[18.24204,69.72521,0.0],[18.24969,69.73062,12.9591],[18.23626,69.74783,151.6795],[18.22836,69.753,89.2997],[18.22136,69.76012,20.528199999999998],[18.16603,69.75068,11.6133],[18.16017,69.74779,7.1008],[18.15952,69.74181,0.0],[18.16717,69.73721,0.0],[18.17937,69.73367,0.0],[18.21762,69.72191,0.0],[18.2291,69.72183,0.0],[18.24204,69.72521,0.0]]],
[[[18.47722,69.82001,0.0],[18.57594,69.82229,0.0],[18.5844,69.82884,96.9345],[18.58172,69.83963,0.0],[18.58774,69.84247,0.0],[18.58969,69.84573,19.1171],[18.58131,69.84992,55.1635],[18.50636,69.85997,71.7558],[18.49863,69.85895,0.0],[18.49806,69.85448,0.0],[18.49545,69.85073,0.0],[18.46095,69.84601,7.4329],[18.44207,69.83865,0.0],[18.43694,69.83161,63.7971],[18.43832,69.82282,0.0],[18.4485,69.81892,0.0],[18.47722,69.82001,0.0]]],
[[[18.84164,69.878,0.0],[18.82203,69.88605,0.0],[18.80152,69.8874,0.0],[18.78297,69.87954,136.3615],[18.79664,69.87328,268.9344],[18.76385,69.86982,392.9011],[18.71795,69.88166,0.0],[18.67888,69.88605,0.0],[18.66684,69.85969,267.7881],[18.67408,69.84715,139.0763],[18.68865,69.83552,24.3614],[18.77442,69.7956,50.8057],[18.78981,69.78388,141.0859],[18.75668,69.7519,584.5589],[18.7409,69.72028,460.8577],[18.73683,69.706,499.5329],[18.7422,69.69457,164.4693],[18.76246,69.68773,19.4849],[18.70737,69.68684,0.0],[18.66326,69.71296,0.0],[18.64129,69.7556,0.0],[18.65317,69.80439,0.0],[18.58513,69.80329,16.2513],[18.5569,69.79637,0.0],[18.53321,69.7805,0.0],[18.52101,69.76215,247.3333],[18.51368,69.7541,134.271],[18.50245,69.74982,51.8766],[18.48308,69.75096,0.0],[18.48194,69.75886,0.0],[18.48609,69.76899,0.0],[18.48194,69.77709,0.0],[18.46648,69.78002,43.3726],[18.43653,69.77631,4.2021],[18.41993,69.7805,0.0],[18.40309,69.79198,0.0],[18.39487,69.79609,0.0],[18.38233,69.79759,0.0],[18.35678,69.79287,0.0],[18.33473,69.78095,411.8641],[18.32691,69.76545,514.7626],[18.34474,69.74982,259.5813],[18.35182,69.72993,193.5731],[18.38917,69.71992,633.2297],[18.59392,69.71092,561.2088],[18.63282,69.70197,139.769],[18.61085,69.69282,0.0],[18.47853,69.70881,33.4351],[18.3532,69.70482,0.0],[18.31072,69.70881,0.0],[18.31691,69.70881,0.0],[18.21437,69.71418,0.0],[18.18653,69.70881,7.1382],[18.29103,69.63898,746.6722],[18.30454,69.63426,666.7419],[18.32423,69.63312,488.7147],[18.40008,69.64057,54.9837],[18.38917,69.63459,0.0],[18.36451,69.62824,0.0],[18.35467,69.62287,0.0],[18.34352,69.61884,0.0],[18.32228,69.61835,0.0],[18.32423,69.61262,0.0],[18.31349,69.60952,4.5984],[18.29737,69.5954,23.8139],[18.29021,69.59211,0.0],[18.27809,69.59443,101.6051],[18.27605,69.59968,152.5535],[18.27906,69.60456,75.5704],[18.28273,69.60578,0.0],[18.26905,69.61738,0.0],[18.26189,69.62165,0.0],[18.23683,69.6293,0.0],[18.13502,69.63695,0.0],[18.11199,69.63312,0.0],[18.09099,69.62495,0.0],[18.0809,69.62275,0.0],[18.06959,69.62446,0.0],[18.05014,69.63052,1.514],[18.0407,69.63227,0.0],[18.02947,69.63312,0.0],[18.03435,69.62324,0.0],[18.03745,69.61945,0.0],[18.02613,69.6142,0.0],[18.00554,69.60065,0.0],[17.99537,69.59211,0.0],[18.02084,69.57665,151.5569],[18.04786,69.57201,76.4445],[18.10524,69.57168,384.1005],[18.12827,69.56493,232.7461],[18.16871,69.54043,346.1924],[18.19402,69.53071,78.5543],[18.26197,69.53059,137.6255],[18.48561,69.55858,368.0266],[18.56039,69.55805,234.8646],[18.5796,69.5611,118.687],[18.61402,69.57477,54.7736],[18.62599,69.57787,0.0],[18.73194,69.56533,170.311],[18.7693,69.57168,26.8257],[18.82293,69.59073,0.0],[18.83644,69.60432,0.4163],[18.82781,69.62287,0.0],[18.81227,69.62938,0.0],[18.7933,69.63166,20.4559],[18.77703,69.63544,0.0],[18.7693,69.64671,0.0],[18.7732,69.6551,16.9074],[18.78273,69.66568,0.0],[18.79412,69.6756,0.0],[18.80348,69.68155,0.0],[18.83855,69.6894,75.0563],[18.87729,69.69221,6.9929],[18.91456,69.69904,0.0],[18.9699,69.73347,72.7284],[19.03346,69.74372,0.0],[19.05738,69.76341,0.0],[19.0608,69.78705,0.0],[19.0442,69.80215,0.0],[19.0197,69.81415,0.0],[18.99903,69.8286,0.0],[18.98601,69.83381,0.0],[18.89845,69.84809,0.0],[18.85914,69.84439,7.1388],[18.83766,69.8454,70.7438],[18.84449,69.85692,0.0],[18.84913,69.86148,0.0],[18.85816,69.86587,0.0],[18.84164,69.878,0.0]]],
[[[20.6609,69.80337,0.0],[20.70672,69.81729,39.8558],[20.72071,69.8371,308.2795],[20.70444,69.86103,0.0],[20.69663,69.87788,9.0138],[20.69825,69.88402,0.0],[20.70289,69.88882,0.0],[20.71315,69.89322,3.7311],[20.71656,69.89423,0.9562],[20.7225,69.89753,4.4821],[20.72202,69.90412,61.2052],[20.71315,69.90961,39.4215],[20.59889,69.90461,10.3191],[20.57691,69.90119,0.0],[20.56275,69.89598,41.3131],[20.55812,69.89008,74.0077],[20.55502,69.88174,0.0],[20.549,69.87336,0.0],[20.52931,69.85419,11.5848],[20.52263,69.83942,17.1779],[20.5267,69.82111,0.0],[20.53248,69.81232,2.4918],[20.55397,69.80048,214.0303],[20.60621,69.79377,0.0],[20.6609,69.80337,0.0]]],
[[[21.70802,69.93183,200.9504],[21.7199,69.93415,77.3641],[21.72975,69.93846,0.0],[21.73618,69.94839,0.0],[21.71909,69.95319,0.0],[21.702,69.95478,0.0],[21.68507,69.95311,0.0],[21.66798,69.94839,0.0],[21.67172,69.94042,99.6865],[21.67791,69.93439,109.4902],[21.68588,69.93024,117.663],[21.69581,69.92792,189.5818],[21.70802,69.93183,200.9504]]],
[[[19.67709,69.85521,27.2837],[19.72055,69.86469,265.8362],[19.75807,69.89179,57.0819],[19.79233,69.9252,0.0],[19.83473,69.94965,3.975],[19.85646,69.97313,293.6161],[19.83424,69.99482,117.6483],[19.81332,70.00259,13.0196],[19.8003,70.00434,0.0],[19.77426,70.00483,27.7441],[19.74969,69.9951,12.0658],[19.72625,69.97919,0.0],[19.69264,69.96361,2.1991],[19.59506,69.93439,13.4022],[19.54689,69.92548,0.0],[19.53297,69.91938,58.6044],[19.50994,69.89374,407.7816],[19.44272,69.85847,147.2309],[19.43426,69.84052,62.3422],[19.48365,69.83832,0.0],[19.67709,69.85521,27.2837]]],
[[[19.99586,70.01675,0.0],[19.97608,70.02436,0.0],[19.94793,70.0268,0.0],[19.91977,70.02424,0.0],[19.90016,70.01675,58.9754],[19.90821,70.01362,36.8449],[19.91635,70.01146,6.5528],[19.94996,70.00971,0.0],[19.99586,70.01675,0.0]]],
[[[20.93531,70.00943,82.6326],[20.88624,70.03758,0.0],[20.85987,70.04401,0.0],[20.82439,70.04295,0.0],[20.80201,70.0375,0.0],[20.78354,70.02424,507.3779],[20.76051,69.99966,676.5026],[20.76173,69.98762,357.6034],[20.77556,69.97211,393.488],[20.80519,69.94839,639.362],[20.84262,69.93781,344.6984],[20.89194,69.93797,156.6672],[20.94044,69.94697,65.8819],[20.97535,69.96271,0.0],[20.98072,69.98163,93.7825],[21.09938,70.01048,0.0],[20.95883,70.00308,0.0],[20.93531,70.00943,82.6326]]],
[[[21.72047,70.01923,0.0],[21.68027,70.02843,0.0],[21.65952,70.03819,0.0],[21.6045,70.04422,0.0],[21.55974,70.0305,0.0],[21.55559,70.02721,0.0],[21.5608,70.02513,0.0],[21.56365,70.02204,0.0],[21.5617,70.01903,16.448],[21.54477,70.01923,0.0],[21.54884,70.01675,0.0],[21.5853,70.01219,0.0],[21.6871,69.99181,15.5191],[21.70248,69.9938,4.9244],[21.70973,69.9982,0.0],[21.70745,69.99974,22.754],[21.70663,70.00206,33.9137],[21.70981,70.00576,62.2174],[21.72527,70.01065,129.7535],[21.72804,70.01484,0.0],[21.72047,70.01923,0.0]]],
[[[18.56007,70.02794,0.0],[18.57089,70.03685,0.0],[18.57732,70.03974,12.3356],[18.577,70.04177,6.0635],[18.57309,70.04287,0.0],[18.57081,70.04617,1.3992],[18.5652,70.0502,0.0],[18.55169,70.05272,5.2482],[18.53484,70.04824,267.7534],[18.5184,70.03738,3.0379],[18.51702,70.03469,0.0],[18.52027,70.03254,0.0],[18.52272,70.029,0.0],[18.52752,70.02611,3.8991],[18.53867,70.02497,4.5556],[18.56007,70.02794,0.0]]],
[[[21.02003,70.02814,0.0],[21.04664,70.03913,0.0],[21.04103,70.06135,0.0],[21.02052,70.06354,0.0],[20.99187,70.05146,142.8088],[20.96632,70.03498,52.7939],[20.95533,70.02412,146.7271],[21.02003,70.02814,0.0]]],
[[[19.2234,70.07368,0.0],[19.22625,70.08421,0.0],[19.22674,70.09357,0.0],[19.20818,70.09858,0.0],[19.11866,70.07274,181.0342],[19.10206,70.07046,96.1272],[19.0853,70.07225,0.0],[19.06422,70.0788,0.0],[19.06756,70.06147,0.0],[19.08253,70.05048,204.1011],[19.10206,70.04157,207.1303],[19.1194,70.03034,197.4819],[19.0739,70.01626,59.6178],[19.05738,70.01675,0.0],[19.05486,70.02017,0.0],[19.05079,70.02717,0.0],[19.04347,70.03408,0.0],[19.03004,70.03718,0.0],[19.01783,70.03514,0.0],[18.9983,70.02619,323.0776],[18.98561,70.02412,294.1466],[18.93377,70.03034,0.0],[18.87582,70.02424,120.0377],[18.8449,70.01504,6.5445],[18.83139,69.99966,182.5111],[18.84474,69.98212,162.3412],[18.87566,69.97313,118.3348],[18.93377,69.96955,194.8076],[18.91432,69.96206,107.3827],[18.88364,69.94538,186.5343],[18.86524,69.94221,112.8641],[18.7693,69.95527,71.1848],[18.72885,69.94782,202.263],[18.73341,69.93134,418.4858],[18.76433,69.91494,294.8584],[18.84303,69.90331,236.6214],[19.04363,69.83857,212.5542],[19.05567,69.83137,223.755],[19.08839,69.80101,147.8497],[19.12159,69.78783,0.0],[19.33399,69.81265,0.0],[19.37477,69.82331,0.0],[19.40675,69.83857,0.0],[19.41334,69.84545,26.0262],[19.41733,69.85301,32.6171],[19.42286,69.86123,0.0],[19.43409,69.86957,0.0],[19.47332,69.88666,31.5376],[19.48561,69.8972,0.0],[19.4922,69.90176,0.0],[19.50864,69.90778,65.7046],[19.51661,69.91425,8.958],[19.51938,69.91962,0.0],[19.52149,69.93049,0.0],[19.52345,69.93476,0.0],[19.53289,69.94628,0.0],[19.54021,69.95161,0.0],[19.64747,69.96996,0.0],[19.68312,69.98579,0.0],[19.68483,70.00678,0.0],[19.66944,70.01732,0.0],[19.6526,70.02143,0.0],[19.63526,70.02074,0.0],[19.61915,70.01675,46.7747],[19.60711,70.00873,196.0545],[19.59449,69.99795,189.0323],[19.58229,69.99323,120.7736],[19.5713,70.00308,32.7238],[19.5713,70.01423,0.0],[19.57814,70.02359,0.0],[19.58253,70.03384,0.0],[19.57496,70.04776,0.0],[19.5569,70.05707,0.0],[19.53566,70.05732,0.0],[19.46811,70.04662,25.2865],[19.43849,70.03339,127.6073],[19.41863,70.01366,126.0685],[19.42042,69.98941,107.1325],[19.39259,69.99189,0.0],[19.33969,70.01773,0.0],[19.29233,70.0312,0.0],[19.2942,70.04755,0.0],[19.30844,70.06582,0.0],[19.32488,70.0788,0.0],[19.29908,70.08584,0.0],[19.2767,70.07807,36.3422],[19.25587,70.06733,329.9101],[19.23487,70.06513,179.8379],[19.2234,70.07368,0.0]]],
[[[18.79908,70.06566,0.0],[18.79575,70.08421,31.1402],[18.78126,70.102,88.0529],[18.75367,70.11197,12.3235],[18.72136,70.11603,342.9785],[18.7024,70.1114,119.1564],[18.70387,70.10228,58.411],[18.71022,70.09443,0.0],[18.70826,70.08649,161.3413],[18.71241,70.08356,0.0],[18.702,70.07656,0.0],[18.6753,70.06428,0.0],[18.65724,70.04833,79.4651],[18.66017,70.0336,95.0519],[18.66676,70.02757,0.0],[18.68995,70.02643,0.0],[18.68751,70.02216,94.015],[18.67042,70.01215,10.2153],[18.6701,69.99901,0.0],[18.68784,69.98823,0.0],[18.70167,69.98469,0.0],[18.70777,69.98656,3.865],[18.71323,69.98916,6.5393],[18.71876,69.99071,7.3498],[18.73032,69.99995,0.0],[18.76515,70.01919,0.0],[18.83668,70.0384,0.0],[18.91049,70.04556,24.9866],[18.93775,70.05341,0.0],[18.95973,70.06391,0.0],[18.9756,70.07364,0.0],[18.96909,70.0843,1.9089],[18.92066,70.0974,0.0],[18.9074,70.10541,70.1155],[18.88982,70.10615,86.673],[18.82846,70.07315,18.4049],[18.81837,70.0644,30.1742],[18.80649,70.05931,0.0],[18.79908,70.06566,0.0]]],
[[[21.35694,70.10017,154.3696],[21.36134,70.10704,8.8157],[21.33505,70.12023,0.0],[21.32822,70.12206,0.0],[21.30055,70.12165,0.0],[21.29086,70.11697,0.0],[21.28745,70.10969,0.0],[21.2964,70.10399,0.0],[21.31503,70.10025,51.6258],[21.33888,70.09813,32.6176],[21.35694,70.10017,154.3696]]],
[[[18.84539,70.093,13.7783],[18.85182,70.10444,10.5911],[18.84889,70.11835,0.0],[18.84986,70.12495,0.0],[18.84759,70.12922,0.0],[18.81813,70.13292,14.0728],[18.80388,70.13076,218.2915],[18.79998,70.12486,0.0],[18.80136,70.11323,0.0],[18.80511,70.10708,14.0704],[18.81129,70.10094,0.0],[18.81804,70.08348,38.9823],[18.83188,70.08336,0.0],[18.84539,70.093,13.7783]]],
[[[20.89422,70.07958,10.5204],[20.91521,70.09553,253.8848],[20.91481,70.1079,0.0],[20.85694,70.14492,0.0],[20.8318,70.15095,65.8642],[20.80747,70.14081,0.0],[20.79298,70.11905,290.2175],[20.79884,70.09333,406.0376],[20.80812,70.08055,51.1404],[20.82553,70.07307,101.5101],[20.86166,70.069,115.167],[20.89422,70.07958,10.5204]]],
[[[19.5503,70.09492,0.0],[19.56902,70.10139,14.4573],[19.57325,70.11172,64.7412],[19.55209,70.12092,84.9548],[19.44663,70.15542,31.2479],[19.40797,70.16205,263.0377],[19.36655,70.1542,264.2776],[19.34059,70.14008,0.0],[19.33497,70.12792,49.8822],[19.34311,70.11839,0.0],[19.35865,70.1131,8.9089],[19.41733,70.10423,0.0],[19.49057,70.09394,0.0],[19.53875,70.0937,0.0],[19.5503,70.09492,0.0]]],
[[[20.04843,70.14712,1.0371],[20.0617,70.1553,4.5634],[20.05991,70.15994,13.4836],[20.05486,70.16319,0.0],[20.0442,70.16616,5.1292],[19.98528,70.17935,31.0857],[19.9651,70.1767,22.2796],[19.94581,70.16889,0.0],[19.94508,70.16344,29.6641],[20.03891,70.1444,0.0],[20.04843,70.14712,1.0371]]],
[[[18.87794,70.19208,0.0],[18.87289,70.19237,3.5254],[18.86378,70.19066,5.5112],[18.83562,70.19127,111.7804],[18.82016,70.17593,0.0],[18.80502,70.16812,0.0],[18.78858,70.16352,30.3487],[18.78028,70.15754,0.0],[18.78582,70.1503,12.6997],[18.79754,70.14631,0.0],[18.88087,70.14285,4.2145],[18.89243,70.14973,2.127],[18.89324,70.15583,0.0],[18.88803,70.16205,8.2622],[18.89015,70.16604,2.0984],[18.89055,70.17019,0.0],[18.89739,70.1787,2.2805],[18.89772,70.18846,11.7716],[18.89739,70.18976,25.494],[18.87908,70.18989,0.0],[18.87794,70.19208,0.0]]],
[[[21.23391,70.22428,65.8936],[21.2339,70.22427,65.8936],[21.20924,70.20848,0.0],[21.21485,70.20645,0.0],[21.24684,70.19941,126.0007],[21.26075,70.19208,169.0705],[21.27149,70.18293,89.792],[21.28199,70.17626,339.9999],[21.29493,70.17137,204.376],[21.31227,70.16755,362.1351],[21.35816,70.16405,697.7802],[21.49659,70.17495,62.6208],[21.48024,70.16669,0.0],[21.45525,70.15892,0.0],[21.43653,70.1496,0.0],[21.43898,70.13715,206.2958],[21.46876,70.10643,146.763],[21.48227,70.09858,176.0953],[21.51336,70.0917,0.0],[21.61329,70.09858,141.4779],[21.63103,70.09431,383.4203],[21.68849,70.06513,13.8183],[21.71949,70.06061,567.6805],[21.80502,70.07136,98.5587],[21.81715,70.07461,0.0],[21.82984,70.0891,96.0013],[21.8392,70.09243,246.2522],[21.95826,70.08454,111.3384],[21.98601,70.08906,0.0],[22.00782,70.10236,37.2537],[22.01979,70.10326,97.1734],[22.09938,70.12035,795.1331],[22.09441,70.1048,420.2849],[22.08277,70.0965,282.947],[22.05152,70.0856,512.1813],[22.02068,70.06782,101.4528],[22.00514,70.06135,406.4608],[21.9839,70.0576,436.955],[21.83888,70.05512,0.0],[21.79835,70.03718,181.4999],[21.8659,70.01191,18.6492],[21.95086,70.01227,0.0],[22.11362,70.03034,17.266],[22.11362,70.02412,107.4192],[22.0975,70.02448,47.793],[22.06723,70.01813,55.8721],[22.05152,70.01675,67.5959],[22.05893,69.98965,375.0883],[22.06137,69.95669,342.6543],[22.05226,69.93842,9.256],[22.02475,69.95527,0.0],[22.03484,69.97382,0.0],[22.03484,69.97944,0.0],[22.0241,69.9855,0.0],[22.01002,69.98615,0.0],[21.9839,69.98314,204.0803],[21.94011,69.98574,199.2687],[21.92856,69.98314,273.8426],[21.9214,69.97675,434.4861],[21.92335,69.97187,442.3991],[21.92799,69.96747,358.9113],[21.92856,69.96271,274.3105],[21.91358,69.94526,52.9714],[21.9144,69.93781,393.3838],[21.92514,69.92422,546.3361],[21.92937,69.91047,545.231],[21.92823,69.89362,196.4019],[21.93002,69.87934,181.9481],[21.94288,69.87328,96.3678],[21.98902,69.86799,42.5266],[22.01197,69.85952,14.5103],[22.01808,69.8454,3.7043],[21.99985,69.83515,164.1255],[21.93702,69.8426,0.0],[21.91554,69.83857,15.9394],[22.01002,69.8124,95.4602],[22.05616,69.79361,96.9195],[22.05893,69.77025,0.0],[22.09205,69.75764,0.0],[22.09816,69.74982,0.0],[22.08627,69.73957,0.0],[22.06105,69.73338,0.0],[22.03004,69.73432,0.0],[22.00017,69.74038,48.8266],[21.97706,69.74982,275.537],[22.01547,69.7436,176.426],[22.03419,69.74307,0.0],[22.05152,69.74982,0.0],[21.95729,69.77782,0.0],[21.94223,69.78734,0.0],[21.93092,69.80842,0.0],[21.90455,69.82543,0.0],[21.75766,69.88288,0.0],[21.68434,69.89012,0.0],[21.64601,69.89891,0.0],[21.6089,69.91193,0.0],[21.57862,69.92792,0.0],[21.60646,69.95527,0.0],[21.56967,69.9654,0.0],[21.55633,69.97517,0.0],[21.55812,69.98941,0.0],[21.39259,70.029,0.0],[21.33277,70.03034,0.0],[21.28989,70.02106,4.2117],[21.2531,70.003,133.3169],[21.22527,69.97468,225.5735],[21.20924,69.93476,168.8785],[21.23756,69.93476,282.5485],[21.27052,69.92975,202.0868],[21.30209,69.92036,21.7583],[21.32594,69.90746,5.2943],[21.20924,69.90746,0.0],[21.22389,69.85741,0.0],[21.22291,69.8454,31.4156],[21.20655,69.8308,108.6439],[21.17921,69.81948,121.0526],[21.14991,69.81257,71.1461],[21.12672,69.81122,31.1288],[21.14088,69.82502,0.0],[21.18051,69.85456,0.0],[21.18881,69.86957,14.4014],[21.17042,69.87564,52.2476],[21.08513,69.86612,143.1533],[21.05836,69.85969,51.1524],[21.06861,69.84268,68.4211],[21.049,69.83202,6.5748],[21.0184,69.82648,75.0045],[20.99635,69.8249,0.0],[21.00489,69.81395,185.056],[21.03566,69.80524,185.3503],[21.05095,69.79759,160.7744],[21.02052,69.78815,0.0],[20.99464,69.7934,0.0],[20.94109,69.81867,0.0],[20.94606,69.82551,0.0],[20.95167,69.82978,0.0],[20.95899,69.83185,0.0],[20.96909,69.83234,0.0],[20.95509,69.8461,0.0],[20.93605,69.84894,50.9586],[20.91456,69.8487,140.1108],[20.89389,69.85285,0.5293],[20.89389,69.85969,0.0],[20.91896,69.86685,0.0],[20.98243,69.90404,0.0],[21.09254,69.94221,0.0],[21.09254,69.94839,0.0],[21.05177,69.94473,70.0279],[20.82927,69.88304,440.5541],[20.79151,69.87954,327.7625],[20.79982,69.86636,401.0087],[20.81422,69.85395,29.1618],[20.82496,69.84154,264.8191],[20.82228,69.8286,126.0065],[20.80388,69.81196,212.4614],[20.78517,69.80174,370.3987],[20.64291,69.77265,664.7477],[20.51197,69.76948,0.0],[20.48243,69.76341,7.2635],[20.48243,69.75601,4.9195],[20.51336,69.74877,70.3599],[20.53517,69.73045,109.6822],[20.54176,69.70539,237.3684],[20.52711,69.6778,109.7792],[20.48829,69.64838,350.2909],[20.48243,69.63687,260.6691],[20.49236,69.62726,257.506],[20.54029,69.61034,151.5171],[20.6268,69.59443,949.9738],[20.64763,69.58535,951.7036],[20.6587,69.57665,427.4669],[20.68483,69.5478,681.5572],[20.71844,69.52839,145.9095],[20.81219,69.51044,146.8628],[20.85304,69.49592,155.5644],[20.83717,69.49022,11.2357],[20.82301,69.49433,3.2017],[20.80836,69.50267,11.6844],[20.79151,69.50959,0.0],[20.64698,69.52119,0.0],[20.57081,69.54483,179.5094],[20.52491,69.56452,142.6913],[20.51157,69.57217,5.4557],[20.49733,69.57762,0.0],[20.48243,69.57787,22.0717],[20.47283,69.57343,399.6442],[20.4616,69.56517,566.8741],[20.45216,69.55585,693.7844],[20.44825,69.5478,799.9141],[20.44109,69.52277,700.6708],[20.42286,69.5069,871.4377],[20.37322,69.48225,700.3588],[20.35426,69.46809,617.5295],[20.27703,69.39228,21.1311],[20.26694,69.38764,6.3893],[20.22535,69.38434,0.0],[20.07049,69.336,178.1792],[20.04721,69.32184,555.6344],[20.02768,69.30463,727.4757],[20.00025,69.28571,678.1547],[19.97169,69.27017,61.5205],[19.94801,69.26313,73.8298],[19.91684,69.26927,0.0],[19.93727,69.2884,0.0],[20.0027,69.32526,0.0],[19.99724,69.32819,0.0],[19.98715,69.33588,0.0],[19.98219,69.33893,0.0],[20.00025,69.34837,0.0],[20.05787,69.35936,0.0],[20.11606,69.38288,0.0],[20.16879,69.3937,0.0],[20.19158,69.41323,0.0],[20.20672,69.43985,0.0],[20.21559,69.46865,49.2933],[20.24171,69.45978,0.0],[20.26686,69.46809,0.0],[20.27849,69.48517,0.0],[20.26393,69.50275,0.0],[20.26954,69.51728,0.0],[20.2776,69.52896,0.0],[20.28907,69.53791,0.0],[20.30437,69.54434,0.0],[20.27418,69.56061,0.0],[20.29127,69.57355,0.0],[20.33025,69.58222,0.0],[20.36598,69.58535,0.0],[20.37648,69.58918,0.0],[20.38258,69.59878,0.0],[20.38551,69.61103,0.0],[20.38624,69.62287,0.0],[20.38307,69.63467,0.0],[20.37525,69.64216,0.0],[20.33041,69.66328,0.0],[20.32301,69.66918,0.0],[20.31861,69.68155,0.0],[20.32179,69.6861,0.0],[20.3357,69.72557,0.0],[20.34262,69.73359,0.0],[20.35027,69.74506,0.0],[20.35629,69.75707,0.0],[20.3589,69.76683,0.0],[20.36362,69.77855,0.0],[20.37452,69.78864,0.0],[20.38624,69.79719,0.0],[20.39357,69.80439,0.0],[20.39617,69.81318,0.0],[20.39682,69.83405,0.0],[20.39991,69.8454,0.0],[20.40935,69.85749,0.0],[20.42026,69.86713,0.0],[20.4253,69.87718,0.0],[20.41725,69.89037,0.0],[20.31495,69.96381,34.1709],[20.29265,69.97101,245.8903],[20.27036,69.96784,307.8228],[20.23601,69.94575,201.5755],[20.20769,69.93183,45.63],[20.20191,69.92422,67.7316],[20.20875,69.87954,204.8752],[20.20729,69.85895,10.163],[20.2024,69.85895,0.0],[20.19304,69.86774,0.0],[20.17799,69.87328,0.0],[20.17066,69.88044,11.3509],[20.1683,69.89623,0.0],[20.16774,69.92048,0.0],[20.17018,69.92699,0.0],[20.17042,69.93073,0.0],[20.16774,69.94221,0.0],[20.15455,69.93488,64.8764],[20.14357,69.92219,142.2554],[20.11476,69.8784,174.2722],[20.07838,69.8454,178.1538],[20.03395,69.79035,166.6516],[20.00701,69.7685,196.3365],[19.96852,69.76341,0.5455],[19.98316,69.7967,0.0],[20.0027,69.82111,0.0],[20.00904,69.83487,0.0],[20.00611,69.84284,0.0],[19.98902,69.83857,10.6643],[19.97788,69.83051,80.9109],[19.94459,69.79418,60.876],[19.92774,69.78413,70.1011],[19.8895,69.77489,112.4756],[19.87233,69.76341,272.7623],[19.87818,69.74433,84.5339],[19.8602,69.7329,15.2706],[19.83644,69.72394,67.311],[19.82447,69.7119,132.4309],[19.82276,69.68871,273.6231],[19.82447,69.68155,225.5048],[19.82944,69.67353,166.2736],[19.84246,69.65974,88.849],[19.84498,69.65046,76.3442],[19.85776,69.62726,83.4408],[19.88852,69.61872,40.823],[19.92498,69.61571,223.6861],[19.95484,69.6092,181.8185],[19.98927,69.59687,148.6293],[20.03159,69.58832,17.6057],[20.07496,69.5843,0.0],[20.11256,69.58535,0.0],[20.06023,69.57909,157.195],[19.9944,69.58906,0.0],[19.92856,69.60517,0.0],[19.8034,69.61416,0.0],[19.76385,69.61148,0.0],[19.74317,69.61262,0.0],[19.74643,69.60855,0.0],[19.7483,69.60541,55.094],[19.75099,69.60269,53.6465],[19.75685,69.59955,54.6538],[19.70834,69.53071,0.0],[19.72486,69.51606,74.1111],[19.71599,69.49217,0.0],[19.69809,69.46601,26.6249],[19.68849,69.44473,285.3474],[19.53028,69.40034,41.0697],[19.55193,69.42011,0.0],[19.58172,69.43745,0.0],[19.61411,69.44969,0.0],[19.64332,69.45433,0.0],[19.65016,69.45962,0.0],[19.64373,69.47175,192.4498],[19.63266,69.48566,171.4813],[19.62648,69.49592,126.1498],[19.62648,69.50825,66.4941],[19.62989,69.52045,0.0],[19.63592,69.53156,44.358],[19.64332,69.54059,0.0],[19.69988,69.5937,9.385],[19.71518,69.61262,0.0],[19.72739,69.64216,143.1251],[19.71559,69.65493,0.0],[19.69337,69.66372,0.0],[19.67433,69.68155,0.0],[19.68971,69.69033,0.0],[19.7103,69.70539,0.0],[19.72869,69.72289,0.0],[19.73634,69.73957,0.0],[19.73414,69.75361,0.0],[19.73146,69.75682,0.0],[19.76938,69.78425,0.0],[19.77687,69.79157,0.0],[19.78419,69.80439,0.0],[19.73715,69.81306,0.0],[19.55877,69.8002,0.0],[19.48308,69.7814,290.2932],[19.44435,69.77709,168.5896],[19.29575,69.7829,0.0],[19.24903,69.77709,0.0],[19.23292,69.77058,0.0],[19.20143,69.75332,170.1344],[19.18434,69.74982,49.3816],[19.1395,69.7475,0.0],[19.11785,69.74335,2.3988],[19.09832,69.73615,0.0],[19.08497,69.69343,47.5411],[18.94435,69.6153,29.1769],[18.95802,69.5611,41.1957],[18.97316,69.55048,77.2897],[18.99448,69.53962,47.9693],[19.01637,69.53437,119.243],[19.03346,69.54059,100.1607],[19.0534,69.55215,0.0],[19.1032,69.55598,0.0],[19.14763,69.56489,45.2698],[19.22926,69.56794,253.6683],[19.23325,69.55317,573.4386],[19.24285,69.54377,423.1907],[19.25375,69.53531,659.686],[19.26271,69.52326,260.7996],[19.25017,69.52464,83.2024],[19.23561,69.52827,3.4087],[19.22202,69.53376,0.0],[19.19483,69.55048,37.4001],[19.17693,69.55073,0.0],[19.0691,69.53327,98.544],[19.03191,69.52114,8.5113],[19.00571,69.50617,47.1616],[18.99269,69.48314,31.3367],[19.00131,69.46434,132.1946],[19.02174,69.45026,134.8756],[19.04363,69.44135,81.1309],[19.07008,69.43757,196.6743],[19.07789,69.43452,238.8899],[19.08237,69.42919,173.6907],[19.08326,69.42353,161.9014],[19.08326,69.41828,183.531],[19.08522,69.41401,239.4364],[19.10963,69.39204,354.1821],[19.1194,69.38605,214.2166],[19.15626,69.37714,43.7533],[19.29835,69.38581,259.2967],[19.32488,69.38402,487.686],[19.35011,69.3791,129.4219],[19.42954,69.34174,667.5477],[19.44947,69.32486,155.605],[19.4546,69.31843,269.4204],[19.4546,69.3061,405.7829],[19.44947,69.29865,432.3927],[19.44361,69.29239,308.4969],[19.44093,69.28368,205.0883],[19.44858,69.26032,182.193],[19.46599,69.24897,299.3843],[19.48764,69.24128,421.5642],[19.50929,69.22907,266.2103],[19.47722,69.22077,3.5195],[19.4131,69.24018,0.0],[19.37941,69.24266,0.0],[19.365,69.23798,0.0],[19.3366,69.22492,133.9113],[19.31772,69.22215,11.9323],[19.30079,69.22403,2.8663],[19.26319,69.2353,0.0],[19.24903,69.24266,0.0],[19.27231,69.25239,0.0],[19.26857,69.26618,0.0],[19.25099,69.27424,58.2696],[19.23211,69.26655,128.0786],[19.22446,69.26211,161.9956],[19.19663,69.25129,155.1096],[19.18775,69.2495,229.5723],[19.1775,69.25349,93.5984],[19.16879,69.26044,88.7793],[19.167,69.26704,88.7655],[19.18922,69.27216,98.8852],[19.21534,69.28156,237.3161],[19.22926,69.28368,222.4227],[19.28492,69.27554,0.0],[19.3506,69.29047,0.0],[19.3711,69.30012,0.0],[19.37941,69.32184,0.0],[19.34742,69.34418,0.0],[19.14601,69.35253,0.0],[19.12233,69.35879,0.0],[19.05738,69.38605,0.0],[19.01441,69.39704,0.0],[19.00318,69.4079,0.0],[19.00953,69.42829,0.0],[18.93531,69.44628,0.0],[18.91676,69.45808,0.0],[18.91293,69.46556,0.0],[18.91139,69.48184,0.0],[18.9065,69.48969,0.0],[18.89373,69.49763,0.0],[18.87721,69.50194,0.0],[18.86012,69.5034,3.4268],[18.84449,69.50275,20.7108],[18.85328,69.50825,38.1558],[18.86004,69.51447,17.4091],[18.86427,69.52192,9.8646],[18.86549,69.53071,0.0],[18.86158,69.5467,0.0],[18.85271,69.55231,0.0],[18.63063,69.541,0.0],[18.56471,69.52656,0.0],[18.49757,69.52196,0.0],[18.47429,69.51642,0.0],[18.46852,69.50406,357.467],[18.48878,69.48225,58.0267],[18.4782,69.47956,0.0],[18.46616,69.47382,0.0],[18.45688,69.4654,0.0],[18.4546,69.45433,0.0],[18.46664,69.44522,43.386],[18.49008,69.44172,0.0],[18.5298,69.44135,178.274],[18.56267,69.43696,236.6539],[18.57781,69.43134,250.8335],[18.59181,69.42084,372.8064],[18.59669,69.41218,131.3281],[18.60084,69.40054,22.3765],[18.60662,69.39045,2.3517],[18.61573,69.38605,88.7853],[18.63152,69.38296,164.0738],[18.66481,69.36933,111.1141],[18.93377,69.33405,121.1532],[18.9546,69.32831,104.0687],[18.98854,69.30711,75.4085],[18.99903,69.30414,57.0691],[19.00701,69.30288,73.8179],[19.01352,69.2993,132.1788],[19.01637,69.29393,180.7582],[19.01295,69.28705,35.4105],[19.00538,69.28555,16.0628],[18.9297,69.2958,29.8278],[18.86345,69.31932,56.3732],[18.8239,69.32526,0.0],[18.73504,69.32416,0.0],[18.68971,69.31786,55.2617],[18.67368,69.30414,57.6917],[18.681,69.29645,46.1401],[18.69264,69.29255,82.0878],[18.70314,69.28767,73.2357],[18.70777,69.2768,0.0],[18.70297,69.26252,0.0],[18.69166,69.2635,14.4965],[18.67921,69.27204,150.7926],[18.67026,69.28026,20.4351],[18.6517,69.28823,0.0],[18.62534,69.29316,62.7401],[18.60206,69.30024,172.9523],[18.59181,69.31468,0.0],[18.58872,69.33324,0.0],[18.57976,69.35293,0.0],[18.56479,69.36465,0.0],[18.54396,69.35936,0.0],[18.53834,69.34797,0.0],[18.53631,69.32901,24.9963],[18.53663,69.29426,0.0],[18.53321,69.2779,0.0],[18.52491,69.26203,2.8721],[18.50245,69.23526,0.0],[18.49724,69.2447,4.0798],[18.49855,69.25202,0.0],[18.50424,69.25873,0.0],[18.51271,69.26655,0.0],[18.51629,69.27611,0.0],[18.50953,69.28295,0.0],[18.49562,69.29047,0.0],[18.49781,69.30695,36.9188],[18.50709,69.33784,0.0],[18.50929,69.35594,0.0],[18.50294,69.37006,0.0],[18.48715,69.38203,0.0],[18.46713,69.39033,0.0],[18.44752,69.39354,0.0],[18.36817,69.39232,0.0],[18.36476,69.39151,0.0],[18.36834,69.39326,0.0],[18.37631,69.40766,0.0],[18.38347,69.4147,0.0],[18.38738,69.42219,0.0],[18.38233,69.43134,0.0],[18.34148,69.46768,10.2369],[18.32252,69.47895,0.0],[18.30095,69.48676,0.0],[18.27589,69.48969,0.0],[18.26336,69.4881,0.0],[18.25563,69.4842,0.0],[18.24952,69.47968,160.3506],[18.24171,69.47606,201.2091],[18.19353,69.46943,0.0],[18.16554,69.46015,126.8554],[18.15846,69.45962,113.1098],[18.15504,69.45759,103.4231],[18.15235,69.44815,52.2755],[18.15577,69.44196,7.2526],[18.16481,69.43887,47.0267],[18.17107,69.43366,75.0188],[18.16603,69.42084,0.0],[18.17066,69.41828,169.5112],[18.1753,69.41218,413.9208],[18.18035,69.40778,285.8407],[18.16538,69.39374,0.0],[18.14405,69.38203,91.5819],[18.13054,69.36933,249.1054],[18.13868,69.35253,296.3308],[18.11256,69.33348,70.0678],[18.04542,69.31745,0.0],[18.0158,69.30414,98.4331],[18.0031,69.28571,159.2238],[18.00408,69.25015,86.5457],[17.98854,69.23526,61.5709],[18.01629,69.22919,0.0],[18.07716,69.23713,123.9876],[18.10524,69.22907,76.1203],[18.09034,69.21479,71.3065],[18.0796,69.20702,135.9973],[18.07325,69.19741,27.6823],[18.07106,69.17756,0.0],[18.08131,69.16913,103.1129],[18.15235,69.15396,7.9363],[18.02418,69.15567,0.0],[17.95883,69.1485,0.0],[17.86899,69.12132,189.3195],[17.65886,69.11689,0.0],[17.6316,69.10554,0.0],[17.64381,69.10078,85.5237],[17.66782,69.09601,37.6004],[17.67937,69.09186,18.8282],[17.65699,69.07811,0.0],[17.6032,69.06061,0.0],[17.55942,69.03172,46.0083],[17.48829,68.99567,0.0],[17.48829,68.98884,25.0191],[17.51922,68.99046,152.2858],[17.53045,68.98688,309.6242],[17.53598,68.97517,0.0],[17.5337,68.96084,0.0],[17.52394,68.95502,149.6633],[17.49513,68.95474,58.5109],[17.47975,68.94782,153.266],[17.43637,68.9134,0.0],[17.42612,68.89948,0.0],[17.45777,68.89981,115.4591],[17.52149,68.91673,470.1568],[17.72096,68.93423,7.0767],[17.71168,68.91877,19.6711],[17.70737,68.91376,0.0],[17.82594,68.89374,210.9445],[17.85133,68.87275,34.0403],[17.82358,68.86831,0.0],[17.79607,68.86815,0.0],[17.76873,68.87181,0.0],[17.74147,68.87897,0.0],[17.71827,68.89081,98.4138],[17.70737,68.89326,187.8129],[17.69418,68.89175,136.272],[17.66481,68.8815,163.2874],[17.63014,68.8769,249.4146],[17.60922,68.87149,262.9007],[17.54566,68.84715,543.8486],[17.46762,68.8312,0.0],[17.64527,68.79706,0.0],[17.73927,68.79133,0.0],[17.78289,68.77814,0.0],[17.78297,68.7486,70.5609],[17.72169,68.77847,0.0],[17.56479,68.78876,257.3492],[17.46095,68.81538,320.3572],[17.42774,68.80825,367.4978],[17.39552,68.79645,187.812],[17.33326,68.7871,0.0],[17.26295,68.76822,0.0],[17.23439,68.75605,0.0],[17.29029,68.73656,0.0],[17.32358,68.73159,0.0],[17.34767,68.739,0.0],[17.37387,68.75031,330.7455],[17.40333,68.74445,0.0],[17.42986,68.72989,0.0],[17.44728,68.71507,0.0],[17.49448,68.69033,0.0],[17.62062,68.68134,0.0],[17.67937,68.66047,101.2806],[17.65561,68.65729,215.0633],[17.57667,68.67414,336.8138],[17.49008,68.66572,150.2196],[17.46022,68.66669,655.939],[17.44068,68.66999,612.3378],[17.42156,68.67573,230.4708],[17.40366,68.68456,194.1355],[17.37037,68.71113,333.7797],[17.35108,68.71247,375.5681],[17.33107,68.70893,463.2924],[17.31007,68.70767,533.9966],[17.27084,68.72016,383.5787],[17.25017,68.72394,506.9518],[17.20541,68.71137,616.2491],[17.11508,68.69904,194.1402],[17.10857,68.69693,6.0594],[17.1006,68.69062,0.0],[17.09734,68.68415,0.0],[17.09718,68.67617,0.0],[17.10043,68.6695,149.0922],[17.10743,68.66669,100.3799],[17.11834,68.66454,8.2095],[17.13258,68.65522,0.0],[17.14503,68.65302,0.0],[17.16993,68.6518,0.0],[17.17986,68.64761,0.0],[17.18653,68.63874,148.0122],[17.16774,68.63402,177.5808],[17.14869,68.63231,267.9261],[17.12965,68.63378,345.6723],[17.09002,68.64338,206.9705],[17.08351,68.64619,213.4918],[17.0818,68.65086,327.3168],[17.08237,68.65778,442.0735],[17.0809,68.66401,392.868],[17.04526,68.67573,217.2224],[17.01987,68.69383,595.5905],[16.99293,68.70795,380.5928],[16.9607,68.70454,107.3489],[16.92506,68.69326,6.5746],[16.80983,68.68098,21.0478],[16.69695,68.65054,0.0],[16.62924,68.64167,84.2002],[16.59702,68.62954,35.5603],[16.57179,68.61213,24.1004],[16.56275,68.59154,0.0],[16.56642,68.57783,0.0],[16.57325,68.56924,0.0],[16.58334,68.56318,0.0],[16.59693,68.55744,0.0],[16.61476,68.5528,0.0],[16.62827,68.55085,29.608],[16.63209,68.54629,55.5536],[16.6211,68.53351,10.5818],[16.60434,68.52888,96.8596],[16.58083,68.53449,117.4261],[16.57943,68.53323,162.0096],[16.58238,68.5244,177.8578],[16.58796,68.51685,141.271],[16.60439,68.51055,184.4257],[16.66925,68.50734,20.2171],[16.74175,68.52171,26.3738],[16.88463,68.56654,799.6],[17.37003,68.57612,279.9713],[17.568,68.60793,949.9521],[17.82313,68.61256,559.4179],[18.03666,68.61961,775.8355],[18.18078,68.54383,609.9346],[18.18864,68.53884,547.2344],[18.18929,68.53842,534.3329],[18.43622,68.57385,1217.8325],[18.4818,68.56197,1091.8318],[18.64458,68.50125,450.4978],[18.70028,68.49561,676.4948],[19.03814,68.50564,917.2603],[19.48174,68.42404,1094.6306],[19.93101,68.3502,702.1382],[19.97121,68.35128,521.9858],[20.01028,68.36389,493.3404],[20.24593,68.47737,663.0281],[19.96222,68.54119,642.2575],[20.15177,68.60682,866.3878],[20.23662,68.65907,737.4889],[20.33884,68.76547,768.0785],[20.35217,68.78567,681.1417],[20.35651,68.80459,679.0378],[20.34876,68.89311,703.7157],[20.34111,68.91006,690.7285],[20.10227,69.02214,868.981],[20.36272,69.02925,792.8342],[20.62316,69.03636,589.3804],[20.7166,69.09878,526.0771],[20.7444,69.10436,510.4423],[21.03255,69.04101,718.8569],[21.07151,69.03667,708.9196],[21.099,69.0438,830.7601],[21.15636,69.08762,963.6567],[21.03358,69.1812,993.9093],[21.06303,69.21495,968.7104],[21.07967,69.23014,1035.2932],[21.09838,69.2395,1043.2699],[21.31356,69.29143,1152.3181],[21.63881,69.27138,784.3909],[21.66289,69.26322,759.9926],[21.9461,69.0657,605.7024],[21.94639,69.06573,605.7024],[21.96996,69.06819,548.795],[22.44073,69.08968,501.8056],[22.52408,69.10992,537.7535],[22.54672,69.11873,509.7899],[22.56253,69.12958,497.1809],[22.58119,69.15146,434.6377],[22.58646,69.16152,424.4467],[22.58987,69.17681,433.3571],[22.59343,69.18803,451.7467],[22.59653,69.20206,546.1696],[22.59684,69.21547,505.2289],[22.59111,69.23055,451.679],[22.57839,69.2473,505.8813],[22.56036,69.26507,560.8292],[22.4738,69.32884,584.8478],[22.4274,69.35675,674.7496],[22.39417,69.37181,706.0884],[22.35867,69.39385,759.9587],[22.34952,69.40439,718.1653],[22.34285,69.41871,646.6634],[22.33722,69.43855,713.039],[22.33521,69.45282,711.9342],[22.33552,69.46827,655.5482],[22.34037,69.47343,624.1428],[22.35154,69.47715,605.0428],[22.60056,69.50961,651.647],[22.7621,69.5126,632.2938],[22.77482,69.51524,630.3839],[22.78009,69.51958,636.1037],[22.77807,69.52444,642.7017],[22.77358,69.52986,637.9107],[22.77141,69.53568,620.9849],[22.77606,69.54149,616.8175],[22.79704,69.55054,614.5305],[22.80975,69.55836,614.0985],[22.81874,69.56754,613.6381],[22.82138,69.57487,617.2632],[22.83099,69.58547,615.6903],[22.8498,69.59694,641.0502],[22.91946,69.62743,732.5176],[22.93295,69.63539,704.8135],[22.93341,69.63994,708.4835],[22.92752,69.64391,742.912],[22.91543,69.64815,754.8286],[22.88577,69.65539,784.4348],[22.8636,69.65794,799.3126],[22.79047,69.65531,717.1343],[22.72066,69.66841,665.2437],[22.66418,69.68577,630.7365],[22.62868,69.70587,635.9182],[22.61731,69.716,761.3471],[22.59607,69.74205,603.0422],[22.57762,69.7591,680.8248],[22.54377,69.77964,587.4918],[22.53059,69.79099,686.6499],[22.52641,69.80003,644.8511],[22.53059,69.80623,706.7197],[22.53819,69.81279,741.0828],[22.57576,69.83403,809.8499],[22.58429,69.8407,769.8952],[22.58506,69.84649,773.7177],[22.57343,69.85336,697.6071],[22.55524,69.85951,846.418],[22.53866,69.86721,905.6044],[22.53773,69.87563,763.1962],[22.54594,69.88617,600.2623],[22.55912,69.89896,636.8094],[22.56486,69.91,714.021],[22.55726,69.91733,709.4229],[22.53959,69.92204,685.8953],[22.48248,69.92403,657.4503],[22.33738,69.94643,660.0797],[22.32141,69.9516,685.8381],[22.31102,69.95862,624.9865],[22.29722,69.97154,564.4624],[22.24369,70.01144,393.6269],[22.2378,70.01748,376.3249],[22.2364,70.0226,226.401],[22.23749,70.028,145.6075],[22.23423,70.04477,111.4492],[22.18968,70.09055,655.6266],[22.16901,70.1074,703.649],[22.15522,70.12316,555.0404],[22.14374,70.13944,611.6207],[22.12964,70.15024,1038.0957],[22.11222,70.15838,1089.0341],[22.09718,70.15815,1075.4896],[22.07951,70.15401,1010.433],[22.04644,70.14135,875.2019],[22.03373,70.13939,901.5527],[21.98391,70.14251,603.2091],[21.97538,70.14161,633.5352],[21.96314,70.13892,473.7412],[21.94184,70.13221,670.2234],[21.93177,70.12771,231.6265],[21.92913,70.12352,66.9626],[21.93316,70.11991,104.5051],[21.93146,70.11619,240.3308],[21.90774,70.10895,605.1177],[21.87451,70.10244,806.7379],[21.86009,70.10435,599.9196],[21.74666,70.13851,979.5687],[21.64796,70.18078,194.0198],[21.61711,70.18724,398.2596],[21.58776,70.18887,595.4362],[21.52786,70.18499,411.4348],[21.23391,70.22428,65.8936]]],
[[[20.77101,70.11555,0.0],[20.77247,70.1201,0.0],[20.77556,70.12458,0.0],[20.78077,70.14248,0.0],[20.78932,70.15314,0.0],[20.80828,70.17121,0.0],[20.82423,70.19457,0.0],[20.82439,70.20987,0.0],[20.80885,70.22036,0.0],[20.77719,70.22956,0.0],[20.7339,70.23672,0.0],[20.58766,70.23615,0.0],[20.56137,70.23322,0.0],[20.55128,70.22956,0.0],[20.5477,70.2248,8.0212],[20.54591,70.21792,219.6515],[20.54518,70.21149,443.5176],[20.54461,70.20848,442.1104],[20.5254,70.20295,11.444],[20.46258,70.19546,0.0],[20.43775,70.18667,0.0],[20.4157,70.17154,11.4877],[20.39967,70.15038,221.4301],[20.39357,70.12348,395.5903],[20.3921,70.10961,401.7442],[20.3899,70.10269,555.2145],[20.39129,70.09663,685.7307],[20.39991,70.0856,659.3245],[20.41383,70.07494,500.2836],[20.43165,70.06806,657.3854],[20.45094,70.06476,455.0847],[20.46876,70.06513,196.6593],[20.50668,70.05834,0.0],[20.52084,70.06232,0.0],[20.51783,70.0788,478.8226],[20.56495,70.0788,0.0],[20.55958,70.09374,87.9266],[20.56471,70.10472,287.6468],[20.57691,70.10956,408.838],[20.5923,70.10602,678.7253],[20.60108,70.09715,835.3007],[20.60255,70.08637,557.1642],[20.59913,70.06513,564.3804],[20.59523,70.05777,502.7236],[20.58863,70.05093,543.856],[20.58815,70.04597,449.9042],[20.60255,70.04401,334.9159],[20.61451,70.04515,116.226],[20.63624,70.05028,0.0],[20.64723,70.05146,0.0],[20.66041,70.05459,122.4703],[20.67514,70.06826,360.1827],[20.68849,70.07136,353.6105],[20.70493,70.06794,210.5565],[20.72486,70.0611,438.2644],[20.74733,70.05598,609.9821],[20.77101,70.0576,539.5861],[20.78679,70.06257,205.3268],[20.7942,70.06782,28.6887],[20.79518,70.07665,0.0],[20.79151,70.09243,258.6346],[20.7894,70.09374,201.2513],[20.77418,70.10952,27.9079],[20.77101,70.11555,0.0]]],
[[[19.2059,70.2543,10.9604],[19.19728,70.25703,10.719],[19.19158,70.25434,0.0],[19.18491,70.2534,4.339],[19.17742,70.25585,2.0405],[19.1683,70.25487,70.6066],[19.15984,70.24836,1.9621],[19.15577,70.24291,8.8309],[19.15512,70.2392,0.0],[19.15203,70.23745,0.0],[19.14552,70.23941,51.8326],[19.13502,70.24091,151.4362],[19.10515,70.24116,246.4315],[19.09148,70.23794,209.9599],[19.0892,70.23359,19.1375],[19.09636,70.22993,0.0],[19.11036,70.22443,0.0],[19.11394,70.22061,0.0],[19.11199,70.21625,7.8617],[19.11883,70.20881,101.7576],[19.13803,70.20173,0.0],[19.13738,70.19721,2.78],[19.11411,70.1933,156.418],[19.09791,70.18586,304.6342],[19.09864,70.1579,0.0],[19.08741,70.15746,0.0],[19.07635,70.16669,40.3469],[19.06446,70.17048,29.6119],[19.04566,70.16913,19.273],[19.00172,70.15835,0.0],[18.99586,70.15209,85.0604],[19.00945,70.1459,8.4047],[19.03142,70.14081,0.0],[19.10288,70.11689,112.419],[19.14064,70.11079,0.0],[19.17416,70.11514,0.0],[19.22682,70.13496,29.7361],[19.2295,70.13988,0.0],[19.22682,70.14444,0.0],[19.22543,70.14916,0.0],[19.22543,70.15388,6.4322],[19.22967,70.15986,0.0],[19.25017,70.17414,9.1126],[19.25221,70.18667,0.0],[19.24871,70.19375,0.0],[19.24236,70.20087,22.4951],[19.22771,70.21206,4.8785],[19.22967,70.22085,21.0561],[19.23048,70.23436,81.5566],[19.21144,70.25056,29.4954],[19.2059,70.2543,10.9604]]],
[[[19.70151,70.25007,0.0],[19.69776,70.2602,1.5711],[19.69508,70.27363,0.0],[19.68971,70.28535,0.0],[19.67774,70.29043,0.0],[19.61557,70.27924,214.6062],[19.58839,70.26838,381.5327],[19.59164,70.2569,566.364],[19.59164,70.25007,566.7243],[19.56316,70.25633,8.1913],[19.54933,70.25654,0.0],[19.53712,70.25007,140.5847],[19.55934,70.23119,401.9628],[19.63307,70.21931,202.0844],[19.66407,70.20539,98.0188],[19.67351,70.19855,245.2378],[19.69215,70.18863,276.7898],[19.70151,70.18122,287.8885],[19.72584,70.15046,250.6389],[19.73504,70.14362,144.4289],[19.74244,70.14069,152.4117],[19.74757,70.13593,219.5312],[19.74936,70.12348,247.0195],[19.74757,70.09345,589.035],[19.74936,70.0856,558.0283],[19.77613,70.06733,284.9606],[19.81951,70.06025,176.472],[19.9782,70.06013,160.9127],[20.01686,70.06928,0.0],[20.03102,70.07538,0.0],[20.03639,70.08308,0.0],[20.02369,70.09243,109.9462],[20.05421,70.10151,119.4207],[20.15406,70.11286,0.0],[20.15406,70.12035,0.0],[20.11158,70.12018,0.0],[19.98219,70.14704,49.1595],[19.95753,70.15461,0.0],[19.93816,70.16376,0.0],[19.93051,70.1767,0.0],[19.94117,70.19546,0.0],[19.89137,70.21385,0.0],[19.87289,70.21589,0.0],[19.86598,70.21044,0.0],[19.85304,70.18415,310.9923],[19.84498,70.17495,382.8593],[19.8156,70.16975,8.5107],[19.80152,70.1874,0.0],[19.79054,70.2106,0.0],[19.77019,70.22211,0.0],[19.75261,70.22419,0.0],[19.73325,70.22993,0.0],[19.71518,70.23876,8.0389],[19.70151,70.25007,0.0]]],
[[[20.22364,70.21975,137.106],[20.23325,70.22679,0.0],[20.28191,70.25141,203.5376],[20.292,70.2604,0.0],[20.28777,70.26398,18.3381],[20.24521,70.2742,0.0],[20.20151,70.30707,11.5978],[20.18857,70.3109,15.1001],[20.17465,70.30671,184.7635],[20.16594,70.30003,0.0],[20.16627,70.29393,11.6288],[20.18751,70.27794,5.4687],[20.19304,70.26586,0.0],[20.19614,70.26183,0.0],[20.19728,70.25593,0.0],[20.19703,70.23355,0.0],[20.19996,70.22606,0.0],[20.20834,70.21841,0.0],[20.21404,70.21556,0.0],[20.22364,70.21975,137.106]]]]}
,"properties": {"ISO3166-1-Alpha-3": "NOR","country": "Norway","fill": "#00F","name": "Troms","area_km2": 25671.24,"hist_schema_id": "Elevation0-9000","hist_area_km2": {"0": 1169.55,"25": 612.35,"50": 548.1,"75": 585.2,"100": 590.03,"125": 562.3,"150": 577.93,"175": 574.36,"200": 580.6,"225": 593.52,"250": 585.89,"275": 576.21,"300": 568.61,"325": 544.79,"350": 528.78,"375": 518.18,"400": 521.35,"425": 531.49,"450": 580.0,"475": 659.66,"500": 756.44,"525": 639.25,"550": 660.47,"575": 639.73,"600": 669.95,"625": 731.38,"650": 670.9,"675": 667.12,"700": 661.3,"725": 618.87,"750": 583.37,"775": 557.43,"800": 521.81,"825": 519.48,"850": 500.19,"875": 480.57,"900": 455.78,"925": 411.46,"950": 384.97,"975": 338.31,"1000": 304.4,"1025": 273.47,"1050": 249.64,"1075": 221.43,"1100": 189.04,"1125": 159.25,"1150": 132.7,"1175": 107.92,"1200": 95.38,"1225": 79.55,"1250": 70.04,"1275": 62.11,"1300": 51.3,"1325": 42.47,"1350": 34.05,"1375": 26.67,"1400": 22.32,"1425": 16.93,"1450": 14.0,"1475": 10.84,"1500": 8.04,"1525": 5.88,"1550": 4.18,"1575": 3.22,"1600": 2.87,"1625": 2.2,"1650": 1.46,"1675": 0.63,"1700": 0.63,"1725": 0.32,"1800": 0.21}}}