{"type":"Feature","properties":{"featurecla":"River","scalerank":8,"rivernum":904,"dissolve":"904River","name":"Patsoyoki","name_alt":null,"note":null,"min_zoom":7.0,"strokeweig":0.2,"name_en":"Patsoyoki","min_label":8.0},
"geometry":{"type": "LineString","coordinates": [[29.314550781250006,69.31903717655662,50.5],[29.337646484375,69.32086823124412,57.4789],[29.391992187500023,69.328973699994123,65.637],[29.52587890625,69.336542059369123,95.3762],[29.547460937500006,69.33466217655662,50.5],[29.570898437500006,69.33539459843162,60.1986],[29.685449218750023,69.373309637494117,50.0172],[29.724853515625,69.395770574994117,34.6229],[29.82470703125,69.42108795780662,25.981],[29.873144531250006,69.42206452030662,20.0],[29.914941406250023,69.413934637494123,27.3821],[29.943945312500006,69.42059967655662,29.7965],[29.976171875,69.42621491093162,29.0462],[30.009765625,69.43756744999412,20.0],[30.0390625,69.45123932499412,26.0036],[30.091796875,69.46686432499412,22.3213],[30.109960937500006,69.489129949994123,25.7115],[30.1171875,69.506366278119117,20.0],[30.126220703125,69.52667877811912,20.0],[30.144238281250011,69.538202215619123,39.6023],[30.1640625,69.546893621869117,20.0],[30.17724609375,69.560419012494123,20.0],[30.17529296875,69.582538153119117,20.0],[30.15869140625,69.611835028119117,33.8296],[30.139550781250023,69.639911199994117,20.0],[30.1279296875,69.67084381718162,2.4179],[30.118896484375,69.681268621869123,6.317],[30.114501953125,69.706170965619123,39.3864]]}}