{"type":"Feature","properties":{"GID_2":"NOR.5.19_1","GID_0":"NOR","country":"Norway","GID_1":"NOR.5_1","province":"Finnmark","NL_NAME_1":"NA","county":"Vardø","VARNAME_2":"NA","NL_NAME_2":"NA","TYPE_2":"Kommuner","ENGTYPE_2":"Municipality","CC_2":"NA","HASC_2":"NO.FI.VR","name":"Vardø.county"},
"geometry":{"type": "MultiPolygon","coordinates": [[[[30.0881,70.2942,447.3584],[30.0875,70.293,439.8702],[30.1006,70.2923,395.2683],[30.0984,70.2879,418.3013],[30.1246,70.2864,287.3239],[30.1224,70.282,328.3498],[30.1617,70.2799,226.3155],[30.1595,70.2754,262.3299],[30.1988,70.2733,252.0549],[30.1944,70.2644,227.4019],[30.2075,70.2637,249.0785],[30.2053,70.2593,211.7835],[30.2315,70.2578,206.9775],[30.2293,70.2534,194.8517],[30.2554,70.252,157.3788],[30.2532,70.2475,168.0579],[30.2794,70.2461,195.2228],[30.2771,70.2416,223.1601],[30.3033,70.2402,222.1419],[30.3011,70.2358,231.9155],[30.3272,70.2343,192.7132],[30.325,70.2299,226.6158],[30.3511,70.2284,173.1455],[30.3489,70.224,157.9294],[30.375,70.2225,127.0099],[30.3727,70.2181,100.9243],[30.3988,70.2167,85.8111],[30.3966,70.2122,53.0328],[30.4227,70.2108,37.1786],[30.4205,70.2063,11.7081],[30.4334,70.2056,0.0],[30.4708,70.2063,5.4039],[30.4786,70.2109,0.0],[30.4776,70.2141,3.0819],[30.4849,70.2151,0.0],[30.4911,70.2193,0.0],[30.488,70.2224,1.5141],[30.4974,70.2276,0.0],[30.4995,70.2297,0.0],[30.4984,70.2328,4.0705],[30.5057,70.2338,0.0],[30.513,70.2391,3.5594],[30.5208,70.2396,0.0],[30.525,70.2417,1.3096],[30.5396,70.2417,6.0232],[30.5438,70.2396,4.9538],[30.5542,70.2396,6.4783],[30.5604,70.2375,0.0],[30.562,70.238,0.0],[30.5609,70.2412,0.0],[30.5651,70.2453,0.0],[30.5708,70.2479,0.0],[30.5917,70.2479,0.0],[30.5979,70.2438,0.0],[30.6042,70.2458,0.0],[30.6229,70.2458,0.0],[30.6271,70.2479,2.6438],[30.6375,70.2479,0.0],[30.6417,70.25,7.4864],[30.675,70.25,0.0],[30.6875,70.2458,1.9569],[30.7083,70.2458,11.7872],[30.7141,70.2484,0.0],[30.7109,70.2516,5.3726],[30.7203,70.2526,0.0],[30.725,70.2562,0.0],[30.7354,70.2562,0.0],[30.7438,70.2604,0.6083],[30.7708,70.2604,4.1219],[30.7833,70.2562,0.0],[30.7917,70.2562,0.0],[30.8005,70.262,0.0],[30.8099,70.263,0.0],[30.813,70.2662,0.0],[30.8229,70.2667,2.0458],[30.8328,70.2641,0.0],[30.8318,70.2609,0.0],[30.8333,70.2604,0.0],[30.8375,70.2604,4.777],[30.8417,70.2583,0.0],[30.85,70.2583,0.0],[30.8557,70.262,0.0],[30.8479,70.2625,3.1069],[30.8464,70.2641,14.8983],[30.8729,70.2646,0.0],[30.8792,70.2688,18.7921],[30.9083,70.2688,0.8966],[30.9229,70.2729,0.9411],[30.9375,70.2729,0.0],[30.9438,70.2688,0.0],[30.9521,70.2688,0.0],[30.9562,70.2708,0.0],[30.9641,70.2714,0.0],[30.9854,70.2854,0.0],[30.9938,70.2854,0.3722],[31.0,70.2813,0.0],[31.0167,70.2813,30.9315],[31.0229,70.2792,0.0],[31.0271,70.2813,31.2758],[31.0458,70.2813,0.0],[31.0599,70.2901,8.5282],[31.0583,70.2917,0.0],[31.0505,70.2922,11.292],[31.0536,70.2953,1.4172],[31.0479,70.2979,1.4248],[31.0422,70.2984,7.0557],[31.0401,70.3005,4.0035],[31.0411,70.3037,0.0],[31.0401,70.3057,0.0],[31.0516,70.313,0.0],[31.0536,70.3151,11.9947],[31.0526,70.3182,62.0434],[31.0578,70.3214,9.2268],[31.0563,70.3229,39.3054],[31.0484,70.3234,87.0502],[31.0516,70.3266,53.4321],[31.0401,70.3339,119.3571],[31.0495,70.3401,0.0],[31.0443,70.3443,6.3162],[31.0453,70.3474,3.5702],[31.0443,70.3495,3.3222],[31.0557,70.3484,0.0],[31.0526,70.3505,4.288],[31.0557,70.3536,0.1666],[31.0526,70.3557,3.1644],[31.0557,70.3578,0.0],[31.0479,70.3625,0.0],[31.0313,70.3625,0.0],[31.0271,70.3646,0.0],[31.0193,70.3651,5.3237],[31.0224,70.3682,0.0],[31.0193,70.3703,3.1371],[31.0349,70.3797,1.536],[31.037,70.3818,0.0],[31.0359,70.3849,0.0],[31.0411,70.3891,0.0],[31.0318,70.3901,1.5819],[31.0349,70.3922,0.0],[31.0328,70.3953,0.0],[31.0151,70.3984,0.0],[31.0047,70.4047,65.4421],[31.0078,70.4078,11.9424],[31.0047,70.4099,1.2855],[31.0078,70.412,0.0],[30.9984,70.413,0.7361],[30.9891,70.4203,9.5381],[30.9833,70.4208,17.3476],[30.9766,70.4245,0.0],[30.9708,70.425,6.5452],[30.9651,70.4276,1.2882],[30.963,70.4297,0.0],[30.9641,70.4328,2.45],[30.963,70.4349,4.1326],[30.9682,70.4391,0.0],[30.9625,70.4417,0.413],[30.9479,70.4437,25.1929],[30.9354,70.4479,9.2211],[30.9167,70.4437,88.4438],[30.9151,70.4453,64.9581],[30.9182,70.4474,10.9472],[30.9146,70.4479,6.1242],[30.9083,70.4437,69.4048],[30.8958,70.4437,20.6337],[30.8891,70.4401,41.0945],[30.8792,70.4375,10.3635],[30.8583,70.4396,12.3105],[30.8542,70.4375,39.493899999999996],[30.8438,70.4375,26.8691],[30.8208,70.4313,1.5525],[30.8146,70.4313,0.0],[30.8057,70.4255,32.8311],[30.7984,70.4245,6.7299],[30.7917,70.4208,2.0145],[30.7771,70.4208,2.6413],[30.7734,70.4234,0.0],[30.7745,70.4266,3.0907],[30.7672,70.4276,5.3852],[30.7682,70.4307,0.0],[30.7667,70.4313,0.0],[30.7458,70.4313,1.5524],[30.7417,70.4292,22.3469],[30.7271,70.4292,1.3591],[30.7234,70.4318,0.0],[30.7255,70.4349,3.7333],[30.7349,70.4401,0.0],[30.7333,70.4417,0.0],[30.7255,70.4422,16.3313],[30.7271,70.4437,19.7445],[30.7349,70.4443,0.0],[30.7255,70.4474,0.0275],[30.7307,70.4505,0.0],[30.7297,70.4537,2.201],[30.7318,70.4557,6.6708],[30.7411,70.4609,0.0],[30.7342,70.4664,20.8084],[30.7317,70.4631,28.683],[30.7278,70.4633,70.1796],[30.7255,70.4589,84.4798],[30.6991,70.4604,175.8148],[30.6968,70.4559,208.0012],[30.6836,70.4567,218.2924],[30.6813,70.4522,226.9698],[30.6681,70.453,223.0565],[30.6658,70.4485,250.3733],[30.6526,70.4493,237.0215],[30.6503,70.4448,254.3379],[30.6371,70.4456,237.4916],[30.6348,70.4411,235.2995],[30.6216,70.4419,236.8166],[30.6193,70.4374,223.3562],[30.6061,70.4382,239.5497],[30.6038,70.4337,250.6854],[30.590699999999998,70.4345,263.9502],[30.5884,70.43,284.2193],[30.5752,70.4307,267.3907],[30.5729,70.4263,258.9783],[30.5597,70.427,215.1737],[30.5574,70.4226,179.375],[30.5311,70.4241,199.2066],[30.5288,70.4196,204.9722],[30.5156,70.4204,215.7808],[30.5134,70.4159,223.116],[30.5002,70.4166,242.2127],[30.4979,70.4122,262.4211],[30.4848,70.4129,296.9265],[30.4825,70.4085,277.6614],[30.4693,70.4092,301.6894],[30.4671,70.4048,284.8241],[30.4539,70.4055,300.0059],[30.4516,70.4011,297.4483],[30.4385,70.4018,318.4886],[30.4362,70.3973,333.3366],[30.4231,70.3981,358.1363],[30.4208,70.3936,376.8839],[30.4076,70.3943,382.1292],[30.4054,70.3899,374.2902],[30.3922,70.3906,385.4464],[30.39,70.3862,390.0252],[30.3768,70.3869,396.493],[30.3746,70.3825,385.4293],[30.3614,70.3832,395.3654],[30.3592,70.3787,354.013],[30.346,70.3795,350.7029],[30.3438,70.375,323.0899],[30.3307,70.3757,279.0659],[30.3262,70.3668,240.7957],[30.313,70.3676,242.685],[30.3108,70.3631,239.8107],[30.2977,70.3638,228.8],[30.2954,70.3594,213.7205],[30.2823,70.3601,219.2088],[30.2779,70.3512,246.508],[30.2647,70.3519,245.942],[30.2625,70.3475,237.2682],[30.2494,70.3482,242.4192],[30.2472,70.3438,247.1758],[30.234,70.3445,257.3221],[30.2296,70.3356,269.846],[30.2165,70.3363,317.3561],[30.2143,70.3318,349.4996],[30.2012,70.3325,353.0625],[30.199,70.3281,333.5806],[30.1858,70.3288,327.7307],[30.1814,70.3199,253.0101],[30.1683,70.3206,248.8213],[30.1661,70.3162,241.7973],[30.153,70.3169,217.3297],[30.1508,70.3124,193.3075],[30.1377,70.3131,197.7746],[30.1333,70.3042,134.0103],[30.1202,70.3049,117.2408],[30.1181,70.3005,137.7059],[30.1049,70.3012,185.0461],[30.1028,70.2968,293.9702],[30.0897,70.2975,367.5069],[30.0881,70.2942,447.3584]]],
[[[31.0849,70.3964,2.3441],[31.075,70.4042,9.4307],[31.0667,70.4042,7.6724],[31.0609,70.4016,0.0],[31.063,70.3984,0.0],[31.0724,70.3974,17.4965],[31.0672,70.3922,0.0],[31.0786,70.3849,0.0],[31.0755,70.3818,0.0],[31.0807,70.3786,6.7323],[31.0797,70.3755,0.0],[31.087,70.3745,7.8908],[31.0891,70.3724,0.0],[31.088,70.3651,0.0],[31.0979,70.3646,5.7269],[31.1021,70.3667,8.0725],[31.1104,70.3667,0.0],[31.1146,70.3646,10.3864],[31.1328,70.363,0.0],[31.1307,70.3662,0.0],[31.1276,70.3672,48.8339],[31.1307,70.3703,0.0],[31.1229,70.3708,30.1687],[31.1188,70.3729,26.9726],[31.1083,70.3729,5.1335],[31.1026,70.3755,0.0],[31.0922,70.3839,0.0],[31.0932,70.387,0.0],[31.0911,70.3891,1.7157],[31.0818,70.3943,0.0],[31.0849,70.3964,2.3441]]],
[[[31.1542,70.3896,9.8867],[31.1505,70.3901,0.0],[31.1484,70.3922,9.7448],[31.1495,70.3953,2.1062],[31.1479,70.3958,4.107],[31.1333,70.3958,38.0054],[31.1286,70.3922,56.7888],[31.1193,70.3912,13.7145],[31.1234,70.388,0.0],[31.1333,70.3854,0.0],[31.15,70.3854,10.72],[31.1562,70.3833,0.0],[31.162,70.3859,11.7111],[31.1599,70.3891,18.183],[31.1542,70.3896,9.8867]]]]}}