{"type": "Feature","bbox": [9.876,63.0216,10.7247,63.3427],"geometry": {"type": "MultiPolygon","coordinates": [[[[10.3903,63.3002,436.4815],[10.3873,63.3091,357.4678],[10.3774,63.3084,309.1297],[10.3759,63.3129,199.0116],[10.366,63.3122,150.257],[10.3631,63.3211,102.6376],[10.3433,63.3198,92.9542],[10.3448,63.3153,90.6127],[10.3349,63.3147,51.6892],[10.3364,63.3102,60.6452],[10.3166,63.3089,31.8082],[10.3181,63.3045,23.0516],[10.2983,63.3032,23.7824],[10.2938,63.3165,18.8341],[10.2839,63.3158,6.279],[10.2824,63.3202,1.3543],[10.2725,63.3196,3.3743],[10.271,63.324,2.0832],[10.2611,63.3234,8.2244],[10.2584,63.3325,0.0],[10.2521,63.3418,0.0],[10.2399,63.3427,0.0],[10.2313,63.3412,1.5046],[10.2203,63.3364,1.8865],[10.2104,63.3277,0.0],[10.2078,63.3234,0.0],[10.2012,63.3208,35.8788],[10.2017,63.3194,83.1615],[10.2116,63.32,229.8387],[10.2131,63.3156,259.1423],[10.223,63.3163,226.5928],[10.2291,63.2985,128.9724],[10.2192,63.2978,105.182],[10.2207,63.2934,106.7839],[10.2009,63.2921,44.4073],[10.2024,63.2876,67.4599],[10.1925,63.2869,21.1216],[10.1986,63.2692,59.3692],[10.1887,63.2685,152.5392],[10.1917,63.2596,75.0428],[10.1819,63.259,183.2984],[10.1849,63.2501,164.8769],[10.175,63.2494,131.6456],[10.1765,63.245,133.7137],[10.1469,63.243,243.1967],[10.15,63.2341,149.0],[10.1401,63.2334,149.0],[10.1447,63.2201,149.0],[10.1348,63.2194,149.0],[10.1363,63.215,152.0963],[10.1265,63.2143,209.0173],[10.128,63.2099,200.9167],[10.1083,63.2085,316.3993],[10.1098,63.2041,296.7079],[10.0901,63.2028,264.0368],[10.087,63.2116,241.8875],[10.0772,63.211,271.9508],[10.0787,63.2065,283.3766],[10.0688,63.2058,322.0202],[10.0719,63.197,250.5819],[10.0522,63.1956,446.2915],[10.0537,63.1912,367.18],[10.0242,63.1891,393.3302],[10.0257,63.1847,396.4273],[9.9765,63.1813,447.898],[9.978,63.1768,439.2863],[9.9682,63.1762,441.1813],[9.9697,63.1717,477.084],[9.9501,63.1704,454.839],[9.9454,63.1837,444.4615],[9.9159,63.1816,448.4438],[9.9175,63.1772,496.3478],[9.9076,63.1765,456.9337],[9.9107,63.1676,502.1455],[9.9009,63.1669,501.2949],[9.9024,63.1625,424.7455],[9.8926,63.1618,384.1378],[9.8942,63.1574,355.391],[9.8843,63.1567,353.0568],[9.8859,63.1522,330.6068],[9.876,63.1515,280.5593],[9.9008,63.0806,423.1022],[9.9106,63.0813,431.3732],[9.9075,63.0901,334.866],[9.9173,63.0908,353.6944],[9.9158,63.0953,359.1074],[9.9354,63.0966,348.0752],[9.9385,63.0878,419.5469],[9.9483,63.0885,427.1207],[9.9529,63.0752,499.8884],[9.9627,63.0758,494.2784],[9.9658,63.067,498.0215],[9.9756,63.0676,493.7229],[9.9787,63.0588,426.6582],[9.9885,63.0595,451.4427],[10.0007,63.024,519.0873],[10.03,63.026,587.7612],[10.0316,63.0216,565.6714],[10.0609,63.0236,606.7534],[10.0594,63.028,580.0679],[10.079,63.0294,622.9256],[10.0775,63.0338,591.9135],[10.0873,63.0345,533.5734],[10.0858,63.039,520.4417],[10.1054,63.0403,464.0221],[10.1039,63.0447,458.3411],[10.1235,63.0461,423.6152],[10.122,63.0505,448.9563],[10.1318,63.0512,452.5331],[10.1302,63.0556,487.0757],[10.1793,63.059,418.226],[10.1808,63.0546,411.2434],[10.269,63.0606,435.2416],[10.2675,63.065,237.8702],[10.297,63.067,190.7625],[10.2955,63.0714,281.4206],[10.3838,63.0774,467.3775],[10.3853,63.0729,474.3297],[10.3951,63.0736,517.0709],[10.3936,63.078,498.887],[10.4133,63.0793,550.1567],[10.4118,63.0838,524.6502],[10.5296,63.0916,572.0735],[10.5311,63.0871,582.0511],[10.5802,63.0904,455.7529],[10.5788,63.0948,431.5],[10.5984,63.0961,526.6448],[10.597,63.1005,510.4482],[10.6166,63.1018,507.0022],[10.6152,63.1062,501.4829],[10.625,63.1069,513.1944],[10.6236,63.1113,489.083],[10.6433,63.1126,485.0],[10.6418,63.1171,485.0],[10.6615,63.1183,521.5819],[10.6601,63.1228,544.0457],[10.6699,63.1234,617.1421],[10.6685,63.1278,579.11],[10.6882,63.1291,682.0245],[10.6867,63.1336,682.4373],[10.7064,63.1348,764.6986],[10.705,63.1393,809.3967],[10.7247,63.1405,930.5406],[10.7218,63.1494,882.1725],[10.712,63.1488,884.1439],[10.7091,63.1577,788.9594],[10.6894,63.1564,687.6188],[10.688,63.1609,636.7946],[10.6683,63.1596,593.0897],[10.6669,63.164,619.8655],[10.6373,63.1621,765.7164],[10.6359,63.1666,735.9508],[10.626,63.1659,778.4819],[10.6232,63.1748,694.3459],[10.6133,63.1742,597.7048],[10.6119,63.1786,576.9136],[10.602,63.178,586.434],[10.5991,63.1869,549.1348],[10.5893,63.1862,580.5035],[10.5864,63.1951,609.36],[10.5765,63.1945,544.7635],[10.5751,63.1989,567.6356],[10.5652,63.1983,570.4984],[10.5623,63.2071,579.4832],[10.5524,63.2065,600.9645],[10.551,63.2109,588.3948],[10.5411,63.2103,568.8789],[10.5382,63.2192,441.752],[10.5283,63.2185,391.8391],[10.5269,63.223,358.4856],[10.517,63.2223,402.1357],[10.5156,63.2268,389.8542],[10.4958,63.2255,387.0432],[10.4944,63.2299,390.7592],[10.4845,63.2293,425.2834],[10.483,63.2337,356.5783],[10.4633,63.2324,168.6879],[10.4618,63.2369,174.0748],[10.4421,63.2355,170.1338],[10.4406,63.24,193.8978],[10.4209,63.2387,280.9363],[10.4194,63.2431,236.2767],[10.4095,63.2425,273.0503],[10.408,63.2469,306.0059],[10.3982,63.2463,263.7868],[10.3967,63.2507,304.9463],[10.3868,63.25,358.7155],[10.3853,63.2545,341.6884],[10.3755,63.2538,388.2641],[10.374,63.2583,415.7541],[10.3641,63.2576,535.1934],[10.3552,63.2843,524.7516],[10.3651,63.2849,517.0347],[10.3636,63.2894,453.696],[10.3834,63.2907,471.5111],[10.3819,63.2951,379.8333],[10.3918,63.2958,452.6461],[10.3903,63.3002,436.4815]]]]}
,"properties": {"GID_2": "NOR.15.11_1","GID_0": "NOR","country": "Norway","GID_1": "NOR.15_1","province": "Sør-Trøndelag","NL_NAME_1": "NA","county": "Melhus","VARNAME_2": "NA","NL_NAME_2": "NA","TYPE_2": "Kommuner","ENGTYPE_2": "Municipality","CC_2": "NA","HASC_2": "NO.ST.MH","name": "Melhus.county","area_km2": 703.5743,"hist_schema_id": "Elevation0-9000","hist_area_km2": {"0": 10.3171,"25": 25.0183,"50": 16.533,"75": 13.7539,"100": 12.8485,"125": 10.8166,"150": 21.6641,"175": 31.4731,"200": 22.1614,"225": 29.294,"250": 34.8302,"275": 37.8253,"300": 40.2304,"325": 37.9093,"350": 37.6752,"375": 39.6052,"400": 40.2882,"425": 47.6496,"450": 44.1167,"475": 33.1695,"500": 26.1201,"525": 25.4831,"550": 26.732,"575": 15.714,"600": 7.6118,"625": 3.6185,"650": 2.3928,"675": 1.9623,"700": 1.3211,"725": 1.3596,"750": 1.1298,"775": 0.8235,"800": 0.565,"825": 0.6321,"850": 0.3257,"875": 0.1437,"900": 0.2394,"925": 0.2107,"950": 0.0096}}}