{"type":"Feature","properties":{"GID_2":"NOR.15.25_1","GID_0":"NOR","country":"Norway","GID_1":"NOR.15_1","province":"Sør-Trøndelag","NL_NAME_1":"NA","county":"Tydal","VARNAME_2":"NA","NL_NAME_2":"NA","TYPE_2":"Kommuner","ENGTYPE_2":"Municipality","CC_2":"NA","HASC_2":"NO.ST.TY","name":"Tydal.county"},
"geometry":{"type": "MultiPolygon","coordinates": [[[[11.626,63.182,1364.3726],[11.6324,63.1598,1152.4348],[11.6225,63.1592,1057.1184],[11.6238,63.1547,963.8369],[11.614,63.1542,892.7587],[11.6153,63.1497,1112.1869],[11.5857,63.148,823.2144],[11.587,63.1435,858.1516],[11.5672,63.1424,982.9597],[11.5685,63.1379,1132.9735],[11.5488,63.1368,892.3272],[11.5501,63.1323,961.8276],[11.5205,63.1306,681.0984],[11.5218,63.1261,701.0372],[11.5021,63.125,925.1396],[11.5034,63.1205,832.4752],[11.4739,63.1188,903.5345],[11.4752,63.1143,987.1196],[11.4259,63.1114,710.0582],[11.4272,63.107,584.8535],[11.4174,63.1064,439.1521],[11.4187,63.1019,275.3871],[11.399,63.1008,333.8989],[11.3977,63.1052,253.5],[11.3879,63.1046,352.752],[11.3865,63.1091,235.98],[11.3669,63.1079,342.9729],[11.3695,63.099,386.5501],[11.3597,63.0984,411.7516],[11.361,63.094,440.7657],[11.3511,63.0934,426.0089],[11.3525,63.0889,464.19],[11.3426,63.0883,384.4256],[11.3453,63.0794,443.5468],[11.3354,63.0788,430.8114],[11.3368,63.0744,479.554],[11.3269,63.0738,491.5787],[11.3283,63.0693,555.5714],[11.3184,63.0687,607.9],[11.3197,63.0643,624.8734],[11.3099,63.0637,611.2034],[11.3126,63.0548,594.6442],[11.3027,63.0542,577.1675],[11.3054,63.0453,596.1216],[11.2956,63.0447,628.5084],[11.2982,63.0358,652.017],[11.2884,63.0352,703.4614],[11.2911,63.0263,756.1428],[11.2813,63.0257,792.0347],[11.2839,63.0168,865.7887],[11.2741,63.0162,891.3558],[11.2768,63.0073,1018.3951],[11.267,63.0067,1043.7322],[11.2683,63.0023,1023.9241],[11.2879,63.0035,909.6645],[11.2892,62.999,920.3804],[11.3089,63.0002,868.0397],[11.3102,62.9958,861.2691],[11.3298,62.997,860.3935],[11.3311,62.9925,855.731],[11.3507,62.9937,870.2693],[11.3521,62.9892,835.0785],[11.3815,62.991,840.2817],[11.3828,62.9865,867.2003],[11.4024,62.9877,960.4939],[11.4037,62.9833,947.5776],[11.4233,62.9844,899.3441],[11.4246,62.98,909.7785],[11.4442,62.9812,984.1718],[11.4455,62.9767,1086.9799],[11.4651,62.9779,1147.0254],[11.469,62.9645,1170.8411],[11.4788,62.9651,1152.9995],[11.4853,62.9428,1044.806],[11.4951,62.9434,1032.1622],[11.5003,62.9256,1002.0681],[11.5101,62.9262,1075.0952],[11.5114,62.9217,1119.6327],[11.5212,62.9223,1090.662],[11.5237,62.9134,1105.6228],[11.5335,62.914,1095.8713],[11.5361,62.9051,1104.601],[11.5459,62.9057,1124.892],[11.5484,62.8968,1067.714],[11.5582,62.8973,1077.0416],[11.5595,62.8929,1008.0391],[11.5693,62.8935,1012.0898],[11.5718,62.8846,1098.2107],[11.5816,62.8851,1135.7761],[11.5829,62.8807,1254.821],[11.6024,62.8818,1254.676],[11.6037,62.8774,1227.4672],[11.6233,62.8785,1222.6071],[11.622,62.883,1223.2892],[11.6513,62.8847,1129.8483],[11.65,62.8891,1088.5784],[11.6598,62.8897,1024.6741],[11.6586,62.8942,1080.0648],[11.6977,62.8964,909.6201],[11.6989,62.892,915.4147],[11.787,62.8971,850.4879],[11.8069,62.8258,817.8054],[11.8166,62.8263,864.7284],[11.8179,62.8219,822.0435],[11.8276,62.8224,848.8757],[11.8289,62.818,830.8294],[11.8386,62.8185,889.2028],[11.8399,62.8141,875.309],[11.8496,62.8146,883.5013],[11.8509,62.8102,877.8631],[11.8606,62.8107,854.2946],[11.8618,62.8063,868.8669],[11.8716,62.8068,827.3927],[11.8728,62.8024,813.2377],[11.8923,62.8035,771.6238],[11.8936,62.799,763.2537],[11.9033,62.7996,786.0627],[11.9045,62.7951,781.8337],[11.924,62.7962,840.6857],[11.9253,62.7918,837.5],[11.935,62.7923,843.042],[11.9362,62.7879,845.0339],[11.9557,62.789,1006.6495],[11.9569,62.7845,1024.3719],[11.9764,62.7856,910.7212],[11.9777,62.7812,970.7991],[11.9874,62.7817,920.566],[11.9886,62.7773,988.6901],[12.0081,62.7784,897.4154],[12.0093,62.7739,926.7027],[12.0288,62.775,886.5612],[12.03,62.7705,895.9556],[12.0495,62.7716,935.3359],[12.0507,62.7672,908.041],[12.0605,62.7677,1022.5123],[12.0617,62.7632,1002.0829],[12.0811,62.7643,992.6489],[12.0823,62.7599,938.4259],[12.1018,62.7609,930.7593],[12.103,62.7565,883.9277],[12.1225,62.7576,897.7209],[12.1237,62.7531,960.6255],[12.1334,62.7536,1008.9614],[12.1191,62.8071,1046.1113],[12.1094,62.8066,982.8419],[12.089,62.8824,1051.0844],[12.0792,62.8818,1221.3759],[12.0732,62.9041,1061.3274],[12.083,62.9047,1032.6234],[12.0818,62.9091,1077.981],[12.0916,62.9097,1038.5251],[12.0904,62.9141,1101.9757],[12.1002,62.9147,1095.0793],[12.099,62.9191,1118.567],[12.1088,62.9196,1013.2825],[12.1064,62.9286,1024.8767],[12.1162,62.9291,963.6142],[12.115,62.9336,915.8871],[12.1248,62.9341,865.9601],[12.1236,62.9386,829.1058],[12.1334,62.9391,832.1462],[12.1322,62.9436,836.3588],[12.142,62.9441,835.0678],[12.1408,62.9485,834.4564],[12.1506,62.9491,903.8256],[12.1494,62.9535,859.4263],[12.1592,62.9541,881.0732],[12.1568,62.963,870.7614],[12.1667,62.9635,900.9398],[12.1655,62.968,926.3983],[12.1753,62.9685,928.7042],[12.1741,62.973,892.1402],[12.1839,62.9735,910.9954],[12.1827,62.978,945.1152],[12.1925,62.9785,979.9508],[12.1913,62.983,1024.6078],[12.2011,62.9835,1070.23],[12.2,62.988,1256.24],[12.2098,62.9885,1177.5707],[12.2086,62.9929,1336.304],[12.2184,62.9935,1403.9241],[12.2172,62.9979,1551.9708],[12.2271,62.9985,1403.3724],[12.2259,63.0029,1666.1268],[12.216,63.0024,1529.1123],[12.2125,63.0158,1308.5817],[12.2026,63.0152,1544.6338],[12.1979,63.0331,1506.9658],[12.188,63.0325,1539.5209],[12.1845,63.0459,1135.688],[12.1746,63.0454,1195.6954],[12.1698,63.0632,972.7861],[12.16,63.0627,959.3649],[12.1552,63.0805,1022.3947],[12.1453,63.08,1011.7531],[12.1417,63.0933,969.064],[12.1319,63.0928,988.8148],[12.1271,63.1106,864.2767],[12.1172,63.1101,869.2738],[12.1124,63.1279,775.7296],[12.1025,63.1274,793.7899],[12.0989,63.1408,758.888],[12.089,63.1402,759.4615],[12.0841,63.1581,751.9405],[12.0743,63.1575,762.8207],[12.0706,63.1709,793.5049],[12.0607,63.1703,814.017],[12.0571,63.1837,732.7119],[12.0077,63.181,755.6716],[12.0064,63.1855,745.8882],[11.9076,63.18,861.1654],[11.9064,63.1844,888.6011],[11.8175,63.1794,797.285],[11.8162,63.1839,797.4093],[11.7273,63.1788,928.4204],[11.726,63.1833,900.7443],[11.6371,63.1782,1310.4811],[11.6359,63.1826,1352.4227],[11.626,63.182,1364.3726]]]]}}