{"type":"Feature","properties":{"GID_2":"NOR.15.2_1","GID_0":"NOR","country":"Norway","GID_1":"NOR.15_1","province":"Sør-Trøndelag","NL_NAME_1":"NA","county":"Agdenes","VARNAME_2":"NA","NL_NAME_2":"NA","TYPE_2":"Kommuner","ENGTYPE_2":"Municipality","CC_2":"NA","HASC_2":"NO.ST.AG","name":"Agdenes.county"},
"geometry":{"type": "MultiPolygon","coordinates": [[[[9.711,63.4171,350.0065],[9.7308,63.4186,372.7975],[9.7356,63.4053,374.5125],[9.7257,63.4046,367.2811],[9.7304,63.3913,341.9623],[9.7403,63.392,308.2334],[9.7419,63.3875,397.439],[9.8113,63.3924,369.789],[9.8097,63.3968,315.3017],[9.8295,63.3982,311.9926],[9.8279,63.4027,258.2082],[9.8577,63.4047,207.9695],[9.8561,63.4092,186.6469],[9.866,63.4099,241.5099],[9.8645,63.4143,147.5446],[9.8744,63.415,289.763],[9.8712,63.4239,126.7367],[9.8812,63.4246,119.7138],[9.8796,63.429,169.4331],[9.8895,63.4297,115.8119],[9.8864,63.4386,192.4672],[9.9062,63.4399,69.221],[9.9047,63.4444,112.8086],[9.9345,63.4464,165.7125],[9.9329,63.4509,135.5792],[9.9413,63.4514,0.0],[9.9255,63.4547,57.34],[9.9307,63.4568,0.0],[9.9307,63.4599,0.0],[9.9292,63.4604,0.0],[9.9089,63.4609,0.0],[9.9057,63.4703,0.0],[9.8833,63.475,2.1075],[9.8766,63.4786,0.0],[9.8693,63.4797,36.4624],[9.8667,63.4833,0.0],[9.8568,63.4839,0.0],[9.8526,63.4859,0.0],[9.8516,63.4891,0.0],[9.8484,63.4901,0.0],[9.85,63.4958,0.0],[9.8464,63.4995,33.5078],[9.8516,63.5016,0.0],[9.8417,63.5042,10.8175],[9.8375,63.5021,0.0],[9.8297,63.5026,0.0],[9.8307,63.5078,3.6717],[9.8172,63.5089,56.8251],[9.8182,63.512,8.4544],[9.8109,63.5151,0.0],[9.813,63.5224,0.0],[9.825,63.525,0.0],[9.8286,63.5276,0.0],[9.8255,63.5307,107.9214],[9.8307,63.5339,20.3567],[9.8328,63.5411,0.0],[9.8214,63.5464,0.0],[9.8224,63.5516,0.0],[9.8099,63.5578,0.0],[9.8,63.5604,0.0],[9.7901,63.5609,5.7567],[9.7958,63.5667,0.0],[9.7953,63.5682,0.0],[9.788,63.5714,0.0],[9.7891,63.5766,0.0],[9.7729,63.5771,68.8942],[9.7589,63.5818,0.0],[9.762,63.5932,0.0],[9.7547,63.5943,68.0336],[9.7542,63.5979,0.0],[9.7557,63.6016,0.0],[9.7458,63.6063,11.0568],[9.7401,63.6068,89.9596],[9.7411,63.6161,0.0],[9.7292,63.6167,0.0],[9.725,63.6146,4.4576],[9.7193,63.6151,3.0006],[9.7234,63.6182,0.0],[9.7349,63.6214,0.0],[9.7411,63.6255,0.0],[9.7443,63.6349,3.3767],[9.7495,63.638,0.0],[9.7464,63.6411,6.0287],[9.7516,63.6422,0.0],[9.7521,63.6437,0.0],[9.7516,63.6453,21.1373],[9.7458,63.6479,0.0],[9.7417,63.6458,11.9812],[9.7167,63.6437,0.0],[9.7021,63.6396,2.9293],[9.6958,63.6417,0.0],[9.6813,63.6333,33.0054],[9.6708,63.6354,0.0],[9.6693,63.6339,6.4735],[9.6724,63.6318,0.0],[9.6703,63.6297,5.5607],[9.6672,63.6286,0.0],[9.6661,63.6255,19.5763],[9.6583,63.6229,67.3957],[9.6479,63.6229,0.0],[9.6438,63.6208,19.2899],[9.6188,63.6208,10.4837],[9.6146,63.6229,0.0],[9.6104,63.6208,4.4462],[9.5958,63.6208,0.0],[9.587,63.6151,0.0],[9.5625,63.6063,0.0],[9.5521,63.6063,0.0],[9.5438,63.6021,0.0],[9.5333,63.6021,0.0],[9.5255,63.5995,0.0],[9.5234,63.5943,0.0],[9.5266,63.5922,0.0],[9.5208,63.5896,0.0],[9.5167,63.5917,19.6388],[9.513,63.5911,27.6784],[9.5161,63.5891,0.0],[9.5161,63.5859,0.0],[9.5083,63.5833,14.0549],[9.4979,63.5833,0.0],[9.4922,63.5807,0.0],[9.4979,63.5771,8.7792],[9.5021,63.5792,0.0],[9.5125,63.5792,0.0],[9.5167,63.5771,0.0],[9.5208,63.5771,13.8413],[9.5234,63.5807,0.0],[9.5417,63.5833,0.0],[9.5458,63.5854,0.0],[9.55,63.5833,0.0],[9.5661,63.5828,27.8872],[9.5661,63.5797,0.0],[9.5589,63.5745,0.0],[9.5583,63.5708,0.0],[9.5651,63.5651,0.0],[9.5724,63.562,7.9192],[9.5724,63.5568,0.0],[9.5688,63.5542,0.0],[9.563,63.5568,142.8918],[9.5599,63.5641,0.0],[9.5542,63.5646,69.2018],[9.5474,63.5682,73.2009],[9.5375,63.5708,0.0],[9.5229,63.5667,23.4747],[9.5125,63.5667,0.0],[9.5083,63.5646,10.7664],[9.5021,63.5646,0.0],[9.4922,63.5672,0.0],[9.4953,63.5703,0.0],[9.4917,63.5729,10.532],[9.4854,63.5729,0.0],[9.4776,63.5703,0.0],[9.4776,63.5651,0.0],[9.4807,63.5641,0.0],[9.4786,63.5609,26.5223],[9.4729,63.5625,0.0],[9.4625,63.5625,0.0],[9.4599,63.5589,0.0],[9.4547,63.5578,3.5726],[9.4547,63.5547,20.0637],[9.4578,63.5526,0.0],[9.4526,63.5516,0.0],[9.4497,63.5465,0.0],[9.4604,63.5174,257.4897],[9.4703,63.5182,221.3112],[9.4769,63.5004,323.0003],[9.4868,63.5012,268.7297],[9.4884,63.4967,277.2134],[9.5183,63.4989,328.6969],[9.5166,63.5033,189.0359],[9.5266,63.504,316.0013],[9.5249,63.5085,280.1412],[9.5548,63.5106,430.9693],[9.5629,63.4884,55.6467],[9.5728,63.4892,84.8189],[9.5793,63.4714,221.8997],[9.5892,63.4721,289.5656],[9.5925,63.4633,157.9918],[9.6024,63.464,199.0919],[9.6056,63.4551,470.9458],[9.6156,63.4558,468.5115],[9.6188,63.447,426.8936],[9.6287,63.4477,372.4821],[9.6303,63.4432,357.2203],[9.6402,63.444,291.6596],[9.6434,63.4351,284.7322],[9.6534,63.4358,274.7307],[9.655,63.4314,259.1236],[9.6649,63.4321,248.1348],[9.6665,63.4276,225.4597],[9.6764,63.4283,222.6982],[9.678,63.4239,297.5262],[9.6978,63.4253,321.7265],[9.6994,63.4209,366.3936],[9.7094,63.4216,279.9635],[9.711,63.4171,350.0065]]],
[[[9.4526,63.5734,0.0],[9.4542,63.5729,0.0],[9.4557,63.5745,0.0],[9.4542,63.575,9.1665],[9.4526,63.5734,0.0]]],
[[[9.4443,63.5651,0.0],[9.4563,63.5646,0.0],[9.4578,63.5651,0.0],[9.4583,63.5687,37.6325],[9.4563,63.5708,0.0],[9.4521,63.5687,41.1151],[9.4458,63.5687,0.0],[9.4443,63.5682,0.0],[9.4443,63.5651,0.0]]],
[[[9.3146,63.5646,0.0],[9.3224,63.5672,1.5116],[9.3234,63.5703,0.0],[9.3313,63.5729,0.0],[9.3391,63.5734,0.0],[9.3401,63.5786,3.7787],[9.3521,63.5792,0.0],[9.3703,63.5839,0.0],[9.3724,63.5891,0.0],[9.3458,63.5875,0.0],[9.3417,63.5854,15.5391],[9.3313,63.5854,0.0],[9.3271,63.5833,15.7771],[9.3104,63.5833,0.0],[9.3016,63.5776,0.0],[9.2943,63.5766,8.4873],[9.2901,63.5682,0.0],[9.3,63.5646,0.0],[9.3146,63.5646,0.0]]],
[[[9.3958,63.5958,6.8043],[9.3839,63.5974,0.0],[9.3807,63.588,18.0817],[9.3755,63.5859,0.0],[9.3813,63.5833,0.0],[9.3917,63.5833,0.0],[9.3995,63.5859,0.0],[9.3964,63.588,15.8013],[9.3964,63.5911,30.7254],[9.4057,63.5901,0.0],[9.4057,63.5932,0.0],[9.4,63.5958,0.0],[9.3958,63.5958,6.8043]]]]}}