{"type": "Feature","bbox": [6.8332,62.3174,7.3474,62.4863],"geometry": {"type": "MultiPolygon","coordinates": [[[[6.8419,62.3716,676.8649],[6.843,62.3692,602.4496],[6.862,62.371,605.6697],[6.8639,62.3666,665.4283],[6.8829,62.3684,415.7083],[6.8849,62.364,166.0631],[6.8953,62.3672,0.0],[6.8953,62.3703,0.0],[6.887,62.3745,127.7383],[6.8797,62.3755,351.6722],[6.8797,62.3786,300.2283],[6.8849,62.3797,0.0],[6.8859,62.3828,22.0197],[6.8891,62.3839,0.0],[6.8922,62.3911,0.0],[6.8953,62.3922,0.0],[6.8984,62.3995,93.1832],[6.9078,62.4026,0.0],[6.9089,62.4057,29.0369],[6.9141,62.4089,14.1195],[6.9141,62.412,55.1164],[6.9042,62.4146,24.0008],[6.8922,62.4151,247.8453],[6.8891,62.4203,0.0],[6.8833,62.4229,197.2748],[6.8729,62.4208,559.4186],[6.8604,62.4271,613.0573],[6.8481,62.4246,702.0682],[6.85,62.4202,831.7683],[6.8405,62.4194,858.2291],[6.8444,62.4106,781.6148],[6.8349,62.4097,669.0367],[6.8427,62.3921,608.4948],[6.8332,62.3912,684.9006],[6.8419,62.3716,676.8649]]],
[[[6.9644,62.3409,183.8145],[6.9652,62.3395,308.5285],[6.9934,62.3421,925.7301],[6.9915,62.3465,802.7744],[7.02,62.3492,1061.5864],[7.018,62.3535,1202.8223],[7.037,62.3553,894.509],[7.0351,62.3597,978.9239],[7.0446,62.3606,1075.6627],[7.0504,62.3474,1000.0138],[7.0599,62.3483,866.6511],[7.0656,62.3351,516.4517],[7.0751,62.336,410.0522],[7.0789,62.3272,476.3383],[7.0884,62.328,565.097],[7.0904,62.3236,652.1869],[7.1093,62.3254,596.9309],[7.1074,62.3298,537.3689],[7.1169,62.3307,615.1176],[7.1188,62.3263,649.016],[7.1283,62.3271,682.9409],[7.1302,62.3227,682.2809],[7.1492,62.3245,1084.7986],[7.1511,62.3201,1231.6112],[7.1701,62.3218,1077.2938],[7.172,62.3174,1205.8716],[7.2005,62.32,1323.1866],[7.1986,62.3244,961.3966],[7.2081,62.3253,1180.5533],[7.2062,62.3297,957.433],[7.2157,62.3306,1028.7042],[7.2138,62.335,1212.4446],[7.2233,62.3359,1021.5466],[7.2214,62.3403,1182.7125],[7.2404,62.342,1267.5958],[7.2423,62.3376,1049.7937],[7.2708,62.3402,1145.4943],[7.2689,62.3446,1041.775],[7.2785,62.3455,1260.9082],[7.2766,62.3499,1450.4324],[7.2861,62.3507,1385.6741],[7.2842,62.3551,1163.7861],[7.2937,62.356,1220.6528],[7.2918,62.3604,851.6853],[7.3013,62.3612,1008.6015],[7.2995,62.3656,775.7606],[7.309,62.3665,1085.5604],[7.3052,62.3753,1373.3983],[7.2957,62.3745,1180.6254],[7.2825,62.4053,915.1159],[7.292,62.4061,1203.0515],[7.2901,62.4105,1189.7091],[7.2997,62.4114,1042.1466],[7.2978,62.4158,802.3462],[7.3359,62.4192,609.0089],[7.334,62.4236,865.927],[7.3435,62.4245,699.3065],[7.3379,62.4377,574.5046],[7.3474,62.4386,588.6313],[7.338,62.4606,1201.9902],[7.3285,62.4597,1133.0449],[7.3266,62.4641,772.4603],[7.3171,62.4633,979.4724],[7.3152,62.4677,726.0],[7.2961,62.4659,1046.5216],[7.2942,62.4703,661.3236],[7.2656,62.4677,1377.0452],[7.2637,62.4721,1153.5959],[7.235,62.4695,1083.381],[7.2331,62.4739,1054.9343],[7.2236,62.4731,965.9383],[7.2179,62.4863,1039.1224],[7.1988,62.4845,561.9141],[7.2007,62.4801,426.4634],[7.1911,62.4793,262.0764],[7.195,62.4705,394.715],[7.1759,62.4687,530.1644],[7.1778,62.4643,481.995],[7.1492,62.4617,876.8637],[7.1511,62.4573,799.5012],[7.1225,62.4547,965.4908],[7.1244,62.4503,1334.2007],[7.1148,62.4494,1365.9576],[7.1187,62.4406,1079.7343],[7.1091,62.4397,1039.8514],[7.113,62.4309,958.8138],[7.1034,62.4301,873.8986],[7.1053,62.4257,1121.5375],[7.0768,62.423,1151.4873],[7.0787,62.4186,1072.075],[7.0501,62.416,986.195],[7.0463,62.4248,856.0667],[7.0368,62.4239,705.6796],[7.0348,62.4283,594.0677],[7.0253,62.4274,554.0914],[7.0234,62.4318,535.2949],[7.0139,62.4309,485.5888],[7.0119,62.4353,543.4799],[6.9929,62.4336,481.8937],[6.9909,62.438,416.4119],[6.9814,62.4371,527.0374],[6.9795,62.4415,320.6454],[6.9318,62.4371,532.7485],[6.9299,62.4415,483.0043],[6.9172,62.4403,311.0352],[6.9131,62.4427,325.4747],[6.8928,62.4473,78.0145],[6.887,62.4514,0.0],[6.888,62.4484,40.4556],[6.8964,62.4443,0.0],[6.9036,62.4432,137.8916],[6.9276,62.4297,0.0],[6.9349,62.4286,0.0],[6.9432,62.4245,61.8857],[6.9443,62.4214,6.3421],[6.9474,62.4203,0.0],[6.9464,62.4151,0.0],[6.95,62.4125,47.0465],[6.9495,62.4068,114.7022],[6.9438,62.4021,0.0],[6.9474,62.3995,0.0],[6.9464,62.3964,0.0],[6.9536,62.3911,0.0],[6.9547,62.388,0.0],[6.9646,62.3833,0.0],[6.9771,62.3833,0.0],[6.988,62.3776,6.3965],[6.9979,62.375,210.7829],[7.012,62.3745,284.0168],[7.0021,62.3708,730.683],[6.9875,62.3729,573.2993],[6.9833,62.3708,546.1544],[6.975,62.3708,443.0845],[6.9708,62.3688,493.871],[6.9646,62.3708,291.6692],[6.9604,62.3688,572.2984],[6.9563,62.3688,564.5571],[6.9485,62.3708,318.8184],[6.9646,62.351,515.2269],[6.9644,62.3409,183.8145]]]]}
,"properties": {"GID_2": "NOR.8.27_1","GID_0": "NOR","country": "Norway","GID_1": "NOR.8_1","province": "MøreogRomsdal","NL_NAME_1": "NA","county": "Stordal","VARNAME_2": "NA","NL_NAME_2": "NA","TYPE_2": "Kommuner","ENGTYPE_2": "Municipality","CC_2": "NA","HASC_2": "NO.MR.SD","name": "Stordal.county","area_km2": 251.4749,"hist_schema_id": "Elevation0-9000","hist_area_km2": {"0": 1.2479,"25": 2.2505,"50": 1.7294,"75": 1.7199,"100": 1.6512,"125": 1.5726,"150": 1.5726,"175": 1.7003,"200": 1.9164,"225": 2.0146,"250": 2.0634,"275": 2.2302,"300": 2.4959,"325": 3.0655,"350": 3.6652,"375": 6.5122,"400": 6.1488,"425": 6.4047,"450": 6.2381,"475": 6.2279,"500": 7.0231,"525": 7.4456,"550": 8.9881,"575": 8.9684,"600": 8.9487,"625": 7.8587,"650": 8.252,"675": 7.8197,"700": 7.6828,"725": 6.9948,"750": 6.8967,"775": 6.8468,"800": 6.6889,"825": 6.2373,"850": 6.0213,"875": 5.7957,"900": 5.8544,"925": 5.6875,"950": 6.011,"975": 5.2555,"1000": 5.6784,"1025": 5.0392,"1050": 4.7548,"1075": 4.2339,"1100": 3.9883,"1125": 3.8111,"1150": 3.7328,"1175": 2.819,"1200": 2.5736,"1225": 2.2689,"1250": 2.22,"1275": 1.955,"1300": 1.5426,"1325": 1.0414,"1350": 0.6582,"1375": 0.4811,"1400": 0.334,"1425": 0.2159,"1450": 0.2651,"1475": 0.0883,"1500": 0.0589,"1525": 0.0098}}}