{"type":"Feature","properties":{"GID_2":"NOR.16.2_1","GID_0":"NOR","country":"Norway","GID_1":"NOR.16_1","province":"Telemark","NL_NAME_1":"NA","county":"Bø","VARNAME_2":"NA","NL_NAME_2":"NA","TYPE_2":"Kommuner","ENGTYPE_2":"Municipality","CC_2":"NA","HASC_2":"NO.TE.BO","name":"Bø.county"},
"geometry":{"type": "MultiPolygon","coordinates": [[[[8.8708,59.3448,596.8074],[8.8882,59.3463,581.3439],[8.8897,59.3419,507.0969],[8.9158,59.3441,330.9557],[8.9143,59.3485,327.6189],[8.9317,59.35,273.4316],[8.9302,59.3544,295.1731],[8.9476,59.3559,297.1026],[8.9462,59.3604,324.0664],[8.9636,59.3619,270.0251],[8.9621,59.3663,253.4388],[8.9795,59.3678,394.8258],[8.981,59.3633,421.0019],[8.9897,59.3641,433.2124],[8.9911,59.3597,407.8008],[9.026,59.3626,270.648],[9.0245,59.3671,237.5109],[9.0332,59.3678,164.9799],[9.0318,59.3722,156.7403],[9.0492,59.3737,117.6387],[9.0477,59.3781,109.7671],[9.0739,59.3803,173.36],[9.0724,59.3848,190.8015],[9.1073,59.3877,352.578],[9.1058,59.3921,365.2241],[9.1145,59.3929,350.0564],[9.1131,59.3973,296.4542],[9.1218,59.398,203.8286],[9.1146,59.4202,71.5424],[9.1233,59.4209,75.5491],[9.1219,59.4253,101.3047],[9.1306,59.4261,85.4056],[9.1292,59.4305,113.832],[9.1379,59.4312,111.7855],[9.135,59.4401,107.7651],[9.1437,59.4408,368.4555],[9.1409,59.4497,469.5444],[9.1496,59.4504,564.1999],[9.1467,59.4592,521.2267],[9.1554,59.46,485.2441],[9.1526,59.4688,524.7189],[9.1613,59.4696,555.4704],[9.1627,59.4651,560.3134],[9.1715,59.4659,544.2067],[9.17,59.4703,541.43],[9.1788,59.471,668.3501],[9.1716,59.4932,502.8158],[9.1628,59.4924,532.2305],[9.16,59.5013,610.2681],[9.1512,59.5005,511.5514],[9.1426,59.5271,666.9781],[9.1338,59.5264,623.2205],[9.1324,59.5308,636.0873],[9.1236,59.5301,573.7501],[9.1222,59.5345,575.8708],[9.0872,59.5315,267.1559],[9.0886,59.5271,335.6719],[9.0624,59.5249,736.7887],[9.061,59.5293,692.6381],[9.0522,59.5286,684.7947],[9.0493,59.5374,511.1992],[9.0405,59.5367,550.8412],[9.0391,59.5411,509.5785],[9.0128,59.5389,684.9823],[9.0143,59.5345,653.3571],[9.0056,59.5337,662.5514],[9.0085,59.5249,519.5977],[8.9997,59.5241,605.7308],[9.0027,59.5153,505.6328],[8.9852,59.5138,839.9282],[8.9866,59.5094,1031.1382],[8.9429,59.5057,1009.3003],[8.9444,59.5012,1055.3522],[8.9007,59.4975,1102.9065],[8.9081,59.4754,946.8382],[8.8994,59.4746,932.0189],[8.9008,59.4702,782.3831],[8.8921,59.4695,769.7293],[8.8936,59.465,715.7546],[8.9023,59.4658,695.8882],[8.9096,59.4437,517.4833],[8.866,59.4399,140.516],[8.8675,59.4355,125.47],[8.8588,59.4347,124.8261],[8.8603,59.4303,255.185],[8.8254,59.4273,116.5],[8.8284,59.4185,378.2912],[8.8197,59.4177,345.5557],[8.8241,59.4044,544.6462],[8.8154,59.4037,426.6549],[8.8198,59.3904,307.3405],[8.8372,59.3919,298.526],[8.8387,59.3875,317.5492],[8.8648,59.3898,490.9436],[8.8692,59.3765,281.0885],[8.8605,59.3757,261.3651],[8.8649,59.3625,527.2226],[8.8736,59.3632,445.6318],[8.8751,59.3588,462.9749],[8.8838,59.3595,441.7864],[8.8853,59.3551,571.6809],[8.8766,59.3544,631.7495],[8.8781,59.35,602.7688],[8.8694,59.3492,637.4655],[8.8708,59.3448,596.8074]]]]}}