{"type": "Feature","bbox": [10.5359,64.7375,11.3687,65.2125],"geometry": {"type": "MultiPolygon","coordinates": [[[[10.7833,64.7417,2.952],[10.7708,64.7458,0.0],[10.7609,64.7432,2.4675],[10.7651,64.7401,0.0],[10.7729,64.7396,0.0],[10.7771,64.7375,0.0],[10.7828,64.738,6.7116],[10.7849,64.7401,7.4992],[10.7833,64.7417,2.952]]],
[[[10.8453,64.7464,3.7474],[10.8453,64.7474,4.1072],[10.8422,64.7474,0.0],[10.8422,64.7464,0.0],[10.8453,64.7464,3.7474]]],
[[[10.7833,64.7458,0.0],[10.7896,64.7438,0.0],[10.7917,64.7458,8.2033],[10.7911,64.7474,19.5489],[10.7854,64.75,9.9898],[10.7776,64.7474,4.0512],[10.7792,64.7458,0.0],[10.7833,64.7458,0.0]]],
[[[10.7964,64.7557,0.0],[10.8021,64.7521,0.0],[10.8057,64.7547,12.2303],[10.8042,64.7562,4.779],[10.7964,64.7557,0.0]]],
[[[10.8547,64.7453,0.0],[10.8604,64.7417,0.0],[10.8641,64.7422,0.0],[10.8646,64.7438,10.1609],[10.8641,64.7474,0.0],[10.8625,64.7479,0.0],[10.8547,64.7453,0.0]]],
[[[10.889099999999999,64.7589,3.5847],[10.889099999999999,64.7599,0.0],[10.8859,64.7599,0.0],[10.8859,64.7589,0.0],[10.889099999999999,64.7589,3.5847]]],
[[[10.8938,64.7646,0.0],[10.9016,64.7651,0.0],[10.9078,64.7703,0.0],[10.9021,64.7729,21.5565],[10.8875,64.7729,2.6262],[10.8693,64.7682,0.0],[10.8672,64.763,0.0],[10.875,64.7625,0.0],[10.8792,64.7667,0.0],[10.8854,64.7646,0.0],[10.8938,64.7646,0.0]]],
[[[10.9307,64.7755,2.9094],[10.9307,64.7766,0.0],[10.9276,64.7766,8.6445],[10.9276,64.7755,6.9082],[10.9307,64.7755,2.9094]]],
[[[10.8495,64.7557,0.0],[10.8458,64.7562,0.0],[10.8443,64.7547,0.0],[10.8479,64.7542,0.0],[10.8495,64.7557,0.0]]],
[[[10.7828,64.7609,19.3985],[10.7776,64.7589,0.0],[10.7854,64.7583,6.0721],[10.7875,64.7604,3.6585],[10.7854,64.7625,0.0],[10.7828,64.7609,19.3985]]],
[[[10.7411,64.8057,0.0],[10.7479,64.8021,0.0],[10.7516,64.8026,0.0],[10.7458,64.8083,24.9232],[10.738,64.8078,0.0],[10.7411,64.8057,0.0]]],
[[[10.7021,64.8167,0.0],[10.7026,64.8151,0.0],[10.7083,64.8125,0.0],[10.7229,64.8125,0.0],[10.7271,64.8146,3.5025],[10.737,64.8151,0.0],[10.7375,64.8187,0.0],[10.737,64.8203,0.4697],[10.7313,64.8229,0.0],[10.7021,64.8229,0.0],[10.7,64.8208,8.5267],[10.7021,64.8167,0.0]]],
[[[10.9818,64.8141,0.0],[10.987,64.8172,0.0],[10.9839,64.8193,0.0],[10.9849,64.8245,0.0],[10.9833,64.825,0.0],[10.9771,64.825,1.3236],[10.9729,64.8229,11.4649],[10.9625,64.8229,0.0],[10.9589,64.8203,0.0],[10.9646,64.8167,0.0],[10.9688,64.8187,0.0],[10.9724,64.8182,0.0],[10.9714,64.8151,0.0],[10.9745,64.8141,4.1236],[10.9771,64.8104,0.0],[10.9818,64.8141,0.0]]],
[[[10.9313,64.8333,2.3091],[10.9391,64.8339,0.0],[10.9411,64.837,0.0],[10.9354,64.8396,0.0],[10.925,64.8354,0.0],[10.9083,64.8375,0.0],[10.9068,64.837,0.0],[10.9042,64.8313,0.0],[10.9063,64.8292,1.3523],[10.9104,64.8313,9.4213],[10.9271,64.8313,3.7136],[10.9313,64.8333,2.3091]]],
[[[10.9161,64.8391,0.0],[10.9208,64.8375,2.4665],[10.9266,64.8411,0.0],[10.9089,64.8411,0.0],[10.9104,64.8396,0.0],[10.9161,64.8391,0.0]]],
[[[10.9708,64.8438,0.0],[10.9672,64.8401,5.4076],[10.975,64.8396,0.0],[10.9828,64.8422,0.0],[10.9813,64.8438,0.0],[10.9708,64.8438,0.0]]],
[[[10.6036,64.763,14.7134],[10.6063,64.7646,0.0],[10.6141,64.7651,0.0],[10.6161,64.7703,0.0],[10.6068,64.7703,7.6663],[10.6099,64.7682,0.0],[10.6083,64.7667,0.0],[10.5917,64.7688,0.0],[10.5839,64.7641,0.0],[10.5896,64.7604,0.0],[10.6,64.7604,0.0],[10.6036,64.763,14.7134]]],
[[[10.5391,64.8016,0.0],[10.5401,64.7984,0.0],[10.5474,64.7963,4.0482],[10.5516,64.8057,0.0],[10.5458,64.8083,0.0],[10.5422,64.8078,4.61],[10.5359,64.8037,0.0],[10.5391,64.8016,0.0]]],
[[[10.6536,64.8026,0.8416],[10.6521,64.8042,0.0],[10.6484,64.8037,0.0],[10.65,64.8021,8.4826],[10.6536,64.8026,0.8416]]],
[[[10.6646,64.8104,0.0],[10.6661,64.8109,1.2376],[10.6661,64.812,0.0],[10.663,64.812,0.0],[10.6646,64.8104,0.0]]],
[[[10.6349,64.8172,0.0],[10.6339,64.8151,0.0],[10.6396,64.8125,0.0],[10.65,64.8125,0.0],[10.6578,64.8151,12.1179],[10.6589,64.8182,26.0719],[10.6661,64.8234,6.8042],[10.6682,64.8287,0.0],[10.6604,64.8292,0.0],[10.6578,64.8255,2.9603],[10.6464,64.8245,0.0],[10.6349,64.8172,0.0]]],
[[[10.6542,64.8375,10.9543],[10.6479,64.8375,0.0],[10.6464,64.8359,0.0],[10.6557,64.8359,0.0],[10.6542,64.8375,10.9543]]],
[[[10.6938,64.85,0.0],[10.6953,64.8516,5.7648],[10.6922,64.8516,0.0],[10.6922,64.8505,3.5976],[10.6938,64.85,0.0]]],
[[[10.5932,64.8536,0.0],[10.5875,64.8542,6.737],[10.5859,64.8526,0.0],[10.5917,64.8521,0.0],[10.5932,64.8536,0.0]]],
[[[10.7021,64.825,0.0],[10.7099,64.8255,0.0],[10.7125,64.8271,0.0],[10.7125,64.8292,0.0],[10.7063,64.8313,0.0],[10.6964,64.8266,0.0],[10.6979,64.825,0.0],[10.7021,64.825,0.0]]],
[[[10.7578,64.8349,0.0],[10.7547,64.8349,0.0],[10.7526,64.8318,0.0],[10.7578,64.8318,0.0],[10.7578,64.8349,0.0]]],
[[[10.8083,64.8396,8.6352],[10.8099,64.8411,17.715],[10.8068,64.8411,0.0],[10.8068,64.8401,0.0],[10.8083,64.8396,8.6352]]],
[[[10.7099,64.8588,0.0],[10.7083,64.8604,0.0],[10.7047,64.8599,7.3862],[10.7063,64.8583,0.0],[10.7099,64.8588,0.0]]],
[[[10.6104,64.8604,5.619],[10.6042,64.8604,0.0],[10.6026,64.8588,0.0],[10.612,64.8588,0.0],[10.6104,64.8604,5.619]]],
[[[10.6229,64.8667,0.0],[10.6245,64.8672,5.3643],[10.6245,64.8682,4.0406],[10.6214,64.8682,9.5611],[10.6229,64.8667,0.0]]],
[[[10.6563,64.8771,-0.2396],[10.6526,64.8755,7.1254],[10.6583,64.875,0.0],[10.6583,64.8771,1.4704],[10.6563,64.8771,-0.2396]]],
[[[10.6167,64.875,3.5662],[10.6271,64.875,0.0],[10.6297,64.8786,0.0],[10.6349,64.8807,0.0],[10.6229,64.8812,0.0],[10.6167,64.8771,1.7811],[10.6125,64.8792,9.7747],[10.6047,64.8786,0.0],[10.6063,64.8771,0.0],[10.6167,64.875,3.5662]]],
[[[10.6479,64.8812,0.0],[10.6495,64.8828,9.3584],[10.6464,64.8828,7.2036],[10.6464,64.8818,3.7981],[10.6479,64.8812,0.0]]],
[[[10.6625,64.8875,0.0],[10.6568,64.887,0.0],[10.6568,64.8839,10.2655],[10.6661,64.8859,1.2779],[10.6625,64.8875,0.0]]],
[[[10.6521,64.8917,0.0],[10.6458,64.8917,0.0],[10.6443,64.8901,0.0],[10.6536,64.8901,0.0],[10.6521,64.8917,0.0]]],
[[[10.6604,64.8938,0.0],[10.6589,64.8922,0.0],[10.6646,64.8896,0.0],[10.6682,64.8901,0.0],[10.6682,64.8932,0.0],[10.6604,64.8938,0.0]]],
[[[10.6958,64.9021,0.0],[10.6922,64.9016,0.0],[10.6922,64.8984,0.0],[10.6953,64.8984,0.0],[10.6974,64.9005,0.0],[10.6958,64.9021,0.0]]],
[[[10.6646,64.9104,0.0],[10.6661,64.9109,0.1844],[10.6661,64.912,0.0697],[10.663,64.912,0.0],[10.6646,64.9104,0.0]]],
[[[10.6458,64.925,0.0],[10.6474,64.9255,0.0],[10.6474,64.9266,0.0],[10.6443,64.9266,5.5767],[10.6458,64.925,0.0]]],
[[[10.7292,64.9,0.0],[10.7307,64.9016,7.7966],[10.7276,64.9016,0.0],[10.7276,64.9005,0.0],[10.7292,64.9,0.0]]],
[[[10.7417,64.9063,0.0],[10.738,64.9047,0.0],[10.7438,64.9042,2.2815],[10.7438,64.9063,0.0],[10.7417,64.9063,0.0]]],
[[[10.7349,64.9089,0.0],[10.7333,64.9104,0.0],[10.7297,64.9099,0.0],[10.7313,64.9083,5.8217],[10.7349,64.9089,0.0]]],
[[[10.7729,64.925,4.8223],[10.7745,64.9266,1.5279],[10.7714,64.9266,0.0],[10.7714,64.9255,1.4599],[10.7729,64.925,4.8223]]],
[[[10.7625,64.95,0.0],[10.7526,64.9526,11.2112],[10.7458,64.9563,0.0],[10.738,64.9537,0.0],[10.7359,64.9484,0.0],[10.7391,64.9464,4.7843],[10.7255,64.9453,0.0],[10.7224,64.9401,9.6546],[10.7172,64.9391,0.0],[10.7167,64.9375,0.0],[10.7172,64.9359,0.0],[10.7354,64.9313,0.0],[10.7391,64.9318,0.0],[10.7417,64.9354,0.0],[10.75,64.9313,0.0],[10.7563,64.9333,0.9755],[10.762,64.9297,0.0],[10.7526,64.9287,0.0],[10.7526,64.9255,0.0],[10.7646,64.9271,1.4613],[10.7672,64.9307,0.0],[10.7724,64.9318,0.0],[10.7745,64.9339,0.0],[10.7745,64.937,0.0],[10.7714,64.938,10.269],[10.7693,64.9432,0.6532],[10.7724,64.9443,0.0],[10.7745,64.9474,0.0],[10.7688,64.95,0.0],[10.7625,64.95,0.0]]],
[[[10.7521,64.9646,0.0],[10.7599,64.963,0.1952],[10.7563,64.9667,0.0],[10.738,64.9661,0.0],[10.7396,64.9646,0.9695],[10.7521,64.9646,0.0]]],
[[[10.7641,64.9818,0.0],[10.7625,64.9833,0.0],[10.7589,64.9828,0.0],[10.7604,64.9812,0.0],[10.7641,64.9818,0.0]]],
[[[10.9693,64.7974,0.0],[10.975,64.7937,2.5481],[10.9813,64.7937,0.0],[10.9839,64.7974,16.5862],[10.9891,64.7995,0.0],[10.9771,64.8,0.0],[10.9693,64.7974,0.0]]],
[[[11.0042,64.8187,0.0],[11.0005,64.8151,0.0],[11.0083,64.8146,0.0],[11.0125,64.8187,0.0],[11.0104,64.8208,0.0],[11.0042,64.8187,0.0]]],
[[[11.0271,64.8229,0.0],[11.0349,64.8255,0.0],[11.0375,64.8333,0.0],[11.0339,64.837,11.2536],[11.0391,64.8391,0.0],[11.0333,64.8417,0.0],[11.0229,64.8375,0.0],[11.0151,64.837,0.5086],[11.0182,64.8339,0.0],[11.0146,64.8313,0.0],[10.9938,64.8313,0.0],[10.9917,64.8292,3.5308],[10.9938,64.8271,0.0],[11.0021,64.8271,0.0],[11.0089,64.8234,0.0],[11.0167,64.8229,0.0],[11.0208,64.8208,0.0],[11.0271,64.8229,0.0]]],
[[[10.9807,64.838,0.0],[10.9792,64.8354,9.4852],[10.9797,64.8318,0.0],[10.9854,64.8313,0.1775],[10.9995,64.8359,0.0],[10.9958,64.8396,0.0],[10.9964,64.8411,0.0],[11.0016,64.8432,2.7516],[10.9938,64.8438,0.0],[10.9807,64.838,0.0]]],
[[[11.0125,64.8396,0.0],[11.0083,64.8396,4.9783],[11.0068,64.838,0.0],[11.014099999999999,64.838,4.6578],[11.0125,64.8396,0.0]]],
[[[11.0057,64.8401,3.6258],[11.0057,64.8411,0.0],[11.0026,64.8411,0.0],[11.0026,64.8401,0.0],[11.0057,64.8401,3.6258]]],
[[[11.0188,64.8458,6.2709],[11.0146,64.8458,0.0],[11.013,64.8443,0.0],[11.0224,64.8443,0.0],[11.0188,64.8458,6.2709]]],
[[[11.0057,64.8526,5.8186],[11.0057,64.8536,0.0],[11.0026,64.8536,0.5696],[11.0026,64.8526,1.5154],[11.0057,64.8526,5.8186]]],
[[[11.0432,64.8266,0.0],[11.0401,64.8266,5.779],[11.0401,64.8234,6.2994],[11.0432,64.8234,5.5153],[11.0432,64.8266,0.0]]],
[[[11.1266,64.8255,4.8262],[11.1266,64.8266,0.0],[11.1234,64.8266,0.0],[11.1234,64.8255,0.0],[11.1266,64.8255,4.8262]]],
[[[11.337,64.9172,6.4051],[11.337,64.9182,1.6032],[11.3339,64.9182,0.0],[11.3339,64.9172,0.0],[11.337,64.9172,6.4051]]],
[[[11.2625,64.9187,0.7208],[11.264099999999999,64.9203,0.0],[11.2542,64.9229,0.0],[11.2505,64.9224,0.0],[11.2562,64.9187,0.0],[11.2625,64.9187,0.7208]]],
[[[11.0063,64.8625,0.0],[11.0047,64.862,0.0],[11.0042,64.8583,2.3487],[11.0063,64.8562,0.0],[11.0078,64.8568,0.0],[11.0099,64.862,0.0],[11.0063,64.8625,0.0]]],
[[[11.0625,64.8771,0.0],[11.0807,64.8797,0.0],[11.0828,64.8849,0.0],[11.0771,64.8875,0.0],[11.0667,64.8833,5.0411],[11.0542,64.8833,0.0],[11.0458,64.8792,7.7276],[11.0396,64.8812,0.0],[11.0229,64.875,0.0],[11.0188,64.8771,0.0],[11.0083,64.8771,0.0],[10.9917,64.8708,1.7851],[10.9854,64.8708,0.0],[10.9776,64.8682,0.0],[10.9776,64.8651,0.0],[10.9807,64.863,0.0],[10.9755,64.862,2.0929],[10.9734,64.8568,0.0],[10.9932,64.8568,0.0],[10.9943,64.8599,0.0],[10.9995,64.8609,0.0],[11.0026,64.8662,0.9623],[11.012,64.8672,0.0],[11.0146,64.8708,0.0],[11.025,64.8667,0.635],[11.0307,64.8662,0.0],[11.0307,64.863,0.0],[11.0255,64.862,0.0],[11.0297,64.8588,0.0],[11.0417,64.8604,0.0],[11.0495,64.863,0.0],[11.0547,64.8745,0.0],[11.0625,64.8771,0.0]]],
[[[11.0,64.9688,0.0],[10.9958,64.9688,0.0],[10.9943,64.9672,0.0],[11.0036,64.9672,9.6535],[11.0,64.9688,0.0]]],
[[[10.9917,64.9896,0.0],[10.988,64.9891,0.0],[10.988,64.9859,0.0],[10.9974,64.9859,0.0],[10.9974,64.9891,4.2151],[10.9917,64.9896,0.0]]],
[[[11.3495,64.9245,1.2375],[11.3464,64.9245,7.853],[11.3443,64.9213,0.0],[11.3495,64.9213,0.0],[11.3495,64.9245,1.2375]]],
[[[11.2521,64.9313,12.8804],[11.2557,64.9328,0.0],[11.2484,64.9359,0.0],[11.2516,64.9391,0.0],[11.2458,64.9396,0.0],[11.238,64.937,0.0],[11.2396,64.9354,0.0],[11.2453,64.9349,0.0],[11.2464,64.9318,0.0],[11.2521,64.9313,12.8804]]],
[[[11.2813,64.9417,0.0],[11.2797,64.9401,0.0],[11.287,64.938,1.8721],[11.287,64.9411,1.6177],[11.2813,64.9417,0.0]]],
[[[11.3354,64.9521,11.1325],[11.337,64.9537,0.0],[11.3339,64.9537,0.0],[11.3339,64.9526,0.0],[11.3354,64.9521,11.1325]]],
[[[11.1724,64.9599,0.0],[11.1625,64.9583,0.0],[11.1625,64.9563,0.0],[11.1724,64.9568,0.0],[11.1724,64.9599,0.0]]],
[[[11.1729,64.975,0.8656],[11.1745,64.9755,1.2606],[11.1745,64.9766,0.8314],[11.1714,64.9766,2.4786],[11.1729,64.975,0.8656]]],
[[[11.0391,64.9953,2.7138],[11.0359,64.9953,0.0],[11.0339,64.9922,0.0],[11.0391,64.9922,0.0],[11.0391,64.9953,2.7138]]],
[[[11.0729,65.0083,0.0],[11.0745,65.0099,0.0],[11.0714,65.0099,0.0],[11.0714,65.0089,0.8038],[11.0729,65.0083,0.0]]],
[[[10.9964,64.9953,0.0],[10.9901,64.9922,0.0],[10.9995,64.9922,0.0],[10.9995,64.9953,2.016],[10.9964,64.9953,0.0]]],
[[[11.0099,64.9953,0.0],[11.0068,64.9953,0.0],[11.0047,64.9922,0.0],[11.0099,64.9922,0.0],[11.0099,64.9953,0.0]]],
[[[11.0021,65.0104,0.0],[10.9964,65.0099,0.0],[10.9964,65.0068,0.0],[11.0057,65.0089,0.0],[11.0021,65.0104,0.0]]],
[[[11.0161,65.012,0.0],[11.0104,65.0125,0.7991],[11.0089,65.0109,0.0],[11.0146,65.0104,0.0],[11.0161,65.012,0.0]]],
[[[11.1245,65.0224,0.0],[11.1125,65.0229,19.3905],[11.1083,65.025,16.8138],[11.0964,65.0245,0.0],[11.0974,65.013,6.0947],[11.0953,65.0109,0.0],[11.0901,65.0099,0.0],[11.0859,64.9984,0.0],[11.1188,64.9979,0.0],[11.1229,65.0,4.9277],[11.1292,65.0,0.0],[11.1333,64.9979,0.0],[11.1375,64.9979,0.0],[11.1438,65.0,3.8488],[11.1479,64.9979,0.0],[11.1516,65.0005,0.0],[11.1401,65.0089,0.0],[11.1411,65.0141,0.0],[11.1245,65.0224,0.0]]],
[[[11.0807,65.0224,0.0],[11.0667,65.0271,0.0],[11.0604,65.0271,0.0],[11.0563,65.025,0.0],[11.0396,65.025,0.0],[11.0354,65.0229,0.0],[11.0188,65.0229,0.7191],[11.0172,65.0224,0.1954],[11.0146,65.0167,0.0],[11.0151,65.0151,0.0],[11.0224,65.0141,2.0558],[11.0224,65.0109,0.0],[11.0172,65.0078,0.0],[11.0193,65.0047,1.8233],[11.025,65.0021,0.0],[11.0313,65.0021,0.0],[11.0375,65.0083,0.0],[11.0542,65.0104,0.0],[11.0583,65.0083,0.0],[11.0724,65.013,0.0],[11.0734,65.0162,0.0],[11.0813,65.0188,0.0],[11.0891,65.0193,0.0],[11.0807,65.0224,0.0]]],
[[[11.0917,65.0292,0.0],[11.0854,65.0292,0.0],[11.0839,65.0276,0.0],[11.0932,65.0276,0.0],[11.0917,65.0292,0.0]]],
[[[11.1036,65.0307,0.0],[11.1005,65.0307,0.0],[11.0984,65.0276,0.0],[11.1036,65.0276,0.0],[11.1036,65.0307,0.0]]],
[[[10.9479,64.8438,0.0],[10.9443,64.8432,0.0],[10.9422,64.8401,0.0],[10.9557,64.8401,0.0],[10.9536,64.8432,0.0],[10.9479,64.8438,0.0]]],
[[[10.9396,64.8458,8.9672],[10.9375,64.8479,0.0],[10.9354,64.8458,0.0],[10.9375,64.8438,4.8349],[10.9396,64.8458,8.9672]]],
[[[10.9333,64.85,0.0317],[10.9411,64.8505,7.1167],[10.9443,64.8557,8.925],[10.9536,64.8568,0.0],[10.9536,64.8599,10.4646],[10.9479,64.8583,5.2422],[10.9375,64.8583,0.0],[10.9271,64.8542,0.0],[10.9208,64.8562,0.0],[10.9167,64.8542,0.0],[10.9083,64.8542,0.0],[10.9089,64.8505,0.3549],[10.9161,64.8495,0.0],[10.9229,64.8458,0.0],[10.9276,64.8495,0.0],[10.9333,64.85,0.0317]]],
[[[11.2083,64.8438,0.0],[11.2195,64.8486,0.0],[11.2288,64.8492,38.3597],[11.2279,64.8521,0.0],[11.2234,64.8526,0.0],[11.2229,64.8562,0.0],[11.2234,64.8578,17.1702],[11.2313,64.8604,4.0652],[11.2375,64.8583,0.0],[11.2479,64.8625,0.0],[11.2625,64.8625,8.3679],[11.2682,64.8609,0.0],[11.2724,64.8682,0.0],[11.2651,64.8724,3.6765],[11.2745,64.8755,0.0],[11.2776,64.8807,0.0],[11.2839,64.8849,0.0],[11.2891,64.8849,0.0],[11.288,64.8818,0.0],[11.2917,64.8812,0.0],[11.2958,64.8833,0.4882],[11.3036,64.8839,0.0],[11.3047,64.887,1.4857],[11.3161,64.8901,0.0],[11.3161,64.8932,0.0],[11.313,64.8953,0.0],[11.3182,64.8974,13.6837],[11.3005,64.8984,0.0],[11.3026,64.9057,0.0],[11.3078,64.9068,0.0],[11.3047,64.9099,0.0],[11.3203,64.9109,0.0],[11.3214,64.9141,0.0],[11.3286,64.9193,7.7148],[11.3297,64.9224,15.0326],[11.3438,64.9271,0.0],[11.3557,64.9276,0.0],[11.3484,64.9307,2.7647],[11.3536,64.9318,0.0],[11.3547,64.9349,0.0],[11.3599,64.9359,0.0],[11.3609,64.9391,27.0002],[11.3661,64.9401,0.0],[11.3687,64.9437,0.0],[11.3682,64.9474,0.0],[11.3458,64.9458,0.0],[11.3354,64.9417,13.803],[11.325,64.9417,0.0],[11.3146,64.9375,2.9695],[11.3083,64.9375,0.0],[11.3057,64.9339,0.0],[11.2917,64.9292,3.5831],[11.2839,64.9287,0.0],[11.2818,64.9266,0.0],[11.2849,64.9245,0.0],[11.2833,64.9229,0.0],[11.2776,64.9234,0.0],[11.2766,64.9266,0.0],[11.2667,64.9313,0.0],[11.2589,64.9287,0.0],[11.2583,64.9271,0.0],[11.2589,64.9255,0.0],[11.2646,64.925,0.0],[11.2703,64.9224,0.0],[11.2682,64.9151,1.0547],[11.2646,64.9125,0.0],[11.2542,64.9125,0.0],[11.2484,64.9151,0.0],[11.2495,64.9182,0.0],[11.2453,64.9203,0.0],[11.2375,64.9208,3.865],[11.2318,64.9234,31.9014],[11.2339,64.9266,0.7245],[11.2391,64.9287,0.0],[11.2313,64.9292,0.0],[11.2255,64.9318,0.0],[11.2307,64.9339,0.0],[11.2328,64.937,1.1164],[11.2255,64.9401,1.7744],[11.2245,64.9432,0.0],[11.2021,64.9437,0.0],[11.1979,64.9417,8.9483],[11.1938,64.9437,0.0],[11.1875,64.9417,14.6179],[11.1792,64.9458,0.0],[11.175,64.9437,20.9122],[11.1708,64.9458,0.0],[11.1646,64.9458,0.0],[11.163,64.9474,0.0],[11.1661,64.9537,6.3278],[11.1625,64.9542,6.6723],[11.1625,64.9563,0.0],[11.1542,64.9563,0.0],[11.1484,64.9589,8.2439],[11.1599,64.9641,2.0973],[11.1417,64.9646,0.0],[11.1375,64.9625,8.181],[11.1318,64.9651,0.0],[11.1396,64.9688,16.5733],[11.1458,64.9688,0.0],[11.1536,64.9714,0.0],[11.1547,64.9745,18.2861],[11.1641,64.9755,0.0],[11.1661,64.9786,0.0],[11.125,64.9792,0.0],[11.1224,64.9828,2.4301],[11.1125,64.9854,3.7214],[11.0875,64.9854,8.0358],[11.0792,64.9896,0.0],[11.05,64.9896,7.0559],[11.0484,64.9901,6.7249],[11.0495,64.9932,1.3787],[11.0458,64.9938,5.7656],[11.0432,64.9901,2.9518],[11.038,64.9891,0.0],[11.0354,64.9854,0.0],[11.0172,64.987,0.0],[11.0208,64.9833,0.0],[11.0172,64.9766,0.0],[11.0203,64.9734,11.0273],[11.0083,64.9729,0.0],[11.0068,64.9714,0.0],[11.0125,64.9688,0.0],[11.0229,64.9688,4.2736],[11.0245,64.9672,0.0],[11.0104,64.9625,0.0],[10.9979,64.9625,0.0],[10.9938,64.9583,0.0],[10.9875,64.9604,2.0576],[10.9833,64.9583,0.0],[10.9771,64.9583,0.9772],[10.9729,64.9542,0.0],[10.9693,64.9547,0.0],[10.9703,64.9578,0.0],[10.9688,64.9583,0.0],[10.9583,64.9583,0.0],[10.9542,64.9563,0.0],[10.9479,64.9563,0.0],[10.9443,64.9537,2.3136],[10.9432,64.9505,0.0],[10.9354,64.9479,0.0],[10.9313,64.95,0.0],[10.9276,64.9495,0.0],[10.9245,64.9422,0.0],[10.9,64.9396,0.0],[10.8974,64.9359,10.3492],[10.8854,64.9313,0.0],[10.8688,64.9313,0.0],[10.8583,64.9271,19.4387],[10.8505,64.9276,0.0],[10.8526,64.9307,13.7809],[10.8568,64.9328,14.1413],[10.8661,64.9339,0.0],[10.8688,64.9375,0.0],[10.8667,64.9396,0.0],[10.85,64.9333,0.0],[10.838,64.9328,0.0],[10.8411,64.9297,0.0],[10.8333,64.9292,0.0],[10.8292,64.9271,0.0],[10.8188,64.9292,0.0],[10.8146,64.9271,0.0],[10.8021,64.9271,0.0],[10.7896,64.9146,0.0],[10.7859,64.9151,0.0],[10.7771,64.9208,0.0],[10.7646,64.9208,0.0],[10.7568,64.9161,0.0],[10.7599,64.9141,0.0],[10.7599,64.9109,0.0],[10.7521,64.9083,0.0],[10.7438,64.9083,0.0],[10.7438,64.9063,0.0],[10.75,64.9063,0.0],[10.7583,64.9021,0.0],[10.7661,64.9016,0.0],[10.7641,64.8984,0.0],[10.7458,64.8979,0.0],[10.7443,64.8964,0.0],[10.7474,64.8943,0.0],[10.7458,64.8938,0.0],[10.7417,64.8938,0.0],[10.7375,64.8958,0.0],[10.7271,64.8958,6.166],[10.7245,64.8995,3.7109],[10.7172,64.9005,0.5139],[10.7224,64.9026,0.0],[10.7224,64.9057,0.0],[10.7208,64.9063,0.0],[10.713,64.9036,0.0],[10.7099,64.8984,0.0],[10.7021,64.8958,3.3049],[10.6859,64.8953,0.0],[10.6807,64.888,7.4929],[10.6714,64.887,0.0],[10.6745,64.8839,0.0],[10.6703,64.8818,0.0],[10.6589,64.8807,0.0],[10.6583,64.8771,1.4704],[10.6646,64.875,13.9603],[10.6688,64.8771,0.0],[10.6807,64.8766,1.635],[10.6766,64.8734,0.0],[10.6583,64.8729,0.0],[10.6542,64.8708,3.7442],[10.65,64.8729,0.0],[10.6422,64.8724,1.6536],[10.6453,64.8693,9.076],[10.6339,64.8662,0.0],[10.6266,64.8609,15.3364],[10.6214,64.8599,0.0],[10.6214,64.8568,0.0],[10.6245,64.8557,0.0],[10.6245,64.8526,0.0],[10.6208,64.8521,0.7512],[10.6167,64.8542,0.0],[10.6063,64.85,8.7403],[10.5854,64.85,0.0],[10.5813,64.8458,4.7776],[10.563,64.8453,0.0],[10.5661,64.8432,13.1592],[10.5651,64.8401,0.0],[10.5771,64.8396,0.0],[10.5813,64.8375,15.134],[10.5891,64.8401,0.0],[10.5901,64.8432,1.6735],[10.5953,64.8443,0.0],[10.6,64.8479,0.0],[10.6188,64.8479,0.0],[10.6245,64.8453,1.5254],[10.6271,64.8417,0.0],[10.6349,64.8443,0.0],[10.6276,64.8484,0.0],[10.6292,64.85,0.0],[10.637,64.8505,0.0],[10.6297,64.8547,0.0],[10.6333,64.8583,1.9233],[10.6375,64.8562,0.0],[10.6417,64.8583,0.0],[10.6479,64.8583,0.0],[10.6542,64.8604,0.0],[10.6599,64.8578,0.0],[10.6583,64.8521,0.0],[10.6604,64.85,0.0],[10.663,64.8536,14.5316],[10.6833,64.8604,0.0],[10.6938,64.8604,0.0],[10.701599999999999,64.863,0.0],[10.7026,64.8662,7.6756],[10.7104,64.8688,0.0],[10.7208,64.8688,0.0],[10.7333,64.8729,0.0],[10.7349,64.8714,6.3572],[10.7328,64.8693,11.264099999999999],[10.7172,64.8641,0.0],[10.7151,64.862,0.0],[10.7151,64.8588,0.0],[10.7208,64.8562,31.6872],[10.737,64.8557,0.0],[10.7359,64.8505,0.7007],[10.7375,64.85,0.0],[10.7667,64.85,0.0],[10.7682,64.8484,0.0],[10.7604,64.8479,0.0],[10.7563,64.8458,0.0],[10.7458,64.8458,10.1127],[10.7417,64.8479,0.0],[10.7271,64.8479,0.0],[10.7167,64.8438,0.0],[10.7125,64.8458,0.0],[10.7089,64.8453,0.0],[10.7047,64.8432,6.8094],[10.7026,64.8401,0.0],[10.7099,64.837,0.0],[10.7109,64.8339,0.0],[10.7141,64.8328,0.0],[10.7125,64.8292,0.0],[10.7224,64.8297,0.0],[10.7193,64.8328,0.0],[10.7271,64.8333,0.8888],[10.7349,64.8359,0.0],[10.7375,64.8396,27.2968],[10.7438,64.8375,0.0],[10.7583,64.8375,0.0],[10.7625,64.8354,0.0],[10.7667,64.8396,0.0],[10.7854,64.8417,0.0],[10.7974,64.8464,0.0],[10.8005,64.8516,0.0],[10.8099,64.8526,3.4099],[10.8125,64.8562,0.0],[10.8292,64.8562,0.0],[10.8333,64.8583,0.0],[10.8453,64.8578,0.0],[10.8359,64.8536,0.0],[10.8276,64.8474,10.7045],[10.8307,64.8453,0.0],[10.8318,64.8422,0.0],[10.8375,64.8396,0.0],[10.8604,64.8375,0.0],[10.8646,64.8396,14.1817],[10.8724,64.8401,0.0],[10.8755,64.8432,0.0],[10.8833,64.8458,0.7756],[10.8849,64.8453,0.0],[10.8849,64.8422,0.0],[10.8797,64.8411,0.0],[10.8776,64.838,5.9744],[10.9,64.8375,0.0],[10.9016,64.8391,0.0],[10.8984,64.8411,3.0604],[10.9005,64.8474,0.0],[10.9057,64.8495,0.0],[10.8938,64.85,0.0],[10.8896,64.8479,0.0],[10.8792,64.8479,0.0],[10.8776,64.8495,0.0],[10.8854,64.8542,1.6261],[10.9021,64.8521,0.0],[10.9109,64.8578,6.0041],[10.9188,64.8583,0.0],[10.9266,64.8609,0.0],[10.9354,64.8667,0.0],[10.9417,64.8646,0.0],[10.95,64.8688,3.2402],[10.9563,64.8688,0.0],[10.9641,64.8714,0.0],[10.9688,64.875,4.3277],[10.9792,64.875,0.0],[10.9958,64.8812,0.0],[11.0036,64.8818,0.0],[11.0063,64.8854,6.4681],[11.0245,64.888,0.0],[11.0214,64.8901,0.0],[11.0229,64.8917,0.0],[11.0354,64.8917,0.0],[11.0453,64.8891,0.0],[11.0443,64.8859,0.0],[11.0521,64.8854,0.0],[11.0563,64.8875,0.0],[11.0687,64.8875,0.0],[11.0755,64.8912,0.0],[11.087,64.8943,0.0],[11.088,64.8974,8.2157],[11.0917,64.8979,0.0],[11.0932,64.8964,0.0],[11.0901,64.8901,0.0],[11.0979,64.8896,0.0],[11.1036,64.8859,0.0],[11.0984,64.8849,0.0],[11.0974,64.8818,0.0],[11.0922,64.8807,0.0],[11.0891,64.8776,0.0],[11.0797,64.8766,0.0],[11.0786,64.8734,0.0],[11.0708,64.8708,0.0],[11.0589,64.8703,0.0],[11.0661,64.8672,0.0],[11.0609,64.8641,0.0],[11.0641,64.862,0.0],[11.062,64.8568,0.0],[11.0568,64.8547,0.0],[11.0599,64.8536,0.0],[11.0609,64.8505,0.0],[11.0724,64.8464,6.429],[11.0646,64.8438,0.0],[11.062,64.8474,0.0],[11.0578,64.8495,0.0],[11.0505,64.8505,0.0],[11.0521,64.8562,0.0],[11.05,64.8583,0.0],[11.0422,64.8578,0.0],[11.0411,64.8526,0.0],[11.0297,64.8516,0.0],[11.0297,64.8484,0.0],[11.0313,64.8479,0.0],[11.0375,64.8479,0.0],[11.0417,64.85,5.4245],[11.0474,64.8495,0.0],[11.0484,64.8443,0.0],[11.0516,64.8432,0.0],[11.05,64.8396,0.0],[11.0536,64.8359,3.8552],[11.0516,64.8318,0.0],[11.0464,64.8297,0.0],[11.0578,64.8255,0.0],[11.0484,64.8224,0.0],[11.0464,64.8193,0.0],[11.0583,64.8187,0.0],[11.0646,64.825,0.0],[11.0708,64.8229,0.0],[11.0813,64.8229,0.0],[11.0958,64.8292,9.407],[11.1036,64.8297,0.0],[11.1083,64.8354,0.0],[11.112,64.8349,0.0],[11.1208,64.8292,0.0],[11.1328,64.8287,0.0],[11.1339,64.8255,0.0],[11.1438,64.8229,0.0],[11.1516,64.8255,0.0],[11.1526,64.8287,0.0],[11.1703,64.8339,0.0],[11.1833,64.8396,3.4116],[11.1896,64.8396,0.0],[11.1974,64.8422,0.0],[11.2047,64.8474,0.0],[11.2141,64.8495,0.0],[11.2141,64.8464,0.0],[11.2089,64.8453,0.0],[11.2083,64.8438,0.0]]],
[[[10.8771,64.9375,0.0],[10.8786,64.9391,0.0],[10.8755,64.9391,0.0],[10.8755,64.938,1.4374],[10.8771,64.9375,0.0]]],
[[[10.9026,64.9453,0.0],[10.8964,64.9422,0.0],[10.9057,64.9422,0.0],[10.9057,64.9453,0.0],[10.9026,64.9453,0.0]]],
[[[10.8714,64.9526,0.0],[10.8745,64.9516,0.0],[10.8734,64.9484,0.5234],[10.8813,64.9479,0.0],[10.8839,64.9516,6.2857],[10.889099999999999,64.9537,0.0],[10.8729,64.9542,4.4834],[10.8714,64.9526,0.0]]],
[[[10.862,65.0057,0.0],[10.85,65.0062,0.0],[10.8458,65.0083,0.0],[10.8354,65.0083,2.275],[10.8276,65.0057,0.0],[10.826599999999999,65.0026,0.8584],[10.8214,65.0016,0.0],[10.8193,64.9943,0.0],[10.825,64.9938,0.0],[10.826599999999999,64.9922,0.0],[10.8188,64.9896,17.6854],[10.8161,64.9932,0.0],[10.8104,64.9938,0.0],[10.8063,64.9917,1.8911],[10.7938,64.9917,0.0],[10.7833,64.9875,13.0225],[10.7792,64.9896,0.0],[10.7693,64.9849,0.0],[10.7693,64.9797,0.0],[10.7724,64.9786,1.845],[10.7703,64.9755,0.0],[10.7646,64.9771,0.0],[10.7604,64.9729,0.0],[10.7641,64.9703,0.0],[10.763,64.9672,0.0],[10.7703,64.962,0.0],[10.7693,64.9589,1.335],[10.7792,64.9542,0.0],[10.7854,64.9542,0.0],[10.7896,64.9521,0.0],[10.7911,64.9526,0.0],[10.7932,64.9578,0.0],[10.7807,64.9641,0.0],[10.7734,64.9651,0.8923],[10.7734,64.9682,7.9004],[10.7813,64.9667,0.0],[10.7854,64.9688,6.6317],[10.7896,64.9667,0.5791],[10.7938,64.9667,0.0],[10.7953,64.9661,0.0],[10.7964,64.9609,0.0],[10.8047,64.9568,1.0379],[10.8224,64.9557,0.0],[10.8203,64.9526,2.2609],[10.8109,64.9516,0.0],[10.8099,64.9484,1.4339],[10.8047,64.9474,0.0],[10.8078,64.9453,0.0],[10.8068,64.9422,0.0],[10.8146,64.9417,0.0],[10.8224,64.9443,4.608],[10.825,64.9479,1.4252],[10.8391,64.9484,0.0],[10.8401,64.9516,0.0],[10.8453,64.9526,0.2438],[10.8422,64.9557,1.2814],[10.8563,64.9604,0.0],[10.8604,64.9583,0.0],[10.8854,64.9583,0.0],[10.888,64.962,0.0],[10.8958,64.9646,4.2777],[10.9063,64.9646,1.6528],[10.9125,64.9625,0.0],[10.9188,64.9688,2.8644],[10.9203,64.9682,0.0],[10.9193,64.9651,0.0],[10.9271,64.9646,0.0],[10.9313,64.9625,0.0],[10.9479,64.9688,5.9972],[10.9583,64.9688,0.0],[10.963,64.9724,0.0],[10.9708,64.9729,0.0],[10.9729,64.975,1.0178],[10.9708,64.9771,0.0],[10.9646,64.9771,0.0],[10.9604,64.975,5.1377],[10.9521,64.9792,0.0],[10.9479,64.9771,2.7371],[10.9443,64.9776,5.7895],[10.9464,64.9807,0.0],[10.9542,64.9833,5.0131],[10.962,64.9838,0.0],[10.9661,64.9859,0.0],[10.9682,64.9891,6.1751],[10.9604,64.9896,0.0],[10.9563,64.9875,0.0],[10.9521,64.9896,0.0],[10.9458,64.9896,0.0],[10.9417,64.9875,0.0],[10.9354,64.9875,0.0],[10.9297,64.9901,0.0],[10.9313,64.9917,3.1661],[10.9396,64.9917,0.0],[10.9438,64.9938,0.9142],[10.9557,64.9943,0.0],[10.95,64.9979,0.0],[10.925,64.9979,4.4896],[10.9234,64.9984,0.0],[10.9245,65.0016,0.0],[10.9229,65.0021,0.0],[10.9063,65.0021,0.0],[10.9021,65.0,2.8541],[10.8917,65.0,0.0],[10.8813,64.9958,2.1021],[10.8755,64.9995,0.0],[10.8849,65.0005,0.0],[10.8849,65.0036,2.5657],[10.8729,65.0042,0.0],[10.8688,65.0021,0.0],[10.862,65.0057,0.0]]],
[[[10.9703,64.9818,0.0],[10.9703,64.9828,0.0],[10.9672,64.9828,0.0],[10.9672,64.9818,0.0],[10.9703,64.9818,0.0]]],
[[[10.9672,65.0089,0.0],[10.9646,65.0104,0.0],[10.9563,65.0104,0.0],[10.9521,65.0125,0.0],[10.9484,65.012,0.0],[10.9479,65.0104,4.4732],[10.95,65.0083,0.0],[10.9604,65.0083,4.9763],[10.9651,65.0047,0.0],[10.9703,65.0047,0.0],[10.9703,65.0078,0.0],[10.9672,65.0089,0.0]]],
[[[10.9708,65.2021,0.0],[10.9646,65.2021,4.5633],[10.963,65.2005,0.0],[10.9766,65.2005,0.0],[10.975,65.2021,0.0],[10.9708,65.2021,0.0]]],
[[[11.025,65.0333,0.7714],[11.0214,65.0328,0.395],[11.0214,65.0297,3.046],[11.0307,65.0318,0.0],[11.0292,65.0333,0.9826],[11.025,65.0333,0.7714]]],
[[[10.9813,65.2,0.0],[10.9776,65.1995,0.0],[10.9755,65.1964,0.0],[10.9833,65.1958,0.0],[11.0016,65.2005,6.5953],[11.0036,65.2057,0.0],[10.9958,65.2063,6.968],[10.988,65.2037,0.0],[10.987,65.2005,0.0],[10.9813,65.2,0.0]]],
[[[10.9729,65.2104,0.0],[10.9693,65.2068,3.9853],[10.9771,65.2063,0.0],[10.9813,65.2104,0.0],[10.9792,65.2125,0.0],[10.9729,65.2104,0.0]]]]}
,"properties": {"GID_2": "NOR.9.24_1","GID_0": "NOR","country": "Norway","GID_1": "NOR.9_1","province": "Nord-Trøndelag","NL_NAME_1": "NA","county": "Vikna","VARNAME_2": "NA","NL_NAME_2": "NA","TYPE_2": "Kommuner","ENGTYPE_2": "Municipality","CC_2": "NA","HASC_2": "NO.NT.VI","name": "Vikna.county","area_km2": 388.9599,"hist_schema_id": "Elevation0-9000","hist_area_km2": {"0": 193.1878,"25": 119.3936,"50": 39.2026,"75": 24.4049,"100": 9.093,"125": 2.6171,"150": 1.0069,"175": 0.0539}}}