{"type": "Feature","bbox": [9.629,60.7281,10.2472,61.1634],"geometry": {"type": "MultiPolygon","coordinates": [[[[9.8073,60.8117,745.8743],[9.813,60.7939,792.6139],[9.8039,60.7932,772.5619],[9.8124,60.7666,722.741],[9.8033,60.7659,690.3144],[9.8118,60.7393,656.4623],[9.8209,60.74,674.1441],[9.8237,60.7312,626.7737],[9.8419,60.7325,660.1309],[9.8433,60.7281,693.5975],[9.8615,60.7295,759.6794],[9.8601,60.7339,746.4664],[9.8692,60.7346,744.9011],[9.8677,60.739,730.7128],[9.8768,60.7397,713.5065],[9.8754,60.7442,689.7258],[9.8845,60.7448,690.6603],[9.8831,60.7493,706.5217],[9.8922,60.75,699.3267],[9.8908,60.7544,715.6865],[9.8999,60.7551,718.5113],[9.8985,60.7595,728.0818],[9.9167,60.7609,758.5872],[9.9181,60.7565,749.6253],[9.9272,60.7571,750.6221],[9.9286,60.7527,735.958],[9.9377,60.7534,738.5939],[9.9391,60.749,744.9433],[9.9482,60.7496,736.3055],[9.951,60.7408,758.4079],[9.9601,60.7414,760.5527],[9.9614,60.737,779.1976],[10.016,60.7411,773.0001],[10.0174,60.7366,807.5658],[10.0356,60.738,791.1091],[10.0342,60.7424,753.3923],[10.0615,60.7445,640.1459],[10.0628,60.74,630.2603],[10.0719,60.7407,645.8138],[10.0706,60.7451,653.3256],[10.0797,60.7458,631.415],[10.0783,60.7502,684.7075],[10.0874,60.7509,707.6518],[10.086,60.7553,715.3907],[10.0951,60.756,685.1959],[10.0937,60.7605,639.5598],[10.0846,60.7598,665.9971],[10.0832,60.7642,617.7845],[10.0923,60.7649,627.485],[10.0909,60.7693,591.1931],[10.1274,60.772,573.506],[10.126,60.7765,494.7029],[10.1806,60.7805,332.3554],[10.1792,60.7849,242.407],[10.1975,60.7862,180.1096],[10.1961,60.7907,132.5],[10.187,60.79,179.5053],[10.1856,60.7944,132.5],[10.1583,60.7924,132.5],[10.1569,60.7969,132.5],[10.1296,60.7949,137.3632],[10.1254,60.8082,147.9873],[10.1346,60.8088,182.182],[10.1332,60.8133,247.935],[10.1514,60.8146,410.4147],[10.15,60.8191,442.5521],[10.1683,60.8204,473.0779],[10.1696,60.816,478.894],[10.1788,60.8166,491.0155],[10.1801,60.8122,448.0312],[10.2166,60.8148,308.3779],[10.2139,60.8237,370.4056],[10.223,60.8244,354.7928],[10.2189,60.8377,479.8451],[10.2098,60.837,480.903],[10.2084,60.8415,497.6616],[10.1993,60.8408,503.3133],[10.1965,60.8497,516.4428],[10.2057,60.8503,497.9882],[10.2029,60.8592,523.4796],[10.2394,60.8619,515.3317],[10.2381,60.8663,527.2394],[10.2472,60.867,541.3838],[10.2445,60.8759,553.9425],[10.2353,60.8752,549.4301],[10.2299,60.8929,562.5893],[10.2207,60.8923,568.3496],[10.2194,60.8967,575.3555],[10.2285,60.8974,561.8691],[10.2244,60.9107,576.0303],[10.2152,60.91,644.1153],[10.2139,60.9145,650.1141],[10.2047,60.9138,667.946],[10.202,60.9227,565.3164],[10.1928,60.922,547.3915],[10.1915,60.9265,512.4443],[10.1823,60.9258,540.0195],[10.1796,60.9347,544.6047],[10.1704,60.934,541.3452],[10.1663,60.9473,596.7393],[10.1754,60.948,584.6902],[10.174,60.9524,592.4514],[10.1832,60.9531,599.8049],[10.1818,60.9575,609.8962],[10.191,60.9582,636.1924],[10.1896,60.9626,652.3827],[10.1988,60.9633,662.0016],[10.1974,60.9677,652.1738],[10.2065,60.9684,682.4727],[10.2052,60.9728,718.3502],[10.2143,60.9735,742.1972],[10.213,60.9779,751.9096],[10.2221,60.9786,732.1303],[10.218,60.9919,720.3636],[10.2272,60.9926,672.1865],[10.2203,61.0148,721.3961],[10.2295,61.0154,680.8782],[10.2281,61.0199,669.001],[10.2373,61.0205,644.7169],[10.2345,61.0294,700.6015],[10.2253,61.0287,655.0608],[10.2226,61.0376,742.7557],[10.2134,61.037,666.0214],[10.212,61.0414,724.75],[10.2028,61.0407,665.1014],[10.2001,61.0496,729.3348],[10.1817,61.0483,682.5531],[10.1803,61.0527,705.2933],[10.162,61.0514,700.9924],[10.1592,61.0603,703.9001],[10.15,61.0596,701.1984],[10.1472,61.0685,724.7439],[10.138,61.0678,703.9384],[10.1366,61.0722,738.0349],[10.1275,61.0716,719.6474],[10.1261,61.076,740.7358],[10.1169,61.0753,740.6065],[10.1155,61.0798,770.2577],[10.0971,61.0784,774.7533],[10.0957,61.0829,799.9728],[10.0681,61.0808,824.5287],[10.0667,61.0853,916.7895],[10.0575,61.0846,878.4838],[10.0561,61.089,922.4985],[10.0469,61.0884,880.2136],[10.0455,61.0928,855.6305],[10.0363,61.0921,845.0463],[10.0307,61.1099,982.8022],[10.0399,61.1105,890.7632],[10.0371,61.1194,898.4374],[9.9819,61.1153,788.2593],[9.9791,61.1242,760.6978],[9.9699,61.1235,732.0],[9.9628,61.1457,732.0],[9.9536,61.145,732.0],[9.9521,61.1495,732.0],[9.9429,61.1488,746.3663],[9.9415,61.1532,732.0],[9.9139,61.1512,947.3957],[9.9125,61.1556,905.3699],[9.8848,61.1535,923.6182],[9.8834,61.158,916.0148],[9.865,61.1566,927.7382],[9.8636,61.161,922.7344],[9.8359,61.159,925.1161],[9.8345,61.1634,919.2133],[9.8253,61.1627,901.4429],[9.8296,61.1494,851.1446],[9.8204,61.1487,866.1589],[9.8218,61.1443,850.6519],[9.7942,61.1422,963.1299],[9.7928,61.1466,993.1813],[9.7744,61.1453,1012.8416],[9.7729,61.1497,985.3097],[9.7545,61.1483,967.1422],[9.7531,61.1527,955.9174],[9.7439,61.152,988.6296],[9.7424,61.1565,995.9366],[9.7332,61.1558,1070.2279],[9.7318,61.1602,1060.7958],[9.6581,61.1546,1130.8671],[9.6567,61.159,1112.0925],[9.629,61.1569,1265.1973],[9.6305,61.1525,1162.8965],[9.6489,61.1539,1143.6302],[9.6504,61.1495,1108.5247],[9.6596,61.1502,1107.6992],[9.661,61.1458,1096.1965],[9.6702,61.1465,1141.2251],[9.6732,61.1376,1051.2344],[9.6824,61.1383,1047.2958],[9.6926,61.1073,961.6201],[9.7018,61.108,1008.0646],[9.709,61.0858,1073.7345],[9.7274,61.0872,1151.8633],[9.7288,61.0828,1178.2529],[9.7472,61.0842,1221.7606],[9.7487,61.0797,1223.7439],[9.767,61.0811,1285.9048],[9.7685,61.0767,1345.5585],[9.7868,61.0781,1353.1224],[9.7883,61.0736,1319.7234],[9.7975,61.0743,1322.7819],[9.7989,61.0699,1278.5244],[9.7897,61.0692,1252.1527],[9.794,61.0559,1098.0276],[9.7848,61.0552,1088.6754],[9.7892,61.0419,852.2735],[9.78,61.0412,824.1426],[9.7829,61.0324,873.9677],[9.7737,61.0317,856.8552],[9.7852,60.9962,859.2518],[9.776,60.9955,850.5135],[9.7775,60.9911,883.004],[9.7683,60.9904,911.0121],[9.7726,60.9771,804.5518],[9.7635,60.9764,808.5402],[9.7649,60.9719,796.2028],[9.7741,60.9726,798.5704],[9.7827,60.946,825.8813],[9.787,60.9327,739.5734],[9.7778,60.932,768.3817],[9.7936,60.8833,683.2366],[9.7844,60.8826,700.5676],[9.7916,60.8604,781.4294],[9.7825,60.8597,776.659],[9.7853,60.8509,760.5905],[9.7762,60.8502,735.4069],[9.7819,60.8324,259.0262],[9.8093,60.8345,281.5652],[9.8164,60.8124,722.3914],[9.8073,60.8117,745.8743]]]]}
,"properties": {"GID_2": "NOR.11.13_1","GID_0": "NOR","country": "Norway","GID_1": "NOR.11_1","province": "Oppland","NL_NAME_1": "NA","county": "NordreLand","VARNAME_2": "NA","NL_NAME_2": "NA","TYPE_2": "Kommuner","ENGTYPE_2": "Municipality","CC_2": "NA","HASC_2": "NO.OP.NL","name": "Nordre_Land.county","area_km2": 945.7848,"hist_schema_id": "Elevation0-9000","hist_area_km2": {"125": 2.4823,"150": 11.9259,"175": 8.412,"200": 7.1722,"225": 6.2417,"250": 6.1786,"275": 6.1158,"300": 5.7432,"325": 6.5061,"350": 7.4627,"375": 9.6656,"400": 11.0044,"425": 13.2803,"450": 15.8707,"475": 16.8146,"500": 22.7461,"525": 28.9555,"550": 36.3513,"575": 38.3706,"600": 47.0583,"625": 49.8937,"650": 53.0505,"675": 47.3045,"700": 57.8324,"725": 55.0093,"750": 46.7559,"775": 48.1249,"800": 51.0043,"825": 42.8106,"850": 33.0041,"875": 23.1607,"900": 19.2005,"925": 15.1669,"950": 13.7896,"975": 15.7533,"1000": 10.8496,"1025": 8.8018,"1050": 7.1922,"1075": 5.0199,"1100": 4.3753,"1125": 5.1535,"1150": 4.7838,"1175": 4.0264,"1200": 3.7288,"1225": 2.6337,"1250": 2.9312,"1275": 1.8349,"1300": 1.9275,"1325": 1.3124,"1350": 0.6357,"1375": 0.3179,"1400": 0.041}}}