{"type": "Feature","bbox": [10.6308,59.2765,10.8053,59.4376],"geometry": {"type": "MultiPolygon","coordinates": [[[[10.6686,59.3071,0.0],[10.6653,59.3076,0.0],[10.6647,59.3057,1.643],[10.6575,59.3018,0.9538],[10.6586,59.2999,0.0],[10.6658,59.2976,0.4699],[10.6625,59.2962,0.0796],[10.6614,59.2921,0.0],[10.6669,59.2946,0.0],[10.6664,59.2985,0.3278],[10.6758,59.2996,0.5201],[10.6742,59.3043,3.7043],[10.6686,59.3071,0.0]]],
[[[10.6492,59.3288,0.071],[10.6447,59.329,0.0],[10.6436,59.3271,0.0],[10.6408,59.3265,-0.013],[10.6403,59.3251,0.0],[10.6453,59.3251,4.2134],[10.6408,59.3235,1.7288],[10.6408,59.3196,0.0],[10.6597,59.3193,0.7913],[10.6586,59.3229,0.0],[10.6514,59.3249,3.2706],[10.6492,59.3288,0.071]]],
[[[10.6508,59.3357,2.6008],[10.6486,59.3365,1.0441],[10.6475,59.3349,0.0],[10.6525,59.3296,1.823],[10.6558,59.329,1.944],[10.6558,59.3315,7.8863],[10.6508,59.3357,2.6008]]],
[[[10.6342,59.3996,1.5546],[10.6308,59.4001,0.0],[10.6369,59.3937,0.0],[10.6369,59.399,1.5546],[10.6342,59.3996,1.5546]]],
[[[10.6842,59.2832,0.0],[10.6775,59.2837,5.1655],[10.6742,59.2765,0.0],[10.6775,59.2771,0.0],[10.6792,59.2807,1.0574],[10.6842,59.2832,0.0]]],
[[[10.6803,59.2879,0.0],[10.6808,59.2924,0.0],[10.6736,59.2921,0.0],[10.6758,59.2879,0.0],[10.6803,59.2879,0.0]]],
[[[10.7036,59.3071,0.0],[10.7008,59.3079,0.0],[10.7019,59.304,0.6306],[10.7047,59.3043,0.0],[10.7036,59.3071,0.0]]],
[[[10.6694,59.4237,52.9406],[10.665,59.4234,44.8382],[10.6615,59.4268,10.6337],[10.6564,59.4262,2.5569],[10.6575,59.4207,21.8336],[10.6558,59.4135,7.3356],[10.6508,59.4068,1.5544],[10.6503,59.4001,4.8181],[10.6469,59.3935,0.0],[10.6525,59.3865,0.3468],[10.6503,59.3821,0.898],[10.6503,59.3768,0.0],[10.6542,59.3701,0.0],[10.6581,59.3749,0.0],[10.6569,59.3779,0.9125],[10.6625,59.3788,4.2761],[10.6614,59.3765,0.0],[10.6631,59.3732,2.0705],[10.6608,59.371,0.0],[10.6619,59.3574,0.0],[10.6642,59.3571,4.0419],[10.6692,59.361,2.7004],[10.6742,59.3607,3.0315],[10.6725,59.3579,36.7327],[10.6669,59.3571,0.0],[10.6625,59.3526,5.4894],[10.6608,59.3529,2.7015],[10.6597,59.3576,0.0],[10.6586,59.3546,4.6285],[10.6569,59.3546,4.6285],[10.6569,59.3521,4.0212],[10.6603,59.3521,2.7015],[10.6608,59.3507,4.3318],[10.6614,59.3479,0.0],[10.6581,59.344,1.4697],[10.6619,59.3418,0.0],[10.6619,59.3382,1.7849],[10.6569,59.3365,0.0],[10.6625,59.3349,5.2976],[10.6631,59.3299,0.0],[10.6653,59.3274,0.144],[10.6686,59.3276,9.8078],[10.6708,59.3215,0.841],[10.6781,59.3215,0.0],[10.6814,59.3251,5.5654],[10.6842,59.3251,0.0],[10.6775,59.3182,2.8703],[10.6775,59.3149,0.0],[10.6814,59.3149,0.0],[10.6836,59.3107,4.2517],[10.6819,59.3063,0.0],[10.6864,59.3035,0.0],[10.6897,59.3037,0.0949],[10.6908,59.3004,0.0],[10.6953,59.3001,0.0],[10.6897,59.3051,0.0],[10.6947,59.306,3.0788],[10.6936,59.3101,0.918],[10.6975,59.3124,0.0],[10.6992,59.3182,3.9164],[10.7119,59.3254,0.0],[10.7164,59.3262,0.3225],[10.7192,59.331,0.4907],[10.7192,59.3343,4.514],[10.7231,59.3332,0.2568],[10.7269,59.3351,0.0],[10.7303,59.3385,0.0],[10.7308,59.3435,0.0653],[10.7447,59.3446,0.7423],[10.7439,59.3475,1.3297],[10.7701,59.3494,2.7088],[10.7653,59.3671,27.7829],[10.7827,59.3684,47.5984],[10.7815,59.3728,51.3691],[10.7903,59.3735,56.6773],[10.789,59.3779,48.4982],[10.7978,59.3785,46.5438],[10.7966,59.383,49.0579],[10.8053,59.3836,51.7171],[10.8004,59.4014,33.4841],[10.7917,59.4007,43.9255],[10.7905,59.4052,27.4298],[10.7817,59.4046,34.9067],[10.7805,59.409,35.3143],[10.7717,59.4084,44.1859],[10.7693,59.4173,22.5],[10.7606,59.4167,23.8331],[10.7618,59.4122,27.8137],[10.753,59.4116,22.5],[10.7543,59.4071,23.0652],[10.7193,59.4046,30.4006],[10.718,59.4091,22.5],[10.7093,59.4085,25.9985],[10.7081,59.4129,23.7488],[10.7168,59.4135,22.5],[10.7156,59.418,22.5],[10.7331,59.4192,32.5184],[10.7319,59.4237,33.5872],[10.7406,59.4243,46.6176],[10.7369,59.4376,28.2583],[10.7282,59.437,26.2881],[10.7294,59.4326,57.9471],[10.7031,59.4307,33.6635],[10.7044,59.4262,33.3383],[10.6694,59.4237,52.9406]]]]}
,"properties": {"GID_2": "NOR.2.17_1","GID_0": "NOR","country": "Norway","GID_1": "NOR.2_1","province": "Ãstfold","NL_NAME_1": "NA","county": "Rygge","VARNAME_2": "NA","NL_NAME_2": "NA","TYPE_2": "Kommuner","ENGTYPE_2": "Municipality","CC_2": "NA","HASC_2": "NO.OF.RY","name": "Rygge.county","area_km2": 72.55872,"hist_schema_id": "Elevation0-9000","hist_area_km2": {"0": 12.73395,"25": 38.70731,"50": 20.394,"75": 0.65862,"100": 0.06484}}}