{"type":"Feature","properties":{"GID_2":"NOR.15.15_1","GID_0":"NOR","country":"Norway","GID_1":"NOR.15_1","province":"Sør-Trøndelag","NL_NAME_1":"NA","county":"Ørland","VARNAME_2":"NA","NL_NAME_2":"NA","TYPE_2":"Kommuner","ENGTYPE_2":"Municipality","CC_2":"NA","HASC_2":"NO.ST.OL","name":"Ørland.county"},
"geometry":{"type": "MultiPolygon","coordinates": [[[[9.3354,63.65,0.0],[9.3318,63.6505,0.0],[9.3297,63.6547,0.0],[9.3328,63.6568,0.0],[9.3349,63.662,0.0],[9.3276,63.6641,0.0],[9.3214,63.6599,0.0],[9.3245,63.6578,0.0],[9.3234,63.6547,0.0],[9.3265999999999991,63.6536,0.0],[9.3265999999999991,63.6505,0.0],[9.3172,63.6516,12.115],[9.3161,63.6464,0.0],[9.3109,63.6453,0.0],[9.3141,63.6422,2.6932],[9.3089,63.6401,0.0],[9.312,63.6391,0.0],[9.3146,63.6354,0.0],[9.3208,63.6375,0.0],[9.3297,63.6318,0.0],[9.3349,63.6318,0.0],[9.3359,63.637,3.6861],[9.3453,63.638,0.0],[9.3422,63.6411,2.3301],[9.3453,63.6495,0.0],[9.3354,63.65,0.0]]],
[[[9.4292,63.6813,0.0],[9.4234,63.6839,0.0],[9.4224,63.687,0.0],[9.4193,63.688,0.0],[9.4167,63.6917,0.0],[9.4109,63.6911,0.0],[9.4099,63.688,3.4234],[9.4047,63.687,0.0],[9.4021,63.6833,1.0727],[9.3943,63.6849,0.0],[9.3932,63.6797,0.0],[9.3818,63.6766,0.0],[9.3807,63.6734,0.0],[9.3714,63.6724,0.0],[9.3745,63.6693,0.0],[9.3651,63.6682,0.0],[9.3651,63.6651,0.0],[9.3682,63.6641,0.0],[9.3708,63.6583,0.0],[9.3672,63.6547,0.0],[9.3708,63.6521,0.0],[9.3786,63.6536,0.0],[9.3776,63.6484,0.0],[9.3792,63.6479,0.0],[9.4083,63.6479,0.0],[9.4151,63.6443,0.0],[9.4208,63.6437,0.0],[9.4276,63.6401,0.0],[9.4375,63.6375,0.0],[9.4479,63.6396,33.2383],[9.4521,63.6375,0.0],[9.4599,63.6401,0.0],[9.462,63.6474,0.0],[9.4521,63.6521,0.0],[9.4375,63.6521,5.8158],[9.4318,63.6547,0.0],[9.4318,63.6578,0.0],[9.437,63.6589,2.5194],[9.4375,63.6604,2.3497],[9.4354,63.6625,0.0],[9.4297,63.663,0.0],[9.4318,63.6703,0.0],[9.4354,63.6729,0.0],[9.4411,63.6734,0.0],[9.4432,63.6766,0.0],[9.4333,63.6813,0.0],[9.4292,63.6813,0.0]]],
[[[9.4818,63.7203,0.0],[9.4818,63.7193,0.0],[9.4849,63.7193,0.0],[9.4833,63.7208,0.0],[9.4818,63.7203,0.0]]],
[[[9.5286,63.638,6.956],[9.5401,63.6432,0.0],[9.5479,63.6437,0.0],[9.5557,63.6474,0.0],[9.5479,63.65,0.0],[9.5396,63.6458,19.5716],[9.5,63.6458,0.0],[9.4979,63.6437,0.0],[9.4984,63.6401,0.0],[9.5,63.6396,0.0],[9.5083,63.6396,0.0],[9.5125,63.6375,0.0],[9.5286,63.638,6.956]]],
[[[9.6947,63.744,28.3322],[9.6934,63.7478,26.7177],[9.6836,63.7471,0.0],[9.6708,63.7417,0.0],[9.6646,63.7417,0.0],[9.6604,63.7396,0.0],[9.6542,63.7396,0.0],[9.65,63.7375,0.0],[9.6438,63.7375,0.0],[9.6396,63.7354,0.5709],[9.625,63.7333,0.0],[9.6188,63.7292,0.0],[9.6042,63.7292,0.0],[9.6,63.7271,0.0],[9.5938,63.7271,0.0],[9.5792,63.7229,6.0963],[9.575,63.725,0.0],[9.5604,63.7208,9.105],[9.55,63.7208,0.0],[9.5422,63.7182,0.0],[9.5411,63.7151,0.2677],[9.5318,63.7141,0.0],[9.5297,63.7109,0.0],[9.5354,63.7083,0.0],[9.5417,63.7083,0.0],[9.5521,63.7125,0.0],[9.5646,63.7104,0.0],[9.5672,63.7068,0.0],[9.5745,63.7026,0.0],[9.5693,63.7016,0.0],[9.5724,63.6984,0.0],[9.5672,63.6974,0.0],[9.5651,63.6901,0.0],[9.5682,63.688,0.0],[9.5563,63.6875,0.0],[9.5521,63.6854,0.0],[9.5359,63.6828,0.0],[9.5375,63.6813,0.0],[9.5432,63.6807,0.0],[9.5422,63.6776,0.0],[9.5542,63.6771,0.0],[9.5557,63.6755,0.0],[9.5505,63.6745,0.0],[9.5495,63.6714,0.0],[9.5401,63.6682,0.0],[9.5417,63.6667,0.0],[9.5474,63.6661,0.0],[9.5422,63.6641,0.0],[9.5411,63.6609,0.0],[9.538,63.6609,0.0],[9.5354,63.6646,0.0],[9.5318,63.6609,0.0],[9.55,63.6521,12.0335],[9.5646,63.6521,0.0],[9.5688,63.65,0.0],[9.5724,63.6547,0.0],[9.5734,63.6599,1.4768],[9.5786,63.6609,0.0],[9.5797,63.6641,0.0],[9.5849,63.6651,0.0],[9.5875,63.6688,0.0],[9.5938,63.6688,0.0],[9.6042,63.6729,0.0],[9.6292,63.6729,0.0],[9.6333,63.675,0.0],[9.6521,63.675,0.0],[9.6563,63.6729,0.0],[9.6604,63.675,1.0718],[9.6682,63.6755,0.0],[9.6646,63.6792,0.0],[9.6672,63.6828,0.0],[9.6703,63.6839,0.0],[9.6672,63.687,2.7214],[9.6714,63.6974,2.0829],[9.6729,63.6979,3.8972],[9.6792,63.6958,0.0],[9.6818,63.6995,0.0],[9.6896,63.7,0.0],[9.6937,63.7021,3.2551],[9.6979,63.6979,0.0],[9.7021,63.7,0.0],[9.7063,63.6979,0.0],[9.7125,63.7,2.0548],[9.7167,63.6979,0.0],[9.7292,63.6979,0.0],[9.7333,63.6958,0.0],[9.7396,63.6958,0.0],[9.7474,63.6984,0.0],[9.75,63.7021,0.0],[9.7563,63.7021,0.0],[9.7604,63.7042,3.1098],[9.775,63.7042,0.0],[9.7854,63.7083,2.5019],[9.7958,63.7083,0.0],[9.8,63.7104,0.0],[9.8062,63.7104,0.0],[9.8208,63.7167,0.0],[9.8286,63.7172,0.0],[9.8297,63.7203,0.0],[9.8375,63.7229,0.0],[9.85,63.7188,0.0],[9.8563,63.7188,0.0],[9.8708,63.725,0.0],[9.8786,63.7255,0.0],[9.8797,63.7307,7.2713],[9.8758,63.728,62.0442],[9.8641,63.7255,70.278],[9.8581,63.7215,60.3732],[9.8492,63.7256,95.6699],[9.842,63.726,10.2352],[9.8231,63.7224,66.4541],[9.8212,63.7183,12.6943],[9.808,63.7152,27.6967],[9.8065,63.7193,75.7626],[9.7965,63.7186,57.4985],[9.7949,63.7231,63.0479],[9.7848,63.7224,84.9555],[9.7832,63.7268,164.0717],[9.7732,63.7261,139.7101],[9.7716,63.7305,255.2317],[9.7415,63.7284,171.731],[9.7399,63.7329,142.8298],[9.7299,63.7322,103.861],[9.7283,63.7366,91.3992],[9.7183,63.7359,21.9049],[9.7166,63.7403,23.5173],[9.7066,63.7396,23.7094],[9.705,63.7441,26.9038],[9.6947,63.744,28.3322]]]]}}