{"type":"Feature","properties":{"GID_2":"NOR.2.8_1","GID_0":"NOR","country":"Norway","GID_1":"NOR.2_1","province":"Ãstfold","NL_NAME_1":"NA","county":"Hvaler","VARNAME_2":"NA","NL_NAME_2":"NA","TYPE_2":"Kommuner","ENGTYPE_2":"Municipality","CC_2":"NA","HASC_2":"NO.OF.HV","name":"Hvaler.county"},
"geometry":{"type": "MultiPolygon","coordinates": [[[[10.8764,58.9588,0.0],[10.8747,58.9607,0.0],[10.8692,58.9596,0.0],[10.8725,58.9557,1.6999],[10.8758,58.9562,0.0],[10.8764,58.9588,0.0]]],
[[[10.9253,58.989,0.0],[10.9208,58.9901,0.0],[10.9197,58.9882,0.0],[10.9264,58.9879,0.0],[10.9253,58.989,0.0]]],
[[[10.8669,59.0482,0.0],[10.8614,59.049,0.0],[10.8608,59.0462,0.2099],[10.8675,59.0449,0.0],[10.8669,59.0482,0.0]]],
[[[10.8831,59.0557,0.0],[10.8758,59.0571,0.0],[10.8764,59.0532,6.9834],[10.8725,59.0513,0.0387],[10.8708,59.0457,0.8334],[10.8836,59.044,0.4356],[10.8831,59.0399,1.4099],[10.8858,59.0393,3.3766],[10.8842,59.0374,0.0],[10.8869,59.0374,0.2743],[10.8919,59.0393,1.2992],[10.8908,59.0415,1.4421],[10.8964,59.0443,2.2408],[10.8881,59.0532,1.4544],[10.8842,59.0532,11.683],[10.8831,59.0557,0.0]]],
[[[10.9598,58.9846,0.7167],[10.9619,58.9863,0.3101],[10.9619,58.9885,1.5495],[10.9569,58.9882,0.7021],[10.9558,58.986,0.0],[10.9486,58.9863,0.0],[10.9492,58.9846,0.0],[10.9464,58.9837,0.5737],[10.9447,58.9807,0.2535],[10.9503,58.9799,1.1418],[10.9447,58.9785,0.0],[10.9542,58.9774,1.6298],[10.9492,58.9771,0.0],[10.9503,58.9749,0.0],[10.9592,58.9743,0.0],[10.9608,58.9754,0.0],[10.9603,58.9774,0.4983],[10.9631,58.9784,0.0],[10.9619,58.9804,2.5561],[10.9636,58.9813,0.0],[10.9598,58.9846,0.7167]]],
[[[10.9747,58.9854,5.1156],[10.9692,58.986,0.0],[10.9675,58.9837,0.0],[10.9697,58.9821,3.5388],[10.9731,58.9824,1.8428],[10.9764,58.9843,0.0],[10.9747,58.9854,5.1156]]],
[[[11.0181,59.0121,0.0],[11.0147,59.0137,4.0946],[11.0125,59.0132,5.4661],[11.0092,59.0082,4.7715],[11.0031,59.0093,1.3251],[11.0042,59.0051,8.8755],[11.0025,59.0038,1.6573],[11.0047,59.0021,5.3134],[11.0119,59.0013,1.066],[11.0131,59.0051,0.6639],[11.0175,59.0051,0.0],[11.0164,59.0085,0.0],[11.0192,59.0096,0.2631],[11.0181,59.0121,0.0]]],
[[[10.9847,59.0518,1.9538],[10.9836,59.0549,1.9049],[10.9814,59.0554,1.9049],[10.9814,59.0501,0.0],[10.9847,59.0504,0.0],[10.9847,59.0518,1.9538]]],
[[[10.8853,59.0657,0.0],[10.8842,59.0679,1.2952],[10.8797,59.0665,0.0],[10.8842,59.0649,0.0],[10.8853,59.0657,0.0]]],
[[[10.8658,59.124,0.872],[10.8608,59.1243,2.829],[10.8608,59.1271,0.0],[10.8553,59.1271,0.0],[10.8558,59.1254,3.8499],[10.8508,59.1246,1.3023],[10.8514,59.1215,0.7202],[10.8569,59.1229,2.4743],[10.8586,59.1207,3.087],[10.8553,59.1193,9.1253],[10.8508,59.1204,1.4714],[10.8453,59.1193,0.3769],[10.8419,59.1129,1.5239],[10.8453,59.1129,1.5239],[10.8486,59.1162,0.237],[10.8514,59.1162,7.4024],[10.8519,59.1138,2.3891],[10.8403,59.1085,7.6072],[10.8403,59.1065,1.6587],[10.8442,59.1051,2.1128],[10.8364,59.1054,0.0],[10.8292,59.1015,0.0],[10.8331,59.1013,10.0425],[10.8286,59.0968,0.3668],[10.8314,59.0954,11.7956],[10.8319,59.0929,0.6003],[10.8364,59.0932,0.9997],[10.8347,59.0913,0.0],[10.8364,59.0901,0.0],[10.8436,59.0954,1.1597],[10.8425,59.0918,12.6411],[10.8392,59.0893,0.5975],[10.8425,59.0887,5.4257],[10.8414,59.0854,5.56],[10.8453,59.0854,5.56],[10.8425,59.0835,9.762],[10.8436,59.0801,0.9383],[10.8469,59.0799,0.0],[10.8442,59.0749,0.0],[10.8492,59.0738,3.9517],[10.8519,59.0751,21.5043],[10.8503,59.0713,0.3277],[10.8586,59.0696,0.0],[10.8614,59.0729,1.7819],[10.8647,59.074,0.3885],[10.8625,59.0754,2.8868],[10.8631,59.0765,0.9299],[10.8758,59.0757,9.7811],[10.8781,59.0732,2.2189],[10.8764,59.0704,8.0103],[10.8736,59.0707,0.5528],[10.8719,59.0743,0.3814],[10.8686,59.0743,0.199],[10.8697,59.0718,3.7049],[10.8653,59.0713,0.8369],[10.8653,59.0699,0.3947],[10.8708,59.0674,1.263],[10.8747,59.0674,0.9199],[10.8792,59.0682,0.5069],[10.8803,59.0701,8.0103],[10.8792,59.0713,2.057],[10.8814,59.0715,-0.0104],[10.8842,59.0746,10.3075],[10.8908,59.0762,1.2303],[10.8858,59.0707,1.1151],[10.8908,59.0646,0.0],[10.8992,59.0626,0.0],[10.9053,59.0649,8.7523],[10.9019,59.0618,6.5776],[10.9036,59.059,1.484],[10.9069,59.059,9.53],[10.9108,59.0601,0.4119],[10.9119,59.064,3.1998],[10.9214,59.0643,2.6798],[10.9247,59.0671,0.0],[10.9253,59.0699,0.299],[10.9286,59.0715,0.9859],[10.9308,59.076,3.6976],[10.9347,59.0779,1.9607],[10.9314,59.0704,2.2203],[10.9297,59.0701,0.0],[10.9297,59.0663,0.0],[10.9242,59.0607,2.4964],[10.9242,59.0579,11.4567],[10.9169,59.0568,0.4724],[10.9147,59.0557,0.0],[10.9153,59.0543,0.0],[10.9242,59.0493,0.1267],[10.9347,59.0488,0.4342],[10.9353,59.0479,2.2726],[10.9297,59.0468,0.0],[10.9314,59.0432,0.0],[10.9386,59.0432,0.2056],[10.9381,59.0396,3.1129],[10.9342,59.0396,0.2969],[10.9336,59.0374,0.0],[10.9397,59.036,1.8392],[10.9442,59.0304,0.0],[10.9497,59.0329,3.4008],[10.9492,59.0357,3.2455],[10.9508,59.0371,6.1454],[10.9558,59.0357,0.8384],[10.9581,59.0379,0.5453],[10.9642,59.0376,0.9548],[10.9664,59.039,3.8983],[10.9653,59.0435,1.2966],[10.9686,59.0454,0.0],[10.9681,59.0476,0.0],[10.9636,59.0504,3.6151],[10.9581,59.0596,0.0],[10.9614,59.0612,0.0],[10.9597,59.0663,0.0],[10.9614,59.0682,4.889],[10.9602,59.071,0.0],[10.9553,59.0718,18.1269],[10.9542,59.074,9.2393],[10.9581,59.0743,1.3023],[10.9586,59.0771,25.1574],[10.9636,59.0757,4.5576],[10.9658,59.0788,9.8469],[10.9697,59.079,0.0],[10.9708,59.0901,2.068],[10.9675,59.0904,15.4508],[10.9625,59.086,0.6497],[10.9503,59.0849,1.7392],[10.9458,59.0868,1.4066],[10.9414,59.0854,5.1905],[10.9364,59.0801,1.5596],[10.9375,59.0779,1.83],[10.9358,59.0779,1.9607],[10.9319,59.0846,-0.0375],[10.9386,59.0871,0.786],[10.9397,59.0913,7.1264],[10.9419,59.0918,0.1731],[10.9486,59.0996,1.0316],[10.9486,59.1029,0.0],[10.9414,59.1057,2.3933],[10.9358,59.1032,3.3851],[10.9336,59.1046,1.7183],[10.9292,59.1043,0.0],[10.9231,59.0996,6.2651],[10.9197,59.099,0.4544],[10.9192,59.1007,22.6541],[10.9214,59.1024,4.4002],[10.9203,59.1124,0.2391],[10.9214,59.1129,0.2391],[10.9136,59.114,1.2846],[10.9136,59.1174,1.0313],[10.9086,59.1215,0.7698],[10.9053,59.1196,1.2826],[10.9047,59.1154,9.7523],[10.9019,59.116,1.5609],[10.8997,59.1188,0.0],[10.8964,59.1188,0.0],[10.8903,59.1135,6.3685],[10.8881,59.1132,2.9138],[10.8842,59.1135,0.4897],[10.8858,59.1171,0.3522],[10.8803,59.1182,0.0],[10.8808,59.1165,0.6403],[10.8842,59.116,1.3471],[10.8836,59.1129,0.4897],[10.8792,59.1129,1.0525],[10.8786,59.1113,4.272],[10.8808,59.1076,3.6683],[10.8764,59.1076,0.6064],[10.8758,59.1162,1.5998],[10.8769,59.1176,0.0],[10.8725,59.1218,1.6474],[10.8669,59.1224,0.0],[10.8681,59.124,0.3763],[10.8658,59.124,0.872]]],
[[[10.8275,59.1087,3.5986],[10.8269,59.1076,3.5986],[10.8319,59.1074,0.0],[10.8342,59.1099,0.0],[10.8292,59.1096,4.0337],[10.8275,59.1087,3.5986]]],
[[[10.9547,59.1096,0.0],[10.9558,59.1107,0.0],[10.9514,59.1107,0.0],[10.9497,59.1085,0.0],[10.9536,59.1085,0.0],[10.9547,59.1096,0.0]]],
[[[10.9881,59.0693,0.0],[10.9892,59.0701,0.0],[10.9792,59.0668,11.1293],[10.9797,59.0615,4.329],[10.9758,59.0596,0.9866],[10.9797,59.0579,0.0],[10.9847,59.0599,0.0],[10.9903,59.0563,0.1474],[10.9969,59.0576,1.8507],[10.9919,59.0601,0.6514],[10.9931,59.064,0.0],[10.9892,59.066,5.3405],[10.9881,59.0693,0.0]]],
[[[10.9819,59.0749,0.0],[10.9803,59.0762,1.786],[10.9758,59.0757,0.0],[10.9775,59.0713,0.0],[10.9836,59.0693,1.2073],[10.9842,59.0732,4.5095],[10.9819,59.0749,0.0]]],
[[[10.9653,59.0918,0.0],[10.9653,59.0932,0.0],[10.9619,59.0938,0.0],[10.9581,59.0915,0.0],[10.9625,59.0899,0.0],[10.9653,59.0918,0.0]]],
[[[10.9642,59.1063,2.6046],[10.9619,59.1068,2.5352],[10.9631,59.111,0.0],[10.9581,59.1104,3.0011],[10.9547,59.1051,5.5145],[10.9525,59.1051,5.6346],[10.9503,59.1024,1.6351],[10.9503,59.1007,1.8972],[10.9525,59.1001,6.6882],[10.9503,59.0971,2.8142],[10.9508,59.094,0.9336],[10.9553,59.094,0.0],[10.9564,59.0976,3.4826],[10.9631,59.1004,0.0],[10.9647,59.1043,0.2058],[10.9664,59.1043,0.2058],[10.9642,59.1063,2.6046]]],
[[[11.0192,58.9951,0.269],[11.0208,58.9968,1.0299],[11.0181,58.9965,1.832],[11.0186,58.9954,0.269],[11.0164,58.994,0.269],[11.0175,58.994,0.269],[11.0192,58.9951,0.269]]],
[[[11.0369,59.0076,3.9747],[11.0353,59.0068,6.7883],[11.0353,59.0096,0.0],[11.0336,59.0096,0.0],[11.0319,59.0062,0.0],[11.0347,59.0057,6.7883],[11.0347,59.004,5.0705],[11.0392,59.0046,3.086],[11.0397,59.0013,1.9422],[11.0425,59.0001,0.1619],[11.0403,58.9985,0.2748],[11.0436,58.9968,3.0193],[11.0358,58.9957,0.6485],[11.0353,58.9912,1.6594],[11.0414,58.9896,2.4256],[11.0436,58.9915,0.0],[11.0525,58.9865,0.0],[11.0603,58.9863,1.1495],[11.0608,58.9882,1.1041],[11.0569,58.9876,2.6212],[11.0569,58.9893,3.7893],[11.0608,58.9901,0.3018],[11.0614,58.9932,1.2155],[11.0636,58.9946,0.0],[11.0525,58.9985,0.4034],[11.0525,59.0004,0.1734],[11.0581,59.0018,0.0],[11.0575,59.0043,0.0],[11.0481,59.0074,0.0],[11.0425,59.0062,3.9084],[11.0419,59.0093,0.0],[11.0369,59.0076,3.9747]]],
[[[11.0336,59.0038,2.6889],[11.0319,59.0054,10.2403],[11.0269,59.0043,2.2075],[11.0281,58.999,1.9824],[11.0325,59.001,6.5086],[11.0336,59.0038,2.6889]]],
[[[11.0547,59.0101,0.0],[11.0514,59.0115,0.0],[11.0492,59.0088,1.4557],[11.0553,59.0093,0.0],[11.0547,59.0101,0.0]]],
[[[11.0653,58.9879,0.0],[11.0658,58.9893,0.6781],[11.0636,58.9882,0.0],[11.0625,58.9896,0.0],[11.0619,58.9876,0.433],[11.0653,58.9876,0.0],[11.0653,58.9879,0.0]]],
[[[11.1082,59.024,2.3078],[11.1003,59.0249,1.163],[11.0897,59.0213,7.5977],[11.0708,59.0201,9.7647],[11.0642,59.0176,2.7638],[11.0631,59.0149,0.2109],[11.0581,59.016,0.6407],[11.0592,59.0132,5.7703],[11.0569,59.0099,0.0],[11.0631,59.0054,2.0602],[11.0608,59.0024,0.0],[11.0619,59.0021,0.7018],[11.0664,59.0043,1.6255],[11.0647,59.0104,0.0],[11.0664,59.0099,0.0],[11.0686,59.0068,0.0],[11.0681,59.001,0.6854],[11.0736,59.001,2.3798],[11.0747,58.9996,0.4204],[11.0786,59.0004,2.0804],[11.0747,58.9965,0.0],[11.0808,58.9949,0.0],[11.0853,58.9979,0.2458],[11.0836,59.0026,5.5856],[11.0869,59.0057,0.0],[11.0842,59.0085,1.9042],[11.0892,59.0121,22.81],[11.0947,59.0118,0.0],[11.1019,59.0137,0.0],[11.1047,59.0165,0.0],[11.1108,59.0171,4.7673],[11.1103,59.0204,5.1534],[11.1136,59.0215,2.9922],[11.1136,59.0229,6.3448],[11.1082,59.024,2.3078]]],
[[[11.1081,59.0532,3.3588],[11.1042,59.0537,0.8458],[11.1047,59.0507,4.2121],[11.1014,59.0499,0.0],[11.0986,59.0443,19.8146],[11.0903,59.0446,2.713],[11.0897,59.0426,0.0],[11.0914,59.0421,0.8384],[11.0908,59.0396,0.0],[11.0931,59.0357,3.1883],[11.0892,59.034,0.0],[11.0831,59.0343,2.6751],[11.0825,59.0332,0.9712],[11.0847,59.0321,2.4313],[11.0786,59.0296,0.0],[11.0786,59.0254,0.0],[11.0881,59.0246,0.3308],[11.0908,59.0279,7.0123],[11.0981,59.0271,1.0978],[11.1064,59.0299,3.0812],[11.1081,59.0346,6.2635],[11.1058,59.0371,15.4156],[11.1119,59.036,3.6211],[11.1114,59.0443,4.5235],[11.1158,59.049,0.0],[11.1136,59.0513,2.1406],[11.1092,59.0507,0.0],[11.1081,59.0532,3.3588]]],
[[[11.0858,59.0438,0.0],[11.0803,59.044,0.0],[11.0792,59.0418,0.0],[11.0819,59.0396,1.7796],[11.0864,59.0424,0.0],[11.0858,59.0438,0.0]]],
[[[11.0447,59.0132,3.8599],[11.0381,59.0129,1.8909],[11.0358,59.0107,1.0928],[11.0436,59.0113,1.0854],[11.0447,59.0132,3.8599]]],
[[[11.0414,59.0213,4.4528],[11.0425,59.0229,1.4115],[11.0392,59.0229,1.4115],[11.0364,59.0185,0.5598],[11.0386,59.0168,0.0],[11.0408,59.0174,1.6472],[11.0414,59.0213,4.4528]]],
[[[11.0369,59.0949,1.5801],[11.0319,59.096,0.0],[11.0297,59.0924,0.0],[11.0197,59.0924,0.0],[11.0108,59.0893,2.0585],[11.0075,59.0901,6.3163],[11.0053,59.0943,0.0],[11.0019,59.0943,2.8135],[11.0008,59.0926,0.3979],[11.0031,59.0915,14.7582],[11.0008,59.0893,1.4077],[11.0053,59.0885,24.1094],[10.9864,59.0812,1.0104],[10.9908,59.0738,9.9562],[10.9953,59.0726,2.0508],[10.9919,59.0707,8.1916],[10.9969,59.066,0.0],[11.0003,59.066,16.557],[11.0003,59.0621,5.5733],[10.9964,59.0629,0.0],[10.9975,59.0601,0.0],[11.0036,59.0588,11.1239],[10.9881,59.051,4.5965],[10.9892,59.0396,0.4917],[10.9875,59.0388,0.4917],[10.9892,59.0357,0.0],[10.9881,59.0304,0.0],[10.9903,59.0288,6.568],[10.9925,59.0276,1.6091],[11.0064,59.0282,0.0],[11.0075,59.0288,6.1668],[11.0069,59.0318,6.9887],[11.0131,59.0321,5.9941],[11.0147,59.0313,11.5658],[11.0142,59.0293,8.8699],[11.0075,59.0257,0.0],[11.0164,59.0257,10.4023],[11.0181,59.0243,2.3756],[11.0169,59.0224,7.7633],[11.0114,59.0218,0.0],[11.0119,59.0193,0.0],[11.0158,59.0171,3.5072],[11.0208,59.0185,0.0],[11.0258,59.016,0.2502],[11.0381,59.0232,0.5571],[11.0386,59.0249,0.9686],[11.0503,59.0251,0.0],[11.0525,59.0285,0.0],[11.0581,59.0288,0.0],[11.0575,59.0318,0.0],[11.0592,59.0343,11.8438],[11.0619,59.0349,0.0],[11.0608,59.0376,2.5096],[11.0575,59.0393,0.8839],[11.0625,59.0435,0.0],[11.0597,59.0471,0.0],[11.0558,59.0468,3.8098],[11.0519,59.044,9.0271],[11.0381,59.0418,2.9338],[11.0369,59.0443,0.1116],[11.0392,59.046,4.8743],[11.0436,59.0457,1.2646],[11.0431,59.044,1.815],[11.0453,59.0438,6.3383],[11.0592,59.0496,8.6407],[11.0664,59.0488,2.0803],[11.0714,59.0501,0.0],[11.0731,59.0485,0.0],[11.0764,59.0485,0.0],[11.0792,59.0515,9.9114],[11.0836,59.0529,2.6934],[11.0853,59.056,0.0],[11.0825,59.0599,2.658],[11.0797,59.0596,6.7851],[11.0797,59.061,25.1066],[11.0881,59.066,0.0],[11.0875,59.0687,0.8004],[11.0892,59.0699,3.8141],[11.0886,59.0735,3.7392],[11.0903,59.0757,0.0],[11.0886,59.0779,8.2158],[11.0914,59.0793,5.1448],[11.0869,59.0821,1.9424],[11.0881,59.0838,0.0],[11.0819,59.0854,0.0],[11.0808,59.0843,0.0],[11.0831,59.0824,3.6102],[11.0814,59.0821,0.736],[11.0714,59.0849,0.7659],[11.0703,59.0843,0.7659],[11.0719,59.0832,7.2199],[11.0681,59.0821,0.4113],[11.0675,59.084,0.6615],[11.0569,59.0879,4.0012],[11.0608,59.0896,3.307],[11.0603,59.0915,4.2679],[11.0519,59.0901,3.6158],[11.0486,59.0876,0.9825],[11.0514,59.0863,11.2165],[11.0497,59.0835,5.518],[11.0508,59.0807,3.6368],[11.0469,59.079,0.0],[11.0653,59.0782,0.5014],[11.0769,59.0746,0.9667],[11.0786,59.0718,8.7886],[11.0742,59.0724,2.523],[11.0719,59.0749,0.0211],[11.0631,59.0746,2.3295],[11.0586,59.0771,10.92],[11.0503,59.0771,0.0],[11.0447,59.0746,1.0663],[11.0436,59.0765,5.6011],[11.0392,59.0774,0.0],[11.0403,59.0804,0.0],[11.0386,59.0818,20.9658],[11.0386,59.0832,5.4602],[11.0436,59.0865,1.8898],[11.0425,59.0887,4.2523],[11.0436,59.091,1.2068],[11.0386,59.0926,2.7492],[11.0397,59.0943,0.0],[11.0369,59.0949,1.5801]]],
[[[11.0431,59.0807,3.7275],[11.0453,59.0807,1.9967],[11.0475,59.0846,0.0],[11.0431,59.0835,4.0591],[11.0431,59.0807,3.7275]]],
[[[11.1192,59.0446,1.3187],[11.1136,59.0449,0.0],[11.1142,59.0388,0.0],[11.1186,59.0396,2.4661],[11.1208,59.0424,2.6116],[11.1192,59.0446,1.3187]]],
[[[11.0942,59.076,0.5082],[11.0964,59.0765,0.0],[11.0981,59.0799,3.0807],[11.0947,59.079,5.6063],[11.0942,59.076,0.5082]]],
[[[11.0786,59.106,1.5056],[11.0775,59.104,0.0],[11.0819,59.1051,1.5137],[11.0831,59.1076,2.2552],[11.0814,59.1076,1.308],[11.0786,59.106,1.5056]]],
[[[11.1047,59.1057,1.8372],[11.1042,59.1082,4.7664],[11.0997,59.1068,4.6884],[11.1014,59.104,0.6306],[11.1047,59.1057,1.8372]]],
[[[11.0742,59.1076,0.0],[11.0703,59.1085,4.0519],[11.0692,59.1049,0.0],[11.0725,59.1049,0.0],[11.0742,59.1076,0.0]]],
[[[11.1386,59.1199,4.5012],[11.1347,59.1204,11.8562],[11.1303,59.1188,0.0],[11.1286,59.1204,4.7642],[11.1231,59.1174,2.3304],[11.1225,59.1151,11.9932],[11.1169,59.1126,0.0],[11.1175,59.1065,2.4722],[11.1264,59.1032,0.0],[11.1275,59.0999,11.3035],[11.1258,59.0979,1.5864],[11.1336,59.0971,6.7536],[11.1369,59.0951,0.0],[11.1408,59.0982,1.5644],[11.1403,59.1004,5.7342],[11.1353,59.0979,6.7536],[11.1319,59.0996,0.0],[11.1408,59.1074,2.3041],[11.1381,59.1129,7.2449],[11.1408,59.1157,13.632],[11.1442,59.1154,0.0],[11.1458,59.1171,1.6872],[11.1386,59.1199,4.5012]]],
[[[11.0497,59.099,0.6945],[11.0486,59.1004,11.8939],[11.0447,59.0982,1.8449],[11.0447,59.0957,0.0],[11.0497,59.0965,0.0],[11.0497,59.099,0.6945]]],
[[[11.0419,59.0982,0.0],[11.0442,59.0985,1.8449],[11.0447,59.1021,1.3425],[11.0397,59.1007,2.1012],[11.0419,59.0982,0.0]]],
[[[11.0192,59.1201,6.9108],[11.0181,59.1224,0.0],[11.0164,59.1224,0.0],[11.0158,59.1204,16.2993],[11.0131,59.1196,5.0427],[11.0119,59.1132,0.0],[11.0153,59.1143,2.0922],[11.0142,59.116,2.2865],[11.0175,59.1165,0.0],[11.0192,59.1201,6.9108]]],
[[[10.9525,59.1149,0.0],[10.9547,59.1188,0.0],[10.9531,59.1188,0.0],[10.9508,59.1157,0.0],[10.9481,59.1174,0.524],[10.9392,59.1121,0.0],[10.9369,59.1068,0.0],[10.9475,59.1085,0.0],[10.9475,59.1099,0.4181],[10.9442,59.1104,4.0692],[10.9469,59.111,0.0],[10.9447,59.1135,1.3511],[10.9503,59.1146,2.0768],[10.9514,59.1129,0.0],[10.9525,59.1149,0.0]]],
[[[10.9375,59.1288,0.0],[10.9353,59.1296,1.3337],[10.9353,59.1274,6.7482],[10.9314,59.126,0.0],[10.9314,59.1237,1.5024],[10.9281,59.1212,0.2097],[10.9303,59.1188,1.8102],[10.9347,59.1196,0.0],[10.9364,59.1229,4.1324],[10.9381,59.1229,4.1324],[10.9369,59.1182,1.1058],[10.9392,59.1171,1.1058],[10.9347,59.1149,3.3246],[10.9331,59.1113,0.0],[10.9364,59.1115,0.0],[10.9375,59.1146,1.1191],[10.9419,59.1168,4.9568],[10.9464,59.1174,0.524],[10.9497,59.1229,4.6323],[10.9481,59.1243,0.0],[10.9436,59.1224,0.4922],[10.9431,59.1268,0.7146],[10.9375,59.1288,0.0]]],
[[[10.9292,59.126,3.802],[10.9286,59.1279,0.491],[10.9197,59.1276,0.6685],[10.9181,59.1251,0.2636],[10.9225,59.1251,7.5387],[10.9192,59.1218,0.0],[10.9214,59.121,1.4162],[10.9292,59.126,3.802]]],
[[[10.9858,59.1138,0.8321],[10.9825,59.1146,0.6608],[10.9814,59.1118,0.5561],[10.9864,59.1113,0.5047],[10.9858,59.1138,0.8321]]],
[[[10.9836,59.1151,0.6608],[10.9858,59.1151,0.8321],[10.9869,59.1174,0.0],[10.9808,59.1165,0.0],[10.9836,59.1151,0.6608]]],
[[[10.9597,59.1243,0.0],[10.9569,59.1251,0.3114],[10.9581,59.1232,1.1713],[10.9569,59.1221,1.1713],[10.9542,59.1229,0.0],[10.9503,59.1201,0.2641],[10.9592,59.1207,0.0],[10.9614,59.1232,0.0],[10.9597,59.1243,0.0]]]]}}