{"type": "Feature","bbox": [5.8564,58.3554,6.4991,58.657],"geometry": {"type": "MultiPolygon","coordinates": [[[[6.0431,58.3757,0.0],[6.0386,58.3768,0.4089],[6.0392,58.3749,0.0],[6.0436,58.3732,0.0],[6.0431,58.3757,0.0]]],
[[[5.9869,58.4093,0.1795],[5.9847,58.4099,0.0],[5.9836,58.4085,2.3086],[5.9842,58.4054,0.0],[5.9875,58.4054,0.0],[5.9869,58.4093,0.1795]]],
[[[5.9642,58.4118,6.6807],[5.9642,58.4129,4.5573],[5.9614,58.4129,1.088],[5.9597,58.4107,0.0],[5.9619,58.4101,0.0],[5.9642,58.4118,6.6807]]],
[[[6.0014,58.4165,0.0],[5.9975,58.4171,0.0],[5.9969,58.416,0.0],[6.0003,58.4149,0.0],[6.0014,58.4165,0.0]]],
[[[5.9375,58.4107,0.0],[5.9331,58.4113,0.0],[5.9347,58.4087,0.0],[5.9386,58.4093,0.0],[5.9375,58.4107,0.0]]],
[[[5.8831,58.4624,0.0],[5.8742,58.4621,5.2849],[5.8808,58.4607,2.1878],[5.8803,58.4574,0.1543],[5.8847,58.4579,0.0],[5.8842,58.4593,5.8953],[5.8892,58.4593,6.8007],[5.8886,58.4615,10.278],[5.8825,58.4607,0.3065],[5.8831,58.4624,0.0]]],
[[[5.8669,58.469,5.5941],[5.8636,58.4696,5.5941],[5.8569,58.4679,0.0],[5.8564,58.4665,0.0],[5.8608,58.4646,0.0],[5.8681,58.4654,0.0],[5.8686,58.4679,4.0675],[5.8669,58.469,5.5941]]],
[[[5.8625,58.479,8.9919],[5.862,58.479,8.9919],[5.8619,58.4787,0.0],[5.8625,58.4787,0.0],[5.8625,58.479,8.9919]]],
[[[5.863,58.4791,8.9919],[5.8625,58.479,8.9919],[5.8642,58.479,1.2542],[5.8642,58.4792,1.2542],[5.863,58.4791,8.9919]]],
[[[5.967,58.5329,149.1398],[5.9656,58.5365,159.5272],[5.9487,58.5346,197.8591],[5.9469,58.539,198.2678],[5.93,58.5371,163.7769],[5.9318,58.5327,156.3212],[5.8813,58.527,118.336],[5.8849,58.5183,92.9779],[5.868,58.5164,67.7128],[5.8716,58.5076,92.2712],[5.8632,58.5066,82.7034],[5.8668,58.4979,62.644],[5.8584,58.4969,72.1403],[5.8655,58.4796,1.2542],[5.8747,58.4793,5.5957],[5.8792,58.476,0.0],[5.8658,58.4779,2.8502],[5.8603,58.4751,0.6095],[5.8603,58.4726,0.0],[5.8636,58.4707,1.3113],[5.8725,58.4699,2.9407],[5.8736,58.4676,0.0],[5.8725,58.466,1.373],[5.8758,58.464,6.6866],[5.8919,58.4646,1.8486],[5.8936,58.4671,6.2832],[5.9053,58.4657,2.2885],[5.9125,58.4663,0.0],[5.9125,58.4679,0.0],[5.9175,58.4665,0.0],[5.9214,58.4676,5.259],[5.9286,58.4668,0.0],[5.9314,58.4682,5.903],[5.9436,58.4676,1.6943],[5.9475,58.4701,0.0],[5.9608,58.4707,6.6147],[5.9658,58.4688,5.4625],[5.9714,58.4699,0.0],[5.9747,58.4674,10.4839],[5.9808,58.4674,2.9669],[5.9836,58.4643,0.0],[5.9742,58.4615,25.5772],[5.9719,58.4649,4.1081],[5.9653,58.4674,0.0],[5.9464,58.4685,2.7618],[5.9442,58.4663,5.4655],[5.9347,58.4643,14.6967],[5.9292,58.4651,5.4634],[5.9269,58.4635,21.0916],[5.9219,58.4635,17.6916],[5.9069,58.459,4.3705],[5.9025,58.4615,7.3837],[5.8992,58.4615,7.3837],[5.8981,58.4596,0.0],[5.9014,58.4599,0.0],[5.9025,58.4576,5.6818],[5.8919,58.4557,0.0],[5.8892,58.4529,0.0],[5.8914,58.4507,0.0],[5.8869,58.4479,0.0],[5.8914,58.4468,4.3225],[5.8697,58.4454,0.0],[5.8669,58.4429,0.0],[5.8669,58.441,0.0],[5.8647,58.4407,0.0],[5.8658,58.4382,1.3825],[5.8625,58.4362,0.6196],[5.8636,58.4329,0.2562],[5.8625,58.4296,0.4603],[5.8747,58.4293,1.7484],[5.8742,58.426,3.2665],[5.8764,58.4246,0.0],[5.8742,58.4229,0.1321],[5.8875,58.4263,2.3118],[5.8903,58.4251,1.2127],[5.8892,58.4229,0.0],[5.8914,58.4221,0.6576],[5.8942,58.424,5.842],[5.8986,58.4243,0.0],[5.8986,58.426,3.1663],[5.9036,58.4257,3.1945],[5.9053,58.4285,0.0],[5.9097,58.431,0.0],[5.9086,58.4326,0.3517],[5.9114,58.434,0.0],[5.9114,58.4368,0.0],[5.9092,58.4374,0.0],[5.9108,58.4432,0.0],[5.9031,58.444,3.2205],[5.9058,58.4468,0.0],[5.9031,58.4479,2.1667],[5.9047,58.4515,0.1201],[5.9092,58.4526,0.0],[5.9092,58.4546,0.0],[5.9119,58.4568,0.0],[5.9169,58.456,0.0],[5.9181,58.4518,0.0],[5.9197,58.4515,1.5971],[5.9225,58.4518,0.0],[5.9236,58.4551,4.5365],[5.9264,58.4554,0.0],[5.9297,58.4529,4.3469],[5.9264,58.4507,0.0],[5.9331,58.4496,1.2748],[5.9314,58.4476,0.0],[5.9347,58.4435,9.9513],[5.9342,58.441,10.2483],[5.9392,58.4396,4.8088],[5.9353,58.4376,1.9885],[5.9353,58.4354,0.0],[5.9386,58.4324,0.0],[5.9347,58.4313,0.5343],[5.9364,58.4304,0.5298],[5.9353,58.4287,0.0],[5.9386,58.4282,0.0],[5.9414,58.4235,0.0],[5.9453,58.4232,0.918],[5.9453,58.4204,0.0],[5.9531,58.4215,0.2606],[5.9514,58.421,0.649],[5.9536,58.4193,0.6401],[5.9525,58.4174,0.0],[5.9686,58.4151,4.1506],[5.9692,58.4135,17.4089],[5.9658,58.4124,0.0],[5.9653,58.4082,0.0],[5.9714,58.4093,0.0],[5.9808,58.4079,0.0],[5.9819,58.4096,2.0386],[5.9792,58.4113,0.0],[5.9831,58.4143,0.0],[5.9797,58.4168,3.1951],[5.9786,58.419,8.7363],[5.9797,58.4199,0.0],[5.9781,58.421,4.535],[5.9819,58.4218,0.0],[5.9853,58.419,2.3759],[5.9914,58.4193,0.0],[5.9897,58.4257,0.0],[5.9864,58.4263,1.0702],[5.9853,58.4282,0.308],[5.9886,58.4307,0.0],[5.9864,58.4321,6.3697],[5.9875,58.4346,2.2159],[5.9819,58.4343,5.9731],[5.9831,58.4357,0.0],[5.9786,58.4393,1.7396],[5.9814,58.4401,1.0331],[5.9831,58.4393,0.0],[5.9858,58.4429,0.0],[5.9847,58.446,1.3729],[5.9792,58.4468,6.2396],[5.9797,58.4488,3.4825],[5.9842,58.4501,0.0],[5.9825,58.4557,0.2318],[5.9792,58.4576,0.0],[5.9825,58.459,0.4203],[5.9858,58.4579,0.0],[5.9875,58.4529,2.5258],[5.9903,58.4515,0.4617],[5.9908,58.4485,11.5911],[5.9875,58.446,0.0],[5.9903,58.444,10.2748],[5.9886,58.4407,0.0],[5.9892,58.4357,9.3147],[5.9908,58.4343,3.7646],[5.9897,58.4318,4.505],[5.9914,58.4276,13.6933],[5.9936,58.4265,3.0061],[5.9947,58.4193,0.0],[6.0047,58.4193,7.5774],[6.0131,58.4174,3.709],[6.0053,58.4146,0.649],[6.0042,58.4099,1.5575],[6.0147,58.4063,3.8681],[6.0136,58.4043,0.0],[6.0164,58.4035,0.0],[6.0169,58.399,0.0],[6.0208,58.3968,0.0],[6.0208,58.3932,0.0],[6.0258,58.3874,0.0],[6.0303,58.3849,0.0],[6.0336,58.3849,0.0],[6.0342,58.3815,0.0],[6.0508,58.3743,0.0],[6.0542,58.3746,0.6741],[6.0547,58.3768,2.1012],[6.0575,58.3776,0.0],[6.0575,58.3821,5.8838],[6.0625,58.3815,0.0],[6.0636,58.3835,0.3902],[6.0658,58.3838,1.6543],[6.0636,58.3793,0.0],[6.0697,58.3782,4.2639],[6.0686,58.374,0.0],[6.0792,58.3713,0.0],[6.0953,58.3718,1.745],[6.0919,58.371,0.0],[6.0931,58.3674,1.0829],[6.0903,58.3657,0.0],[6.0936,58.3643,0.0],[6.097,58.3668,4.6976],[6.0964,58.3643,1.7481],[6.0997,58.3613,0.0],[6.1069,58.3604,0.9164],[6.1081,58.3582,0.0],[6.1119,58.3571,1.1463],[6.1108,58.3557,0.0],[6.115,58.3554,0.0],[6.1135,58.3559,1.0772],[6.1177,58.3564,5.9331],[6.116,58.3608,70.3317],[6.1328,58.3626,132.3958],[6.131,58.367,90.0105],[6.1478,58.3689,145.5071],[6.1425,58.382,75.0],[6.1509,58.383,128.1943],[6.1456,58.3961,196.4799],[6.1792,58.3998,165.6165],[6.1775,58.4042,154.5],[6.1943,58.4061,189.7237],[6.1925,58.4105,237.2148],[6.2009,58.4114,241.3456],[6.1992,58.4158,220.1618],[6.2076,58.4167,154.2746],[6.2058,58.4211,195.4532],[6.2142,58.422,194.465],[6.2072,58.4396,188.4967],[6.2156,58.4405,195.9725],[6.2139,58.4449,201.0032],[6.2728,58.4514,137.3852],[6.2623,58.4777,146.6099],[6.2791,58.4796,173.5],[6.2774,58.4839,173.5],[6.2942,58.4858,181.1209],[6.289,58.499,423.6802],[6.2974,58.4999,374.9418],[6.2921,58.513,475.4476],[6.3006,58.514,462.2577],[6.2901,58.5403,222.5724],[6.2816,58.5394,257.766],[6.2799,58.5438,192.107],[6.2883,58.5447,189.5211],[6.2813,58.5622,511.1949],[6.2982,58.5641,547.6814],[6.2964,58.5685,596.7186],[6.3387,58.5731,684.6574],[6.3369,58.5775,676.3018],[6.3623,58.5802,536.7682],[6.364,58.5758,462.3202],[6.3725,58.5767,314.8536],[6.3742,58.5724,311.5],[6.408,58.576,595.2432],[6.4063,58.5804,572.139],[6.4147,58.5813,589.5864],[6.413,58.5857,554.601],[6.4214,58.5866,524.655],[6.4197,58.591,546.5316],[6.4535,58.5947,517.3189],[6.4518,58.599,343.71],[6.4771,58.6018,484.6442],[6.4754,58.6062,562.1412],[6.4923,58.608,565.0235],[6.4906,58.6124,546.1249],[6.4991,58.6133,522.065],[6.4973,58.6177,575.8572],[6.4889,58.6168,545.4973],[6.4819,58.6343,545.7312],[6.4735,58.6334,503.6691],[6.47,58.6422,539.7801],[6.4615,58.6413,682.9207],[6.458,58.6501,634.2521],[6.4496,58.6492,673.8326],[6.4478,58.6536,610.3991],[6.4394,58.6526,641.6196],[6.4376,58.657,566.6788],[6.4292,58.6561,598.1676],[6.4309,58.6517,595.7891],[6.4224,58.6508,585.8751],[6.4242,58.6464,682.5254],[6.4072,58.6446,649.7571],[6.409,58.6402,666.9681],[6.4005,58.6393,657.8837],[6.4023,58.6349,682.4711],[6.3938,58.634,691.3901],[6.3903,58.6428,712.4377],[6.3818,58.6419,687.8152],[6.3836,58.6375,723.2301],[6.3328,58.632,849.4053],[6.3381,58.6188,771.938],[6.3296,58.6179,810.082],[6.3314,58.6135,716.8434],[6.3229,58.6126,703.1727],[6.3264,58.6038,704.3116],[6.2757,58.5983,646.834],[6.2739,58.6026,548.8514],[6.2232,58.5971,564.824],[6.225,58.5927,616.3568],[6.1658,58.5862,355.9216],[6.1676,58.5818,407.9375],[6.1423,58.579,401.2521],[6.1476,58.5659,384.3073],[6.1307,58.564,360.5223],[6.1325,58.5596,317.3428],[6.1156,58.5578,233.6263],[6.1174,58.5534,276.5232],[6.1005,58.5515,265.2045],[6.1023,58.5471,265.2282],[6.077,58.5443,168.5205],[6.0805,58.5355,125.6008],[6.0721,58.5346,119.7119],[6.0739,58.5302,126.6502],[6.057,58.5284,96.2137],[6.0588,58.524,138.6272],[6.0251,58.5202,26.6479],[6.0233,58.5246,25.865],[6.0064,58.5227,24.5],[6.0046,58.5271,53.1478],[5.9962,58.5262,43.7181],[5.9944,58.5305,56.5953],[5.9776,58.5287,101.4074],[5.9758,58.533,107.7069],[5.967,58.5329,149.1398]]]]}
,"properties": {"GID_2": "NOR.13.3_1","GID_0": "NOR","country": "Norway","GID_1": "NOR.13_1","province": "Rogaland","NL_NAME_1": "NA","county": "Eigersund","VARNAME_2": "NA","NL_NAME_2": "NA","TYPE_2": "Kommuner","ENGTYPE_2": "Municipality","CC_2": "NA","HASC_2": "NO.RO.EI","name": "Eigersund.county","area_km2": 449.1505,"hist_schema_id": "Elevation0-9000","hist_area_km2": {"0": 18.1687,"25": 30.3983,"50": 25.1974,"75": 30.7591,"100": 28.5837,"125": 34.6848,"150": 38.5686,"175": 42.5836,"200": 33.9335,"225": 23.9503,"250": 17.3718,"275": 10.8858,"300": 8.5886,"325": 6.7282,"350": 6.383,"375": 8.2196,"400": 7.3102,"425": 6.9001,"450": 5.5058,"475": 4.9296,"500": 5.0618,"525": 5.0828,"550": 4.9606,"575": 6.5289,"600": 7.8647,"625": 7.6644,"650": 6.9576,"675": 5.1896,"700": 4.2507,"725": 2.4729,"750": 1.5343,"775": 0.585,"800": 0.5298,"825": 0.4305,"850": 0.3311,"875": 0.0552}}}