{"type": "Feature","bbox": [8.712,60.6295,9.3353,60.8714],"geometry": {"type": "MultiPolygon","coordinates": [[[[8.8343,60.6295,918.4125],[8.8434,60.6302,915.5678],[8.8403,60.6391,862.1761],[8.8493,60.6398,877.2791],[8.8478,60.6443,882.2025],[8.8568,60.645,868.8625],[8.8553,60.6494,861.4062],[8.8734,60.651,903.6636],[8.8718,60.6554,886.8022],[8.899,60.6576,878.9587],[8.8974,60.6621,903.8712],[8.9246,60.6643,940.3916],[8.923,60.6687,937.1831],[8.9592,60.6717,938.6449],[8.9608,60.6673,969.3591],[8.9698,60.6681,942.0895],[8.9683,60.6725,937.0513],[8.9954,60.6747,857.6858],[8.997,60.6703,890.7134],[9.006,60.671,733.7713],[9.0091,60.6622,809.4667],[9.0181,60.6629,704.8546],[9.0196,60.6585,696.9925],[9.0377,60.66,236.5742],[9.0393,60.6556,264.1789],[9.0483,60.6563,184.3065],[9.0559,60.6342,238.8908],[9.0649,60.6349,192.0802],[9.0665,60.6305,248.3315],[9.0755,60.6312,364.4076],[9.074,60.6357,380.5369],[9.083,60.6364,470.726],[9.0785,60.6497,595.7145],[9.0966,60.6512,822.4767],[9.0951,60.6556,851.9945],[9.1222,60.6578,749.6213],[9.1207,60.6622,785.7047],[9.1298,60.663,813.2192],[9.1313,60.6585,828.5519],[9.1494,60.66,919.759],[9.1509,60.6556,960.0361],[9.178,60.6578,964.8356],[9.1765,60.6622,949.3462],[9.2128,60.6651,1087.0364],[9.2113,60.6696,1066.9581],[9.2384,60.6718,1064.1536],[9.2369,60.6762,1069.5471],[9.246,60.6769,1003.374],[9.2445,60.6813,949.2221],[9.2536,60.6821,939.4507],[9.2521,60.6865,989.0264],[9.3064,60.6909,926.0586],[9.305,60.6953,856.7618],[9.3231,60.6967,820.3199],[9.3216,60.7012,822.7404],[9.3307,60.7019,820.4795],[9.3262,60.7152,928.6115],[9.3353,60.7159,914.4941],[9.3294,60.7336,1042.5787],[9.3203,60.7329,1097.197],[9.3173,60.7417,1078.2042],[9.3082,60.741,1109.8727],[9.3053,60.7499,1082.1176],[9.2962,60.7491,1118.9337],[9.2917,60.7624,1079.37],[9.2735,60.761,1037.8347],[9.272,60.7654,1115.9103],[9.263,60.7647,1122.6062],[9.2615,60.7691,1038.5455],[9.2433,60.7676,1212.2251],[9.2418,60.7721,1115.1906],[9.2236,60.7706,1116.2279],[9.2221,60.775,1066.0441],[9.213,60.7743,1090.0978],[9.2115,60.7787,1072.4783],[9.2024,60.778,1084.4019],[9.1994,60.7868,1041.627],[9.1904,60.7861,1034.2931],[9.1888,60.7905,948.3329],[9.1798,60.7898,955.663],[9.1782,60.7942,914.9982],[9.1692,60.7935,947.4648],[9.1676,60.7979,897.0734],[9.1586,60.7972,917.8824],[9.157,60.8016,879.2466],[9.1479,60.8009,880.4824],[9.1464,60.8053,863.1378],[9.1373,60.8046,853.5266],[9.1358,60.809,856.7877],[9.1176,60.8075,838.2864],[9.1161,60.812,832.6451],[9.107,60.8112,831.6747],[9.1055,60.8156,830.2629],[9.0964,60.8149,825.875],[9.0949,60.8193,817.1927],[9.0858,60.8186,812.6066],[9.0843,60.823,812.5782],[9.0661,60.8215,811.9055],[9.0646,60.826,806.2463],[9.0555,60.8252,812.3875],[9.0539,60.8296,813.8655],[9.0448,60.8289,820.7843],[9.0433,60.8333,809.5153],[9.0251,60.8318,828.6226],[9.0236,60.8363,812.3859],[9.0145,60.8355,817.2603],[9.0129,60.8399,817.0],[9.0038,60.8392,817.0],[9.0023,60.8436,817.0],[8.9932,60.8429,817.0],[8.9917,60.8473,817.0],[8.9735,60.8458,817.0],[8.9719,60.8502,817.0],[8.9628,60.8495,817.0],[8.9613,60.8539,817.0],[8.9522,60.8532,817.0],[8.9506,60.8576,817.0],[8.9415,60.8568,817.0],[8.94,60.8613,817.0],[8.9218,60.8598,817.0],[8.9202,60.8642,817.0],[8.9111,60.8634,817.0],[8.9096,60.8678,817.0],[8.8823,60.8656,817.0],[8.8807,60.87,817.0],[8.8443,60.867,863.1636],[8.8427,60.8714,825.6333],[8.8154,60.8691,827.3643],[8.8217,60.8515,974.8547],[8.8035,60.8499,995.5961],[8.805,60.8455,1040.8961],[8.7959,60.8448,999.2521],[8.7991,60.8359,1010.2618],[8.79,60.8352,973.2949],[8.7915,60.8307,950.6868],[8.7824,60.83,911.5286],[8.7856,60.8211,872.1361],[8.7765,60.8204,848.3812],[8.7781,60.816,837.0286],[8.769,60.8152,829.8071],[8.7721,60.806399999999996,799.4543],[8.763,60.8056,774.7677],[8.7646,60.8012,757.2894],[8.7555,60.8004,743.9426],[8.7571,60.796,710.5138],[8.748,60.7952,651.6022],[8.7495,60.7908,609.515],[8.7405,60.79,609.9482],[8.742,60.7856,563.0],[8.733,60.7849,574.8462],[8.7345,60.7804,603.4087],[8.7254,60.7797,688.7308],[8.727,60.7753,787.5381],[8.7179,60.7745,855.0089],[8.7211,60.7656,1032.6396],[8.712,60.7649,1018.9917],[8.7183,60.7472,948.403],[8.7274,60.748,929.4686],[8.7289,60.7435,957.1463],[8.738,60.7443,943.2785],[8.7396,60.7399,950.7487],[8.7486,60.7407,933.9427],[8.7518,60.7318,951.6675],[8.7608,60.7326,945.9954],[8.7639,60.7237,980.0944],[8.773,60.7245,975.1834],[8.7933,60.667,285.1963],[8.8023,60.6678,294.1383],[8.807,60.6545,530.0452],[8.816,60.6553,560.551],[8.8207,60.642,813.582],[8.8297,60.6428,825.0439],[8.8343,60.6295,918.4125]]]]}
,"properties": {"GID_2": "NOR.4.5_1","GID_0": "NOR","country": "Norway","GID_1": "NOR.4_1","province": "Buskerud","NL_NAME_1": "NA","county": "Gol","VARNAME_2": "NA","NL_NAME_2": "NA","TYPE_2": "Kommuner","ENGTYPE_2": "Municipality","CC_2": "NA","HASC_2": "NO.BU.GO","name": "Gol.county","area_km2": 538.2154,"hist_schema_id": "Elevation0-9000","hist_area_km2": {"175": 0.5196,"200": 4.6508,"225": 3.9341,"250": 4.0797,"275": 4.8271,"300": 3.8095,"325": 3.7576,"350": 3.799,"375": 3.9233,"400": 3.9022,"425": 4.3061,"450": 3.8289,"475": 4.3159,"500": 4.9158,"525": 5.7238,"550": 6.1371,"575": 7.4011,"600": 6.7593,"625": 6.7074,"650": 6.9964,"675": 7.558,"700": 10.1072,"725": 11.2896,"750": 14.4101,"775": 17.8894,"800": 22.8702,"825": 46.6828,"850": 45.4283,"875": 31.1263,"900": 31.0711,"925": 32.8861,"950": 30.6597,"975": 32.1097,"1000": 26.6876,"1025": 19.9891,"1050": 19.7087,"1075": 16.7331,"1100": 8.1836,"1125": 4.2053,"1150": 2.7864,"1175": 4.0396,"1200": 3.0243,"1225": 2.7758,"1250": 1.3568,"1275": 0.3418}}}