{"type": "Feature","bbox": [9.0922,60.2937,9.8366,60.5683],"geometry": {"type": "MultiPolygon","coordinates": [[[[9.6982,60.3128,564.5084],[9.7789,60.319,552.2526],[9.7775,60.3235,600.6424],[9.7955,60.3248,669.9586],[9.7927,60.3337,593.2407],[9.8016,60.3344,541.3549],[9.7974,60.3477,559.0435],[9.8064,60.3484,511.8782],[9.805,60.3528,581.6787],[9.814,60.3535,392.9946],[9.8126,60.3579,411.0973],[9.8306,60.3593,289.6331],[9.8264,60.3726,263.911],[9.8084,60.3712,461.7089],[9.8098,60.3668,499.6912],[9.7918,60.3654,614.8497],[9.7932,60.361,645.2847],[9.7843,60.3603,654.538],[9.7857,60.3559,629.1644],[9.7767,60.3552,597.596],[9.7781,60.3507,569.3981],[9.7601,60.3494,564.0181],[9.7587,60.3538,583.4319],[9.7408,60.3524,612.0962],[9.7393,60.3568,585.2971],[9.7483,60.3575,568.8185],[9.7469,60.362,599.0825],[9.7559,60.3627,631.7515],[9.7545,60.3671,654.1335],[9.7725,60.3685,639.2758],[9.7711,60.3729,691.5549],[9.789,60.3743,626.1691],[9.7876,60.3787,571.7808],[9.7966,60.3794,502.3135],[9.7952,60.3839,414.6475],[9.8132,60.3852,299.5],[9.8118,60.3897,380.5135],[9.8208,60.3904,536.2203],[9.811,60.4214,569.8741],[9.82,60.4221,576.3434],[9.8186,60.4265,705.9761],[9.8366,60.4279,576.5814],[9.8282,60.4545,598.8237],[9.8192,60.4538,688.8981],[9.8178,60.4582,790.3146],[9.7818,60.4555,1110.2467],[9.7803,60.4599,1132.8739],[9.7713,60.4592,1117.0323],[9.7699,60.4637,1131.3649],[9.7519,60.4623,1000.3143],[9.7505,60.4667,1087.4384],[9.7415,60.466,1061.8757],[9.7401,60.4704,1073.63],[9.7311,60.4697,1094.5463],[9.7296,60.4742,1126.8877],[9.7116,60.4728,1157.0055],[9.7102,60.4772,1177.3739],[9.7012,60.4765,1121.2826],[9.6998,60.481,1142.3871],[9.6908,60.4803,1139.5718],[9.6893,60.4847,1112.9491],[9.6713,60.4833,1195.0613],[9.6699,60.4877,1106.7418],[9.6609,60.487,1089.27],[9.6594,60.4915,1085.8812],[9.6504,60.4907,1138.4882],[9.649,60.4952,1191.1619],[9.64,60.4945,1228.6162],[9.6386,60.4989,1222.532],[9.6205,60.4975,1157.1161],[9.6062,60.5418,583.3885],[9.534,60.5362,551.2101],[9.5354,60.5317,546.4804],[9.4903,60.5282,568.1798],[9.4888,60.5326,597.6545],[9.4798,60.5319,575.4162],[9.4784,60.5363,609.5453],[9.4693,60.5356,571.5241],[9.4679,60.5401,579.6608],[9.4589,60.5393,571.5748],[9.4574,60.5438,572.3036],[9.4394,60.5423,575.7716],[9.4379,60.5468,586.3567],[9.4289,60.5461,601.1728],[9.4274,60.5505,639.5023],[9.4184,60.5498,609.353],[9.4125,60.5675,602.3069],[9.3674,60.5639,1009.4299],[9.3659,60.5683,961.5655],[9.3479,60.5669,928.233],[9.3508,60.558,987.7407],[9.3418,60.5573,986.025],[9.3462,60.544,1022.869],[9.3372,60.5433,1027.8489],[9.3401,60.5344,1030.8582],[9.3311,60.5337,1033.2963],[9.334,60.5249,1093.3799],[9.325,60.5241,1049.7422],[9.328,60.5153,1011.1427],[9.3189,60.5145,877.8459],[9.3219,60.5057,959.7305],[9.3129,60.505,1073.6597],[9.3143,60.5005,1049.8153],[9.3053,60.4998,1036.8424],[9.3083,60.491,961.4326],[9.2993,60.4902,798.3944],[9.3022,60.4814,798.2485],[9.2932,60.4807,848.2271],[9.2947,60.4762,834.2919],[9.2857,60.4755,790.9981],[9.2872,60.4711,742.3225],[9.2782,60.4704,616.0026],[9.2796,60.4659,476.401],[9.2706,60.4652,340.4031],[9.2721,60.4608,241.6813],[9.2541,60.4593,189.4192],[9.2556,60.4549,258.6251],[9.2466,60.4542,394.6413],[9.2481,60.4497,854.4328],[9.2391,60.449,863.2086],[9.245,60.4313,966.9127],[9.227,60.4298,911.0436],[9.2285,60.4254,977.0842],[9.2105,60.424,790.6004],[9.212,60.4195,852.5392],[9.194,60.4181,783.3519],[9.1955,60.4136,809.5797],[9.1686,60.4114,866.7372],[9.1701,60.407,879.0425],[9.1521,60.4055,1030.7725],[9.1536,60.4011,1100.4407],[9.1266,60.3989,1176.1022],[9.1281,60.3945,1203.8929],[9.0922,60.3915,1192.2874],[9.0937,60.3871,1176.8971],[9.1027,60.3879,1211.3568],[9.1042,60.3834,1196.1134],[9.1132,60.3842,1245.6216],[9.1147,60.3797,1183.2614],[9.1236,60.3805,1269.0282],[9.1251,60.3761,1201.9321],[9.1341,60.3768,1242.0673],[9.1356,60.3724,1226.7097],[9.1446,60.3731,1155.9517],[9.149,60.3598,1090.6501],[9.2029,60.3642,922.1304],[9.2043,60.3598,939.9453],[9.2133,60.3605,977.4469],[9.2148,60.3561,1026.0242],[9.2238,60.3568,1042.5653],[9.2252,60.3524,1068.1266],[9.2611,60.3553,1099.395],[9.2626,60.3509,1023.0966],[9.2715,60.3516,1020.5944],[9.273,60.3472,1032.2777],[9.282,60.3479,1041.8051],[9.2835,60.3435,1046.7471],[9.2924,60.3442,984.1843],[9.2939,60.3398,1014.6937],[9.3118,60.3412,1046.7515],[9.3133,60.3368,1083.0332],[9.3312,60.3382,946.8904],[9.3327,60.3338,965.9123],[9.3506,60.3353,1090.7463],[9.3521,60.3308,1101.802],[9.361,60.3316,1142.8008],[9.3625,60.3271,1154.3235],[9.3715,60.3278,1219.8549],[9.3744,60.319,1199.4423],[9.3833,60.3197,1314.8536],[9.3848,60.3153,1220.7808],[9.3938,60.316,1374.1246],[9.3952,60.3116,1313.1803],[9.4042,60.3123,1388.1254],[9.4056,60.3079,1336.0039],[9.4146,60.3086,1306.2872],[9.416,60.3041,1364.642],[9.4339,60.3056,1279.9287],[9.4354,60.3011,1232.0867],[9.4444,60.3019,1238.3342],[9.4458,60.2974,1254.3446],[9.4548,60.2981,1369.434],[9.4562,60.2937,1367.1608],[9.4831,60.2959,1148.5227],[9.4816,60.3003,1119.6643],[9.5444,60.3053,692.4244],[9.5458,60.3008,666.0603],[9.5906,60.3044,631.2983],[9.592,60.2999,565.2227],[9.61,60.3013,496.6855],[9.6085,60.3058,657.1559],[9.6982,60.3128,564.5084]]]]}
,"properties": {"GID_2": "NOR.4.3_1","GID_0": "NOR","country": "Norway","GID_1": "NOR.4_1","province": "Buskerud","NL_NAME_1": "NA","county": "Flå","VARNAME_2": "NA","NL_NAME_2": "NA","TYPE_2": "Kommuner","ENGTYPE_2": "Municipality","CC_2": "NA","HASC_2": "NO.BU.FL","name": "Flå.county","area_km2": 712.304,"hist_schema_id": "Elevation0-9000","hist_area_km2": {"125": 16.6818,"150": 17.6922,"175": 10.3346,"200": 7.6558,"225": 6.8713,"250": 6.2004,"275": 5.8126,"300": 6.5363,"325": 6.1482,"350": 6.6085,"375": 9.0484,"400": 13.1655,"425": 13.1971,"450": 11.8461,"475": 11.1037,"500": 13.0953,"525": 14.05,"550": 18.6451,"575": 26.118,"600": 24.3617,"625": 22.0822,"650": 21.0009,"675": 21.478,"700": 20.4277,"725": 20.2873,"750": 19.0299,"775": 18.3474,"800": 21.7441,"825": 22.0873,"850": 25.7778,"875": 26.2666,"900": 25.5527,"925": 21.7879,"950": 20.7432,"975": 19.2236,"1000": 19.24,"1025": 19.0651,"1050": 14.7359,"1075": 12.037,"1100": 10.4441,"1125": 9.7719,"1150": 10.5551,"1175": 10.0091,"1200": 8.8818,"1225": 9.6481,"1250": 6.2113,"1275": 2.6435,"1300": 1.8788,"1325": 1.7216,"1350": 1.6903,"1375": 1.344,"1400": 0.9345,"1425": 0.357,"1450": 0.126}}}