{"type":"Feature","properties":{"GID_2":"NOR.2.6_1","GID_0":"NOR","country":"Norway","GID_1":"NOR.2_1","province":"Ãstfold","NL_NAME_1":"NA","county":"Halden","VARNAME_2":"NA","NL_NAME_2":"NA","TYPE_2":"Kommuner","ENGTYPE_2":"Municipality","CC_2":"NA","HASC_2":"NO.OF.HA","name":"Halden.county"},
"geometry":{"type": "MultiPolygon","coordinates": [[[[11.5602,59.2495,215.6555],[11.5591,59.2539,230.7121],[11.5416,59.2528,203.6192],[11.5428,59.2483,201.3659],[11.5166,59.2466,177.5094],[11.5177,59.2422,171.6145],[11.509,59.2416,139.3499],[11.5056,59.255,175.0332],[11.4969,59.2544,172.799],[11.4981,59.2499,150.1624],[11.4806,59.2488,158.8591],[11.4784,59.2577,123.3525],[11.4697,59.2571,123.6704],[11.4708,59.2527,129.2903],[11.4621,59.2521,125.8434],[11.4632,59.2476,122.2318],[11.4545,59.247,112.1392],[11.4556,59.2426,119.6918],[11.4382,59.2414,135.9664],[11.4393,59.237,136.7139],[11.4306,59.2364,147.2271],[11.4294,59.2409,143.724],[11.4207,59.2403,165.6411],[11.4196,59.2447,145.2966],[11.4109,59.2441,156.6679],[11.412,59.2397,164.5123],[11.3946,59.2385,153.9523],[11.3957,59.2341,157.9339],[11.387,59.2335,132.5279],[11.3847,59.2424,119.5],[11.376,59.2418,144.2142],[11.3749,59.2463,134.1327],[11.3487,59.2445,146.5025],[11.3476,59.249,154.2782],[11.3302,59.2478,135.1585],[11.3313,59.2433,118.4006],[11.3226,59.2428,105.5475],[11.3249,59.2339,160.6927],[11.3162,59.2333,154.2488],[11.3185,59.2244,159.6863],[11.3097,59.2238,149.3871],[11.312,59.2149,144.1004],[11.3033,59.2143,154.9336],[11.3045,59.2099,144.4791],[11.2871,59.2087,145.6749],[11.2882,59.2042,155.4308],[11.2795,59.2036,140.6295],[11.2818,59.1947,113.7115],[11.2731,59.1941,144.356],[11.2754,59.1852,97.9881],[11.2667,59.1847,144.171],[11.269,59.1758,86.2356],[11.2603,59.1752,94.7438],[11.2614,59.1707,72.8917],[11.2527,59.1701,52.9254],[11.2539,59.1657,59.8637],[11.2365,59.1645,43.7147],[11.2377,59.16,26.0857],[11.229,59.1595,37.5854],[11.2324,59.1461,14.1438],[11.2237,59.1455,35.2035],[11.226,59.1366,8.9318],[11.2173,59.136,22.7559],[11.2179,59.1338,16.5988],[11.2267,59.1344,12.5863],[11.2193,59.1285,24.0849],[11.2196,59.1271,24.0849],[11.2137,59.1241,19.6796],[11.2103,59.1185,0.0],[11.2131,59.1193,4.3856],[11.2142,59.1171,22.0591],[11.2119,59.1149,2.9655],[11.2125,59.1107,6.3203],[11.2053,59.1076,3.7622],[11.2042,59.1004,43.4661],[11.1975,59.1001,7.7541],[11.1953,59.0976,1.8322],[11.1992,59.0955,2.6026],[11.1992,59.0921,0.0],[11.2042,59.0915,0.0],[11.2103,59.0957,0.0],[11.2142,59.1037,0.0],[11.2225,59.1051,3.3195],[11.2186,59.0999,0.0],[11.2214,59.0954,15.9887],[11.2142,59.096,8.3558],[11.2103,59.0918,9.0301],[11.2103,59.0893,5.0986],[11.2169,59.0896,2.663],[11.2192,59.0887,0.0],[11.2192,59.0863,0.0],[11.23,59.0871,0.0],[11.2288,59.0915,1.8198],[11.2549,59.0933,47.7482],[11.2537,59.0978,39.7595],[11.2971,59.1007,22.7539],[11.296,59.1052,0.0],[11.3133,59.1063,21.4544],[11.3122,59.1108,0.0],[11.3469,59.1131,0.0],[11.348,59.1087,0.0],[11.3567,59.1093,0.0],[11.359,59.1004,0.0],[11.3677,59.1009,0.0],[11.3688,59.0965,0.0],[11.3775,59.0971,10.1332],[11.3809,59.0837,0.0],[11.3895,59.0843,19.1105],[11.394,59.0665,0.0],[11.4027,59.0671,0.0],[11.4083,59.0448,0.0],[11.417,59.0454,0.0],[11.4204,59.0321,0.0],[11.429,59.0326,0.0],[11.4313,59.0237,0.0],[11.4399,59.0243,0.0],[11.4433,59.011,0.0],[11.4519,59.0115,0.0],[11.4553,58.9982,0.0],[11.4639,58.9988,0.0],[11.4662,58.9899,0.0],[11.4575,58.9893,12.0849],[11.4709,58.9359,163.7366],[11.4622,58.9353,144.986],[11.4656,58.9219,189.894],[11.4569,58.9214,171.2704],[11.4647,58.8902,147.6916],[11.4906,58.8919,162.1943],[11.4917,58.8875,167.9525],[11.5089,58.8886,107.5],[11.51,58.8842,107.5],[11.5187,58.8847,120.9675],[11.5198,58.8803,91.0886],[11.5284,58.8809,117.0448],[11.5295,58.8764,71.7966],[11.5381,58.877,42.3781],[11.5359,58.8859,43.829],[11.5445,58.8865,110.8108],[11.5434,58.8909,102.0434],[11.5521,58.8915,128.1614],[11.551,58.8959,87.8926],[11.5682,58.8971,157.427],[11.5704,58.8882,124.6183],[11.5791,58.8887,165.0693],[11.5769,58.8976,162.8242],[11.5855,58.8982,178.5811],[11.5866,58.8938,173.5731],[11.6125,58.8955,188.7967],[11.6114,58.8999,195.2283],[11.62,58.9005,194.4187],[11.6189,58.9049,215.9192],[11.6535,58.9072,154.3177],[11.6524,58.9116,139.5968],[11.661,58.9122,143.3962],[11.6578,58.9256,143.1272],[11.6664,58.9261,156.7431],[11.6642,58.935,143.228],[11.6815,58.9362,142.6186],[11.6793,58.9451,141.1198],[11.688,58.9456,148.2064],[11.6858,58.9545,142.5755],[11.6945,58.9551,144.7228],[11.6891,58.9774,146.3926],[11.6977,58.9779,150.0193],[11.696,58.9852,168.6761],[11.6955,58.9868,168.7124],[11.6869,58.9863,152.563],[11.6858,58.9907,164.2501],[11.6945,58.9913,165.952],[11.6934,58.9957,178.2868],[11.702,58.9963,173.4067],[11.6988,59.0097,164.0],[11.7074,59.0102,164.0],[11.7042,59.0236,164.0],[11.7129,59.0242,164.0],[11.7118,59.0286,164.0],[11.7031,59.028,164.0],[11.7009,59.0369,164.0],[11.6923,59.0364,164.0],[11.6912,59.0408,170.6926],[11.6825,59.0403,216.286],[11.6803,59.0492,170.845],[11.6717,59.0486,210.6606],[11.6706,59.0531,197.4099],[11.6619,59.0525,209.1623],[11.6608,59.057,206.9778],[11.6695,59.0575,168.0],[11.6662,59.0709,175.4859],[11.6749,59.0715,195.256],[11.6684,59.0982,183.2328],[11.6597,59.0976,180.757],[11.6586,59.1021,183.0652],[11.6499,59.1015,194.2797],[11.6455,59.1193,182.948],[11.6368,59.1187,177.1872],[11.6357,59.1232,176.4042],[11.6271,59.1226,151.4781],[11.6227,59.1404,166.4303],[11.6313,59.141,137.198],[11.6259,59.1633,187.5531],[11.6172,59.1627,180.3649],[11.615,59.1716,181.568],[11.6063,59.171,165.1621],[11.6052,59.1755,152.5151],[11.5964,59.1749,138.4698],[11.5942,59.1838,133.2517],[11.5855,59.1833,131.3044],[11.5844,59.1877,155.0956],[11.5757,59.1872,192.979],[11.5724,59.2005,177.639],[11.5811,59.2011,196.8612],[11.5778,59.2144,218.5401],[11.5691,59.2139,218.475],[11.5646,59.2317,217.2832],[11.5559,59.2311,221.7693],[11.5548,59.2356,218.8567],[11.5635,59.2361,213.518],[11.5602,59.2495,215.6555]]],
[[[11.2101,59.1182,0.0],[11.2103,59.1182,0.0],[11.2103,59.1185,0.0],[11.2102,59.1184,0.0],[11.2101,59.1182,0.0]]]]}}