{"type":"Feature","properties":{"GID_2":"NOR.9.4_1","GID_0":"NOR","country":"Norway","GID_1":"NOR.9_1","province":"Nord-Trøndelag","NL_NAME_1":"NA","county":"Grong","VARNAME_2":"NA","NL_NAME_2":"NA","TYPE_2":"Kommuner","ENGTYPE_2":"Municipality","CC_2":"NA","HASC_2":"NO.NT.GR","name":"Grong.county"},
"geometry":{"type": "MultiPolygon","coordinates": [[[[13.0937,64.5063,719.8469],[13.0833,64.5059,751.4194],[13.0811,64.5148,897.08],[13.0707,64.5143,873.23],[13.0684,64.5232,687.4803],[13.0581,64.5228,751.6402],[13.0558,64.5317,798.5774],[13.0454,64.5312,783.6531],[13.0432,64.5402,866.4772],[13.0328,64.5397,806.225],[13.0316,64.5442,739.0889],[13.0213,64.5437,669.069],[13.019,64.5526,636.7209],[13.0086,64.5521,607.5912],[13.0063,64.5611,559.5812],[12.9959,64.5606,542.7095],[12.9936,64.5695,504.3611],[12.9832,64.569,519.8346],[12.9809,64.578,499.9301],[12.9705,64.5775,489.0777],[12.9683,64.5864,610.0401],[12.9579,64.5859,514.0255],[12.9556,64.5949,811.2231],[12.9452,64.5944,869.1713],[12.944,64.5989,839.5325],[12.9336,64.5984,877.4651],[12.9313,64.6073,583.5178],[12.9209,64.6068,592.7639],[12.9186,64.6158,612.1407],[12.9082,64.6153,598.8488],[12.9058,64.6242,732.0674],[12.8954,64.6237,659.206],[12.8931,64.6326,576.7571],[12.8827,64.6322,476.3395],[12.8804,64.6411,447.449],[12.8699,64.6406,391.756],[12.8676,64.6495,434.5821],[12.8572,64.649,395.8287],[12.8525,64.6669,238.3883],[12.8316,64.6659,257.8332],[12.8305,64.6704,239.2],[12.8096,64.6694,261.5783],[12.8084,64.6739,226.7121],[12.7876,64.6729,254.3839],[12.7864,64.6773,231.0776],[12.7968,64.6778,218.2973],[12.7933,64.6912,144.1304],[12.762,64.6897,137.7316],[12.7608,64.6942,128.1288],[12.7295,64.6927,110.0],[12.7307,64.6883,137.2982],[12.7098,64.6873,116.9577],[12.711,64.6828,120.0385],[12.6901,64.6818,123.1415],[12.6913,64.6773,139.5834],[12.6809,64.6768,136.5351],[12.6785,64.6857,195.2962],[12.6681,64.6852,262.9996],[12.6669,64.6897,428.9657],[12.6564,64.6892,499.0473],[12.654,64.6981,397.8759],[12.6436,64.6976,401.8567],[12.6424,64.7021,382.8586],[12.6319,64.7016,365.8546],[12.6295,64.7105,212.0764],[12.6191,64.71,313.2388],[12.6166,64.7189,412.9198],[12.6271,64.7194,409.5466],[12.6259,64.7239,456.156],[12.6363,64.7244,422.538],[12.6351,64.7289,411.8842],[12.5515,64.7248,673.2903],[12.5503,64.7293,704.4796],[12.5294,64.7282,802.1091],[12.5319,64.7193,546.6624],[12.5423,64.7198,560.9318],[12.5435,64.7154,576.1413],[12.554,64.7159,599.5657],[12.5552,64.7114,487.6308],[12.5657,64.7119,474.077],[12.5669,64.7075,451.4396],[12.5564,64.707,404.3343],[12.5577,64.7025,407.5063],[12.5472,64.702,398.2438],[12.5484,64.6975,379.2461],[12.538,64.697,420.8399],[12.5392,64.6926,347.242],[12.5288,64.692,357.8771],[12.53,64.6876,329.2605],[12.5196,64.6871,332.6267],[12.5208,64.6826,323.6444],[12.5104,64.6821,400.137],[12.5116,64.6776,354.1655],[12.4908,64.6766,507.5791],[12.4932,64.6677,496.6236],[12.4828,64.6672,454.445],[12.4865,64.6538,374.3415],[12.4761,64.6532,420.5296],[12.4773,64.6488,413.4468],[12.4669,64.6483,511.898],[12.4681,64.6438,524.3947],[12.4473,64.6428,688.4547],[12.4485,64.6383,705.0029],[12.4798,64.6399,451.653],[12.481,64.6354,424.8139],[12.4914,64.6359,390.6742],[12.4939,64.627,471.0346],[12.4731,64.626,433.9377],[12.4743,64.6215,511.7545],[12.4639,64.621,547.8202],[12.4651,64.6165,561.761],[12.4547,64.616,596.3241],[12.4559,64.6115,522.6779],[12.4351,64.6105,450.3776],[12.4364,64.606,403.6634],[12.426,64.6055,352.4729],[12.4272,64.6011,472.5864],[12.4168,64.6005,325.8589],[12.4193,64.5916,371.6872],[12.4089,64.5911,431.0525],[12.4101,64.5866,385.9744],[12.3894,64.5856,263.4205],[12.3906,64.5811,254.4971],[12.3594,64.5796,149.7178],[12.3607,64.5751,109.3148],[12.3503,64.5746,206.0957],[12.3516,64.5701,141.1465],[12.3412,64.5696,200.9915],[12.3424,64.5651,263.9993],[12.332,64.5646,266.2058],[12.3333,64.5601,333.2951],[12.3021,64.5586,243.6926],[12.3034,64.5541,237.7658],[12.2723,64.5525,235.2597],[12.2735,64.548,257.4291],[12.2632,64.5475,348.1186],[12.2657,64.5386,364.7706],[12.2553,64.5381,403.3835],[12.2566,64.5336,369.1513],[12.2358,64.5325,469.552],[12.2371,64.5281,493.0463],[12.2267,64.5275,537.4111],[12.228,64.5231,480.4141],[12.2176,64.5226,422.8052],[12.2202,64.5136,327.587],[12.2098,64.5131,336.5658],[12.2111,64.5086,304.7674],[12.2007,64.5081,308.8091],[12.1995,64.5126,332.0668],[12.158,64.5104,185.2155],[12.1593,64.506,337.9295],[12.1489,64.5054,260.7722],[12.1502,64.501,290.1707],[12.1399,64.5004,175.3177],[12.1411,64.496,127.1774],[12.1204,64.4949,290.2354],[12.1217,64.4904,374.7743],[12.0907,64.4888,442.3898],[12.092,64.4843,373.1334],[12.0816,64.4838,374.7493],[12.0829,64.4793,233.3734],[12.0726,64.4788,210.9802],[12.0764,64.4654,24.0382],[12.0868,64.466,5.5],[12.088,64.4615,24.645],[12.1142,64.4629,51.4264],[12.1178,64.4676,6.5],[12.1281,64.4681,29.5753],[12.1294,64.4637,104.92],[12.1247,64.4634,88.6331],[12.1204,64.4584,98.3489],[12.1254,64.4408,136.6949],[12.1151,64.4403,130.7507],[12.119,64.4269,273.0018],[12.1086,64.4264,307.9004],[12.1099,64.4219,401.6347],[12.0996,64.4214,388.0102],[12.1009,64.4169,451.6862],[12.1112,64.4175,526.9608],[12.115,64.4041,462.9026],[12.1253,64.4046,527.8128],[12.1266,64.4002,564.4647],[12.1369,64.4007,568.621],[12.1382,64.3962,620.4988],[12.1485,64.3968,647.8494],[12.1587,64.3611,581.4393],[12.1484,64.3606,499.5786],[12.1509,64.3516,531.4138],[12.1406,64.3511,515.33],[12.1431,64.3422,375.3208],[12.1328,64.3417,407.3394],[12.1354,64.3327,313.0],[12.1663,64.3343,439.368],[12.165,64.3388,356.4869],[12.2268,64.342,375.9208],[12.2679,64.3441,321.6919],[12.2692,64.3397,333.0471],[12.3001,64.3413,444.5112],[12.2988,64.3457,337.0539],[12.3091,64.3463,351.1902],[12.3079,64.3507,257.7457],[12.3182,64.3512,234.7164],[12.317,64.3557,209.0695],[12.3479,64.3573,289.8835],[12.3466,64.3617,253.7486],[12.3775,64.3633,494.7373],[12.3763,64.3678,411.3824],[12.3866,64.3683,426.2394],[12.3854,64.3728,346.5185],[12.3957,64.3733,384.0822],[12.3945,64.3777,298.5041],[12.4048,64.3783,247.3519],[12.4036,64.3827,145.971],[12.4139,64.3832,131.8651],[12.4126,64.3877,175.2449],[12.4333,64.3887,186.3497],[12.4345,64.3843,185.0898],[12.4448,64.3848,155.5541],[12.446,64.3803,267.9834],[12.4564,64.3809,323.2271],[12.4576,64.3764,338.4365],[12.4782,64.3774,316.2711],[12.477,64.3819,266.5694],[12.5182,64.3839,210.1045],[12.5286,64.3845,226.1638],[12.5298,64.38,222.0273],[12.5607,64.3815,204.0223],[12.5595,64.386,207.0252],[12.5698,64.3865,212.8352],[12.5686,64.391,213.0186],[12.5789,64.3915,231.1538],[12.5777,64.3959,243.131],[12.5984,64.3969,322.6584],[12.5972,64.4014,345.7122],[12.6282,64.4029,328.5574],[12.627,64.4074,277.9124],[12.6476,64.4084,360.5689],[12.6464,64.4129,338.3424],[12.6774,64.4144,361.6694],[12.6762,64.4188,354.0755],[12.7176,64.4209,449.0601],[12.7188,64.4164,408.085],[13.0702,64.433,1059.0554],[13.0669,64.4464,793.9921],[13.0772,64.4468,856.4213],[13.0727,64.4647,728.2521],[13.0831,64.4652,731.9644],[13.0786,64.483,609.1969],[13.0889,64.4835,681.408],[13.0844,64.5014,684.8478],[13.0948,64.5019,661.9627],[13.0937,64.5063,719.8469]]]]}}