{"type":"Feature","properties":{"GID_2":"NOR.8.11_1","GID_0":"NOR","country":"Norway","GID_1":"NOR.8_1","province":"MøreogRomsdal","NL_NAME_1":"NA","county":"Haram","VARNAME_2":"NA","NL_NAME_2":"NA","TYPE_2":"Kommuner","ENGTYPE_2":"Municipality","CC_2":"NA","HASC_2":"NO.MR.HM","name":"Haram.county"},
"geometry":{"type": "MultiPolygon","coordinates": [[[[6.5313,62.525,166.6732],[6.5246,62.525,155.5642],[6.5258,62.5223,132.442],[6.538,62.5235,134.2985],[6.5354,62.525,145.7711],[6.5313,62.525,166.6732]]],
[[[6.5539,62.525,123.173],[6.55,62.525,118.2624],[6.5484,62.5245,149.3213],[6.5539,62.525,123.173]]],
[[[6.2464,62.5536,12.7803],[6.2417,62.5521,0.0],[6.2417,62.55,0.0],[6.2521,62.55,0.0],[6.2563,62.5479,0.0],[6.2625,62.55,0.0],[6.2724,62.5474,9.9101],[6.2792,62.5438,0.0],[6.2849,62.5432,0.0],[6.2849,62.5401,15.1733],[6.2786,62.5359,74.4621],[6.2667,62.5354,0.0],[6.2609,62.5328,14.0257],[6.2667,62.5292,0.0],[6.3208,62.5292,0.0],[6.325,62.5313,9.561],[6.3479,62.5313,0.0],[6.3521,62.5333,8.6075],[6.3563,62.5313,0.0],[6.3625,62.5333,0.0],[6.4021,62.5333,1.658],[6.4063,62.5313,0.0],[6.4104,62.5333,7.5511],[6.4167,62.5333,1.9972],[6.4208,62.5313,0.0],[6.4521,62.5313,0.0],[6.4667,62.5354,15.7181],[6.4938,62.5354,0.0],[6.4979,62.5375,0.0],[6.5083,62.5375,0.0],[6.5125,62.5396,8.5817],[6.5271,62.5396,0.0],[6.5313,62.5417,0.0],[6.55,62.5417,0.0],[6.5542,62.5438,34.4559],[6.5583,62.5417,0.0],[6.5682,62.5411,0.0],[6.5813,62.5313,0.0],[6.5792,62.5292,15.168],[6.5687,62.5292,0.0],[6.5544,62.5251,123.173],[6.6213,62.5314,43.0],[6.6233,62.527,87.9729],[6.6423,62.5289,59.65],[6.6384,62.5376,125.113],[6.6479,62.5385,77.4317],[6.6459,62.5429,237.3521],[6.7701,62.5547,446.6474],[6.7681,62.5591,570.4938],[6.7777,62.56,538.6262],[6.7797,62.5556,408.7338],[6.8084,62.5583,664.8328],[6.8044,62.5671,502.5558],[6.7949,62.5662,474.9962],[6.7909,62.5749,300.1361],[6.7813,62.5741,304.3478],[6.7794,62.5784,399.5991],[6.7698,62.5775,475.4186],[6.7659,62.5863,580.8076],[6.7563,62.5854,520.1978],[6.7543,62.5898,690.6294],[6.7447,62.5889,820.1139],[6.7428,62.5933,801.7714],[6.7332,62.5924,1021.631],[6.7312,62.5968,985.9152],[6.7408,62.5977,817.7974],[6.7289,62.6241,733.2841],[6.7193,62.6232,623.0601],[6.7173,62.6276,646.6489],[6.679,62.6239,253.0242],[6.6747,62.6333,41.0216],[6.6646,62.6333,23.5219],[6.6609,62.6286,0.0],[6.6599,62.6234,0.0],[6.6583,62.6229,0.0],[6.6557,62.6266,0.0],[6.6516,62.6286,20.4395],[6.6354,62.6312,5.2612],[6.6297,62.6286,7.9984],[6.6286,62.6234,18.5583],[6.6234,62.6224,0.0],[6.6234,62.6172,0.0],[6.6271,62.6146,44.6716],[6.6266,62.613,36.7849],[6.6214,62.612,30.637],[6.6214,62.6068,0.0],[6.6286,62.6057,6.2104],[6.6276,62.6005,0.0],[6.6307,62.5995,0.0],[6.6318,62.5922,0.0],[6.6349,62.5901,23.9828],[6.6255,62.5891,0.0],[6.6245,62.5859,0.0],[6.6193,62.5849,0.0],[6.6193,62.5797,0.0],[6.6224,62.5786,0.0],[6.6234,62.5755,0.0],[6.6266,62.5734,70.2022],[6.6188,62.5687,47.9452],[6.6109,62.5682,0.0],[6.6109,62.563,0.0],[6.6146,62.5604,0.0],[6.6125,62.5583,0.0],[6.6026,62.563,0.0],[6.6021,62.5687,5.5955],[6.6047,62.5745,0.0],[6.6078,62.5755,0.0],[6.6109,62.5828,0.0],[6.6141,62.5849,0.0],[6.6042,62.5896,28.9684],[6.5958,62.5896,22.5051],[6.5734,62.5964,0.0],[6.5724,62.5995,0.0],[6.5687,62.6021,43.4728],[6.5703,62.6078,0.0],[6.563,62.6109,323.5553],[6.5625,62.6125,298.7448],[6.5682,62.6172,13.435],[6.5682,62.6203,25.0829],[6.5625,62.6229,14.7508],[6.5583,62.6229,6.733],[6.5542,62.6208,22.151],[6.5396,62.6208,3.4408],[6.525,62.6146,35.1942],[6.5172,62.6141,32.4211],[6.5203,62.6109,127.8083],[6.5172,62.6099,183.6997],[6.5146,62.6063,618.8115],[6.4792,62.6167,0.0],[6.475,62.6146,15.6599],[6.4646,62.6146,9.1493],[6.4589,62.612,15.2332],[6.4589,62.6089,0.0],[6.4646,62.6083,8.4919],[6.4703,62.6057,0.0],[6.4682,62.6026,3.9692],[6.4651,62.6016,4.6401],[6.4625,62.5938,0.0],[6.463,62.5901,0.0],[6.4661,62.5891,2.207],[6.4688,62.5792,24.0285],[6.4641,62.5755,0.0],[6.4589,62.5745,0.0],[6.4589,62.5672,11.473],[6.462,62.5661,24.1663],[6.4604,62.5646,38.5314],[6.4526,62.5672,0.0],[6.4563,62.5792,0.0],[6.4557,62.5849,0.0],[6.4521,62.5875,12.5075],[6.4542,62.5917,9.5326],[6.4536,62.5932,20.1281],[6.4464,62.5964,9.0131],[6.4474,62.6078,2.3527],[6.4391,62.612,25.8837],[6.4292,62.6125,4.2515],[6.4188,62.6083,26.266],[6.3958,62.6063,0.0],[6.3917,62.6042,26.6007],[6.3875,62.6063,0.0],[6.3646,62.6063,3.9209],[6.3604,62.6083,2.9205],[6.35,62.6083,4.0259],[6.3453,62.612,0.0],[6.3375,62.6125,2.7967],[6.3292,62.6083,12.097],[6.3229,62.6083,0.0],[6.3109,62.6036,0.0],[6.3099,62.6005,0.0],[6.2979,62.6,0.0],[6.2953,62.5964,0.1494],[6.2854,62.5958,0.0],[6.2724,62.588,0.0],[6.263,62.587,0.2165],[6.262,62.5839,4.7828],[6.2568,62.5828,3.1765],[6.2568,62.5797,1.5899],[6.2599,62.5786,0.0],[6.2609,62.5755,0.0],[6.2682,62.5724,0.0],[6.2672,62.5672,0.0],[6.2703,62.5661,0.0],[6.2714,62.563,0.0],[6.2745,62.5609,0.0],[6.2646,62.5604,0.0],[6.2583,62.5625,4.7351],[6.2484,62.5578,0.0],[6.2464,62.5536,12.7803]]],
[[[6.5917,62.6125,30.1146],[6.5901,62.612,36.2632],[6.5901,62.6109,20.6208],[6.5932,62.6109,16.1597],[6.5917,62.6125,30.1146]]],
[[[6.1917,62.5271,17.0016],[6.1922,62.5234,10.2263],[6.1938,62.5229,0.0],[6.2021,62.5271,19.4235],[6.2125,62.5271,3.884],[6.2141,62.5286,0.0],[6.2109,62.5297,0.0],[6.2099,62.5328,12.65],[6.2042,62.5333,0.0],[6.1922,62.5286,8.7367],[6.1917,62.5271,17.0016]]],
[[[6.2339,62.5526,42.8376],[6.2417,62.5521,0.0],[6.2443,62.5641,0.0],[6.2495,62.5651,0.0],[6.2505,62.5682,0.0],[6.2599,62.5724,0.0],[6.2521,62.5729,10.9076],[6.2479,62.5708,0.0],[6.2438,62.5708,10.5105],[6.2359,62.5661,13.2705],[6.2333,62.5583,17.9083],[6.237,62.5547,27.1263],[6.2339,62.5526,42.8376]]],
[[[6.1953,62.6328,0.0],[6.1854,62.6354,50.6791],[6.1708,62.6354,45.451],[6.1667,62.6333,27.7845],[6.1563,62.6333,170.0697],[6.1521,62.6354,97.7314],[6.1479,62.6354,227.4125],[6.1438,62.6333,175.5856],[6.1396,62.6354,33.4472],[6.1318,62.6328,65.5538],[6.1313,62.6292,20.2067],[6.1318,62.6276,0.0],[6.1432,62.6224,4.9402],[6.1443,62.6193,3.4882],[6.1495,62.6161,50.813],[6.1505,62.613,2.1335],[6.1625,62.6125,5.4262],[6.1714,62.6068,0.0],[6.1792,62.6063,14.139099999999999],[6.1833,62.6042,0.0],[6.1958,62.6042,3.962],[6.2167,62.5958,14.733],[6.2245,62.5964,0.0],[6.2245,62.5995,0.0],[6.2208,62.6021,0.0],[6.2224,62.6099,0.0],[6.2193,62.6109,2.9884],[6.2224,62.6141,0.0],[6.2151,62.6193,12.4499],[6.2161,62.6224,0.0],[6.2104,62.625,0.0],[6.2026,62.6255,7.1628],[6.1943,62.6297,49.5086],[6.1953,62.6328,0.0]]],
[[[6.1875,62.6813,0.9076],[6.1813,62.6813,0.0],[6.175,62.6833,3.6291],[6.1693,62.6807,0.0],[6.1724,62.6786,180.5437],[6.1693,62.6755,0.0],[6.1724,62.6734,184.0407],[6.1703,62.6693,253.0841],[6.1672,62.6682,49.2283],[6.1651,62.663,0.0],[6.1745,62.662,7.2374],[6.1734,62.6589,0.0],[6.1766,62.6578,0.0],[6.1792,62.6542,0.0],[6.1938,62.6542,2.1319],[6.1979,62.6521,0.0],[6.2063,62.6521,4.4926],[6.2146,62.6479,0.0],[6.2203,62.6474,1.0605],[6.2411,62.637,3.1859],[6.2422,62.6339,0.0],[6.2479,62.6312,0.0],[6.2521,62.6312,1.2779],[6.2563,62.6292,0.0],[6.2766,62.6297,0.0],[6.2766,62.6349,0.0],[6.2729,62.6375,14.7937],[6.2745,62.6411,0.0],[6.2589,62.6484,0.0],[6.2578,62.6516,0.0],[6.2505,62.6526,0.0],[6.2453,62.6599,0.0],[6.2396,62.6625,14.402],[6.2313,62.6625,2.8311],[6.2214,62.6651,12.5615],[6.213,62.6693,15.9378],[6.212,62.6724,0.0],[6.2047,62.6755,3.6673],[6.2036,62.6786,0.0],[6.1938,62.6792,5.4892],[6.1875,62.6813,0.9076]]],
[[[6.6005,62.6224,35.7749],[6.6021,62.6208,29.3223],[6.6057,62.6214,24.1644],[6.6042,62.6229,36.8183],[6.6005,62.6224,35.7749]]],
[[[6.6063,62.625,0.0],[6.6099,62.6255,0.0],[6.6099,62.6286,38.4402],[6.588,62.6286,9.3591],[6.5896,62.6271,1.6785],[6.6,62.6271,33.4504],[6.6063,62.625,0.0]]],
[[[6.2583,62.6875,17.8183],[6.2526,62.688,42.936],[6.2458,62.6917,3.4396],[6.2313,62.6917,10.0492],[6.2292,62.6896,0.0],[6.2297,62.6839,0.0],[6.2453,62.6807,1.2584],[6.2578,62.6745,0.0],[6.2589,62.6714,0.0],[6.2839,62.6589,0.0],[6.2938,62.6583,8.9964],[6.3005,62.6547,0.0],[6.3104,62.6521,0.0],[6.325,62.6521,2.9073],[6.3292,62.65,-0.1155],[6.3375,62.65,0.0],[6.3391,62.6505,0.0],[6.3401,62.6557,1.3385],[6.3453,62.6568,0.0],[6.3464,62.6599,0.5767],[6.3495,62.6609,0.0],[6.3521,62.6646,0.0],[6.3516,62.6661,0.0],[6.3375,62.6729,3.4265],[6.3104,62.6771,377.0336],[6.2979,62.6813,190.5422],[6.2896,62.6813,274.2591],[6.287,62.6849,94.5675],[6.2813,62.6875,11.7364],[6.2667,62.6875,0.0],[6.2625,62.6854,92.288],[6.2583,62.6875,17.8183]]],
[[[6.1958,62.6875,4.053],[6.2,62.6854,0.0],[6.2057,62.6891,0.0],[6.2,62.6917,3.4561],[6.1958,62.6917,6.1001],[6.1938,62.6896,1.3745],[6.1958,62.6875,4.053]]],
[[[6.4245,62.7078,0.0],[6.4172,62.7089,0.0],[6.4104,62.7125,9.6874],[6.3958,62.7125,3.9635],[6.3917,62.7104,3.5012],[6.3813,62.7104,5.1379],[6.3771,62.7083,0.0],[6.3625,62.7083,0.0],[6.3583,62.7062,4.243],[6.3438,62.7062,2.9602],[6.3396,62.7083,0.2203],[6.3313,62.7083,0.0],[6.3255,62.7057,3.7177],[6.3234,62.7026,0.0],[6.3333,62.7,0.0],[6.3438,62.7,2.5287],[6.3479,62.6979,0.0],[6.3604,62.6979,0.0],[6.3714,62.6922,0.0],[6.3771,62.6917,-0.1531],[6.3854,62.6875,0.0],[6.4083,62.6875,0.0],[6.4125,62.6896,1.1916],[6.4245,62.6901,0.0],[6.4276,62.6953,1.7734],[6.4307,62.6964,0.0],[6.4307,62.7016,1.254],[6.4266,62.7036,0.0],[6.4245,62.7078,0.0]]]]}}