{"type":"Feature","properties":{"GID_2":"NOR.4.9_1","GID_0":"NOR","country":"Norway","GID_1":"NOR.4_1","province":"Buskerud","NL_NAME_1":"NA","county":"Hurum","VARNAME_2":"NA","NL_NAME_2":"NA","TYPE_2":"Kommuner","ENGTYPE_2":"Municipality","CC_2":"NA","HASC_2":"NO.BU.HU","name":"Hurum.county"},
"geometry":{"type": "MultiPolygon","coordinates": [[[[10.5608,59.5165,4.2803],[10.5564,59.5168,0.0],[10.5542,59.5124,0.0],[10.5614,59.5135,0.0],[10.5625,59.5154,0.0],[10.5608,59.5165,4.2803]]],
[[[10.5375,59.5201,0.7791],[10.5325,59.5193,0.0],[10.5314,59.5157,0.0],[10.5353,59.5165,0.0],[10.5358,59.5185,3.8568],[10.5381,59.5187,1.4183],[10.5375,59.5201,0.7791]]],
[[[10.5014,59.4896,2.8089],[10.4986,59.4896,0.7011],[10.4953,59.4854,3.7489],[10.4953,59.4813,0.0],[10.4992,59.4818,0.0],[10.5019,59.4849,0.0],[10.5031,59.4885,0.0],[10.5014,59.4896,2.8089]]],
[[[10.5264,59.6849,1.2518],[10.4975,59.6832,189.9333],[10.4988,59.6788,183.6107],[10.49,59.6782,157.4851],[10.4913,59.6737,131.5239],[10.4737,59.6724,250.986],[10.4749,59.668,212.7274],[10.4661,59.6673,199.2035],[10.4648,59.6718,225.045],[10.4472,59.6705,229.8863],[10.4459,59.6749,156.2511],[10.4386,59.6744,80.6089],[10.4376,59.6827,229.8829],[10.4331,59.6832,120.7001],[10.4292,59.6813,0.0],[10.4281,59.6738,4.1624],[10.4336,59.6699,0.0],[10.4369,59.6699,5.8128],[10.4386,59.6668,0.0],[10.4342,59.6535,11.1668],[10.4297,59.6549,2.9403],[10.4286,59.6529,0.0],[10.4319,59.6451,33.4189],[10.4286,59.6429,0.0],[10.4303,59.6413,12.7992],[10.4292,59.641,0.0],[10.4297,59.636,7.1879],[10.4308,59.6332,0.0],[10.4381,59.6285,1.3966],[10.4408,59.6226,0.7669],[10.4331,59.6199,1.8313],[10.4147,59.6176,0.0],[10.4131,59.6168,2.3728],[10.4131,59.614,4.7013],[10.4142,59.6129,2.0222],[10.4314,59.6124,9.8166],[10.4408,59.6079,3.5593],[10.4408,59.6049,13.7956],[10.4347,59.5974,14.6887],[10.4375,59.5946,29.3022],[10.4375,59.5907,45.6571],[10.4342,59.5879,14.4489],[10.4358,59.5871,14.4489],[10.4364,59.5832,27.7274],[10.4347,59.5832,5.9643],[10.4342,59.5793,11.3118],[10.4297,59.5732,9.7981],[10.4303,59.5679,12.1348],[10.4253,59.5618,2.2048],[10.4269,59.5599,6.5518],[10.4236,59.5604,6.5518],[10.4203,59.5565,5.3871],[10.4192,59.5479,0.0],[10.4147,59.5449,0.0],[10.4125,59.5415,1.7245],[10.4131,59.5399,8.427],[10.4108,59.5385,0.0],[10.4147,59.5293,0.0],[10.4186,59.526,0.0],[10.4214,59.5246,0.0],[10.4253,59.5254,0.0],[10.4347,59.5204,0.0],[10.4469,59.5215,0.0],[10.4464,59.5238,10.53],[10.4481,59.5238,10.53],[10.4547,59.5187,0.0],[10.4603,59.519,12.7913],[10.4631,59.5165,0.0],[10.4747,59.5204,0.9375],[10.4747,59.5232,24.4863],[10.4797,59.521,0.0],[10.4819,59.5224,0.0],[10.4825,59.5249,0.0],[10.4858,59.5249,6.8804],[10.4864,59.5226,0.8435],[10.4947,59.5201,0.0],[10.4992,59.526,26.2068],[10.5031,59.5265,6.8189],[10.5092,59.5254,0.0],[10.5103,59.5201,0.0],[10.5131,59.5201,0.0],[10.5153,59.5282,0.0],[10.5286,59.5318,0.0],[10.5369,59.5318,0.0],[10.5381,59.5349,1.7863],[10.5519,59.5379,0.0],[10.5508,59.5399,5.9612],[10.5581,59.539,1.4995],[10.5642,59.5418,0.0],[10.5653,59.5438,5.5247],[10.5753,59.5443,0.0],[10.5775,59.546,3.9759],[10.5764,59.5474,23.6819],[10.5808,59.5507,12.5717],[10.5892,59.551,5.3638],[10.5936,59.554,0.0],[10.5925,59.5565,1.6839],[10.6064,59.5638,20.8132],[10.6092,59.5638,0.0],[10.6125,59.569,12.2033],[10.6186,59.5701,0.0],[10.6192,59.5804,0.0],[10.6186,59.5838,0.0],[10.6169,59.5846,23.1877],[10.6181,59.5954,0.0],[10.6164,59.5968,11.2033],[10.6164,59.6032,6.533],[10.6142,59.6049,24.1963],[10.6131,59.6115,3.1344],[10.6069,59.6243,0.0],[10.6042,59.6415,24.4086],[10.6069,59.6424,0.0],[10.6031,59.6515,5.969],[10.6036,59.6624,0.0],[10.6003,59.6646,5.3036],[10.5992,59.6674,0.0],[10.5881,59.6679,9.9262],[10.5808,59.6701,15.5461],[10.5781,59.6688,1.4368],[10.5869,59.6665,18.1725],[10.5875,59.6649,11.1382],[10.5808,59.6662,0.0],[10.5847,59.6632,17.9092],[10.5758,59.6643,5.9299],[10.5708,59.6679,2.6737],[10.5764,59.6682,0.0],[10.5764,59.6696,2.0512],[10.5525,59.6779,2.5468],[10.5486,59.6824,0.0],[10.5364,59.6851,0.0],[10.5375,59.6829,5.5104],[10.5347,59.6815,1.9088],[10.5375,59.6785,4.5566],[10.5342,59.6779,11.5635],[10.5331,59.6807,0.0],[10.5264,59.6849,1.2518]]],
[[[10.4041,59.6328,25.4755],[10.4042,59.6332,25.4755],[10.404,59.6332,25.4755],[10.4041,59.633,25.4755],[10.4041,59.6328,25.4755]]]]}}