{"type": "Feature","bbox": [7.9744,58.6194,8.7623,58.9867],"geometry": {"type": "MultiPolygon","coordinates": [[[[7.9892,58.7046,475.1143],[8.0489,58.7103,622.9985],[8.0504,58.7059,595.5289],[8.076,58.7083,562.0485],[8.0775,58.7039,565.0129],[8.1031,58.7063,578.1198],[8.1046,58.7019,558.2625],[8.1301,58.7043,457.1078],[8.1317,58.6998,448.402],[8.1572,58.7022,198.5444],[8.1588,58.6978,197.5268],[8.1673,58.6986,227.6345],[8.1658,58.703,242.5967],[8.1743,58.7038,254.9492],[8.1728,58.7083,243.5167],[8.1813,58.709,329.4231],[8.1798,58.7135,295.2347],[8.1968,58.7151,468.3302],[8.1953,58.7195,495.9707],[8.2038,58.7203,436.8665],[8.2053,58.7158,419.273],[8.2139,58.7166,360.6906],[8.2169,58.7078,386.702],[8.2254,58.7086,411.5124],[8.2269,58.7042,437.1495],[8.2355,58.705,385.6318],[8.237,58.7006,411.6282],[8.2881,58.7053,219.3497],[8.2896,58.7009,203.2846],[8.3067,58.7025,180.517],[8.3082,58.6981,220.2012],[8.3167,58.6988,219.3556],[8.3227,58.6812,325.8542],[8.3398,58.6828,217.1479],[8.3383,58.6872,213.7415],[8.3638,58.6895,192.1311],[8.3698,58.6719,175.501],[8.3783,58.6726,193.5211],[8.3843,58.655,211.6538],[8.3758,58.6542,307.6331],[8.3803,58.6409,285.473],[8.3718,58.6401,274.9119],[8.3733,58.6357,257.7592],[8.3903,58.6373,197.0927],[8.3918,58.6329,215.1317],[8.4003,58.6337,205.6735],[8.4018,58.6292,166.8933],[8.4188,58.6308,273.6534],[8.4203,58.6264,272.5261],[8.4288,58.6272,286.5385],[8.4303,58.6227,290.2568],[8.4388,58.6235,268.9174],[8.4373,58.6279,256.2721],[8.4543,58.6295,334.3652],[8.4528,58.6339,344.9664],[8.4698,58.6355,302.8709],[8.4669,58.6443,275.9219],[8.4754,58.6451,291.2859],[8.4739,58.6495,338.6622],[8.4824,58.6503,326.9809],[8.4839,58.6459,282.5834],[8.4924,58.6466,283.445],[8.4939,58.6422,250.5423],[8.5109,58.6438,289.7316],[8.5065,58.657,298.6872],[8.498,58.6563,379.8057],[8.4965,58.6607,357.6766],[8.488,58.6599,371.4851],[8.4865,58.6643,374.4403],[8.478,58.6635,391.7518],[8.4735,58.6768,423.3281],[8.4906,58.6784,365.6141],[8.4921,58.6739,379.5705],[8.5176,58.6763,295.8798],[8.5191,58.6718,343.4208],[8.5361,58.6734,281.6288],[8.5376,58.669,270.1875],[8.5632,58.6713,211.6314],[8.5646,58.6669,299.9511],[8.5817,58.6684,136.5],[8.5846,58.6596,136.5],[8.6187,58.6626,136.5],[8.6202,58.6582,138.7081],[8.6287,58.659,183.1675],[8.6302,58.6546,136.0],[8.6387,58.6553,166.0609],[8.6401,58.6509,146.6769],[8.6487,58.6517,138.5641],[8.6501,58.6472,164.2238],[8.6586,58.648,139.8058],[8.6601,58.6436,144.5001],[8.6686,58.6444,139.9],[8.6715,58.6355,136.0],[8.68,58.6363,138.6938],[8.6829,58.6274,152.0232],[8.6915,58.6282,132.1105],[8.6944,58.6194,122.2585],[8.7114,58.6209,136.5436],[8.7099,58.6253,141.2674],[8.727,58.6268,120.4347],[8.7255,58.6312,152.1783],[8.7511,58.6335,171.4407],[8.7496,58.6379,164.9008],[8.7581,58.6387,149.1878],[8.7538,58.652,197.6745],[8.7623,58.6527,176.0693],[8.758,58.666,238.0847],[8.7495,58.6652,213.8898],[8.748,58.6697,206.8207],[8.7395,58.6689,205.4409],[8.7366,58.6777,228.4875],[8.7281,58.677,243.7797],[8.7222,58.6947,220.3341],[8.7308,58.6954,237.6425],[8.7293,58.6998,252.1232],[8.7208,58.6991,314.5536],[8.7193,58.7035,351.1346],[8.6767,58.6997,413.5261],[8.6752,58.7041,424.2239],[8.6496,58.7018,428.758],[8.6438,58.7195,188.4091],[8.6352,58.7187,173.7037],[8.625,58.7497,350.4626],[8.6335,58.7505,292.744],[8.632,58.7549,301.9808],[8.6406,58.7556,232.4395],[8.6377,58.7645,290.6452],[8.6462,58.7652,285.2617],[8.6447,58.7697,253.8154],[8.6533,58.7704,271.3535],[8.6518,58.7749,286.6465],[8.6604,58.7756,273.6039],[8.6589,58.78,299.5505],[8.6674,58.7808,304.6172],[8.663,58.7941,239.7966],[8.6716,58.7948,224.1934],[8.6701,58.7993,291.0208],[8.6787,58.8,331.3494],[8.6758,58.8089,276.1816],[8.6843,58.8096,305.8378],[8.6829,58.814,293.1714],[8.6914,58.8148,316.6787],[8.6899,58.8192,369.8536],[8.7071,58.8207,366.4132],[8.7056,58.8252,353.4592],[8.7142,58.8259,316.3768],[8.7127,58.8304,308.8066],[8.7298,58.8319,336.4302],[8.724,58.8496,304.0414],[8.7154,58.8488,337.1838],[8.7125,58.8576,342.3112],[8.6954,58.8561,331.0216],[8.6939,58.8605,330.6075],[8.6768,58.859,404.6655],[8.6753,58.8634,407.3289],[8.6667,58.8627,239.8213],[8.6653,58.8671,234.0313],[8.6567,58.8663,273.1493],[8.6537,58.8752,220.0273],[8.6452,58.8744,230.8405],[8.6393,58.8921,228.6891],[8.6307,58.8913,232.2643],[8.6248,58.909,220.1663],[8.6162,58.9082,241.2018],[8.6147,58.9127,336.8141],[8.6061,58.9119,356.2894],[8.6047,58.9163,387.3741],[8.5961,58.9155,398.3053],[8.5931,58.9244,492.5094],[8.5845,58.9236,484.8584],[8.5831,58.928,475.5782],[8.5745,58.9273,466.9142],[8.573,58.9317,477.9827],[8.5558,58.9301,447.2095],[8.5573,58.9257,477.3237],[8.523,58.9226,159.8695],[8.5245,58.9182,195.3781],[8.5073,58.9167,368.0597],[8.5088,58.9122,410.6625],[8.5002,58.9115,431.4536],[8.5017,58.907,362.2788],[8.4931,58.9063,378.6496],[8.4946,58.9019,378.0724],[8.486,58.9011,344.645],[8.4875,58.8967,347.3005],[8.479,58.8959,376.7698],[8.4805,58.8915,382.6747],[8.4633,58.8899,410.3648],[8.4618,58.8943,377.5805],[8.4447,58.8928,426.7151],[8.4432,58.8972,509.1318],[8.4346,58.8964,474.0276],[8.4331,58.9008,515.9221],[8.4245,58.9,435.6624],[8.423,58.9045,515.5577],[8.4144,58.9037,436.1921],[8.4129,58.9081,525.3973],[8.4044,58.9073,436.6645],[8.4029,58.9117,515.1262],[8.3857,58.9102,411.0546],[8.3842,58.9146,471.4206],[8.3585,58.9122,467.9646],[8.3569,58.9167,503.4819],[8.3312,58.9143,511.0676],[8.3297,58.9187,500.4134],[8.3211,58.9179,515.7932],[8.3196,58.9223,516.22],[8.311,58.9216,630.8389],[8.3095,58.926,582.4462],[8.3009,58.9252,619.2101],[8.2979,58.934,552.3032],[8.2893,58.9332,567.5161],[8.2878,58.9376,650.5878],[8.2792,58.9368,629.5491],[8.2777,58.9413,692.4206],[8.2691,58.9405,622.6056],[8.2661,58.9493,564.6082],[8.2575,58.9485,570.8218],[8.2559,58.9529,565.6531],[8.2474,58.9521,569.0897],[8.2458,58.9566,564.5302],[8.2372,58.9558,567.1567],[8.2342,58.9646,637.7711],[8.2256,58.9638,826.0629],[8.2241,58.9682,732.7034],[8.2155,58.9674,779.4028],[8.2139,58.9718,833.9921],[8.1968,58.9702,875.5189],[8.1952,58.9747,885.3447],[8.1781,58.9731,733.6039],[8.1765,58.9775,798.9591],[8.1679,58.9767,802.538],[8.1664,58.9811,823.9656],[8.1492,58.9795,795.0975],[8.1477,58.9839,738.3939],[8.1305,58.9823,774.9854],[8.1289,58.9867,747.946],[8.1118,58.9851,747.0502],[8.1133,58.9807,733.7264],[8.0876,58.9783,692.7296],[8.0891,58.9739,634.8348],[8.0719,58.9723,504.1963],[8.0735,58.9679,539.3868],[8.0992,58.9703,614.8239],[8.1008,58.9659,512.9829],[8.118,58.9675,537.6876],[8.1195,58.9631,534.155],[8.1281,58.9639,471.6023],[8.1312,58.955,597.0926],[8.1226,58.9542,584.0955],[8.1241,58.9498,555.3808],[8.107,58.9482,539.8814],[8.1054,58.9526,636.4603],[8.0454,58.947,661.3875],[8.0438,58.9514,717.1349],[8.0352,58.9506,723.9832],[8.0337,58.955,752.717],[8.0165,58.9534,654.1296],[8.015,58.9578,707.8169],[8.0064,58.957,717.5217],[8.0079,58.9526,706.8426],[7.9994,58.9518,692.4266],[8.004,58.9386,700.3402],[7.9955,58.9377,658.3973],[7.997,58.9333,656.8911],[7.9885,58.9325,550.5956],[7.99,58.9281,542.2785],[7.9814,58.9273,493.0193],[7.983,58.9229,488.5879],[7.9744,58.9221,558.0588],[7.9807,58.9044,814.6036],[7.9892,58.9052,710.8868],[7.9924,58.8964,710.7993],[8.0009,58.8972,628.3015],[8.0071,58.8796,667.3903],[7.9986,58.8788,651.7222],[8.0157,58.8302,658.5503],[8.0071,58.8294,655.9103],[8.0102,58.8206,698.4617],[8.0017,58.8198,738.5869],[8.0032,58.8154,730.9182],[7.9947,58.8146,752.6544],[7.9962,58.8102,754.6491],[7.9877,58.8093,738.5314],[7.9892,58.8049,679.8046],[7.9807,58.8041,667.243],[7.9854,58.7909,694.7047],[7.9768,58.7901,667.6954],[7.9939,58.7415,476.4943],[7.9854,58.7407,465.9094],[7.9885,58.7319,465.5426],[7.9799,58.7311,479.1401],[7.9892,58.7046,475.1143]]]]}
,"properties": {"GID_2": "NOR.3.1_1","GID_0": "NOR","country": "Norway","GID_1": "NOR.3_1","province": "Aust-Agder","NL_NAME_1": "NA","county": "Åmli","VARNAME_2": "NA","NL_NAME_2": "NA","TYPE_2": "Kommuner","ENGTYPE_2": "Municipality","CC_2": "NA","HASC_2": "NO.AA.AM","name": "Åmli.county","area_km2": 1122.616,"hist_schema_id": "Elevation0-9000","hist_area_km2": {"125": 7.3756,"150": 43.0448,"175": 51.963,"200": 63.8629,"225": 87.8276,"250": 63.1666,"275": 50.021,"300": 48.3187,"325": 49.6123,"350": 45.25,"375": 41.1054,"400": 40.5886,"425": 38.0302,"450": 35.3673,"475": 35.7092,"500": 37.6681,"525": 39.1639,"550": 48.4828,"575": 47.3095,"600": 44.1106,"625": 49.1857,"650": 38.4027,"675": 29.5353,"700": 22.5376,"725": 19.0429,"750": 15.173,"775": 10.9638,"800": 7.2072,"825": 4.7197,"850": 3.9187,"875": 3.0319,"900": 0.8537,"925": 0.0657}}}