{"type":"Feature","properties":{"id":85939.0,"name":"Tyin","lge_id":"no","pfafstette":759.0,"lke_type":"B","altitude":0,"objectid":46142,"scalerank":12,"featurecla":"Lake","note":null,"funkyname":0,"min_zoom":7.0,"min_label":8.0},
"geometry":{"type": "Polygon","coordinates": [[[8.2675887378962329,61.348761297650327,1129.9365],[8.2675887378962329,61.348761297650327,1129.9365],[8.2584334644587329,61.360357977337827,1114.3336],[8.2428084644587329,61.362555242962827,1333.1239],[8.2231551441462329,61.357916571087827,1134.1864],[8.2329207691462329,61.348761297650327,1079.5],[8.2429305347712329,61.336065985150327,1090.3336],[8.2285262378962329,61.328131414837827,1118.985],[8.2143660816462329,61.320563055462827,1101.8965],[8.1933699878962329,61.313849188275327,1222.5804],[8.1613875660212329,61.301642157025327,1110.6166],[8.1711531910212329,61.288885809369077,1079.5],[8.1994735035212329,61.283453680462827,1079.5],[8.2060653003962329,61.266363836712827,1079.5],[8.2172957691462329,61.249090887494077,1079.5],[8.2368270191462329,61.246100164837827,1079.5],[8.2434188160212329,61.257940985150327,1163.9272],[8.2343856128962329,61.273688055462827,1126.135],[8.2307235035212329,61.288336492962827,1079.5],[8.2522078785212329,61.302862860150327,1079.5],[8.2674666675837329,61.318976141400327,1086.0265],[8.2714949878962329,61.331793524212827,1081.1676],[8.2675887378962329,61.348761297650327,1129.9365]]]}}