{"type": "Feature","id": 96462.0,"bbox": [8.7213240894587329,59.303229071087827,8.9270125660212329,59.333319403119077],"geometry": {"type": "Polygon","coordinates": [[[8.9270125660212329,59.313849188275327,97.0948],[8.9270125660212329,59.313849188275327,97.0948],[8.9161483082087329,59.317267157025327,182.6602],[8.8725692066462329,59.313910223431577,339.1902],[8.8313094410212329,59.321173407025327,218.3036],[8.8170272144587329,59.333319403119077,155.5974],[8.8082381519587329,59.332403875775327,78.004],[8.7714949878962329,59.324835516400327,330.3488],[8.7280379566462329,59.316656805462827,383.1385],[8.7213240894587329,59.306586004681577,151.3891],[8.7431746753962329,59.307806707806577,72.0],[8.7729598316462329,59.312994696087827,72.0],[8.8090926441462329,59.307806707806577,72.0],[8.8449813160212329,59.303229071087827,72.0],[8.8772078785212329,59.307501532025327,134.3937],[8.9069930347712329,59.310858465619077,137.3515],[8.9270125660212329,59.313849188275327,97.0948]]]}
,"properties": {"name": "Flvatn","lge_id": "no","pfafstette": 2155.0,"lke_type": "B","altitude": 605,"objectid": 51287,"scalerank": 12,"featurecla": "Lake","note": null,"funkyname": 0,"min_zoom": 7.0,"min_label": 8.0,"area_km2": 16.07792,"hist_schema_id": "Elevation0-9000","hist_area_km2": {"75": 6.31886,"100": 1.10353,"125": 1.22258,"150": 1.00621,"175": 0.77901,"200": 0.90887,"225": 0.84392,"250": 0.85472,"275": 0.70324,"300": 0.67079,"325": 0.57341,"350": 0.47606,"375": 0.3895,"400": 0.2164,"425": 0.01082}}}