{"type":"Feature","properties":{"id":96134.0,"name":"Nordsj","lge_id":"no","pfafstette":173.0,"lke_type":"B","altitude":17,"objectid":50752,"scalerank":10,"featurecla":"Lake","note":null,"funkyname":0,"min_zoom":6.0,"min_label":7.0},
"geometry":{"type": "Polygon","coordinates": [[[9.3396102222712329,59.308111883587827,78.8125],[9.3396102222712329,59.308111883587827,78.8125],[9.3186141285212329,59.312384344525327,58.5072],[9.2990828785212329,59.322394110150327,139.3098],[9.2839461597712329,59.334540106244077,379.8655],[9.2741805347712329,59.343634344525327,189.9527],[9.2653914722712329,59.352789617962827,202.626],[9.2580672535212329,59.364996649212827,38.0816],[9.2619735035212329,59.385016180462827,17.1554],[9.2583113941462329,59.397467352337827,37.8969],[9.2434188160212329,59.393805242962827,77.6544],[9.2373153003962329,59.383795477337827,45.0469],[9.2321883472712329,59.375250555462827,73.0448],[9.2118026050837329,59.379217840619077,95.2414],[9.1897078785212329,59.386236883587827,48.7547],[9.1872664722712329,59.375616766400327,17.9699],[9.2019149097712329,59.363104559369077,15.5],[9.2197371753962329,59.349127508587827,15.5],[9.2364608082087329,59.334234930462827,15.5],[9.2495223316462329,59.334234930462827,15.5],[9.2568465503962329,59.329107977337827,15.5],[9.2688094410212329,59.319342352337827,15.5],[9.2793074878962329,59.310797430462827,15.5],[9.2768660816462329,59.296515203900327,33.1894],[9.2876082691462329,59.287482000775327,15.5],[9.3303328785212329,59.285650946087827,15.5],[9.3689070972712329,59.277716375775327,15.5],[9.3857528003962329,59.268866278119077,15.5],[9.3975936207087329,59.255194403119077,35.6806],[9.4137069019587329,59.235113836712827,15.5],[9.4345809253962329,59.231207586712827,15.5],[9.4541121753962329,59.228522039837827,15.5],[9.4716903003962329,59.213629461712827,15.5],[9.4945174488337329,59.198370672650327,15.5],[9.5280867847712329,59.194037176556577,54.9268],[9.5267440113337329,59.198065496869077,107.7817],[9.4961043628962329,59.212958074994077,37.6536],[9.4792586597712329,59.228155828900327,86.6338],[9.4538680347712329,59.241827703900327,100.5548],[9.4253035816462329,59.266485907025327,96.9403],[9.4137069019587329,59.277411199994077,246.1572],[9.3955184253962329,59.284064032025327,143.0259],[9.3698836597712329,59.298956610150327,137.4825],[9.3537703785212329,59.305670477337827,72.1928],[9.3396102222712329,59.308111883587827,78.8125]]]}}