{"type":"Feature","properties":{"id":90716.0,"name":"Krderen","lge_id":"no","pfafstette":411151.0,"lke_type":"B","altitude":518,"objectid":43642,"scalerank":11,"featurecla":"Lake","note":null,"funkyname":0,"min_zoom":6.7,"min_label":7.7},
"geometry":{"type": "Polygon","coordinates": [[[9.5879012378962329,60.395941473431577,447.7953],[9.5879012378962329,60.395941473431577,447.7953],[9.5824080738337329,60.391974188275327,280.5805],[9.5988875660212329,60.383185125775327,133.5],[9.6125594410212329,60.364264227337827,146.7665],[9.6206160816462329,60.342108465619077,133.5],[9.6434432300837329,60.327215887494077,133.5],[9.6555281910212329,60.313849188275327,133.5],[9.6619979175837329,60.301703192181577,133.5],[9.6665145191462329,60.288031317181577,133.5],[9.6406356128962329,60.269537664837827,260.569],[9.6112166675837329,60.253424383587827,220.0556],[9.6069442066462329,60.239081121869077,133.5],[9.6091414722712329,60.209906317181577,133.5],[9.6167098316462329,60.180121160931577,133.5],[9.6346541675837329,60.168219305462827,133.5],[9.6650496753962329,60.165228582806577,133.5],[9.6884871753962329,60.163092352337827,133.5],[9.7119246753962329,60.157599188275327,133.5],[9.7417098316462329,60.156744696087827,181.9891],[9.7544051441462329,60.145514227337827,133.5],[9.7695418628962329,60.133917547650327,133.5],[9.7719832691462329,60.145758367962827,166.8943],[9.7522078785212329,60.159186102337827,241.49],[9.7380477222712329,60.167608953900327,175.854],[9.7225447925837329,60.172491766400327,240.7657],[9.6899520191462329,60.175543524212827,374.6824],[9.6587020191462329,60.177374578900327,438.1624],[9.6352645191462329,60.183111883587827,268.2016],[9.6267195972712329,60.204474188275327,133.5],[9.6273299488337329,60.227545477337827,175.767],[9.6352645191462329,60.250311590619077,133.5],[9.6665145191462329,60.268866278119077,133.5],[9.6909285816462329,60.277960516400327,133.5],[9.6936141285212329,60.287726141400327,203.4399],[9.6853133472712329,60.295294500775327,257.7126],[9.6762801441462329,60.313238836712827,156.2919],[9.6607772144587329,60.334845282025327,319.6017],[9.6442977222712329,60.346686102337827,192.6806],[9.6423445972712329,60.361578680462827,139.953],[9.6411238941462329,60.374640203900327,198.6123],[9.6303817066462329,60.380743719525327,227.1816],[9.6087752613337329,60.389532782025327,222.4187],[9.5879012378962329,60.395941473431577,447.7953]]]}}