{"type": "Feature","id": 51066.0,"bbox": [11.740733269146233,63.548407293744077,11.945567253521233,63.606756903119077],"geometry": {"type": "Polygon","coordinates": [[[11.740733269146233,63.605841375775327,552.5171],[11.740733269146233,63.605841375775327,552.5171],[11.743418816021233,63.603094793744077,488.1244],[11.766856316021233,63.593695379681577,402.0],[11.798716667583733,63.574835516400327,402.0],[11.827647331646233,63.556647039837827,402.0],[11.848277214458733,63.548407293744077,402.0],[11.880869987896233,63.555060125775327,402.0],[11.910899284771233,63.559698797650327,402.0],[11.934825066021233,63.559942938275327,402.0],[11.945567253521233,63.566656805462827,437.9502],[11.929942253521233,63.570929266400327,479.0831],[11.891123894146233,63.574225164837827,489.9099],[11.862559441021233,63.584295965619077,408.0161],[11.849131706646233,63.594610907025327,477.6485],[11.825450066021233,63.597662664837827,553.4738],[11.798472526958733,63.600958563275327,522.1074],[11.768687370708733,63.606756903119077,653.2718],[11.740733269146233,63.605841375775327,552.5171]]]}
,"properties": {"name": "Feren","lge_id": "no","pfafstette": 2751.0,"lke_type": "B","altitude": 0,"objectid": 26933,"scalerank": 12,"featurecla": "Lake","note": null,"funkyname": 0,"min_zoom": 7.0,"min_label": 8.0,"area_km2": 25.41776,"hist_schema_id": "Elevation0-9000","hist_area_km2": {"400": 16.56102,"425": 2.24528,"450": 1.86787,"475": 1.32996,"500": 1.27328,"525": 0.82051,"550": 0.48083,"575": 0.33939,"600": 0.32053,"625": 0.13197,"650": 0.04713}}}