{"type":"Feature","properties":{"id":98261.0,"name":"Tokke","lge_id":"no","pfafstette":15.0,"lke_type":"B","altitude":140,"objectid":51940,"scalerank":12,"featurecla":"Lake","note":null,"funkyname":0,"min_zoom":7.0,"min_label":8.0},
"geometry":{"type": "Polygon","coordinates": [[[9.2124129566462329,59.054022528119077,59.0],[9.2124129566462329,59.054022528119077,59.0],[9.1962996753962329,59.037298895306577,59.0],[9.2116805347712329,59.012335516400327,59.0],[9.2274276050837329,59.000799871869077,94.978],[9.2136336597712329,58.996222235150327,81.2775],[9.1999617847712329,58.991095282025327,73.8541],[9.2249861988337329,58.988959051556577,59.0],[9.2614852222712329,58.988348699994077,59.0],[9.2646590503962329,58.999640203900327,59.0],[9.2480574878962329,59.007208563275327,182.7086],[9.2280379566462329,59.008673407025327,160.7656],[9.2192488941462329,59.022955633587827,59.0],[9.2258406910212329,59.033941961712827,59.0],[9.2553817066462329,59.037298895306577,164.6603],[9.2945662769587329,59.031256414837827,102.349],[9.3137313160212329,59.020025946087827,59.0],[9.3313094410212329,59.013312078900327,59.0],[9.3488875660212329,59.008124090619077,59.0],[9.3620711597712329,59.002325750775327,59.0],[9.3696395191462329,59.005072332806577,112.4533],[9.3584090503962329,59.015387274212827,128.6621],[9.3486434253962329,59.026373602337827,100.0219],[9.3343611988337329,59.031195379681577,146.4037],[9.3161727222712329,59.038824774212827,149.8624],[9.3073836597712329,59.048224188275327,95.5343],[9.2933455738337329,59.043707586712827,192.8734],[9.2568465503962329,59.041266180462827,162.6728],[9.2279158863337329,59.049750067181577,143.6985],[9.2124129566462329,59.054022528119077,59.0]]]}}