{"type":"Feature","properties":{"id":94047.0,"name":"Visten","lge_id":null,"pfafstette":93431.0,"lke_type":"N","altitude":107,"objectid":49113,"scalerank":12,"featurecla":"Lake","note":null,"funkyname":0,"min_zoom":7.0,"min_label":8.0},
"geometry":{"type": "Polygon","coordinates": [[[13.419932487896233,59.626349188275327,62.5],[13.419932487896233,59.626349188275327,62.5],[13.420909050396233,59.645148016400327,69.0033],[13.410166862896233,59.664313055462827,115.0488],[13.392588737896233,59.664313055462827,94.6971],[13.379161003521233,59.663092352337827,119.8775],[13.375254753521233,59.677984930462827,74.1081],[13.383799675396233,59.682867742962827,62.5],[13.397471550396233,59.677984930462827,62.5],[13.401133659771233,59.689215399212827,76.6529],[13.400523308208733,59.708746649212827,70.2088],[13.399302605083733,59.720831610150327,62.5],[13.400889519146233,59.728461004681577,127.3515],[13.387705925396233,59.741095282025327,135.9014],[13.357432487896233,59.747565008587827,125.8754],[13.343760612896233,59.744269110150327,88.4282],[13.356700066021233,59.730841375775327,62.5],[13.365244987896233,59.697455145306577,76.5339],[13.354991081646233,59.674322821087827,155.636],[13.336680534771233,59.678595282025327,117.6573],[13.317271355083733,59.677984930462827,138.9194],[13.315684441021233,59.671332098431577,73.2838],[13.336924675396233,59.664618231244077,62.5],[13.361582878521233,59.655157782025327,62.5],[13.372325066021233,59.637884832806577,62.5],[13.396494987896233,59.624212957806577,62.5],[13.419932487896233,59.626349188275327,62.5]]]}}