{"type": "Feature","id": 89936.0,"bbox": [9.9817000660212329,60.378912664837827,10.097911003521233,60.564581610150327],"geometry": {"type": "Polygon","coordinates": [[[10.015513542583733,60.560309149212827,260.0203],[10.015513542583733,60.560309149212827,260.0203],[9.9853621753962329,60.564581610150327,161.6756],[9.9817000660212329,60.556647039837827,160.3351],[9.9953719410212329,60.547247625775327,149.5],[10.020030144146233,60.543646551556577,149.5],[10.042857292583733,60.540594793744077,149.5],[10.048350456646233,60.525702215619077,246.4651],[10.037364128521233,60.505987860150327,301.006],[10.029185417583733,60.481634832806577,149.5],[10.039195183208733,60.463080145306577,149.5],[10.058116081646233,60.452154852337827,149.5],[10.067881706646233,60.435126043744077,149.5],[10.061411980083733,60.420538641400327,158.6817],[10.054087761333733,60.403509832806577,186.8752],[10.059580925396233,60.386236883587827,149.5],[10.073252800396233,60.378912664837827,149.5],[10.081431511333733,60.385260321087827,209.6648],[10.075083855083733,60.397711492962827,240.6811],[10.083262566021233,60.420233465619077,149.5],[10.097911003521233,60.441778875775327,184.8021],[10.085948112896233,60.450018621869077,389.7992],[10.065928581646233,60.458258367962827,294.286],[10.057749870708733,60.468512274212827,149.5],[10.063243034771233,60.483404852337827,149.5],[10.068736198833733,60.501349188275327,149.5],[10.079600456646233,60.522955633587827,149.5],[10.083506706646233,60.543585516400327,260.1458],[10.057383659771233,60.552740789837827,294.8494],[10.015513542583733,60.560309149212827,260.0203]]]}
,"properties": {"name": "Sperillen","lge_id": "no","pfafstette": 73133.0,"lke_type": "B","altitude": 0,"objectid": 46249,"scalerank": 11,"featurecla": "Lake","note": null,"funkyname": 0,"min_zoom": 6.7,"min_label": 7.7,"area_km2": 34.4871,"hist_schema_id": "Elevation0-9000","hist_area_km2": {"150": 26.98104,"175": 2.15117,"200": 1.26343,"225": 1.45063,"250": 0.90767,"275": 0.48022,"300": 0.28177,"325": 0.3653,"350": 0.19826,"375": 0.19857,"400": 0.16728,"425": 0.04176}}}