{"type":"Feature","properties":{"id":74983.0,"name":"Rogen","lge_id":null,"pfafstette":99715.0,"lke_type":"N","altitude":0,"objectid":40725,"scalerank":12,"featurecla":"Lake","note":null,"funkyname":0,"min_zoom":7.0,"min_label":8.0},
"geometry":{"type": "Polygon","coordinates": [[[12.462901237896233,62.318670965619077,758.9269],[12.462901237896233,62.318670965619077,758.9269],[12.454600456646233,62.323248602337827,762.9571],[12.439952019146233,62.331732489056577,772.9146],[12.402598503521233,62.346319891400327,778.9734],[12.377696159771233,62.348456121869077,780.4558],[12.358164909771233,62.345465399212827,756.9943],[12.319956901958733,62.347235418744077,769.5647],[12.281382683208733,62.349371649212827,767.047],[12.254893425396233,62.353338934369077,768.2088],[12.246714714458733,62.344488836712827,756.9917],[12.275889519146233,62.335394598431577,756.886],[12.303233269146233,62.329962469525327,757.0315],[12.316416862896233,62.326300360150327,756.634],[12.364390495708733,62.323248602337827,756.8564],[12.403575066021233,62.320196844525327,756.9189],[12.419688347271233,62.316839910931577,756.9182],[12.429453972271233,62.306769110150327,756.7085],[12.439219597271233,62.298346258587827,756.9288],[12.455821159771233,62.291327215619077,756.8102],[12.482676628521233,62.277960516400327,760.4265],[12.503306511333733,62.273932196087827,802.4398],[12.487193230083733,62.289435125775327,807.1844],[12.471446159771233,62.306769110150327,770.2688],[12.462901237896233,62.318670965619077,758.9269]]]}}