{"type": "Feature","id": 94002.0,"bbox": [7.8243514332087329,59.672857977337827,8.0371199878962329,59.753058172650327],"geometry": {"type": "Polygon","coordinates": [[[8.0136824878962329,59.672857977337827,685.5],[8.0136824878962329,59.672857977337827,685.5],[8.0261336597712329,59.672857977337827,685.5],[8.0368758472712329,59.673773504681577,687.9794],[8.0371199878962329,59.683172918744077,786.4411],[8.0256453785212329,59.696844793744077,685.5],[8.0297957691462329,59.703558660931577,685.5],[8.0273543628962329,59.714483953900327,697.9761],[8.0097762378962329,59.724493719525327,721.6914],[7.9799910816462329,59.722662664837827,1105.5532],[7.9401961597712329,59.719916082806577,1047.8109],[7.9170028003962329,59.717779852337827,1238.7206],[7.8975936207087329,59.718146063275327,1134.5233],[7.8739119800837329,59.728155828900327,1050.0184],[7.8523055347712329,59.746710516400327,854.7745],[7.8280135425837329,59.753058172650327,799.8912],[7.8243514332087329,59.742132879681577,685.5],[7.8602401050837329,59.720587469525327,685.5],[7.9213973316462329,59.706549383587827,685.5],[7.9587508472712329,59.704474188275327,685.5],[7.9675399097712329,59.692877508587827,701.7523],[7.9838973316462329,59.685003973431577,685.5],[7.9990340503962329,59.679205633587827,685.5],[8.0136824878962329,59.672857977337827,685.5]]]}
,"properties": {"name": "Totak","lge_id": "no","pfafstette": 2773.0,"lke_type": "B","altitude": 702,"objectid": 49241,"scalerank": 11,"featurecla": "Lake","note": null,"funkyname": 0,"min_zoom": 6.7,"min_label": 7.7,"area_km2": 28.7135,"hist_schema_id": "Elevation0-9000","hist_area_km2": {"675": 17.91542,"700": 2.64108,"725": 0.98371,"750": 0.70562,"775": 0.67352,"800": 0.5238,"825": 0.55588,"850": 0.55588,"875": 0.45969,"900": 0.53451,"925": 0.36347,"950": 0.37415,"975": 0.42764,"1000": 0.36348,"1025": 0.32072,"1050": 0.28864,"1075": 0.31002,"1100": 0.12829,"1125": 0.17104,"1150": 0.12829,"1175": 0.13898,"1200": 0.04276,"1225": 0.08553,"1250": 0.02138}}}