{"type": "Feature","id": 92886.0,"bbox": [8.7660018238337329,59.744269110150327,9.0380965503962329,59.996222235150327],"geometry": {"type": "Polygon","coordinates": [[[8.9675399097712329,59.866766668744077,394.0382],[8.9675399097712329,59.866766668744077,394.0382],[8.9426375660212329,59.892584539837827,715.0887],[8.9112654957087329,59.923895574994077,532.2019],[8.8918563160212329,59.940314032025327,673.0442],[8.8662215503962329,59.965216375775327,660.0518],[8.8306990894587329,59.993780828900327,228.8636],[8.8154403003962329,59.995611883587827,320.0846],[8.7893172535212329,59.996222235150327,596.564],[8.7660018238337329,59.993780828900327,349.8546],[8.7763778003962329,59.986212469525327,189.0],[8.8061629566462329,59.976446844525327,189.0],[8.8261824878962329,59.964606024212827,189.0],[8.8178817066462329,59.950934149212827,476.6516],[8.8093367847712329,59.939703680462827,273.1368],[8.8270369800837329,59.942755438275327,189.0],[8.8537703785212329,59.937567449994077,189.0],[8.8767195972712329,59.922369696087827,189.0],[8.8969832691462329,59.905646063275327,189.0],[8.9243270191462329,59.881598211712827,189.0],[8.9453231128962329,59.861273504681577,189.0],[8.9538680347712329,59.848822332806577,189.0],[8.9826766285212329,59.838507391400327,189.0],[9.0051375660212329,59.826056219525327,189.0],[8.9990340503962329,59.818121649212827,264.4421],[9.0069686207087329,59.793829657025327,189.0],[9.0214949878962329,59.752447821087827,200.2628],[9.0307723316462329,59.744269110150327,189.0],[9.0380965503962329,59.768866278119077,296.9558],[9.0295516285212329,59.786810614056577,368.7386],[9.0271102222712329,59.809027410931577,229.4695],[9.0307723316462329,59.834234930462827,455.8075],[9.0124617847712329,59.843939520306577,340.7696],[8.9885360035212329,59.851263739056577,466.6535],[8.9675399097712329,59.866766668744077,394.0382]]]}
,"properties": {"name": "Tinnsjå","lge_id": "no","pfafstette": 739.0,"lke_type": "B","altitude": 192,"objectid": 48692,"scalerank": 11,"featurecla": "Lake","note": null,"funkyname": 0,"min_zoom": 6.7,"min_label": 7.7,"area_km2": 53.80018,"hist_schema_id": "Elevation0-9000","hist_area_km2": {"200": 37.30105,"225": 1.97829,"250": 1.6166,"275": 1.74439,"300": 1.4678,"325": 1.22321,"350": 0.96756,"375": 1.06349,"400": 0.93572,"425": 0.83961,"450": 0.76512,"475": 0.66938,"500": 0.60538,"525": 0.5734,"550": 0.48839,"575": 0.31857,"600": 0.25482,"625": 0.23353,"650": 0.24417,"675": 0.13802,"700": 0.14868,"725": 0.12743,"750": 0.04247,"775": 0.05309}}}