{"type":"Feature","properties":{"id":97215.0,"name":"Farris","lge_id":"no","pfafstette":1.0,"lke_type":"B","altitude":25,"objectid":53243,"scalerank":12,"featurecla":"Lake","note":null,"funkyname":0,"min_zoom":7.0,"min_label":8.0},
"geometry":{"type": "Polygon","coordinates": [[[9.9365340503962329,59.143316961712827,104.7032],[9.9365340503962329,59.143316961712827,104.7032],[9.9172469410212329,59.153387762494077,87.4793],[9.9067488941462329,59.173468328900327,84.3033],[9.8866072925837329,59.203558660931577,194.8593],[9.8576766285212329,59.222418524212827,148.8902],[9.8452254566462329,59.220892645306577,155.4513],[9.8601180347712329,59.212347723431577,21.5],[9.8820906910212329,59.200201727337827,24.2131],[9.8927108082087329,59.171332098431577,24.147],[9.9043074878962329,59.144903875775327,21.5],[9.9192000660212329,59.140326239056577,53.1667],[9.9373885425837329,59.136358953900327,125.223],[9.9495955738337329,59.124823309369077,21.5],[9.9644881519587329,59.112921453900327,36.9167],[9.9897567066462329,59.088629461712827,21.5],[10.010630730083733,59.067084051556577,21.5],[10.019419792583733,59.074957586712827,31.007],[10.013072136333733,59.095343328900327,72.8436],[10.000010612896233,59.108404852337827,107.8498],[9.9904891285212329,59.120001532025327,134.2325],[9.9747420582087329,59.128485418744077,21.5],[9.9547225269587329,59.133917547650327,120.085],[9.9365340503962329,59.143316961712827,104.7032]]]}}