{"type":"Feature","properties":{"id":86002.0,"name":"Vinstre","lge_id":"no","pfafstette":2493531.0,"lke_type":"B","altitude":0,"objectid":45873,"scalerank":12,"featurecla":"Lake","note":null,"funkyname":0,"min_zoom":7.0,"min_label":8.0},
"geometry":{"type": "Polygon","coordinates": [[[8.8352156910212329,61.328985907025327,1028.6875],[8.8352156910212329,61.328985907025327,1028.6875],[8.8625594410212329,61.319281317181577,1029.1295],[8.8794051441462329,61.314703680462827,1029.5374],[8.9000350269587329,61.305914617962827,1030.4231],[8.9226180347712329,61.303839422650327,1030.2368],[8.9495955738337329,61.308050848431577,1031.1727],[8.9930526050837329,61.315924383587827,1030.6075],[9.0219832691462329,61.336920477337827,1040.605],[9.0400496753962329,61.349676824994077,1031.4303],[9.0495711597712329,61.355169989056577,1041.8234],[9.0355330738337329,61.360052801556577,1072.9298],[9.0039168628962329,61.354254461712827,1128.8601],[8.9773055347712329,61.342657782025327,1045.7355],[8.9653426441462329,61.330572821087827,1062.1884],[8.9526473316462329,61.325079657025327,1086.4572],[8.9406844410212329,61.320807196087827,1049.6012],[8.9231063160212329,61.319891668744077,1052.5127],[8.8957625660212329,61.329352117962827,1060.9631],[8.8747664722712329,61.338446356244077,1211.1981],[8.8562117847712329,61.339972235150327,1134.2988],[8.8368026050837329,61.342047430462827,1093.1127],[8.8247176441462329,61.341192938275327,1079.9093],[8.8352156910212329,61.328985907025327,1028.6875]]]}}