{"type": "Feature","bbox": [5.6038,60.4301,6.3227,60.9107],"geometry": {"type": "MultiPolygon","coordinates": [[[[5.7086,60.4301,472.7676],[5.7442,60.434,384.7477],[5.7422,60.4384,397.1832],[5.76,60.4403,507.0743],[5.7561,60.4491,634.0261],[5.7651,60.45,657.6563],[5.7611,60.4588,371.2891],[5.7701,60.4597,469.5],[5.772,60.4554,610.8726],[5.7898,60.4573,707.6531],[5.7918,60.4529,646.5886],[5.8096,60.4548,717.6618],[5.8057,60.4636,772.734],[5.8592,60.4693,925.3445],[5.8573,60.4737,908.3723],[5.8751,60.4756,804.122],[5.8732,60.48,842.1169],[5.8821,60.4809,604.8309],[5.8782,60.4897,729.0922],[5.8872,60.4907,637.3284],[5.8794,60.5082,681.0],[5.8973,60.5101,758.731],[5.8953,60.5145,822.394],[5.9043,60.5154,896.5504],[5.9023,60.5198,932.5163],[5.9113,60.5208,953.2513],[5.9093,60.5251,919.6506],[5.9183,60.5261,889.5704],[5.9163,60.5305,921.8748],[5.9253,60.5314,903.0375],[5.9291,60.5227,1066.1411],[5.9381,60.5236,1113.7563],[5.94,60.5192,984.9157],[5.9489,60.5202,978.5142],[5.9509,60.5158,973.574],[5.9688,60.5177,1062.5483],[5.9726,60.5089,956.7931],[5.9815,60.5099,915.673],[5.9835,60.5055,897.0719],[5.9924,60.5064,1050.5613],[5.9943,60.5021,1032.0201],[6.0033,60.503,1078.2034],[6.0013,60.5074,1157.0726],[6.0192,60.5093,894.8008],[6.0173,60.5137,939.0112],[6.0352,60.5155,1032.4396],[6.0332,60.5199,1037.9307],[6.069,60.5237,676.9917],[6.0652,60.5325,588.5128],[6.0741,60.5334,566.0446],[6.0722,60.5378,576.0521],[6.0811,60.5387,649.9006],[6.0696,60.565,945.2031],[6.0517,60.5631,695.6307],[6.0498,60.5675,765.7978],[6.0408,60.5666,856.384],[6.0389,60.571,1014.0237],[6.03,60.57,872.1218],[6.028,60.5744,879.5477],[6.0191,60.5735,824.7104],[6.0172,60.5778,919.6131],[5.9993,60.576,800.8386],[5.9973,60.5803,866.0275],[5.9884,60.5794,842.1891],[5.9864,60.5838,839.7751],[5.9775,60.5828,746.6428],[5.9755,60.5872,714.1884],[5.9576,60.5853,750.9028],[5.9557,60.5897,831.7087],[5.9467,60.5887,881.45],[5.9448,60.5931,830.9648],[5.9269,60.5912,766.7454],[5.9249,60.5956,781.9659],[5.907,60.5937,862.2334],[5.8992,60.6112,627.5289],[5.9082,60.6122,618.0192],[5.9063,60.6166,524.5437],[5.9152,60.6175,536.0731],[5.9094,60.6307,0.0],[5.9004,60.6297,0.0],[5.8985,60.6341,0.0],[5.8895,60.6331,0.0],[5.8915,60.6287,39.4658],[5.8735,60.6268,0.0],[5.8716,60.6312,0.0],[5.8626,60.6303,0.0],[5.8607,60.6346,295.1379],[5.8517,60.6337,527.9856],[5.8439,60.6512,697.7955],[5.8528,60.6522,648.6785],[5.8509,60.6565,707.1406],[5.8598,60.6575,767.3742],[5.8579,60.6619,560.4413],[5.8669,60.6628,760.8307],[5.8649,60.6672,487.5832],[5.8739,60.6682,640.6158],[5.8719,60.6726,594.815],[5.8809,60.6735,661.2574],[5.879,60.6779,740.684],[5.8879,60.6788,674.2869],[5.886,60.6832,727.3729],[5.895,60.6842,842.2126],[5.891,60.6929,851.9131],[5.9,60.6939,852.7864],[5.8942,60.707,977.4919],[5.9032,60.708,940.7529],[5.8973,60.7211,1043.5967],[5.9063,60.7221,944.2561],[5.9024,60.7308,992.853],[5.9114,60.7318,897.6238],[5.9094,60.7362,975.8279],[5.9364,60.739,945.4878],[5.9344,60.7434,796.5631],[5.9704,60.7472,981.4739],[5.9685,60.7516,804.7233],[5.9955,60.7544,985.1296],[6.0033,60.7369,932.8294],[6.0123,60.7378,822.1762],[6.0181,60.7247,594.3331],[6.0451,60.7275,786.225],[6.0412,60.7363,705.6417],[6.0502,60.7372,747.0459],[6.0463,60.746,960.0588],[6.0553,60.7469,783.4404],[6.0534,60.7513,896.1116],[6.0714,60.7532,832.6605],[6.0695,60.7576,1075.1704],[6.0785,60.7585,1066.8123],[6.0765,60.7629,937.7737],[6.0856,60.7639,914.3854],[6.0836,60.7682,781.5652],[6.1197,60.772,854.4298],[6.1177,60.7764,757.8472],[6.1358,60.7783,686.5275],[6.1338,60.7826,578.5661],[6.1699,60.7864,827.5925],[6.1737,60.7776,844.9467],[6.1827,60.7786,939.7095],[6.1866,60.7698,995.7699],[6.2226,60.7735,1053.7654],[6.215,60.7911,901.6678],[6.224,60.792,820.7361],[6.2202,60.8008,810.7863],[6.2292,60.8017,885.5331],[6.2273,60.8061,914.9212],[6.2543,60.8089,1137.292],[6.2524,60.8133,1026.4381],[6.2795,60.816,837.5643],[6.2776,60.8204,785.259],[6.2957,60.8223,672.9122],[6.2995,60.8135,769.3193],[6.3085,60.8144,809.0018],[6.3066,60.8188,804.8628],[6.3156,60.8198,785.7598],[6.3137,60.8241,859.7856],[6.3227,60.8251,851.2875],[6.317,60.8382,742.9764],[6.308,60.8373,710.3959],[6.3042,60.8461,823.9418],[6.2951,60.8451,939.8907],[6.2932,60.8495,1055.2603],[6.2842,60.8486,1150.7878],[6.2823,60.853,1215.9384],[6.2913,60.8539,1197.1222],[6.2875,60.8627,1168.049],[6.2965,60.8636,1078.4307],[6.2927,60.8724,1068.4001],[6.3017,60.8733,1102.3431],[6.2979,60.8821,1105.3615],[6.2889,60.8812,1128.6749],[6.287,60.8856,1059.1156],[6.2779,60.8846,1069.8599],[6.276,60.889,1098.7794],[6.267,60.8881,1106.7694],[6.265,60.8925,1179.0759],[6.256,60.8915,1084.9935],[6.2541,60.8959,984.5046],[6.245,60.895,902.2939],[6.2431,60.8994,863.313],[6.2341,60.8984,831.3675],[6.2302,60.9072,930.7731],[6.2212,60.9063,971.6288],[6.2192,60.9107,970.1047],[6.1649,60.9051,1002.2333],[6.1688,60.8963,980.6428],[6.1597,60.8954,1027.8203],[6.1617,60.891,871.1263],[6.1526,60.89,947.4762],[6.1507,60.8944,971.5561],[6.1326,60.8926,956.0],[6.1345,60.8882,956.0],[6.1255,60.8872,956.0],[6.1294,60.8785,963.6125],[6.1203,60.8775,956.0],[6.1223,60.8731,969.3549],[6.1042,60.8713,956.0],[6.1061,60.8669,956.0],[6.0881,60.865,1016.9327],[6.09,60.8606,956.0],[6.081,60.8597,1026.072],[6.0829,60.8553,956.0],[6.0648,60.8534,989.7071],[6.0668,60.849,956.0],[6.0487,60.8471,1036.4062],[6.0507,60.8428,1038.2153],[6.0416,60.8418,1091.6819],[6.0436,60.8374,1065.0479],[6.0346,60.8365,1084.9374],[6.0365,60.8321,1060.7482],[6.0275,60.8312,949.5],[6.0294,60.8268,868.575],[6.0204,60.8258,957.5114],[6.0223,60.8215,917.1622],[5.9953,60.8186,897.9868],[5.9914,60.8274,1014.7813],[5.9824,60.8264,1006.3932],[5.9843,60.8221,1027.6008],[5.9753,60.8211,929.3731],[5.9772,60.8167,886.4391],[5.9592,60.8148,877.8566],[5.9612,60.8104,914.3657],[5.9161,60.8057,964.5383],[5.9141,60.8101,939.0933],[5.851,60.8034,712.5878],[5.853,60.799,569.2736],[5.835,60.7971,764.2629],[5.8369,60.7927,576.8466],[5.8189,60.7908,738.3834],[5.8209,60.7864,632.2083],[5.8119,60.7855,694.3135],[5.8158,60.7767,729.0816],[5.8068,60.7757,752.9384],[5.8088,60.7714,724.4752],[5.7998,60.7704,806.6024],[5.8018,60.766,604.8065],[5.7928,60.7651,766.3657],[5.7987,60.7519,484.8903],[5.7627,60.7481,539.5111],[5.7647,60.7437,434.0285],[5.7557,60.7428,383.6541],[5.7596,60.734,315.4931],[5.7147,60.7292,509.5264],[5.7087,60.7423,300.9302],[5.6997,60.7413,305.0729],[5.7017,60.737,509.4214],[5.6927,60.736,391.6785],[5.6916,60.7386,305.6223],[5.6971,60.7417,244.9338],[5.6958,60.7417,170.0345],[5.6818,60.7349,31.4794],[5.6792,60.7292,128.0164],[5.6786,60.7234,455.8333],[5.6693,60.7203,35.1524],[5.6687,60.7125,47.2924],[5.6724,60.7099,170.1129],[5.6714,60.7047,0.0],[5.6813,60.7,0.0],[5.6896,60.7,0.0],[5.6937,60.7021,0.0],[5.6979,60.7021,65.2522],[5.7021,60.7,0.0],[5.7104,60.7,0.0],[5.7146,60.7021,172.2331],[5.7229,60.6979,75.6312],[5.7271,60.6979,0.0],[5.7312,60.7,0.0],[5.75,60.7,112.1007],[5.7557,60.6984,0.0],[5.7599,60.7005,0.0],[5.7609,60.7057,14.6335],[5.7703,60.7109,0.0],[5.7714,60.7141,20.8696],[5.7745,60.7151,0.0],[5.7776,60.7203,0.0],[5.7807,60.7214,0.0],[5.7859,60.7286,0.0],[5.7911,60.7318,31.7235],[5.7922,60.7349,0.0],[5.7953,60.7349,0.0],[5.7958,60.7333,0.0],[5.7932,60.7255,121.5416],[5.7859,60.7224,0.0],[5.7828,60.7151,89.4516],[5.7797,60.7141,88.1744],[5.7786,60.7068,168.6706],[5.7734,60.7057,0.0],[5.7724,60.7026,67.5104],[5.7651,60.6995,30.6615],[5.763,60.6974,9.8784],[5.762,60.6922,70.9411],[5.7521,60.6896,39.444],[5.7479,60.6896,6.7298],[5.7438,60.6917,40.3658],[5.7359,60.687,0.0],[5.7391,60.6849,0.0],[5.7401,60.6818,66.8781],[5.7432,60.6807,194.7759],[5.7417,60.6792,191.859],[5.7318,60.6797,42.7879],[5.7307,60.6828,0.0],[5.7193,60.688,50.1259],[5.7203,60.6911,0.0],[5.713,60.6922,53.6067],[5.7021,60.6979,158.0731],[5.6979,60.6979,203.202],[5.6896,60.6937,39.5272],[5.6776,60.6911,0.0],[5.675,60.6875,0.0],[5.6724,60.6911,0.0],[5.6657,60.6918,232.4822],[5.6716,60.6786,114.0825],[5.6627,60.6777,320.502],[5.6647,60.6733,434.6417],[5.6736,60.6743,255.0966],[5.6776,60.6655,324.8111],[5.6686,60.6645,477.7937],[5.6706,60.6602,488.5328],[5.6616,60.6592,552.8981],[5.6656,60.6504,348.5246],[5.6566,60.6495,405.9914],[5.6685,60.6232,466.2914],[5.6775,60.6242,583.2583],[5.6834,60.611,695.2871],[5.6924,60.612,658.4155],[5.6943,60.6076,692.6068],[5.6854,60.6067,754.8085],[5.6874,60.6023,748.7248],[5.6784,60.6013,793.4479],[5.6804,60.5969,818.4792],[5.6714,60.596,805.4276],[5.6734,60.5916,696.0216],[5.6555,60.5897,688.8303],[5.6575,60.5853,693.2335],[5.6396,60.5834,554.9713],[5.6416,60.579,549.9105],[5.6326,60.578,456.4301],[5.6307,60.5824,452.6004],[5.6038,60.5795,264.1484],[5.6098,60.5663,199.8382],[5.6187,60.5673,247.6603],[5.6227,60.5586,153.5859],[5.6316,60.5595,266.0697],[5.6415,60.5376,200.6635],[5.6594,60.5396,393.2579],[5.6614,60.5352,656.3126],[5.6882,60.5381,589.942],[5.6941,60.525,480.7453],[5.7036,60.526,0.0],[5.7005,60.5276,0.0],[5.6995,60.5349,0.0],[5.6964,60.537,0.0],[5.7,60.5396,0.0],[5.7057,60.5401,0.0],[5.7026,60.5422,0.0],[5.7063,60.5458,0.0],[5.7042,60.55,87.6506],[5.7078,60.5526,0.0],[5.713,60.5766,25.9396],[5.7161,60.5776,0.0],[5.7187,60.5854,0.0],[5.7203,60.5953,0.0],[5.7172,60.5974,0.0],[5.7245,60.6026,0.0],[5.7193,60.6068,71.4138],[5.7193,60.6099,40.1161],[5.7229,60.6125,0.0],[5.7193,60.6151,46.0082],[5.7167,60.6229,0.0],[5.7203,60.6255,0.0],[5.7224,60.6318,0.0],[5.7193,60.6339,41.061],[5.7193,60.637,60.5851],[5.7266,60.638,0.0],[5.7234,60.6411,38.0604],[5.7286,60.6422,0.0],[5.7292,60.6437,0.0],[5.7286,60.6495,2.2303],[5.7255,60.6505,140.1282],[5.7312,60.6563,0.0],[5.7276,60.6589,99.7268],[5.7276,60.6641,0.0],[5.7328,60.6672,0.0],[5.7339,60.6703,16.1217],[5.7396,60.6708,0.0],[5.7411,60.6703,43.3145],[5.7422,60.6651,19.6872],[5.7599,60.662,38.0983],[5.7583,60.6604,227.508],[5.7542,60.6604,125.1929],[5.75,60.6583,117.3735],[5.7417,60.6583,103.1033],[5.7359,60.6557,0.0],[5.7411,60.6505,3.9025],[5.738,60.6495,0.0],[5.7354,60.6396,0.0],[5.7359,60.6339,0.0],[5.7396,60.6312,74.9271],[5.7391,60.6297,88.0068],[5.7339,60.6276,0.0],[5.737,60.6266,19.2134],[5.738,60.6193,64.5004],[5.7411,60.6172,368.3736],[5.7359,60.6161,0.0],[5.7354,60.6146,0.0],[5.7354,60.6063,0.0],[5.7333,60.6021,0.0],[5.737,60.5995,32.9309],[5.7375,60.5958,33.7698],[5.7354,60.5917,124.178],[5.7349,60.5839,366.9542],[5.7318,60.5828,43.4487],[5.7292,60.5792,0.0],[5.7297,60.5776,0.0],[5.7354,60.5771,212.8515],[5.737,60.5755,394.4284],[5.7339,60.5745,337.9838],[5.7328,60.5693,376.221],[5.7276,60.5682,237.8181],[5.7276,60.563,9.2722],[5.7307,60.562,104.4397],[5.7307,60.5589,0.0],[5.7229,60.5583,19.5309],[5.7208,60.5563,0.0],[5.7255,60.5526,0.0],[5.7328,60.5516,0.0],[5.7333,60.55,0.0],[5.7328,60.5464,111.3037],[5.7307,60.5443,92.3652],[5.7234,60.5411,157.3139],[5.7208,60.5333,0.0],[5.725,60.5292,43.132],[5.7234,60.5172,0.0],[5.7271,60.5146,37.5916],[5.7245,60.5068,0.0],[5.7214,60.5047,0.0],[5.7328,60.4995,79.4772],[5.7312,60.4938,0.0],[5.7349,60.4911,60.9388],[5.7318,60.4891,0.0],[5.7349,60.487,62.14],[5.7333,60.4792,5.2564],[5.7339,60.4776,0.0],[5.7411,60.4745,32.3283],[5.7401,60.4714,0.0],[5.7438,60.4688,0.0],[5.7432,60.4609,114.4343],[5.738,60.4578,0.0],[5.737,60.4547,112.7433],[5.7229,60.4542,34.9696],[5.7187,60.4521,85.9179],[5.7146,60.4542,0.0],[5.7104,60.4521,86.1033],[5.6937,60.4521,157.86],[5.687,60.4557,0.0],[5.6687,60.4604,29.6175],[5.6563,60.4604,27.0147],[5.6479,60.4562,219.2461],[5.6359,60.4557,0.0],[5.6396,60.4521,48.6586],[5.6396,60.4479,77.9364],[5.6372,60.4436,252.3761],[5.6403,60.4365,373.0963],[5.667,60.4394,533.9328],[5.6651,60.4438,480.6227],[5.6829,60.4457,552.1718],[5.6849,60.4413,584.5197],[5.6938,60.4423,497.0257],[5.6957,60.4379,674.3379],[5.7046,60.4389,537.059],[5.7086,60.4301,472.7676]]]]}
,"properties": {"GID_2": "NOR.7.33_1","GID_0": "NOR","country": "Norway","GID_1": "NOR.7_1","province": "Hordaland","NL_NAME_1": "NA","county": "Vaksdal","VARNAME_2": "NA","NL_NAME_2": "NA","TYPE_2": "Kommuner","ENGTYPE_2": "Municipality","CC_2": "NA","HASC_2": "NO.HO.VA","name": "Vaksdal.county","area_km2": 673.4473,"hist_schema_id": "Elevation0-9000","hist_area_km2": {"0": 12.0841,"25": 5.5955,"50": 5.8554,"75": 6.1236,"100": 7.2452,"125": 7.2758,"150": 8.3465,"175": 9.0418,"200": 9.655,"225": 10.2159,"250": 11.9288,"275": 12.8702,"300": 11.4903,"325": 11.6082,"350": 11.3382,"375": 12.6399,"400": 13.7808,"425": 14.2959,"450": 15.7622,"475": 14.2241,"500": 16.2666,"525": 15.6359,"550": 16.4563,"575": 17.9586,"600": 18.0586,"625": 17.9639,"650": 18.3518,"675": 19.3574,"700": 20.1491,"725": 25.139,"750": 28.7756,"775": 28.4795,"800": 29.9703,"825": 25.5377,"850": 25.7063,"875": 21.7843,"900": 18.7172,"925": 16.7116,"950": 18.2021,"975": 14.5929,"1000": 11.5762,"1025": 9.1786,"1050": 7.9568,"1075": 7.3757,"1100": 5.4086,"1125": 2.7912,"1150": 1.9535,"1175": 1.3533,"1200": 0.3924,"1225": 0.1962,"1250": 0.0723}}}