{"type": "Feature","bbox": [9.9982,59.1829,10.201,59.3899],"geometry": {"type": "MultiPolygon","coordinates": [[[[10.0037,59.3195,262.702],[10.0143,59.284,188.0769],[10.0056,59.2833,251.0216],[10.0069,59.2789,149.0641],[9.9982,59.2782,121.6097],[10.0021,59.2649,234.0049],[10.0108,59.2656,128.1901],[10.0161,59.2478,256.5412],[10.0248,59.2485,177.8661],[10.03,59.2308,210.5175],[10.0387,59.2314,173.097],[10.0413,59.2226,209.9075],[10.05,59.2232,135.296],[10.0526,59.2144,76.6576],[10.0613,59.215,89.6869],[10.0666,59.1973,81.892],[10.0752,59.198,52.9506],[10.0765,59.1935,75.7236],[10.0939,59.1949,74.7124],[10.0952,59.1904,121.8672],[10.1126,59.1918,93.7388],[10.1152,59.1829,101.5322],[10.1325,59.1842,26.5],[10.1273,59.202,44.4205],[10.136,59.2026,71.8132],[10.1347,59.2071,46.6354],[10.1434,59.2077,75.2396],[10.1447,59.2033,51.1503],[10.1534,59.204,80.755],[10.1547,59.1995,31.3605],[10.172,59.2009,53.5243],[10.1682,59.2142,105.2344],[10.1595,59.2135,88.5428],[10.1543,59.2313,78.3514],[10.1456,59.2306,47.1737],[10.1404,59.2483,146.9416],[10.1317,59.2477,148.3784],[10.1291,59.2565,144.0325],[10.1378,59.2572,138.0478],[10.1365,59.2617,134.2177],[10.1452,59.2623,98.6971],[10.1465,59.2579,127.5105],[10.1639,59.2592,41.3632],[10.1652,59.2548,40.9843],[10.1739,59.2554,56.7359],[10.1726,59.2599,58.5125],[10.1813,59.2605,79.1532],[10.18,59.265,81.0674],[10.1887,59.2656,96.778],[10.1836,59.2834,87.2787],[10.201,59.2847,57.3039],[10.1919,59.3158,84.6731],[10.2006,59.3165,99.0429],[10.1942,59.3386,148.951],[10.1854,59.338,161.826],[10.1816,59.3513,140.7529],[10.1728,59.3506,106.2037],[10.1689,59.3639,131.7031],[10.1602,59.3633,66.9055],[10.1576,59.3722,132.2046],[10.1489,59.3715,49.0],[10.1463,59.3804,128.6074],[10.1482,59.385,185.5779],[10.1537,59.3855,214.6285],[10.1524,59.3899,213.8987],[10.1437,59.3892,152.1227],[10.1443,59.3872,158.3275],[10.1404,59.3845,130.6033],[10.1101,59.3821,124.4953],[10.1087,59.3866,112.5539],[10.0913,59.3852,284.2357],[10.0738,59.3839,344.4894],[10.0751,59.3795,376.6446],[10.0402,59.3768,289.3201],[10.0429,59.3679,255.4504],[10.0341,59.3672,268.8962],[10.0368,59.3583,234.3144],[10.0281,59.3577,218.6458],[10.0294,59.3532,209.3913],[10.0206,59.3526,300.6459],[10.0233,59.3437,333.644],[10.0146,59.343,386.2093],[10.0172,59.3341,310.2982],[10.0085,59.3335,264.3839],[10.0124,59.3202,214.6912],[10.0037,59.3195,262.702]]]]}
,"properties": {"GID_2": "NOR.19.1_1","GID_0": "NOR","country": "Norway","GID_1": "NOR.19_1","province": "Vestfold","NL_NAME_1": "NA","county": "Andebu","VARNAME_2": "NA","NL_NAME_2": "NA","TYPE_2": "Kommuner","ENGTYPE_2": "Municipality","CC_2": "NA","HASC_2": "NO.VF.AN","name": "Andebu.county","area_km2": 175.2724,"hist_schema_id": "Elevation0-9000","hist_area_km2": {"25": 2.4636,"50": 17.2655,"75": 24.6502,"100": 33.361,"125": 24.9809,"150": 22.0986,"175": 17.4072,"200": 11.6238,"225": 7.2268,"250": 5.7427,"275": 3.0597,"300": 2.3998,"325": 1.8259,"350": 0.7994,"375": 0.3133,"400": 0.054}}}