{"type":"Feature","properties":{"GID_2":"NOR.19.15_1","GID_0":"NOR","country":"Norway","GID_1":"NOR.19_1","province":"Vestfold","NL_NAME_1":"NA","county":"Vaale","VARNAME_2":"NA","NL_NAME_2":"NA","TYPE_2":"Kommuner","ENGTYPE_2":"Municipality","CC_2":"NA","HASC_2":"NA","name":"Vaale.county"},
"geometry":{"type": "MultiPolygon","coordinates": [[[[10.3682,59.447,73.4537],[10.3736,59.4476,5.2392],[10.3703,59.4521,0.0],[10.3608,59.4554,18.1559],[10.3619,59.4574,0.0],[10.3558,59.4612,12.4907],[10.3581,59.4674,5.3137],[10.3575,59.4715,53.1951],[10.3503,59.4813,3.7993],[10.3475,59.4804,28.1274],[10.3442,59.4701,1.3249],[10.3254,59.471,95.7194],[10.3279,59.4621,111.4372],[10.3192,59.4615,174.0996],[10.3217,59.4526,203.4631],[10.3042,59.4513,118.6712],[10.303,59.4557,128.9685],[10.2854,59.4544,114.5045],[10.2842,59.4588,115.064],[10.2492,59.4562,100.0646],[10.2504,59.4518,93.7546],[10.2242,59.4498,179.1185],[10.2177,59.472,200.3494],[10.209,59.4713,151.1776],[10.2051,59.4846,211.3507],[10.1876,59.4833,54.8553],[10.1889,59.4789,68.57],[10.1801,59.4782,72.4969],[10.1814,59.4738,46.5391],[10.1726,59.4731,53.7379],[10.1753,59.4642,52.1698],[10.184,59.4649,88.7348],[10.1918,59.4383,89.3239],[10.2006,59.4389,87.2473],[10.2045,59.4256,49.2355],[10.2132,59.4263,45.3547],[10.2158,59.4174,48.5185],[10.2245,59.4181,64.692],[10.2271,59.4092,38.6398],[10.2359,59.4098,39.7423],[10.2397,59.3965,93.25],[10.2485,59.3972,49.7109],[10.2523,59.3839,26.555],[10.2436,59.3832,25.3375],[10.2488,59.3655,73.5922],[10.2575,59.3661,37.8653],[10.2601,59.3572,17.5577],[10.2688,59.3579,18.3358],[10.2662,59.3668,23.367],[10.2749,59.3674,67.785],[10.2724,59.3763,40.5875],[10.2811,59.377,40.2656],[10.2824,59.3725,39.3466],[10.3086,59.3745,92.5189],[10.3124,59.3612,105.2946],[10.3212,59.3618,59.101],[10.325,59.3485,26.3686],[10.3337,59.3492,35.4827],[10.335,59.3447,26.7459],[10.3873,59.3486,81.1947],[10.3861,59.3531,90.8749],[10.3773,59.3524,24.7233],[10.3761,59.3569,44.1123],[10.3935,59.3582,98.5107],[10.3923,59.3626,71.7352],[10.3835,59.362,59.8606],[10.3797,59.3753,52.2281],[10.371,59.3746,47.9532],[10.3684,59.3835,63.428],[10.3772,59.3842,112.3247],[10.3733,59.3975,96.4591],[10.3559,59.3962,76.4196],[10.3571,59.3917,72.408],[10.3309,59.3898,88.3197],[10.3194,59.4297,106.1872],[10.3282,59.4304,100.3007],[10.3294,59.4259,100.7004],[10.3382,59.4266,90.4353],[10.3356,59.4355,115.4539],[10.3444,59.4361,101.7197],[10.3431,59.4406,94.1111],[10.3606,59.4419,64.8835],[10.3593,59.4463,62.4128],[10.3682,59.447,73.4537]]],
[[[10.3631,59.5029,2.7408],[10.3619,59.5018,1.8923],[10.3669,59.4985,0.4963],[10.3819,59.4918,0.0],[10.3819,59.4901,0.0],[10.3869,59.4888,-28.5],[10.3986,59.4813,0.0],[10.4003,59.4821,0.2431],[10.4008,59.484,0.0],[10.3964,59.4863,-17.5122],[10.3969,59.4876,0.0],[10.3936,59.4885,-12.9865],[10.3819,59.4968,6.3883],[10.3769,59.4979,2.5402],[10.3708,59.5018,5.8331],[10.3631,59.5029,2.7408]]]]}}