{"type":"Feature","properties":{"GID_2":"NOR.14.22_1","GID_0":"NOR","country":"Norway","GID_1":"NOR.14_1","province":"SognogFjordane","NL_NAME_1":"NA","county":"Sogndal","VARNAME_2":"NA","NL_NAME_2":"NA","TYPE_2":"Kommuner","ENGTYPE_2":"Municipality","CC_2":"NA","HASC_2":"NO.SF.SG","name":"Sogndal.county"},
"geometry":{"type": "MultiPolygon","coordinates": [[[[7.0312,61.1875,0.0],[7.0328,61.188,0.0],[7.0328,61.1891,0.0],[7.0297,61.1891,0.0],[7.0312,61.1875,0.0]]],
[[[6.7978,61.31,1547.072],[6.8044,61.2945,1524.9003],[6.8136,61.2954,1487.9026],[6.8155,61.291,1483.5691],[6.8338,61.2928,1338.7454],[6.8319,61.2972,1307.4335],[6.8687,61.3007,1442.8561],[6.8668,61.3051,1445.611],[6.8852,61.3069,1319.0385],[6.887,61.3025,1353.0065],[6.8962,61.3034,1277.1748],[6.8981,61.299,1343.9288],[6.9073,61.2999,1343.4871],[6.9128,61.2867,1155.3058],[6.9036,61.2858,1182.4879],[6.9074,61.277,989.184],[6.8982,61.2761,983.7923],[6.9,61.2717,974.7326],[6.9276,61.2744,895.8901],[6.9294,61.27,875.53],[6.9386,61.2709,911.9217],[6.946,61.2533,901.9456],[6.9368,61.2524,826.192],[6.9387,61.248,899.0261],[6.9203,61.2462,799.4559],[6.9278,61.2287,640.7245],[6.9186,61.2278,714.252],[6.9223,61.219,709.8446],[6.9131,61.2181,690.9376],[6.9242,61.1917,788.6359],[6.9151,61.1908,722.0184],[6.9169,61.1864,803.2471],[6.8986,61.1847,668.4668],[6.9005,61.1803,669.4617],[6.8913,61.1794,574.258],[6.8948,61.1711,0.0],[6.9005,61.1672,0.0],[6.9078,61.1661,202.906],[6.9125,61.1604,0.0],[6.9333,61.1604,7.3443],[6.9375,61.1583,0.0],[6.9438,61.1583,0.0],[6.9521,61.1625,0.0],[6.9563,61.1625,12.5198],[6.9688,61.1583,0.0],[6.9813,61.1583,0.0],[6.9854,61.1563,0.0],[6.9953,61.1589,21.6937],[6.9979,61.1625,0.0],[6.9984,61.1703,0.0],[7.0036,61.1714,0.0],[7.0167,61.1792,0.0],[7.0224,61.1776,0.0],[7.0255,61.1911,0.0],[7.0391,61.1922,0.0],[7.0359,61.1953,0.0],[7.0458,61.1958,0.0],[7.0578,61.2005,0.0],[7.0589,61.2036,0.0],[7.062,61.2047,0.0],[7.0646,61.2083,18.591],[7.0833,61.2083,0.0],[7.0953,61.213,0.0],[7.0995,61.2151,0.0],[7.1005,61.2203,0.0],[7.1057,61.2214,0.0],[7.1068,61.2286,0.0],[7.1104,61.2313,0.0],[7.1203,61.2307,0.0],[7.1245,61.2286,0.0],[7.1266,61.2245,11.0465],[7.1229,61.2208,0.0],[7.1266,61.2172,39.1784],[7.1214,61.2161,0.0],[7.1203,61.213,0.0],[7.1172,61.212,0.0],[7.1214,61.2089,0.0],[7.1521,61.2083,43.1282],[7.1604,61.2042,0.0],[7.1703,61.2036,18.0875],[7.1703,61.2005,0.0],[7.1667,61.1979,162.4503],[7.1625,61.1979,122.4082],[7.1583,61.2,0.0],[7.0979,61.2,0.0],[7.0938,61.1979,71.1438],[7.0896,61.1979,89.5447],[7.0854,61.2,0.0],[7.0734,61.1953,0.0],[7.0708,61.1917,22.9506],[7.0479,61.1917,0.0],[7.038,61.1891,0.0],[7.0411,61.1859,54.3866],[7.0318,61.1828,0.0],[7.0313,61.1813,0.0],[7.0349,61.1786,14.1855],[7.0349,61.1734,145.9186],[7.0172,61.1724,0.0],[7.0203,61.1703,0.0],[7.0203,61.1672,59.2257],[7.0182,61.1651,163.766],[7.0109,61.1641,0.0],[7.0099,61.1589,48.3255],[7.0005,61.1557,0.0],[6.9995,61.1526,12.9225],[6.9917,61.1521,0.0],[6.9875,61.15,0.0],[6.9792,61.15,0.0],[6.975,61.1521,0.0],[6.9583,61.1521,35.599],[6.9526,61.1484,162.9718],[6.9625,61.1479,184.1068],[6.9641,61.1464,266.7899],[6.9563,61.1437,571.9454],[6.9479,61.1437,494.6429],[6.9438,61.1417,521.046],[6.9318,61.1411,144.18],[6.9432,61.1328,145.1355],[6.9422,61.1297,48.3005],[6.9495,61.1286,176.4169],[6.9464,61.1255,126.7915],[6.9495,61.1245,253.317],[6.9495,61.1214,237.6197],[6.9443,61.1203,86.1114],[6.9474,61.1182,211.0522],[6.9438,61.1146,17.5572],[6.9458,61.1125,0.0],[6.9542,61.1125,0.0],[6.9583,61.1146,71.6739],[6.9625,61.1146,192.5563],[6.975,61.1104,0.0],[6.9792,61.1104,26.0023],[6.9875,61.1063,28.383],[6.9958,61.1063,0.0],[6.9974,61.1068,0.0],[7.0,61.1125,0.0],[7.0005,61.1203,0.0],[7.0099,61.1234,0.0],[7.0125,61.1271,60.6622],[7.0328,61.1297,0.0],[7.0417,61.1354,35.7796],[7.0458,61.1333,0.0],[7.0583,61.1375,37.2793],[7.0625,61.1375,10.6485],[7.0667,61.1354,0.0],[7.0792,61.1354,17.8747],[7.0833,61.1333,0.0],[7.0875,61.1333,0.0],[7.0917,61.1354,0.0],[7.1063,61.1354,0.0],[7.1146,61.1396,95.4087],[7.1333,61.1396,0.0],[7.1458,61.1437,0.0],[7.1542,61.1437,0.0],[7.1583,61.1417,0.0],[7.1729,61.1417,0.0],[7.1786,61.1443,0.0],[7.1755,61.1464,28.3371],[7.1766,61.1516,0.0],[7.1734,61.1526,14.251],[7.1734,61.1578,11.0481],[7.1828,61.1609,0.0],[7.1839,61.1641,12.9355],[7.188,61.1661,0.0],[7.1958,61.1667,0.0],[7.2,61.1688,49.5822],[7.2042,61.1667,0.0],[7.2167,61.1667,0.0],[7.2208,61.1688,32.4888],[7.2411,61.1693,0.0],[7.2458,61.1729,81.4708],[7.2432,61.1807,0.0],[7.2401,61.1818,3.0542],[7.2417,61.1833,0.0],[7.2599,61.1807,21.6445],[7.2589,61.1693,56.8369],[7.2854,61.1625,21.2883],[7.3063,61.1604,12.2529],[7.3104,61.1583,0.0],[7.3313,61.1583,53.5053],[7.3401,61.1641,130.9134],[7.3583,61.1667,44.071],[7.3714,61.1724,93.0838],[7.3786,61.1734,0.0],[7.3849,61.1776,29.4285],[7.3806,61.1808,287.5661],[7.3671,61.179,487.7546],[7.3654,61.1834,536.445],[7.347,61.1817,610.4116],[7.3435,61.1905,685.301],[7.3343,61.1896,679.8574],[7.3307,61.1984,742.0961],[7.3216,61.1976,687.5906],[7.3054,61.2372,1024.755],[7.3146,61.238,755.2442],[7.3092,61.2512,962.6771],[7.3,61.2504,1049.4187],[7.2982,61.2548,1018.1052],[7.289,61.2539,1094.2345],[7.2872,61.2583,1015.8773],[7.278,61.2575,948.1663],[7.2762,61.2619,927.3015],[7.2671,61.261,959.4724],[7.2653,61.2654,940.2374],[7.2561,61.2645,984.0361],[7.2543,61.2689,966.4611],[7.2451,61.2681,992.8999],[7.2415,61.2769,942.7888],[7.2323,61.276,1012.8629],[7.2305,61.2804,943.816],[7.2121,61.2787,817.3543],[7.2029,61.2778,776.2369],[7.2047,61.2734,670.0934],[7.1864,61.2717,526.8322],[7.1809,61.2849,268.6692],[7.1717,61.284,254.1243],[7.1699,61.2884,224.5465],[7.1607,61.2875,164.6083],[7.1589,61.2919,221.0089],[7.1038,61.2867,760.5313],[7.102,61.2911,723.4874],[7.0836,61.2893,832.5306],[7.0818,61.2937,773.634],[7.0726,61.2929,842.6996],[7.0671,61.3061,688.293],[7.0579,61.3052,807.517],[7.0561,61.3096,843.7825],[7.0469,61.3087,889.022],[7.0432,61.3175,900.5665],[7.034,61.3166,954.9491],[7.0303,61.3254,1082.6299],[7.0395,61.3263,955.0322],[7.0377,61.3307,973.1852],[7.0469,61.3316,882.8131],[7.0432,61.3404,934.8721],[7.034,61.3395,1062.507],[7.0284,61.3527,1080.6523],[7.01,61.3509,1055.7855],[7.0082,61.3553,964.7048],[6.9898,61.3536,1230.2939],[6.9879,61.358,1279.1169],[6.9695,61.3562,1279.465],[6.9677,61.3606,1297.1073],[6.9585,61.3597,1408.451],[6.9566,61.3641,1456.3643],[6.9474,61.3632,1493.5378],[6.9381,61.3852,1512.5912],[6.9474,61.3861,1473.4811],[6.9418,61.3993,1223.0],[6.951,61.4002,1343.2998],[6.9491,61.4046,1276.8871],[6.9583,61.4054,1533.6544],[6.9565,61.4098,1444.2499],[6.938,61.4081,1232.4221],[6.9362,61.4125,1308.494],[6.9085,61.4098,1470.9314],[6.9067,61.4142,1440.9921],[6.8882,61.4124,1525.6582],[6.8864,61.4168,1487.8673],[6.8772,61.4159,1554.8],[6.879,61.4115,1537.5237],[6.8606,61.4098,1497.8335],[6.8625,61.4054,1286.7993],[6.8533,61.4045,1454.08],[6.8589,61.3913,1391.472],[6.8497,61.3904,1364.1609],[6.8516,61.386,1274.9573],[6.8424,61.3851,1273.0756],[6.8442,61.3807,1343.4482],[6.835,61.3798,1292.1488],[6.8388,61.371,1367.9661],[6.8296,61.3701,1586.3694],[6.8333,61.3614,1402.9447],[6.8241,61.3605,1521.4454],[6.826,61.3561,1514.5771],[6.8168,61.3552,1461.5277],[6.8187,61.3508,1339.4609],[6.8095,61.3499,1145.6487],[6.8114,61.3455,1098.946],[6.8022,61.3446,1124.9077],[6.804,61.3402,1470.033],[6.7949,61.3393,1447.3622],[6.8061,61.3129,1434.2118],[6.7969,61.312,1578.3573],[6.7978,61.31,1547.072]]]]}}