{"type": "Feature","bbox": [10.0322,59.5126,10.38,59.6714],"geometry": {"type": "MultiPolygon","coordinates": [[[[10.3397,59.5271,0.0],[10.3381,59.5274,0.0],[10.3375,59.5235,5.5433],[10.3397,59.5213,4.3671],[10.3569,59.5126,0.0],[10.3569,59.5185,23.0176],[10.3525,59.5229,0.8986],[10.3397,59.5271,0.0]]],
[[[10.3325,59.5268,1.0526],[10.3292,59.5274,0.0],[10.3275,59.5265,3.1787],[10.3275,59.5243,0.0],[10.3364,59.5196,0.902],[10.3353,59.5243,0.0],[10.3325,59.5268,1.0526]]],
[[[10.3286,59.5179,2.0474],[10.3264,59.5171,0.0],[10.3303,59.5135,0.0],[10.3303,59.5151,3.1919],[10.3286,59.5179,2.0474]]],
[[[10.3103,59.5346,10.7823],[10.3064,59.5354,10.7823],[10.3136,59.5249,0.0],[10.3208,59.5193,13.6227],[10.3214,59.5157,0.0],[10.3247,59.5151,0.0],[10.3242,59.524,2.631],[10.3175,59.5274,0.0],[10.3153,59.5315,2.6858],[10.3103,59.5346,10.7823]]],
[[[10.0496,59.6452,519.4092],[10.0322,59.6439,489.5837],[10.0388,59.6217,401.4854],[10.0476,59.6224,405.2458],[10.049,59.618,300.53],[10.0578,59.6186,442.8229],[10.0591,59.6142,356.1237],[10.0679,59.6149,429.6066],[10.0692,59.6104,263.8368],[10.0868,59.6118,337.2837],[10.0881,59.6073,286.9233],[10.0969,59.608,285.8685],[10.0995,59.5991,233.9482],[10.1083,59.5998,289.7659],[10.1109,59.5909,265.2837],[10.1197,59.5916,287.0443],[10.1237,59.5783,135.6685],[10.1325,59.579,257.7943],[10.1338,59.5745,287.4642],[10.1425,59.5752,367.2384],[10.1439,59.5707,329.6531],[10.1526,59.5714,309.348],[10.154,59.567,210.41],[10.1715,59.5683,252.6591],[10.1728,59.5639,203.331],[10.1816,59.5645,208.141],[10.1881,59.5423,288.4067],[10.1969,59.543,345.3187],[10.1982,59.5386,169.0924],[10.207,59.5392,185.1576],[10.2083,59.5348,214.8085],[10.217,59.5355,222.5428],[10.2183,59.531,222.2488],[10.2447,59.533,210.8191],[10.2434,59.5374,181.2367],[10.2569,59.5385,0.0],[10.2503,59.5476,0.0],[10.2397,59.5507,8.8965],[10.2386,59.5563,11.3256],[10.2419,59.5557,2.2842],[10.2442,59.5571,4.3679],[10.2381,59.5593,3.2028],[10.2353,59.5649,0.0],[10.2314,59.5649,8.7549],[10.2303,59.5665,3.1209],[10.2308,59.5693,1.7441],[10.2436,59.5729,0.9369],[10.2475,59.5707,13.4177],[10.2464,59.5699,0.2241],[10.2525,59.5612,0.0],[10.2597,59.5607,0.0],[10.2592,59.5624,3.7437],[10.2664,59.5626,0.1713],[10.2819,59.5513,1.2345],[10.2864,59.5513,1.0393],[10.3019,59.5424,1.2556],[10.3203,59.5379,0.901],[10.3353,59.5313,0.0569],[10.3492,59.5326,1.0992],[10.3608,59.5288,16.2394],[10.3692,59.531,6.8274],[10.38,59.5299,0.0],[10.3788,59.5339,56.5771],[10.37,59.5333,22.3126],[10.3688,59.5377,53.1139],[10.36,59.5371,93.7902],[10.3574,59.546,154.6013],[10.3486,59.5453,190.0596],[10.3293,59.6119,283.9713],[10.3381,59.6126,273.8068],[10.3278,59.6481,281.4615],[10.319,59.6474,241.993],[10.3151,59.6607,233.7961],[10.3063,59.6601,233.9684],[10.3037,59.669,210.5],[10.2773,59.667,221.8159],[10.276,59.6714,198.2344],[10.1791,59.6642,265.0244],[10.1778,59.6686,263.1777],[10.1426,59.6659,248.5047],[10.1413,59.6704,333.0798],[10.1061,59.6677,364.9243],[10.1074,59.6633,372.4403],[10.0986,59.6626,386.5852],[10.1012,59.6537,446.2376],[10.0924,59.653,490.8771],[10.0951,59.6442,462.4644],[10.0511,59.6408,522.5766],[10.0496,59.6452,519.4092]]]]}
,"properties": {"GID_2": "NOR.19.9_1","GID_0": "NOR","country": "Norway","GID_1": "NOR.19_1","province": "Vestfold","NL_NAME_1": "NA","county": "Sande","VARNAME_2": "NA","NL_NAME_2": "NA","TYPE_2": "Kommuner","ENGTYPE_2": "Municipality","CC_2": "NA","HASC_2": "NO.VF.SA","name": "Sande.county","area_km2": 179.0672,"hist_schema_id": "Elevation0-9000","hist_area_km2": {"0": 10.7493,"25": 14.5664,"50": 13.4221,"75": 13.2762,"100": 10.5429,"125": 7.9067,"150": 8.3687,"175": 10.5902,"200": 12.9154,"225": 12.2065,"250": 11.9063,"275": 10.1573,"300": 6.4234,"325": 4.728,"350": 4.4387,"375": 2.6263,"400": 3.6972,"425": 3.6225,"450": 5.895,"475": 4.7264,"500": 3.29,"525": 2.0685,"550": 0.8681,"575": 0.075}}}