{"type":"Feature","properties":{"GID_2":"NOR.14.25_1","GID_0":"NOR","country":"Norway","GID_1":"NOR.14_1","province":"SognogFjordane","NL_NAME_1":"NA","county":"Vågsøy","VARNAME_2":"NA","NL_NAME_2":"NA","TYPE_2":"Kommuner","ENGTYPE_2":"Municipality","CC_2":"NA","HASC_2":"NO.SF.VA","name":"Vågsøy.county"},
"geometry":{"type": "MultiPolygon","coordinates": [[[[5.2039,61.8827,0.0],[5.2077,61.8832,10.3042],[5.2091,61.8833,10.3042],[5.2028,61.8829,6.9096],[5.2039,61.8827,0.0]]],
[[[5.476,61.9761,357.6863],[5.4496,61.9733,561.6673],[5.4411,61.9908,434.5243],[5.3944,61.9859,245.5],[5.3965,61.9815,328.89],[5.3872,61.9805,245.2759],[5.3893,61.9761,297.8476],[5.3706,61.9742,407.9431],[5.3728,61.9698,409.1473],[5.3634,61.9688,442.5],[5.3655,61.9644,457.1073],[5.3469,61.9624,442.6247],[5.3533,61.9493,293.5025],[5.3439,61.9483,394.1904],[5.3482,61.9396,256.7769],[5.3016,61.9346,335.2404],[5.2994,61.939,243.5371],[5.2901,61.938,273.3345],[5.288,61.9424,300.6656],[5.2787,61.9414,478.9205],[5.2722,61.9545,176.6102],[5.2349,61.9505,293.8433],[5.2328,61.9549,218.2724],[5.2234,61.9539,401.235],[5.212,61.9771,0.0],[5.1964,61.9766,0.0],[5.2036,61.9724,0.0],[5.2047,61.963,0.0],[5.2078,61.962,105.7899],[5.2057,61.9568,0.0],[5.1984,61.9547,0.0],[5.1979,61.9604,0.0],[5.1995,61.9641,0.0],[5.1964,61.9651,35.8821],[5.1953,61.9724,0.0],[5.188,61.9776,73.2861],[5.1901,61.9807,0.0],[5.1932,61.9818,0.0],[5.1932,61.9849,16.3213],[5.1729,61.9854,71.6476],[5.163,61.9828,0.0],[5.162,61.9797,101.9497],[5.1568,61.9786,0.0],[5.1563,61.9688,0.0],[5.1542,61.9646,0.0],[5.1578,61.962,0.0],[5.1578,61.9568,17.3547],[5.1484,61.9536,0.0],[5.1474,61.9464,0.0],[5.1422,61.9432,0.0],[5.1411,61.938,0.0],[5.138,61.937,9.7661],[5.1349,61.9318,0.0],[5.1276,61.9307,21.0984],[5.125,61.9208,34.201],[5.1297,61.9172,0.0],[5.137,61.9161,0.0],[5.1396,61.9125,3.008],[5.1438,61.9167,5.28],[5.1625,61.9167,1.6029],[5.1667,61.9146,0.0],[5.1708,61.9146,0.0],[5.175,61.9167,4.9048],[5.1807,61.9162,0.0],[5.1849,61.913,0.0],[5.1667,61.9125,0.0],[5.1625,61.9104,37.0335],[5.1563,61.9125,0.0],[5.15,61.9104,21.1904],[5.163,61.9005,0.0],[5.1729,61.9,100.8376],[5.1771,61.8958,5.3109],[5.1854,61.8958,0.0],[5.1896,61.8979,0.0],[5.1974,61.8984,0.0],[5.2016,61.9005,7.1896],[5.2026,61.9036,63.8507],[5.212,61.9068,0.0],[5.213,61.9099,41.4935],[5.2188,61.9125,0.0],[5.2417,61.9104,0.0],[5.2458,61.9083,0.0],[5.25,61.9104,0.0],[5.2542,61.9083,0.0],[5.2583,61.9104,0.0],[5.2667,61.9104,0.0],[5.2708,61.9083,0.0],[5.2854,61.9125,14.4077],[5.2896,61.9125,0.0],[5.2938,61.9104,0.0],[5.2979,61.9125,0.0],[5.3083,61.9125,20.1811],[5.3208,61.9083,0.0],[5.325,61.9083,0.0],[5.3438,61.9146,0.0],[5.3578,61.9151,0.0],[5.3609,61.9182,0.0],[5.3734,61.9245,0.0],[5.387,61.9255,0.0],[5.3911,61.9276,0.0],[5.3938,61.9313,0.0],[5.4,61.9292,26.1726],[5.4083,61.9292,0.0],[5.4099,61.9307,0.0],[5.4068,61.9318,0.0],[5.4083,61.9333,0.0],[5.4125,61.9333,0.0],[5.4167,61.9354,0.0],[5.4271,61.9354,13.2869],[5.4313,61.9375,0.0],[5.4417,61.9375,0.0],[5.4458,61.9396,14.9459],[5.4557,61.937,0.0],[5.4505,61.9349,0.0],[5.45,61.9333,0.0],[5.4505,61.9318,6.7054],[5.4589,61.9276,25.5954],[5.4719,61.9272,0.0],[5.4707,61.9296,165.8884],[5.4801,61.9306,208.3052],[5.4779,61.935,212.3551],[5.4966,61.9369,155.8642],[5.4945,61.9413,283.2759],[5.5038,61.9423,278.642],[5.5017,61.9467,167.4305],[5.5391,61.9506,393.4632],[5.537,61.9549,493.4425],[5.565,61.9579,659.5368],[5.5629,61.9623,659.0283],[5.5535,61.9613,401.5],[5.5493,61.97,336.0],[5.54,61.9691,363.2535],[5.5379,61.9734,372.082],[5.5285,61.9724,314.0795],[5.5264,61.9768,299.599],[5.5171,61.9758,204.6939],[5.515,61.9802,204.0],[5.476,61.9761,357.6863]]],
[[[5.1893,62.0097,42.4304],[5.1917,62.0083,2.4357],[5.1974,62.0089,1.5657],[5.2078,62.0151,0.0],[5.2078,62.0182,1.6139],[5.2021,62.0187,0.0],[5.1979,62.0167,3.2732],[5.1859,62.0161,0.0],[5.1859,62.0109,6.4346],[5.1893,62.0097,42.4304]]],
[[[5.0375,61.9188,0.0],[5.0313,61.9208,0.0],[5.0167,61.9208,67.2565],[5.0151,61.9203,57.6326],[5.013,61.9109,4.4651],[5.0203,61.9099,11.1815],[5.0214,61.9068,0.0],[5.0255,61.9047,13.7607],[5.0328,61.9036,11.177],[5.0422,61.8984,0.0],[5.0521,61.8958,0.0],[5.0563,61.8979,0.0],[5.0625,61.8979,0.0],[5.075,61.8937,0.0],[5.0792,61.8958,3.2446],[5.0979,61.8958,6.1419],[5.1021,61.8937,0.0],[5.1146,61.8937,0.0],[5.1255,61.888,41.4957],[5.1354,61.8875,64.9779],[5.1396,61.8854,0.0],[5.1521,61.8854,11.6299],[5.1563,61.8833,25.7576],[5.1599,61.8859,27.7948],[5.1542,61.8896,0.0],[5.1438,61.8896,35.5776],[5.1339,61.8922,0.0],[5.1328,61.8953,0.0],[5.1255,61.8964,0.0],[5.1146,61.9021,0.0],[5.1089,61.9026,39.6242],[5.1,61.9083,0.0],[5.0938,61.9083,10.3882],[5.0813,61.9125,11.9852],[5.0729,61.9125,6.7404],[5.0688,61.9104,53.7499],[5.0646,61.9104,111.4252],[5.0563,61.9146,90.1126],[5.0375,61.9188,0.0]]],
[[[5.1464,61.9109,0.0],[5.1479,61.9104,0.0],[5.15,61.9104,21.1904],[5.1479,61.9125,0.0],[5.1464,61.9109,0.0]]],
[[[5.0042,62.0313,9.5912],[5.0,62.0313,28.3715],[4.9958,62.0333,0.0],[4.9901,62.0328,65.7049],[4.9932,62.0307,24.4909],[4.9917,62.0271,0.0],[4.9917,62.0187,240.7336],[4.9911,62.0172,308.6202],[4.9859,62.0161,211.8389],[4.9854,62.0146,180.6251],[4.9859,62.0089,105.4544],[4.9932,62.0036,148.6288],[4.9922,62.0005,0.0],[4.9953,61.9995,84.0224],[4.9953,61.9964,171.43],[4.9922,61.9943,134.4348],[4.9953,61.9932,261.5329],[4.9964,61.9901,0.0],[5.0104,61.9854,0.0],[5.0146,61.9875,84.7805],[5.0271,61.9875,25.6999],[5.0313,61.9854,0.0],[5.0458,61.9854,0.0],[5.05,61.9833,0.0],[5.0542,61.9833,0.0],[5.0563,61.9813,0.0],[5.0547,61.9755,0.0],[5.0578,61.9745,169.7556],[5.0589,61.9714,0.0],[5.0646,61.9708,0.0],[5.0667,61.9688,0.0],[5.0661,61.963,0.0],[5.0609,61.962,16.561],[5.0557,61.9547,32.5942],[5.0479,61.95,0.0],[5.0458,61.9521,0.0],[5.0474,61.9578,0.0],[5.0443,61.9589,10.6183],[5.0417,61.9625,9.4612],[5.0375,61.9604,227.3484],[5.0297,61.9599,102.0485],[5.0214,61.9557,154.7748],[5.0203,61.9526,229.2607],[5.0146,61.9479,174.0882],[5.0151,61.9443,61.5567],[5.0182,61.9432,194.0775],[5.0193,61.9401,9.8914],[5.0349,61.937,15.0307],[5.0375,61.9333,29.4499],[5.0417,61.9354,0.0],[5.05,61.9313,2.075],[5.0583,61.9313,0.0],[5.0667,61.9271,21.6546],[5.0708,61.9271,0.0],[5.075,61.9292,0.0],[5.0792,61.925,0.0],[5.0938,61.9229,0.0],[5.1021,61.9271,104.2212],[5.1182,61.9276,4.8849],[5.1182,61.9307,0.0],[5.1151,61.9318,0.0],[5.1151,61.9349,1.2766],[5.1182,61.9359,0.0],[5.1193,61.9391,4.0908],[5.1286,61.9401,0.0],[5.1339,61.9474,0.0],[5.1391,61.9484,0.0],[5.1401,61.9557,68.7743],[5.1453,61.9568,0.0],[5.1453,61.9641,0.0],[5.1417,61.9667,0.0],[5.1432,61.9724,2.1509],[5.1359,61.9776,0.0],[5.1354,61.9833,1.9589],[5.1375,61.9854,4.6623],[5.1438,61.9833,0.0],[5.1536,61.9859,0.0],[5.1563,61.9979,0.0],[5.1557,61.9995,0.0],[5.1443,62.0047,0.0],[5.1432,62.0099,0.0],[5.138,62.013,0.0],[5.137,62.0203,0.0],[5.1255,62.0255,10.594],[5.1245,62.0286,88.0142],[5.1214,62.0286,55.1075],[5.1203,62.0255,131.9811],[5.113,62.0245,8.7508],[5.1109,62.0224,0.0],[5.1099,62.0172,0.0],[5.1083,62.0167,0.0],[5.0839,62.0161,6.621],[5.087,62.0141,16.2185],[5.088,62.0109,0.0],[5.0938,62.0104,0.0],[5.0953,62.0089,25.8211],[5.0922,62.0078,7.6963],[5.0896,62.0042,0.0],[5.0792,62.0042,0.0],[5.0693,62.0068,8.8167],[5.0682,62.0099,0.0],[5.0599,62.0141,0.0],[5.0484,62.0151,145.5881],[5.0474,62.0182,0.0],[5.0349,62.0245,122.4943],[5.0208,62.025,35.83],[5.0109,62.0276,72.8968],[5.0099,62.0307,0.0],[5.0042,62.0313,9.5912]]]]}}