{"type": "Feature","bbox": [14.7734,68.5321,15.7928,68.8807],"geometry": {"type": "MultiPolygon","coordinates": [[[[15.5813,68.6208,0.0],[15.5797,68.6203,0.0],[15.5797,68.6193,0.0],[15.5828,68.6193,0.8271],[15.5813,68.6208,0.0]]],
[[[15.5229,68.6292,0.0],[15.5214,68.6276,17.1578],[15.5266,68.6276,45.1249],[15.5266,68.6286,23.0281],[15.5229,68.6292,0.0]]],
[[[15.4828,68.638,8.6173],[15.4818,68.6359,0.0],[15.4833,68.6354,0.0],[15.4917,68.6354,0.0],[15.4995,68.6391,0.0],[15.4938,68.6417,3.6899],[15.4854,68.6417,6.6986],[15.4828,68.638,8.6173]]],
[[[15.4599,68.6495,0.0],[15.4625,68.6458,0.0],[15.475,68.6458,0.0],[15.4786,68.6484,0.0],[15.4729,68.6521,0.0],[15.4568,68.6516,0.0],[15.4599,68.6495,0.0]]],
[[[15.6844,68.8136,2.3657],[15.6583,68.8125,6.0741],[15.6542,68.8146,0.0],[15.6479,68.8146,0.0],[15.6438,68.8167,0.0],[15.6292,68.8187,0.0],[15.625,68.8208,0.0],[15.6188,68.8187,3.6372],[15.6,68.8187,4.4162],[15.5958,68.8208,0.0],[15.5792,68.8229,3.493],[15.575,68.825,0.0],[15.5563,68.825,2.4374],[15.5521,68.8229,0.0],[15.5396,68.8229,-0.7833],[15.5339,68.8255,0.0],[15.5313,68.8292,0.0],[15.525,68.8292,0.0],[15.5188,68.8271,2.3733],[15.5125,68.8292,0.0249],[15.5047,68.8255,0.0],[15.5125,68.825,-0.4371],[15.5167,68.8229,0.0],[15.5349,68.8224,0.0],[15.5318,68.8151,0.0],[15.5349,68.8141,0.0],[15.5339,68.8109,0.0],[15.537,68.8099,0.0],[15.537,68.8068,0.0],[15.5255,68.8068,13.3604],[15.5266,68.8099,0.0],[15.5125,68.8167,0.0],[15.4979,68.8125,26.4002],[15.4917,68.8125,2.3161],[15.4875,68.8146,0.0],[15.4797,68.8151,0.0],[15.4729,68.8187,0.0],[15.4693,68.8182,0.0],[15.4682,68.8151,0.1075],[15.4609,68.8141,0.7496],[15.4583,68.8104,0.0],[15.4589,68.8089,0.0],[15.4703,68.8037,0.0],[15.463,68.7932,0.0],[15.4661,68.7901,0.0],[15.4609,68.788,0.0],[15.4786,68.7828,0.0],[15.4771,68.7792,0.0],[15.4807,68.7755,2.2812],[15.4708,68.7729,6.2758],[15.4609,68.7724,0.0],[15.4568,68.7651,0.0],[15.4599,68.7641,0.0],[15.4589,68.7609,0.0],[15.462,68.7599,0.0],[15.462,68.7568,0.0],[15.4563,68.7562,0.0],[15.4547,68.7547,0.0],[15.4729,68.7521,3.1744],[15.4771,68.75,0.0],[15.4891,68.7495,0.0],[15.4995,68.7453,0.0],[15.4984,68.7422,0.0],[15.5078,68.7412,6.441],[15.5068,68.738,0.0],[15.5182,68.7328,0.0],[15.5172,68.7297,0.0],[15.525,68.7271,0.0],[15.5349,68.7297,0.0],[15.5375,68.7333,0.0],[15.5479,68.7333,0.0],[15.5521,68.7354,0.0],[15.5604,68.7354,0.0],[15.5646,68.7375,0.0],[15.5792,68.7375,0.0],[15.5833,68.7396,8.5593],[15.5979,68.7396,0.0],[15.6083,68.7438,0.0],[15.6167,68.7438,0.0],[15.6208,68.7458,0.0],[15.6271,68.7438,0.0],[15.6458,68.7438,5.8033],[15.6474,68.7422,0.0],[15.6417,68.7354,0.0],[15.6495,68.7297,0.0],[15.6438,68.7292,0.0],[15.6422,68.7276,0.0],[15.6516,68.7266,0.0],[15.6526,68.7234,0.0],[15.6568,68.7214,0.0],[15.6641,68.7203,4.8505],[15.6734,68.7151,0.0],[15.6786,68.7141,24.5882],[15.6776,68.7109,0.0],[15.6849,68.7078,0.0],[15.6833,68.7063,0.0],[15.6734,68.7068,4.4897],[15.6609,68.713,0.0],[15.662,68.7161,0.0],[15.6526,68.7172,0.0],[15.6359,68.7255,0.0],[15.637,68.7286,0.0],[15.6339,68.7297,0.0],[15.6328,68.7328,0.0],[15.6229,68.7375,0.0],[15.6193,68.737,0.0],[15.6167,68.7333,196.9784],[15.588,68.7307,0.0],[15.5911,68.7276,77.1801],[15.5875,68.725,395.2686],[15.5813,68.7271,85.2389],[15.5625,68.7271,0.0],[15.5583,68.725,14.5615],[15.5333,68.725,0.0],[15.5292,68.7229,4.9009],[15.4979,68.7229,0.0],[15.4833,68.7271,0.0],[15.4604,68.7271,0.0],[15.4563,68.7292,0.0],[15.45,68.7292,0.0],[15.4453,68.7255,0.0],[15.4401,68.7245,0.0],[15.4432,68.7224,0.0],[15.4411,68.7193,0.8056],[15.4339,68.7182,0.0],[15.4339,68.7151,0.0],[15.437,68.713,0.0],[15.4339,68.7089,0.0],[15.4432,68.7057,7.117],[15.4401,68.7005,0.0],[15.4474,68.6974,0.0],[15.4484,68.6943,0.0],[15.451599999999999,68.6932,0.0],[15.4505,68.6901,0.0],[15.4703,68.6807,0.0],[15.4693,68.6755,0.0],[15.4724,68.6734,0.0],[15.4703,68.6693,0.0],[15.4682,68.6672,0.9679],[15.4609,68.6661,0.0],[15.4609,68.663,0.0],[15.4703,68.662,0.0],[15.4896,68.6521,0.7551],[15.4974,68.6516,1.804],[15.5016,68.6495,8.4733],[15.5005,68.6464,0.0],[15.5104,68.6417,0.0],[15.5604,68.6396,16.3144],[15.575,68.6354,0.0],[15.5813,68.6354,14.5194],[15.5828,68.6339,17.2584],[15.5797,68.6297,0.0],[15.5891,68.6286,10.2079],[15.588,68.6255,0.0],[15.5911,68.6245,22.7319],[15.5922,68.6214,0.0],[15.6,68.6208,4.7215],[15.6042,68.6188,3.0607],[15.6271,68.6188,0.0],[15.6286,68.6172,0.0],[15.6063,68.6146,0.0],[15.5979,68.6188,0.0],[15.5854,68.6188,4.8753],[15.5771,68.6125,13.4448],[15.5745,68.6162,0.0],[15.5714,68.6172,6.6991],[15.5724,68.6203,0.0],[15.5693,68.6214,8.9769],[15.5745,68.6307,0.0],[15.5625,68.6354,0.0],[15.5583,68.6333,23.6909],[15.5484,68.6328,0.0],[15.5516,68.6307,12.3622],[15.55,68.6292,12.564],[15.5339,68.6286,28.2489],[15.5354,68.6271,53.1876],[15.5411,68.6266,93.8906],[15.5411,68.6234,344.8205],[15.5375,68.6208,549.6623],[15.5208,68.625,174.2927],[15.5146,68.6208,543.8967],[15.4958,68.6208,514.7019],[15.4917,68.6229,369.4179],[15.4797,68.6234,224.8995],[15.4786,68.6266,10.2664],[15.4729,68.6292,0.0],[15.4563,68.6312,0.0],[15.45,68.6271,0.0],[15.4438,68.6292,0.0],[15.4339,68.6266,2.51],[15.4318,68.6214,0.0],[15.4411,68.6203,0.0],[15.4453,68.6182,0.0],[15.4443,68.6151,0.0],[15.4458,68.6146,0.0],[15.4599,68.6141,77.2076],[15.4724,68.6078,0.0],[15.4703,68.6047,0.0],[15.4667,68.6042,0.0],[15.4542,68.6083,0.0],[15.4479,68.6062,0.0],[15.4396,68.6062,0.0],[15.438,68.6078,24.1656],[15.4411,68.6109,0.0],[15.4411,68.6141,0.0],[15.4339,68.6151,0.0],[15.4313,68.6188,0.0],[15.4271,68.6188,13.2807],[15.4229,68.6208,0.0],[15.4146,68.6208,0.0],[15.4068,68.6182,0.0],[15.4016,68.613,14.8505],[15.3964,68.612,12.904],[15.3995,68.6099,0.0],[15.3974,68.6068,7.0949],[15.3859,68.6057,0.0],[15.3828,68.6005,6.3248],[15.3708,68.5979,0.0],[15.3625,68.6021,0.0],[15.3563,68.6021,2.9016],[15.3526,68.5995,6.4586],[15.3516,68.5964,0.0],[15.3396,68.5958,0.0],[15.3318,68.5932,7.1109],[15.3333,68.5917,77.359],[15.3396,68.5917,107.2385],[15.3453,68.5891,199.9895],[15.3438,68.5875,433.2434],[15.3354,68.5875,410.274],[15.3313,68.5896,172.8423],[15.3271,68.5896,136.1847],[15.3229,68.5938,0.0],[15.3089,68.5932,0.0],[15.3068,68.5911,0.0],[15.3068,68.588,0.0],[15.3349,68.5745,0.0],[15.3333,68.5729,0.0],[15.3243,68.5729,9.8216],[15.3251,68.5697,13.0866],[15.3373,68.57,0.0],[15.3382,68.5655,26.7904],[15.3504,68.5658,28.6183],[15.3514,68.5613,85.4465],[15.3636,68.5617,42.3963],[15.3645,68.5572,88.8761],[15.3767,68.5575,90.2537],[15.3776,68.553,88.692],[15.4143,68.554,103.7031],[15.4152,68.5495,300.76],[15.4274,68.5498,169.9297],[15.4283,68.5453,541.1277],[15.4405,68.5456,437.457],[15.4432,68.5321,497.528],[15.5287,68.5343,354.6844],[15.5278,68.5388,606.9777],[15.6133,68.541,666.4877],[15.609,68.5634,701.8412],[15.5968,68.5631,551.0074],[15.595,68.5721,630.2479],[15.644,68.5733,717.4763],[15.6422,68.5823,579.5062],[15.6545,68.5826,455.8718],[15.6536,68.5871,547.3447],[15.6659,68.5874,401.336],[15.6616,68.6099,275.0238],[15.6493,68.6096,261.6248],[15.645,68.6321,492.6325],[15.6573,68.6324,436.8347],[15.6564,68.6368,261.9312],[15.681,68.6374,736.5705],[15.6801,68.6419,787.8165],[15.6924,68.6422,596.4218],[15.6915,68.6467,540.4193],[15.7161,68.6473,472.0156],[15.7169,68.6428,558.8734],[15.7292,68.6431,623.4022],[15.73,68.6386,409.4506],[15.7423,68.6389,705.9385],[15.7415,68.6434,549.4461],[15.7537,68.6437,672.9112],[15.7529,68.6482,359.3412],[15.7652,68.6485,806.1827],[15.7635,68.6575,156.0495],[15.7758,68.6578,340.8606],[15.7749,68.6623,119.545],[15.7872,68.6626,177.4462],[15.7805,68.6985,311.5728],[15.7928,68.6988,376.739],[15.792,68.7033,333.6875],[15.7797,68.703,261.3474],[15.7788,68.7075,407.3074],[15.7419,68.7066,200.7593],[15.7411,68.7111,183.974],[15.7042,68.7102,419.347],[15.7033,68.7147,689.96],[15.691,68.7144,310.2819],[15.6901,68.7189,482.2637],[15.7025,68.7192,550.3026],[15.6956,68.7552,259.0156],[15.7079,68.7555,74.7765],[15.7028,68.7824,48.4091],[15.7152,68.7827,9.5311],[15.7117,68.8007,11.2266],[15.6994,68.8004,31.979],[15.6977,68.8094,3.7637],[15.6853,68.8091,7.1597],[15.6844,68.8136,2.3657]]],
[[[15.0208,68.675,0.0],[15.0194,68.6742,13.8813],[15.0246,68.6743,14.218],[15.0229,68.675,0.0],[15.0208,68.675,0.0]]],
[[[14.7863,68.6933,102.462],[14.7854,68.6886,0.0],[14.7734,68.6724,116.8241],[14.7769,68.6696,0.0],[14.7896,68.6875,3.6089],[14.7932,68.687,0.0],[14.7901,68.6797,0.0],[14.8,68.675,7.9779],[14.8078,68.6745,5.2532],[14.8068,68.6693,0.0],[14.8125,68.6667,0.0],[14.8271,68.6687,0.0],[14.8349,68.6713,0.0],[14.8396,68.675,0.8267],[14.8479,68.675,0.0],[14.8516,68.6776,0.0],[14.8557,68.6839,0.0],[14.8557,68.687,0.0],[14.8526,68.6891,0.0],[14.8547,68.6932,0.0],[14.8583,68.6958,0.0],[14.8661,68.6932,0.0],[14.8609,68.6911,0.0],[14.8589,68.688,0.0],[14.862,68.687,0.0],[14.8609,68.6839,0.0],[14.8641,68.6828,0.0],[14.8667,68.6792,0.0],[14.8854,68.6792,0.0],[14.8896,68.6813,0.0],[14.8958,68.6792,0.0],[14.9,68.6813,7.0565],[14.9083,68.6813,0.0],[14.9125,68.6833,6.6191],[14.9229,68.6833,0.0],[14.9245,68.6849,0.0],[14.9193,68.6859,14.2116],[14.9214,68.6891,0.0],[14.9328,68.6901,0.0],[14.9375,68.6958,0.0],[14.9339,68.6984,11.7756],[14.937,68.7037,0.0],[14.9276,68.7047,0.0],[14.9276,68.7078,11.8251],[14.9297,68.7099,7.8011],[14.9411,68.7099,13.5325],[14.9401,68.7068,0.0],[14.9474,68.7037,0.0],[14.9464,68.7005,0.0],[14.9479,68.7,0.0],[14.9578,68.7005,0.0],[14.9609,68.7037,0.0],[14.9661,68.7047,0.0],[14.9693,68.7099,1.633],[14.9729,68.7104,2.4857],[14.9745,68.7099,0.0],[14.9734,68.7068,0.0],[14.9786,68.7047,0.0],[14.9714,68.7037,0.0],[14.9729,68.7021,0.0],[14.9792,68.7021,2.1913],[14.9938,68.6979,0.0],[15.0,68.7,0.0],[15.0083,68.7,0.0],[15.0099,68.7016,7.1794],[15.0068,68.7037,0.0],[15.0182,68.7068,5.431],[15.0214,68.7099,0.0],[15.0286,68.7109,0.0],[15.0297,68.7141,0.0],[15.037,68.7151,0.0],[15.0339,68.7172,0.0],[15.0339,68.7203,3.4168],[15.0411,68.7214,0.0],[15.0443,68.7266,2.7003],[15.0667,68.7271,0.0],[15.0771,68.7312,0.0],[15.0828,68.7318,0.0],[15.087,68.738,0.0],[15.0854,68.7396,0.0],[15.0776,68.7401,0.0],[15.0708,68.7438,0.0],[15.0526,68.7464,0.0],[15.0536,68.7495,0.0],[15.0422,68.7578,0.0],[15.0563,68.7583,0.0],[15.0625,68.7562,0.0],[15.0688,68.7583,0.0],[15.0755,68.7547,0.0],[15.0833,68.7542,0.0],[15.0875,68.7521,0.0],[15.0953,68.7526,0.0],[15.0974,68.7547,0.0],[15.0943,68.7568,0.0],[15.0958,68.7583,0.0],[15.1021,68.7562,0.0],[15.1083,68.7562,0.0],[15.1125,68.7542,0.0],[15.1167,68.7562,0.0],[15.1313,68.7562,0.0],[15.1411,68.7536,0.0],[15.1396,68.7521,0.0],[15.1297,68.7516,0.0],[15.137,68.7474,0.0],[15.137,68.7443,0.0],[15.1339,68.7401,0.0],[15.137,68.738,0.0],[15.1255,68.737,0.0],[15.1234,68.7318,0.0],[15.139099999999999,68.7307,8.2678],[15.1359,68.7255,0.0],[15.1474,68.7203,0.0],[15.1464,68.7151,0.0],[15.1495,68.713,0.0],[15.1359,68.7099,0.0],[15.1349,68.7068,0.0],[15.1313,68.7042,3.8],[15.1276,68.7047,0.0],[15.1286,68.7078,1.3199],[15.1229,68.7104,0.0],[15.1167,68.7104,18.3709],[15.1125,68.7125,0.0],[15.1,68.7125,0.0],[15.0953,68.7089,12.5289],[15.0755,68.7037,0.0],[15.0786,68.7005,0.0],[15.0714,68.6995,0.0],[15.0703,68.6964,4.5615],[15.0604,68.6937,11.1765],[15.0505,68.6932,0.0],[15.0484,68.6901,0.0],[15.0516,68.6891,0.0],[15.0516,68.6859,12.3419],[15.0458,68.6854,0.0],[15.0443,68.6839,0.0],[15.05,68.6813,0.0],[15.0563,68.6813,0.0],[15.0578,68.6797,0.0],[15.05,68.6771,0.0],[15.0417,68.6792,5.0709],[15.0339,68.6766,0.0],[15.037,68.6734,0.0],[15.032,68.6729,0.0],[15.0327,68.6701,22.3075],[15.0449,68.6704,12.6343],[15.0479,68.6569,57.5],[15.0356,68.6566,130.4194],[15.0395,68.6386,134.2136],[15.0641,68.6393,534.8011],[15.0631,68.6438,324.1166],[15.0754,68.6442,498.0966],[15.0744,68.6487,622.8515],[15.0989,68.6493,388.4258],[15.0979,68.6538,165.229],[15.1347,68.6548,583.793],[15.1357,68.6504,375.9362],[15.148,68.6507,324.5148],[15.1509,68.6372,131.9265],[15.1631,68.6376,253.8138],[15.1641,68.6331,98.5501],[15.1763,68.6334,105.7905],[15.1773,68.6289,50.038],[15.1895,68.6293,29.4239],[15.1904,68.6251,6.0382],[15.2045,68.6303,8.2127],[15.2291,68.632,1.5817],[15.2393,68.6355,18.1481],[15.2622,68.6371,3.2672],[15.285,68.6462,4.8164],[15.318,68.6515,3.3207],[15.351,68.6628,5.559],[15.3792,68.6691,0.0],[15.3814,68.6708,0.0],[15.3797,68.6724,0.8941],[15.387,68.6734,0.0],[15.388,68.6766,0.3635],[15.4016,68.6797,0.0],[15.4068,68.6849,4.5964],[15.4167,68.6854,0.0],[15.4203,68.688,0.0],[15.4203,68.6911,2.0188],[15.4172,68.6932,5.7387],[15.4208,68.6979,0.0],[15.4172,68.7005,2.74],[15.4182,68.7037,0.0],[15.4151,68.7047,2.0843],[15.4161,68.7099,0.0],[15.413,68.7109,2.1492],[15.4161,68.7161,0.0],[15.4109,68.7172,2.2655],[15.412,68.7203,0.0],[15.4089,68.7214,0.0],[15.4099,68.7245,0.0],[15.4063,68.7271,0.0],[15.4078,68.7307,0.0],[15.3995,68.7349,0.0],[15.3917,68.7354,5.8932],[15.3859,68.738,18.782],[15.387,68.7412,0.0],[15.3828,68.7432,0.0],[15.375,68.7438,0.0],[15.3708,68.7458,0.0],[15.3583,68.7458,1.0744],[15.3542,68.7479,0.0],[15.3208,68.7479,2.2101],[15.3167,68.75,0.0],[15.3104,68.75,1.9635],[15.2958,68.7542,0.0],[15.2776,68.7547,0.0],[15.2854,68.7583,0.0599],[15.2938,68.7583,0.0],[15.2984,68.762,0.0],[15.3036,68.763,0.0],[15.3057,68.7662,0.0],[15.3026,68.7672,0.0],[15.3042,68.7708,0.0],[15.3005,68.7745,0.0],[15.3141,68.7755,0.0],[15.3182,68.7828,0.0],[15.3104,68.7833,3.5622],[15.3036,68.787,0.0],[15.2958,68.7875,65.4908],[15.2917,68.7896,9.7909],[15.2792,68.7896,34.0721],[15.2693,68.7943,10.8445],[15.2792,68.7979,0.0],[15.2979,68.7979,0.0],[15.3021,68.8,1.2417],[15.3083,68.7979,0.0],[15.3208,68.7979,3.4439],[15.325,68.7958,0.0],[15.3479,68.7958,0.0],[15.3521,68.7979,0.0],[15.3667,68.7979,0.0],[15.3745,68.8047,0.0],[15.3766,68.8089,0.0],[15.375,68.8104,0.0],[15.3609,68.8109,0.0],[15.363,68.8141,5.1565],[15.3682,68.8151,0.0],[15.3703,68.8172,0.0],[15.3672,68.8193,2.5248],[15.3693,68.8245,1.7242],[15.3828,68.8276,0.0],[15.3922,68.8391,0.0],[15.4063,68.8375,0.0],[15.4078,68.8391,0.0],[15.4047,68.8401,0.0],[15.4057,68.8432,0.0],[15.4042,68.8438,0.0],[15.3901,68.8443,6.2792],[15.3917,68.8458,0.0],[15.3974,68.8464,0.0],[15.3938,68.85,0.0],[15.3953,68.8536,0.0],[15.3911,68.8557,0.0],[15.3813,68.8562,0.0],[15.3771,68.8542,1.7954],[15.3646,68.8542,38.4409],[15.3547,68.8588,0.0],[15.3557,68.862,0.0],[15.3464,68.863,3.1157],[15.3453,68.8662,0.0],[15.3422,68.8672,0.0],[15.3432,68.8703,0.0],[15.3333,68.8708,2.8123],[15.3307,68.8672,0.0],[15.3234,68.8662,0.5068],[15.3234,68.863,0.0],[15.3266,68.8609,35.0696],[15.3224,68.8547,188.3536],[15.3104,68.8542,0.0],[15.3063,68.85,13.8883],[15.2901,68.8495,4.8018],[15.288,68.8464,0.0],[15.2911,68.8443,45.1036],[15.2818,68.8391,0.0],[15.2849,68.8359,76.6758],[15.275,68.8354,0.0],[15.2686,68.8327,16.925],[15.2588,68.8318,0.0],[15.2573,68.8341,0.0],[15.2586,68.8298,0.0],[15.2709,68.8302,96.4176],[15.2719,68.8257,345.0551],[15.2843,68.826,383.7579],[15.2852,68.8215,537.4369],[15.2728,68.8212,406.7682],[15.2738,68.8167,529.6953],[15.2614,68.8164,327.3852],[15.2624,68.8119,528.0118],[15.2377,68.8112,77.244],[15.2386,68.8067,185.5449],[15.2262,68.8064,229.1659],[15.2272,68.8019,260.3097],[15.2025,68.8012,148.8596],[15.2044,68.7923,342.6304],[15.1921,68.7919,145.2744],[15.194,68.7829,172.6059],[15.1446,68.7816,243.8193],[15.1437,68.7861,372.4648],[15.1313,68.7857,382.0207],[15.0943,68.7847,77.0491],[15.0953,68.7802,96.4602],[15.0706,68.7795,39.5854],[15.0696,68.784,25.3831],[15.0449,68.7834,19.796],[15.0459,68.7789,21.0888],[15.0336,68.7785,54.5119],[15.0355,68.7697,160.7253],[15.0321,68.7707,166.1738],[15.0232,68.7692,72.305],[15.0242,68.7647,0.0],[15.0119,68.7644,0.0],[15.0129,68.7599,67.588],[15.0006,68.7595,30.7443],[15.0016,68.755,141.0865],[14.9892,68.7547,29.4907],[14.9902,68.7502,122.382],[14.9163,68.7481,156.0006],[14.9204,68.7301,243.437],[14.9081,68.7298,52.8625],[14.9091,68.7253,122.7008],[14.8106,68.7224,9.0793],[14.8122,68.7155,0.0],[14.8044,68.7176,96.0339],[14.7958,68.7093,56.3161],[14.8037,68.7051,0.0],[14.8043,68.7014,15.1154],[14.7983,68.6986,39.052],[14.7873,68.6977,128.3345],[14.7863,68.6933,102.462]]],
[[[15.3328,68.7609,0.0],[15.3318,68.7589,0.0],[15.3333,68.7583,0.0],[15.337,68.7589,0.0],[15.3375,68.7604,0.0],[15.3354,68.7625,2.63],[15.3328,68.7609,0.0]]],
[[[15.4474,68.7807,0.0],[15.45,68.7771,0.0],[15.4641,68.7776,0.0],[15.4609,68.7797,0.0],[15.462,68.7828,0.0],[15.4604,68.7833,0.0],[15.4443,68.7828,0.0],[15.4474,68.7807,0.0]]],
[[[15.3505,68.8786,0.0],[15.3521,68.8771,0.0],[15.3557,68.8776,0.0],[15.3542,68.8792,0.0],[15.3505,68.8786,0.0]]],
[[[15.3464,68.8807,0.0],[15.3464,68.8797,0.0],[15.3495,68.8797,0.0],[15.3495,68.8807,0.0],[15.3464,68.8807,0.0]]]]}
,"properties": {"GID_2": "NOR.10.35_1","GID_0": "NOR","country": "Norway","GID_1": "NOR.10_1","province": "Nordland","NL_NAME_1": "NA","county": "Sortland","VARNAME_2": "NA","NL_NAME_2": "NA","TYPE_2": "Kommuner","ENGTYPE_2": "Municipality","CC_2": "NA","HASC_2": "NO.NO.SO","name": "Sortland.county","area_km2": 588.5067,"hist_schema_id": "Elevation0-9000","hist_area_km2": {"0": 70.6368,"25": 87.7167,"50": 43.4967,"75": 32.182,"100": 28.3719,"125": 25.3492,"150": 23.2921,"175": 22.0806,"200": 20.9197,"225": 19.7303,"250": 19.8207,"275": 18.3471,"300": 16.4786,"325": 17.0059,"350": 17.1658,"375": 15.6198,"400": 14.0806,"425": 13.2768,"450": 12.7877,"475": 10.5482,"500": 9.0817,"525": 8.1261,"550": 7.1781,"575": 6.3836,"600": 5.7829,"625": 4.8662,"650": 4.2502,"675": 3.2782,"700": 2.7687,"725": 2.4289,"750": 1.6557,"775": 1.3696,"800": 0.9054,"825": 0.557,"850": 0.4025,"875": 0.232,"900": 0.1546,"925": 0.0928,"950": 0.0542,"975": 0.0309}}}