{"type": "Feature","bbox": [5.4068,61.9579,5.8885,62.2013],"geometry": {"type": "MultiPolygon","coordinates": [[[[5.6152,62.1602,252.6313],[5.6171,62.1563,484.3898],[5.5889,62.1534,470.6389],[5.5952,62.1402,568.0113],[5.5671,62.1373,400.5203],[5.5649,62.1417,406.6473],[5.5555,62.1407,372.5],[5.5368,62.1387,415.8246],[5.5389,62.1344,416.7558],[5.5013,62.1304,467.0],[5.4992,62.1348,539.9619],[5.4616,62.1309,289.6029],[5.4595,62.1353,277.9031],[5.4501,62.1343,210.7875],[5.448,62.1386,241.3007],[5.4292,62.1367,211.1236],[5.4271,62.141,112.1432],[5.4177,62.1401,0.0],[5.4167,62.1422,0.0],[5.4161,62.1359,62.6413],[5.4068,62.1307,11.4056],[5.4099,62.1286,27.9159],[5.4109,62.1255,0.0],[5.4182,62.1245,87.5929],[5.4193,62.1214,0.0],[5.425,62.1208,47.3612],[5.4307,62.1182,49.1116],[5.4297,62.1151,0.0],[5.4328,62.1141,0.0],[5.4339,62.1089,0.0],[5.437,62.1078,6.8134],[5.438,62.1026,0.9568],[5.4396,62.1021,0.9568],[5.4437,62.1021,0.0],[5.4479,62.1,0.0],[5.4563,62.1,7.6251],[5.4604,62.0979,0.0],[5.4646,62.1,3.3269],[5.4875,62.1,0.0],[5.4917,62.1021,8.3453],[5.4958,62.1021,10.5053],[5.5,62.1,0.0],[5.5458,62.1,0.0],[5.55,62.0979,1.555],[5.5625,62.0979,0.0],[5.5651,62.0943,0.0],[5.5682,62.0932,0.0],[5.5672,62.088,0.0],[5.5755,62.0839,0.0],[5.5875,62.0833,1.8193],[5.5917,62.0812,0.0],[5.5958,62.0833,12.4748],[5.6057,62.0807,0.0],[5.6182,62.0745,0.0],[5.6172,62.0693,0.0],[5.6203,62.0682,0.0],[5.6203,62.0651,0.0],[5.613,62.062,0.0],[5.6109,62.0589,0.0],[5.6141,62.0578,0.0],[5.6151,62.0547,0.0],[5.6182,62.0526,0.0],[5.6125,62.05,0.0],[5.6099,62.0536,0.0],[5.6068,62.0547,0.0],[5.6057,62.0578,0.0],[5.6026,62.0589,0.0],[5.5995,62.0682,0.0],[5.5937,62.0708,22.5992],[5.5792,62.0729,0.0],[5.575,62.0687,0.0],[5.5667,62.0687,0.0],[5.55,62.0771,0.0],[5.5214,62.0745,4.6645],[5.5214,62.0714,0.0],[5.5245,62.0703,23.7276],[5.5229,62.0604,0.0],[5.5266,62.0578,67.3825],[5.5245,62.0443,14.3837],[5.5151,62.0432,0.0],[5.5141,62.0359,12.5853],[5.5089,62.0349,0.0],[5.5078,62.0297,0.0],[5.5025,62.0264,0.0],[5.5032,62.0249,6.3345],[5.4942,62.0229,3.5357],[5.5023,62.0065,184.3729],[5.5117,62.0074,455.8711],[5.5138,62.0031,325.2456],[5.4951,62.0011,245.401],[5.4972,61.9967,422.2285],[5.4598,61.9928,420.9334],[5.4683,61.9753,505.1153],[5.515,61.9802,204.0],[5.5171,61.9758,204.6939],[5.5264,61.9768,299.599],[5.5285,61.9724,314.0795],[5.5379,61.9734,372.082],[5.54,61.9691,363.2535],[5.5493,61.97,336.0],[5.5535,61.9613,401.5],[5.5629,61.9623,659.0283],[5.565,61.9579,659.5368],[5.6584,61.9676,453.886],[5.6563,61.972,713.0985],[5.6843,61.9749,806.5991],[5.6885,61.9662,803.3047],[5.6978,61.9671,880.1135],[5.6999,61.9628,663.5],[5.7093,61.9637,635.737],[5.7072,61.9681,857.8876],[5.7165,61.9691,656.5644],[5.7145,61.9735,801.7253],[5.7238,61.9744,697.6884],[5.7217,61.9788,838.2295],[5.7311,61.9798,810.3738],[5.729,61.9842,809.381],[5.7384,61.9851,678.0],[5.7342,61.993899999999996,683.2123],[5.7435,61.9948,540.4974],[5.7394,62.0036,571.9117],[5.7488,62.0046,592.6312],[5.7446,62.0133,714.6488],[5.782,62.0172,692.5],[5.7779,62.0259,777.6909],[5.7873,62.0269,1036.9077],[5.7852,62.0313,1087.0541],[5.832,62.0361,705.0789],[5.83,62.0405,526.7276],[5.8487,62.0424,708.684],[5.8466,62.0468,803.0255],[5.856,62.0477,722.2614],[5.8539,62.0521,589.6773],[5.8633,62.0531,620.6734],[5.8592,62.0618,621.3929],[5.8686,62.0628,892.2165],[5.8665,62.0672,898.6349],[5.8759,62.0681,709.7385],[5.8717,62.0769,668.0682],[5.8811,62.0778,702.0436],[5.8791,62.0822,954.4268],[5.8885,62.0832,772.5211],[5.8843,62.0919,897.5627],[5.8749,62.091,962.998],[5.8729,62.0954,993.9625],[5.8541,62.0934,836.2042],[5.852,62.0978,941.5064],[5.8426,62.0969,767.8171],[5.8385,62.1056,721.2835],[5.8291,62.1047,652.7557],[5.8166,62.1309,661.0],[5.8448,62.1338,900.5459],[5.8407,62.1426,878.4183],[5.8501,62.1435,653.8792],[5.848,62.1479,673.8139],[5.8574,62.1489,524.853],[5.8553,62.1532,792.7398],[5.8647,62.1542,740.8801],[5.8627,62.1586,872.8843],[5.8533,62.1576,884.1567],[5.8408,62.1839,222.2558],[5.8502,62.1849,237.892],[5.844,62.198,53.7229],[5.8534,62.199,44.3734],[5.8523,62.2013,21.7475],[5.8313,62.1958,105.0167],[5.8271,62.1979,19.2158],[5.8229,62.1958,44.1294],[5.8042,62.1958,20.611],[5.7964,62.1932,0.0],[5.7958,62.1875,0.0],[5.7937,62.1854,17.3496],[5.7875,62.1854,0.0],[5.7792,62.1813,1.4281],[5.7479,62.1813,0.0],[5.7438,62.1792,0.7438],[5.7375,62.1792,0.0],[5.7318,62.1766,0.0],[5.7307,62.1734,0.0],[5.7229,62.1708,0.2332],[5.6875,62.1708,26.2811],[5.6833,62.1729,6.0254],[5.6776,62.1724,32.3139],[5.6755,62.1672,0.0],[5.6786,62.1661,64.8647],[5.6797,62.1589,4.7662],[5.6833,62.1563,31.1737],[5.6818,62.1526,0.0],[5.6854,62.15,0.0],[5.6818,62.1464,0.0],[5.6891,62.1432,0.0],[5.6901,62.1401,0.0],[5.6932,62.1391,0.0],[5.6922,62.1359,0.0],[5.6953,62.1349,0.0],[5.6922,62.1328,0.0],[5.6896,62.125,0.0],[5.6901,62.1214,0.0],[5.7026,62.1151,0.0],[5.7099,62.1141,0.0],[5.7234,62.1068,0.0],[5.7307,62.1057,13.0406],[5.7318,62.1026,0.0],[5.7375,62.1021,0.0],[5.7432,62.0995,0.0],[5.7422,62.0943,0.0],[5.7453,62.0922,0.0],[5.7312,62.0875,0.4219],[5.725,62.0875,1.3631],[5.7193,62.0901,10.8618],[5.7161,62.0953,0.0],[5.7089,62.0984,11.7573],[5.7078,62.1016,0.0],[5.688,62.1109,0.0],[5.687,62.1141,0.0],[5.6755,62.1193,0.0],[5.6771,62.1229,0.0],[5.6734,62.1266,0.0],[5.6766,62.1276,0.0],[5.6786,62.1318,0.0],[5.6786,62.1391,0.0],[5.6714,62.1443,0.0],[5.6724,62.1474,0.0],[5.6651,62.1505,0.0],[5.6599,62.1578,0.0],[5.6443,62.1651,12.6583],[5.6432,62.1682,21.3078],[5.6375,62.1708,34.8778],[5.6292,62.1708,0.0],[5.621,62.1688,0.0],[5.6244,62.1616,78.2827],[5.6152,62.1602,252.6313]]]]}
,"properties": {"GID_2": "NOR.8.36_1","GID_0": "NOR","country": "Norway","GID_1": "NOR.8_1","province": "MøreogRomsdal","NL_NAME_1": "NA","county": "Vanylven","VARNAME_2": "NA","NL_NAME_2": "NA","TYPE_2": "Kommuner","ENGTYPE_2": "Municipality","CC_2": "NA","HASC_2": "NO.MR.VA","name": "Vanylven.county","area_km2": 352.4074,"hist_schema_id": "Elevation0-9000","hist_area_km2": {"0": 12.2115,"25": 11.7383,"50": 10.2121,"75": 8.2856,"100": 8.0082,"125": 8.9849,"150": 8.9161,"175": 8.0207,"200": 8.5568,"225": 10.3979,"250": 9.1552,"275": 9.3631,"300": 10.8106,"325": 11.2923,"350": 10.6761,"375": 14.2465,"400": 12.5322,"425": 12.9697,"450": 12.5239,"475": 13.2792,"500": 13.8364,"525": 14.2034,"550": 13.6991,"575": 11.3821,"600": 10.706,"625": 10.3769,"650": 11.1207,"675": 9.8632,"700": 10.0944,"725": 7.1329,"750": 5.393,"775": 4.8162,"800": 4.1709,"825": 3.2764,"850": 2.6604,"875": 2.1343,"900": 1.6377,"925": 1.3993,"950": 1.0319,"975": 0.5065,"1000": 0.2483,"1025": 0.1392,"1050": 0.1987,"1075": 0.159,"1100": 0.0199,"1125": 0.0199}}}