{"type": "Feature","bbox": [5.4292,58.8164,5.7157,58.9846],"geometry": {"type": "MultiPolygon","coordinates": [[[[5.6141,58.827,4.2901],[5.6226,58.828,18.5711],[5.6207,58.8324,18.2191],[5.6292,58.8334,53.1696],[5.6274,58.8377,11.2689],[5.6359,58.8387,32.2949],[5.634,58.8431,4.5465],[5.651,58.845,42.6555],[5.6492,58.8494,11.9262],[5.6662,58.8513,27.6093],[5.6643,58.8557,10.9952],[5.6898,58.8586,32.822],[5.6824,58.8761,20.4847],[5.6909,58.8771,46.8852],[5.6891,58.8814,27.1236],[5.6976,58.8824,23.8026],[5.6957,58.8868,10.1922],[5.7042,58.8877,15.833],[5.7024,58.8921,10.598],[5.7109,58.8931,14.6762],[5.7072,58.9018,21.2518],[5.7157,58.9028,32.0501],[5.7027,58.9335,35.4584],[5.7112,58.9344,61.4315],[5.7094,58.9388,98.5588],[5.7009,58.9378,56.2754],[5.699,58.9422,103.8504],[5.6905,58.9413,74.5741],[5.6923,58.9369,61.5313],[5.6808,58.9356,8.1276],[5.6847,58.9313,2.2643],[5.6847,58.9276,1.012],[5.6758,58.9263,0.2884],[5.6747,58.9226,0.9367],[5.6686,58.9199,2.6414],[5.6619,58.9193,0.0],[5.6625,58.9171,2.4828],[5.6703,58.914,0.2064],[5.6575,58.9143,0.0],[5.6625,58.9101,4.3671],[5.6547,58.9113,1.5305],[5.6525,58.9085,10.9531],[5.6453,58.9079,0.0],[5.6414,58.906,2.0604],[5.6403,58.9029,0.0],[5.6419,58.9021,7.2243],[5.6425,58.8988,1.3716],[5.6386,58.896,0.495],[5.6342,58.8957,1.4949],[5.6331,58.9007,0.0],[5.6281,58.9032,0.7958],[5.6264,58.9057,0.5161],[5.6181,58.9049,1.2525],[5.6158,58.9057,0.6033],[5.6158,58.9074,5.4431],[5.6253,58.914,0.0],[5.6258,58.929,0.1896],[5.6308,58.9276,0.7822],[5.6325,58.9238,4.651],[5.6347,58.9238,4.651],[5.6347,58.9257,2.7491],[5.6369,58.9263,0.6471],[5.6358,58.9282,2.0588],[5.6369,58.9299,3.8393],[5.6331,58.9299,8.4447],[5.6314,58.9321,0.0],[5.6208,58.9313,1.7483],[5.6164,58.9349,7.6672],[5.6186,58.9357,0.5727],[5.6258,58.9335,0.0],[5.6286,58.9346,1.7909],[5.6281,58.939,0.0],[5.6175,58.9421,0.0],[5.6064,58.9482,0.5221],[5.6108,58.9529,0.0],[5.6097,58.9574,0.0],[5.6036,58.9574,0.5043],[5.5853,58.9618,4.5492],[5.5808,58.961,0.2559],[5.5803,58.9588,2.4786],[5.5758,58.9588,0.0],[5.5753,58.956,4.862],[5.5692,58.9499,0.0],[5.5703,58.9476,2.2889],[5.5686,58.9443,0.3773],[5.5642,58.9418,0.0],[5.5703,58.9326,0.8571],[5.5781,58.931,0.0],[5.5781,58.929,1.3999],[5.5819,58.9276,2.3427],[5.5842,58.9276,0.0],[5.5847,58.9293,0.7599],[5.5903,58.9276,0.2831],[5.5975,58.9282,0.0],[5.5992,58.9304,0.0],[5.6014,58.9304,0.0],[5.6025,58.9296,0.354],[5.5997,58.9274,0.0],[5.6042,58.9279,0.0],[5.6047,58.9257,1.7335],[5.5953,58.9246,0.9902],[5.5953,58.9212,5.5838],[5.5897,58.921,1.006],[5.5797,58.9224,0.3389],[5.5781,58.9246,0.0],[5.5731,58.9251,2.1962],[5.5758,58.9226,4.0907],[5.5758,58.9207,1.7182],[5.5792,58.9204,2.8506],[5.5775,58.9179,0.8934],[5.5825,58.9179,5.3569],[5.5892,58.9121,2.5247],[5.5858,58.9101,1.7789],[5.5819,58.911,0.525],[5.5769,58.9076,0.1298],[5.5786,58.9026,0.3069],[5.5775,58.8993,0.0],[5.5792,58.8976,0.0],[5.5858,58.8965,0.0],[5.5864,58.8929,0.0],[5.5953,58.8929,0.5729],[5.6003,58.8913,1.6216],[5.6003,58.8899,0.7815],[5.6031,58.889,2.266],[5.6031,58.8829,1.2022],[5.6042,58.8826,1.2022],[5.5992,58.8763,0.5971],[5.5942,58.8771,0.0],[5.5908,58.8757,0.4724],[5.5903,58.8771,0.0],[5.5853,58.8774,0.0],[5.5803,58.8765,0.0],[5.5803,58.8754,3.3805],[5.5736,58.8754,6.693],[5.5692,58.8743,0.0],[5.5703,58.8707,1.8658],[5.5686,58.8696,2.3636],[5.5636,58.871,0.1692],[5.5614,58.8699,1.2319],[5.5625,58.8682,1.6877],[5.5614,58.8674,1.6877],[5.5564,58.8683,0.0],[5.5531,58.8665,1.9737],[5.5542,58.8643,0.0],[5.5586,58.864,1.34],[5.5575,58.8626,2.3195],[5.5597,58.861,0.7873],[5.5497,58.8599,8.9489],[5.5464,58.8574,0.0],[5.5458,58.8507,0.0],[5.5519,58.849,2.0187],[5.5536,58.8471,0.3716],[5.5619,58.8457,6.9619],[5.5592,58.8368,6.5055],[5.5527,58.8338,0.0],[5.5661,58.8353,9.4486],[5.5679,58.831,9.4312],[5.5764,58.8319,8.5965],[5.5783,58.8275,55.9109],[5.5868,58.8285,27.1037],[5.5886,58.8241,26.2256],[5.5971,58.8251,5.8111],[5.6007999999999996,58.8164,5.1689],[5.6178,58.8183,16.8629],[5.6141,58.827,4.2901]]],
[[[5.5508,58.8935,0.979],[5.5464,58.894,0.0],[5.5486,58.8918,0.0],[5.5519,58.8926,0.979],[5.5508,58.8935,0.979]]],
[[[5.6531,58.9165,0.0],[5.6497,58.9171,0.0],[5.6475,58.9157,0.0],[5.6514,58.9146,0.0],[5.6531,58.9165,0.0]]],
[[[5.5142,58.924,0.0],[5.5069,58.9249,0.0],[5.5047,58.9229,0.8579],[5.5086,58.9199,0.0],[5.5086,58.916,3.0435],[5.4958,58.9176,0.2022],[5.4936,58.9193,0.0],[5.4897,58.9174,0.0],[5.4969,58.9151,0.0],[5.5025,58.9096,0.4287],[5.5142,58.9093,0.0],[5.5225,58.9135,0.0],[5.5253,58.9196,0.0],[5.5236,58.9218,0.6218],[5.5142,58.924,0.0]]],
[[[5.5747,58.9193,0.0],[5.5725,58.9201,2.7997],[5.5719,58.9182,3.0913],[5.5758,58.9174,0.8934],[5.5747,58.9193,0.0]]],
[[[5.6453,58.9204,6.057],[5.6431,58.9221,0.0],[5.6442,58.9193,6.057],[5.6414,58.9179,8.1445],[5.6469,58.9162,2.8311],[5.6475,58.9193,1.882],[5.6453,58.9204,6.057]]],
[[[5.5592,58.9212,0.0],[5.5581,58.9226,1.1981],[5.5547,58.9221,0.0],[5.5575,58.9199,0.8285],[5.5597,58.9199,0.0],[5.5592,58.9212,0.0]]],
[[[5.4886,58.9396,0.2871],[5.4886,58.941,0.0],[5.4831,58.9407,0.0],[5.4842,58.9385,0.0],[5.4886,58.9396,0.2871]]],
[[[5.4842,58.9424,1.4208],[5.4831,58.946,0.0],[5.4786,58.9443,0.0173],[5.4814,58.9415,0.0],[5.4842,58.9424,1.4208]]],
[[[5.4731,58.9538,0.2716],[5.4731,58.9554,0.2716],[5.4708,58.9551,0.5671],[5.4697,58.9529,0.0542],[5.4714,58.9521,0.0542],[5.4731,58.9538,0.2716]]],
[[[5.5058,58.9562,0.7849],[5.5058,58.9576,0.9461],[5.5025,58.9574,0.0],[5.5014,58.9554,0.0],[5.5025,58.9549,0.0],[5.5058,58.9562,0.7849]]],
[[[5.4414,58.8882,0.3911],[5.4347,58.8893,0.0],[5.4358,58.8865,0.1788],[5.4331,58.8862,0.0],[5.4336,58.8851,1.9151],[5.4308,58.8824,0.0],[5.4314,58.879,0.0],[5.4292,58.8779,0.0],[5.4364,58.8776,0.3873],[5.4364,58.8807,0.54],[5.4403,58.8821,0.0],[5.4425,58.8857,0.0],[5.4414,58.8882,0.3911]]],
[[[5.4508,58.8921,0.0],[5.4458,58.8924,0.0],[5.4425,58.8887,0.0],[5.4508,58.8904,0.0],[5.4508,58.8921,0.0]]],
[[[5.4342,58.9376,0.0],[5.4325,58.9396,0.0],[5.4292,58.9396,0.0],[5.4308,58.9379,0.0],[5.4303,58.9357,0.7443],[5.4342,58.9351,0.0],[5.4342,58.9376,0.0]]],
[[[5.4469,58.9435,0.9739],[5.4442,58.9443,0.0],[5.4436,58.9424,0.0],[5.4475,58.941,0.0],[5.4503,58.9421,0.0],[5.4497,58.9432,0.8427],[5.4469,58.9435,0.9739]]],
[[[5.4631,58.949,0.1621],[5.4642,58.9518,0.5445],[5.4581,58.9518,0.1966],[5.4547,58.9449,0.0],[5.4603,58.9454,0.0],[5.4614,58.9468,0.6134],[5.4597,58.9479,4.3],[5.4631,58.949,0.1621]]],
[[[5.4425,58.9501,0.0],[5.4425,58.9515,4.7192],[5.4358,58.9512,0.0],[5.4292,58.9476,0.0],[5.4331,58.9463,0.4238],[5.4397,58.9474,1.362],[5.4425,58.9501,0.0]]],
[[[5.4503,58.9507,0.0],[5.4464,58.9512,1.0111],[5.4492,58.9474,0.0],[5.4531,58.9463,0.0],[5.4536,58.9485,1.2662],[5.4514,58.9499,1.5416],[5.4525,58.9512,0.0],[5.4503,58.9507,0.0]]],
[[[5.4819,58.9613,0.0],[5.4781,58.9613,0.1143],[5.4757999999999996,58.9596,0.0],[5.4786,58.9593,0.0],[5.4819,58.9613,0.0]]],
[[[5.4997,58.9824,0.0],[5.5003,58.9837,0.0],[5.4981,58.984,0.3268],[5.4936,58.9804,0.0],[5.4958,58.9801,0.0],[5.4997,58.9824,0.0]]],
[[[5.4947,58.9821,0.3368],[5.4947,58.9846,0.0],[5.4903,58.9829,0.0],[5.4914,58.9815,0.0],[5.4947,58.9821,0.3368]]]]}
,"properties": {"GID_2": "NOR.13.19_1","GID_0": "NOR","country": "Norway","GID_1": "NOR.13_1","province": "Rogaland","NL_NAME_1": "NA","county": "Sola","VARNAME_2": "NA","NL_NAME_2": "NA","TYPE_2": "Kommuner","ENGTYPE_2": "Municipality","CC_2": "NA","HASC_2": "NO.RO.SL","name": "Sola.county","area_km2": 79.13027,"hist_schema_id": "Elevation0-9000","hist_area_km2": {"0": 37.3546,"25": 32.13103,"50": 7.6714,"75": 1.83079,"100": 0.14245}}}