{"type":"Feature","properties":{"GID_2":"NOR.10.22_1","GID_0":"NOR","country":"Norway","GID_1":"NOR.10_1","province":"Nordland","NL_NAME_1":"NA","county":"Lurøy","VARNAME_2":"NA","NL_NAME_2":"NA","TYPE_2":"Kommuner","ENGTYPE_2":"Municipality","CC_2":"NA","HASC_2":"NO.NO.LU","name":"Lurøy.county"},
"geometry":{"type": "MultiPolygon","coordinates": [[[[12.5187,66.3,0.3919],[12.5151,66.2963,6.2182],[12.5245,66.2963,9.1273],[12.5245,66.2974,10.6108],[12.5187,66.3,0.3919]]],
[[[12.4901,66.3057,3.539],[12.4958,66.3021,0.0],[12.4995,66.3047,0.5847],[12.4979,66.3063,0.4661],[12.4901,66.3057,3.539]]],
[[[12.4896,66.3229,0.0],[12.4859,66.3193,1.4696],[12.4911,66.3193,2.9079],[12.4911,66.3224,0.0],[12.4896,66.3229,0.0]]],
[[[12.5016,66.3214,2.8062],[12.5016,66.3224,2.9635],[12.4984,66.3224,1.6497],[12.4984,66.3214,2.2882],[12.5016,66.3214,2.8062]]],
[[[12.4349,66.313,4.6616],[12.4349,66.3141,0.0],[12.4318,66.3141,0.0],[12.4318,66.313,5.0839],[12.4349,66.313,4.6616]]],
[[[12.4042,66.3375,10.9261],[12.4005,66.337,13.9041],[12.4005,66.3339,13.8341],[12.4036,66.3339,7.461],[12.4057,66.3359,0.0],[12.4042,66.3375,10.9261]]],
[[[12.4234,66.3411,4.9367],[12.4214,66.3359,1.5941],[12.4266,66.3359,0.0],[12.4286,66.3411,7.2857],[12.4234,66.3411,4.9367]]],
[[[12.3682,66.3453,0.0],[12.3646,66.3458,3.3071],[12.363,66.3443,9.9134],[12.3667,66.3438,2.6076],[12.3682,66.3453,0.0]]],
[[[12.4792,66.325,2.3952],[12.475,66.325,0.0],[12.4734,66.3234,2.3559],[12.4828,66.3234,3.4796],[12.4792,66.325,2.3952]]],
[[[12.5474,66.3307,2.9396],[12.5438,66.3313,5.5083],[12.5422,66.3297,1.8037],[12.5458,66.3292,0.0],[12.5474,66.3307,2.9396]]],
[[[12.5526,66.3901,2.1938],[12.55,66.3917,0.0],[12.5422,66.3922,0.0],[12.5354,66.3958,2.7157],[12.5276,66.3932,1.2932],[12.5203,66.388,2.2971],[12.5089,66.387,0.1857],[12.5078,66.3839,1.9139],[12.5026,66.3818,3.2887],[12.5146,66.3812,0.0],[12.5188,66.3833,0.6839],[12.5214,66.3797,1.6228],[12.5286,66.3786,0.7411],[12.5234,66.3766,3.4983],[12.5266,66.3734,5.3698],[12.5214,66.3724,0.0],[12.5151,66.3682,1.7],[12.5167,66.3667,0.9076],[12.5224,66.3662,0.0],[12.5172,66.3641,0.0],[12.5188,66.3625,1.3027],[12.5328,66.363,1.6572],[12.5359,66.3682,0.0],[12.5411,66.3693,7.8312],[12.5422,66.3724,0.0],[12.5458,66.375,2.3578],[12.5578,66.3745,0.0],[12.5557,66.3672,3.0734],[12.5484,66.363,2.3596],[12.562,66.362,0.0],[12.563,66.3588,3.7297],[12.5661,66.3568,0.0],[12.5583,66.3542,4.3248],[12.5484,66.3536,0.0],[12.5458,66.35,1.67],[12.5255,66.3495,0.0],[12.5245,66.3464,2.0727],[12.513,66.3432,1.8117],[12.5099,66.338,1.9938],[12.5021,66.3375,2.8493],[12.4943,66.3349,3.0643],[12.4859,66.3297,2.438],[12.4938,66.3292,1.9498],[12.5,66.3313,0.5014],[12.5042,66.3292,0.0],[12.5188,66.3292,1.5844],[12.5224,66.3318,3.7361],[12.5234,66.3349,1.931],[12.5313,66.3375,0.0],[12.5375,66.3354,0.0],[12.5438,66.3396,1.3722],[12.5583,66.3354,0.0],[12.5703,66.3349,0.6183],[12.562,66.3297,6.4828],[12.5542,66.3292,0.0],[12.5495,66.3255,3.9613],[12.5401,66.3245,3.8518],[12.5432,66.3214,4.9406],[12.5411,66.3172,0.2936],[12.5359,66.3151,5.9468],[12.5438,66.3146,4.9712],[12.5479,66.3167,1.5719],[12.5557,66.3172,0.0],[12.5526,66.3193,4.9692],[12.5547,66.3224,0.6601],[12.5625,66.325,0.0],[12.5703,66.3255,0.0],[12.5734,66.3287,-0.6942],[12.5828,66.3297,0.0],[12.5859,66.3328,0.0],[12.6,66.3375,10.4085],[12.6016,66.337,0.0],[12.6016,66.3339,0.0],[12.5943,66.3297,7.9169],[12.6099,66.3297,1.398],[12.6068,66.3328,1.7941],[12.6146,66.3333,0.0],[12.6182,66.3359,0.0],[12.6151,66.338,0.0],[12.6151,66.3411,6.2229],[12.6229,66.3417,0.0],[12.6271,66.3396,0.0],[12.6307,66.3401,0.0],[12.6318,66.3432,20.0576],[12.637,66.3443,0.0],[12.639099999999999,66.3464,7.0175],[12.639099999999999,66.3495,7.5218],[12.6359,66.3516,1.9204],[12.6411,66.3526,0.0],[12.6443,66.3578,3.4908],[12.6542,66.3583,0.1679],[12.6563,66.3604,0.0],[12.6557,66.362,1.8035],[12.65,66.3625,0.9059],[12.6443,66.3651,0.0],[12.6453,66.3703,0.0],[12.638,66.3734,5.2453],[12.6354,66.3771,0.0],[12.6234,66.3786,8.7921],[12.6214,66.3734,0.0],[12.6286,66.3693,4.466],[12.6208,66.3667,0.0],[12.6146,66.3667,4.9615],[12.613,66.3672,0.0],[12.6141,66.3703,5.0726],[12.6125,66.3708,5.0663],[12.6021,66.3708,1.6514],[12.5979,66.3729,4.2089],[12.5901,66.3735,3.1893],[12.5911,66.3786,4.6827],[12.5813,66.3812,7.5155],[12.5693,66.3818,6.0444],[12.5703,66.387,0.4913],[12.5583,66.3875,0.0],[12.5526,66.3901,2.1938]]],
[[[12.5099,66.3578,2.0952],[12.5063,66.3583,0.0],[12.5047,66.3568,1.8905],[12.5083,66.3562,0.0],[12.5099,66.3578,2.0952]]],
[[[12.438,66.3474,0.8998],[12.4438,66.3438,0.0],[12.4536,66.3495,0.4521],[12.4458,66.35,0.9613],[12.438,66.3474,0.8998]]],
[[[12.3359,66.3641,470.386],[12.3333,66.3625,582.5641],[12.3255,66.363,385.3628],[12.326599999999999,66.3662,201.5853],[12.3234,66.3682,40.0232],[12.3313,66.3708,30.9327],[12.3438,66.3708,19.8807],[12.3453,66.3714,14.2877],[12.3453,66.3745,2.4558],[12.3333,66.375,1.5808],[12.3292,66.3729,19.9386],[12.3193,66.3724,0.0],[12.3161,66.3651,5.4324],[12.3109,66.363,0.0],[12.3141,66.362,9.438],[12.313,66.3568,46.8099],[12.3188,66.3542,0.0],[12.325,66.3562,2.115],[12.3292,66.3542,15.837],[12.3396,66.3542,11.7363],[12.3438,66.3521,4.5493],[12.35,66.3542,12.2387],[12.3542,66.3521,0.0],[12.3641,66.3568,0.0],[12.3661,66.362,0.0],[12.363,66.363,4.98],[12.363,66.3662,0.0],[12.3682,66.3682,5.6462],[12.3625,66.3708,4.0212],[12.3521,66.3708,0.0],[12.3484,66.3682,40.3325],[12.3516,66.3651,208.2338],[12.3359,66.3641,470.386]]],
[[[12.3307,66.3755,15.5786],[12.3307,66.3766,3.9347],[12.3276,66.3766,0.0],[12.3276,66.3755,13.1113],[12.3307,66.3755,15.5786]]],
[[[12.4,66.3833,2.4857],[12.4063,66.3833,0.0],[12.4141,66.3859,0.0],[12.4172,66.3891,0.8058],[12.4224,66.3901,0.0],[12.4224,66.3932,0.3417],[12.4104,66.3896,5.7711],[12.4021,66.3896,0.0],[12.3917,66.3854,0.0],[12.3854,66.3875,3.1222],[12.3776,66.3849,0.8327],[12.3755,66.3797,26.6127],[12.3896,66.3792,4.2112],[12.3922,66.3828,0.0],[12.4,66.3833,2.4857]]],
[[[12.637,66.3109,0.0],[12.6354,66.3125,0.0],[12.6292,66.3125,1.9707],[12.625,66.3146,0.0],[12.6214,66.312,0.0],[12.6203,66.3089,4.169],[12.6089,66.3057,0.0],[12.6068,66.3026,3.1057],[12.6099,66.3016,0.0],[12.6109,66.2984,1.9823],[12.6188,66.2979,9.2321],[12.6214,66.3016,0.0],[12.6266,66.3026,1.5828],[12.6297,66.3078,4.3357],[12.6349,66.3089,0.0],[12.637,66.3109,0.0]]],
[[[12.6922,66.3266,0.0],[12.6979,66.3229,0.0],[12.701599999999999,66.3255,9.06],[12.7,66.3271,0.0],[12.6922,66.3266,0.0]]],
[[[12.7146,66.3313,2.9716],[12.7104,66.3313,0.0],[12.7089,66.3297,0.0],[12.7182,66.3297,3.6472],[12.7146,66.3313,2.9716]]],
[[[12.7208,66.3438,0.0],[12.7214,66.3422,0.9945],[12.7271,66.3396,0.0],[12.7391,66.3401,0.0],[12.7359,66.3422,6.5076],[12.737,66.3453,0.0],[12.7354,66.3458,0.0],[12.7229,66.3458,0.0],[12.7208,66.3438,0.0]]],
[[[12.6792,66.3583,0.0],[12.6828,66.3609,0.0],[12.687,66.3703,0.0],[12.6792,66.3708,0.0],[12.6714,66.3682,1.4188],[12.6745,66.3662,1.9358],[12.6729,66.3646,0.0583],[12.6589,66.3662,0.0374],[12.6589,66.363,3.0686],[12.6672,66.3588,9.7747],[12.6792,66.3583,0.0]]],
[[[12.7417,66.3646,4.9844],[12.7422,66.363,0.0],[12.7479,66.3604,0.0],[12.7542,66.3604,0.0],[12.762,66.363,15.2731],[12.7589,66.3651,0.0],[12.7578,66.3682,0.0],[12.7521,66.3708,7.2263],[12.7443,66.3703,0.0],[12.7417,66.3646,4.9844]]],
[[[12.763,66.437,0.9989],[12.7609,66.4318,2.7776],[12.7688,66.4313,0.0],[12.7724,66.4339,9.5381],[12.7682,66.437,9.6796],[12.763,66.437,0.9989]]],
[[[12.8224,66.4411,8.3708],[12.8187,66.4417,0.0],[12.8172,66.4401,4.4725],[12.8208,66.4396,8.0019],[12.8224,66.4411,8.3708]]],
[[[13.0891,66.4328,0.0],[13.0813,66.4333,56.0547],[13.0771,66.4354,33.6086],[13.05,66.4354,11.1761],[13.0359,66.4307,0.0],[13.0307,66.4213,34.8388],[13.013,66.4161,0.0],[13.0109,66.4141,0.0],[13.0089,66.4089,0.0],[13.0125,66.4063,69.8975],[13.0099,66.4005,62.9835],[13.0057,66.3943,62.9268],[13.0005,66.3932,0.0],[12.9984,66.3891,21.8649],[13.0021,66.3854,103.3038],[13.0005,66.3818,0.0],[13.0125,66.3771,0.0],[13.0271,66.3812,0.0],[13.0354,66.3812,0.0],[13.0458,66.3854,0.0],[13.075,66.3875,0.0],[13.0792,66.3896,7.0416],[13.0958,66.3896,0.0],[13.1099,66.3943,0.0],[13.113,66.3974,0.0],[13.1182,66.3984,0.0],[13.1214,66.4036,0.0],[13.1266,66.4047,0.0],[13.1234,66.4068,0.0],[13.1224,66.4099,0.0],[13.1193,66.4109,12.7452],[13.1203,66.4141,0.0],[13.113,66.4193,20.498],[13.1141,66.4224,0.0],[13.0891,66.4328,0.0]]],
[[[12.9693,66.4516,0.0],[12.9745,66.4526,0.0],[12.9766,66.4568,0.0],[12.9729,66.4604,0.0],[12.9745,66.4641,7.821],[12.9651,66.4641,5.5377],[12.962,66.4589,51.1972],[12.9542,66.4563,0.0],[12.9438,66.4604,9.6714],[12.9229,66.4604,5.702],[12.9193,66.4568,3.3409],[12.9271,66.4563,17.7875],[12.938,66.4505,0.0],[12.9453,66.4495,0.0],[12.9464,66.4464,0.0],[12.9495,66.4443,31.8414],[12.9292,66.4375,0.0],[12.9208,66.4375,0.0],[12.9063,66.4333,21.7297],[12.9026,66.4349,0.0],[12.9047,66.437,0.0],[12.9099,66.438,0.0],[12.912,66.4432,7.7702],[12.9089,66.4443,23.1747],[12.9078,66.4474,0.0],[12.9047,66.4495,0.0],[12.9068,66.4516,0.0],[12.912,66.4526,0.0],[12.912,66.4557,0.0],[12.9104,66.4563,0.0],[12.8833,66.4563,0.0],[12.8688,66.4521,9.2306],[12.8604,66.4521,0.0],[12.8563,66.45,62.19],[12.8438,66.45,0.0],[12.8411,66.4464,4.3509],[12.8297,66.4453,0.0],[12.8276,66.4401,0.8075],[12.8307,66.4391,0.0],[12.8292,66.4333,0.0],[12.8328,66.4297,14.5995],[12.8276,66.4287,0.0],[12.8255,66.4255,0.0],[12.8349,66.4245,12.8021],[12.8339,66.4213,0.0],[12.8411,66.4182,8.5035],[12.8401,66.4151,0.0],[12.8568,66.4068,0.0],[12.8646,66.4063,8.455],[12.8661,66.4047,0.0],[12.8438,66.3979,20.3321],[12.8313,66.4042,0.0],[12.8167,66.4063,10.49],[12.8042,66.4104,0.0],[12.7979,66.4104,0.0],[12.7932,66.4068,0.0],[12.788,66.4057,0.0],[12.7859,66.4005,11.0204],[12.7979,66.4,1.9303],[12.8021,66.3979,0.0],[12.8146,66.3979,0.0],[12.8203,66.3995,0.0],[12.825,66.3958,5.8069],[12.8224,66.3922,0.0],[12.8146,66.3917,0.0],[12.8005,66.3859,10.1807],[12.8063,66.3833,0.0],[12.812,66.3828,0.0],[12.8187,66.3792,0.0],[12.8307,66.3786,0.0],[12.8318,66.3755,5.1366],[12.8349,66.3745,3.0091],[12.8339,66.3693,1.8381],[12.8479,66.3708,0.0],[12.8521,66.3729,0.0],[12.8547,66.3693,10.0534],[12.8578,66.3682,0.0],[12.8568,66.363,3.6211],[12.8609,66.3609,0.0],[12.8708,66.3583,0.0],[12.8771,66.3604,4.5052],[12.8964,66.3505,0.0],[12.9083,66.35,2.8006],[12.912,66.3536,0.0],[12.887,66.3662,0.0],[12.8797,66.3672,19.9335],[12.8786,66.3703,0.0],[12.8714,66.3714,4.9842],[12.8708,66.3729,0.0],[12.8729,66.375,0.0],[12.8828,66.3755,4.7364],[12.887,66.3839,0.0],[12.8797,66.388,24.8518],[12.8797,66.3912,0.0],[12.8833,66.3917,0.0],[12.8875,66.3896,0.0],[12.8974,66.3943,0.0],[12.8901,66.3984,25.1966],[12.8901,66.4016,0.0],[12.8953,66.4026,0.0],[12.8974,66.4057,0.0],[12.8901,66.4089,0.0],[12.8901,66.412,17.0551],[12.8922,66.4141,24.4566],[12.9016,66.4161,0.0],[12.9005,66.4109,0.0],[12.9042,66.4083,0.0],[12.9021,66.4042,0.0],[12.9057,66.4016,1.0231],[12.9047,66.3964,3.2131],[12.912,66.3953,0.0],[12.9188,66.3917,0.0],[12.9432,66.3943,0.0],[12.9484,66.4036,36.1501],[12.9536,66.4047,11.5373],[12.9557,66.4068,11.2256],[12.9521,66.4104,0.0],[12.9563,66.4187,0.0],[12.9542,66.4229,29.9356],[12.9578,66.4297,0.0],[12.9547,66.4318,0.0],[12.9547,66.4349,24.5112],[12.9568,66.437,0.0],[12.962,66.438,0.0],[12.9693,66.4516,0.0]]],
[[[13.2724,66.3764,265.2382],[13.2688,66.3899,809.2357],[13.2577,66.3894,765.5475],[13.2565,66.3939,904.2208],[13.2453,66.3934,767.5214],[13.2441,66.3979,1008.0099],[13.233,66.3974,753.9481],[13.2318,66.4019,891.2133],[13.2207,66.4014,869.0242],[13.2158,66.4193,693.2722],[13.1935,66.4184,481.9709],[13.1911,66.4273,634.5129],[13.2023,66.4278,431.0922],[13.1987,66.4412,311.968],[13.2098,66.4417,197.1607],[13.2074,66.4506,151.8731],[13.1962,66.4501,140.5871],[13.1926,66.4635,51.5],[13.2038,66.464,75.3292],[13.2002,66.4774,465.8997],[13.189,66.477,296.9735],[13.1878,66.4814,411.2137],[13.1766,66.481,283.8092],[13.1717,66.4988,408.3611],[13.1606,66.4984,303.688],[13.1593,66.5028,480.8198],[13.1481,66.5024,344.9225],[13.1469,66.5068,429.777],[13.1357,66.5064,386.0591],[13.1308,66.5243,228.1289],[13.0973,66.5228,175.141],[13.096,66.5273,152.5113],[13.0736,66.5263,317.4102],[13.0749,66.5219,210.0838],[13.0525,66.5209,202.7172],[13.0537,66.5164,97.0014],[13.009,66.5145,5.4795],[13.0077,66.519,130.756],[12.9965,66.5185,76.069],[12.9953,66.523,198.9975],[12.9841,66.5225,0.6177],[12.9964,66.5151,0.0],[13.0042,66.5146,0.0],[13.0099,66.512,0.0],[13.0089,66.5089,4.8547],[13.0104,66.5083,0.0],[13.0167,66.5104,0.0],[13.0208,66.5083,0.0],[13.0286,66.5078,3.7729],[13.0271,66.5042,4.0782],[13.0307,66.5016,29.1673],[13.0297,66.4984,0.0],[13.0375,66.4979,9.0525],[13.0458,66.4938,12.6374],[13.0625,66.4938,0.0],[13.0667,66.4958,11.1574],[13.0729,66.4958,0.0],[13.0771,66.4938,0.0],[13.0932,66.4932,0.0],[13.0974,66.4912,24.4713],[13.0984,66.488,0.0],[13.1016,66.487,18.3817],[13.1005,66.4838,0.0],[13.1042,66.4812,17.3681],[13.1026,66.4776,0.0],[13.1057,66.4766,19.9686],[13.1083,66.4729,0.0],[13.1292,66.4729,0.0],[13.1333,66.4708,0.0],[13.1396,66.4729,28.8057],[13.1438,66.4708,0.0],[13.1542,66.4708,17.3762],[13.1682,66.4661,0.0],[13.1604,66.4625,0.0],[13.1542,66.4625,51.4246],[13.15,66.4604,81.3099],[13.1417,66.4625,0.0],[13.1375,66.4604,58.4195],[13.1167,66.4604,34.7098],[13.1125,66.4625,0.0],[13.1021,66.4625,24.7666],[13.0896,66.4667,0.0],[13.0797,66.4641,7.4111],[13.0911,66.4599,28.4179],[13.0901,66.4547,0.0],[13.0995,66.4537,43.1849],[13.0984,66.4505,0.0],[13.1063,66.45,0.0],[13.1172,66.4443,0.0],[13.1271,66.4417,0.0],[13.1375,66.4417,0.0],[13.1474,66.437,0.0],[13.1474,66.4339,0.0],[13.1422,66.4328,0.0],[13.1401,66.4307,0.0],[13.1401,66.4276,0.0],[13.1432,66.4266,15.6768],[13.1422,66.4234,0.0],[13.1495,66.4203,0.0],[13.1484,66.4172,0.0],[13.1557,66.4141,21.2223],[13.1547,66.4089,0.0],[13.1578,66.4068,0.0],[13.1526,66.4057,0.0],[13.15,66.4021,0.0],[13.1359,66.4016,0.0],[13.1328,66.3984,0.0],[13.1276,66.3974,0.0],[13.1266,66.3943,0.0],[13.1214,66.3932,0.0],[13.1182,66.3901,0.0],[13.1104,66.3875,0.0],[13.0964,66.387,0.0],[13.0932,66.3818,0.0],[13.088,66.3807,0.0],[13.0854,66.3771,7.1922],[13.0771,66.3771,0.0],[13.0625,66.3729,22.5239],[13.0542,66.3729,0.0],[13.0313,66.3646,14.193],[13.0214,66.3641,0.0],[13.0188,66.3604,29.8512],[13.0062,66.3604,22.1856],[12.9984,66.3578,0.0],[12.9953,66.3526,11.331],[12.9901,66.3516,0.0],[12.988,66.3484,0.0],[12.9953,66.3432,0.0],[12.9943,66.338,0.0],[12.9974,66.337,0.0],[12.9964,66.3339,0.0],[12.9995,66.3328,5.0078],[13.0005,66.3297,0.0],[13.0125,66.3313,7.2569],[13.025,66.325,0.0],[13.0646,66.3208,27.4193],[13.0661,66.3203,33.0529],[13.0651,66.3172,0.0],[13.0833,66.3167,0.0],[13.0958,66.3104,0.0],[13.1036,66.313,0.0],[13.1006,66.3162,19.1897],[13.1057,66.3172,0.0],[13.1089,66.3224,0.0],[13.1187,66.3229,0.0],[13.1229,66.325,15.1647],[13.1292,66.3229,0.0],[13.1318,66.3266,0.0],[13.1458,66.3313,0.0],[13.1521,66.3313,0.0],[13.1578,66.3287,0.0],[13.1583,66.3271,0.0],[13.1557,66.3214,17.5173],[13.1505,66.3203,12.2099],[13.1479,66.3167,0.0],[13.1484,66.3151,38.1063],[13.1542,66.3146,290.0818],[13.1557,66.313,415.2816],[13.1479,66.3125,88.3519],[13.1438,66.3104,268.5031],[13.1375,66.3104,152.5636],[13.1333,66.3125,0.2617],[13.1208,66.3125,0.0],[13.113,66.3099,0.0],[13.113,66.3068,11.8972],[13.1271,66.3021,0.0],[13.1708,66.3021,0.0],[13.175,66.3042,59.4975],[13.1792,66.3021,0.0],[13.1833,66.3042,18.0969],[13.2001,66.3042,0.0],[13.2013,66.3061,57.2183],[13.199,66.3146,505.4],[13.2101,66.315,425.5696],[13.2077,66.324,672.1512],[13.2188,66.3245,585.7374],[13.2164,66.3334,602.1626],[13.2275,66.3339,595.0918],[13.2287,66.3294,370.718],[13.262,66.3308,499.9508],[13.2597,66.3397,799.9874],[13.2708,66.3402,714.5892],[13.2672,66.3536,770.9121],[13.2561,66.3531,839.8835],[13.2525,66.3666,448.2045],[13.2414,66.3661,383.9624],[13.2402,66.3706,724.3525],[13.2291,66.3701,656.7505],[13.2279,66.3746,808.1757],[13.2724,66.3764,265.2382]]],
[[[13.0333,66.4521,0.0],[13.0297,66.4484,44.3661],[13.0349,66.4484,0.0],[13.0349,66.4516,10.64],[13.0333,66.4521,0.0]]],
[[[13.0167,66.4646,0.0],[13.0125,66.4646,0.0],[13.0109,66.463,1.374],[13.0266,66.463,0.0],[13.025,66.4646,0.0],[13.0167,66.4646,0.0]]],
[[[13.0182,66.4693,9.999],[13.0182,66.4703,21.0078],[13.0151,66.4703,18.6271],[13.0151,66.4693,14.4965],[13.0182,66.4693,9.999]]],
[[[13.076599999999999,66.4786,13.5863],[13.0729,66.4792,4.4181],[13.0714,66.4776,7.8932],[13.075,66.4771,9.9969],[13.076599999999999,66.4786,13.5863]]],
[[[12.8479,66.4854,0.0],[12.8443,66.4849,0.0],[12.8443,66.4818,9.4286],[12.8521,66.4812,0.0],[12.8599,66.4838,0.0],[12.8583,66.4854,10.6268],[12.8479,66.4854,0.0]]],
[[[12.4495,66.4047,2.3828],[12.4495,66.4057,0.5626],[12.4464,66.4057,1.2009],[12.4464,66.4047,0.5594],[12.4495,66.4047,2.3828]]],
[[[12.4229,66.4104,3.1394],[12.4188,66.4104,4.6801],[12.4172,66.4089,6.8315],[12.4266,66.4089,3.918],[12.4229,66.4104,3.1394]]],
[[[12.4458,66.4125,0.0],[12.4422,66.4089,2.5746],[12.45,66.4083,0.0],[12.4536,66.4109,6.4865],[12.4521,66.4125,0.0],[12.4458,66.4125,0.0]]],
[[[12.4271,66.4187,1.1446],[12.425,66.4167,3.5289],[12.4271,66.4146,2.7993],[12.4375,66.4146,0.0],[12.4411,66.4172,6.9029],[12.4396,66.4187,14.4825],[12.4271,66.4187,1.1446]]],
[[[12.4422,66.4203,0.0],[12.4438,66.4187,9.1344],[12.4578,66.4193,0.0],[12.4563,66.4208,4.4233],[12.4422,66.4203,0.0]]],
[[[12.4981,66.3729,0.7834],[12.4958,66.3708,0.7694],[12.4979,66.3688,2.5966],[12.5057,66.3714,0.0],[12.5042,66.3729,0.0],[12.4981,66.3729,0.7834]]],
[[[12.5109,66.3786,3.4127],[12.5089,66.3755,0.8798],[12.514099999999999,66.3755,0.0],[12.514099999999999,66.3786,5.0649],[12.5109,66.3786,3.4127]]],
[[[12.4646,66.4167,0.0],[12.4609,66.4161,0.0],[12.4609,66.413,2.268],[12.4641,66.413,1.9307],[12.4661,66.4151,1.9183],[12.4646,66.4167,0.0]]],
[[[12.6057,66.5391,13.5143],[12.6021,66.5396,0.0],[12.6005,66.538,0.0],[12.6042,66.5375,0.0],[12.6057,66.5391,13.5143]]],
[[[12.5495,66.5505,17.7184],[12.5484,66.5484,12.1253],[12.55,66.5479,0.0],[12.5578,66.5484,3.5773],[12.562,66.5557,6.8696],[12.5583,66.5563,12.1828],[12.5505,66.5537,5.193],[12.5495,66.5505,17.7184]]],
[[[12.9479,66.4771,0.0],[12.9578,66.4797,0.0],[12.9589,66.4828,0.0],[12.9641,66.4838,0.0],[12.9661,66.4859,0.0],[12.9661,66.4891,0.0],[12.9563,66.4938,0.0],[12.9521,66.4917,0.0],[12.9396,66.4917,0.0],[12.9318,66.4891,12.4413],[12.9349,66.4859,5.9754],[12.925,66.4854,0.0],[12.9229,66.4833,0.0],[12.9255,66.4797,8.6168],[12.9333,66.4792,3.0348],[12.9417,66.475,0.0],[12.9479,66.4771,0.0]]],
[[[12.9083,66.4938,0.0],[12.8896,66.4958,0.0],[12.888,66.4943,3.9601],[12.8911,66.4922,0.0],[12.889099999999999,66.4901,0.0],[12.8792,66.4896,0.0],[12.875,66.4875,24.4476],[12.8625,66.4875,0.0],[12.8609,66.4859,4.022],[12.8667,66.4833,2.5046],[12.8745,66.4828,0.0],[12.8672,66.4786,7.1777],[12.8688,66.4771,0.0],[12.875,66.4792,4.3561],[12.8813,66.4792,9.3675],[12.8854,66.4812,0.0],[12.8979,66.4812,0.0],[12.9021,66.4792,5.566],[12.9083,66.4833,3.2677],[12.9182,66.4838,0.0],[12.9146,66.4875,0.0],[12.9161,66.4912,0.0],[12.9083,66.4938,0.0]]],
[[[12.8833,66.4938,0.0],[12.8818,66.4922,8.2374],[12.8849,66.4922,0.0],[12.8849,66.4932,4.4685],[12.8833,66.4938,0.0]]],
[[[12.6896,66.4729,4.5028],[12.6859,66.4693,2.2743],[12.6896,66.4688,5.2606],[12.6974,66.4714,0.0],[12.6958,66.4729,2.5178],[12.6896,66.4729,4.5028]]],
[[[12.6766,66.5234,16.3684],[12.6714,66.5214,0.0],[12.6792,66.5208,0.0],[12.6813,66.5229,0.0],[12.6792,66.525,3.9551],[12.6766,66.5234,16.3684]]],
[[[12.6771,66.5292,0.0],[12.6734,66.5286,1.9238],[12.6734,66.5255,2.3708],[12.6766,66.5255,0.7882],[12.6786,66.5276,2.0684],[12.6771,66.5292,0.0]]],
[[[12.6547,66.5318,0.0],[12.6578,66.5307,0.0],[12.6589,66.5276,0.9172],[12.6667,66.5271,0.0],[12.6682,66.5286,0.0],[12.6651,66.5307,0.0],[12.6703,66.5328,1.9345],[12.6672,66.5339,14.1026],[12.6646,66.5375,1.777],[12.6547,66.5318,0.0]]],
[[[12.6275,66.5791,41.9223],[12.6288,66.5746,0.0],[12.6176,66.5741,19.648],[12.625,66.5729,9.2912],[12.6266,66.5714,0.0],[12.6151,66.5682,0.0],[12.6141,66.5651,37.5624],[12.6089,66.5641,23.1906],[12.6068,66.562,0.0],[12.6047,66.5568,0.0],[12.6078,66.5557,0.0],[12.6089,66.5526,10.5743],[12.6458,66.5479,0.0],[12.6505,66.5537,4.2968],[12.6583,66.5563,0.0],[12.6708,66.5563,1.6573],[12.6755,66.562,0.0],[12.687,66.5651,0.0],[12.6839,66.5672,1.7204],[12.687,66.5734,0.0],[12.6833,66.5771,0.0],[12.6854,66.5813,0.0],[12.6818,66.5839,0.0],[12.6849,66.5911,5.2815],[12.6792,66.5938,7.2785],[12.6732,66.5938,1.0053],[12.6632,66.5852,55.988],[12.6686,66.5818,27.5395],[12.6696,66.578,16.5788],[12.6674,66.5764,32.8452],[12.6512,66.5757,86.6779],[12.6499,66.5801,245.3949],[12.6275,66.5791,41.9223]]]]}}