{"type": "Feature","bbox": [11.833,59.9855,12.5471,60.3949],"geometry": {"type": "MultiPolygon","coordinates": [[[[12.3584,59.9861,159.7066],[12.3673,59.9866,143.6571],[12.3663,59.991,150.9724],[12.3752,59.9916,138.8043],[12.3732,60.0005,156.4872],[12.3821,60.001,126.5],[12.3811,60.0055,141.1895],[12.39,60.006,155.4058],[12.389,60.0104,178.2308],[12.3979,60.0109,126.5],[12.3969,60.0154,126.5],[12.4058,60.0159,166.4169],[12.4048,60.0204,146.819],[12.4137,60.0209,253.3873],[12.4127,60.0254,234.8427],[12.4305,60.0264,295.5489],[12.4295,60.0308,291.5004],[12.4384,60.0314,288.8964],[12.4374,60.0358,287.8467],[12.4464,60.0363,243.5503],[12.4453,60.0408,247.0805],[12.4543,60.0413,246.1638],[12.4532,60.0458,246.2688],[12.4622,60.0463,254.4653],[12.4601,60.0552,265.8894],[12.4691,60.0557,268.1352],[12.467,60.0646,248.8549],[12.476,60.0651,253.4376],[12.475,60.0696,254.7912],[12.4839,60.0701,246.2817],[12.4819,60.079,295.1745],[12.4908,60.0795,318.972],[12.4888,60.0884,278.0872],[12.4977,60.089,250.5515],[12.4957,60.0979,202.0],[12.5046,60.0984,219.5322],[12.5016,60.1118,246.7027],[12.5105,60.1123,306.7306],[12.5075,60.1257,314.3929],[12.5165,60.1262,301.7661],[12.5134,60.1395,310.2702],[12.5224,60.14,377.1071],[12.5203,60.149,390.4308],[12.5293,60.1495,354.3653],[12.5262,60.1629,385.983],[12.5352,60.1634,394.5682],[12.5322,60.1767,412.2548],[12.5411,60.1772,445.5769],[12.5381,60.1906,408.0966],[12.5471,60.1911,432.042],[12.545,60.2001,378.6875],[12.536,60.1996,370.0208],[12.5299,60.2263,287.1029],[12.5209,60.2258,286.691],[12.5086,60.2793,222.9543],[12.4996,60.2788,221.067],[12.4976,60.2877,216.056],[12.4886,60.2872,227.2868],[12.4875,60.2917,218.6738],[12.4785,60.2912,219.4326],[12.4775,60.2956,223.8668],[12.4685,60.2951,280.7675],[12.4571,60.3442,315.0562],[12.4481,60.3437,243.658],[12.4419,60.3704,282.8716],[12.4148,60.368899999999996,359.9652],[12.4158,60.3644,399.7351],[12.4068,60.3639,384.3351],[12.4078,60.3595,364.7603],[12.3898,60.3584,354.1531],[12.3908,60.354,297.5745],[12.3818,60.3535,291.1115],[12.3787,60.3668,363.3709],[12.3696,60.3663,315.8903],[12.3675,60.3752,309.0311],[12.3495,60.3742,266.5],[12.3505,60.3697,266.5],[12.3325,60.3687,266.5],[12.3283,60.3865,266.5],[12.3192,60.386,266.5],[12.3171,60.3949,266.5],[12.2719,60.3923,351.6556],[12.2762,60.3745,362.612],[12.2852,60.375,355.1764],[12.2905,60.3527,269.2403],[12.2274,60.349,356.1349],[12.2284,60.3446,374.8892],[12.2374,60.3451,330.606],[12.2428,60.3228,314.5367],[12.2518,60.3233,272.642],[12.2539,60.3144,263.405],[12.2269,60.3129,286.1705],[12.2258,60.3173,281.882],[12.2168,60.3168,338.3118],[12.2147,60.3257,320.8826],[12.2056,60.3252,351.244],[12.2035,60.3341,389.6869],[12.1945,60.3336,400.6771],[12.1934,60.338,366.4839],[12.1754,60.337,462.9977],[12.1711,60.3548,429.611],[12.1621,60.3543,393.6843],[12.1599,60.3632,402.1844],[12.1419,60.3621,378.7439],[12.1408,60.3666,401.5415],[12.1137,60.365,382.3797],[12.1126,60.3694,353.9919],[12.0856,60.3678,415.3506],[12.0845,60.3723,366.845],[12.0123,60.368,158.2262],[12.0134,60.3635,163.0386],[11.9773,60.3613,344.6965],[11.9784,60.3569,238.841],[11.9423,60.3547,200.5099],[11.9434,60.3502,216.1464],[11.9164,60.3486,226.7205],[11.9153,60.353,232.1142],[11.8612,60.3497,344.9884],[11.86,60.3542,343.201],[11.851,60.3536,364.7939],[11.8499,60.3581,435.3173],[11.8409,60.3575,443.3565],[11.842,60.3531,363.967],[11.833,60.3525,374.7143],[11.8352,60.3436,441.929],[11.8443,60.3442,411.8488],[11.8465,60.3353,486.5726],[11.8555,60.3358,469.2117],[11.8566,60.3314,501.0],[11.8656,60.3319,484.0644],[11.8679,60.323,480.118],[11.8769,60.3236,483.1894],[11.878,60.3191,487.2891],[11.887,60.3197,477.1399],[11.8892,60.3108,476.1972],[11.8982,60.3113,477.1496],[11.8993,60.3068,446.9437],[11.9083,60.3074,463.5025],[11.9172,60.2718,346.9444],[11.9262,60.2723,359.3396],[11.9317,60.25,418.9421],[11.9227,60.2495,371.5996],[11.9238,60.245,370.2195],[11.9148,60.2445,349.9045],[11.916,60.24,352.5523],[11.898,60.2389,348.9908],[11.9024,60.2211,239.06],[11.9114,60.2217,267.1236],[11.9147,60.2083,140.0],[11.9057,60.2077,140.0],[11.9068,60.2033,152.7119],[11.8889,60.2022,136.0448],[11.8944,60.1799,172.5506],[11.9034,60.1805,199.4177],[11.9045,60.176,215.962],[11.9135,60.1766,252.3121],[11.9146,60.1721,214.3169],[11.9235,60.1726,229.0215],[11.9246,60.1682,220.3046],[11.9157,60.1676,229.8177],[11.9212,60.1454,395.3519],[11.9122,60.1448,415.3815],[11.9133,60.1404,383.2211],[11.9044,60.1398,373.1646],[11.9055,60.1354,355.0775],[11.8965,60.1348,348.3766],[11.9031,60.1081,311.1105],[11.8852,60.107,317.6633],[11.8863,60.1025,351.7534],[11.8953,60.1031,308.3783],[11.9008,60.0808,331.67],[11.9097,60.0814,307.5],[11.9108,60.0769,309.3008],[11.9466,60.0791,328.3949],[11.9455,60.0835,303.6896],[11.9634,60.0846,319.6636],[12.026,60.0884,296.756],[12.0271,60.084,300.2454],[12.045,60.0851,282.03],[12.0439,60.0895,346.6837],[12.0707,60.0911,214.2226],[12.0697,60.0956,185.5279],[12.0786,60.0961,345.3726],[12.0775,60.1006,297.1454],[12.0865,60.1011,270.9709],[12.0843,60.11,312.1391],[12.0933,60.1106,318.7552],[12.0922,60.115,287.3463],[12.1101,60.1161,150.241],[12.109,60.1205,151.6012],[12.127,60.1216,241.6876],[12.1248,60.1305,263.9205],[12.1338,60.1311,267.3477],[12.1316,60.14,324.2374],[12.1406,60.1405,318.0819],[12.1395,60.145,344.8118],[12.1664,60.1466,349.0828],[12.1675,60.1421,302.0003],[12.2033,60.1442,356.2149],[12.2044,60.1398,341.2957],[12.2313,60.1413,349.8607],[12.2323,60.1369,354.2334],[12.2503,60.1379,362.4211],[12.2513,60.1335,358.4206],[12.2603,60.134,377.4243],[12.2624,60.1251,360.5357],[12.2714,60.1256,334.7095],[12.2798,60.09,271.536],[12.2708,60.0894,246.4048],[12.2719,60.085,242.0982],[12.254,60.0839,245.3763],[12.255,60.0795,249.3145],[12.2461,60.0789,222.3102],[12.2471,60.0745,196.6866],[12.2561,60.075,233.4196],[12.2582,60.0661,195.5],[12.2671,60.0666,207.3604],[12.2682,60.0622,195.5],[12.2771,60.0627,212.412],[12.2782,60.0582,195.5],[12.3139,60.0603,358.5359],[12.3202,60.0336,304.1006],[12.3291,60.0341,317.2586],[12.3312,60.0252,254.6365],[12.3223,60.0246,306.5203],[12.3285,59.9979,253.0288],[12.3375,59.9984,188.69],[12.3395,59.9895,188.1332],[12.3485,59.99,199.9695],[12.3495,59.9855,198.3388],[12.3584,59.9861,159.7066]]]]}
,"properties": {"GID_2": "NOR.6.10_1","GID_0": "NOR","country": "Norway","GID_1": "NOR.6_1","province": "Hedmark","NL_NAME_1": "NA","county": "Kongsvinger","VARNAME_2": "NA","NL_NAME_2": "NA","TYPE_2": "Kommuner","ENGTYPE_2": "Municipality","CC_2": "NA","HASC_2": "NO.HE.KO","name": "Kongsvinger.county","area_km2": 1038.0065,"hist_schema_id": "Elevation0-9000","hist_area_km2": {"125": 3.8773,"150": 68.8717,"175": 83.0875,"200": 79.6366,"225": 97.9152,"250": 110.0507,"275": 115.3275,"300": 109.0217,"325": 100.0478,"350": 84.5751,"375": 68.3606,"400": 51.6946,"425": 33.5549,"450": 17.8435,"475": 9.239,"500": 3.664,"525": 1.0182,"550": 0.1575,"575": 0.063}}}