{"type": "Feature","bbox": [5.9131,59.3045,7.1922,59.7819],"geometry": {"type": "MultiPolygon","coordinates": [[[[5.9758,59.3407,0.7276],[5.9731,59.3413,0.7015],[5.9658,59.3387,7.7311],[5.9542,59.339,0.0],[5.9514,59.3374,0.0],[5.9508,59.3335,0.0],[5.9569,59.3335,3.0153],[5.9614,59.3312,0.0],[5.9575,59.3296,1.2772],[5.9631,59.3293,0.7548],[5.9653,59.3307,0.3742],[5.9647,59.3349,0.0],[5.9764,59.3329,1.2035],[5.9836,59.336,6.4496],[5.9836,59.3393,2.6565],[5.9758,59.3407,0.7276]]],
[[[6.0575,59.3915,5.7553],[6.0475,59.3918,5.5268],[6.0481,59.3901,33.3812],[6.0414,59.3871,0.0],[6.0419,59.3854,0.0],[6.0403,59.3846,0.0],[6.0497,59.3838,5.0815],[6.0558,59.3851,0.0],[6.0597,59.389,0.0],[6.0575,59.3915,5.7553]]],
[[[6.0436,59.394,0.0],[6.0353,59.3946,2.8916],[6.0319,59.3929,0.0],[6.0325,59.3849,0.0],[6.0392,59.386,0.0],[6.0419,59.3899,28.8476],[6.0475,59.3932,0.0],[6.0436,59.394,0.0]]],
[[[6.1909,59.5924,962.2968],[6.1735,59.5905,830.0],[6.1753,59.5861,830.0],[6.1579,59.5843,875.5613],[6.1671,59.5623,973.5533],[6.1584,59.5614,541.3782],[6.1603,59.557,623.2894],[6.1342,59.5542,779.0806],[6.1361,59.5498,863.8573],[6.1447,59.5508,913.459],[6.1466,59.5463,944.6492],[6.1539,59.5289,896.9673],[6.1453,59.5279,873.8856],[6.1563,59.5016,447.8595],[6.1649,59.5025,288.2205],[6.1668,59.4982,157.2457],[6.1754,59.4991,125.079],[6.1819,59.4835,0.0],[6.1964,59.4813,0.0],[6.1981,59.4785,20.9825],[6.1964,59.4757,0.0],[6.1936,59.474,4.9026],[6.1775,59.4724,0.0],[6.1703,59.4738,0.0],[6.1569,59.4732,0.0],[6.1553,59.4715,19.7461],[6.1469,59.4696,8.4122],[6.1297,59.4688,0.0],[6.1197,59.4651,70.9868],[6.1014,59.4646,0.0],[6.0981,59.4624,0.0],[6.0503,59.4568,3.9252],[6.0403,59.4518,10.7082],[6.0275,59.4518,5.4365],[6.0247,59.4493,3.1539],[6.0197,59.4493,0.0],[6.0136,59.4454,30.9045],[6.0042,59.4485,3.8365],[5.9942,59.4485,17.6489],[5.9719,59.444,0.0],[5.9631,59.4457,0.0],[5.9564,59.4451,32.3701],[5.9414,59.4479,15.848],[5.9419,59.4507,0.0],[5.9403,59.4521,0.0],[5.9308,59.454,0.0],[5.9275,59.454,0.0],[5.9264,59.4518,7.1406],[5.9153,59.4507,0.0],[5.9142,59.4465,0.0],[5.9153,59.4449,2.2601],[5.9236,59.4404,8.4204],[5.9192,59.4385,0.0],[5.9264,59.4371,12.8685],[5.9225,59.4338,11.2266],[5.9131,59.4315,0.639],[5.9136,59.4221,5.4674],[5.9197,59.4193,27.3866],[5.9219,59.4149,19.6455],[5.9214,59.4096,40.4715],[5.9175,59.4082,8.2094],[5.9219,59.4051,45.6402],[5.9181,59.4046,2.6082],[5.9164,59.4012,0.0],[5.9192,59.3974,36.2017],[5.9286,59.3943,13.9426],[5.9331,59.3885,10.1231],[5.9336,59.384,59.1122],[5.9375,59.381,0.0],[5.9375,59.3765,0.0],[5.9358,59.374,2.4597],[5.9403,59.3721,20.8579],[5.9397,59.3696,6.0105],[5.9431,59.3676,7.2472],[5.9425,59.3607,7.9271],[5.9469,59.3574,9.6009],[5.9586,59.3537,0.0],[5.9597,59.3518,0.0],[5.9625,59.3524,0.0],[5.9603,59.354,0.1678],[5.9614,59.3565,1.6035],[5.9781,59.3524,2.5346],[5.9781,59.3551,2.2802],[5.9719,59.3585,4.9699],[5.9758,59.3601,0.0],[5.9764,59.3626,27.0141],[5.9814,59.3662,8.4248],[5.9819,59.3693,47.8399],[5.9925,59.3726,0.0],[5.9986,59.3782,0.0],[6.0114,59.3749,0.0],[6.0136,59.3757,5.5184],[6.0136,59.3782,3.4118],[6.0175,59.3779,0.0],[6.0208,59.3799,0.0],[6.0197,59.3835,22.379],[6.0164,59.3835,42.2316],[6.0114,59.3863,18.9722],[6.0125,59.3871,36.3456],[6.0181,59.3843,1.564],[6.0214,59.3851,0.0],[6.0197,59.3907,16.8302],[6.0231,59.3918,0.0],[6.0231,59.3932,0.0],[6.0208,59.3943,0.0],[6.0197,59.399,8.2911],[6.0208,59.4004,0.0],[6.0186,59.4046,3.7174],[6.0147,59.404,0.0],[6.0064,59.3988,0.0],[6.0031,59.3999,12.6008],[6.0053,59.4004,0.0],[6.0058,59.4054,2.7077],[6.0169,59.4079,0.0],[6.0214,59.4104,0.0],[6.0236,59.4104,0.0],[6.0247,59.4082,29.7644],[6.0225,59.4065,15.4366],[6.0242,59.4018,0.0],[6.0325,59.3979,0.0],[6.0431,59.3968,4.9524],[6.0425,59.3954,5.5584],[6.0442,59.3949,0.0],[6.0514,59.3951,0.0],[6.0542,59.3985,16.537],[6.0597,59.4001,0.0],[6.0586,59.4026,1.8629],[6.0508,59.4026,11.3137],[6.0514,59.404,35.254],[6.0625,59.4057,37.9784],[6.0608,59.4065,51.1735],[6.0625,59.4068,37.9784],[6.0681,59.4068,33.1918],[6.0692,59.4051,0.0],[6.0742,59.4063,14.3535],[6.0797,59.4051,0.0],[6.0831,59.4071,0.0],[6.0814,59.4085,36.9674],[6.0825,59.4096,0.0],[6.0875,59.4095,0.0],[6.0886,59.4082,0.0],[6.1019,59.409,25.5006],[6.1119,59.404,4.3821],[6.1197,59.4046,0.0],[6.1236,59.409,0.0],[6.1208,59.4096,7.9752],[6.1208,59.4118,17.7183],[6.1242,59.4146,13.1837],[6.1242,59.4165,5.3954],[6.1208,59.4174,11.5078],[6.1208,59.4188,107.4798],[6.1292,59.4207,0.0],[6.1358,59.4246,64.3608],[6.1569,59.4262,14.7772],[6.1647,59.4315,0.0],[6.1669,59.4368,3.2311],[6.1725,59.4393,19.8589],[6.1758,59.439,0.0],[6.1769,59.4471,0.0],[6.1842,59.451,0.0],[6.1847,59.4549,3.4978],[6.1975,59.4601,0.0],[6.2047,59.4671,135.2002],[6.2125,59.4693,0.0],[6.2192,59.4738,10.4223],[6.2153,59.479,0.0],[6.2147,59.4837,0.0],[6.2158,59.4849,0.0],[6.2125,59.4868,0.0],[6.2042,59.486,8.4513],[6.2031,59.4871,10.4485],[6.2058,59.4901,0.0],[6.2081,59.5013,18.1176],[6.2136,59.5029,0.0],[6.2192,59.5074,34.4931],[6.2475,59.5176,0.0],[6.2542,59.5226,7.8484],[6.2569,59.5313,0.0],[6.2631,59.5307,0.0],[6.2636,59.5329,0.0],[6.2619,59.5343,39.2097],[6.2636,59.5363,45.464],[6.2675,59.5351,0.0],[6.2708,59.5376,0.0],[6.2686,59.5385,20.9858],[6.2692,59.5454,0.0],[6.2658,59.5504,19.3665],[6.2658,59.5521,48.5461],[6.2692,59.5543,0.0],[6.2666,59.5609,241.1834],[6.2692,59.5641,194.4683],[6.2664,59.5638,207.9663],[6.2646,59.5682,220.3147],[6.2559,59.5673,427.0376],[6.2541,59.5716,475.2894],[6.2454,59.5707,499.8879],[6.2435,59.5751,555.6648],[6.2261,59.5733,697.4896],[6.2225,59.582,885.9627],[6.2138,59.5811,942.996],[6.212,59.5855,962.749],[6.2033,59.5845,1134.0974],[6.2014,59.5889,908.0889],[6.1927,59.588,1040.7656],[6.1909,59.5924,962.2968]]],
[[[6.1914,59.3282,1.6792],[6.1914,59.3304,6.6895],[6.1875,59.3293,5.9747],[6.1892,59.3276,1.6792],[6.1914,59.3282,1.6792]]],
[[[6.2297,59.3446,2.0816],[6.2264,59.3457,0.0],[6.2253,59.3432,2.1073],[6.2275,59.3429,2.1073],[6.2297,59.3446,2.0816]]],
[[[6.0947,59.4043,0.0],[6.0908,59.4043,0.0],[6.0908,59.4015,13.9859],[6.0892,59.401,0.0],[6.0892,59.3976,0.0],[6.0875,59.396,0.0],[6.0942,59.3946,0.0],[6.0997,59.3996,23.0873],[6.1007999999999996,59.4032,2.7858],[6.0947,59.4043,0.0]]],
[[[7.1835,59.6763,1068.5902],[7.1922,59.6771,1050.8661],[7.1905,59.6815,1052.8804],[7.173,59.6798,1050.4749],[7.1713,59.6842,1050.5266],[7.1625,59.6833,1050.3458],[7.1608,59.6877,1052.6965],[7.1521,59.6869,1055.9009],[7.1504,59.6913,1050.4407],[7.1416,59.6904,1051.2443],[7.1399,59.6948,1050.5607],[7.1312,59.6939,1050.4319],[7.1294,59.6983,1050.4625],[7.1207,59.6975,1052.4907],[7.119,59.7019,1118.0],[7.1102,59.701,1207.978],[7.1068,59.7098,1370.7886],[7.1155,59.7107,1367.3495],[7.1121,59.7195,1405.8192],[7.1208,59.7203,1374.9706],[7.1174,59.7291,1410.2952],[7.1261,59.73,1388.9666],[7.1227,59.7388,1372.6714],[7.1315,59.7397,1442.5669],[7.128,59.7485,1395.0942],[7.1368,59.7493,1499.5835],[7.1351,59.7537,1583.4434],[7.1263,59.7529,1537.1576],[7.1246,59.7573,1579.7656],[7.1158,59.7564,1468.8745],[7.1141,59.7608,1613.8281],[7.1053,59.7599,1582.4724],[7.0967,59.7819,1567.1427],[7.0441,59.7767,1356.759],[7.0423,59.7811,1356.0129],[6.9897,59.7758,1341.0375],[6.9915,59.7714,1385.207],[6.9652,59.7688,1200.2579],[6.9669,59.7644,1221.5565],[6.9407,59.7618,1461.51],[6.9424,59.7574,1484.704],[6.9249,59.7556,1559.7809],[6.9266,59.7512,1574.5775],[6.9004,59.7486,1556.6071],[6.9021,59.7442,1557.5599],[6.8409,59.738,1435.9065],[6.8426,59.7336,1488.623],[6.8251,59.7318,1419.8572],[6.8269,59.7274,1417.5483],[6.8094,59.7256,1348.3138],[6.8111,59.7212,1418.2744],[6.8024,59.7203,1106.3276],[6.8042,59.7159,1167.313],[6.7867,59.7142,1181.3632],[6.7884,59.7098,1101.0066],[6.771,59.708,1035.7458],[6.7727,59.7036,932.3458],[6.6941,59.6955,1050.0391],[6.6958,59.6911,1019.5385],[6.6871,59.6902,1032.8208],[6.6889,59.6858,994.1215],[6.6802,59.6849,1092.1862],[6.6819,59.6806,1059.4066],[6.6732,59.6797,1100.1144],[6.675,59.6753,961.5],[6.6575,59.6735,1191.3811],[6.6593,59.6691,1144.7588],[6.6506,59.6682,1231.3412],[6.6523,59.6638,1194.4406],[6.6436,59.6629,1204.9866],[6.6454,59.6585,1117.085],[6.6279,59.6567,1222.297],[6.6297,59.6523,1218.7327],[6.621,59.6514,1261.8116],[6.6228,59.647,1132.6365],[6.6053,59.6452,1267.7014],[6.6071,59.6408,1093.3708],[6.5897,59.639,1277.6802],[6.5915,59.6346,1446.8704],[6.5828,59.6337,1516.8834],[6.5845,59.6293,1394.4149],[6.5671,59.6275,1401.0273],[6.5689,59.6231,1309.7607],[6.5427,59.6204,1298.3302],[6.5445,59.616,1308.5607],[6.5097,59.6124,1129.8296],[6.5115,59.608,1053.7771],[6.4854,59.6052,1093.0552],[6.4872,59.6008,1093.0658],[6.4262,59.5944,862.0],[6.428,59.5901,947.0775],[6.4106,59.5882,960.2348],[6.4124,59.5838,919.3596],[6.4037,59.5829,897.2614],[6.4055,59.5785,846.1011],[6.3968,59.5776,862.854],[6.3986,59.5732,714.4128],[6.3899,59.5723,922.7453],[6.3917,59.5679,773.5441],[6.357,59.5642,682.6021],[6.3588,59.5599,567.0604],[6.3501,59.5589,508.5463],[6.3483,59.5633,559.6943],[6.3048,59.5587,239.5363],[6.3025,59.5629,4.145],[6.2931,59.5599,0.0],[6.2947,59.556,59.6743],[6.2869,59.5499,0.0],[6.2869,59.5476,0.0],[6.2825,59.5435,22.0985],[6.2814,59.5371,68.8043],[6.2719,59.5282,6.4503],[6.2719,59.5257,41.0084],[6.2697,59.5249,21.4686],[6.2697,59.5218,50.102],[6.2675,59.5199,10.4538],[6.2692,59.5171,11.6782],[6.2831,59.5182,0.0],[6.2953,59.524,15.0478],[6.3086,59.5249,0.0],[6.3192,59.5274,5.3142],[6.3242,59.5296,3.2033],[6.3236,59.5326,15.0508],[6.3258,59.5332,0.0],[6.3419,59.5329,0.0],[6.3492,59.5365,0.0],[6.3564,59.5363,0.0],[6.3603,59.5382,0.0],[6.3569,59.5424,9.4642],[6.3653,59.5432,0.0],[6.3675,59.5454,9.8651],[6.3886,59.5446,0.0],[6.3958,59.5468,2.6652],[6.4092,59.5474,0.0],[6.4125,59.5488,26.8988],[6.4108,59.5499,41.6181],[6.4197,59.549,0.0],[6.4258,59.5518,0.0],[6.4264,59.5543,118.6597],[6.4381,59.5571,153.1456],[6.4636,59.5585,0.0],[6.4831,59.5563,0.0],[6.4864,59.5585,8.9515],[6.4914,59.559,69.0486],[6.5025,59.5565,0.0],[6.5392,59.5599,13.0467],[6.5547,59.5579,28.6899],[6.5925,59.5607,155.3299],[6.6008,59.559,13.0085],[6.5847,59.556,5.5144],[6.5664,59.5557,0.0],[6.5608,59.5529,147.9825],[6.5581,59.5543,5.7178],[6.5508,59.5532,36.8555],[6.5436,59.5543,0.0],[6.5381,59.5524,18.0963],[6.5264,59.5518,19.0657],[6.5169,59.5488,0.0],[6.5058,59.5513,18.5333],[6.4975,59.5496,41.5917],[6.4864,59.5513,0.0],[6.4781,59.5493,8.7594],[6.4631,59.549,0.0],[6.4464,59.5449,13.151],[6.4353,59.539,8.3303],[6.3992,59.5332,33.463],[6.3986,59.5313,78.3536],[6.3936,59.5301,0.0],[6.3931,59.5274,1.214],[6.3886,59.526,0.0],[6.3764,59.5249,13.3253],[6.3681,59.5265,17.8858],[6.3469,59.5199,23.5563],[6.3197,59.5163,0.0],[6.3086,59.5107,16.881],[6.2992,59.5115,9.394],[6.2708,59.5065,3.2942],[6.2597,59.5004,57.8671],[6.2553,59.4996,5.2233],[6.2464,59.4935,4.7522],[6.2458,59.4854,0.0],[6.2486,59.484,0.6867],[6.2475,59.4826,0.166],[6.2492,59.481,8.1077],[6.2442,59.4804,0.0],[6.2431,59.4782,0.0],[6.2469,59.4765,43.2342],[6.2464,59.4746,0.0],[6.2481,59.4732,0.0],[6.2547,59.4726,212.0121],[6.2553,59.4696,27.6398],[6.2542,59.469,0.0],[6.2553,59.4685,57.3584],[6.2519,59.4663,0.0],[6.2508,59.4635,53.5962],[6.2469,59.4626,7.222],[6.2475,59.4607,24.7682],[6.2403,59.4579,0.0],[6.2397,59.4557,0.0],[6.2369,59.4546,13.6518],[6.2392,59.4518,0.0],[6.2353,59.4499,0.0],[6.2364,59.4479,56.9526],[6.2336,59.4471,0.0],[6.2314,59.4432,8.3133],[6.2281,59.4429,0.0],[6.2242,59.4351,141.8924],[6.2203,59.4321,0.0],[6.2197,59.4285,94.075],[6.2164,59.4282,0.0],[6.2181,59.4229,4.3213],[6.2164,59.4207,0.0],[6.2164,59.4168,2.9915],[6.2142,59.4124,54.0968],[6.2092,59.4082,18.7019],[6.2025,59.4071,0.0],[6.2031,59.4096,5.4199],[6.2064,59.411,8.546],[6.2064,59.4135,30.6585],[6.2108,59.4162,0.0],[6.2108,59.4196,18.5329],[6.2147,59.4207,0.0],[6.2125,59.4232,0.0],[6.2142,59.4257,0.0],[6.2108,59.4276,34.1706],[6.2114,59.4304,0.0],[6.2153,59.4329,0.0],[6.2175,59.4393,0.0],[6.2147,59.4451,0.0],[6.2031,59.4421,0.0],[6.2019,59.4382,22.4666],[6.1953,59.4346,7.8047],[6.1936,59.4313,42.7664],[6.1892,59.431,5.2462],[6.1869,59.4257,46.3777],[6.1764,59.4229,10.9586],[6.177,59.4209,20.9864],[6.1719,59.4215,51.6599],[6.1714,59.4243,9.1675],[6.1764,59.4238,0.0],[6.1803,59.426,0.0],[6.1792,59.4279,0.0],[6.1825,59.429,0.0],[6.1825,59.4318,0.0],[6.1653,59.4287,14.4191],[6.1608,59.4251,0.0],[6.1619,59.4235,3.0045],[6.1536,59.4218,0.0],[6.1525,59.4193,51.2981],[6.1331,59.4165,4.6081],[6.1314,59.4151,20.4267],[6.1325,59.4124,27.171],[6.1269,59.4115,0.0],[6.1258,59.4096,0.0],[6.1336,59.4068,0.0],[6.1336,59.4046,0.0],[6.1364,59.4049,0.0],[6.1375,59.4035,39.9425],[6.1247,59.3982,16.7086],[6.1181,59.399,0.0],[6.1169,59.3974,13.274],[6.1142,59.3974,0.0],[6.1119,59.3979,48.5127],[6.1114,59.3999,22.7955],[6.1025,59.4012,3.752],[6.1007999999999996,59.3976,0.0],[6.1058,59.3965,9.7784],[6.1058,59.3949,25.0247],[6.0997,59.3957,0.0],[6.0914,59.3935,39.4981],[6.0853,59.3949,0.9148],[6.0808,59.391,0.0],[6.0864,59.3893,0.0],[6.0808,59.3899,0.6964],[6.0781,59.3885,5.7452],[6.0781,59.3846,19.3479],[6.0736,59.3865,0.0],[6.0642,59.3868,16.1444],[6.0508,59.381,0.0],[6.0453,59.3771,1.6734],[6.0453,59.3743,1.363],[6.0425,59.3737,0.0],[6.0442,59.371,0.0],[6.0381,59.3676,0.0],[6.0397,59.3646,1.0773],[6.0431,59.3629,4.9409],[6.0308,59.3543,0.0],[6.0264,59.3529,21.5568],[6.0275,59.3518,70.644],[6.0253,59.3515,1.1007],[6.0197,59.3401,0.0],[6.0219,59.3371,0.0],[6.0253,59.3365,0.0],[6.0269,59.3324,5.3511],[6.0331,59.3312,0.0],[6.0353,59.3354,0.0],[6.0375,59.3354,0.0],[6.0392,59.3312,18.8346],[6.0375,59.3282,0.0],[6.0414,59.3268,0.0],[6.0608,59.3274,9.9723],[6.0647,59.3288,48.1847],[6.0703,59.3276,2.9801],[6.0803,59.3301,0.8723],[6.0814,59.3271,0.0],[6.0842,59.3254,0.0],[6.0864,59.3262,2.5922],[6.0847,59.3312,0.0],[6.0892,59.3335,0.6149],[6.0925,59.3449,0.0],[6.0897,59.3465,0.0],[6.0875,59.3435,7.7794],[6.0808,59.3435,11.3004],[6.0814,59.3465,7.7229],[6.0903,59.3507,0.0],[6.0919,59.3543,16.5041],[6.0975,59.3563,4.1402],[6.0992,59.3596,36.8713],[6.1025,59.3613,4.9175],[6.1053,59.3604,46.8981],[6.0981,59.3543,5.3704],[6.1092,59.356,12.6829],[6.1003,59.3529,2.2819],[6.1014,59.3471,0.0],[6.1003,59.3446,4.6129],[6.0964,59.3429,1.9489],[6.0931,59.3376,0.0],[6.0942,59.3357,10.1902],[6.1036,59.3354,3.0691],[6.1025,59.3335,18.725],[6.0981,59.3321,0.0],[6.1014,59.3282,0.2889],[6.0992,59.3226,0.0],[6.1019,59.321,0.0],[6.1186,59.3215,6.6579],[6.1186,59.3196,0.0],[6.1214,59.3187,0.75],[6.1214,59.3165,0.0],[6.1253,59.3171,18.3982],[6.1342,59.3143,7.8864],[6.1447,59.3154,28.632],[6.1481,59.3146,60.1308],[6.1458,59.3135,0.0],[6.1531,59.3129,0.0],[6.1569,59.3154,4.6497],[6.1619,59.314,25.9317],[6.1703,59.3146,0.0],[6.1792,59.3174,0.0],[6.1825,59.3232,3.2421],[6.1858,59.3232,0.0],[6.1881,59.3251,2.7797],[6.1886,59.3271,0.0],[6.1853,59.3296,0.0],[6.1853,59.3329,2.7821],[6.1897,59.3346,0.0],[6.1881,59.3354,0.0],[6.1897,59.3399,0.2073],[6.1969,59.3407,0.0],[6.1997,59.344,0.0],[6.2125,59.341,0.2957],[6.2108,59.3404,1.1833],[6.2097,59.3371,4.0605],[6.2064,59.3354,39.4143],[6.1931,59.3329,0.0],[6.1942,59.3307,0.0],[6.2014,59.3268,56.7134],[6.1936,59.3274,0.0],[6.1881,59.3249,2.7797],[6.1892,59.3232,34.4574],[6.1864,59.3224,0.0],[6.1875,59.3174,6.0308],[6.2014,59.319,0.0],[6.2097,59.3224,14.1543],[6.2197,59.3218,0.0],[6.2308,59.3235,0.0],[6.2369,59.3254,0.0],[6.2364,59.3285,0.0],[6.2392,59.3296,1.2948],[6.2342,59.3315,5.9645],[6.2336,59.3338,0.0],[6.2308,59.3354,58.4042],[6.2292,59.3421,0.0],[6.2258,59.3404,10.7796],[6.2203,59.3404,8.3693],[6.2225,59.3443,0.0],[6.2186,59.3454,5.6522],[6.2169,59.3479,25.1006],[6.2169,59.3493,25.2981],[6.2219,59.3496,0.0],[6.2197,59.3543,8.3772],[6.2286,59.3532,0.0],[6.2231,59.3649,3.0981],[6.2197,59.3674,0.0],[6.2203,59.3751,0.0],[6.2142,59.3832,0.0],[6.2175,59.3868,0.0],[6.2169,59.3899,15.6349],[6.2181,59.3899,0.5524],[6.2208,59.3887,6.2655],[6.2231,59.3776,0.0],[6.2247,59.3771,46.3922],[6.2247,59.3737,7.2816],[6.2269,59.3715,0.0],[6.2269,59.3679,0.0],[6.2319,59.3613,66.3554],[6.2308,59.3557,9.972],[6.2319,59.3507,18.1594],[6.2408,59.3449,3.8872],[6.2431,59.3365,1.3306],[6.2458,59.3357,28.4853],[6.2536,59.3282,0.0],[6.2681,59.3213,1.8841],[6.2742,59.3199,0.0],[6.2864,59.3204,0.0],[6.2903,59.3182,5.0964],[6.2853,59.3176,40.3525],[6.2703,59.3193,0.0],[6.2658,59.3174,0.0],[6.2658,59.3154,0.0],[6.2675,59.3149,4.7713],[6.2846,59.3146,121.7598],[6.2895,59.3118,68.6938],[6.2853,59.3098,136.5042],[6.2807,59.3105,28.3644],[6.2832,59.3045,328.4315],[6.3263,59.3091,247.5428],[6.3191,59.3266,444.2622],[6.3278,59.3276,448.2339],[6.326,59.3319,425.1002],[6.3346,59.3329,441.0583],[6.3328,59.3373,439.3081],[6.3501,59.3391,634.1406],[6.3483,59.3435,616.7083],[6.3569,59.3444,619.5763],[6.3551,59.3488,583.653],[6.3637,59.3497,629.8965],[6.362,59.3541,562.5979],[6.3706,59.355,571.6549],[6.367,59.3638,672.7338],[6.3843,59.3656,751.5194],[6.3825,59.37,773.8146],[6.3998,59.3719,721.374],[6.4052,59.3587,636.1588],[6.4657,59.3651,446.481],[6.4639,59.3695,494.0376],[6.4725,59.3704,384.4328],[6.4708,59.3748,172.4461],[6.4794,59.3757,175.7256],[6.4812,59.3713,475.5028],[6.4898,59.3722,394.1335],[6.4916,59.3678,631.3598],[6.5003,59.3687,646.5961],[6.502,59.3643,649.3589],[6.528,59.3671,747.787],[6.5298,59.3627,799.0681],[6.5471,59.3645,796.659],[6.5488,59.3601,664.6048],[6.5834,59.3637,749.8788],[6.5817,59.3681,776.7464],[6.5903,59.369,780.4466],[6.5885,59.3734,755.3553],[6.6058,59.3752,719.1002],[6.6076,59.3708,833.7328],[6.6163,59.3717,837.1778],[6.6216,59.3585,1045.2782],[6.6302,59.3594,1017.5779],[6.6355,59.3463,534.1853],[6.6441,59.3472,623.1339],[6.6424,59.3516,799.5494],[6.6856,59.3561,1025.5568],[6.6839,59.3605,1053.9073],[6.7271,59.3649,1066.775],[6.7254,59.3693,995.4766],[6.734,59.3702,970.5911],[6.7773,59.3747,1044.0],[6.7791,59.3703,1048.9954],[6.7964,59.3721,1044.0],[6.7981,59.3677,1044.0],[6.8068,59.3686,1044.0],[6.8085,59.3642,1044.0],[6.8604,59.3695,1046.0],[6.8587,59.3739,1103.6069],[6.8674,59.3748,1064.281],[6.8656,59.3792,1058.152],[6.8743,59.3801,1046.0],[6.8708,59.3888,1046.0],[6.8795,59.3897,1053.0322],[6.8778,59.3941,1066.9432],[6.8864,59.395,1046.0],[6.883,59.4038,1046.0],[6.8916,59.4047,1046.0],[6.8899,59.4091,1052.9814],[6.8986,59.41,1057.5],[6.8934,59.4232,1046.0],[6.8847,59.4223,1046.7761],[6.8812,59.4311,1046.0],[6.9072,59.4337,1078.6554],[6.9055,59.4381,1131.7532],[6.9402,59.4416,1122.4178],[6.9385,59.446,1221.3345],[6.9645,59.4487,1176.0],[6.9628,59.4531,1265.3555],[6.9715,59.454,1225.0894],[6.9698,59.4584,1224.3204],[6.9784,59.4592,1209.1736],[6.9767,59.4636,1185.859],[6.9854,59.4645,1182.585],[6.9837,59.4689,1310.9758],[6.9924,59.4698,1192.3484],[6.9907,59.4742,1292.8667],[6.9993,59.4751,1200.1537],[6.9976,59.4795,1273.2969],[7.0063,59.4803,1205.6859],[6.996,59.5067,1160.3678],[6.9873,59.5058,1160.7095],[6.9855,59.5102,1201.379],[6.9769,59.5094,1160.394],[6.9751,59.5138,1240.8162],[6.9664,59.5129,1164.8146],[6.9647,59.5173,1210.8959],[6.956,59.5164,1193.6626],[6.9543,59.5208,1351.6793],[6.963,59.5217,1377.4043],[6.9595,59.5305,1233.7665],[6.9682,59.5314,1364.2101],[6.9665,59.5357,1231.61],[6.9752,59.5366,1297.8872],[6.9717,59.5454,1308.688],[6.9804,59.5463,1166.3608],[6.977,59.5551,1168.0154],[6.9857,59.556,1147.9596],[6.9736,59.5868,1189.0597],[6.9823,59.5876,1257.8478],[6.9806,59.592,1311.3301],[7.0416,59.5982,1316.6478],[7.0399,59.6026,1258.5703],[7.0486,59.6034,1264.843],[7.0451,59.6122,1194.6228],[7.0713,59.6149,1294.7053],[7.0679,59.6237,1240.5378],[7.0853,59.6254,1376.9998],[7.0836,59.6298,1358.5991],[7.0923,59.6307,1239.3065],[7.0906,59.6351,1201.4299],[7.1081,59.6368,1199.0223],[7.1012,59.6544,1271.5513],[7.1274,59.657,1248.093],[7.1257,59.6614,1313.9702],[7.1606,59.6649,1219.9159],[7.1589,59.6693,1096.6118],[7.1852,59.6719,1123.2533],[7.1835,59.6763,1068.5902]]]]}
,"properties": {"GID_2": "NOR.13.22_1","GID_0": "NOR","country": "Norway","GID_1": "NOR.13_1","province": "Rogaland","NL_NAME_1": "NA","county": "Suldal","VARNAME_2": "NA","NL_NAME_2": "NA","TYPE_2": "Kommuner","ENGTYPE_2": "Municipality","CC_2": "NA","HASC_2": "NO.RO.SU","name": "Suldal.county","area_km2": 1702.593,"hist_schema_id": "Elevation0-9000","hist_area_km2": {"-25": 0.032,"0": 18.061,"25": 23.079,"50": 23.675,"75": 57.943,"100": 23.654,"125": 22.349,"150": 22.639,"175": 22.248,"200": 23.68,"225": 22.79,"250": 25.075,"275": 24.952,"300": 25.482,"325": 23.945,"350": 25.489,"375": 26.567,"400": 25.498,"425": 24.342,"450": 22.043,"475": 22.422,"500": 24.413,"525": 28.024,"550": 25.001,"575": 26.721,"600": 39.675,"625": 31.561,"650": 35.095,"675": 36.749,"700": 38.917,"725": 36.709,"750": 38.055,"775": 37.768,"800": 38.29,"825": 34.787,"850": 36.073,"875": 31.464,"900": 34.704,"925": 31.527,"950": 33.296,"975": 33.178,"1000": 32.847,"1025": 34.613,"1050": 55.169,"1075": 40.437,"1100": 43.942,"1125": 38.477,"1150": 34.976,"1175": 37.121,"1200": 32.392,"1225": 26.65,"1250": 24.377,"1275": 23.444,"1300": 22.498,"1325": 18.306,"1350": 14.793,"1375": 11.765,"1400": 8.088,"1425": 5.095,"1450": 3.799,"1475": 3.39,"1500": 2.94,"1525": 2.822,"1550": 3.121,"1575": 2.692,"1600": 0.833,"1625": 0.032}}}