{"type": "Feature","bbox": [9.1021,63.2792,9.7225,63.5583],"geometry": {"type": "MultiPolygon","coordinates": [[[[9.4497,63.5465,0.0],[9.4516,63.5484,0.0],[9.4422,63.5453,0.0],[9.4458,63.5417,0.0],[9.4432,63.538,52.8421],[9.4297,63.537,0.0],[9.4286,63.5318,0.0],[9.4208,63.5313,0.0],[9.4167,63.5333,21.2815],[9.4125,63.5333,32.6848],[9.4089,63.5307,10.9187],[9.4125,63.5271,0.0],[9.4109,63.5234,0.0],[9.4141,63.5224,48.3353],[9.4151,63.5172,0.0],[9.4182,63.5161,75.0214],[9.4167,63.5125,9.4217],[9.4208,63.5083,3.4609],[9.4193,63.5047,0.0],[9.4224,63.5036,0.0],[9.4167,63.5,8.7774],[9.4063,63.5042,10.2866],[9.4005,63.5047,32.7833],[9.4016,63.5078,0.0],[9.3922,63.5089,196.4809],[9.3938,63.5125,21.0135],[9.3901,63.5161,0.0],[9.3953,63.5203,39.0931],[9.388,63.5245,32.8028],[9.3901,63.5307,35.6818],[9.3955,63.5324,0.0],[9.3953,63.5349,0.0],[9.3922,63.537,0.0],[9.3943,63.5411,0.0],[9.4,63.5438,0.0],[9.4104,63.5396,11.8577],[9.4266,63.5401,0.0],[9.4328,63.5443,0.0],[9.4349,63.5516,0.0],[9.4229,63.5521,0.0],[9.4021,63.5458,0.0],[9.4005,63.5464,0.0],[9.4005,63.5495,0.0],[9.4099,63.5505,0.0],[9.412,63.5526,0.0],[9.412,63.5557,0.0],[9.4,63.5542,0.0],[9.3984,63.5547,0.0],[9.3995,63.5578,0.0],[9.3875,63.5583,0.0],[9.3797,63.5557,0.0],[9.3771,63.5521,9.3357],[9.3729,63.5542,0.0],[9.3667,63.5542,0.0],[9.3625,63.5521,10.4939],[9.3547,63.5516,0.0],[9.3578,63.5484,0.0],[9.3443,63.5432,19.1409],[9.3255,63.5307,0.0],[9.3224,63.5214,5.8971],[9.3146,63.5187,10.499],[9.3,63.5167,0.0],[9.2943,63.5193,0.0],[9.2932,63.5224,15.5426],[9.2833,63.5271,32.0891],[9.2792,63.5271,22.9586],[9.275,63.525,96.514],[9.2646,63.525,35.1096],[9.2604,63.5229,105.0171],[9.25,63.5229,63.0756],[9.2396,63.5187,0.0],[9.2292,63.5187,22.0736],[9.225,63.5167,41.1052],[9.2188,63.5167,12.4038],[9.2161,63.513,54.4424],[9.2109,63.512,3.3553],[9.2099,63.5068,39.4263],[9.1995,63.5026,19.3123],[9.1875,63.5021,0.0],[9.1833,63.5042,0.0],[9.1797,63.5016,0.0],[9.1786,63.4964,2.2893],[9.1667,63.4917,21.0194],[9.1484,63.4891,0.0],[9.1583,63.4833,0.0],[9.1682,63.4828,0.0],[9.1693,63.4797,52.6958],[9.1724,63.4786,94.1548],[9.1693,63.4693,0.0],[9.1771,63.4688,24.4065],[9.1828,63.4661,24.2461],[9.1776,63.4641,0.0],[9.1776,63.4609,19.0988],[9.2,63.4583,36.522],[9.2042,63.4562,0.0],[9.2104,63.4562,0.0],[9.2146,63.4583,55.0376],[9.2245,63.4536,0.0],[9.2255,63.4505,23.9634],[9.2313,63.4479,0.0],[9.25,63.4479,0.0],[9.2583,63.4521,68.8267],[9.2917,63.4521,0.0],[9.2943,63.4484,0.0],[9.3042,63.4458,0.0],[9.3146,63.4521,16.0291],[9.3265999999999991,63.4526,0.0],[9.3297,63.4578,17.5747],[9.3354,63.4604,0.0],[9.3391,63.4599,0.0],[9.338,63.4568,0.0],[9.3396,63.4562,12.2748],[9.3646,63.4562,0.0],[9.3792,63.4625,0.0],[9.3833,63.4604,0.0],[9.3875,63.4625,0.0],[9.4083,63.4625,0.0],[9.4229,63.4688,38.2484],[9.4292,63.4667,3.7441],[9.4438,63.4729,0.0],[9.4542,63.4729,0.0],[9.4688,63.4771,0.0],[9.4703,63.4755,0.0],[9.4646,63.4708,0.0],[9.4688,63.4667,0.0],[9.4792,63.4667,0.0],[9.4911,63.4703,8.1693],[9.4911,63.4672,0.0],[9.4875,63.4646,6.0221],[9.4688,63.4646,0.0],[9.4646,63.4625,144.3471],[9.4583,63.4625,41.5848],[9.45,63.4667,32.3909],[9.4354,63.4667,0.0],[9.4328,63.463,0.0],[9.4286,63.4609,0.0],[9.4089,63.4557,114.8229],[9.4,63.45,299.2581],[9.3938,63.45,279.6623],[9.3896,63.4479,421.7597],[9.3854,63.4521,0.0],[9.3776,63.4495,16.0796],[9.3734,63.4474,41.0525],[9.3766,63.4453,176.4885],[9.375,63.4437,321.0761],[9.3604,63.4479,14.2988],[9.3458,63.4479,37.8904],[9.3375,63.4437,77.4692],[9.3313,63.4437,8.1681],[9.3271,63.4458,0.0],[9.3167,63.4417,47.5945],[9.3063,63.4417,0.0],[9.3036,63.438,18.0053],[9.2917,63.4333,81.1586],[9.2839,63.4339,0.0],[9.2849,63.437,0.0],[9.2792,63.4396,35.6991],[9.2688,63.4396,12.6016],[9.2542,63.4333,60.2135],[9.2396,63.4354,46.1011],[9.2292,63.4313,0.0],[9.2104,63.4333,56.494],[9.2021,63.4292,138.5886],[9.1958,63.4292,59.3716],[9.188,63.4266,0.0],[9.1911,63.4234,68.3479],[9.188,63.4224,85.2977],[9.1849,63.4172,10.6089],[9.1818,63.4161,43.1611],[9.1792,63.4125,30.4677],[9.1828,63.4099,143.545],[9.1818,63.4047,0.0],[9.1891,63.4016,87.1294],[9.1901,63.3984,0.0],[9.1932,63.3974,66.5019],[9.1922,63.3943,0.0],[9.1995,63.3932,0.0],[9.2036,63.3911,0.0],[9.2047,63.388,0.0],[9.212,63.387,0.0],[9.2146,63.3833,0.0],[9.2349,63.387,0.0],[9.2354,63.3833,0.0],[9.2318,63.3714,0.0],[9.2417,63.3688,0.0],[9.2563,63.3688,168.3893],[9.2604,63.3667,0.0],[9.2646,63.3688,96.1629],[9.3,63.3708,0.0],[9.3042,63.3729,0.0],[9.3146,63.3729,0.0],[9.3188,63.375,0.0],[9.3229,63.3729,0.0],[9.3563,63.3729,0.0],[9.3604,63.375,35.7514],[9.3646,63.375,41.0232],[9.3688,63.3729,0.0],[9.3729,63.375,0.0],[9.3896,63.3771,0.0],[9.3938,63.3792,0.0],[9.4125,63.3792,0.0],[9.4292,63.3854,0.0],[9.4521,63.3854,0.0],[9.4667,63.3896,0.0],[9.4729,63.3896,0.0],[9.4755,63.3932,0.0],[9.4833,63.3958,20.8199],[9.4995,63.3953,0.0],[9.4901,63.3911,0.0],[9.4911,63.388,0.0],[9.4813,63.3854,72.9718],[9.4708,63.3854,39.5034],[9.4526,63.3786,105.1308],[9.4516,63.3755,184.4123],[9.4375,63.3708,358.8691],[9.4271,63.3708,106.7866],[9.4146,63.3667,217.5519],[9.3958,63.3688,0.0],[9.3896,63.3667,52.976],[9.3854,63.3688,0.0],[9.3813,63.3667,30.1317],[9.3708,63.3667,0.0],[9.3682,63.363,26.7358],[9.3604,63.3625,47.9312],[9.3563,63.3604,203.4837],[9.3521,63.3625,61.9273],[9.3417,63.3625,0.0],[9.3375,63.3583,26.1383],[9.3271,63.3583,30.7576],[9.3245,63.362,29.0822],[9.3188,63.3646,0.0],[9.3042,63.3646,0.0],[9.3,63.3604,1.7635],[9.2896,63.3625,0.0],[9.2839,63.3599,0.0],[9.2807,63.3547,0.0],[9.2714,63.3516,0.0],[9.2688,63.3479,36.1644],[9.2625,63.3479,0.0],[9.2583,63.35,0.0],[9.2422,63.3495,0.0],[9.2411,63.3464,64.2011],[9.238,63.3443,0.0],[9.2432,63.3411,0.0],[9.2432,63.3359,41.9866],[9.2354,63.3312,14.0654],[9.2245,63.337,0.0],[9.2146,63.3396,0.0],[9.2026,63.3391,0.0],[9.2019,63.337,15.268],[9.2061,63.3259,218.5122],[9.216,63.3266,203.5857],[9.2176,63.3222,101.0189],[9.2275,63.3229,302.6579],[9.2308,63.3141,282.4045],[9.2407,63.3148,340.7228],[9.2424,63.3104,329.066],[9.2522,63.3111,354.7948],[9.2539,63.3067,352.1503],[9.2638,63.3074,502.9149],[9.2654,63.303,623.3694],[9.2753,63.3037,600.1434],[9.2769,63.2993,669.6481],[9.2868,63.3,652.0717],[9.2885,63.2956,671.1411],[9.3773,63.3021,643.7197],[9.3789,63.2977,629.6756],[9.3888,63.2984,532.5757],[9.392,63.2896,564.5964],[9.4019,63.2903,536.5585],[9.4035,63.2859,460.6292],[9.4331,63.288,545.2188],[9.4364,63.2792,618.9453],[9.4758,63.282,800.1623],[9.4742,63.2865,760.2907],[9.494,63.2879,689.4308],[9.4923,63.2923,623.799],[9.5022,63.2931,609.1222],[9.5006,63.2975,554.304],[9.5105,63.2982,544.5031],[9.5088,63.3026,501.3572],[9.5187,63.3033,483.413],[9.5171,63.3078,467.1501],[9.527,63.3085,446.5539],[9.5254,63.3129,406.5241],[9.5352,63.3136,374.0919],[9.5336,63.3181,333.1075],[9.5435,63.3188,296.0],[9.5419,63.3232,296.0],[9.5518,63.3239,296.0],[9.5501,63.3284,296.0],[9.56,63.3291,296.0],[9.5568,63.3379,308.1767],[9.5667,63.3386,415.5723],[9.5651,63.3431,360.1566],[9.575,63.3438,443.0111],[9.5734,63.3482,397.0183],[9.5931,63.3496,546.5452],[9.5915,63.3541,519.4673],[9.6014,63.3548,594.339],[9.5998,63.3592,507.868],[9.6097,63.3599,535.9137],[9.6081,63.3644,443.0871],[9.618,63.3651,478.3568],[9.6164,63.3695,426.3368],[9.6362,63.3709,560.8561],[9.6346,63.3753,475.7335],[9.6445,63.376,520.5753],[9.6429,63.3805,463.3937],[9.6528,63.3812,430.5185],[9.6512,63.3856,447.0303],[9.6611,63.3863,381.7454],[9.6595,63.3908,333.114],[9.6793,63.3922,285.7118],[9.6777,63.3966,243.0487],[9.6876,63.3973,199.945],[9.686,63.4017,152.8612],[9.6959,63.4024,286.2174],[9.6943,63.4069,182.7076],[9.7042,63.4076,278.534],[9.7026,63.412,320.4006],[9.7225,63.4134,376.0994],[9.7209,63.4179,307.1232],[9.711,63.4171,350.0065],[9.7094,63.4216,279.9635],[9.6994,63.4209,366.3936],[9.6978,63.4253,321.7265],[9.678,63.4239,297.5262],[9.6764,63.4283,222.6982],[9.6665,63.4276,225.4597],[9.6649,63.4321,248.1348],[9.655,63.4314,259.1236],[9.6534,63.4358,274.7307],[9.6434,63.4351,284.7322],[9.6402,63.444,291.6596],[9.6303,63.4432,357.2203],[9.6287,63.4477,372.4821],[9.6188,63.447,426.8936],[9.6156,63.4558,468.5115],[9.6056,63.4551,470.9458],[9.6024,63.464,199.0919],[9.5925,63.4633,157.9918],[9.5892,63.4721,289.5656],[9.5793,63.4714,221.8997],[9.5728,63.4892,84.8189],[9.5629,63.4884,55.6467],[9.5548,63.5106,430.9693],[9.5249,63.5085,280.1412],[9.5266,63.504,316.0013],[9.5166,63.5033,189.0359],[9.5183,63.4989,328.6969],[9.4884,63.4967,277.2134],[9.4868,63.5012,268.7297],[9.4769,63.5004,323.0003],[9.4703,63.5182,221.3112],[9.4604,63.5174,257.4897],[9.4497,63.5465,0.0]]],
[[[9.2109,63.4505,18.1429],[9.2167,63.45,0.0],[9.2182,63.4516,13.6496],[9.2161,63.4536,6.0838],[9.2125,63.4542,0.0],[9.2109,63.4536,0.0],[9.2109,63.4505,18.1429]]],
[[[9.1401,63.4464,24.7878],[9.1495,63.4484,18.1473],[9.1495,63.4516,68.3],[9.1401,63.4495,55.7608],[9.1401,63.4464,24.7878]]],
[[[9.1313,63.4667,0.0],[9.1333,63.4646,47.867],[9.1438,63.4646,0.0],[9.1458,63.4667,0.0],[9.1453,63.4682,0.0],[9.1354,63.4729,0.0],[9.1276,63.4703,22.0723],[9.1313,63.4667,0.0]]],
[[[9.1599,63.4964,0.0],[9.1641,63.4984,0.0],[9.1661,63.5016,0.0],[9.15,63.5021,0.0],[9.1354,63.4979,46.4751],[9.1292,63.4979,15.4685],[9.125,63.5,0.0],[9.1104,63.5,0.0],[9.1078,63.4964,14.8689],[9.1026,63.4953,4.9128],[9.1021,63.4896,9.7933],[9.1047,63.4818,26.6297],[9.125,63.4792,0.0],[9.1411,63.4839,21.2952],[9.1411,63.487,0.0],[9.138,63.488,0.0],[9.1401,63.4911,0.0],[9.1479,63.4917,0.0],[9.1505,63.4953,0.0],[9.1599,63.4964,0.0]]]]}
,"properties": {"GID_2": "NOR.15.23_1","GID_0": "NOR","country": "Norway","GID_1": "NOR.15_1","province": "Sør-Trøndelag","NL_NAME_1": "NA","county": "Snillfjord","VARNAME_2": "NA","NL_NAME_2": "NA","TYPE_2": "Kommuner","ENGTYPE_2": "Municipality","CC_2": "NA","HASC_2": "NO.ST.SN","name": "Snillfjord.county","area_km2": 473.2936,"hist_schema_id": "Elevation0-9000","hist_area_km2": {"0": 20.6777,"25": 17.8316,"50": 18.8829,"75": 20.812,"100": 26.0682,"125": 23.2126,"150": 19.8258,"175": 19.7323,"200": 20.4456,"225": 21.9436,"250": 21.3859,"275": 18.9903,"300": 22.6143,"325": 18.7807,"350": 19.9084,"375": 21.9036,"400": 22.6272,"425": 21.852,"450": 22.3872,"475": 18.6394,"500": 15.5841,"525": 11.4422,"550": 6.8938,"575": 4.303,"600": 3.5037,"625": 3.3992,"650": 2.9328,"675": 2.133,"700": 2.0949,"725": 1.1427,"750": 0.6095,"775": 0.2762,"800": 0.1525,"825": 0.286,"850": 0.0191}}}