{"type":"Feature","properties":{"ISO3166-1-Alpha-3":"NOR","country":"Norway","fill":"#FF0","id":"924","name":"Østfold"},
"geometry":{"type": "MultiPolygon","coordinates": [[[[10.952,59.08511,1.7392],[10.94809,59.08377,5.1958],[10.94508,59.08385,7.9751],[10.93922,59.08377,0.0],[10.93572,59.07754,1.9607],[10.93076,59.07111,0.1987],[10.92783,59.06346,9.0764],[10.92197,59.05805,0.4451],[10.92807,59.0502,2.4802],[10.93727,59.04881,0.3472],[10.93157,59.04759,0.0],[10.93466,59.0432,0.0],[10.93963,59.04393,2.0312],[10.9406,59.04194,0.9642],[10.93751,59.03966,3.1129],[10.93841,59.036,1.8392],[10.94125,59.03376,2.2674],[10.94313,59.03111,2.5779],[10.94565,59.0303,0.0],[10.95248,59.03718,8.2392],[10.96608,59.03856,1.5006],[10.9638,59.04902,3.6151],[10.96046,59.05341,5.9371],[10.95981,59.06232,1.184],[10.96111,59.06647,0.0],[10.95908,59.07111,0.0],[10.95786,59.07551,1.457],[10.95647,59.08279,3.6329],[10.952,59.08511,1.7392]]],
[[[11.03981,59.07441,15.2817],[11.04021,59.08104,0.0],[11.03435,59.08893,27.6926],[11.02076,59.09125,3.4131],[11.00327,59.08649,38.5284],[10.99317,59.07665,38.604],[10.99342,59.06232,0.0],[10.99155,59.04686,19.7296],[10.99147,59.0336,23.5541],[11.00082,59.02961,10.0384],[11.00896,59.0292,0.0],[11.01157,59.02538,0.0],[11.01352,59.02163,5.955],[11.01824,59.01935,8.5232],[11.03053,59.02082,27.3791],[11.0464,59.0268,16.5572],[11.05486,59.03587,6.199],[11.05047,59.0423,21.4035],[11.05161,59.04613,1.3002],[11.06479,59.0515,18.8641],[11.07553,59.05854,15.8758],[11.08237,59.06786,33.6128],[11.08302,59.0773,30.9484],[11.07569,59.08047,18.8835],[11.07032,59.07933,16.6981],[11.06959,59.07762,8.0731],[11.07049,59.0749,2.8781],[11.04762,59.07319,7.3656],[11.03981,59.07441,15.2817]]],
[[[10.85572,59.10236,0.7172],[10.85914,59.10602,19.9022],[10.865,59.10895,20.0936],[10.86793,59.11327,36.1987],[10.86524,59.1166,38.2221],[10.85548,59.11538,8.6763],[10.84262,59.11001,10.9475],[10.83253,59.10444,2.8675],[10.82911,59.09943,2.4974],[10.83839,59.08641,0.0],[10.84181,59.08023,0.9383],[10.84571,59.07575,0.3433],[10.85572,59.07416,27.7273],[10.8698,59.07709,14.645],[10.87477,59.07567,9.7811],[10.87745,59.07123,2.057],[10.8838,59.07217,0.0],[10.90707,59.09056,19.7306],[10.9144,59.10073,46.6784],[10.91383,59.11156,13.0189],[10.91049,59.11644,1.9924],[10.89763,59.11563,5.9771],[10.87192,59.10651,29.0256],[10.85727,59.09907,30.142],[10.85572,59.10236,0.7172]]],
[[[11.8284,59.65972,182.5666],[11.85249,59.67336,202.5148],[11.89166,59.70576,245.8554],[11.89724,59.71398,266.6499],[11.89724,59.73201,279.4994],[11.90354,59.77,268.756],[11.90209,59.78514,250.1598],[11.8898,59.80142,307.4991],[11.88374,59.80538,314.8644],[11.80184,59.80129,255.8595],[11.75017,59.78674,201.301],[11.72655,59.77408,220.6324],[11.71523,59.76599,202.3626],[11.71043,59.75811,241.5893],[11.71105,59.75057,291.5722],[11.7095,59.74188,279.4006],[11.70516,59.73284,229.1414],[11.69508,59.72204,226.7486],[11.68438,59.7132,238.2486],[11.67348,59.70881,221.4186],[11.63968,59.70447,212.8242],[11.61374,59.67987,277.6716],[11.52269,59.62579,164.0355],[11.49969,59.62672,214.0264],[11.49396,59.62902,195.3446],[11.48791,59.63579,151.212],[11.50279,59.65352,169.3383],[11.50357,59.65998,152.3707],[11.50109,59.66886,156.6007],[11.49442,59.67579,160.0597],[11.48078,59.6868,148.8031],[11.46946,59.69253,142.7363],[11.45763,59.69641,142.2102],[11.4415,59.69904,132.0336],[11.42259,59.70395,132.0693],[11.40021,59.71253,134.2595],[11.37479,59.73506,247.959],[11.35541,59.76524,162.4944],[11.28973,59.78697,235.773],[11.26694,59.78638,173.5547],[11.25841,59.76907,108.2247],[11.26058,59.73703,103.9304],[11.25531,59.71785,150.2422],[11.2134,59.71243,100.0],[11.08633,59.71661,147.9681],[11.0176,59.72553,127.0],[10.98189,59.71943,184.2327],[10.97647,59.71155,200.2567],[10.9622,59.6807,205.5347],[10.95208,59.67067,161.9199],[10.94448,59.66494,128.9133],[10.91967,59.65672,107.7601],[10.90045,59.64628,108.1909],[10.89766,59.64287,103.3764],[10.89172,59.62639,121.6937],[10.85777,59.60882,85.567],[10.84392,59.59448,52.7617],[10.8202,59.57879,81.2713],[10.80997,59.56923,69.245],[10.79276,59.54611,52.6951],[10.78511,59.53365,38.6136],[10.76635,59.51709,52.6012],[10.73302,59.5005,74.4836],[10.72971,59.50019,66.7382],[10.72134,59.50102,53.2477],[10.68822,59.48373,0.0],[10.68796,59.4836,0.0],[10.69028,59.48066,11.7266],[10.69044,59.46312,19.7757],[10.68507,59.45026,45.0053],[10.67514,59.44086,52.6969],[10.66245,59.43789,7.5439],[10.64894,59.44383,31.7626],[10.66114,59.47329,0.0],[10.66293,59.48871,93.8265],[10.65642,59.49787,23.155],[10.64454,59.49315,0.0],[10.62745,59.47883,23.0943],[10.60108,59.4501,0.0],[10.59164,59.43065,9.9244],[10.59596,59.42373,42.1343],[10.63526,59.41596,0.0],[10.65301,59.40819,13.8448],[10.65968,59.40021,29.2474],[10.6561,59.38972,21.2449],[10.64275,59.37495,0.0],[10.65984,59.35936,0.0],[10.66538,59.33641,36.6865],[10.67408,59.31574,0.0],[10.70069,59.30671,0.0],[10.70899,59.31098,0.0],[10.72446,59.32978,0.0],[10.73471,59.33405,0.0],[10.74415,59.33047,0.0],[10.7527,59.3227,0.0],[10.76344,59.31533,9.3397],[10.77914,59.31293,0.0],[10.76157,59.29352,36.3571],[10.74366,59.26801,0.0],[10.73316,59.24091,0.0],[10.73813,59.2167,0.0],[10.74936,59.22394,0.0],[10.76189,59.24494,62.9963],[10.77296,59.2521,28.0528],[10.76637,59.23176,0.0],[10.78419,59.20628,26.0934],[10.77914,59.1894,0.0],[10.80201,59.18879,7.2894],[10.82293,59.16397,0.0],[10.84116,59.16144,0.0],[10.84799,59.16657,0.0],[10.8484,59.17381,15.7734],[10.85027,59.18037,36.4383],[10.8615,59.18317,0.0],[10.87257,59.18448,9.7131],[10.88282,59.18769,3.9108],[10.90211,59.19684,4.6344],[10.89772,59.18089,0.7466],[10.90065,59.16401,0.0],[10.90789,59.14985,13.4651],[10.91635,59.14224,15.2472],[10.93409,59.14037,16.8693],[10.94402,59.14932,31.3351],[10.94483,59.16486,11.4976],[10.93621,59.18317,41.3857],[10.9485,59.18334,0.0],[10.98943,59.17569,0.0],[10.9983,59.17231,0.0],[11.00782,59.15913,0.0],[11.0267,59.15184,3.2261],[11.03981,59.14374,8.5516],[11.03248,59.128,0.0],[11.09108,59.128,2.2579],[11.09913,59.13418,24.2432],[11.09734,59.1485,43.6231],[11.08774,59.17577,20.6072],[11.10711,59.1507,1.6377],[11.11883,59.14228,0.0],[11.13551,59.14224,23.0838],[11.14731,59.14997,11.3419],[11.15309,59.16254,10.2362],[11.15016,59.1752,74.0853],[11.13551,59.18317,54.7977],[11.16668,59.19212,15.9322],[11.17644,59.19684,3.2702],[11.181,59.18806,16.5428],[11.18051,59.18427,0.0],[11.17799,59.18073,0.0],[11.17644,59.17231,0.0],[11.17856,59.16498,10.3362],[11.18312,59.16006,42.6421],[11.19011,59.15522,43.493],[11.19361,59.15754,62.6134],[11.20167,59.15253,17.181],[11.20672,59.1457,0.0],[11.20094,59.14224,12.6802],[11.18312,59.14289,7.5789],[11.17465,59.14094,2.7899],[11.17018,59.13475,0.0],[11.18238,59.11603,0.0],[11.21656,59.11042,22.5899],[11.31381,59.11518,0.0],[11.34457,59.1114,0.0],[11.37045,59.10065,0.0],[11.38933,59.08076,0.0],[11.39381,59.07001,0.0],[11.39959,59.04767,8.1164],[11.40358,59.03856,24.9353],[11.43775,58.99824,51.5461],[11.43751,58.99173,84.8109],[11.43751,58.99172,84.8109],[11.43752,58.99171,84.8109],[11.43814,58.99113,84.8109],[11.45323,58.96048,164.2637],[11.45199,58.89604,130.8079],[11.48259,58.8869,163.8515],[11.54708,58.88473,131.5128],[11.61157,58.89315,184.6256],[11.66438,58.92007,139.9134],[11.69374,58.97351,143.4102],[11.70025,58.99914,166.0319],[11.70893,59.02162,164.0],[11.73425,59.06554,241.8533],[11.74531,59.09216,213.681],[11.74851,59.14006,122.2851],[11.77559,59.20254,195.1219],[11.78469,59.21814,195.5225],[11.80246,59.23442,176.0769],[11.81109,59.24872,160.6396],[11.81166,59.24967,159.7205],[11.81166,59.27091,101.0],[11.8068,59.29359,101.0],[11.78396,59.36062,193.7359],[11.67741,59.55905,260.1619],[11.671,59.58055,251.7582],[11.67493,59.60711,269.884],[11.69374,59.6223,265.1354],[11.8284,59.65972,182.5666]]]]}}