{"type": "Feature","bbox": [10.5764,58.8764,11.9424,59.7885],"geometry": {"type": "MultiPolygon","coordinates": [[[[10.8764,58.9582,0.0],[10.8747,58.9607,0.0],[10.8692,58.9596,0.0],[10.8725,58.9557,1.6999],[10.8758,58.9562,0.0],[10.8764,58.9582,0.0]]],
[[[10.8669,59.0476,0.0],[10.8614,59.049,0.0],[10.8608,59.0462,0.2099],[10.8675,59.0449,0.0],[10.8669,59.0476,0.0]]],
[[[10.8831,59.0551,3.8883],[10.8819,59.0568,1.7295],[10.8758,59.0571,0.0],[10.8764,59.0532,6.9834],[10.8725,59.0513,0.0387],[10.8708,59.0457,0.8334],[10.8836,59.044,0.4356],[10.8831,59.0399,1.4099],[10.8858,59.0393,3.3766],[10.8842,59.0374,0.0],[10.8869,59.0374,0.2743],[10.8919,59.0393,1.2992],[10.8908,59.0415,1.4421],[10.8964,59.0443,2.2408],[10.8881,59.0532,1.4544],[10.8842,59.0532,11.683],[10.8831,59.0551,3.8883]]],
[[[10.8853,59.0649,0.0],[10.8842,59.0679,1.2952],[10.8797,59.0665,0.0],[10.8797,59.066,0.0],[10.8853,59.0649,0.0]]],
[[[10.7853,59.1001,0.0],[10.7836,59.1029,0.0],[10.7719,59.1018,4.9566],[10.7758,59.096,5.0811],[10.7831,59.0915,0.0],[10.7847,59.0932,0.0],[10.7831,59.094,12.0121],[10.7825,59.0971,5.2989],[10.7853,59.1001,0.0]]],
[[[10.8275,59.1093,1.3949],[10.8269,59.1076,3.5986],[10.8319,59.1074,0.0],[10.8342,59.1099,0.0],[10.8308,59.1099,4.0337],[10.8275,59.1093,1.3949]]],
[[[10.7631,59.1138,0.0],[10.7558,59.114,0.0],[10.7586,59.1096,0.0],[10.7614,59.1107,19.3732],[10.7692,59.1071,5.0408],[10.7742,59.1074,6.9209],[10.7742,59.1104,3.7883],[10.7631,59.1138,0.0]]],
[[[10.8936,59.1413,0.3889],[10.8897,59.1424,0.3495],[10.8886,59.1407,0.8853],[10.8953,59.1401,0.0],[10.8936,59.1413,0.3889]]],
[[[10.7425,59.1182,0.211],[10.7381,59.1188,0.0],[10.7403,59.1168,0.0],[10.7442,59.1171,0.211],[10.7425,59.1182,0.211]]],
[[[10.7142,59.1729,0.0],[10.7125,59.1763,0.0],[10.7075,59.1746,6.1506],[10.7097,59.1693,0.3999],[10.7158,59.1679,0.0],[10.7169,59.1704,1.8012],[10.7142,59.1729,0.0]]],
[[[10.7219,59.184,6.1271],[10.7231,59.1813,0.8623],[10.7258,59.1824,1.881],[10.7258,59.1857,0.0],[10.7231,59.1857,0.0],[10.7219,59.184,6.1271]]],
[[[10.7664,59.191,2.0252],[10.7658,59.1929,1.8823],[10.7619,59.1921,1.4371],[10.7631,59.191,1.5038],[10.7664,59.191,2.0252]]],
[[[10.8908,59.151,4.6939],[10.8931,59.1507,1.7184],[10.8931,59.154,0.0],[10.8908,59.154,0.2039],[10.8897,59.151,4.6939],[10.8908,59.151,4.6939]]],
[[[10.8203,59.1524,0.0],[10.8208,59.1538,0.0],[10.8169,59.1543,-0.0025],[10.8153,59.1521,0.4239],[10.8181,59.1515,0.0],[10.8203,59.1524,0.0]]],
[[[10.8164,59.1601,0.6528],[10.8164,59.1615,1.0292],[10.8086,59.1621,0.0],[10.8058,59.161,0.2764],[10.8075,59.159,1.9525],[10.8042,59.1585,1.4014],[10.8036,59.1568,0.0],[10.8114,59.1565,0.0],[10.8164,59.1601,0.6528]]],
[[[10.8925,59.1613,0.6995],[10.8936,59.161,0.4158],[10.8942,59.1635,3.8123],[10.8908,59.1624,0.5317],[10.8925,59.1613,0.6995]]],
[[[10.9547,59.109,0.0],[10.9558,59.1107,0.0],[10.9514,59.1107,0.0],[10.9497,59.1085,0.0],[10.9536,59.1085,0.0],[10.9547,59.109,0.0]]],
[[[10.9519,59.1135,0.0],[10.9547,59.1188,0.0],[10.9531,59.1188,0.0],[10.9508,59.1157,0.0],[10.9481,59.1174,0.524],[10.9392,59.1121,0.0],[10.9369,59.1068,0.0],[10.9475,59.1085,0.0],[10.9475,59.1099,0.4181],[10.9442,59.1104,4.0692],[10.9469,59.111,0.0],[10.9447,59.1135,1.3511],[10.9503,59.1146,2.0768],[10.9508,59.1129,0.0],[10.9519,59.1135,0.0]]],
[[[10.9381,59.1282,4.0309],[10.9353,59.1296,1.3337],[10.9353,59.1274,6.7482],[10.9314,59.126,0.0],[10.9314,59.1237,1.5024],[10.9281,59.1212,0.2097],[10.9303,59.1188,1.8102],[10.9347,59.1196,0.0],[10.9364,59.1229,4.1324],[10.9381,59.1229,4.1324],[10.9369,59.1182,1.1058],[10.9392,59.1171,1.1058],[10.9347,59.1149,3.3246],[10.9331,59.1113,0.0],[10.9364,59.1115,0.0],[10.9375,59.1146,1.1191],[10.9419,59.1168,4.9568],[10.9464,59.1174,0.524],[10.9497,59.1229,4.6323],[10.9481,59.1243,0.0],[10.9436,59.1224,0.4922],[10.9431,59.1268,0.7146],[10.9381,59.1282,4.0309]]],
[[[10.9608,59.1237,0.0],[10.9569,59.1251,0.3114],[10.9581,59.1232,1.1713],[10.9569,59.1221,1.1713],[10.9542,59.1229,0.0],[10.9503,59.1201,0.2641],[10.9592,59.1207,0.0],[10.9608,59.1237,0.0]]],
[[[10.9286,59.1254,0.8896],[10.9286,59.1279,0.491],[10.9181,59.1268,0.4156],[10.9181,59.1251,0.2636],[10.9225,59.1251,7.5387],[10.9197,59.121,1.4162],[10.9231,59.1212,0.9314],[10.9286,59.1254,0.8896]]],
[[[10.9308,59.1324,0.8161],[10.9364,59.1351,2.4936],[10.9297,59.1343,0.0],[10.9269,59.1315,0.0984],[10.9308,59.1324,0.8161]]],
[[[10.9208,59.1351,4.2537],[10.9136,59.1363,0.0],[10.9131,59.1338,1.9463],[10.9214,59.1332,0.0],[10.9208,59.1351,4.2537]]],
[[[10.9519,59.1474,15.4704],[10.9508,59.1485,15.4704],[10.9525,59.1485,0.0],[10.9519,59.1493,1.2462],[10.9486,59.1493,0.6897],[10.9431,59.1435,5.7104],[10.9408,59.1371,2.8416],[10.9381,59.1357,0.0],[10.9397,59.131,0.0],[10.9519,59.1301,0.0],[10.9542,59.1351,13.1136],[10.9569,59.1374,0.0],[10.9575,59.1465,0.0],[10.9519,59.1474,15.4704]]],
[[[10.9836,59.139,2.3616],[10.9792,59.1407,0.0],[10.9819,59.1379,0.6652],[10.9842,59.1379,0.6652],[10.9836,59.139,2.3616]]],
[[[10.9897,59.1482,1.1445],[10.9903,59.1515,0.4524],[10.9847,59.1521,0.0],[10.9836,59.1446,0.0],[10.9908,59.1465,0.5378],[10.9897,59.1482,1.1445]]],
[[[10.9808,59.1501,0.0],[10.9808,59.1554,2.1116],[10.9797,59.1557,0.1449],[10.9781,59.1543,1.9392],[10.9781,59.1496,0.242],[10.9808,59.1501,0.0]]],
[[[11.0092,59.154,1.4487],[11.0097,59.156,0.5738],[11.0047,59.1549,3.4291],[11.0019,59.1515,2.4922],[11.0042,59.1512,0.0],[11.0092,59.154,1.4487]]],
[[[10.8992,59.146,0.0],[10.8958,59.1465,0.9146],[10.8947,59.1501,0.5736],[10.8914,59.1488,0.0],[10.8925,59.1463,0.0],[10.9003,59.1446,0.652],[10.8992,59.146,0.0]]],
[[[10.9503,59.1815,2.7451],[10.9458,59.1832,0.1572],[10.9425,59.1871,0.0],[10.9469,59.1943,0.0],[10.9486,59.194,0.0],[10.9514,59.189,1.1342],[10.9514,59.1851,0.0],[10.9569,59.1804,2.8137],[10.9581,59.1776,0.7993],[10.9631,59.1746,0.0],[10.9714,59.1757,0.2703],[10.9725,59.1746,0.5916],[10.9697,59.1721,0.1269],[10.9703,59.1707,0.1],[10.9781,59.1715,0.0],[10.9775,59.1754,0.0],[10.9686,59.1807,1.8617],[10.9714,59.184,0.7737],[10.9797,59.1888,6.1425],[10.9886,59.1893,5.8935],[10.9919,59.1879,0.9438],[10.9897,59.1835,0.1551],[10.9914,59.1793,0.0],[10.9969,59.1804,0.0],[10.9975,59.1776,0.7909],[11.0014,59.1801,0.9606],[11.0003,59.1813,6.0657],[11.0047,59.181,0.0],[11.0114,59.1871,7.9981],[11.0158,59.1846,1.6743],[11.0192,59.1849,0.2327],[11.0114,59.1821,0.0],[11.0058,59.1771,1.4405],[11.0075,59.174,0.4906],[11.0058,59.1721,0.8858],[11.0097,59.1707,0.8883],[11.0092,59.1685,0.4983],[11.0014,59.1679,0.7555],[11.0025,59.1657,2.6772],[11.0092,59.1674,0.4983],[11.0097,59.1649,0.0],[11.0192,59.1646,0.0],[11.0181,59.1615,0.5016],[11.0197,59.1601,0.0],[11.0192,59.1587,0.33],[11.0097,59.1524,0.8761],[11.0058,59.1479,2.508],[11.0064,59.146,1.3434],[11.0131,59.1479,1.5312],[11.0175,59.1474,0.48],[11.0169,59.1543,0.1979],[11.0197,59.154,0.1979],[11.0242,59.1501,0.0],[11.0269,59.1501,0.0],[11.0303,59.1524,0.6795],[11.0308,59.156,0.5306],[11.0381,59.1565,0.2461],[11.0414,59.1585,0.404],[11.0419,59.1563,0.3171],[11.0369,59.1532,4.1786],[11.0392,59.1501,15.8527],[11.0358,59.1474,0.8418],[11.0353,59.1415,2.1727],[11.0369,59.1401,4.0619],[11.0369,59.1371,2.697],[11.0325,59.1354,0.0],[11.0308,59.1299,0.8357],[11.0347,59.1288,2.2704],[11.0403,59.1321,2.1609],[11.0408,59.134,9.5729],[11.0458,59.1348,3.1309],[11.0486,59.1326,2.8054],[11.0581,59.1371,7.2794],[11.0653,59.1351,0.0],[11.0681,59.1368,0.0],[11.0686,59.139,12.4078],[11.0714,59.1393,0.681],[11.0697,59.1365,3.9924],[11.0714,59.1349,4.8737],[11.0697,59.1288,16.8896],[11.0675,59.1279,0.0],[11.0675,59.126,0.0],[11.0692,59.1251,0.5986],[11.0686,59.1237,0.0],[11.0736,59.1226,3.151],[11.0825,59.1263,1.8913],[11.0853,59.126,7.532],[11.0842,59.124,3.149],[11.0853,59.124,3.149],[11.0942,59.1318,6.1478],[11.1008,59.131,4.5865],[11.1058,59.1324,6.4223],[11.1075,59.1354,2.5093],[11.1042,59.1374,9.461],[11.1053,59.1404,0.0],[11.1042,59.1415,17.614],[11.1114,59.1432,1.9134],[11.1086,59.1451,11.8562],[11.1075,59.1493,4.2122],[11.1081,59.1593,0.9185],[11.1031,59.1601,12.3544],[11.0992,59.1638,0.0],[11.0997,59.1668,0.0],[11.1019,59.1676,4.2113],[11.1014,59.1693,0.338],[11.0942,59.1715,3.9482],[11.0931,59.174,0.7357],[11.0947,59.1754,0.0],[11.0931,59.1799,0.2322],[11.0842,59.1824,0.0],[11.0819,59.1857,1.2142],[11.0919,59.1832,0.0],[11.0986,59.1835,8.1151],[11.1036,59.1754,0.0],[11.1081,59.1718,0.0],[11.1114,59.1718,0.0],[11.1119,59.1657,0.0],[11.1158,59.1646,5.9975],[11.1186,59.1613,0.0],[11.1186,59.1593,13.9005],[11.1158,59.1582,0.0],[11.1169,59.1563,2.6123],[11.1158,59.1551,0.0],[11.1197,59.1482,15.9766],[11.1186,59.146,0.9499],[11.1197,59.1449,0.0],[11.1253,59.1457,2.2407],[11.1253,59.144,5.4411],[11.1303,59.1435,2.1837],[11.1303,59.1421,2.1837],[11.1264,59.141,0.0],[11.1264,59.139,0.9936],[11.1297,59.1379,9.9111],[11.1303,59.1338,6.4734],[11.1331,59.1324,2.9511],[11.1403,59.1354,0.0],[11.1392,59.1376,2.7613],[11.1403,59.1382,1.0531],[11.1431,59.1374,5.4437],[11.1425,59.1349,1.8636],[11.1447,59.1349,0.0],[11.1447,59.1376,0.0],[11.1414,59.1387,1.0531],[11.1403,59.1443,0.4349],[11.1431,59.144,5.0257],[11.1458,59.1413,1.5739],[11.1508,59.1435,0.0],[11.1514,59.1451,4.1196],[11.1575,59.1449,0.0],[11.1553,59.151,1.562],[11.1508,59.1526,0.9932],[11.1469,59.1512,1.8422],[11.1442,59.1529,0.5549],[11.1447,59.1512,1.8422],[11.1403,59.1512,0.9008],[11.1369,59.1493,0.0],[11.1369,59.1476,0.0],[11.1286,59.1446,1.1429],[11.1286,59.146,5.2626],[11.1336,59.1482,0.0],[11.1347,59.1538,0.6152],[11.1397,59.1549,0.237],[11.1447,59.1538,0.0],[11.1464,59.1546,0.0],[11.1464,59.158,1.3427],[11.1481,59.1585,0.0],[11.1564,59.1585,7.6277],[11.1586,59.1563,1.1441],[11.1675,59.161,0.0],[11.1653,59.1632,2.5755],[11.1653,59.1701,0.0],[11.1575,59.1763,1.0818],[11.1602,59.1776,0.0],[11.1603,59.1796,0.0],[11.1553,59.1801,0.9977],[11.1586,59.1818,0.0],[11.1581,59.1874,0.7468],[11.1558,59.1899,1.8357],[11.1464,59.1921,0.4013],[11.1414,59.1963,5.0866],[11.1508,59.1957,1.3476],[11.1558,59.191,2.9037],[11.1625,59.1907,11.1703],[11.1769,59.1865,0.0],[11.1814,59.1871,16.5428],[11.1831,59.1913,0.0],[11.1803,59.1926,0.6078],[11.1797,59.196,0.2247],[11.1847,59.196,0.0],[11.1853,59.1851,1.4169],[11.1869,59.184,1.4169],[11.1881,59.1787,57.0312],[11.1808,59.1749,3.0636],[11.1769,59.1613,12.0075],[11.1736,59.159,0.0],[11.1725,59.1557,0.0],[11.1753,59.156,9.8382],[11.1753,59.1535,0.793],[11.1769,59.1526,3.0952],[11.1825,59.1535,0.0],[11.1892,59.1521,14.7098],[11.1947,59.1493,0.0],[11.1931,59.1476,0.0],[11.1964,59.1468,0.0],[11.2003,59.1471,6.5486],[11.2042,59.1501,0.3951],[11.2069,59.1479,0.0],[11.2136,59.1471,12.173],[11.2069,59.144,0.0],[11.2053,59.1374,7.45],[11.2036,59.1379,7.45],[11.2058,59.1418,0.0],[11.2042,59.1446,0.0],[11.1969,59.144,1.5476],[11.1919,59.1457,0.0],[11.1925,59.1474,0.0],[11.1908,59.1479,2.6008],[11.1881,59.1474,0.0],[11.1903,59.1457,3.4938],[11.1892,59.144,2.2664],[11.1853,59.1454,11.4472],[11.1814,59.1426,2.0428],[11.1792,59.1446,0.0],[11.1769,59.1443,5.9492],[11.1747,59.1404,0.7343],[11.1764,59.1399,0.7343],[11.1797,59.1413,3.7477],[11.1808,59.1396,2.3495],[11.1775,59.1376,1.8584],[11.1803,59.1365,3.834],[11.1803,59.1351,4.9607],[11.1747,59.1332,2.422],[11.1736,59.1276,0.0],[11.1819,59.1274,9.2624],[11.1797,59.1248,0.7741],[11.1819,59.124,0.7741],[11.1886,59.1249,0.6229],[11.1847,59.1226,0.0],[11.1825,59.1179,0.0],[11.1931,59.1201,0.4307],[11.1936,59.1179,1.03],[11.1919,59.1162,0.9975],[11.1931,59.1157,0.9975],[11.1992,59.1179,0.5586],[11.1953,59.1151,3.4356],[11.1958,59.1124,0.8839],[11.2014,59.1124,0.0],[11.2069,59.1171,29.1695],[11.2131,59.1193,4.3856],[11.2142,59.1162,20.9141],[11.2119,59.1149,2.9655],[11.2125,59.1107,6.3203],[11.2053,59.1076,3.7622],[11.2042,59.1004,43.4661],[11.1975,59.1001,7.7541],[11.1953,59.0985,1.8322],[11.1992,59.0955,2.6026],[11.1992,59.0921,0.0],[11.2042,59.0915,0.0],[11.2075,59.0932,6.485],[11.2131,59.0999,0.0],[11.2142,59.1037,0.0],[11.2214,59.1051,0.3065],[11.2231,59.1043,3.3195],[11.2197,59.1021,0.0],[11.2186,59.0982,0.0],[11.2214,59.0954,15.9887],[11.2142,59.096,8.3558],[11.2103,59.0918,9.0301],[11.2103,59.0893,5.0986],[11.2169,59.0896,2.663],[11.2192,59.0887,0.0],[11.2192,59.0863,0.0],[11.23,59.0871,0.0],[11.2288,59.0915,1.8198],[11.2549,59.0933,47.7482],[11.2537,59.0978,39.7595],[11.2971,59.1007,22.7539],[11.296,59.1052,0.0],[11.3133,59.1063,21.4544],[11.3122,59.1108,0.0],[11.3469,59.1131,0.0],[11.348,59.1087,0.0],[11.3567,59.1093,0.0],[11.359,59.1004,0.0],[11.3677,59.1009,0.0],[11.3688,59.0965,0.0],[11.3775,59.0971,10.1332],[11.3809,59.0837,0.0],[11.3895,59.0843,19.1105],[11.394,59.0665,0.0],[11.4027,59.0671,0.0],[11.4083,59.0448,0.0],[11.417,59.0454,0.0],[11.4204,59.0321,0.0],[11.429,59.0326,0.0],[11.4313,59.0237,0.0],[11.4399,59.0243,0.0],[11.4433,59.011,0.0],[11.4519,59.0115,0.0],[11.4553,58.9982,0.0],[11.4639,58.9988,0.0],[11.4662,58.9899,0.0],[11.4575,58.9893,12.0849],[11.4709,58.9359,163.7366],[11.4622,58.9353,144.986],[11.4656,58.9219,189.894],[11.4569,58.9214,171.2704],[11.4647,58.8902,147.6916],[11.4906,58.8919,162.1943],[11.4917,58.8875,167.9525],[11.5089,58.8886,107.5],[11.51,58.8842,107.5],[11.5187,58.8847,120.9675],[11.5198,58.8803,91.0886],[11.5284,58.8809,117.0448],[11.5295,58.8764,71.7966],[11.5381,58.877,42.3781],[11.5359,58.8859,43.829],[11.5445,58.8865,110.8108],[11.5434,58.8909,102.0434],[11.5521,58.8915,128.1614],[11.551,58.8959,87.8926],[11.5682,58.8971,157.427],[11.5704,58.8882,124.6183],[11.5791,58.8887,165.0693],[11.5769,58.8976,162.8242],[11.5855,58.8982,178.5811],[11.5866,58.8938,173.5731],[11.6125,58.8955,188.7967],[11.6114,58.8999,195.2283],[11.62,58.9005,194.4187],[11.6189,58.9049,215.9192],[11.6535,58.9072,154.3177],[11.6524,58.9116,139.5968],[11.661,58.9122,143.3962],[11.6578,58.9256,143.1272],[11.6664,58.9261,156.7431],[11.6642,58.935,143.228],[11.6815,58.9362,142.6186],[11.6793,58.9451,141.1198],[11.688,58.9456,148.2064],[11.6858,58.9545,142.5755],[11.6945,58.9551,144.7228],[11.6891,58.9774,146.3926],[11.6977,58.9779,150.0193],[11.696,58.9852,168.6761],[11.6955,58.9868,168.7124],[11.6869,58.9863,152.563],[11.6858,58.9907,164.2501],[11.6945,58.9913,165.952],[11.6934,58.9957,178.2868],[11.702,58.9963,173.4067],[11.6988,59.0097,164.0],[11.7074,59.0102,164.0],[11.7042,59.0236,164.0],[11.7129,59.0242,164.0],[11.7107,59.0331,164.0],[11.7194,59.0336,183.7316],[11.7183,59.0381,164.0],[11.7269,59.0386,229.9401],[11.7259,59.0431,165.6166],[11.7345,59.0436,224.4604],[11.7324,59.0526,224.6027],[11.741,59.0531,205.3006],[11.74,59.0576,202.7013],[11.7486,59.0581,232.9843],[11.7465,59.067,211.9212],[11.7552,59.0676,196.5594],[11.7541,59.072,171.8412],[11.7628,59.0726,185.2912],[11.7617,59.0771,174.7134],[11.7704,59.0776,173.9669],[11.7682,59.0865,179.7998],[11.7769,59.0871,130.4426],[11.7747,59.096,144.9263],[11.7834,59.0965,129.7186],[11.7813,59.1054,148.6434],[11.7726,59.1049,126.6787],[11.7704,59.1138,145.8184],[11.7617,59.1132,140.0373],[11.7606,59.1177,129.5307],[11.7693,59.1183,160.2381],[11.7672,59.1272,152.3233],[11.7759,59.1277,170.4395],[11.7737,59.1366,146.3755],[11.7824,59.1372,156.7804],[11.7727,59.1773,187.0967],[11.7814,59.1778,207.6801],[11.7781,59.1912,217.7737],[11.7869,59.1917,192.5702],[11.7825,59.2096,201.8633],[11.7912,59.2101,194.2489],[11.7902,59.2146,170.8631],[11.7989,59.2151,189.2583],[11.7967,59.224,183.6569],[11.8054,59.2246,182.0007],[11.8044,59.229,182.9099],[11.8131,59.2296,142.7586],[11.812,59.2341,170.0475],[11.8207,59.2346,114.8805],[11.8196,59.2391,140.2621],[11.8284,59.2396,101.0],[11.8273,59.2441,101.0],[11.836,59.2446,101.0],[11.8155,59.3293,149.2565],[11.8243,59.3298,164.8083],[11.8199,59.3476,197.0663],[11.8112,59.3471,193.2429],[11.8079,59.3604,181.634],[11.7992,59.3599,209.3055],[11.797,59.3688,171.2415],[11.7883,59.3682,188.1112],[11.7872,59.3727,176.3997],[11.7959,59.3732,159.618],[11.7948,59.3777,164.6263],[11.7861,59.3771,159.4313],[11.7763,59.4172,184.1512],[11.7675,59.4167,173.3362],[11.7478,59.4968,260.7272],[11.739,59.4963,257.1228],[11.7358,59.5096,261.6424],[11.727,59.5091,274.8053],[11.7181,59.5447,272.1536],[11.7094,59.5442,255.0335],[11.6994,59.5842,192.1025],[11.6906,59.5837,254.0535],[11.6884,59.5926,188.8125],[11.6972,59.5931,220.9218],[11.6939,59.6065,224.26],[11.7027,59.6071,215.9885],[11.701599999999999,59.6115,232.4401],[11.7104,59.6121,251.7433],[11.7082,59.621,250.9209],[11.717,59.6215,226.9809],[11.7159,59.626,220.0181],[11.7335,59.6271,237.5227],[11.7324,59.6316,263.5601],[11.7589,59.6332,177.491],[11.7578,59.6377,238.5222],[11.7754,59.6388,170.302],[11.7743,59.6433,162.6391],[11.8626,59.6488,136.2805],[11.8615,59.6533,134.7969],[11.8703,59.6538,149.1582],[11.8681,59.6627,181.1786],[11.877,59.6633,199.1884],[11.8737,59.6766,207.875],[11.8826,59.6772,208.8222],[11.8804,59.6861,234.6894],[11.8892,59.6866,248.7155],[11.887,59.6956,254.076],[11.8959,59.6961,264.8958],[11.897,59.6916,245.3895],[11.9412,59.6944,133.5805],[11.9336,59.7256,221.1191],[11.9424,59.7261,269.1901],[11.9414,59.7306,267.4805],[11.9325,59.73,225.5398],[11.9271,59.7523,233.7774],[11.926,59.7568,248.0678],[11.9349,59.7573,233.5264],[11.9273,59.7885,242.2872],[11.7766,59.7791,220.4183],[11.7777,59.7747,234.6649],[11.7689,59.7741,232.073],[11.77,59.7696,230.1919],[11.7611,59.7691,277.3828],[11.7633,59.7602,300.3014],[11.7279,59.7579,209.4602],[11.729,59.7535,228.9266],[11.7113,59.7524,255.158],[11.7124,59.7479,295.5794],[11.6947,59.7468,245.3972],[11.6958,59.7423,262.1566],[11.687,59.7418,244.2349],[11.6881,59.7373,245.0895],[11.697,59.7379,244.4319],[11.7025,59.7156,251.0795],[11.6937,59.7151,258.016],[11.6948,59.7106,227.9586],[11.686,59.71,234.0252],[11.6871,59.7056,237.9034],[11.6694,59.7045,226.7578],[11.6716,59.6956,243.6116],[11.6628,59.695,237.738],[11.6661,59.6816,233.3097],[11.6573,59.6811,200.5603],[11.6584,59.6766,201.1795],[11.6496,59.6761,199.9324],[11.6507,59.6716,190.7683],[11.6419,59.671,268.4811],[11.6408,59.6755,259.839],[11.6319,59.6749,276.1688],[11.633,59.6705,271.0634],[11.6242,59.6699,283.6138],[11.6253,59.6655,261.4694],[11.6165,59.6649,291.4361],[11.6176,59.6604,272.4186],[11.6088,59.6599,281.9099],[11.6099,59.6554,251.2539],[11.5923,59.6543,273.2994],[11.5934,59.6498,268.4256],[11.5846,59.6493,185.011],[11.5857,59.6448,181.1454],[11.5769,59.6442,142.5335],[11.578,59.6398,143.6045],[11.5692,59.6392,125.3878],[11.5681,59.6437,126.6385],[11.5328,59.6414,245.3571],[11.5396,59.6147,192.3394],[11.5307,59.6141,196.1489],[11.5319,59.6096,181.103],[11.5231,59.6091,204.0695],[11.5242,59.6046,212.6115],[11.5154,59.604,204.4398],[11.5165,59.5996,199.3329],[11.4989,59.5984,193.1481],[11.5,59.594,204.3595],[11.4912,59.5934,177.0149],[11.489,59.6023,213.2489],[11.4801,59.6017,186.2417],[11.4767,59.6151,236.6457],[11.4679,59.6145,238.7857],[11.4668,59.619,220.778],[11.4844,59.6201,267.5811],[11.4833,59.6246,256.7064],[11.5009,59.6257,206.5904],[11.4986,59.6346,138.4675],[11.4898,59.634,163.7645],[11.4887,59.6385,141.966],[11.4799,59.6379,146.4632],[11.4764,59.6513,134.8002],[11.4676,59.6507,185.7733],[11.463,59.6685,131.8279],[11.4542,59.6679,173.243],[11.4531,59.6724,131.8895],[11.4178,59.6701,165.9608],[11.4166,59.6745,152.1629],[11.4078,59.6739,146.9565],[11.4066,59.6784,145.0954],[11.3978,59.6778,146.0773],[11.3967,59.6822,163.5362],[11.3878,59.6817,201.4336],[11.3867,59.6861,236.6797],[11.3779,59.6855,212.4669],[11.3755,59.6944,236.1494],[11.3667,59.6938,225.838],[11.3644,59.7027,316.3202],[11.3556,59.7022,305.2864],[11.3533,59.7111,309.1007],[11.3621,59.7117,300.5828],[11.3586,59.725,222.0509],[11.3675,59.7256,260.0111],[11.3663,59.73,259.6645],[11.3575,59.7295,201.6452],[11.354,59.7428,236.2921],[11.3451,59.7422,241.344],[11.3428,59.7511,234.9225],[11.3251,59.7499,226.247],[11.324,59.7544,209.5032],[11.3063,59.7532,240.4166],[11.3051,59.7577,179.8481],[11.2874,59.7565,189.7131],[11.2862,59.7609,158.498],[11.2774,59.7603,182.411],[11.2762,59.7648,141.4192],[11.2585,59.7636,156.9239],[11.2573,59.7681,131.5189],[11.2396,59.7669,100.0],[11.2408,59.7624,100.0],[11.232,59.7618,100.0],[11.2355,59.7485,100.0],[11.2267,59.7479,100.0],[11.2325,59.7257,100.0],[11.2237,59.7251,100.0],[11.2308,59.6984,100.0],[11.2219,59.6978,100.0],[11.2255,59.6844,100.0],[11.1813,59.6814,224.8949],[11.1801,59.6859,212.852],[11.1537,59.6841,206.4076],[11.1525,59.6886,210.8029],[11.1437,59.688,209.646],[11.1425,59.6924,160.5],[11.1336,59.6918,160.5],[11.1325,59.6962,180.8322],[11.1148,59.695,161.4259],[11.1136,59.6995,162.1275],[11.096,59.6983,171.8167],[11.0948,59.7027,196.038],[11.0594,59.7003,172.5025],[11.0606,59.6959,176.0618],[11.0165,59.6928,221.7892],[11.0153,59.6973,194.486],[10.9977,59.6961,257.4484],[10.9965,59.7005,235.0507],[10.9788,59.6993,215.6498],[10.9776,59.7037,205.1036],[10.9688,59.7031,212.9855],[10.97,59.6987,212.953],[10.9523,59.6975,204.182],[10.9608,59.6663,163.9963],[10.9696,59.667,198.076],[10.9732,59.6536,147.3219],[10.9644,59.653,164.7983],[10.9656,59.6486,150.0579],[10.9568,59.6479,151.8752],[10.958,59.6435,135.4989],[10.9492,59.6429,152.7715],[10.9504,59.6384,122.5708],[10.9416,59.6378,112.9637],[10.9428,59.6334,84.664],[10.9164,59.6315,141.6696],[10.9176,59.6271,116.8813],[10.8912,59.6253,112.6728],[10.8924,59.6208,102.3565],[10.8836,59.6202,80.08],[10.886,59.6113,71.4787],[10.8772,59.6107,82.7522],[10.8797,59.6018,93.8153],[10.8709,59.6012,78.1792],[10.8721,59.5967,69.9638],[10.8633,59.5961,94.8569],[10.8645,59.5917,101.679],[10.8557,59.591,75.0125],[10.8569,59.5866,90.5678],[10.8393,59.5854,50.8826],[10.8454,59.5631,67.8772],[10.7927,59.5594,53.8342],[10.7939,59.555,66.1186],[10.7764,59.5537,49.5588],[10.7776,59.5493,88.6799],[10.7688,59.5487,64.7795],[10.7713,59.5398,52.5767],[10.7801,59.5404,42.2401],[10.7825,59.5315,37.9854],[10.7737,59.5309,49.4257],[10.7774,59.5175,35.0853],[10.7686,59.5169,45.0259],[10.7735,59.4991,48.8114],[10.7648,59.4985,54.2678],[10.766,59.4941,73.7378],[10.7572,59.4935,65.6863],[10.7585,59.489,71.9376],[10.7409,59.4878,67.8975],[10.7422,59.4833,60.3007],[10.7071,59.4808,47.5311],[10.7059,59.4852,29.8811],[10.6971,59.4846,34.2769],[10.6959,59.4891,42.5083],[10.6853,59.4883,1.1981],[10.6892,59.4824,17.6389],[10.6853,59.4774,9.1937],[10.6869,59.4754,23.8278],[10.6803,59.4726,1.5424],[10.6769,59.4643,23.2244],[10.6731,59.4613,0.0],[10.6686,59.4485,34.486],[10.6681,59.4421,4.7386],[10.6608,59.4404,0.3196],[10.6597,59.4379,0.0],[10.6608,59.4371,4.0807],[10.6547,59.4354,7.9253],[10.6486,59.4362,2.2109],[10.6475,59.4393,9.5765],[10.6497,59.4404,0.4529],[10.6503,59.4437,0.0],[10.6581,59.4454,0.0],[10.6553,59.4515,16.7642],[10.6547,59.4624,3.8901],[10.6575,59.4629,0.0],[10.6575,59.4646,1.083],[10.6631,59.4646,14.8807],[10.6653,59.4615,0.0],[10.6681,59.4643,0.0],[10.6608,59.4701,16.5471],[10.6597,59.476,27.5631],[10.6675,59.4826,7.8127],[10.6758,59.4851,0.0],[10.6764,59.4868,0.9598],[10.6731,59.4907,0.0],[10.6675,59.4921,0.0],[10.6669,59.4943,0.0],[10.6647,59.4946,1.1378],[10.6642,59.4968,14.0164],[10.6669,59.4974,0.0],[10.6653,59.5046,3.2776],[10.6481,59.5062,17.2947],[10.6469,59.5096,7.6598],[10.6453,59.509,7.6598],[10.6458,59.5018,0.0],[10.6542,59.4982,15.2789],[10.6519,59.4965,0.0],[10.6531,59.4954,14.6311],[10.6519,59.4921,0.0],[10.6453,59.4888,0.6167],[10.6419,59.4888,0.0],[10.6397,59.4865,4.1612],[10.6397,59.4832,7.0435],[10.6353,59.4849,0.5013],[10.6275,59.4837,10.2355],[10.6253,59.4815,2.2047],[10.6242,59.476,0.0],[10.6264,59.4749,1.7335],[10.6253,59.4724,2.4019],[10.6297,59.4715,8.2163],[10.6292,59.4696,0.0],[10.6353,59.4699,1.2853],[10.6347,59.4663,2.2086],[10.6258,59.4599,6.2146],[10.6175,59.4596,5.6645],[10.6164,59.4501,0.0],[10.6153,59.4482,5.0141],[10.6119,59.4476,0.0],[10.6108,59.4451,0.0],[10.6125,59.4435,0.0],[10.6092,59.4407,13.1875],[10.5919,59.4393,0.0],[10.5881,59.4371,0.0],[10.5875,59.4196,3.8127],[10.5925,59.4168,0.0],[10.6014,59.4179,0.5489],[10.6047,59.4168,0.0],[10.6114,59.4215,5.0381],[10.6169,59.4215,0.0],[10.6225,59.4246,5.3155],[10.6253,59.419,2.5082],[10.6286,59.4179,0.0],[10.6319,59.4188,1.3119],[10.6381,59.4254,0.5412],[10.6414,59.4251,0.0],[10.6453,59.4285,0.0],[10.6447,59.4299,2.7013],[10.6492,59.4296,0.0],[10.6531,59.4318,0.8818],[10.6525,59.4279,0.0],[10.6569,59.4279,2.309],[10.6575,59.4207,21.8336],[10.6558,59.4135,7.3356],[10.6508,59.4068,1.5544],[10.6503,59.4001,4.8181],[10.6469,59.3951,0.0],[10.6475,59.3924,0.0],[10.6525,59.3865,0.3468],[10.6503,59.3821,0.898],[10.6508,59.3746,1.7328],[10.6547,59.3701,0.0],[10.6581,59.3749,0.0],[10.6569,59.3779,0.9125],[10.6625,59.3788,4.2761],[10.6614,59.3779,0.0],[10.6631,59.3732,2.0705],[10.6608,59.371,0.0],[10.6608,59.359,2.4081],[10.6642,59.3571,4.0419],[10.6703,59.3613,2.7004],[10.6731,59.3615,3.0315],[10.6742,59.3596,3.2156],[10.6714,59.3574,0.0],[10.6669,59.3571,0.0],[10.6625,59.3526,5.4894],[10.6608,59.3529,2.7015],[10.6592,59.3576,0.0],[10.6569,59.3521,4.0212],[10.6603,59.3521,2.7015],[10.6614,59.3479,0.0],[10.6581,59.344,1.4697],[10.6619,59.3418,0.0],[10.6619,59.3382,1.7849],[10.6569,59.3365,0.0],[10.6625,59.3349,5.2976],[10.6631,59.3299,0.0],[10.6653,59.3274,0.144],[10.6686,59.3276,9.8078],[10.6708,59.3215,0.841],[10.6781,59.3215,0.0],[10.6814,59.3251,5.5654],[10.6842,59.3251,0.0],[10.6775,59.3182,2.8703],[10.6775,59.3149,0.0],[10.6814,59.3149,0.0],[10.6836,59.3107,4.2517],[10.6819,59.3063,0.0],[10.6864,59.3035,0.0],[10.6897,59.3037,0.0949],[10.6908,59.3004,0.0],[10.6953,59.3001,0.0],[10.6897,59.3051,0.0],[10.6947,59.306,3.0788],[10.6936,59.3101,0.918],[10.6975,59.3124,0.0],[10.6992,59.3182,3.9164],[10.7119,59.3254,0.0],[10.7164,59.3262,0.3225],[10.7192,59.331,0.4907],[10.7192,59.3343,4.514],[10.7231,59.3332,0.2568],[10.7269,59.3351,0.0],[10.7303,59.3385,0.0],[10.7308,59.3435,0.0653],[10.7358,59.3446,0.2119],[10.7525,59.3432,0.0],[10.7464,59.3393,0.0289],[10.7464,59.334,0.0],[10.7481,59.3312,2.0362],[10.7547,59.3293,0.0],[10.7519,59.3265,0.0],[10.7525,59.3237,0.0],[10.7542,59.3232,0.2132],[10.7536,59.3196,1.6078],[10.7497,59.3196,1.2092],[10.7486,59.3215,0.0287],[10.7397,59.3235,0.8161],[10.7364,59.3213,5.3478],[10.7358,59.3165,-0.0187],[10.7319,59.3182,4.2891],[10.7319,59.3199,0.3971],[10.7258,59.3176,0.0],[10.7192,59.3182,0.0],[10.7197,59.3165,0.0],[10.7175,59.3149,0.0],[10.7175,59.3126,0.0],[10.7269,59.3132,0.7843],[10.7203,59.3082,0.6256],[10.7225,59.3037,0.0],[10.7275,59.3063,2.631],[10.7369,59.3051,0.0],[10.7403,59.3096,21.7362],[10.7475,59.3101,0.0],[10.7453,59.3121,4.748],[10.7497,59.3138,0.0],[10.7503,59.3162,0.5928],[10.7542,59.3151,0.2804],[10.7547,59.3124,0.0],[10.7608,59.3132,1.9352],[10.7575,59.3118,0.7682],[10.7597,59.311,6.4433],[10.7592,59.3093,6.0499],[10.7558,59.3107,0.0],[10.7514,59.3088,0.0],[10.7514,59.304,0.2738],[10.7553,59.3057,0.0],[10.7564,59.3088,2.7099],[10.7642,59.3085,0.0],[10.7764,59.3154,0.0],[10.7758,59.3168,1.0935],[10.7786,59.3199,2.3385],[10.7981,59.3218,4.4154],[10.7975,59.3201,11.7389],[10.7914,59.3185,1.3686],[10.7886,59.3132,1.5053],[10.7747,59.3096,0.0],[10.7753,59.3073,0.0],[10.7731,59.3057,0.808],[10.7642,59.3029,0.0],[10.7475,59.2918,7.6798],[10.7464,59.284,0.0],[10.7486,59.2813,0.4737],[10.7469,59.2782,15.0472],[10.7414,59.2807,0.0],[10.7314,59.2813,0.0],[10.7292,59.2751,3.44],[10.7258,59.2743,0.3523],[10.7242,59.2682,5.0325],[10.7264,59.2668,0.0],[10.7286,59.2699,0.8785],[10.7314,59.2693,2.5267],[10.7331,59.2671,3.9559],[10.7375,59.2687,0.0],[10.7397,59.2704,2.5278],[10.7375,59.2721,0.0],[10.7381,59.2743,1.8223],[10.7453,59.2721,6.7107],[10.7436,59.2704,0.0],[10.7486,59.2696,2.1358],[10.7447,59.2674,5.406],[10.7447,59.2643,7.7506],[10.7469,59.2637,9.9356],[10.7464,59.2601,1.7847],[10.7408,59.2543,2.2242],[10.7386,59.2546,2.3972],[10.7408,59.2571,7.3911],[10.7403,59.2654,2.8553],[10.7347,59.2651,7.7402],[10.7331,59.2635,2.947],[10.7336,59.2613,1.7239],[10.7319,59.2604,4.9513],[10.7292,59.261,4.7322],[10.7297,59.2629,2.0357],[10.7269,59.2613,4.7322],[10.7308,59.2571,1.0818],[10.7269,59.254,4.8454],[10.7269,59.2513,3.8571],[10.7325,59.2501,0.0],[10.7353,59.2521,1.4516],[10.7347,59.2463,5.4091],[10.7369,59.2451,9.3181],[10.7369,59.2435,5.1812],[10.7314,59.239,0.0],[10.7325,59.2349,7.3485],[10.7297,59.2326,0.0],[10.7308,59.2287,0.5604],[10.7297,59.2279,0.0],[10.7325,59.2285,0.0],[10.7319,59.2321,5.0561],[10.7369,59.2301,0.0],[10.7381,59.2335,2.5789],[10.7481,59.2313,1.4622],[10.7514,59.236,28.0395],[10.7586,59.2346,0.0],[10.7581,59.2374,28.5737],[10.7642,59.2399,6.8624],[10.7675,59.2451,1.3011],[10.7814,59.2588,19.8161],[10.7903,59.2615,1.5018],[10.7847,59.2574,9.23],[10.7842,59.254,6.165],[10.7758,59.2507,0.0],[10.7753,59.2485,0.7394],[10.7636,59.2382,0.0],[10.7631,59.2357,0.0],[10.7703,59.2293,12.3212],[10.7719,59.2254,1.9993],[10.7803,59.2224,15.1364],[10.7836,59.219,6.6629],[10.7869,59.2201,9.6267],[10.7903,59.2171,4.0102],[10.7886,59.2135,0.0],[10.7903,59.2121,0.0],[10.7908,59.2129,0.0],[10.7903,59.2137,0.0],[10.7925,59.2137,2.2517],[10.7969,59.2093,10.0696],[10.8025,59.2096,5.7169],[10.8031,59.2071,3.0297],[10.8069,59.2074,16.6242],[10.7992,59.2021,0.0],[10.7903,59.1999,2.092],[10.7919,59.1979,18.7137],[10.7892,59.196,0.0],[10.7903,59.191,8.0262],[10.7892,59.1882,0.0],[10.8019,59.1876,0.6444],[10.8036,59.1885,0.0],[10.8031,59.1915,0.3636],[10.7986,59.1937,0.4581],[10.8075,59.1965,5.7215],[10.8125,59.1937,7.1414],[10.8108,59.1907,1.9561],[10.8142,59.184,0.0],[10.8219,59.1857,4.6129],[10.8164,59.1826,0.4278],[10.8164,59.1782,3.1919],[10.8142,59.1782,0.5605],[10.8142,59.1765,0.0],[10.8219,59.1768,0.6465],[10.8192,59.1735,8.6547],[10.8219,59.1701,0.0],[10.8281,59.1724,9.8065],[10.8264,59.1671,0.1406],[10.8242,59.1662,0.0],[10.8242,59.161,0.0],[10.8258,59.1585,10.3602],[10.8214,59.1549,0.0],[10.8281,59.1504,0.0],[10.8314,59.1521,0.0],[10.8286,59.1576,9.3728],[10.8342,59.1621,2.0775],[10.8325,59.164,0.1007],[10.8336,59.1657,1.4632],[10.8425,59.1629,0.0],[10.8436,59.1662,4.598],[10.8486,59.1679,2.4256],[10.8442,59.1704,16.8513],[10.8475,59.1724,1.1862],[10.8497,59.169,4.0151],[10.8525,59.169,1.8158],[10.8531,59.171,3.4799],[10.8592,59.1701,0.0],[10.8608,59.1715,1.3977],[10.8603,59.174,0.0],[10.8564,59.174,13.4661],[10.8575,59.1785,3.4948],[10.8564,59.1801,14.4895],[10.8603,59.1824,0.0],[10.8575,59.1832,24.9537],[10.8592,59.1846,2.7186],[10.8569,59.1857,14.3477],[10.8575,59.1876,19.5744],[10.8642,59.186,18.7173],[10.8631,59.1815,0.0],[10.8669,59.1801,10.4931],[10.8675,59.1782,1.3497],[10.8719,59.179,10.5729],[10.8764,59.1829,0.0],[10.8764,59.1849,0.2632],[10.8808,59.1857,4.6339],[10.8975,59.1982,0.0],[10.8969,59.206,0.0],[10.8925,59.2088,2.4275],[10.9008,59.2082,0.0538],[10.9075,59.2101,0.0],[10.9153,59.2176,5.524],[10.9147,59.2221,19.2698],[10.9186,59.2215,2.7784],[10.9192,59.2165,0.0],[10.9247,59.2143,1.5552],[10.9136,59.2132,0.6809],[10.9131,59.2107,0.3283],[10.9175,59.2099,5.4205],[10.9086,59.2093,0.0],[10.9014,59.201,13.2598],[10.9019,59.1982,4.8638],[10.8964,59.1946,2.9386],[10.8892,59.1854,7.6647],[10.8842,59.184,0.0],[10.8836,59.1796,1.1811],[10.8808,59.1774,0.4843],[10.8842,59.174,0.0],[10.8969,59.184,6.8014],[10.8997,59.1843,1.8115],[10.8986,59.1787,0.0],[10.9025,59.1787,3.3784],[10.9025,59.1763,1.0481],[10.9047,59.1757,1.0481],[10.9036,59.1715,1.5311],[10.8997,59.1724,0.4692],[10.8992,59.171,3.2964],[10.9014,59.1699,3.9769],[10.8964,59.1688,0.0],[10.9036,59.1676,0.7744],[10.9081,59.1707,3.7691],[10.9092,59.1674,1.9606],[10.9164,59.1685,0.0383],[10.9075,59.1657,0.2383],[10.9014,59.161,2.9692],[10.8986,59.1638,1.3079],[10.9014,59.1671,0.7744],[10.8942,59.1654,0.2072],[10.8969,59.1632,3.2258],[10.8969,59.1613,9.179],[10.8936,59.1596,0.0],[10.8986,59.1574,1.4354],[10.8986,59.1557,2.3333],[10.9036,59.1557,1.4252],[10.9036,59.1543,1.6866],[10.9008,59.1535,0.0],[10.9047,59.1529,0.3156],[10.9081,59.1557,0.0],[10.9069,59.1574,6.5014],[10.9119,59.1563,9.3563],[10.9097,59.1546,4.419],[10.9097,59.1507,6.3214],[10.9003,59.1493,1.1036],[10.9008,59.1474,0.5292],[10.9042,59.1457,1.7995],[10.9119,59.1465,9.4315],[10.9103,59.1437,0.6525],[10.9136,59.1415,2.6457],[10.9092,59.141,0.0],[10.9081,59.1396,0.4261],[10.9092,59.139,3.747],[10.9058,59.139,0.0],[10.9053,59.1376,0.4246],[10.9125,59.1368,0.0],[10.9147,59.1379,0.7396],[10.9114,59.1387,0.7396],[10.9153,59.139,0.7036],[10.9247,59.136,2.9185],[10.9325,59.136,0.0],[10.9336,59.1374,5.2658],[10.9381,59.1376,0.5249],[10.9392,59.1432,19.0393],[10.9414,59.1437,1.0939],[10.9497,59.1526,16.1342],[10.9497,59.1563,26.3292],[10.9453,59.1601,17.574],[10.9453,59.1618,5.6142],[10.9503,59.1604,0.0],[10.9531,59.1721,0.3594],[10.9475,59.1746,0.9849],[10.9453,59.1729,5.2593],[10.9425,59.1735,0.881],[10.9497,59.1779,3.9367],[10.9514,59.1804,3.0765],[10.9503,59.1815,2.7451]]],
[[[10.8969,59.174,0.7285],[10.8969,59.1718,0.0],[10.8997,59.1729,0.4692],[10.8997,59.1743,0.6432],[10.8969,59.174,0.7285]]],
[[[10.8058,59.1724,2.014],[10.8019,59.1746,0.0],[10.7992,59.1735,0.3729],[10.7997,59.169,0.3102],[10.8025,59.1676,0.1852],[10.8058,59.1685,0.0],[10.8069,59.1718,0.0],[10.8058,59.1724,2.014]]],
[[[10.8942,59.1732,0.9166],[10.8914,59.1743,0.6088],[10.8897,59.1715,0.1549],[10.8914,59.1715,0.1549],[10.8942,59.1732,0.9166]]],
[[[10.8136,59.1746,0.0605],[10.8142,59.1735,0.0],[10.8175,59.1735,0.0],[10.8169,59.1757,0.7021],[10.8136,59.1746,0.0605]]],
[[[10.8964,59.1743,3.3913],[10.8981,59.176,0.1485],[10.8975,59.1774,0.0],[10.8936,59.1754,0.3206],[10.8964,59.1743,3.3913]]],
[[[10.7575,59.1982,0.0],[10.7569,59.2018,0.0],[10.7542,59.2015,0.0],[10.7564,59.1999,0.0073],[10.7553,59.1982,0.0],[10.7575,59.1982,0.0]]],
[[[10.7497,59.2226,0.0],[10.7453,59.2238,0.0],[10.7425,59.221,0.4901],[10.7498,59.221,0.0],[10.7508,59.2221,0.0],[10.7497,59.2226,0.0]]],
[[[10.7464,59.2301,8.537],[10.7403,59.231,0.0],[10.7403,59.2282,0.0],[10.7419,59.2279,2.8845],[10.7364,59.2257,4.3845],[10.7353,59.2224,1.0023],[10.7392,59.2221,5.3803],[10.7436,59.2243,0.884],[10.7453,59.2274,4.6671],[10.7497,59.2287,0.0],[10.7464,59.2301,8.537]]],
[[[10.7064,59.2504,10.4818],[10.7053,59.2518,1.066],[10.6992,59.2518,0.0],[10.7019,59.2482,4.8285],[10.6875,59.2449,1.8797],[10.6858,59.2396,0.0],[10.6864,59.2343,0.5777],[10.6842,59.2326,0.0],[10.6831,59.2287,0.0],[10.6875,59.2251,2.9003],[10.6875,59.2207,0.3799],[10.6958,59.2182,1.7095],[10.6969,59.2151,0.0],[10.7036,59.2126,2.4626],[10.7081,59.2135,0.0],[10.7086,59.2168,3.1872],[10.7025,59.2201,2.2187],[10.6981,59.2207,0.0],[10.6969,59.224,16.2544],[10.7047,59.229,0.0],[10.7036,59.2315,0.0],[10.7069,59.2349,4.3683],[10.7031,59.239,0.0],[10.7003,59.2393,7.6641],[10.7031,59.2443,1.5983],[10.7025,59.2474,4.8285],[10.7064,59.2484,0.0],[10.7064,59.2504,10.4818]]],
[[[10.8081,59.1857,0.1037],[10.8103,59.186,0.1037],[10.8092,59.189,0.2899],[10.8047,59.1882,1.3081],[10.8058,59.186,0.0935],[10.8081,59.1857,0.1037]]],
[[[10.7653,59.2279,5.3022],[10.7631,59.2301,6.7788],[10.7608,59.2276,1.5038],[10.7608,59.2251,0.0],[10.7636,59.2249,4.4183],[10.7586,59.2232,2.8022],[10.7531,59.2182,0.285],[10.7586,59.214,1.5409],[10.7564,59.2124,0.0],[10.7658,59.2113,3.4874],[10.7664,59.2085,0.5],[10.7636,59.2032,0.0],[10.7658,59.2018,0.0],[10.7686,59.2024,2.4346],[10.7681,59.1999,1.2184],[10.7708,59.1985,0.0],[10.7742,59.199,8.3338],[10.7714,59.1968,5.6505],[10.7781,59.1935,0.0],[10.7814,59.1957,3.9215],[10.7819,59.1982,0.0],[10.7842,59.1976,0.0],[10.7875,59.1999,17.6235],[10.7903,59.2071,4.2137],[10.7942,59.2071,0.0],[10.7947,59.2099,1.6856],[10.7869,59.2115,5.878],[10.7797,59.2104,10.4647],[10.7836,59.2126,5.3176],[10.7825,59.2154,6.3532],[10.7742,59.2212,16.9507],[10.7747,59.2229,4.6724],[10.7692,59.2243,9.1065],[10.7653,59.2279,5.3022]]],
[[[10.6831,59.2821,0.0],[10.6842,59.2835,0.0],[10.6775,59.2837,5.1655],[10.6742,59.2765,0.0],[10.6775,59.2771,0.0],[10.6792,59.2807,1.0574],[10.6831,59.2821,0.0]]],
[[[10.6786,59.2874,4.1299],[10.6808,59.2882,0.0],[10.6808,59.2924,0.0],[10.6736,59.2921,0.0],[10.6758,59.2879,0.0],[10.6786,59.2874,4.1299]]],
[[[10.6708,59.3063,0.5661],[10.6653,59.3076,0.0],[10.6647,59.3057,1.643],[10.6581,59.3029,0.5745],[10.6586,59.2999,0.0],[10.6658,59.2976,0.4699],[10.6625,59.2962,0.0796],[10.6614,59.2921,0.0],[10.6669,59.2946,0.0],[10.6664,59.2985,0.3278],[10.6758,59.2996,0.5201],[10.6742,59.3043,3.7043],[10.6708,59.3063,0.5661]]],
[[[10.7047,59.3043,0.0],[10.7047,59.3068,0.0],[10.7008,59.3079,0.0],[10.7019,59.304,0.6306],[10.7047,59.3043,0.0]]],
[[[10.6503,59.3285,0.0],[10.6464,59.3293,0.0],[10.6414,59.3271,0.0],[10.6403,59.3251,0.0],[10.6453,59.3251,4.2134],[10.6408,59.3235,1.7288],[10.6408,59.3196,0.0],[10.6597,59.3193,0.7913],[10.6586,59.3229,0.0],[10.6514,59.3249,3.2706],[10.6503,59.3285,0.0]]],
[[[10.6519,59.3351,24.3856],[10.6503,59.3365,2.6008],[10.6475,59.3357,0.0],[10.6525,59.3296,1.823],[10.6558,59.329,1.944],[10.6558,59.3315,7.8863],[10.6519,59.3351,24.3856]]],
[[[10.6364,59.3993,1.5546],[10.6342,59.3999,1.5546],[10.6308,59.4001,0.0],[10.6369,59.3937,0.0],[10.6364,59.3993,1.5546]]],
[[[10.5808,59.4346,0.4],[10.5831,59.4349,0.0],[10.5825,59.4368,0.7692],[10.5764,59.4354,0.0],[10.5769,59.434,0.0],[10.5808,59.4346,0.4]]],
[[[10.6292,59.5057,1.8343],[10.6286,59.5099,0.7626],[10.6269,59.5099,0.0],[10.6264,59.5065,0.0],[10.6292,59.5057,1.8343]]],
[[[10.6431,59.5151,15.436],[10.6358,59.516,3.1374],[10.6331,59.514,0.0],[10.6353,59.5132,8.5140999999999991],[10.6358,59.5104,0.0],[10.6403,59.5085,0.0],[10.6492,59.5124,5.3397],[10.6431,59.5151,15.436]]],
[[[10.9758,58.9851,0.0],[10.9692,58.986,0.0],[10.9675,58.9837,0.0],[10.9714,58.9821,1.8428],[10.9753,58.9832,0.0],[10.9758,58.9851,0.0]]],
[[[11.0186,58.9949,0.269],[11.0208,58.9968,1.0299],[11.0181,58.9965,1.832],[11.0186,58.9954,0.269],[11.0164,58.994,0.269],[11.0186,58.9949,0.269]]],
[[[11.0331,59.0029,1.9934],[11.0319,59.0054,10.2403],[11.0269,59.0043,2.2075],[11.0281,58.999,1.9824],[11.0325,59.001,6.5086],[11.0331,59.0029,1.9934]]],
[[[11.0186,59.0115,0.1306],[11.0147,59.0137,4.0946],[11.0125,59.0132,5.4661],[11.0092,59.0082,4.7715],[11.0031,59.0093,1.3251],[11.0042,59.0051,8.8755],[11.0025,59.0038,1.6573],[11.0114,59.001,1.066],[11.0131,59.0051,0.6639],[11.0175,59.0051,0.0],[11.0164,59.0085,0.0],[11.0192,59.0096,0.2631],[11.0186,59.0115,0.1306]]],
[[[10.9592,58.984,0.7167],[10.9619,58.9863,0.3101],[10.9619,58.9885,1.5495],[10.9569,58.9882,0.7021],[10.9558,58.986,0.0],[10.9486,58.9863,0.0],[10.9492,58.9846,0.0],[10.9464,58.9837,0.5737],[10.9447,58.9807,0.2535],[10.9503,58.9799,1.1418],[10.9447,58.9785,0.0],[10.9542,58.9774,1.6298],[10.9492,58.9771,0.0],[10.9503,58.9749,0.0],[10.9592,58.9743,0.0],[10.9608,58.9754,0.0],[10.9603,58.9774,0.4983],[10.9631,58.9784,0.0],[10.9619,58.9804,2.5561],[10.9636,58.9815,0.0],[10.9592,58.984,0.7167]]],
[[[10.9258,58.9888,0.0],[10.9208,58.9901,0.0],[10.9197,58.9882,0.0],[10.9236,58.9874,0.0],[10.9264,58.9879,0.0],[10.9258,58.9888,0.0]]],
[[[10.8675,59.1243,0.3763],[10.8614,59.124,2.829],[10.8608,59.1271,0.0],[10.8553,59.1271,0.0],[10.8558,59.1254,3.8499],[10.8508,59.1246,1.3023],[10.8514,59.1215,0.7202],[10.8569,59.1229,2.4743],[10.8586,59.1207,3.087],[10.8553,59.1193,9.1253],[10.8508,59.1204,1.4714],[10.8453,59.1193,0.3769],[10.8419,59.1129,1.5239],[10.8453,59.1129,1.5239],[10.8486,59.1162,0.237],[10.8514,59.1162,7.4024],[10.8519,59.1138,2.3891],[10.8403,59.1085,7.6072],[10.8403,59.1065,1.6587],[10.8442,59.1051,2.1128],[10.8364,59.1054,0.0],[10.8292,59.1015,0.0],[10.8331,59.1013,10.0425],[10.8286,59.0968,0.3668],[10.8314,59.0954,11.7956],[10.8319,59.0929,0.6003],[10.8364,59.0932,0.9997],[10.8347,59.0913,0.0],[10.8364,59.0901,0.0],[10.8436,59.0954,1.1597],[10.8425,59.0918,12.6411],[10.8392,59.0893,0.5975],[10.8425,59.0887,5.4257],[10.8414,59.0854,5.56],[10.8453,59.0854,5.56],[10.8425,59.0835,9.762],[10.8436,59.0801,0.9383],[10.8469,59.0799,0.0],[10.8442,59.0749,0.0],[10.8492,59.0738,3.9517],[10.8519,59.0751,21.5043],[10.8503,59.0713,0.3277],[10.8586,59.0696,0.0],[10.8614,59.0729,1.7819],[10.8647,59.074,0.3885],[10.8625,59.0754,2.8868],[10.8631,59.0765,0.9299],[10.8758,59.0757,9.7811],[10.8781,59.0732,2.2189],[10.8764,59.0704,8.0103],[10.8736,59.0707,0.5528],[10.8719,59.0743,0.3814],[10.8686,59.0743,0.199],[10.8697,59.0718,3.7049],[10.8653,59.0713,0.8369],[10.8653,59.0699,0.3947],[10.8708,59.0674,1.263],[10.8747,59.0674,0.9199],[10.8792,59.0682,0.5069],[10.8803,59.0701,8.0103],[10.8792,59.0713,2.057],[10.8814,59.0715,-0.0104],[10.8842,59.0746,10.3075],[10.8908,59.0762,1.2303],[10.8858,59.0707,1.1151],[10.8908,59.0646,0.0],[10.8992,59.0626,0.0],[10.9053,59.0649,8.7523],[10.9019,59.0618,6.5776],[10.9036,59.059,1.484],[10.9069,59.059,9.53],[10.9108,59.0601,0.4119],[10.9119,59.064,3.1998],[10.9214,59.0643,2.6798],[10.9247,59.0671,0.0],[10.9253,59.0699,0.299],[10.9286,59.0715,0.9859],[10.9308,59.076,3.6976],[10.9347,59.0779,1.9607],[10.9314,59.0704,2.2203],[10.9297,59.0701,0.0],[10.9297,59.0663,0.0],[10.9242,59.0607,2.4964],[10.9242,59.0579,11.4567],[10.9169,59.0568,0.4724],[10.9147,59.0557,0.0],[10.9153,59.0543,0.0],[10.9242,59.0493,0.1267],[10.9347,59.0488,0.4342],[10.9353,59.0479,2.2726],[10.9297,59.0468,0.0],[10.9314,59.0432,0.0],[10.9386,59.0432,0.2056],[10.9381,59.0396,3.1129],[10.9342,59.0396,0.2969],[10.9336,59.0374,0.0],[10.9397,59.036,1.8392],[10.9442,59.0304,0.0],[10.9497,59.0329,3.4008],[10.9492,59.0357,3.2455],[10.9508,59.0371,6.1454],[10.9558,59.0357,0.8384],[10.9581,59.0379,0.5453],[10.9642,59.0376,0.9548],[10.9664,59.039,3.8983],[10.9653,59.0435,1.2966],[10.9686,59.0454,0.0],[10.9681,59.0476,0.0],[10.9636,59.0504,3.6151],[10.9581,59.0596,0.0],[10.9614,59.0612,0.0],[10.9597,59.0663,0.0],[10.9614,59.0682,4.889],[10.9602,59.071,0.0],[10.9553,59.0718,18.1269],[10.9542,59.074,9.2393],[10.9581,59.0743,1.3023],[10.9586,59.0771,25.1574],[10.9636,59.0757,4.5576],[10.9658,59.0788,9.8469],[10.9697,59.079,0.0],[10.9708,59.0901,2.068],[10.9675,59.0904,15.4508],[10.9625,59.086,0.6497],[10.9503,59.0849,1.7392],[10.9458,59.0868,1.4066],[10.9414,59.0854,5.1905],[10.9364,59.0801,1.5596],[10.9375,59.0779,1.83],[10.9358,59.0779,1.9607],[10.9319,59.0846,-0.0375],[10.9386,59.0871,0.786],[10.9397,59.0913,7.1264],[10.9419,59.0918,0.1731],[10.9486,59.0996,1.0316],[10.9486,59.1029,0.0],[10.9414,59.1057,2.3933],[10.9358,59.1032,3.3851],[10.9336,59.1046,1.7183],[10.9292,59.1043,0.0],[10.9231,59.0996,6.2651],[10.9197,59.099,0.4544],[10.9192,59.1007,22.6541],[10.9214,59.1024,4.4002],[10.9203,59.1124,0.2391],[10.9214,59.1129,0.2391],[10.9136,59.114,1.2846],[10.9136,59.1174,1.0313],[10.9086,59.1215,0.7698],[10.9053,59.1196,1.2826],[10.9047,59.1154,9.7523],[10.9019,59.116,1.5609],[10.8997,59.1188,0.0],[10.8964,59.1188,0.0],[10.8903,59.1135,6.3685],[10.8881,59.1132,2.9138],[10.8842,59.1135,0.4897],[10.8858,59.1171,0.3522],[10.8803,59.1182,0.0],[10.8808,59.1165,0.6403],[10.8842,59.116,1.3471],[10.8836,59.1129,0.4897],[10.8792,59.1129,1.0525],[10.8786,59.1113,4.272],[10.8808,59.1076,3.6683],[10.8764,59.1076,0.6064],[10.8758,59.1162,1.5998],[10.8769,59.1176,0.0],[10.8714,59.1224,0.0],[10.8669,59.1224,0.0],[10.8675,59.1243,0.3763]]],
[[[10.9647,59.1057,0.0],[10.9619,59.1068,2.5352],[10.9631,59.111,0.0],[10.9581,59.1104,3.0011],[10.9547,59.1051,5.5145],[10.9525,59.1051,5.6346],[10.9503,59.1024,1.6351],[10.9503,59.1007,1.8972],[10.9525,59.1001,6.6882],[10.9503,59.0971,2.8142],[10.9508,59.094,0.9336],[10.9553,59.094,0.0],[10.9564,59.0976,3.4826],[10.9631,59.1004,0.0],[10.9647,59.1043,0.2058],[10.9664,59.1043,0.2058],[10.9647,59.1057,0.0]]],
[[[10.9819,59.0504,0.0],[10.9847,59.0504,0.0],[10.9831,59.0554,1.9049],[10.9814,59.0554,1.9049],[10.9819,59.0504,0.0]]],
[[[11.0381,59.0946,1.5801],[11.0319,59.096,0.0],[11.0297,59.0924,0.0],[11.0197,59.0924,0.0],[11.0108,59.0893,2.0585],[11.0075,59.0901,6.3163],[11.0053,59.0943,0.0],[11.0019,59.0943,2.8135],[11.0008,59.0926,0.3979],[11.0031,59.0915,14.7582],[11.0008,59.0893,1.4077],[11.0053,59.0885,24.1094],[10.9864,59.0812,1.0104],[10.9908,59.0738,9.9562],[10.9953,59.0726,2.0508],[10.9919,59.0707,8.1916],[10.9969,59.066,0.0],[11.0003,59.066,16.557],[11.0003,59.0621,5.5733],[10.9964,59.0629,0.0],[10.9975,59.0601,0.0],[11.0036,59.0588,11.1239],[10.9881,59.051,4.5965],[10.9892,59.0396,0.4917],[10.9875,59.0388,0.4917],[10.9892,59.0357,0.0],[10.9881,59.0304,0.0],[10.9925,59.0276,1.6091],[10.9992,59.0288,3.6955],[11.0019,59.0276,0.4003],[11.0075,59.0288,6.1668],[11.0075,59.0321,9.6482],[11.0131,59.0321,5.9941],[11.0147,59.0313,11.5658],[11.0142,59.0293,8.8699],[11.0075,59.0257,0.0],[11.0164,59.0257,10.4023],[11.0181,59.0243,2.3756],[11.0169,59.0224,7.7633],[11.0114,59.0218,0.0],[11.0119,59.0193,0.0],[11.0158,59.0171,3.5072],[11.0208,59.0185,0.0],[11.0258,59.016,0.2502],[11.0381,59.0232,0.5571],[11.0386,59.0249,0.9686],[11.0503,59.0251,0.0],[11.0525,59.0285,0.0],[11.0581,59.0288,0.0],[11.0575,59.0318,0.0],[11.0592,59.0343,11.8438],[11.0619,59.0349,0.0],[11.0608,59.0376,2.5096],[11.0575,59.0393,0.8839],[11.0625,59.0435,0.0],[11.0597,59.0471,0.0],[11.0558,59.0468,3.8098],[11.0519,59.044,9.0271],[11.0381,59.0418,2.9338],[11.0369,59.0443,0.1116],[11.0392,59.046,4.8743],[11.0436,59.0457,1.2646],[11.0431,59.044,1.815],[11.0453,59.0438,6.3383],[11.0592,59.0496,8.6407],[11.0664,59.0488,2.0803],[11.0714,59.0501,0.0],[11.0731,59.0485,0.0],[11.0764,59.0485,0.0],[11.0792,59.0515,9.9114],[11.0836,59.0529,2.6934],[11.0853,59.056,0.0],[11.0825,59.0599,2.658],[11.0797,59.0596,6.7851],[11.0797,59.061,25.1066],[11.0881,59.066,0.0],[11.0875,59.0687,0.8004],[11.0892,59.0699,3.8141],[11.0886,59.0735,3.7392],[11.0903,59.0757,0.0],[11.0886,59.0779,8.2158],[11.0914,59.0793,5.1448],[11.0869,59.0821,1.9424],[11.0881,59.0838,0.0],[11.0819,59.0854,0.0],[11.0808,59.0843,0.0],[11.0831,59.0824,3.6102],[11.0814,59.0821,0.736],[11.0714,59.0849,0.7659],[11.0703,59.0843,0.7659],[11.0719,59.0832,7.2199],[11.0681,59.0821,0.4113],[11.0675,59.084,0.6615],[11.0569,59.0879,4.0012],[11.0608,59.0896,3.307],[11.0603,59.0915,4.2679],[11.0519,59.0901,3.6158],[11.0486,59.0876,0.9825],[11.0514,59.0863,11.2165],[11.0497,59.0835,5.518],[11.0508,59.0807,3.6368],[11.0469,59.079,0.0],[11.0653,59.0782,0.5014],[11.0769,59.0746,0.9667],[11.0786,59.0718,8.7886],[11.0742,59.0724,2.523],[11.0719,59.0749,0.0211],[11.0631,59.0746,2.3295],[11.0586,59.0771,10.92],[11.0503,59.0771,0.0],[11.0447,59.0746,1.0663],[11.0436,59.0765,5.6011],[11.0392,59.0774,0.0],[11.0403,59.0804,0.0],[11.0386,59.0832,5.4602],[11.0436,59.0865,1.8898],[11.0425,59.0887,4.2523],[11.0436,59.091,1.2068],[11.0386,59.0926,2.7492],[11.0397,59.0943,0.0],[11.0381,59.0946,1.5801]]],
[[[10.9875,59.0687,7.0335],[10.9892,59.0701,0.0],[10.9792,59.0668,11.1293],[10.9797,59.0615,4.329],[10.9758,59.0596,0.9866],[10.9797,59.0579,0.0],[10.9847,59.0599,0.0],[10.9903,59.0563,0.1474],[10.9969,59.0576,1.8507],[10.9919,59.0601,0.6514],[10.9931,59.064,0.0],[10.9892,59.066,5.3405],[10.9892,59.0679,7.0335],[10.9875,59.0687,7.0335]]],
[[[10.9825,59.0743,0.0],[10.9803,59.0762,1.786],[10.9758,59.0757,0.0],[10.9775,59.0713,0.0],[10.9836,59.0693,1.2073],[10.9842,59.0732,4.5095],[10.9825,59.0743,0.0]]],
[[[10.9642,59.0918,3.912],[10.9653,59.0932,0.0],[10.9619,59.0938,0.0],[10.9581,59.0915,0.0],[10.9625,59.0899,0.0],[10.9642,59.0918,3.912]]],
[[[10.9831,59.1113,0.5561],[10.9864,59.1113,0.5047],[10.9864,59.1135,3.6934],[10.9825,59.1146,0.6608],[10.9814,59.1118,0.5561],[10.9831,59.1113,0.5561]]],
[[[10.9814,59.1154,0.6608],[10.9853,59.1149,0.8321],[10.9869,59.1174,0.0],[10.9819,59.1174,0.0],[10.9814,59.1154,0.6608]]],
[[[11.0181,59.119,6.9108],[11.0192,59.121,4.2541],[11.0181,59.1224,0.0],[11.0131,59.1196,5.0427],[11.0119,59.1132,0.0],[11.0153,59.1143,2.0922],[11.0142,59.116,2.2865],[11.0175,59.1165,0.0],[11.0181,59.119,6.9108]]],
[[[11.0619,58.9876,0.433],[11.0653,58.9876,0.0],[11.0658,58.9893,0.6781],[11.0636,58.9882,0.0],[11.0625,58.9896,0.0],[11.0619,58.9876,0.433]]],
[[[11.0375,59.0079,3.9747],[11.0353,59.0068,6.7883],[11.0353,59.0096,0.0],[11.0336,59.0096,0.0],[11.0319,59.0062,0.0],[11.0347,59.0057,6.7883],[11.0347,59.004,5.0705],[11.0392,59.0046,3.086],[11.0397,59.0013,1.9422],[11.0425,59.0001,0.1619],[11.0403,58.9985,0.2748],[11.0436,58.9968,3.0193],[11.0358,58.9957,0.6485],[11.0353,58.9912,1.6594],[11.0414,58.9896,2.4256],[11.0436,58.9915,0.0],[11.0525,58.9865,0.0],[11.0603,58.9863,1.1495],[11.0608,58.9882,1.1041],[11.0569,58.9876,2.6212],[11.0569,58.9893,3.7893],[11.0608,58.9901,0.3018],[11.0614,58.9932,1.2155],[11.0636,58.9946,0.0],[11.0525,58.9985,0.4034],[11.0525,59.0004,0.1734],[11.0581,59.0018,0.0],[11.0575,59.0043,0.0],[11.0481,59.0074,0.0],[11.0425,59.0062,3.9084],[11.0419,59.0093,0.0],[11.0375,59.0079,3.9747]]],
[[[11.1114,59.024,1.427],[11.1003,59.0249,1.163],[11.0897,59.0213,7.5977],[11.0708,59.0201,9.7647],[11.0642,59.0176,2.7638],[11.0631,59.0149,0.2109],[11.0581,59.016,0.6407],[11.0592,59.0132,5.7703],[11.0569,59.0099,0.0],[11.0631,59.0054,2.0602],[11.0608,59.0024,0.0],[11.0619,59.0021,0.7018],[11.0664,59.0043,1.6255],[11.0647,59.0104,0.0],[11.0664,59.0099,0.0],[11.0686,59.0068,0.0],[11.0681,59.001,0.6854],[11.0736,59.001,2.3798],[11.0747,58.9996,0.4204],[11.0786,59.0004,2.0804],[11.0747,58.9965,0.0],[11.0808,58.9949,0.0],[11.0853,58.9979,0.2458],[11.0836,59.0026,5.5856],[11.0869,59.0057,0.0],[11.0842,59.0085,1.9042],[11.0892,59.0121,22.81],[11.0947,59.0118,0.0],[11.1019,59.0137,0.0],[11.1047,59.0165,0.0],[11.1108,59.0171,4.7673],[11.1103,59.0204,5.1534],[11.1136,59.0215,2.9922],[11.1114,59.024,1.427]]],
[[[11.0553,59.0099,0.0],[11.0514,59.0115,0.0],[11.0492,59.0088,1.4557],[11.0531,59.0088,0.0],[11.0553,59.0099,0.0]]],
[[[11.0442,59.0126,3.8599],[11.0453,59.0135,0.0],[11.0425,59.014,0.0],[11.0358,59.0107,1.0928],[11.0425,59.011,0.672],[11.0442,59.0126,3.8599]]],
[[[11.0408,59.0207,4.4528],[11.0425,59.0229,1.4115],[11.0392,59.0229,1.4115],[11.0364,59.0185,0.5598],[11.0397,59.0168,0.0],[11.0408,59.0207,4.4528]]],
[[[11.1086,59.0524,3.3588],[11.1042,59.0537,0.8458],[11.1047,59.0507,4.2121],[11.1014,59.0499,0.0],[11.0986,59.0443,19.8146],[11.0903,59.0446,2.713],[11.0897,59.0426,0.0],[11.0914,59.0421,0.8384],[11.0908,59.0396,0.0],[11.0931,59.0357,3.1883],[11.0892,59.034,0.0],[11.0831,59.0343,2.6751],[11.0825,59.0332,0.9712],[11.0847,59.0321,2.4313],[11.0786,59.0296,0.0],[11.0786,59.0254,0.0],[11.0881,59.0246,0.3308],[11.0908,59.0279,7.0123],[11.0981,59.0271,1.0978],[11.1064,59.0299,3.0812],[11.1081,59.0346,6.2635],[11.1058,59.0371,15.4156],[11.1119,59.036,3.6211],[11.1114,59.0443,4.5235],[11.1158,59.049,0.0],[11.1136,59.0513,2.1406],[11.1103,59.0501,6.4768],[11.1086,59.0524,3.3588]]],
[[[11.0864,59.0435,0.0],[11.0825,59.0446,4.3454],[11.0792,59.0418,0.0],[11.0819,59.0396,1.7796],[11.0864,59.0435,0.0]]],
[[[11.1197,59.0443,1.3187],[11.1136,59.0449,0.0],[11.1142,59.0388,0.0],[11.1181,59.039,2.4661],[11.1208,59.0424,2.6116],[11.1197,59.0443,1.3187]]],
[[[11.1403,59.119,0.0],[11.1347,59.1204,11.8562],[11.1303,59.1188,0.0],[11.1286,59.1204,4.7642],[11.1242,59.1182,2.3304],[11.1225,59.1151,11.9932],[11.1169,59.1126,0.0],[11.1175,59.1065,2.4722],[11.1264,59.1032,0.0],[11.1275,59.0999,11.3035],[11.1258,59.0979,1.5864],[11.1336,59.0971,6.7536],[11.1369,59.0951,0.0],[11.1403,59.0974,1.5644],[11.1408,59.1001,5.7342],[11.1386,59.1004,14.0971],[11.1353,59.0979,6.7536],[11.1319,59.0999,0.0],[11.1392,59.1046,4.6852],[11.1408,59.1074,2.3041],[11.1381,59.1129,7.2449],[11.1408,59.1157,13.632],[11.1442,59.1154,0.0],[11.1458,59.1171,1.6872],[11.1403,59.119,0.0]]],
[[[11.0936,59.0762,0.5082],[11.0958,59.076,3.8451],[11.0981,59.0799,3.0807],[11.0953,59.0796,5.6063],[11.0936,59.0762,0.5082]]],
[[[11.0425,59.081,0.0],[11.0453,59.0807,1.9967],[11.0475,59.0846,0.0],[11.0431,59.0835,4.0591],[11.0425,59.081,0.0]]],
[[[11.0497,59.0971,0.0],[11.0503,59.0993,0.6945],[11.0486,59.1004,11.8939],[11.0447,59.0982,1.8449],[11.0447,59.0957,0.0],[11.0464,59.0954,0.0],[11.0497,59.0971,0.0]]],
[[[11.0408,59.0985,0.0],[11.0436,59.0979,1.8449],[11.0447,59.1021,1.3425],[11.0397,59.1007,2.1012],[11.0408,59.0985,0.0]]],
[[[11.0792,59.1065,1.5056],[11.0775,59.104,0.0],[11.0819,59.1051,1.5137],[11.0831,59.1076,2.2552],[11.0814,59.1076,1.308],[11.0792,59.1065,1.5056]]],
[[[11.1042,59.1051,3.2907],[11.1053,59.1074,1.6318],[11.1042,59.1082,4.7664],[11.0997,59.1068,4.6884],[11.1014,59.104,0.6306],[11.1042,59.1051,3.2907]]],
[[[11.0731,59.106,3.2666],[11.0747,59.1082,0.0],[11.0703,59.1085,4.0519],[11.0692,59.1049,0.0],[11.0719,59.1046,0.0],[11.0731,59.106,3.2666]]],
[[[11.0853,59.1182,0.6165],[11.0825,59.1174,0.2947],[11.0875,59.1174,0.0],[11.0892,59.1193,0.0],[11.0881,59.1193,0.0],[11.0853,59.1182,0.6165]]],
[[[11.1219,59.1335,0.0],[11.1225,59.1349,1.1805],[11.1208,59.136,2.0115],[11.1175,59.1349,5.1398],[11.1181,59.1326,2.5845],[11.1219,59.1335,0.0]]],
[[[11.1786,59.146,3.0373],[11.1836,59.146,1.7879],[11.1842,59.1474,2.4252],[11.1819,59.1476,11.6235],[11.1819,59.1504,9.8251],[11.1775,59.1501,10.6396],[11.1758,59.1471,1.551],[11.1786,59.146,3.0373]]],
[[[11.1703,59.1771,2.2704],[11.1692,59.1787,2.2704],[11.1642,59.1774,0.0],[11.1675,59.1765,0.0],[11.1703,59.1771,2.2704]]],
[[[11.1131,59.1293,2.1184],[11.1103,59.1307,0.5446],[11.1053,59.1282,6.0647],[11.1047,59.1263,5.2955],[11.1103,59.1243,1.3122],[11.1136,59.1265,3.5351],[11.1131,59.1293,2.1184]]],
[[[11.1169,59.1485,6.3879],[11.1131,59.1499,5.4683],[11.1153,59.1476,6.3879],[11.1147,59.1449,0.0],[11.1181,59.1454,0.0],[11.1169,59.1485,6.3879]]],
[[[10.9869,59.1699,0.0941],[10.9825,59.1707,0.0],[10.9775,59.1685,0.7116],[10.9775,59.1649,0.8537],[10.9747,59.1632,0.0],[10.9764,59.1615,0.1739],[10.9736,59.1621,0.0],[10.9731,59.1607,0.0],[10.9797,59.1576,0.0],[10.9864,59.1632,0.598],[10.9836,59.1649,1.0852],[10.9869,59.1649,0.7266],[10.9858,59.1693,0.0941],[10.9881,59.1693,0.0989],[10.9869,59.1699,0.0941]]],
[[[10.9892,59.1662,0.0],[10.9931,59.1654,0.0],[10.9936,59.1676,0.0],[10.9914,59.1676,0.0],[10.9892,59.1662,0.0]]],
[[[10.9742,59.1682,0.5208],[10.9708,59.169,0.0],[10.9708,59.1665,0.0],[10.9731,59.1651,0.0],[10.9758,59.166,0.0],[10.9742,59.1682,0.5208]]]]}
,"properties": {"GID_1": "NOR.2_1","GID_0": "NOR","country": "Norway","province": "Ãstfold","VARNAME_1": "Oestfoldfylke","NL_NAME_1": "NA","TYPE_1": "Fylke","ENGTYPE_1": "County","CC_1": "NA","HASC_1": "NO.OF","ISO_1": "NA","name": "Ãstfold.province","area_km2": 4185.6,"hist_schema_id": "Elevation0-9000","hist_area_km2": {"0": 185.889,"25": 434.493,"50": 370.372,"75": 286.025,"100": 412.295,"125": 602.319,"150": 590.58,"175": 519.536,"200": 355.944,"225": 214.572,"250": 125.894,"275": 57.019,"300": 26.845,"325": 3.805}}}