{"type": "Feature","bbox": [10.1188,59.4498,10.3336,59.5752],"geometry": {"type": "MultiPolygon","coordinates": [[[[10.1315,59.4609,182.3783],[10.1665,59.4636,44.5],[10.1652,59.468,48.0735],[10.174,59.4687,50.3814],[10.1726,59.4731,53.7379],[10.1814,59.4738,46.5391],[10.1801,59.4782,72.4969],[10.1889,59.4789,68.57],[10.1876,59.4833,54.8553],[10.2051,59.4846,211.3507],[10.209,59.4713,151.1776],[10.2177,59.472,200.3494],[10.2242,59.4498,179.1185],[10.2504,59.4518,93.7546],[10.2492,59.4562,100.0646],[10.2842,59.4588,115.064],[10.2854,59.4544,114.5045],[10.303,59.4557,128.9685],[10.3042,59.4513,118.6712],[10.3217,59.4526,203.4631],[10.3192,59.4615,174.0996],[10.3279,59.4621,111.4372],[10.3254,59.471,95.7194],[10.3336,59.4716,13.1803],[10.3319,59.4771,0.0],[10.3336,59.4785,0.0],[10.3286,59.4807,6.7384],[10.3269,59.4851,0.0],[10.3297,59.486,0.0],[10.3247,59.4896,1.2765],[10.3247,59.4915,0.0],[10.3208,59.4896,0.1964],[10.3175,59.4899,0.5094],[10.3136,59.4949,0.0],[10.3064,59.4971,0.0],[10.2992,59.5062,5.3686],[10.2919,59.5107,0.0],[10.2947,59.5137,0.0],[10.2825,59.5254,7.9586],[10.2814,59.5307,1.1633],[10.2797,59.5318,1.1633],[10.2714,59.5324,0.0],[10.2692,59.5307,2.7674],[10.2653,59.5307,1.9075],[10.2608,59.5329,6.6883],[10.2569,59.5385,0.0],[10.2434,59.5374,181.2367],[10.2447,59.533,210.8191],[10.2183,59.531,222.2488],[10.217,59.5355,222.5428],[10.2083,59.5348,214.8085],[10.207,59.5392,185.1576],[10.1982,59.5386,169.0924],[10.1969,59.543,345.3187],[10.1881,59.5423,288.4067],[10.1816,59.5645,208.141],[10.1728,59.5639,203.331],[10.1715,59.5683,252.6591],[10.154,59.567,210.41],[10.1526,59.5714,309.348],[10.1439,59.5707,329.6531],[10.1425,59.5752,367.2384],[10.1338,59.5745,287.4642],[10.1351,59.5701,225.0028],[10.1263,59.5694,178.3455],[10.1276,59.565,103.0175],[10.1188,59.5643,41.7541],[10.1241,59.5466,64.3744],[10.1329,59.5472,106.9286],[10.1355,59.5383,215.8004],[10.1443,59.539,104.7606],[10.1508,59.5168,35.0],[10.1421,59.5162,35.0],[10.1473,59.4984,182.7652],[10.1298,59.4971,187.4415],[10.1311,59.4926,165.9032],[10.1223,59.492,170.4483],[10.1315,59.4609,182.3783]]]]}
,"properties": {"GID_2": "NOR.19.4_1","GID_0": "NOR","country": "Norway","GID_1": "NOR.19_1","province": "Vestfold","NL_NAME_1": "NA","county": "Holmestrand","VARNAME_2": "NA","NL_NAME_2": "NA","TYPE_2": "Kommuner","ENGTYPE_2": "Municipality","CC_2": "NA","HASC_2": "NO.VF.HS","name": "Holmestrand.county","area_km2": 90.3313,"hist_schema_id": "Elevation0-9000","hist_area_km2": {"0": 1.08691,"25": 1.92554,"50": 9.75719,"75": 7.78575,"100": 13.6344,"125": 20.91511,"150": 11.33302,"175": 9.94333,"200": 7.02546,"225": 4.86102,"250": 1.36536,"275": 0.23636,"300": 0.15035,"325": 0.20409,"350": 0.09668,"375": 0.01074}}}