{"type":"Feature","properties":{"GID_2":"NOR.7.14_1","GID_0":"NOR","country":"Norway","GID_1":"NOR.7_1","province":"Hordaland","NL_NAME_1":"NA","county":"Kvam","VARNAME_2":"NA","NL_NAME_2":"NA","TYPE_2":"Kommuner","ENGTYPE_2":"Municipality","CC_2":"NA","HASC_2":"NO.HO.KM","name":"Kvam.county"},
"geometry":{"type": "MultiPolygon","coordinates": [[[[5.8803,60.1046,94.7923],[5.8823,60.1002,153.8177],[5.8911,60.1012,179.0379],[5.8892,60.1055,197.0452],[5.9068,60.1074,139.1257],[5.9049,60.1118,110.7083],[5.9138,60.1128,0.0],[5.9089,60.1151,0.0],[5.9063,60.1312,4.2784],[5.9042,60.1354,0.0],[5.9042,60.1437,0.0],[5.9057,60.1474,0.0],[5.9026,60.1484,9.1228],[5.9021,60.1563,0.0],[5.9047,60.162,0.0],[5.9104,60.1646,39.2345],[5.9245,60.1641,0.0],[5.9245,60.1589,10.9577],[5.9214,60.1568,0.0],[5.9234,60.1505,5.0486],[5.925,60.15,0.0],[5.9474,60.1547,0.0],[5.9505,60.1599,4.4833],[5.9536,60.1609,8.557],[5.9557,60.1682,0.0],[5.9521,60.1708,0.0],[5.9563,60.175,0.0],[5.9542,60.1813,21.4043],[5.9547,60.1828,20.4051],[5.962,60.1859,0.0],[5.9583,60.1896,0.0],[5.9589,60.1911,0.0],[5.9641,60.1922,0.0],[5.9609,60.1953,20.6596],[5.9646,60.1979,34.3764],[5.9609,60.2016,7.0505],[5.9667,60.2062,0.0],[5.963,60.2089,38.4318],[5.963,60.212,0.0],[5.975,60.2167,1.6536],[5.9806,60.2171,0.0],[5.9818,60.2203,0.0],[5.9995,60.2276,0.0],[6.0005,60.2307,55.6497],[6.0078,60.2318,0.0],[6.0047,60.2339,4.8265],[6.0057,60.237,0.0],[6.0026,60.2391,4.6233],[6.0099,60.2443,12.749],[6.0083,60.2479,14.701],[6.0089,60.2516,0.0],[6.0161,60.2547,0.0],[6.0146,60.2604,0.0],[6.0188,60.2646,0.0],[6.0151,60.2682,0.0],[6.0229,60.2687,0.0],[6.0255,60.2724,0.0],[6.0313,60.2729,0.0],[6.0484,60.263,6.1704],[6.0583,60.2625,32.9346],[6.0854,60.2521,0.0],[6.0938,60.2521,3.1232],[6.0979,60.2542,61.4033],[6.1021,60.2521,0.0],[6.1063,60.2542,6.5362],[6.1146,60.2542,10.217],[6.1229,60.25,0.0],[6.1375,60.2542,0.0],[6.1391,60.2536,11.1316],[6.1375,60.25,26.4025],[6.138,60.2464,0.0],[6.1453,60.2453,13.0822],[6.1521,60.2417,0.0],[6.1547,60.2453,8.0438],[6.1578,60.2464,0.0],[6.1589,60.2516,104.1593],[6.1609,60.2536,0.0],[6.1828,60.2651,0.0],[6.1839,60.2682,0.0],[6.187,60.2693,0.0],[6.1901,60.2766,20.2458],[6.1932,60.2776,0.0],[6.1938,60.2813,40.1165],[6.1911,60.2849,0.0],[6.1839,60.2859,13.9249],[6.1828,60.2891,0.0],[6.1755,60.2922,0.0],[6.1766,60.2974,0.0],[6.1729,60.3,0.0],[6.1745,60.3078,0.0],[6.1714,60.3089,0.0],[6.1714,60.3141,0.0],[6.1745,60.3151,0.0],[6.1792,60.3208,0.0],[6.1875,60.3208,0.0],[6.1917,60.3229,0.0],[6.1979,60.3229,0.0],[6.1979,60.325,28.5354],[6.2161,60.3276,0.0],[6.2203,60.3297,0.0],[6.2208,60.3354,4.8715],[6.2182,60.3411,0.0],[6.2151,60.3422,0.0],[6.2141,60.3453,0.0],[6.2042,60.3479,0.0],[6.2,60.3458,26.4914],[6.1958,60.3458,41.3775],[6.1875,60.35,0.0],[6.1797,60.3505,0.0],[6.1484,60.3672,0.0],[6.1484,60.3703,0.0],[6.1557,60.3703,0.0],[6.1599,60.3682,15.9592],[6.1609,60.3651,0.0],[6.1708,60.3625,0.0],[6.1766,60.363,0.0],[6.1792,60.3667,4.0925],[6.1833,60.3646,0.0],[6.1958,60.3688,4.1107],[6.2042,60.3688,0.0],[6.2078,60.3714,0.0],[6.2078,60.3745,0.0],[6.2047,60.3766,3.3795],[6.2078,60.3786,0.0],[6.2047,60.3797,10.3993],[6.2026,60.3849,0.0],[6.2083,60.3875,32.0156],[6.2125,60.3833,0.0],[6.2208,60.3833,17.5991],[6.2313,60.3792,0.0],[6.237,60.3786,0.0],[6.2464,60.3714,0.0],[6.2563,60.3708,0.0],[6.2589,60.3745,0.0],[6.2672,60.3786,0.0],[6.275,60.3792,0.0],[6.2807,60.3818,0.0],[6.2734,60.3859,98.3213],[6.2745,60.3911,0.0],[6.2672,60.3943,0.0],[6.2688,60.3958,0.0],[6.2771,60.3958,46.0241],[6.2854,60.3917,0.0],[6.2979,60.3917,0.0],[6.3021,60.3937,20.566],[6.312,60.3943,0.0],[6.3146,60.3979,46.4115],[6.3375,60.3979,0.0],[6.3474,60.4005,0.0],[6.3484,60.4036,10.3274],[6.3536,60.4068,0.0],[6.3547,60.4099,0.0],[6.362,60.4109,0.0],[6.3688,60.4146,22.3754],[6.3729,60.4125,0.0],[6.3771,60.4146,30.8075],[6.3854,60.4146,25.5657],[6.3896,60.4125,0.0],[6.3938,60.4125,0.0],[6.4016,60.4151,0.0],[6.4057,60.4172,0.0],[6.4078,60.4234,0.0],[6.4042,60.4271,24.1814],[6.4047,60.4307,40.0772],[6.4063,60.4313,61.69],[6.4104,60.4292,0.0],[6.4229,60.4313,2.2486],[6.4271,60.4292,0.0],[6.4354,60.4292,0.0],[6.4396,60.4313,29.1143],[6.4583,60.4333,0.0],[6.4792,60.4396,32.6396],[6.487,60.4401,0.0],[6.488,60.4432,25.3862],[6.4952,60.4442,0.0],[6.4934,60.4486,200.5167],[6.5023,60.4495,130.9305],[6.5004,60.4539,567.433],[6.5094,60.4548,373.7082],[6.5075,60.4592,798.6744],[6.5165,60.4601,660.7706],[6.5146,60.4645,746.689],[6.5235,60.4654,604.5892],[6.5198,60.4742,904.6462],[6.5109,60.4733,893.3968],[6.509,60.4776,919.3653],[6.4822,60.4749,900.7747],[6.4841,60.4705,1023.9618],[6.4752,60.4696,1016.411],[6.4733,60.474,926.7177],[6.4644,60.4731,989.8715],[6.4625,60.4775,988.3055],[6.4536,60.4766,1183.9114],[6.4517,60.4809,1177.8121],[6.4428,60.48,1204.0798],[6.4446,60.4756,1192.939],[6.4089,60.472,986.0574],[6.407,60.4764,1013.572],[6.3981,60.4754,1030.7631],[6.3962,60.4798,1076.5421],[6.4051,60.4808,1118.1989],[6.4014,60.4895,1137.9567],[6.3925,60.4886,1051.7775],[6.3868,60.5018,964.2379],[6.3779,60.5009,1014.3165],[6.3741,60.5096,1250.7782],[6.3205,60.5041,1276.5316],[6.3186,60.5085,1109.1472],[6.2828,60.5048,1253.2021],[6.2809,60.5092,1136.7091],[6.272,60.5082,1231.0527],[6.2701,60.5126,1069.4581],[6.2612,60.5117,1032.2211],[6.2498,60.538,1072.3763],[6.1514,60.5278,920.7101],[6.1533,60.5234,868.2883],[6.0907,60.5168,582.0],[6.0888,60.5212,609.6816],[6.0799,60.5203,582.0],[6.0779,60.5246,582.0],[6.0332,60.5199,1037.9307],[6.0352,60.5155,1032.4396],[6.0173,60.5137,939.0112],[6.0192,60.5093,894.8008],[6.0013,60.5074,1157.0726],[6.0033,60.503,1078.2034],[5.9943,60.5021,1032.0201],[5.9963,60.4977,988.5],[5.9873,60.4967,1052.324],[5.9931,60.4836,988.808],[5.9842,60.4826,1086.67],[5.988,60.4739,828.6401],[5.9791,60.4729,873.1006],[5.981,60.4685,755.3022],[5.9632,60.4666,724.4074],[5.9651,60.4623,646.7263],[5.9562,60.4613,561.9587],[5.9581,60.4569,625.0082],[5.9492,60.456,587.6648],[5.9511,60.4516,793.6255],[5.9422,60.4507,786.8148],[5.9461,60.4419,889.4968],[5.9372,60.4409,842.2581],[5.9391,60.4366,784.139],[5.9302,60.4356,766.1952],[5.934,60.4268,762.8674],[5.9251,60.4259,874.1017],[5.927,60.4215,864.8214],[5.9181,60.4206,929.4627],[5.922,60.4118,566.8498],[5.9131,60.4109,553.3901],[5.9189,60.3977,389.1377],[5.91,60.3968,485.6936],[5.935,60.3398,1030.3107],[5.9261,60.3389,942.0883],[5.928,60.3345,929.4602],[5.9192,60.3335,945.963],[5.9249,60.3204,1137.0939],[5.9338,60.3213,988.1545],[5.9396,60.3082,823.8796],[5.9485,60.3091,727.7009],[5.9523,60.3004,714.8444],[5.9612,60.3013,538.5015],[5.9631,60.2969,726.5236],[5.9542,60.296,715.3384],[5.9638,60.2741,397.3264],[5.9549,60.2731,397.4768],[5.9607,60.26,593.9986],[5.9518,60.259,628.1998],[5.9575,60.2459,556.7095],[5.9487,60.2449,658.5114],[5.9525,60.2362,530.8757],[5.9436,60.2352,656.6432],[5.9494,60.2221,420.5869],[5.9405,60.2211,562.4005],[5.9462,60.208,323.4442],[5.9374,60.207,454.1309],[5.9393,60.2027,383.8535],[5.9216,60.2008,337.8586],[5.9235,60.1964,419.65],[5.897,60.1935,176.9913],[5.8989,60.1892,133.1358],[5.8812,60.1872,385.5777],[5.8831,60.1829,408.2118],[5.8743,60.1819,461.6349],[5.88,60.1688,511.6296],[5.8889,60.1697,396.047],[5.8908,60.1653,294.5835],[5.8819,60.1644,333.5286],[5.8858,60.1556,411.2232],[5.8769,60.1547,445.7655],[5.8846,60.1372,296.0735],[5.8758,60.1362,393.3843],[5.8796,60.1274,305.6709],[5.8708,60.1265,504.0826],[5.8727,60.1221,324.9266],[5.8639,60.1212,453.4951],[5.8658,60.1168,264.0456],[5.8746,60.1177,242.9217],[5.8803,60.1046,94.7923]]],
[[[6.2016,60.3224,0.0],[6.1979,60.3229,0.0],[6.1979,60.3208,0.0],[6.2016,60.3214,0.0],[6.2016,60.3224,0.0]]],
[[[6.2776,60.3609,0.0],[6.2807,60.3609,0.0],[6.2818,60.3641,31.81],[6.2849,60.3651,0.0],[6.287,60.3682,0.0],[6.2729,60.3688,0.0],[6.2693,60.3661,16.3932],[6.2776,60.3609,0.0]]]]}}