{"type": "Feature","bbox": [8.8526,63.7152,10.2117,64.1771],"geometry": {"type": "MultiPolygon","coordinates": [[[[9.6057,63.8109,1.7415],[9.6057,63.812,0.0],[9.6026,63.812,0.0],[9.6042,63.8104,1.8659],[9.6057,63.8109,1.7415]]],
[[[9.5078,63.8307,2.9571],[9.4964,63.8318,2.3266],[9.4953,63.8349,0.0],[9.4896,63.8375,0.0],[9.4776,63.837,0.0],[9.4807,63.8339,0.0],[9.4714,63.8328,0.0],[9.4703,63.8297,0.0],[9.4589,63.8224,0.0],[9.4563,63.8146,0.0],[9.4599,63.8109,1.004],[9.4505,63.8099,4.9894],[9.4464,63.7984,0.0],[9.45,63.7979,0.0],[9.4557,63.8005,0.3586],[9.462,63.8047,0.0],[9.4589,63.8078,0.0],[9.4667,63.8104,0.0],[9.4688,63.8083,0.0],[9.4672,63.8047,0.0],[9.4729,63.8021,0.0],[9.4849,63.8047,0.0],[9.487,63.8078,0.0],[9.4813,63.8083,0.0],[9.4797,63.8099,0.0],[9.4854,63.8125,1.0439],[9.4917,63.8125,0.0],[9.4995,63.8151,0.0],[9.5109,63.8224,0.0],[9.5161,63.8234,0.0],[9.5161,63.8286,0.0],[9.5078,63.8307,2.9571]]],
[[[9.5229,63.8375,6.2633],[9.5188,63.8375,0.0],[9.5172,63.8359,0.0],[9.5245,63.8359,0.0],[9.5229,63.8375,6.2633]]],
[[[9.5016,63.838,0.0],[9.4964,63.8359,0.0],[9.5042,63.8354,0.0],[9.5062,63.8375,0.0],[9.5042,63.8396,0.0],[9.5016,63.838,0.0]]],
[[[9.3646,63.7729,0.0],[9.3609,63.7693,0.0],[9.3729,63.7687,0.0],[9.3766,63.7714,0.0],[9.375,63.7729,0.0],[9.3646,63.7729,0.0]]],
[[[9.3958,63.7813,5.255],[9.3854,63.7813,3.236],[9.3813,63.7833,0.0],[9.3792,63.7813,0.0],[9.3839,63.7776,4.0641],[9.3896,63.7771,0.0],[9.3974,63.7797,0.0],[9.3958,63.7813,5.255]]],
[[[9.4354,63.8271,0.0],[9.4276,63.8276,0.0],[9.4286,63.8307,1.9353],[9.4229,63.8333,0.0],[9.4193,63.8307,0.0],[9.4182,63.8276,0.0],[9.4104,63.825,0.0],[9.4,63.825,0.6573],[9.3958,63.8229,2.8818],[9.388,63.8224,0.0],[9.3911,63.8203,0.0],[9.3911,63.8172,0.0],[9.3755,63.812,0.0],[9.375,63.8104,13.2926],[9.3771,63.8083,0.0],[9.387,63.8078,0.0],[9.387,63.8026,0.0],[9.3714,63.8016,0.0],[9.3703,63.7984,0.0],[9.3609,63.7953,0.0],[9.3599,63.7922,0.0],[9.3547,63.7891,0.0],[9.3526,63.7859,0.0],[9.3557,63.7849,0.0],[9.3568,63.7818,0.0],[9.3641,63.7807,0.0],[9.363,63.7755,0.0],[9.3708,63.775,0.0],[9.3729,63.7771,0.0],[9.3693,63.7807,0.0],[9.3745,63.7818,0.0],[9.3714,63.7849,0.0],[9.3792,63.7875,0.0],[9.3833,63.7854,1.19],[9.3938,63.7875,0.0],[9.3979,63.7854,0.0],[9.4021,63.7875,0.0],[9.4125,63.7875,0.0],[9.4167,63.7896,1.9057],[9.4286,63.7901,0.0],[9.4307,63.7922,0.0],[9.4318,63.7974,0.0],[9.437,63.7984,0.0],[9.438,63.8036,0.0],[9.4453,63.8089,0.0],[9.4479,63.8167,0.0],[9.4474,63.8203,0.0],[9.4354,63.8271,0.0]]],
[[[9.2328,64.0537,0.0],[9.2292,64.0542,0.0],[9.2276,64.0526,0.0],[9.2313,64.0521,0.0],[9.2328,64.0537,0.0]]],
[[[9.187,64.0463,0.0],[9.1818,64.0443,0.0],[9.1938,64.0437,0.0],[9.1979,64.0479,0.0],[9.1958,64.05,0.0],[9.1896,64.05,0.0],[9.187,64.0463,0.0]]],
[[[9.2188,64.0542,0.0],[9.2146,64.0542,0.0],[9.213,64.0526,0.0],[9.2224,64.0526,0.0],[9.2188,64.0542,0.0]]],
[[[9.2151,64.0599,0.0],[9.2208,64.0563,0.0],[9.2245,64.0568,0.0],[9.225,64.0583,0.0],[9.2229,64.0604,0.0],[9.2151,64.0599,0.0]]],
[[[9.1453,64.0651,0.0],[9.1453,64.0661,0.0],[9.1422,64.0661,0.0],[9.1422,64.0651,0.0],[9.1453,64.0651,0.0]]],
[[[9.2297,64.0599,0.0],[9.2354,64.0563,0.0],[9.2432,64.0568,0.0],[9.2333,64.0625,0.0],[9.2297,64.0599,0.0]]],
[[[9.2396,64.0687,0.0],[9.2354,64.0687,0.0],[9.2339,64.0672,0.0],[9.2411,64.0672,0.0],[9.2396,64.0687,0.0]]],
[[[9.2276,64.0807,0.0],[9.2333,64.0771,0.0],[9.237,64.0797,0.0],[9.2354,64.0813,0.0],[9.2276,64.0807,0.0]]],
[[[9.2703,64.0797,0.0],[9.2651,64.0776,0.0],[9.2745,64.0776,0.0],[9.2745,64.0828,0.0],[9.2714,64.0828,0.0],[9.2703,64.0797,0.0]]],
[[[8.9266,63.9203,1.9442],[8.9208,63.9208,0.0],[8.9193,63.9193,2.4845],[8.925,63.9188,3.8084],[8.9266,63.9203,1.9442]]],
[[[8.8604,63.9229,3.8927],[8.8568,63.9203,2.7897],[8.8568,63.9172,1.4403],[8.8661,63.9172,0.0],[8.8672,63.9203,0.0],[8.8766,63.9245,0.0],[8.8688,63.925,0.0],[8.8646,63.9229,1.1715],[8.8604,63.9229,3.8927]]],
[[[8.8938,63.9313,3.2599],[8.8932,63.9297,6.9546],[8.888,63.9276,0.0],[8.9042,63.9271,7.2587],[8.912,63.9297,0.0],[8.913,63.9328,0.0],[8.9182,63.937,3.1221],[8.9021,63.9375,0.0],[8.8943,63.9349,0.0],[8.8938,63.9313,3.2599]]],
[[[9.0,63.9417,0.0],[9.0016,63.9432,3.5785],[8.9984,63.9432,0.0],[8.9984,63.9422,0.4892],[9.0,63.9417,0.0]]],
[[[8.8932,63.9453,3.0006],[8.888,63.9453,2.1961],[8.888,63.9422,0.0],[8.8974,63.9422,0.0],[8.8932,63.9453,3.0006]]],
[[[9.0104,63.9479,0.0],[9.012,63.9495,0.0],[9.0089,63.9495,2.5286],[9.0089,63.9484,4.5956],[9.0104,63.9479,0.0]]],
[[[9.0203,63.9547,7.0083],[9.0193,63.9526,1.1414],[9.025,63.95,0.0],[9.0292,63.9542,0.0],[9.0286,63.9557,0.0],[9.0229,63.9583,0.0],[9.0203,63.9547,7.0083]]],
[[[9.0375,63.9583,10.9524],[9.0313,63.9583,0.0],[9.0297,63.9568,0.0],[9.0432,63.9568,0.0],[9.0417,63.9583,0.0],[9.0375,63.9583,10.9524]]],
[[[8.8542,63.9625,0.0],[8.8557,63.9641,0.3567],[8.8526,63.9641,0.356],[8.8526,63.963,0.0],[8.8542,63.9625,0.0]]],
[[[8.9792,63.9688,10.194],[8.9807,63.9703,6.7242],[8.9776,63.9703,7.4543],[8.9776,63.9693,3.9871],[8.9792,63.9688,10.194]]],
[[[9.012,63.9766,0.0],[9.0089,63.9766,0.0],[9.0068,63.9734,0.0],[9.012,63.9734,0.0],[9.012,63.9766,0.0]]],
[[[8.9917,63.9771,7.247],[8.9932,63.9786,6.9243],[8.9901,63.9786,4.1784],[8.9901,63.9776,4.7524],[8.9917,63.9771,7.247]]],
[[[9.1557,63.9922,0.0],[9.1542,63.9938,0.0],[9.1464,63.9943,0.0],[9.1474,63.9974,0.0],[9.1396,63.9979,0.0],[9.125,63.9917,0.0],[9.1172,63.9911,0.0],[9.1172,63.988,0.0],[9.1203,63.9859,7.2575],[9.1083,63.9854,-0.1941],[9.1042,63.9833,2.5572],[9.088,63.9859,10.9687],[9.088,63.9891,0.0],[9.0932,63.9911,0.0],[9.0854,63.9917,8.4138],[9.0813,63.9896,0.0],[9.0734,63.9891,3.1583],[9.0724,63.9859,2.0534],[9.0646,63.9854,0.0],[9.0464,63.9786,0.0],[9.0536,63.9745,2.5498],[9.0547,63.9714,0.0],[9.0578,63.9693,0.0],[9.0542,63.9688,0.0],[9.05,63.9708,0.0],[9.0354,63.9708,0.0],[9.0297,63.9672,2.4375],[9.0438,63.9604,0.0],[9.0479,63.9625,0.0],[9.0557,63.963,0.0],[9.0583,63.9667,0.0],[9.0625,63.9646,0.0],[9.0661,63.9651,2.577],[9.0672,63.9703,4.5719],[9.0765999999999991,63.9714,0.0],[9.0797,63.9745,5.0574],[9.0958,63.9813,11.7422],[9.1021,63.9813,0.0],[9.1036,63.9807,0.0],[9.1036,63.9776,9.4428],[9.0958,63.9771,0.0],[9.088,63.9734,0.0],[9.0953,63.9724,0.0],[9.0979,63.9688,0.0],[9.1125,63.9667,0.0],[9.1141,63.9672,0.0],[9.1151,63.9724,0.0],[9.1203,63.9734,0.0],[9.1214,63.9766,17.6023],[9.1354,63.9771,0.0],[9.1411,63.9797,0.0],[9.137,63.9828,5.3445],[9.1271,63.9833,4.74],[9.1255,63.9849,1.0783],[9.1563,63.9854,0.0],[9.1583,63.9875,0.0],[9.1547,63.9901,0.0],[9.1557,63.9922,0.0]]],
[[[9.0495,63.9891,0.0],[9.0464,63.9891,5.7348],[9.0443,63.9859,0.0],[9.0495,63.9859,0.0],[9.0495,63.9891,0.0]]],
[[[9.1016,63.9911,0.0],[9.1042,63.9896,0.0],[9.112,63.9901,0.0],[9.113,63.9953,0.0],[9.1151,63.9974,0.0],[9.1245,63.9984,0.0],[9.1245,64.0036,0.0],[9.112,64.0099,6.6177],[9.1063,64.0104,5.2171],[9.1036,64.0068,4.2911],[9.0818,64.0016,0.0],[9.0849,63.9995,2.0003],[9.0859,63.9964,0.0],[9.0958,63.9917,0.0],[9.1016,63.9911,0.0]]],
[[[9.1474,63.9828,0.0],[9.1438,63.9833,0.0],[9.1422,63.9818,0.0],[9.1458,63.9813,0.0],[9.1474,63.9828,0.0]]],
[[[9.1938,64.0,0.0],[9.1953,64.0016,0.0],[9.1922,64.0036,0.0],[9.1974,64.0057,0.0],[9.1943,64.0068,0.0],[9.1917,64.0104,0.0],[9.1859,64.0099,0.0],[9.1828,64.0068,0.0],[9.175,64.0042,0.0],[9.1734,64.0047,0.0],[9.1745,64.0099,0.0],[9.1688,64.0104,0.0],[9.1547,64.0057,0.0],[9.1536,64.0026,0.0],[9.1484,64.0016,0.0],[9.1516,63.9995,0.0],[9.1526,63.9964,0.0],[9.1625,63.9917,0.0],[9.1688,63.9917,0.0],[9.1729,63.9938,0.0],[9.1771,63.9917,0.0],[9.1818,63.9974,0.0],[9.1896,63.9979,0.0],[9.1938,64.0,0.0]]],
[[[9.1328,64.0099,0.0],[9.1292,64.0104,0.0],[9.1276,64.0089,0.0],[9.1313,64.0083,0.0],[9.1328,64.0099,0.0]]],
[[[9.1411,64.012,0.0],[9.138,64.012,0.0],[9.138,64.0089,0.0],[9.1453,64.0089,0.0],[9.1453,64.0099,0.0],[9.1411,64.012,0.0]]],
[[[9.162,64.0255,0.0],[9.1604,64.0271,0.0],[9.1568,64.0266,0.0],[9.1583,64.025,0.0],[9.162,64.0255,0.0]]],
[[[9.1776,64.0276,0.0],[9.1849,64.0276,0.0],[9.1875,64.0313,0.0],[9.187,64.0349,0.0],[9.1813,64.0375,0.0],[9.1693,64.0328,0.0],[9.1708,64.0313,0.0],[9.1766,64.0307,0.0],[9.1776,64.0276,0.0]]],
[[[9.2021,64.0292,0.0],[9.2161,64.0349,0.0],[9.2104,64.0354,0.0],[9.2042,64.0333,0.0],[9.2,64.0354,0.0],[9.1958,64.0354,0.0],[9.1922,64.0328,0.0],[9.1964,64.0297,0.0],[9.2021,64.0292,0.0]]],
[[[9.1563,64.0313,0.0],[9.1703,64.0359,0.0],[9.1724,64.0432,0.0],[9.1646,64.0437,0.0],[9.1568,64.0411,0.0],[9.1557,64.038,0.0],[9.1479,64.0354,0.0],[9.1438,64.0396,0.0],[9.1396,64.0396,0.0],[9.1354,64.0375,0.0],[9.1313,64.0396,0.0],[9.125,64.0396,0.0],[9.1229,64.0375,0.0],[9.1234,64.0359,0.0],[9.1307,64.0349,0.0],[9.1333,64.0313,0.0],[9.1417,64.0313,0.0],[9.1458,64.0292,0.0],[9.1521,64.0333,0.0],[9.1563,64.0313,0.0]]],
[[[9.1229,64.0667,0.0],[9.1188,64.0667,0.0],[9.1172,64.0651,0.0],[9.1292,64.0646,0.0],[9.1328,64.0682,0.0],[9.1292,64.0687,0.0],[9.1229,64.0667,0.0]]],
[[[9.1141,64.0714,0.0],[9.1109,64.0703,0.0],[9.1089,64.0672,0.0],[9.1224,64.0693,0.0],[9.1167,64.0729,0.0],[9.1141,64.0714,0.0]]],
[[[9.1536,64.0776,0.0],[9.1505,64.0766,0.0],[9.1484,64.0734,0.0],[9.1563,64.0729,0.0],[9.1641,64.0755,0.0],[9.1646,64.0771,0.0],[9.1625,64.0792,0.0],[9.1563,64.0792,0.0],[9.1536,64.0776,0.0]]],
[[[10.0063,63.8802,196.0137],[10.0054,63.883,118.9343],[9.9953,63.8823,163.4253],[9.9937,63.8867,142.1199],[9.9836,63.886,192.8567],[9.9822,63.8899,0.0],[9.9734,63.887,0.0],[9.9724,63.8839,28.335],[9.9583,63.8792,54.2649],[9.9438,63.8771,0.0],[9.9333,63.8729,2.5914],[9.9313,63.875,0.0],[9.9318,63.8786,0.0],[9.9396,63.8792,0.0],[9.9458,63.8833,13.8378],[9.9536,63.8839,0.0],[9.9536,63.8891,18.9721],[9.9479,63.8875,0.0],[9.9458,63.8896,0.0],[9.9464,63.8911,0.0],[9.9515999999999991,63.8922,0.0],[9.9557,63.8953,14.1944],[9.95,63.8979,0.0],[9.9396,63.8917,0.0],[9.9292,63.8917,2.8696],[9.9234,63.8943,11.1065],[9.9245,63.8974,0.0],[9.9208,63.8979,0.0],[9.9021,63.8896,0.0],[9.8958,63.8917,24.5393],[9.8875,63.8917,0.0],[9.8833,63.8896,0.0],[9.8771,63.8896,0.0],[9.8745,63.8932,0.0],[9.863,63.8943,0.0],[9.8641,63.8995,0.0],[9.8563,63.9,0.0],[9.8354,63.8917,26.5439],[9.8276,63.8911,5.551],[9.8276,63.888,0.0],[9.8307,63.8859,0.0],[9.8286,63.8818,13.4439],[9.8255,63.8807,0.0],[9.8271,63.8792,11.4864],[9.8411,63.8786,0.0],[9.8396,63.8771,0.0],[9.8318,63.8766,0.0],[9.8297,63.8693,0.0],[9.8417,63.8688,11.5052],[9.8474,63.8661,5.6514],[9.8464,63.863,0.0],[9.8557,63.862,0.0],[9.8516,63.8547,6.7361],[9.8443,63.8557,0.0],[9.8443,63.8526,0.0],[9.8495,63.8495,0.0],[9.8495,63.8464,5.6595],[9.8479,63.8458,0.0],[9.8422,63.8484,8.1281],[9.8396,63.8521,0.0],[9.8271,63.8521,0.0],[9.8214,63.8547,0.0],[9.8203,63.8599,0.0],[9.8172,63.8609,32.0864],[9.8188,63.8646,0.0],[9.8167,63.8667,0.0],[9.8021,63.8646,0.0],[9.7979,63.8625,0.0],[9.7917,63.8625,0.0],[9.7875,63.8604,8.2761],[9.7813,63.8604,0.0],[9.7771,63.8583,3.208],[9.7708,63.8583,0.0],[9.7667,63.8563,0.0],[9.7651,63.8568,0.0],[9.7641,63.862,0.0],[9.7547,63.8672,0.0],[9.7589,63.8703,0.0],[9.7641,63.8714,0.0],[9.7625,63.8729,2.9587],[9.7375,63.8729,0.0],[9.7333,63.8688,6.2837],[9.7146,63.8708,0.7971],[9.713,63.8693,0.0],[9.7188,63.8688,1.1303],[9.7203,63.8672,0.0],[9.7151,63.8661,0.0],[9.7125,63.8625,2.1425],[9.7083,63.8646,0.0],[9.7047,63.8641,0.0],[9.7036,63.8609,0.6017],[9.6984,63.8599,0.0],[9.6979,63.8563,0.0],[9.7042,63.8542,0.0],[9.7146,63.8583,0.0],[9.725,63.8583,0.0],[9.7292,63.8604,0.0],[9.7307,63.8599,0.0],[9.7307,63.8568,0.0],[9.7229,63.8563,0.0],[9.7151,63.8536,0.0],[9.7141,63.8505,0.0],[9.7063,63.85,0.0],[9.7021,63.8479,3.68],[9.6901,63.8495,0.0],[9.6797,63.8453,0.0],[9.6786,63.8422,5.4627],[9.6734,63.8411,0.0],[9.6724,63.838,0.0],[9.6672,63.837,0.0],[9.6661,63.8339,0.0],[9.6479,63.8333,6.1025],[9.6438,63.8292,2.5842],[9.6318,63.8286,0.0],[9.6307,63.8255,0.0],[9.6224,63.8193,0.0],[9.613,63.8182,0.0],[9.6125,63.8146,0.0],[9.613,63.813,0.0],[9.6188,63.8125,0.0],[9.6292,63.8167,0.896],[9.6354,63.8167,0.0],[9.6438,63.8208,2.8376],[9.6542,63.8208,0.0],[9.6583,63.8187,0.0],[9.6646,63.8187,0.0],[9.6688,63.8208,0.0],[9.6771,63.8208,0.0],[9.6786,63.8193,0.0],[9.6729,63.8187,0.0],[9.6625,63.8146,13.9453],[9.6547,63.8141,0.0],[9.6547,63.8109,3.6229],[9.6578,63.8089,0.0],[9.6542,63.8063,5.3601],[9.65,63.8063,0.0],[9.6458,63.8083,0.0],[9.6417,63.8063,13.8261],[9.6292,63.8063,0.0],[9.6208,63.8021,4.8859],[9.6089,63.8016,0.0],[9.6068,63.7984,0.0],[9.6099,63.7974,0.0],[9.6104,63.7938,0.0],[9.6078,63.7901,3.567],[9.5859,63.7891,0.0],[9.5828,63.7839,0.0],[9.5672,63.7786,0.0],[9.5661,63.7755,0.0],[9.5609,63.7724,0.0],[9.5583,63.7687,0.0],[9.5589,63.7672,0.0],[9.5646,63.7646,0.0],[9.5771,63.7625,0.0],[9.5813,63.7604,0.0],[9.6042,63.7583,0.0],[9.6083,63.7562,0.0],[9.6333,63.7562,0.0],[9.6375,63.7583,1.5977],[9.6521,63.7583,0.0],[9.6583,63.7604,3.3018],[9.6682,63.7568,0.0],[9.6604,63.7542,11.7517],[9.6542,63.7542,0.0],[9.6526,63.7526,1.5263],[9.6688,63.7521,0.0],[9.6766,63.7547,0.0],[9.6734,63.7578,0.0],[9.6813,63.7583,0.0],[9.6854,63.7604,0.0],[9.7042,63.7604,0.0],[9.7104,63.7625,6.9575],[9.7146,63.7604,0.0],[9.7188,63.7604,0.0],[9.7229,63.7625,0.0],[9.7292,63.7625,0.0],[9.7333,63.7646,4.3148],[9.7438,63.7646,0.0],[9.7479,63.7667,2.0616],[9.7688,63.7667,0.0],[9.7729,63.7687,0.0],[9.7771,63.7687,6.6298],[9.7833,63.7667,0.0],[9.7875,63.7687,8.2586],[9.7958,63.7687,0.0],[9.8016,63.7661,0.0],[9.8016,63.763,0.0],[9.7958,63.7625,14.7821],[9.7917,63.7646,0.0],[9.7625,63.7646,0.0],[9.7458,63.7583,73.1131],[9.7313,63.7604,0.0],[9.7229,63.7562,7.5432],[9.7167,63.7562,0.0],[9.7125,63.7542,19.8547],[9.7063,63.7542,3.1909],[9.7021,63.7562,0.0],[9.6891,63.7484,3.9787],[9.6836,63.7471,0.0],[9.6934,63.7478,26.7177],[9.695,63.7434,28.5707],[9.705,63.7441,26.9038],[9.7066,63.7396,23.7094],[9.7166,63.7403,23.5173],[9.7183,63.7359,21.9049],[9.7283,63.7366,91.3992],[9.7299,63.7322,103.861],[9.7399,63.7329,142.8298],[9.7415,63.7284,171.731],[9.7716,63.7305,255.2317],[9.7732,63.7261,139.7101],[9.7832,63.7268,164.0717],[9.7848,63.7224,84.9555],[9.7949,63.7231,63.0479],[9.7965,63.7186,57.4985],[9.8065,63.7193,75.7626],[9.808,63.7152,27.6967],[9.8212,63.7183,12.6943],[9.8231,63.7224,66.4541],[9.842,63.726,10.2352],[9.8492,63.7256,95.6699],[9.8581,63.7215,60.3732],[9.8641,63.7255,70.278],[9.8758,63.728,62.0442],[9.8798,63.7308,7.2713],[9.8807,63.7328,0.0],[9.8776,63.7339,0.0],[9.8776,63.737,0.0],[9.8958,63.7396,0.0],[9.9,63.7417,0.0],[9.9063,63.7417,0.0],[9.9208,63.7479,0.0],[9.9286,63.7484,0.0],[9.9297,63.7516,0.0],[9.9375,63.7542,0.0],[9.9479,63.7521,0.0],[9.9521,63.7542,0.0],[9.9813,63.7542,0.0],[9.9854,63.7562,0.0],[10.0,63.7562,0.0],[10.0104,63.7604,0.0],[10.0354,63.7625,0.0],[10.0417,63.7667,22.8513],[10.0458,63.7667,0.0],[10.0625,63.7729,0.0],[10.0688,63.7729,0.0],[10.0729,63.775,0.0],[10.0771,63.775,0.0],[10.0786,63.7734,11.3425],[10.0693,63.7703,0.0],[10.0672,63.7672,0.0],[10.082,63.7683,40.8666],[10.0792,63.7736,11.3425],[10.0848,63.7766,0.0],[10.1072,63.7778,27.6538],[10.1123,63.7834,0.0],[10.122,63.7867,165.9177],[10.1421,63.7877,66.8552],[10.1405,63.7921,143.9509],[10.1807,63.7948,190.0321],[10.1792,63.7992,167.9723],[10.1993,63.8006,138.8618],[10.1962,63.8095,185.3465],[10.2063,63.8101,267.3973],[10.2017,63.8235,293.3344],[10.2117,63.8241,238.8667],[10.1947,63.873,414.9249],[10.1443,63.8696,325.6293],[10.1427,63.874,364.903],[10.1226,63.8727,320.0],[10.121,63.8771,326.69],[10.1109,63.8764,320.6685],[10.1094,63.8809,372.381],[10.0993,63.8802,348.7604],[10.0977,63.8846,370.6118],[10.0775,63.8833,410.8539],[10.0791,63.8789,281.2664],[10.069,63.8782,282.8291],[10.0674,63.8826,311.648],[10.0574,63.8819,239.1678],[10.0558,63.8864,218.704],[10.0154,63.8836,200.8082],[10.017,63.8792,216.6709],[10.0069,63.8785,180.7139],[10.0063,63.8802,196.0137]]],
[[[9.6937,63.8563,0.0],[9.6922,63.8547,0.0],[9.6958,63.8542,0.0],[9.6979,63.8563,0.0],[9.6958,63.8563,0.0],[9.6937,63.8563,0.0]]],
[[[9.687,63.8568,0.0],[9.687,63.8578,0.0],[9.6839,63.8578,0.9607],[9.6839,63.8568,2.3827],[9.687,63.8568,0.0]]],
[[[9.8307,63.8589,0.0],[9.8292,63.8563,4.9999],[9.8313,63.8542,0.0],[9.8349,63.8568,7.5238],[9.8349,63.862,2.3143],[9.8276,63.862,0.0],[9.8307,63.8589,0.0]]],
[[[9.5333,63.8396,0.0],[9.5297,63.8359,0.0],[9.5333,63.8354,0.0],[9.5391,63.838,0.0],[9.5375,63.8396,0.0],[9.5333,63.8396,0.0]]],
[[[9.5453,63.8401,0.0],[9.5453,63.8411,0.0],[9.5422,63.8411,0.0],[9.5438,63.8396,2.4394],[9.5453,63.8401,0.0]]],
[[[9.5182,63.8432,0.0],[9.5146,63.8438,0.0],[9.513,63.8422,0.0],[9.5167,63.8417,0.0],[9.5182,63.8432,0.0]]],
[[[9.612,63.8682,0.5067],[9.6083,63.8688,1.9822],[9.6068,63.8672,2.2496],[9.6104,63.8667,0.0],[9.612,63.8682,0.5067]]],
[[[9.7854,63.8688,0.0],[9.787,63.8703,0.0],[9.7771,63.8729,0.0],[9.7734,63.8724,0.0],[9.7729,63.8708,6.5531],[9.775,63.8688,6.5028],[9.7854,63.8688,0.0]]],
[[[9.8151,63.8797,0.0],[9.8042,63.8833,0.0],[9.7964,63.8807,0.0],[9.7995,63.8786,0.0],[9.7979,63.8729,0.0],[9.8,63.8708,0.0],[9.8042,63.8708,0.0],[9.8146,63.875,15.3367],[9.8224,63.8755,0.0],[9.8151,63.8797,0.0]]],
[[[9.8026,63.887,0.0],[9.812,63.888,0.0],[9.8146,63.8937,28.6229],[9.8141,63.8974,3.6312],[9.7964,63.8974,0.0],[9.7995,63.8943,0.0],[9.7875,63.8896,0.0],[9.7818,63.8911,0.0],[9.7745,63.8859,0.0],[9.7724,63.8818,0.0],[9.7646,63.8812,0.0],[9.763,63.8797,0.0],[9.7792,63.8792,0.0],[9.7833,63.8812,0.0],[9.7896,63.8812,0.0],[9.8026,63.887,0.0]]],
[[[9.8417,63.9083,10.9886],[9.8432,63.9078,6.4809],[9.8422,63.9047,0.0],[9.8438,63.9042,12.1415],[9.85,63.9042,0.0],[9.8521,63.9063,0.0],[9.8516,63.9078,0.0],[9.8458,63.9104,0.0],[9.8401,63.9099,0.0],[9.8417,63.9083,10.9886]]],
[[[9.6099,63.8766,0.0],[9.6063,63.8771,0.2798],[9.6047,63.8755,0.0],[9.6083,63.875,0.0],[9.6099,63.8766,0.0]]],
[[[9.6703,63.888,0.0],[9.6651,63.8859,0.0],[9.6729,63.8854,0.0],[9.675,63.8875,6.9991],[9.6729,63.8896,0.0],[9.6703,63.888,0.0]]],
[[[9.5432,63.9589,7.4594],[9.5432,63.9599,3.8892],[9.5401,63.9599,0.0],[9.5401,63.9589,0.0],[9.5432,63.9589,7.4594]]],
[[[9.5854,63.9667,5.2745],[9.5813,63.9667,0.0],[9.5797,63.9651,5.0786],[9.587,63.9651,0.0],[9.5854,63.9667,5.2745]]],
[[[9.8646,63.925,0.0],[9.8604,63.925,0.0],[9.8589,63.9234,7.1775],[9.8682,63.9234,0.0],[9.8646,63.925,0.0]]],
[[[9.7547,63.9141,0.0],[9.7604,63.9104,0.0],[9.7682,63.913,0.0],[9.7651,63.9161,0.0],[9.7688,63.925,0.0],[9.7651,63.9286,0.0],[9.7703,63.9318,0.0],[9.7672,63.9349,0.0],[9.7724,63.938,1.5529],[9.7745,63.9411,0.0],[9.7667,63.9437,0.0],[9.7651,63.9432,0.0],[9.7641,63.938,0.0],[9.762,63.9359,7.6502],[9.7526,63.9349,0.0],[9.75,63.925,0.0],[9.7536,63.9224,18.9127],[9.7521,63.9188,0.0],[9.7557,63.9161,0.0],[9.7547,63.9141,0.0]]],
[[[9.8786,63.9297,0.0],[9.8771,63.9313,0.0],[9.8755,63.9307,0.0],[9.8771,63.9292,1.0028],[9.8786,63.9297,0.0]]],
[[[9.8224,63.9318,6.3373],[9.8224,63.9328,10.1911],[9.8193,63.9328,16.4368],[9.8208,63.9313,6.3373],[9.8224,63.9318,6.3373]]],
[[[9.8542,63.9479,0.5984],[9.8526,63.9474,0.0],[9.8526,63.9464,2.646],[9.8557,63.9464,6.489],[9.8542,63.9479,0.5984]]],
[[[9.5932,63.9703,0.0],[9.5917,63.9708,0.0],[9.5901,63.9693,7.5771],[9.5932,63.9693,0.0],[9.5932,63.9703,0.0]]],
[[[9.4057,64.1151,0.0],[9.4005,64.113,0.0],[9.4099,64.113,0.0],[9.4141,64.1151,0.0],[9.4161,64.1182,0.0],[9.4083,64.1188,0.0],[9.4057,64.1151,0.0]]],
[[[9.4266,64.1766,0.0],[9.4229,64.1771,0.0],[9.4214,64.1755,0.0],[9.425,64.175,0.0],[9.4266,64.1766,0.0]]],
[[[9.225,64.0813,0.0],[9.2266,64.0828,0.0],[9.2234,64.0828,0.0],[9.2234,64.0818,0.0],[9.225,64.0813,0.0]]],
[[[9.3083,64.1021,0.0],[9.3068,64.1005,0.0],[9.3125,64.0979,0.0],[9.3203,64.1005,0.0],[9.3188,64.1021,0.0],[9.3083,64.1021,0.0]]],
[[[9.3224,64.1214,0.0],[9.3208,64.1229,0.0],[9.3172,64.1224,0.0],[9.3188,64.1208,0.0],[9.3224,64.1214,0.0]]],
[[[9.3292,64.125,0.0],[9.3276,64.1234,0.0],[9.3333,64.1208,0.0],[9.337,64.1214,0.0],[9.3328,64.1245,0.0],[9.3292,64.125,0.0]]],
[[[9.3104,64.1229,0.0],[9.312,64.1245,0.0],[9.3021,64.1271,0.0],[9.3,64.125,0.0],[9.3021,64.1229,0.0],[9.3104,64.1229,0.0]]],
[[[9.3854,64.1729,0.0],[9.387,64.1745,0.0],[9.3839,64.1745,0.0],[9.3839,64.1734,0.0],[9.3854,64.1729,0.0]]],
[[[9.4083,64.1771,0.0],[9.4026,64.1766,0.0],[9.4026,64.1734,0.0],[9.4083,64.1729,0.0],[9.412,64.1755,0.0],[9.4083,64.1771,0.0]]]]}
,"properties": {"GID_2": "NOR.15.3_1","GID_0": "NOR","country": "Norway","GID_1": "NOR.15_1","province": "Sør-Trøndelag","NL_NAME_1": "NA","county": "Bjugn","VARNAME_2": "NA","NL_NAME_2": "NA","TYPE_2": "Kommuner","ENGTYPE_2": "Municipality","CC_2": "NA","HASC_2": "NO.ST.BJ","name": "Bjugn.county","area_km2": 430.0055,"hist_schema_id": "Elevation0-9000","hist_area_km2": {"0": 84.1745,"25": 49.5979,"50": 51.9516,"75": 39.2924,"100": 35.4685,"125": 28.6065,"150": 26.0782,"175": 23.7536,"200": 23.0205,"225": 17.7565,"250": 10.5215,"275": 9.5735,"300": 6.5066,"325": 6.8026,"350": 5.9985,"375": 4.9421,"400": 2.4476,"425": 1.7096,"450": 1.3921,"475": 0.4111}}}