{"type": "Feature","bbox": [7.3495,62.9354,7.7286,63.2208],"geometry": {"type": "MultiPolygon","coordinates": [[[[7.3609,63.0203,0.0],[7.3609,63.0172,3.577],[7.3625,63.0167,0.0],[7.3661,63.0193,6.7282],[7.3646,63.0208,0.0],[7.3609,63.0203,0.0]]],
[[[7.6604,63.1083,7.4688],[7.6609,63.1099,25.5076],[7.6646,63.1104,14.7227],[7.6661,63.1141,3.0618],[7.6542,63.1125,10.7703],[7.65,63.1146,0.0],[7.6083,63.1146,0.0],[7.6057,63.1109,0.0],[7.5979,63.1083,0.0],[7.5911,63.112,9.6624],[7.5854,63.1125,0.0],[7.5776,63.1099,0.0],[7.5807,63.1078,0.0],[7.5792,63.1063,3.9124],[7.563,63.1057,0.0],[7.563,63.1026,2.2864],[7.5703,63.1016,0.0],[7.5729,63.0979,0.0],[7.6,63.1,13.7609],[7.6042,63.0979,0.0],[7.6229,63.0958,0.0],[7.6245,63.0953,0.0],[7.6229,63.0917,3.8709],[7.6234,63.088,19.2105],[7.6292,63.0875,20.0672],[7.6313,63.0854,0.0],[7.6292,63.0833,0.0],[7.6083,63.0833,0.0],[7.6,63.0792,0.0],[7.5943,63.0818,0.0],[7.5932,63.0849,0.0],[7.5859,63.0859,0.0],[7.5833,63.0896,0.0],[7.5568,63.0849,0.0],[7.5599,63.0828,0.0],[7.5609,63.0776,6.3001],[7.5641,63.0755,0.0],[7.562,63.0714,0.0],[7.5568,63.0682,0.0],[7.5568,63.0651,0.0],[7.5625,63.0625,0.0],[7.5813,63.0625,0.0],[7.5828,63.0609,31.5752],[7.575,63.0604,0.0],[7.5734,63.0589,0.0],[7.5792,63.0563,0.0],[7.5854,63.0583,31.6293],[7.5911,63.0547,6.4661],[7.5729,63.0521,0.0],[7.5688,63.05,0.0],[7.5646,63.0521,0.0],[7.5568,63.0495,0.0],[7.5557,63.0464,0.0],[7.5526,63.0453,0.0],[7.5557,63.0432,28.8398],[7.5542,63.0417,0.0],[7.5422,63.0422,11.966],[7.5453,63.0443,0.0],[7.5438,63.0458,0.0],[7.5271,63.0458,6.0921],[7.5229,63.0479,0.0],[7.5151,63.0464,0.0],[7.5151,63.0495,0.0],[7.5203,63.0536,0.0],[7.513,63.0547,0.0],[7.5161,63.0578,0.0],[7.5125,63.0604,0.0],[7.5047,63.0609,0.0],[7.5057,63.0641,0.0],[7.5026,63.0651,0.0],[7.5042,63.0667,0.0],[7.5161,63.0693,0.0],[7.5161,63.0724,0.0],[7.5104,63.075,0.0],[7.5047,63.0745,0.0],[7.5078,63.0714,8.8452],[7.4938,63.0708,0.0],[7.4917,63.0687,0.0],[7.4708,63.0687,0.0],[7.4667,63.0667,0.0],[7.4625,63.0667,3.2909],[7.4583,63.0687,0.0],[7.4479,63.0646,0.0],[7.4438,63.0646,0.0],[7.4396,63.0667,0.0],[7.4318,63.0641,0.0],[7.4292,63.0604,0.0],[7.4172,63.0599,0.0],[7.4172,63.0568,0.0],[7.4208,63.0542,0.0],[7.4167,63.05,3.2237],[7.4125,63.05,0.0],[7.4083,63.0521,0.0],[7.4042,63.05,0.0],[7.3979,63.05,2.5509],[7.3938,63.0521,0.0],[7.3896,63.0521,0.0],[7.3818,63.0495,0.0],[7.3849,63.0464,0.0],[7.3818,63.0453,0.0],[7.3818,63.0422,0.0],[7.3917,63.0396,0.0],[7.3974,63.0411,0.0],[7.3984,63.0359,0.0],[7.4042,63.0354,0.0],[7.4057,63.0339,0.0],[7.3979,63.0313,0.0],[7.3818,63.0307,0.0],[7.3818,63.0276,0.0],[7.3849,63.0255,0.0],[7.3714,63.0245,0.0],[7.3714,63.0193,0.0],[7.3833,63.0208,1.7615],[7.3917,63.025,0.0],[7.3979,63.025,0.0],[7.4021,63.0292,0.0],[7.4078,63.0286,0.0],[7.4047,63.0266,0.0],[7.4047,63.0234,0.0],[7.4104,63.0229,0.0],[7.412,63.0214,0.0],[7.4042,63.0187,0.0],[7.4,63.0187,0.0],[7.3958,63.0208,0.0],[7.3917,63.0187,0.0],[7.3839,63.0182,0.0],[7.3839,63.013,4.4676],[7.3896,63.0104,0.0],[7.3938,63.0125,0.0],[7.4021,63.0125,8.4439],[7.4042,63.0104,0.0],[7.4036,63.0068,0.0],[7.3984,63.0057,0.0],[7.3974,63.0026,7.7731],[7.3932,63.0005,8.7083],[7.3839,62.9995,0.0],[7.3766,62.9943,0.0],[7.3708,62.9958,0.0],[7.3547,62.9891,0.0],[7.3526,62.987,0.0],[7.3521,62.9813,0.0],[7.3495,62.9776,0.0],[7.3683,62.9744,0.0],[7.3761,62.9751,45.1007],[7.3778,62.9729,0.0],[7.3833,62.9708,0.0],[7.3875,62.9729,0.0],[7.3938,62.9729,0.0],[7.4,62.9688,0.0],[7.4188,62.9688,0.0],[7.4271,62.9646,0.0],[7.45,62.9646,8.6588],[7.4583,62.9604,0.0],[7.4771,62.9583,0.0],[7.4786,62.9578,0.0],[7.4776,62.9547,0.0],[7.4833,62.9521,0.0],[7.4891,62.9516,9.2251],[7.4901,62.9484,0.0],[7.4932,62.9474,0.0],[7.4875,62.9417,0.0],[7.4911,62.9391,0.0],[7.4922,62.9359,0.0],[7.5021,62.9354,0.0],[7.5167,62.9396,10.8651],[7.5313,62.9396,0.0],[7.55,62.9458,3.6778],[7.5563,62.9458,0.0],[7.5708,62.9521,8.4059],[7.5854,62.9542,0.0],[7.588,62.9578,2.6295],[7.6,62.9625,5.9072],[7.6182,62.9651,0.0],[7.6313,62.9729,0.0],[7.6458,62.975,0.0],[7.65,62.9771,18.7346],[7.6563,62.9771,0.0],[7.6688,62.9813,8.4917],[7.675,62.9813,0.0],[7.6854,62.9854,2.0255],[7.6911,62.9839,0.0],[7.7026,62.9911,0.0],[7.7224,62.9984,0.0],[7.7234,63.0016,12.4301],[7.7286,63.0036,0.0],[7.7255,63.0047,17.3124],[7.7245,63.0078,0.0],[7.7172,63.0089,0.0],[7.7089,63.013,11.4665],[7.7078,63.0161,0.0],[7.6854,63.0187,42.7313],[7.6828,63.0224,0.0],[7.6755,63.0255,0.0],[7.6786,63.0286,0.0],[7.6766,63.0328,0.0],[7.6729,63.0354,0.0],[7.6734,63.037,0.0],[7.6786,63.0391,0.0],[7.6755,63.0401,0.0],[7.6745,63.0453,0.0],[7.6672,63.0484,42.4385],[7.6724,63.0505,0.0],[7.6724,63.0536,0.0],[7.6625,63.0542,4.2829],[7.6604,63.0563,0.0],[7.6609,63.0599,11.7714],[7.6688,63.0604,0.0],[7.6766,63.0651,0.0],[7.6766,63.0703,3.4108],[7.6651,63.0714,0.0],[7.6651,63.0745,0.0],[7.6682,63.0766,1.2574],[7.6661,63.0828,1.793],[7.663,63.0839,12.8187],[7.6724,63.088,0.0],[7.675,63.0938,0.0],[7.6745,63.0953,0.0],[7.6688,63.0979,0.0],[7.6604,63.0979,7.0],[7.6547,63.1005,10.4996],[7.6578,63.1026,0.0],[7.6604,63.1083,7.4688]]],
[[[7.5313,63.0667,0.0],[7.5297,63.0651,24.7309],[7.5328,63.0651,0.0],[7.5328,63.0661,0.0],[7.5313,63.0667,0.0]]],
[[[7.4859,63.0714,4.6351],[7.4938,63.0708,0.0],[7.4938,63.0729,0.0],[7.4927,63.0747,0.0],[7.4875,63.075,0.0],[7.4859,63.0745,0.0],[7.4859,63.0714,4.6351]]],
[[[7.525,63.075,0.0],[7.5292,63.0771,0.0],[7.5453,63.0797,0.0],[7.5479,63.0833,0.0],[7.5474,63.087,0.0],[7.5354,63.0833,0.0],[7.5271,63.0833,0.0],[7.5167,63.0792,0.0],[7.5089,63.0786,0.0],[7.5104,63.0771,3.1658],[7.525,63.075,0.0]]],
[[[7.5214,63.0891,9.7234],[7.5229,63.0875,0.0],[7.5245,63.088,0.0],[7.5245,63.0891,1.9132],[7.5214,63.0891,9.7234]]],
[[[7.538,63.0661,0.0],[7.538,63.063,6.3884],[7.5396,63.0625,0.0],[7.5453,63.063,4.683],[7.5474,63.0651,0.0],[7.5458,63.0667,5.5299],[7.538,63.0661,0.0]]],
[[[7.6667,63.1083,0.0],[7.6682,63.1099,0.0],[7.6646,63.1104,14.7227],[7.6646,63.1083,0.0],[7.6667,63.1083,0.0]]],
[[[7.5755,63.2057,0.0],[7.5755,63.2026,0.0],[7.5771,63.2021,0.0],[7.5828,63.2047,0.0],[7.5813,63.2062,0.0],[7.5755,63.2057,0.0]]],
[[[7.6036,63.2141,0.0],[7.5938,63.2167,0.0],[7.5818,63.2161,0.0],[7.5917,63.2125,0.0],[7.6021,63.2125,0.0],[7.6036,63.2141,0.0]]],
[[[7.5729,63.2167,0.0],[7.575,63.2146,0.0],[7.5771,63.2167,0.0],[7.575,63.2188,0.0],[7.5729,63.2167,0.0]]],
[[[7.588,63.2203,0.0],[7.5896,63.2188,0.0],[7.5953,63.2193,0.0],[7.5938,63.2208,3.2494],[7.588,63.2203,0.0]]]]}
,"properties": {"GID_2": "NOR.8.4_1","GID_0": "NOR","country": "Norway","GID_1": "NOR.8_1","province": "MøreogRomsdal","NL_NAME_1": "NA","county": "Averøy","VARNAME_2": "NA","NL_NAME_2": "NA","TYPE_2": "Kommuner","ENGTYPE_2": "Municipality","CC_2": "NA","HASC_2": "NO.MR.AV","name": "Averøy.county","area_km2": 197.4509,"hist_schema_id": "Elevation0-9000","hist_area_km2": {"0": 46.3443,"25": 46.3279,"50": 30.383,"75": 10.1939,"100": 5.9589,"125": 5.8339,"150": 5.5739,"175": 5.911,"200": 5.719,"225": 4.9485,"250": 4.5632,"275": 4.4863,"300": 3.466,"325": 3.0328,"350": 2.5613,"375": 2.0321,"400": 1.6762,"425": 1.7629,"450": 1.8303,"475": 1.3101,"500": 1.0308,"525": 0.6936,"550": 0.5394,"575": 0.4142,"600": 0.3564,"625": 0.2119,"650": 0.1445,"675": 0.0385,"700": 0.0674,"725": 0.0385}}}