{"type": "Feature","bbox": [10.6779,62.1303,11.8572,62.6986],"geometry": {"type": "MultiPolygon","coordinates": [[[[11.8436,62.3708,938.7533],[11.834,62.3703,936.6302],[11.8327,62.3747,908.5193],[11.8039,62.3731,875.3239],[11.8027,62.3775,848.3139],[11.7642,62.3753,776.9831],[11.7655,62.3708,792.4275],[11.7558,62.3703,777.5087],[11.7571,62.3658,797.9341],[11.7475,62.3652,786.7095],[11.7487,62.3608,768.6641],[11.7391,62.3602,718.6939],[11.7403,62.3558,736.7327],[11.7307,62.3552,695.7102],[11.7319,62.3508,693.5837],[11.7031,62.3491,799.5069],[11.7019,62.3535,812.1033],[11.6923,62.3529,847.0118],[11.6861,62.3752,971.3558],[11.6765,62.3746,941.6828],[11.674,62.3836,942.1203],[11.6259,62.3807,949.7482],[11.6272,62.3763,929.7878],[11.5791,62.3734,777.1406],[11.5804,62.3689,782.9578],[11.5516,62.3672,816.6862],[11.5491,62.3761,950.5641],[11.5394,62.3755,955.0246],[11.5369,62.3844,935.8285],[11.5273,62.3839,920.8285],[11.5248,62.3928,943.4396],[11.5152,62.3922,964.9413],[11.5127,62.4011,977.8639],[11.503,62.4005,953.8351],[11.4929,62.4361,888.8231],[11.4833,62.4356,896.5652],[11.4807,62.4445,848.369],[11.4711,62.4439,848.3536],[11.4686,62.4528,790.0947],[11.4589,62.4522,776.6688],[11.4564,62.4611,852.6011],[11.4468,62.4605,867.1985],[11.4442,62.4694,909.1071],[11.4346,62.4688,935.0664],[11.432,62.4777,1069.0797],[11.4224,62.4772,1010.5358],[11.4211,62.4816,1017.4285],[11.4114,62.481,970.1625],[11.4102,62.4855,1002.6902],[11.4005,62.4849,967.4636],[11.3992,62.4893,1037.3705],[11.3896,62.4888,997.1546],[11.3883,62.4932,988.4839],[11.3787,62.4926,1005.3314],[11.3774,62.4971,973.3196],[11.3677,62.4965,1024.0991],[11.3664,62.5009,972.492],[11.3568,62.5003,963.4929],[11.3555,62.5048,982.0236],[11.3459,62.5042,974.9271],[11.3446,62.5086,996.5245],[11.3349,62.5081,943.1058],[11.3323,62.517,900.1797],[11.3227,62.5164,855.1104],[11.3214,62.5208,822.5606],[11.3117,62.5202,768.6924],[11.3104,62.5247,731.6824],[11.3008,62.5241,649.1308],[11.2995,62.5285,614.439],[11.2609,62.5262,704.0812],[11.2596,62.5306,722.541],[11.2499,62.53,786.2563],[11.2381,62.57,749.7262],[11.1994,62.5677,813.0266],[11.1981,62.5721,806.5621],[11.1885,62.5715,805.4165],[11.1858,62.5804,818.5712],[11.1955,62.581,816.3542],[11.1902,62.5988,882.6568],[11.1805,62.5982,887.8574],[11.1779,62.6071,913.9041],[11.1682,62.6065,918.3403],[11.1656,62.6154,894.8923],[11.1559,62.6148,938.5645],[11.1519,62.6281,957.7449],[11.1616,62.6287,930.3734],[11.1536,62.6554,940.1606],[11.1439,62.6548,855.1249],[11.1426,62.6593,818.2071],[11.1329,62.6587,871.5972],[11.1316,62.6631,918.2788],[11.1219,62.6625,946.3629],[11.1205,62.667,994.5623],[11.1011,62.6657,987.848],[11.0998,62.6702,1018.7202],[11.0901,62.6696,1022.3533],[11.0888,62.674,1049.5956],[11.05,62.6716,1145.3031],[11.0486,62.676,1138.0323],[11.0292,62.6748,1166.3503],[11.0279,62.6793,1073.611],[11.0182,62.6787,1117.2325],[11.0168,62.6831,1031.8478],[10.9974,62.6819,1055.9445],[10.9961,62.6863,1054.2039],[10.9767,62.6851,1157.5549],[10.9753,62.6895,1114.2902],[10.9559,62.6883,958.4274],[10.9546,62.6928,917.3785],[10.9352,62.6915,884.2144],[10.9338,62.696,876.7282],[10.9047,62.6941,920.4532],[10.9033,62.6986,895.7841],[10.8451,62.6948,1122.1824],[10.8465,62.6904,1107.8477],[10.8077,62.6879,991.3187],[10.8091,62.6834,991.4413],[10.7994,62.6828,1053.442],[10.8008,62.6784,1092.1976],[10.7911,62.6777,1213.0811],[10.7925,62.6733,1139.5065],[10.7828,62.6727,1115.9218],[10.7842,62.6682,1093.9589],[10.7745,62.6676,1139.9132],[10.7759,62.6631,1137.3779],[10.7662,62.6625,1068.5881],[10.7676,62.6581,1051.2786],[10.7579,62.6574,1103.6105],[10.7593,62.653,1058.7253],[10.7496,62.6524,1039.8641],[10.751,62.6479,1047.4419],[10.7316,62.6467,1079.3619],[10.7386,62.6244,1112.1337],[10.7289,62.6238,1085.4164],[10.7317,62.6149,1082.7869],[10.7123,62.6137,1032.4766],[10.7137,62.6092,991.7327],[10.7041,62.6086,988.2817],[10.7055,62.6041,1021.2887],[10.6861,62.6029,1047.6865],[10.6875,62.5984,1092.0284],[10.6779,62.5978,1072.8148],[10.6807,62.5889,1056.9418],[10.7,62.5902,1095.5509],[10.7014,62.5857,1098.7762],[10.7304,62.5876,1158.7495],[10.7317,62.5832,1190.4634],[10.7511,62.5844,1156.1304],[10.7525,62.58,1132.801],[10.7718,62.5813,1143.0292],[10.7732,62.5768,1099.2091],[10.7828,62.5774,1133.3807],[10.7842,62.573,1119.5232],[10.8035,62.5742,1126.6503],[10.8049,62.5698,1148.6277],[10.8146,62.5704,1088.1292],[10.8159,62.566,1106.0756],[10.8256,62.5666,1059.1185],[10.827,62.5622,1105.8774],[10.8366,62.5628,1099.0101],[10.8394,62.5539,1075.5244],[10.849,62.5545,1079.2174],[10.8504,62.5501,1062.9783],[10.86,62.5507,1026.1368],[10.8614,62.5463,1039.3844],[10.8711,62.5469,996.9099],[10.8765,62.5291,997.0328],[10.8862,62.5297,1020.5906],[10.8889,62.5208,1062.286],[10.8985,62.5215,1109.8502],[10.9012,62.5126,1091.8444],[10.9109,62.5132,1136.7469],[10.9122,62.5087,1119.2426],[10.9219,62.5093,1176.5969],[10.9246,62.5005,1147.2883],[10.9342,62.5011,1052.4016],[10.9369,62.4922,1045.0298],[10.9466,62.4928,945.1519],[10.9506,62.4795,872.2247],[10.9603,62.4801,801.5115],[10.9616,62.4756,742.3049],[10.9809,62.4769,738.5587],[10.9782,62.4858,745.1823],[11.0071,62.4876,726.9846],[11.0111,62.4743,759.5233],[11.0207,62.4749,742.063],[11.0234,62.466,776.76],[11.0331,62.4666,746.5101],[11.0344,62.4621,762.4993],[11.044,62.4628,743.985],[11.0467,62.4539,777.4885],[11.0563,62.4545,733.4663],[11.0577,62.45,770.5654],[11.0865,62.4518,716.9628],[11.0852,62.4563,779.7291],[11.1045,62.4575,838.9918],[11.1058,62.4531,721.8668],[11.1154,62.4537,659.3291],[11.1207,62.4359,611.1407],[11.1111,62.4353,601.9094],[11.1124,62.4308,605.5187],[11.1028,62.4302,579.2159],[11.1054,62.4213,665.2521],[11.1151,62.4219,675.6265],[11.1164,62.4175,700.4123],[11.1356,62.4187,785.6948],[11.1369,62.4142,753.6274],[11.1754,62.4166,830.0889],[11.1741,62.4211,835.5043],[11.1933,62.4223,933.6979],[11.192,62.4267,945.4318],[11.2112,62.4279,1061.3242],[11.2125,62.4235,1079.1074],[11.2606,62.4265,1370.9816],[11.2619,62.422,1269.9794],[11.2716,62.4226,1372.9933],[11.2729,62.4182,1291.6553],[11.2825,62.4188,1285.2014],[11.2838,62.4143,1273.954],[11.2934,62.4149,1365.7461],[11.2947,62.4105,1269.3817],[11.3043,62.4111,1274.3431],[11.3056,62.4066,1228.9282],[11.3152,62.4072,1337.9877],[11.3217,62.385,1082.3553],[11.3313,62.3855,1128.7747],[11.3377,62.3633,999.431],[11.3473,62.3639,972.0995],[11.3525,62.3461,874.5817],[11.3429,62.3455,887.4315],[11.3467,62.3321,811.3503],[11.3371,62.3316,831.5683],[11.3384,62.3271,830.9499],[11.3576,62.3283,810.0287],[11.3589,62.3238,805.3372],[11.3781,62.325,879.0135],[11.3793,62.3206,846.8934],[11.3889,62.3211,986.6624],[11.3902,62.3167,904.1296],[11.3998,62.3173,1007.4127],[11.4011,62.3128,957.227],[11.4107,62.3134,969.7843],[11.4119,62.309,947.7479],[11.4215,62.3096,960.6951],[11.4228,62.3051,925.0076],[11.4324,62.3057,928.8369],[11.4336,62.3012,932.0399],[11.4432,62.3018,924.5612],[11.4445,62.2974,929.5154],[11.4541,62.298,912.3157],[11.4553,62.2935,911.4714],[11.4745,62.2947,946.3313],[11.4758,62.2902,974.7398],[11.4854,62.2908,1071.0961],[11.4866,62.2863,1071.1898],[11.5058,62.2875,1256.804],[11.5121,62.2652,1338.0636],[11.5216,62.2658,1182.9733],[11.5279,62.2436,1222.1779],[11.5375,62.2441,1294.7477],[11.5387,62.2397,1310.076],[11.5483,62.2403,1479.4481],[11.5495,62.2358,1552.0278],[11.5591,62.2364,1360.2981],[11.5604,62.2319,1304.01],[11.5699,62.2325,1138.9297],[11.5712,62.2281,1089.9387],[11.5807,62.2286,1052.201],[11.582,62.2242,1046.7925],[11.6011,62.2253,1211.6329],[11.6023,62.2209,1147.0403],[11.6119,62.2214,1233.7776],[11.6131,62.217,1133.2457],[11.6227,62.2176,1063.5204],[11.6239,62.2131,1028.3257],[11.6335,62.2137,1076.0923],[11.6372,62.2003,994.5988],[11.6468,62.2009,1013.9318],[11.648,62.1964,981.8283],[11.6575,62.197,980.1469],[11.6588,62.1926,956.3674],[11.6683,62.1931,952.2292],[11.6696,62.1887,925.1214],[11.6791,62.1892,938.2935],[11.6816,62.1803,939.1906],[11.6911,62.1809,1033.3649],[11.6923,62.1764,1042.5546],[11.7019,62.177,1007.3654],[11.7031,62.1726,911.2598],[11.7222,62.1737,750.0359],[11.7234,62.1692,732.6245],[11.7425,62.1704,679.0663],[11.7437,62.1659,678.2919],[11.7628,62.167,716.6945],[11.764099999999999,62.1626,735.9039],[11.7736,62.1631,720.8286],[11.7748,62.1587,726.0577],[11.7844,62.1592,688.9061],[11.7856,62.1548,676.8008],[11.7951,62.1553,705.4106],[11.7975,62.1464,676.3268],[11.8071,62.147,696.598],[11.8095,62.1381,661.5],[11.819,62.1386,661.5],[11.8202,62.1342,661.5],[11.8298,62.1347,661.5],[11.831,62.1303,661.5],[11.8405,62.1308,661.5],[11.8393,62.1353,661.5],[11.8488,62.1359,661.5],[11.8476,62.1403,661.5],[11.8572,62.1409,661.5],[11.838,62.2121,692.3499],[11.8475,62.2127,701.1957],[11.8391,62.243899999999996,768.3292],[11.8486,62.2444,772.8004],[11.839,62.2801,877.4537],[11.8294,62.2795,863.5518],[11.827,62.2884,945.7861],[11.8174,62.2879,874.7993],[11.815,62.2968,1068.9142],[11.8054,62.2962,930.3733],[11.8017,62.3096,998.4744],[11.7921,62.309,970.8047],[11.7897,62.3179,993.4256],[11.7993,62.3185,1011.0778],[11.7969,62.3274,956.4282],[11.8065,62.328,958.868],[11.804,62.3369,981.1287],[11.8136,62.3374,996.9431],[11.8124,62.3419,1012.8408],[11.822,62.3424,1029.274],[11.8208,62.3469,1081.0232],[11.8304,62.3474,1092.8546],[11.8292,62.3519,1242.259],[11.8484,62.353,1024.7102],[11.8472,62.3575,1124.3705],[11.8568,62.358,1196.8431],[11.8556,62.3625,1088.7006],[11.846,62.3619,1111.4683],[11.8436,62.3708,938.7533]]]]}
,"properties": {"GID_2": "NOR.6.13_1","GID_0": "NOR","country": "Norway","GID_1": "NOR.6_1","province": "Hedmark","NL_NAME_1": "NA","county": "Os","VARNAME_2": "NA","NL_NAME_2": "NA","TYPE_2": "Kommuner","ENGTYPE_2": "Municipality","CC_2": "NA","HASC_2": "NO.HE.OS","name": "Os.county","area_km2": 1065.2436,"hist_schema_id": "Elevation0-9000","hist_area_km2": {"575": 0.0785,"600": 10.1181,"625": 13.6014,"650": 19.4854,"675": 63.1196,"700": 50.6337,"725": 60.1154,"750": 64.0489,"775": 57.9798,"800": 59.0787,"825": 58.8005,"850": 54.6383,"875": 56.9809,"900": 61.1921,"925": 61.532,"950": 58.8373,"975": 51.8496,"1000": 50.507,"1025": 40.0901,"1050": 33.164,"1075": 29.371,"1100": 29.6347,"1125": 22.3707,"1150": 15.2202,"1175": 11.8391,"1200": 7.3932,"1225": 4.7303,"1250": 3.7431,"1275": 3.1739,"1300": 2.0828,"1325": 1.7785,"1350": 1.8478,"1375": 1.3365,"1400": 1.0125,"1425": 0.9344,"1450": 0.905,"1475": 0.6495,"1500": 0.4821,"1525": 0.4826,"1550": 0.2072,"1575": 0.1678,"1600": 0.0296}}}