{"type":"Feature","properties":{"GID_2":"NOR.6.5_1","GID_0":"NOR","country":"Norway","GID_1":"NOR.6_1","province":"Hedmark","NL_NAME_1":"NA","county":"Elverum","VARNAME_2":"NA","NL_NAME_2":"NA","TYPE_2":"Kommuner","ENGTYPE_2":"Municipality","CC_2":"NA","HASC_2":"NO.HE.EL","name":"Elverum.county"},
"geometry":{"type": "MultiPolygon","coordinates": [[[[11.2765,61.0235,633.9091],[11.2777,61.0191,628.4943],[11.2869,61.0197,615.6108],[11.2881,61.0152,598.4473],[11.2973,61.0158,604.188],[11.2998,61.0069,599.2594],[11.309,61.0075,625.5814],[11.3102,61.003,610.5518],[11.3194,61.0036,635.0856],[11.3218,60.9947,615.8636],[11.331,60.9953,717.4767],[11.3322,60.9909,659.4162],[11.3414,60.9915,738.2466],[11.3438,60.9826,630.6301],[11.353,60.9831,599.4951],[11.3542,60.9787,572.84],[11.3634,60.9793,553.6019],[11.3659,60.9704,532.8405],[11.375,60.971,507.1326],[11.3763,60.9665,495.5197],[11.3854,60.9671,460.7357],[11.3879,60.9582,469.1454],[11.397,60.9588,435.6977],[11.3994,60.9499,454.3427],[11.4086,60.9505,434.9942],[11.411,60.9416,473.3906],[11.4202,60.9422,440.3315],[11.4238,60.9288,462.2878],[11.433,60.9294,398.3422],[11.4462,60.8804,274.1439],[11.4554,60.881,262.0309],[11.4578,60.8721,253.2609],[11.4669,60.8727,256.7938],[11.4705,60.8593,269.2193],[11.4796,60.8599,257.7496],[11.482,60.851,335.782],[11.4912,60.8516,341.8382],[11.4959,60.8338,357.6929],[11.5051,60.8344,364.3187],[11.5181,60.7854,219.6158],[11.5364,60.7865,243.386],[11.5399,60.7732,252.5376],[11.5765,60.7755,237.9567],[11.5788,60.7666,255.1803],[11.5879,60.7672,253.9418],[11.5891,60.7627,299.7271],[11.5982,60.7633,311.3822],[11.6006,60.7544,356.1607],[11.6097,60.7549,370.9632],[11.6109,60.7505,408.2424],[11.62,60.7511,408.5544],[11.6212,60.7466,386.1175],[11.6759,60.75,309.2434],[11.6771,60.7455,302.7002],[11.7136,60.7478,267.9591],[11.7147,60.7434,345.4029],[11.7421,60.745,186.1064],[11.7432,60.7406,187.8337],[11.7524,60.7411,185.0465],[11.7501,60.75,160.5],[11.7592,60.7506,176.1013],[11.7569,60.7595,185.445],[11.7751,60.7606,217.3272],[11.774,60.7651,217.2964],[11.7831,60.7656,219.1785],[11.782,60.7701,238.9848],[11.8002,60.7712,208.7465],[11.7991,60.7757,231.8637],[11.8082,60.7762,228.3448],[11.8059,60.7851,311.9544],[11.8151,60.7857,337.7306],[11.8139,60.7901,361.6823],[11.8322,60.7913,447.0564],[11.8311,60.7957,391.0953],[11.8676,60.7979,317.2536],[11.8665,60.8024,335.0657],[11.9031,60.8046,412.413],[11.9019,60.809,423.6513],[11.9294,60.8107,467.4225],[11.9283,60.8151,485.3651],[11.9465,60.8162,517.1532],[11.9454,60.8207,507.0744],[11.9637,60.8218,520.264],[11.9615,60.8307,563.1833],[11.9706,60.8312,533.2806],[11.9695,60.8357,492.0237],[11.9787,60.8362,387.3641],[11.9742,60.8541,296.3773],[11.965,60.8535,305.9118],[11.9628,60.8624,300.8775],[11.9719,60.863,316.5496],[11.9708,60.8674,316.9177],[11.98,60.868,334.8114],[11.9788,60.8724,338.0591],[11.988,60.873,349.1865],[11.9869,60.8774,359.5952],[11.996,60.878,389.2186],[11.9949,60.8824,392.1642],[12.0041,60.883,401.8663],[12.0018,60.8919,410.1421],[11.9927,60.8913,409.1969],[11.9893,60.9047,481.3806],[11.9985,60.9052,473.8525],[11.994,60.9231,540.6821],[12.0032,60.9236,526.6296],[11.9987,60.9414,566.3409],[12.0078,60.942,549.2012],[12.0056,60.9509,507.7567],[12.0148,60.9514,504.028],[12.0159,60.947,519.713],[12.0343,60.9481,490.6193],[12.0354,60.9436,509.7916],[12.0538,60.9447,453.5965],[12.0527,60.9491,452.0758],[12.071,60.9502,406.3593],[12.0721,60.9458,403.5578],[12.0813,60.9463,397.3089],[12.0824,60.9418,394.9373],[12.0916,60.9424,389.4969],[12.0927,60.9379,382.2826],[12.1019,60.9385,382.2793],[12.103,60.934,385.0102],[12.1122,60.9345,375.8101],[12.1133,60.9301,372.126],[12.1225,60.9306,372.1354],[12.1236,60.9262,365.5624],[12.142,60.9272,391.6273],[12.1409,60.9317,391.8237],[12.1317,60.9312,376.2348],[12.1262,60.9534,419.8946],[12.117,60.9529,398.5413],[12.1125,60.9707,418.2421],[12.1217,60.9713,431.0415],[12.1206,60.9757,429.9734],[12.139,60.9768,473.0315],[12.1346,60.9946,484.7779],[12.1438,60.9952,511.957],[12.1394,61.013,547.4077],[12.1302,61.0124,512.1313],[12.1291,61.0169,531.7267],[12.1198,61.0164,491.3999],[12.1176,61.0253,519.9445],[12.1084,61.0247,497.9213],[12.104,61.0426,506.3564],[12.1224,61.0436,526.1953],[12.1213,61.0481,550.2868],[12.1397,61.0492,560.2888],[12.1386,61.0536,569.2394],[12.157,61.0547,591.8389],[12.1559,61.0592,585.9826],[12.1652,61.0597,524.8884],[12.1641,61.0641,529.5025],[12.1548,61.0636,531.3647],[12.1526,61.0725,531.0001],[12.1434,61.072,525.6152],[12.1412,61.0809,533.8743],[12.1319,61.0804,534.1335],[12.1308,61.0848,544.1364],[12.1216,61.0843,551.7822],[12.1205,61.0887,585.0812],[12.1113,61.0882,575.6068],[12.1102,61.0927,583.257],[12.1009,61.0921,624.0077],[12.0998,61.0966,632.1421],[12.0721,61.095,565.5065],[12.0732,61.0905,570.8668],[12.0548,61.0894,617.7072],[12.057,61.0805,648.9377],[12.0478,61.08,650.8482],[12.0512,61.0666,593.196],[12.0235,61.065,485.0477],[12.0224,61.0695,487.2209],[12.0132,61.0689,473.261],[12.012,61.0734,481.9843],[11.9936,61.0723,450.3807],[11.9925,61.0767,454.6589],[11.9832,61.0762,488.4724],[11.9821,61.0806,484.2581],[11.9729,61.0801,498.6583],[11.9751,61.0712,505.1024],[11.9659,61.0706,534.821],[11.9671,61.0662,546.4621],[11.9578,61.0656,559.3049],[11.959,61.0612,553.7215],[11.9405,61.0601,561.9763],[11.9394,61.0645,569.8869],[11.9302,61.064,586.3559],[11.929,61.0685,590.0306],[11.9198,61.0679,608.0012],[11.9175,61.0768,613.5803],[11.9083,61.0763,633.9797],[11.9072,61.0807,626.7687],[11.898,61.0802,648.7382],[11.8968,61.0846,641.3497],[11.8876,61.0841,670.0625],[11.8841,61.0974,677.0422],[11.8749,61.0969,686.6671],[11.8738,61.1013,676.6891],[11.883,61.1019,681.9667],[11.8796,61.1153,656.9169],[11.8703,61.1147,661.4135],[11.868,61.1236,597.4095],[11.8588,61.1231,608.0487],[11.8553,61.1364,623.9603],[11.8461,61.1359,598.7437],[11.8438,61.1448,636.6169],[11.8345,61.1442,602.3589],[11.8311,61.1576,669.5003],[11.8218,61.157,622.4164],[11.8207,61.1615,643.3215],[11.8114,61.1609,619.0784],[11.8091,61.1698,651.4439],[11.7999,61.1693,659.0524],[11.7987,61.1737,665.8331],[11.7895,61.1732,721.1786],[11.7883,61.1776,717.0091],[11.779,61.1771,744.811],[11.7779,61.1815,727.1068],[11.7686,61.181,711.8245],[11.7663,61.1899,664.4064],[11.757,61.1893,649.2973],[11.7547,61.1982,696.4739],[11.7454,61.1977,662.0486],[11.7443,61.2021,750.5427],[11.735,61.2016,767.2061],[11.7362,61.1971,721.8798],[11.7269,61.1965,705.9778],[11.7293,61.1876,587.2034],[11.72,61.1871,573.8118],[11.7224,61.1782,540.6658],[11.7131,61.1776,555.5264],[11.7167,61.1642,563.528],[11.7074,61.1637,574.8831],[11.7086,61.1592,558.5],[11.6901,61.1581,684.0762],[11.6913,61.1536,671.7598],[11.6728,61.1525,665.0475],[11.674,61.1481,659.5441],[11.6647,61.1475,635.7567],[11.6659,61.143,593.1017],[11.6474,61.1419,551.1745],[11.6486,61.1375,525.2498],[11.6302,61.1363,617.3041],[11.6313,61.1319,551.1106],[11.6221,61.1313,552.8788],[11.6233,61.1269,518.314],[11.6325,61.1274,477.3351],[11.6373,61.1096,385.3168],[11.628,61.109,380.46],[11.6292,61.1046,356.267],[11.6108,61.1035,350.882],[11.6072,61.1168,460.582],[11.5795,61.1151,310.8903],[11.5807,61.1106,301.0163],[11.5715,61.1101,305.2819],[11.5727,61.1056,294.6023],[11.5634,61.105,287.105],[11.5646,61.1006,290.0293],[11.5554,61.1,288.167],[11.5566,61.0956,308.0625],[11.5474,61.095,338.0034],[11.5486,61.0905,359.311],[11.5394,61.09,400.8963],[11.5406,61.0855,436.5154],[11.5313,61.0849,505.7425],[11.5325,61.0805,566.9214],[11.5233,61.0799,563.336],[11.5245,61.0755,603.8416],[11.5153,61.0749,597.3543],[11.5165,61.0704,578.4874],[11.5073,61.0699,583.7827],[11.5085,61.0654,605.8497],[11.4901,61.0643,529.5267],[11.4913,61.0598,537.525],[11.4821,61.0592,565.9645],[11.4833,61.0548,557.4749],[11.474,61.0542,610.6703],[11.4753,61.0497,635.1852],[11.466,61.0492,621.2784],[11.4672,61.0447,635.9745],[11.4488,61.0436,546.6971],[11.45,61.0391,554.4872],[11.4408,61.0385,486.1974],[11.442,61.0341,476.6268],[11.2765,61.0235,633.9091]]]]}}