{"type":"Feature","properties":{"GID_2":"NOR.6.6_1","GID_0":"NOR","country":"Norway","GID_1":"NOR.6_1","province":"Hedmark","NL_NAME_1":"NA","county":"Engerdal","VARNAME_2":"NA","NL_NAME_2":"NA","TYPE_2":"Kommuner","ENGTYPE_2":"Municipality","CC_2":"NA","HASC_2":"NO.HE.EN","name":"Engerdal.county"},
"geometry":{"type": "MultiPolygon","coordinates": [[[[11.5064,62.1472,1278.2461],[11.5077,62.1427,1316.0624],[11.5172,62.1433,1284.328],[11.5185,62.1389,1216.8164],[11.528,62.1394,1122.4681],[11.5305,62.1305,1225.1924],[11.54,62.1311,1141.7057],[11.5425,62.1222,1179.4778],[11.552,62.1228,1259.7671],[11.557,62.105,944.8399],[11.5665,62.1055,928.8486],[11.574,62.0788,868.9283],[11.5835,62.0794,873.6799],[11.5971,62.0304,744.1054],[11.6066,62.031,757.1714],[11.6103,62.0177,701.5624],[11.6198,62.0182,690.557],[11.6222,62.0093,691.3209],[11.6317,62.0099,672.4377],[11.6354,61.9965,720.5579],[11.6449,61.9971,717.678],[11.6485,61.9837,787.1479],[11.658,61.9843,773.375],[11.6629,61.9665,1025.001],[11.6724,61.9671,1038.1758],[11.6761,61.9537,842.4654],[11.6855,61.9543,902.8629],[11.6916,61.932,805.0913],[11.7011,61.9326,804.4613],[11.7071,61.9103,692.968],[11.7166,61.9109,674.1344],[11.7238,61.8841,650.7515],[11.7144,61.8836,687.2854],[11.7252,61.8435,634.1093],[11.7158,61.8429,644.2947],[11.7182,61.834,628.7896],[11.7088,61.8335,654.3068],[11.7112,61.8246,637.3441],[11.7017,61.824,657.0748],[11.7041,61.8151,627.4474],[11.6947,61.8145,633.6279],[11.6971,61.8056,625.7253],[11.6877,61.8051,633.8251],[11.6889,61.8006,639.4993],[11.67,61.7995,672.0896],[11.6712,61.795,628.6317],[11.6618,61.7944,670.7976],[11.663,61.79,627.1599],[11.6442,61.7889,660.8242],[11.6454,61.7844,612.8145],[11.6171,61.7827,637.533],[11.6341,61.7204,787.3051],[11.6435,61.7209,824.0214],[11.6483,61.7031,735.0642],[11.6577,61.7037,756.4003],[11.6626,61.6859,752.6675],[11.672,61.6864,754.6589],[11.6756,61.6731,836.6365],[11.685,61.6737,780.6863],[11.6862,61.6692,783.839],[11.6956,61.6698,783.9267],[11.6968,61.6653,787.9896],[11.7061,61.6659,778.7113],[11.7109,61.6481,905.05],[11.7203,61.6486,868.6967],[11.7215,61.6442,928.8052],[11.7309,61.6447,893.0995],[11.7321,61.6403,907.0184],[11.7415,61.6408,815.6498],[11.7439,61.6319,850.9215],[11.7533,61.6325,786.1938],[11.7556,61.6236,816.2661],[11.765,61.6242,830.8702],[11.7662,61.6197,867.2495],[11.7756,61.6203,951.8552],[11.7768,61.6158,921.981],[11.7861,61.6164,1034.9659],[11.7873,61.6119,1048.6364],[11.7967,61.6125,1076.2367],[11.7979,61.608,1071.2155],[11.8073,61.6086,1091.8575],[11.812,61.5908,1144.1405],[11.8214,61.5913,1154.1104],[11.8249,61.5779,1168.2212],[11.8343,61.5785,1167.7584],[11.8354,61.5741,1136.7246],[11.8448,61.5746,1071.6509],[11.8425,61.5835,1055.8978],[11.8518,61.5841,1033.9269],[11.8413,61.6242,717.6262],[11.8506,61.6247,601.2805],[11.8483,61.6336,534.9667],[11.8577,61.6342,523.962],[11.8518,61.6565,838.5653],[11.8612,61.657,892.5873],[11.8577,61.6704,1003.2129],[11.867,61.6709,1052.0562],[11.8647,61.6798,1075.6261],[11.8741,61.6804,1097.7137],[11.8729,61.6848,1093.3734],[11.8823,61.6854,1107.3185],[11.8811,61.6898,1108.8453],[11.8905,61.6904,1104.4938],[11.8894,61.6949,1126.3417],[11.8988,61.6954,1114.397],[11.9011,61.6865,1078.8538],[11.9105,61.687,1043.9537],[11.9152,61.6692,1074.5042],[11.9246,61.6698,1040.3086],[11.9293,61.652,970.7651],[11.9387,61.6525,953.3381],[11.9445,61.6302,1131.2444],[11.9539,61.6308,1141.8436],[11.9585,61.613,1080.8163],[11.9679,61.6135,1146.2391],[11.9702,61.6046,1057.2627],[11.9796,61.6051,1042.2135],[11.9807,61.6007,971.6938],[12.037,61.6039,472.5],[12.0359,61.6084,472.5],[12.0734,61.6106,765.0547],[12.0722,61.615,765.9724],[12.1098,61.6172,820.5458],[12.1086,61.6216,810.0434],[12.1556,61.6243,892.6729],[12.1567,61.6198,898.8481],[12.2036,61.6225,920.2178],[12.2025,61.627,944.1151],[12.287,61.6317,898.2626],[12.2848,61.6406,935.1815],[12.2754,61.6401,999.3459],[12.2743,61.6446,981.5101],[12.2649,61.644,946.1848],[12.2627,61.653,939.9937],[12.2533,61.6524,967.9099],[12.2521,61.6569,1014.9592],[12.2427,61.6564,1011.3334],[12.2405,61.6653,1042.6298],[12.2311,61.6647,1045.7925],[12.2289,61.6737,1023.4484],[12.2194,61.6731,1077.1526],[12.2183,61.6776,1040.5349],[12.2089,61.6771,1006.7112],[12.2067,61.686,1055.9896],[12.1973,61.6854,931.1824],[12.195,61.6944,932.6651],[12.1856,61.6938,905.0817],[12.1845,61.6983,904.6737],[12.1751,61.6978,899.1007],[12.1728,61.7067,904.4005],[12.1634,61.7061,921.7419],[12.1611,61.715,941.9174],[12.1517,61.7145,984.9644],[12.1506,61.719,1041.8525],[12.1411,61.7184,1023.2137],[12.1377,61.7318,1015.7486],[12.1471,61.7323,970.6597],[12.1426,61.7502,818.6137],[12.152,61.7507,805.4159],[12.1475,61.7685,764.8997],[12.1569,61.7691,779.9432],[12.1535,61.7824,758.8138],[12.1629,61.783,756.2049],[12.1583,61.8008,769.6326],[12.1678,61.8013,766.8766],[12.1632,61.8192,743.601],[12.1727,61.8197,740.3206],[12.1681,61.8375,737.3638],[12.1776,61.8381,727.6166],[12.1742,61.8514,714.3986],[12.1836,61.852,686.2704],[12.1791,61.8698,661.4951],[12.1885,61.8703,672.6149],[12.184,61.8882,705.3145],[12.1934,61.8887,709.1681],[12.1889,61.9065,676.2008],[12.1984,61.9071,663.2272],[12.1938,61.9249,668.9311],[12.2033,61.9254,667.0958],[12.1999,61.9388,737.0305],[12.2093,61.9393,707.0928],[12.2048,61.9572,716.0239],[12.2143,61.9577,739.1302],[12.2097,61.9755,687.4958],[12.2192,61.976,709.7236],[12.2147,61.993899999999996,629.5057],[12.2242,61.9944,636.6951],[12.2196,62.0122,721.4133],[12.2291,62.0128,733.4915],[12.2246,62.0306,748.903],[12.2341,62.0311,742.5048],[12.2295,62.049,763.8931],[12.239,62.0495,769.4131],[12.2356,62.0629,798.9641],[12.2451,62.0634,802.5614],[12.2406,62.0812,866.8691],[12.2501,62.0818,859.1014],[12.2455,62.0996,889.6655],[12.2551,62.1001,871.1356],[12.2505,62.118,951.0944],[12.2601,62.1185,911.7682],[12.2555,62.1363,1006.3172],[12.265,62.1368,982.9114],[12.2616,62.1502,769.3146],[12.2712,62.1507,763.753],[12.2666,62.1686,962.729],[12.2762,62.1691,1025.7664],[12.2716,62.1869,915.8171],[12.2812,62.1875,915.4622],[12.2766,62.2053,883.0651],[12.2862,62.2058,889.4335],[12.2816,62.2237,935.4586],[12.2912,62.2242,918.8546],[12.2878,62.2376,958.2659],[12.2974,62.2381,975.7587],[12.2928,62.2559,786.3292],[12.3024,62.2564,784.6298],[12.2955,62.2832,808.9757],[12.2859,62.2827,810.8503],[12.2802,62.305,819.8842],[12.2706,62.3044,780.6692],[12.2649,62.3267,756.9647],[12.2553,62.3262,759.4066],[12.2541,62.3307,756.8159],[12.2061,62.328,751.9632],[12.2073,62.3236,782.2803],[12.1881,62.3225,750.5],[12.1892,62.318,750.1916],[12.1796,62.3175,749.3731],[12.1808,62.313,754.8333],[12.1232,62.3098,723.6491],[12.122,62.3143,720.3131],[12.1124,62.3138,722.7124],[12.1101,62.3227,734.0977],[12.1005,62.3221,719.5362],[12.0993,62.3266,728.7043],[12.0897,62.326,720.4911],[12.0873,62.335,729.113],[12.0777,62.3344,719.7454],[12.076599999999999,62.3389,723.5728],[12.0669,62.3383,723.1094],[12.0658,62.3428,719.2009],[12.0562,62.3423,724.6772],[12.055,62.3467,714.3087],[12.0454,62.3462,718.1694],[12.0442,62.3506,715.777],[12.025,62.3495,710.9283],[12.0238,62.354,710.4689],[11.995,62.3524,683.9807],[11.9938,62.3568,672.897],[11.9745,62.3557,661.5],[11.9734,62.3602,661.5],[11.9445,62.3585,661.5],[11.9433,62.363,661.5],[11.9145,62.3613,726.7707],[11.9133,62.3658,732.6399],[11.8941,62.3647,810.5859],[11.8929,62.3691,791.5557],[11.864,62.3675,897.226],[11.8628,62.3719,862.58],[11.8436,62.3708,938.7533],[11.846,62.3619,1111.4683],[11.8556,62.3625,1088.7006],[11.8568,62.358,1196.8431],[11.8472,62.3575,1124.3705],[11.8484,62.353,1024.7102],[11.8292,62.3519,1242.259],[11.8304,62.3474,1092.8546],[11.8208,62.3469,1081.0232],[11.822,62.3424,1029.274],[11.8124,62.3419,1012.8408],[11.8136,62.3374,996.9431],[11.804,62.3369,981.1287],[11.8065,62.328,958.868],[11.7969,62.3274,956.4282],[11.7993,62.3185,1011.0778],[11.7897,62.3179,993.4256],[11.7921,62.309,970.8047],[11.8017,62.3096,998.4744],[11.8054,62.2962,930.3733],[11.815,62.2968,1068.9142],[11.8174,62.2879,874.7993],[11.827,62.2884,945.7861],[11.8294,62.2795,863.5518],[11.839,62.2801,877.4537],[11.8486,62.2444,772.8004],[11.8391,62.243899999999996,768.3292],[11.8475,62.2127,701.1957],[11.838,62.2121,692.3499],[11.8572,62.1409,661.5],[11.8476,62.1403,661.5],[11.8488,62.1359,661.5],[11.8393,62.1353,661.5],[11.8405,62.1308,661.5],[11.831,62.1303,661.5],[11.8298,62.1347,661.5],[11.8202,62.1342,661.5],[11.819,62.1386,661.5],[11.8095,62.1381,661.5],[11.8071,62.147,696.598],[11.7975,62.1464,676.3268],[11.7951,62.1553,705.4106],[11.7856,62.1548,676.8008],[11.7844,62.1592,688.9061],[11.7748,62.1587,726.0577],[11.7736,62.1631,720.8286],[11.764099999999999,62.1626,735.9039],[11.7628,62.167,716.6945],[11.7437,62.1659,678.2919],[11.7425,62.1704,679.0663],[11.7234,62.1692,732.6245],[11.7222,62.1737,750.0359],[11.7031,62.1726,911.2598],[11.7019,62.177,1007.3654],[11.6923,62.1764,1042.5546],[11.6936,62.172,903.4587],[11.684,62.1714,890.5947],[11.6852,62.167,839.5005],[11.6757,62.1664,810.1007],[11.6769,62.1619,785.61],[11.6674,62.1614,763.9468],[11.6686,62.1569,750.4103],[11.6591,62.1564,738.9289],[11.6603,62.1519,723.8632],[11.6126,62.1491,718.91],[11.6114,62.1535,709.0],[11.5064,62.1472,1278.2461]]]]}}