{"type": "Feature","bbox": [8.2375,63.4125,9.2391,63.6854],"geometry": {"type": "MultiPolygon","coordinates": [[[[8.3208,63.4313,5.4376],[8.3083,63.4354,17.6501],[8.3026,63.4349,4.0039],[8.3078,63.4307,8.7808],[8.3089,63.4255,16.9704],[8.3146,63.425,0.0],[8.3208,63.4271,16.4707],[8.3224,63.4266,5.1714],[8.3214,63.4234,3.5467],[8.3307,63.4234,0.0],[8.3276,63.4255,0.0],[8.3266,63.4286,14.7817],[8.3208,63.4313,5.4376]]],
[[[8.2813,63.4375,0.0],[8.2776,63.4339,0.0],[8.287,63.4339,3.8126],[8.287,63.4349,10.6483],[8.2813,63.4375,0.0]]],
[[[8.2974,63.438,9.6015],[8.2958,63.4396,0.0],[8.2943,63.4391,6.6458],[8.2943,63.438,19.8707],[8.2974,63.438,9.6015]]],
[[[8.3057,63.4672,0.0],[8.3005,63.4651,0.0],[8.3141,63.4651,0.0],[8.3083,63.4688,0.0],[8.3057,63.4672,0.0]]],
[[[8.4625,63.4167,7.4389],[8.4589,63.4161,1.5959],[8.4589,63.413,13.4247],[8.4708,63.4125,0.0],[8.4729,63.4146,7.1059],[8.4724,63.4182,0.0],[8.4708,63.4188,0.0],[8.4667,63.4167,11.3888],[8.4625,63.4167,7.4389]]],
[[[8.4521,63.4167,0.0],[8.4536,63.4182,0.0],[8.4438,63.4208,0.0],[8.4359,63.4182,9.5441],[8.4354,63.4167,0.0],[8.4375,63.4146,0.0],[8.4417,63.4167,9.2922],[8.4521,63.4167,0.0]]],
[[[8.4266,63.563,5.4754],[8.425,63.5646,0.0],[8.4234,63.5641,3.2005],[8.4234,63.563,8.8037],[8.4266,63.563,5.4754]]],
[[[8.4328,63.5651,4.633],[8.4312,63.5667,0.0],[8.4297,63.5661,6.3705],[8.4297,63.5651,11.1735],[8.4328,63.5651,4.633]]],
[[[8.3036,63.4755,0.0],[8.3021,63.4771,0.0],[8.3005,63.4766,0.0],[8.3021,63.475,0.0],[8.3036,63.4755,0.0]]],
[[[8.2729,63.5208,2.4882],[8.2693,63.5172,0.0],[8.2786,63.5172,12.7563],[8.2786,63.5182,0.0],[8.2729,63.5208,2.4882]]],
[[[8.2792,63.525,6.8359],[8.2755,63.5245,0.0],[8.2755,63.5214,11.9986],[8.2786,63.5214,0.0],[8.2807,63.5234,0.0],[8.2792,63.525,6.8359]]],
[[[8.3031,63.5267,0.0],[8.3005,63.5266,12.2475],[8.3005,63.5255,16.1799],[8.3036,63.5255,4.21],[8.3031,63.5267,0.0]]],
[[[8.3458,63.5333,9.2422],[8.3443,63.5318,0.0],[8.3516,63.5318,0.0],[8.35,63.5333,0.0],[8.3458,63.5333,9.2422]]],
[[[8.3125,63.5667,2.6317],[8.3083,63.5667,3.7642],[8.3068,63.5651,9.6476],[8.3161,63.5651,0.0],[8.3125,63.5667,2.6317]]],
[[[8.3807,63.5651,0.0],[8.3807,63.5682,0.0],[8.3708,63.5708,0.0],[8.3563,63.5708,0.0],[8.3505,63.5682,0.0],[8.3479,63.5646,14.841],[8.35,63.5625,0.0],[8.375,63.5625,0.0],[8.3807,63.5651,0.0]]],
[[[8.3557,63.5734,0.0],[8.3542,63.575,2.597],[8.3526,63.5745,1.9627],[8.3542,63.5729,0.0],[8.3557,63.5734,0.0]]],
[[[8.7203,63.4505,0.0],[8.7203,63.4516,0.0],[8.7172,63.4516,0.0],[8.7172,63.4505,0.0],[8.7203,63.4505,0.0]]],
[[[8.7188,63.4708,5.8163],[8.7146,63.4708,0.0],[8.713,63.4693,0.0],[8.7224,63.4693,0.0],[8.7188,63.4708,5.8163]]],
[[[8.8208,63.6604,4.2488],[8.8104,63.6604,5.6517],[8.8063,63.6625,0.0],[8.8021,63.6604,17.1939],[8.7979,63.6625,0.0],[8.7875,63.6583,19.1201],[8.7797,63.6578,0.0],[8.7828,63.6557,0.0],[8.7813,63.6542,0.0],[8.7417,63.6521,0.0],[8.7271,63.6458,4.6763],[8.7229,63.65,0.0],[8.7125,63.65,0.0],[8.7057,63.6464,0.0],[8.6979,63.6458,0.0],[8.6938,63.6437,3.5858],[8.6896,63.6458,0.0],[8.6833,63.6458,0.0],[8.6792,63.6417,15.7154],[8.663,63.6411,0.0],[8.6703,63.637,0.0],[8.6734,63.6318,0.0],[8.6766,63.6307,14.7984],[8.6776,63.6276,0.0],[8.6953,63.6266,0.0],[8.6917,63.6229,3.567],[8.6625,63.6229,12.7788],[8.6609,63.6245,0.0],[8.663,63.6307,26.3879],[8.6682,63.6328,0.0],[8.6625,63.6354,0.0],[8.6568,63.6359,0.0],[8.6542,63.6396,0.0],[8.6396,63.6396,0.0],[8.638,63.638,5.832],[8.6453,63.6349,0.0],[8.6453,63.6318,1.9527],[8.6271,63.6292,0.0],[8.6229,63.625,0.0],[8.6063,63.625,0.0],[8.6047,63.6234,0.0],[8.6104,63.6208,0.0],[8.6354,63.6208,0.0],[8.6396,63.6229,14.6311],[8.65,63.6229,0.0],[8.6516,63.6214,0.0],[8.6333,63.6146,0.0],[8.6229,63.6146,8.3165],[8.6187,63.6167,0.0],[8.6146,63.6167,0.0],[8.6104,63.6146,0.0],[8.6,63.6146,0.0],[8.5896,63.6104,16.0164],[8.5833,63.6104,0.0],[8.5745,63.6047,12.5811],[8.5609,63.6016,0.0],[8.5599,63.5984,9.3377],[8.5521,63.5979,0.0],[8.5443,63.5953,0.0],[8.5437,63.5938,0.0],[8.5458,63.5917,0.0],[8.5646,63.5917,0.0],[8.5688,63.5896,0.0],[8.5875,63.5896,3.9641],[8.5891,63.588,0.0],[8.5542,63.5875,0.0],[8.55,63.5854,20.4729],[8.5354,63.5875,9.8239],[8.5172,63.5807,0.0],[8.5161,63.5776,9.2834],[8.5109,63.5766,0.0],[8.5099,63.5734,11.4555],[8.5047,63.5724,0.0],[8.5036,63.5693,12.1067],[8.4984,63.5661,0.0],[8.5,63.5646,0.0],[8.5063,63.5646,6.3958],[8.5104,63.5625,0.0],[8.5188,63.5625,0.0],[8.5203,63.5609,0.0],[8.5125,63.5583,20.6414],[8.5083,63.5604,0.0],[8.4938,63.5604,0.0],[8.4896,63.5563,3.7046],[8.4854,63.5583,0.0],[8.475,63.5583,0.0],[8.4563,63.5521,0.0],[8.4458,63.5521,0.0],[8.4312,63.5479,0.0],[8.4146,63.5479,0.0],[8.3984,63.5411,0.0],[8.3958,63.5375,0.0],[8.3922,63.538,9.9285],[8.3932,63.5411,0.0],[8.3917,63.5417,0.0],[8.3771,63.5417,0.0],[8.3708,63.5375,14.4722],[8.3563,63.5375,0.0],[8.3547,63.5359,7.1174],[8.3583,63.5333,0.0],[8.3568,63.5276,0.0],[8.3646,63.5271,0.0],[8.3688,63.5313,16.192],[8.3745,63.5276,11.5533],[8.3688,63.525,15.4038],[8.3609,63.5245,0.0],[8.3578,63.5172,0.0],[8.3484,63.5141,0.0],[8.3474,63.5109,27.7606],[8.338,63.5109,6.5434],[8.3391,63.5161,0.0],[8.3359,63.5172,0.0],[8.3401,63.5203,28.7143],[8.3453,63.5214,0.0],[8.3453,63.5266,0.0],[8.3354,63.5271,4.6362],[8.3276,63.5245,0.0],[8.325,63.5208,0.0],[8.3193,63.5234,0.0],[8.3167,63.5271,6.8052],[8.3021,63.5208,20.0082],[8.2917,63.5208,0.0],[8.2839,63.5182,0.0],[8.2807,63.5109,3.3035],[8.2792,63.5104,6.1374],[8.2646,63.5104,0.0],[8.2568,63.5078,0.0],[8.2661,63.5047,0.0],[8.2609,63.5036,2.4671],[8.2599,63.5005,0.0],[8.2563,63.4979,3.2695],[8.2521,63.4979,0.0],[8.2479,63.5,0.0],[8.2422,63.4995,0.0],[8.2375,63.4896,0.0],[8.2396,63.4875,0.0],[8.2437,63.4896,7.3646],[8.25,63.4896,3.0622],[8.2516,63.4891,0.0],[8.2505,63.4859,0.0],[8.2583,63.4854,0.0],[8.2661,63.488,0.0],[8.2672,63.4932,0.0],[8.275,63.4958,0.0],[8.2807,63.4943,0.0],[8.2818,63.4974,18.0741],[8.2854,63.5,0.0],[8.2911,63.4995,0.0],[8.2938,63.4958,0.0],[8.2995,63.4964,11.9937],[8.3016,63.4995,0.0],[8.2984,63.5005,0.0],[8.2984,63.5036,0.0],[8.3167,63.5104,0.0],[8.3208,63.5062,0.0],[8.3307,63.5057,0.0],[8.3109,63.4974,10.6371],[8.3099,63.4943,33.5568],[8.3005,63.4932,0.0],[8.2974,63.488,0.0],[8.288,63.4849,9.207],[8.287,63.4818,0.0],[8.2734,63.4786,0.0],[8.2708,63.475,0.0],[8.2729,63.4729,0.0],[8.2833,63.4771,38.8193],[8.2891,63.4766,0.0],[8.2797,63.4703,0.0],[8.2786,63.4672,3.4339],[8.2734,63.4661,0.0],[8.2792,63.4625,0.0],[8.287,63.4651,0.0],[8.288,63.4703,5.1766],[8.2974,63.4714,0.0],[8.2974,63.4745,14.8046],[8.2943,63.4766,0.0],[8.3083,63.4813,0.0],[8.3141,63.4786,0.0],[8.312,63.4734,0.0],[8.3089,63.4714,0.0],[8.3146,63.4708,16.5824],[8.3203,63.4682,0.0],[8.3182,63.463,0.0],[8.313,63.4599,0.0],[8.312,63.4547,0.0],[8.3099,63.4526,0.0],[8.2922,63.4495,0.0],[8.2901,63.4443,0.0],[8.3063,63.4437,0.0],[8.312,63.4411,0.0],[8.313,63.438,5.8501],[8.3187,63.4354,0.0],[8.3245,63.4349,5.2218],[8.3313,63.4313,0.0],[8.3349,63.4359,0.0],[8.3318,63.438,0.0],[8.3318,63.4411,0.0],[8.3479,63.4375,0.0],[8.3521,63.4417,0.0],[8.3646,63.4354,0.0],[8.3807,63.4349,0.0],[8.3755,63.4318,0.0],[8.3854,63.4271,0.0],[8.4,63.4271,0.0],[8.4042,63.4292,0.0],[8.4083,63.4292,3.6864],[8.4125,63.4271,5.8716],[8.4271,63.4271,0.0],[8.4312,63.425,0.0],[8.4458,63.425,0.0],[8.45,63.4271,6.9728],[8.4542,63.425,0.0],[8.4604,63.425,0.0],[8.4646,63.4271,12.3916],[8.4688,63.425,0.0],[8.4729,63.425,0.0],[8.4771,63.4271,18.8848],[8.5354,63.4271,0.0],[8.5458,63.4333,0.0],[8.55,63.4333,0.0],[8.5542,63.4354,0.0],[8.5646,63.4354,0.0],[8.5724,63.438,0.0],[8.5776,63.4411,0.0],[8.5797,63.4453,0.0],[8.5932,63.4484,0.0],[8.5979,63.4521,3.7954],[8.6099,63.4547,0.0],[8.6125,63.4583,0.0],[8.6229,63.4583,0.0],[8.6438,63.4646,0.0],[8.6479,63.4646,0.0],[8.6521,63.4625,0.0],[8.6651,63.4682,0.0],[8.6729,63.4688,0.0],[8.6771,63.4708,0.0],[8.6917,63.4688,0.0],[8.7063,63.4729,23.3682],[8.7104,63.4708,0.0],[8.7146,63.4729,0.0],[8.725,63.4729,0.0],[8.7396,63.4771,38.5343],[8.7458,63.475,0.0],[8.7542,63.4792,13.1319],[8.7557,63.4786,0.0],[8.7568,63.4734,0.0],[8.7625,63.4729,0.0],[8.7979,63.4833,8.8558],[8.8125,63.4833,0.0],[8.8208,63.4792,0.0],[8.8313,63.4792,0.0],[8.8354,63.4813,9.8395],[8.8375,63.4792,0.0],[8.8359,63.4755,0.0],[8.8479,63.475,5.3045],[8.8625,63.4792,27.1774],[8.8729,63.4792,0.0],[8.8813,63.4833,18.4022],[8.9167,63.4854,0.0],[8.9313,63.4917,0.0],[8.9391,63.4922,0.0],[8.9458,63.4958,29.5023],[8.9625,63.4958,0.0],[8.9708,63.5,0.0],[8.9875,63.5021,0.0],[8.9958,63.5062,0.0],[9.0021,63.5062,0.0],[9.0063,63.5042,0.0],[9.0104,63.5062,3.5229],[9.025,63.5062,0.0],[9.0292,63.5083,3.8968],[9.0458,63.5083,0.0],[9.0542,63.5125,42.3231],[9.0688,63.5125,0.0],[9.0792,63.5167,8.7085],[9.0896,63.5167,0.0],[9.1,63.5208,0.0],[9.1057,63.5203,0.0],[9.0875,63.5125,0.0],[9.0771,63.5125,0.0],[9.0672,63.5099,0.0],[9.0646,63.5062,6.0787],[9.0667,63.5042,4.3736],[9.0813,63.5042,0.0],[9.0958,63.5104,5.5555],[9.1036,63.5109,0.0],[9.1125,63.5167,0.0],[9.1245,63.5172,1.8665],[9.1255,63.5203,0.0],[9.1307,63.5214,0.0],[9.1354,63.525,6.3189],[9.1349,63.5266,0.0],[9.1292,63.5271,10.0921],[9.1276,63.5286,0.0],[9.1328,63.5297,0.0],[9.1417,63.5354,0.0],[9.1495,63.5359,0.0],[9.1536,63.538,0.0],[9.1547,63.5411,0.0],[9.1609,63.5453,0.0],[9.1688,63.5458,0.0],[9.1766,63.5484,0.0],[9.1776,63.5516,0.0],[9.1911,63.5547,0.0],[9.1943,63.5578,1.692],[9.2036,63.5589,0.0],[9.2005,63.5609,0.0],[9.2005,63.5661,0.0],[9.2203,63.5693,0.0],[9.2188,63.5708,0.0],[9.213,63.5714,14.1056],[9.212,63.5745,0.0],[9.2021,63.5771,0.0],[9.1943,63.5766,0.0],[9.1917,63.5729,0.0],[9.1875,63.575,0.0],[9.1833,63.575,0.0],[9.1813,63.5771,0.0],[9.1828,63.5828,0.0],[9.1771,63.5854,2.6907],[9.1708,63.5854,37.2342],[9.1641,63.5818,0.0],[9.163,63.5776,0.0],[9.1729,63.5771,7.5972],[9.1786,63.5734,4.8465],[9.1714,63.5724,0.0],[9.1667,63.5687,27.9734],[9.1589,63.5682,0.0],[9.1484,63.562,0.0],[9.1516,63.5589,0.0],[9.1438,63.5583,0.0],[9.138,63.562,15.4284],[9.1401,63.5661,0.0],[9.1453,63.5672,0.0],[9.1474,63.5734,5.2553],[9.1516,63.5755,0.7704],[9.1516,63.5786,0.0],[9.1495,63.5807,3.7193],[9.1286,63.5911,0.0],[9.1188,63.5917,0.0],[9.1063,63.5979,0.0],[9.0984,63.5984,0.0],[9.0938,63.6021,0.0],[9.0792,63.6021,0.0],[9.0688,63.5979,0.0],[9.0625,63.5979,20.9949],[9.0563,63.6021,0.0],[9.0354,63.6021,0.0],[9.0271,63.5979,15.8999],[9.0167,63.6,0.0],[9.013,63.5953,0.0],[9.012,63.5901,34.029],[9.0068,63.5891,0.0],[9.0057,63.5839,0.0],[9.0021,63.5833,0.0],[8.9938,63.5875,0.0],[8.9792,63.5812,29.5602],[8.9729,63.5812,0.0],[8.9714,63.5828,0.0],[8.9734,63.5849,0.0],[8.9828,63.588,0.0],[8.9797,63.5901,4.7673],[8.9797,63.5932,0.0],[8.9849,63.5964,0.0],[8.9859,63.5995,7.0891],[8.9911,63.6005,0.0],[8.9797,63.6078,0.0],[8.9891,63.6089,0.0],[8.9917,63.6146,0.0],[8.9896,63.6167,0.0],[8.9797,63.6172,0.0],[8.9786,63.6203,0.0],[8.9714,63.6214,0.0],[8.9714,63.6245,0.0],[8.987,63.6297,0.0],[8.988,63.6349,5.6911],[8.9995,63.638,0.0],[8.9995,63.6411,2.8716],[8.9958,63.6437,0.0],[8.9964,63.6453,0.0],[9.0016,63.6464,0.0],[9.0016,63.6516,0.0],[8.9958,63.6542,0.0],[8.9917,63.6521,8.7362],[8.9875,63.6542,0.0],[8.9771,63.6542,2.7155],[8.9729,63.6521,0.0],[8.9688,63.6542,0.776],[8.9646,63.6521,12.7508],[8.9396,63.6521,0.0],[8.9276,63.6474,0.0],[8.9229,63.6437,7.5392],[8.9146,63.6437,9.6523],[8.9,63.6479,0.0],[8.8958,63.6458,0.0],[8.8854,63.6458,0.0],[8.8724,63.638,3.5228],[8.8646,63.6375,16.6574],[8.8589,63.6401,11.852],[8.8599,63.6432,0.0],[8.8583,63.6437,6.4356],[8.8479,63.6437,0.0],[8.8333,63.6396,15.8572],[8.8313,63.6417,0.0],[8.8318,63.6432,8.5267],[8.8396,63.6458,0.0],[8.8646,63.6479,0.0],[8.8703,63.6505,4.534],[8.8661,63.6536,0.0],[8.8589,63.6547,0.0],[8.8641,63.6568,0.0],[8.8641,63.6599,0.0],[8.8396,63.6604,5.1302],[8.8333,63.6583,0.0],[8.8292,63.6604,5.3952],[8.8208,63.6604,4.2488]]],
[[[8.5536,63.6078,2.8129],[8.55,63.6083,0.0],[8.5484,63.6068,4.1843],[8.5521,63.6063,4.5241],[8.5536,63.6078,2.8129]]],
[[[9.1849,63.5464,4.9686],[9.1833,63.5479,0.0],[9.1818,63.5474,0.0],[9.1833,63.5458,4.7842],[9.1849,63.5464,4.9686]]],
[[[9.1938,63.5458,0.0],[9.1943,63.5443,0.0],[9.2,63.5417,3.4393],[9.2078,63.5443,0.0],[9.2141,63.5484,0.0],[9.2141,63.5536,0.0],[9.2083,63.5563,0.0],[9.2042,63.5542,0.0],[9.1964,63.5536,5.4332],[9.1901,63.5495,0.0],[9.1938,63.5458,0.0]]],
[[[9.2391,63.5547,0.0],[9.2391,63.5578,0.0],[9.2292,63.5604,1.523],[9.2172,63.5599,0.0],[9.2203,63.5578,0.0],[9.2214,63.5526,0.0],[9.2229,63.5521,13.9063],[9.2391,63.5547,0.0]]],
[[[9.1745,63.5911,0.0],[9.1714,63.5911,0.0],[9.1714,63.588,0.0],[9.1745,63.588,18.6457],[9.1745,63.5911,0.0]]],
[[[8.5578,63.6109,0.0],[8.5578,63.612,0.7543],[8.5547,63.612,0.0],[8.5547,63.6109,0.0],[8.5578,63.6109,0.0]]],
[[[8.5708,63.6146,16.766],[8.5771,63.6125,0.0],[8.5797,63.6161,0.0],[8.5917,63.6167,0.0],[8.5938,63.6188,6.1533],[8.5901,63.6214,3.9401],[8.5911,63.6245,0.0],[8.5833,63.625,0.0],[8.575,63.6208,6.8583],[8.55,63.6208,0.0],[8.5422,63.6182,0.0],[8.5479,63.6146,0.0],[8.5583,63.6146,0.0],[8.5625,63.6125,0.0],[8.5667,63.6125,0.0],[8.5708,63.6146,16.766]]],
[[[8.5995,63.6214,0.0],[8.5995,63.6224,3.4758],[8.5964,63.6224,10.2544],[8.5979,63.6208,0.0],[8.5995,63.6214,0.0]]],
[[[8.6328,63.637,4.8908],[8.6292,63.6375,0.0],[8.6276,63.6359,2.439],[8.6313,63.6354,0.0],[8.6328,63.637,4.8908]]],
[[[8.6083,63.6417,0.0],[8.6099,63.6432,0.0],[8.6,63.6458,0.0],[8.588,63.6453,0.0],[8.5938,63.6417,6.4861],[8.6083,63.6417,0.0]]],
[[[8.6354,63.6458,0.0],[8.6438,63.6458,0.0],[8.6458,63.6479,4.2457],[8.6438,63.65,0.0],[8.6396,63.6479,0.0],[8.6333,63.65,6.6266],[8.6276,63.6495,3.1231],[8.6276,63.6464,0.0],[8.6354,63.6458,0.0]]],
[[[8.6547,63.6495,8.4629],[8.6505,63.6464,0.0],[8.6563,63.6458,1.4479],[8.6641,63.6484,0.0],[8.6625,63.65,0.0],[8.6547,63.6495,8.4629]]],
[[[8.6411,63.6505,0.0],[8.6411,63.6516,4.8879],[8.638,63.6516,0.0],[8.6396,63.65,0.0],[8.6411,63.6505,0.0]]],
[[[8.4807,63.5682,9.1987],[8.4771,63.5687,5.5943],[8.4755,63.5672,0.9944],[8.4792,63.5667,0.0],[8.4807,63.5682,9.1987]]],
[[[8.4891,63.5797,0.0],[8.4891,63.5828,0.0],[8.4859,63.5839,0.0],[8.4833,63.5875,0.0],[8.4792,63.5854,22.2422],[8.475,63.5854,19.7383],[8.4708,63.5875,0.0],[8.4646,63.5875,8.371],[8.4604,63.5854,0.0],[8.4563,63.5875,0.0],[8.4401,63.587,9.3889],[8.4516,63.5807,0.0],[8.4505,63.5755,0.0],[8.4604,63.5708,0.0],[8.4661,63.5714,6.2497],[8.4651,63.5745,0.0],[8.4667,63.575,0.0],[8.475,63.575,16.2486],[8.4813,63.5729,0.0],[8.4828,63.5734,0.0],[8.4839,63.5787,0.0],[8.4891,63.5797,0.0]]],
[[[8.4328,63.5802,0.0],[8.4234,63.5818,0.0],[8.4245,63.5849,0.0],[8.4214,63.5859,0.0],[8.4203,63.5911,0.0],[8.4172,63.5922,7.7732],[8.4182,63.5953,0.0],[8.4125,63.5979,0.0],[8.4089,63.5953,6.7617],[8.412,63.5932,0.0],[8.4104,63.5917,0.0],[8.4,63.5917,0.0],[8.3917,63.5875,0.0],[8.3708,63.5875,0.0],[8.3651,63.5849,3.7866],[8.3703,63.5807,12.0912],[8.3714,63.5776,4.5946],[8.3786,63.5766,0.0],[8.3813,63.5729,0.0],[8.387,63.5724,5.1994],[8.3839,63.5693,0.0],[8.388,63.5672,0.0],[8.4021,63.5667,0.0],[8.4063,63.5646,0.0],[8.4208,63.5646,0.0],[8.4255,63.5682,0.6739],[8.4375,63.5687,0.0],[8.4401,63.5724,3.876],[8.4453,63.5734,0.0],[8.4438,63.575,0.0],[8.4375,63.575,9.0925],[8.4318,63.5776,2.9235],[8.4328,63.5802,0.0]]],
[[[8.5,63.5875,10.5347],[8.4964,63.587,2.2864],[8.4964,63.5839,0.9055],[8.5063,63.5833,0.0],[8.5099,63.5859,0.0],[8.5083,63.5875,0.0],[8.5,63.5875,10.5347]]],
[[[8.3932,63.5911,0.0],[8.3901,63.5911,0.0],[8.3901,63.5901,11.0068],[8.3917,63.5896,4.3034],[8.3932,63.5911,0.0]]],
[[[8.4875,63.5958,0.0],[8.4839,63.5953,0.0],[8.4839,63.5922,7.6932],[8.4958,63.5917,0.0],[8.4979,63.5938,11.139099999999999],[8.4958,63.5958,0.0],[8.4875,63.5958,0.0]]],
[[[8.4375,63.5979,3.0255],[8.4339,63.5974,0.0],[8.4339,63.5943,2.3076],[8.4411,63.5943,0.0],[8.4411,63.5974,11.8503],[8.4375,63.5979,3.0255]]],
[[[8.4245,63.5995,0.0],[8.4208,63.6,7.5666],[8.4193,63.5984,0.0],[8.4229,63.5979,0.0],[8.4245,63.5995,0.0]]],
[[[8.3479,63.5812,0.0],[8.3443,63.5797,4.6417],[8.3516,63.5797,6.8036],[8.3516,63.5807,0.0],[8.3479,63.5812,0.0]]],
[[[8.3792,63.6146,5.9175],[8.3833,63.6104,0.0],[8.3953,63.6109,0.0],[8.3854,63.6167,1.9319],[8.3776,63.6161,0.0],[8.3792,63.6146,5.9175]]],
[[[8.4771,63.6146,0.0],[8.4688,63.6146,0.0],[8.4646,63.6167,0.0],[8.4458,63.6167,0.0],[8.438,63.613,7.6143],[8.4479,63.6083,0.0],[8.4521,63.6104,0.0],[8.4667,63.6104,0.0],[8.475,63.6063,0.0],[8.4813,63.6083,4.2601],[8.487,63.6068,0.0],[8.487,63.6099,4.791],[8.4797,63.6109,0.0],[8.4771,63.6146,0.0]]],
[[[8.4182,63.6141,2.7966],[8.4167,63.6146,1.4751],[8.4151,63.613,5.4784],[8.4167,63.6125,13.2634],[8.4182,63.6141,2.7966]]],
[[[9.1245,63.6224,1.7915],[9.1214,63.6224,3.421],[9.1214,63.6214,0.0],[9.1229,63.6208,0.0],[9.1245,63.6224,1.7915]]],
[[[9.0068,63.6453,0.0],[9.0047,63.6422,0.0],[9.0083,63.6417,0.0],[9.0167,63.6458,0.0],[9.0245,63.6464,0.0],[9.025,63.6479,0.0],[9.0229,63.65,4.6063],[9.0146,63.65,0.0],[9.0068,63.6453,0.0]]],
[[[9.0896,63.6813,0.0],[9.0813,63.6813,17.5773],[9.0729,63.6854,0.0],[9.0667,63.6854,2.2746],[9.0625,63.6833,0.0],[9.0438,63.6833,0.0],[9.0328,63.6755,0.0],[9.0193,63.6745,0.0],[9.0193,63.6714,8.7111],[9.0266,63.6682,0.0],[9.0292,63.6646,0.0],[9.0333,63.6667,6.0932],[9.0563,63.6667,0.0],[9.0578,63.6661,4.023],[9.0583,63.6625,0.0],[9.0563,63.6604,18.7143],[9.0521,63.6625,0.0],[9.0443,63.662,0.0],[9.0443,63.6589,0.0],[9.0474,63.6568,11.182],[9.0422,63.6547,5.4535],[9.0453,63.6536,0.0],[9.0464,63.6505,13.7722],[9.0495,63.6484,20.4476],[9.0443,63.6474,0.0],[9.0432,63.6443,6.3792],[9.037,63.6422,0.0],[9.0276,63.6411,0.0],[9.0276,63.6359,0.0],[9.0307,63.6339,0.0],[9.0286,63.6297,9.4913],[9.0234,63.6286,0.0],[9.0224,63.6234,11.7136],[9.0172,63.6224,0.0],[9.0172,63.6172,12.6525],[9.0354,63.6125,0.0],[9.0396,63.6146,18.955],[9.0438,63.6125,0.0],[9.0688,63.6125,32.9792],[9.0729,63.6104,0.0],[9.0771,63.6125,29.7036],[9.0813,63.6104,0.0],[9.0854,63.6125,12.3319],[9.0917,63.6125,0.0],[9.1099,63.6172,0.0],[9.1141,63.6193,0.0],[9.1151,63.6224,0.0],[9.1203,63.6234,18.8008],[9.1229,63.6271,0.0],[9.1307,63.6255,0.0],[9.1307,63.6286,5.1059],[9.1276,63.6297,0.0],[9.1292,63.6312,0.0],[9.1396,63.6312,6.1618],[9.1479,63.6271,0.0],[9.1542,63.6312,0.0],[9.1703,63.6339,0.0],[9.1729,63.6375,0.0],[9.1693,63.6411,0.0],[9.1849,63.6464,0.0],[9.1833,63.6479,6.81],[9.1771,63.6479,8.3484],[9.1729,63.65,10.9926],[9.1604,63.65,0.0],[9.1563,63.6542,0.0],[9.1458,63.6542,0.0],[9.1417,63.6521,0.0],[9.1375,63.6521,0.0],[9.1333,63.6542,0.0],[9.1318,63.6536,0.0],[9.1333,63.65,15.287],[9.1313,63.6479,0.0],[9.1214,63.6505,0.0],[9.1266,63.6547,0.0],[9.1234,63.6568,0.0],[9.1224,63.6599,9.4264],[9.1125,63.6604,53.8966],[9.1068,63.6641,0.0],[9.1161,63.6693,0.0],[9.113,63.6724,6.0197],[9.1208,63.675,0.0],[9.1328,63.6755,0.0],[9.1297,63.6776,3.1891],[9.1286,63.6807,0.0],[9.1167,63.6771,0.0],[9.1125,63.6771,1.0772],[9.1083,63.6792,0.0],[9.1021,63.6771,0.0],[9.0938,63.6813,0.0],[9.0896,63.6813,0.0]]],
[[[8.8854,63.6563,0.0],[8.8818,63.6557,0.0],[8.8818,63.6547,0.0],[8.887,63.6547,8.157],[8.8854,63.6563,0.0]]],
[[[8.6708,63.6563,0.0],[8.6672,63.6547,0.0],[8.6792,63.6542,0.0],[8.6813,63.6563,0.0],[8.6792,63.6583,0.0],[8.675,63.6563,16.3891],[8.6708,63.6563,0.0]]],
[[[8.8542,63.6646,0.0],[8.8526,63.663,2.205],[8.8599,63.663,0.0],[8.8583,63.6646,0.0],[8.8542,63.6646,0.0]]],
[[[8.8911,63.6568,0.0],[8.8896,63.6583,0.0],[8.888,63.6578,3.0776],[8.888,63.6568,4.1768],[8.8911,63.6568,0.0]]],
[[[9.149,63.658,0.0],[9.1464,63.6578,0.0],[9.1464,63.6568,0.0],[9.1495,63.6568,7.6017],[9.149,63.658,0.0]]],
[[[8.8661,63.6651,0.9926],[8.8661,63.6661,0.0],[8.863,63.6661,0.0],[8.863,63.6651,4.0448],[8.8661,63.6651,0.9926]]],
[[[9.1724,63.6661,0.0],[9.163,63.6672,0.0],[9.1589,63.6693,0.0],[9.1599,63.6724,6.4637],[9.1542,63.675,0.0],[9.1464,63.6745,0.0],[9.1422,63.6724,10.6854],[9.1396,63.6688,0.0],[9.1401,63.6651,0.0],[9.1458,63.6625,0.0],[9.1557,63.662,0.0],[9.1583,63.6583,2.3346],[9.1641,63.6589,19.8568],[9.1609,63.662,0.0],[9.1703,63.663,0.0],[9.1724,63.6661,0.0]]]]}
,"properties": {"GID_2": "NOR.15.6_1","GID_0": "NOR","country": "Norway","GID_1": "NOR.15_1","province": "Sør-Trøndelag","NL_NAME_1": "NA","county": "Hitra","VARNAME_2": "NA","NL_NAME_2": "NA","TYPE_2": "Kommuner","ENGTYPE_2": "Municipality","CC_2": "NA","HASC_2": "NO.ST.HI","name": "Hitra.county","area_km2": 713.0994,"hist_schema_id": "Elevation0-9000","hist_area_km2": {"0": 108.0822,"25": 156.4825,"50": 139.3356,"75": 171.078,"100": 61.0028,"125": 21.5888,"150": 15.166,"175": 11.2089,"200": 9.3628,"225": 7.7354,"250": 6.9501,"275": 4.0755,"300": 0.8983,"325": 0.1136,"350": 0.0189}}}