{"type":"Feature","properties":{"GID_2":"NOR.17.23_1","GID_0":"NOR","country":"Norway","GID_1":"NOR.17_1","province":"Troms","NL_NAME_1":"NA","county":"Torsken","VARNAME_2":"NA","NL_NAME_2":"NA","TYPE_2":"Kommuner","ENGTYPE_2":"Municipality","CC_2":"NA","HASC_2":"NO.TR.TO","name":"Torsken.county"},
"geometry":{"type": "MultiPolygon","coordinates": [[[[16.6068,69.1599,0.0],[16.6083,69.1583,2.573],[16.6229,69.1583,0.0],[16.6266,69.162,0.0],[16.6229,69.1625,5.4907],[16.6188,69.1604,4.9811],[16.6068,69.1599,0.0]]],
[[[16.8224,69.1891,18.0568],[16.825,69.1875,0.0],[16.8286,69.188,0.0],[16.8245,69.1911,21.7178],[16.8193,69.1911,0.0],[16.8224,69.1891,18.0568]]],
[[[16.7818,69.2641,0.0],[16.7833,69.2625,0.0],[16.7958,69.2625,0.0],[16.8016,69.2682,0.0],[16.7896,69.2729,0.0],[16.7797,69.2703,0.0],[16.7833,69.2667,0.0],[16.7818,69.2641,0.0]]],
[[[16.7891,69.2911,12.7195],[16.7917,69.2896,0.0],[16.7953,69.2901,8.6305],[16.7911,69.2932,4.7623],[16.7859,69.2932,0.0],[16.7891,69.2911,12.7195]]],
[[[17.1364,69.3998,177.6592],[17.1361,69.4021,194.1721],[17.1259,69.402,0.0],[17.1255,69.4005,0.0],[17.1286,69.3984,0.0],[17.1245,69.3943,3.6095],[17.1167,69.3917,3.4534],[17.1104,69.3938,0.0],[17.1068,69.3932,0.0],[17.1042,69.3896,0.0],[17.1078,69.387,4.9668],[17.1057,69.3839,0.0],[17.0958,69.3833,3.0232],[17.0833,69.3896,0.0],[17.0651,69.3922,28.6128],[17.0682,69.3974,0.0],[17.0583,69.4021,0.0],[17.0521,69.4,185.5603],[17.0417,69.4,193.3209],[17.0375,69.3979,398.9549],[17.025,69.3979,195.0533],[17.0187,69.4,0.0],[17.0141,69.3964,0.0],[17.0063,69.3938,0.7423],[16.9854,69.3938,0.7158],[16.9771,69.3979,0.0],[16.9604,69.4,303.5865],[16.9521,69.4042,15.6242],[16.9479,69.4021,217.9668],[16.9375,69.4021,0.0],[16.9339,69.3995,0.0],[16.9411,69.3922,7.2135],[16.9292,69.3917,15.6603],[16.9193,69.3891,0.0],[16.9286,69.3839,0.0],[16.9245,69.3797,0.0],[16.9172,69.3786,0.0],[16.9161,69.3755,0.0],[16.9063,69.3729,0.0],[16.8917,69.3729,406.8287],[16.8875,69.375,8.0116],[16.8833,69.3729,236.6545],[16.875,69.3729,85.0707],[16.8734,69.3745,103.2493],[16.8792,69.375,16.966],[16.8807,69.3766,0.0],[16.8693,69.3766,38.6594],[16.8672,69.3734,0.0],[16.8786,69.3682,22.1442],[16.8797,69.3651,0.0],[16.8854,69.3625,0.0],[16.9042,69.3625,0.0],[16.9104,69.3646,88.9072],[16.9167,69.3625,0.0],[16.9208,69.3646,78.2369],[16.9271,69.3625,0.0],[16.9333,69.3646,55.7784],[16.9375,69.3625,0.0],[16.9562,69.3625,6.0937],[16.9604,69.3604,0.0],[16.9979,69.3604,0.0],[17.0026,69.3662,0.0],[17.0125,69.3688,0.0],[17.0271,69.3688,0.0],[17.0313,69.3708,0.0],[17.0396,69.3708,0.0],[17.0438,69.3688,0.0],[17.0604,69.3688,31.6575],[17.0646,69.3667,0.0],[17.0708,69.3667,0.0],[17.0854,69.3625,0.0],[17.125,69.3604,12.9391],[17.1292,69.3583,0.0],[17.1583,69.3562,0.0],[17.1625,69.3542,0.0],[17.1688,69.3562,14.2033],[17.1833,69.3521,0.0],[17.1896,69.3521,31.094],[17.1995,69.3474,214.3886],[17.1958,69.3438,502.1239],[17.1708,69.3438,549.6104],[17.1667,69.3458,484.1358],[17.15,69.3458,361.2764],[17.1458,69.3479,505.4014],[17.1333,69.3479,360.3456],[17.1167,69.3562,12.8429],[17.0958,69.3542,237.4776],[17.0917,69.3521,395.789],[17.0417,69.3521,476.8936],[17.0333,69.3562,372.2083],[17.0208,69.3562,0.0],[17.0193,69.3547,0.0],[17.025,69.3542,0.0],[17.0307,69.3516,0.0],[17.0318,69.3484,0.0],[17.0396,69.3479,0.0],[17.0547,69.3401,0.0],[17.0625,69.3396,62.7854],[17.075,69.3354,0.0],[17.1021,69.3354,0.0],[17.1063,69.3375,0.0],[17.1146,69.3375,0.0],[17.1229,69.3438,43.0951],[17.1417,69.3438,72.4729],[17.1458,69.3417,0.0],[17.1521,69.3417,36.4407],[17.1536,69.3401,0.0],[17.1375,69.3396,0.0],[17.1313,69.3354,4.8417],[17.1271,69.3354,0.0],[17.1229,69.3333,0.0],[17.1146,69.3333,0.0],[17.1099,69.3297,9.3786],[17.1026,69.3287,4.1596],[17.0995,69.3234,7.4673],[17.0896,69.3208,0.0],[17.0792,69.325,0.0],[17.0479,69.325,233.1451],[17.0417,69.3229,426.0143],[17.0401,69.3245,298.8485],[17.0432,69.3287,75.7006],[17.0271,69.3292,51.1739],[17.0229,69.325,272.0709],[17.0083,69.325,320.6108],[17.0042,69.3271,91.7104],[16.9958,69.3271,12.5892],[16.9943,69.3255,70.0155],[16.9995,69.3234,105.925],[16.9708,69.3229,0.0],[16.9583,69.3187,1.5995],[16.9521,69.3208,0.0],[16.9396,69.3208,0.0],[16.9271,69.3167,301.8596],[16.9063,69.3167,10.1039],[16.8964,69.3141,0.0],[16.8995,69.312,30.1155],[16.9005,69.3089,-0.0154],[16.9203,69.2995,16.3002],[16.9193,69.2963,0.0],[16.9208,69.2958,0.0],[16.9292,69.2958,0.0],[16.9354,69.2979,1.8493],[16.9396,69.2958,0.0],[16.9583,69.2958,0.0],[16.9688,69.3,0.0],[16.9792,69.3,0.0],[16.9839,69.3037,0.0],[16.9938,69.3042,0.0],[16.9979,69.3063,8.9356],[17.0182,69.3057,0.0],[17.0182,69.3026,4.9747],[17.0083,69.3,13.1696],[16.9938,69.3,0.0],[16.9839,69.2974,0.0],[16.9807,69.2922,15.5064],[16.9651,69.2891,26.7581],[16.9682,69.287,187.9756],[16.9667,69.2854,377.4469],[16.9526,69.287,4.6703],[16.9505,69.2839,4.2764],[16.9536,69.2828,8.7922],[16.9521,69.2792,0.0],[16.9542,69.2771,1.7142],[16.9708,69.275,0.0],[16.9771,69.2792,7.7663],[16.9854,69.2792,0.0],[16.9917,69.2833,22.0734],[17.0021,69.2833,0.0],[17.0063,69.2854,4.9692],[17.0104,69.2833,0.0],[17.0292,69.2833,4.8053],[17.0375,69.2792,0.0],[17.0667,69.2792,0.0],[17.0682,69.2786,0.0],[17.0672,69.2755,4.6472],[17.0703,69.2734,181.9074],[17.0625,69.2708,410.0415],[17.0521,69.2708,327.4969],[17.0479,69.2688,420.0896],[17.0438,69.2708,289.8637],[17.0297,69.2714,267.7906],[17.037,69.2755,4.1224],[17.0354,69.2771,0.0],[17.0229,69.2771,0.0],[17.013,69.2745,8.9835],[17.0109,69.2714,0.0],[17.0167,69.2688,0.0],[17.0438,69.2646,66.4147],[17.0521,69.2604,0.0],[17.0708,69.2604,0.0],[17.0755,69.2641,21.0835],[17.0828,69.2651,0.0],[17.0922,69.2766,21.9692],[17.1083,69.2813,29.9816],[17.1167,69.2813,0.0],[17.1292,69.2854,11.8979],[17.1354,69.2833,0.0],[17.1417,69.2833,0.0],[17.1458,69.2854,9.5681],[17.1563,69.2854,0.0],[17.1604,69.2875,0.0],[17.1917,69.2875,69.8013],[17.2,69.2833,387.7362],[17.2078,69.2828,444.9295],[17.2062,69.2813,449.504],[17.1854,69.2813,431.897],[17.1813,69.2833,209.062],[17.1771,69.2813,380.8238],[17.1667,69.2813,59.0063],[17.1479,69.275,98.0535],[17.1375,69.275,10.3725],[17.1333,69.2708,258.4406],[17.1271,69.2729,53.4429],[17.1188,69.2729,0.0],[17.1151,69.2703,0.0],[17.1141,69.2672,25.7872],[17.1068,69.2662,0.0],[17.1099,69.263,53.7392],[17.1026,69.262,0.0],[17.0984,69.2547,0.0],[17.1016,69.2536,0.0],[17.1005,69.2505,0.0],[17.1078,69.2474,5.6146],[17.1089,69.2443,0.0],[17.113,69.2422,0.0],[17.1208,69.2417,0.0],[17.1255,69.2453,0.0],[17.1313,69.2458,0.0],[17.1417,69.25,0.0],[17.1516,69.2495,0.0],[17.1479,69.2458,9.035],[17.1396,69.2458,0.0],[17.1297,69.2432,0.0],[17.1276,69.2401,0.0],[17.1307,69.2391,0.0],[17.1307,69.2359,21.9498],[17.1245,69.2297,0.0],[17.1109,69.2266,3.3142],[17.1141,69.2234,198.4158],[17.1083,69.2188,523.3939],[17.1042,69.2208,533.0507],[17.0964,69.2214,204.9325],[17.0979,69.225,42.6871],[17.0958,69.2271,0.0],[17.0896,69.2271,0.0],[17.0854,69.2292,0.0],[17.075,69.2292,0.0],[17.0708,69.2312,0.0],[17.0583,69.2312,23.2478],[17.0542,69.2333,0.0],[17.0479,69.2333,5.7531],[17.0438,69.2354,0.0],[17.0375,69.2354,19.5286],[17.025,69.2396,0.0],[17.0187,69.2396,4.2916],[17.0146,69.2417,0.0],[17.0083,69.2417,4.0706],[17.0021,69.2438,9.253],[16.9984,69.2401,26.6006],[17.0125,69.2396,43.4905],[17.0182,69.2359,243.3035],[17.0021,69.2354,289.6351],[16.9974,69.2318,557.9882],[16.9938,69.2312,477.9829],[16.9922,69.2318,418.3244],[16.9932,69.2349,161.1069],[16.9875,69.2375,91.3654],[16.9813,69.2354,318.8126],[16.9729,69.2354,135.7969],[16.9688,69.2375,11.8591],[16.9375,69.2375,0.0],[16.9333,69.2354,34.6983],[16.9271,69.2375,0.0],[16.9255,69.2359,27.4118],[16.9286,69.2338,73.5266],[16.9167,69.2333,318.0767],[16.9125,69.2292,411.5212],[16.9042,69.2292,413.4308],[16.9,69.2312,155.1581],[16.8901,69.2307,0.0],[16.8891,69.2276,34.355],[16.8818,69.2266,0.0],[16.8797,69.2234,8.1816],[16.9146,69.2188,14.5239],[16.9229,69.2146,0.0],[16.9333,69.2146,35.381],[16.9391,69.212,3.1261],[16.9401,69.2089,0.0],[16.9432,69.2068,34.7397],[16.9333,69.2042,56.539],[16.9146,69.2042,103.0534],[16.9104,69.2063,0.0],[16.9042,69.2063,49.3477],[16.8979,69.2083,0.0],[16.8901,69.2057,0.0],[16.8974,69.2026,47.9233],[16.8875,69.2021,0.0],[16.8859,69.2005,0.0],[16.8917,69.1979,0.0],[16.9042,69.1979,0.0],[16.9083,69.2,0.0],[16.9354,69.2,26.6261],[16.9396,69.1979,0.0],[16.9625,69.1979,13.6469],[16.9708,69.1937,0.0],[16.9786,69.1932,88.4033],[16.9854,69.1896,0.0],[17.0438,69.1896,3.7788],[17.0521,69.1854,0.0],[17.0646,69.1854,42.8605],[17.0714,69.1818,0.0],[17.0792,69.1813,16.2401],[17.0833,69.1792,0.0],[17.0875,69.1813,18.9821],[17.1042,69.1813,0.0],[17.1146,69.1854,10.5021],[17.1292,69.1854,0.0],[17.15,69.1917,20.3349],[17.1833,69.1937,0.0],[17.2065,69.2006,25.096],[17.1998,69.203,56.3091],[17.1996,69.2047,80.3179],[17.2248,69.205,253.9917],[17.2237,69.214,611.7598],[17.2111,69.2138,635.6417],[17.2105,69.2183,574.1725],[17.1979,69.2182,639.0842],[17.1956,69.2362,426.1736],[17.183,69.236,379.8833],[17.1819,69.245,210.5051],[17.2323,69.2457,454.782],[17.2301,69.2637,475.1523],[17.2553,69.2641,566.5085],[17.2531,69.2821,689.4993],[17.2657,69.2823,784.4056],[17.2652,69.2868,817.8005],[17.3031,69.2874,712.258],[17.3026,69.2919,566.02],[17.3532,69.2926,291.0045],[17.3526,69.2972,374.7188],[17.3779,69.2975,484.03],[17.3763,69.311,683.0526],[17.3637,69.3108,638.7861],[17.3631,69.3153,729.8754],[17.3378,69.315,670.8841],[17.3372,69.3195,711.369],[17.3119,69.3191,589.9033],[17.3108,69.3281,361.9974],[17.2981,69.3279,297.6056],[17.2965,69.3414,315.1805],[17.2838,69.3412,461.3713],[17.2827,69.3502,749.8829],[17.2193,69.3493,511.2296],[17.2187,69.3538,725.0138],[17.206,69.3536,618.8425],[17.2054,69.3581,708.4902],[17.1928,69.3579,333.5021],[17.1905,69.3759,451.1871],[17.1778,69.3757,426.889],[17.176,69.3892,566.0752],[17.1633,69.389,437.3354],[17.1627,69.3935,428.2361],[17.15,69.3933,586.4206],[17.1494,69.3978,495.4673],[17.1367,69.3976,173.6682],[17.1364,69.3998,177.6592]]],
[[[17.0036,69.3391,4.8802],[17.0063,69.3375,0.0],[17.0224,69.338,13.9219],[17.0167,69.3417,0.0],[17.0005,69.3411,3.4896],[17.0036,69.3391,4.8802]]],
[[[17.0708,69.3604,20.6116],[17.0667,69.3604,34.8129],[17.0625,69.3625,0.0],[17.0464,69.362,46.9313],[17.0479,69.3604,112.6583],[17.0542,69.3604,66.5946],[17.0583,69.3583,97.8019],[17.0786,69.3588,15.6668],[17.0771,69.3604,15.9152],[17.0708,69.3604,20.6116]]]]}}