{"type": "Feature","bbox": [10.6819,60.4611,11.1622,60.7755],"geometry": {"type": "MultiPolygon","coordinates": [[[[11.1622,60.5949,119.5],[11.161,60.5994,119.5],[11.1519,60.5988,119.5],[11.1482,60.6121,119.5],[11.139099999999999,60.6115,119.5],[11.1342,60.6293,119.5],[11.1251,60.6287,119.5],[11.1227,60.6376,119.5],[11.1136,60.637,119.5],[11.1111,60.6459,119.5],[11.102,60.6453,119.5],[11.1008,60.6497,119.5],[11.0917,60.6491,119.5],[11.0893,60.658,119.5],[11.0802,60.6574,119.5],[11.0789,60.6619,119.5],[11.0698,60.6613,119.5],[11.0686,60.6657,119.5],[11.0595,60.6651,119.5],[11.057,60.674,119.5],[11.0479,60.6734,119.5],[11.0467,60.6778,119.5],[11.0376,60.6772,119.5],[11.0363,60.6817,119.5],[11.0273,60.6811,119.5],[11.026,60.6855,119.5],[11.0169,60.6849,119.5],[11.0157,60.6893,119.5],[11.0066,60.6887,119.5],[11.0053,60.6932,119.5],[10.9962,60.6926,119.5],[10.9937,60.7015,119.5],[10.9846,60.7008,119.5],[10.9834,60.7053,119.5],[10.9743,60.7047,119.5],[10.973,60.7091,119.5],[10.9639,60.7085,119.5],[10.9626,60.713,119.5],[10.9535,60.7123,119.5],[10.9523,60.7168,119.5],[10.9432,60.7162,119.5],[10.9419,60.7206,119.5],[10.9237,60.7194,119.5],[10.9224,60.7238,119.5],[10.9133,60.7232,119.5],[10.9121,60.7277,119.5],[10.903,60.7271,119.5],[10.9017,60.7315,119.5],[10.8926,60.7309,119.5],[10.8913,60.7353,119.5],[10.8822,60.7347,119.5],[10.881,60.7392,119.5],[10.8718,60.7385,119.5],[10.8706,60.743,119.5],[10.8615,60.7424,119.5],[10.8602,60.7468,119.5],[10.8511,60.7462,119.5],[10.8498,60.7506,119.5],[10.8407,60.75,119.5],[10.8394,60.7545,119.5],[10.8212,60.7532,119.5],[10.8199,60.7577,119.5],[10.8108,60.757,119.5],[10.8095,60.7615,119.5],[10.7913,60.7602,119.5],[10.79,60.7647,119.5],[10.7809,60.764,119.5],[10.7796,60.7685,119.5],[10.7614,60.7672,119.5],[10.7601,60.7717,119.5],[10.751,60.7711,119.5],[10.7497,60.7755,119.5],[10.7406,60.7749,119.5],[10.7419,60.7704,119.5],[10.7236,60.7692,119.5],[10.7249,60.7647,134.8277],[10.7067,60.7635,287.0144],[10.708,60.759,332.8215],[10.6989,60.7584,369.2207],[10.7028,60.7451,373.6468],[10.7119,60.7457,334.7416],[10.7132,60.7412,372.03],[10.7223,60.7419,374.3263],[10.7288,60.7197,408.6914],[10.7379,60.7203,402.2501],[10.7417,60.707,409.9612],[10.7508,60.7076,400.3636],[10.7572,60.6854,344.9795],[10.7391,60.6841,404.5046],[10.7442,60.6663,329.7971],[10.7351,60.6657,335.4229],[10.7364,60.6613,318.8667],[10.7001,60.6587,365.9542],[10.6988,60.6632,383.0541],[10.6897,60.6626,376.4363],[10.691,60.6581,361.3059],[10.6819,60.6575,362.5823],[10.6832,60.653,367.5398],[10.6923,60.6537,352.7056],[10.6949,60.6448,357.9826],[10.713,60.646,336.7289],[10.7156,60.6372,346.0251],[10.7065,60.6365,359.0163],[10.7078,60.6321,376.8829],[10.6987,60.6315,391.1963],[10.7013,60.6226,407.32],[10.6923,60.6219,421.0775],[10.6948,60.6131,425.6462],[10.6858,60.6124,427.7896],[10.6871,60.608,430.55],[10.6961,60.6086,424.3836],[10.7,60.5953,429.7511],[10.6909,60.5947,433.1102],[10.7012,60.5591,488.9329],[10.7103,60.5597,488.541],[10.7141,60.5464,506.3438],[10.7051,60.5458,507.7333],[10.7115,60.5236,524.9782],[10.7025,60.5229,564.0883],[10.7037,60.5185,544.7498],[10.7128,60.5191,523.8539],[10.7141,60.5147,530.4673],[10.7322,60.5159,577.0146],[10.7334,60.5115,590.9724],[10.7425,60.5121,592.5324],[10.7437,60.5077,593.4003],[10.7528,60.5083,586.8516],[10.7541,60.5039,596.2307],[10.7721,60.5051,630.4667],[10.7734,60.5007,635.3493],[10.7825,60.5013,689.372],[10.7837,60.4968,655.8114],[10.7928,60.4975,658.5303],[10.794,60.493,656.8876],[10.8121,60.4943,598.0269],[10.8134,60.4898,577.7761],[10.8224,60.4904,604.6178],[10.8237,60.486,573.7601],[10.8327,60.4866,654.8293],[10.834,60.4822,650.3418],[10.8521,60.4834,640.857],[10.8533,60.479,603.5637],[10.9075,60.4827,772.1024],[10.9125,60.4649,692.471],[10.9216,60.4655,681.9208],[10.9228,60.4611,753.969],[10.9499,60.4629,654.9879],[10.9424,60.4896,344.9508],[10.9605,60.4908,441.8959],[10.9593,60.4953,505.2738],[10.9773,60.4965,411.1923],[10.9761,60.5009,401.5694],[11.0032,60.5028,531.498],[11.002,60.5072,595.9588],[11.0291,60.509,493.6388],[11.0279,60.5135,504.1766],[11.046,60.5147,493.3388],[11.0447,60.5192,499.2941],[11.0991,60.5228,538.4417],[11.0978,60.5272,575.4932],[11.1069,60.5278,490.707],[11.1032,60.5412,555.2267],[11.1122,60.5418,539.871],[11.1086,60.5551,577.1198],[11.1176,60.5557,582.6634],[11.1139,60.5691,598.7771],[11.123,60.5697,604.254],[11.1193,60.583,505.555],[11.1284,60.5836,586.3132],[11.1271,60.5881,520.1235],[11.1453,60.5893,130.738],[11.1441,60.5937,119.5],[11.1622,60.5949,119.5]]]]}
,"properties": {"GID_2": "NOR.11.14_1","GID_0": "NOR","country": "Norway","GID_1": "NOR.11_1","province": "Oppland","NL_NAME_1": "NA","county": "ØstreToten","VARNAME_2": "NA","NL_NAME_2": "NA","TYPE_2": "Kommuner","ENGTYPE_2": "Municipality","CC_2": "NA","HASC_2": "NO.OP.OT","name": "Østre_Toten.county","area_km2": 549.521,"hist_schema_id": "Elevation0-9000","hist_area_km2": {"125": 67.9857,"150": 9.9441,"175": 9.8513,"200": 15.7232,"225": 17.6216,"250": 19.2307,"275": 18.3589,"300": 18.6188,"325": 16.0778,"350": 20.2819,"375": 20.006,"400": 20.6982,"425": 17.5665,"450": 16.0689,"475": 20.1453,"500": 31.33,"525": 31.7391,"550": 21.9628,"575": 24.2208,"600": 27.5893,"625": 21.7051,"650": 18.7157,"675": 17.7877,"700": 17.0915,"725": 13.9181,"750": 8.3851,"775": 4.0631,"800": 2.0524,"825": 0.7709,"850": 0.0104}}}