{"type":"Feature","properties":{"GID_2":"NOR.17.20_1","GID_0":"NOR","country":"Norway","GID_1":"NOR.17_1","province":"Troms","NL_NAME_1":"NA","county":"Skjervøy","VARNAME_2":"NA","NL_NAME_2":"NA","TYPE_2":"Kommuner","ENGTYPE_2":"Municipality","CC_2":"NA","HASC_2":"NO.TR.SK","name":"Skjervøy.county"},
"geometry":{"type": "MultiPolygon","coordinates": [[[[20.7062,69.8479,85.743],[20.7047,69.8464,168.9809],[20.7099,69.8464,80.4618],[20.7099,69.8474,51.773],[20.7062,69.8479,85.743]]],
[[[20.7059,69.8158,12.303],[20.7205,69.8226,7.464],[20.7315,69.8323,71.8816],[20.729,69.8387,58.4898],[20.7083,69.8417,408.3338],[20.7042,69.8438,273.3267],[20.6813,69.8438,368.2592],[20.6797,69.8453,295.6036],[20.6896,69.85,122.526],[20.7016,69.8505,40.5502],[20.6984,69.8526,21.9882],[20.6995,69.8557,0.0],[20.6917,69.8562,5.9049],[20.688,69.8588,0.0],[20.6911,69.8641,0.0],[20.688,69.8662,1.3124],[20.6901,69.8682,2.5498],[20.6953,69.8693,0.0],[20.6995,69.8734,0.0],[20.6984,69.8766,0.7045],[20.6995,69.8786,1.4254],[20.6964,69.8807,5.3364],[20.7068,69.8912,3.3363],[20.712,69.8922,8.163],[20.7151,69.8953,15.8956],[20.7224,69.8964,-0.2755],[20.7255,69.8995,1.0806],[20.7328,69.9005,0.0],[20.7391,69.9068,0.7407],[20.7292,69.9125,2.6957],[20.7229,69.9125,11.9057],[20.7188,69.9104,55.5282],[20.6958,69.9104,0.0],[20.6911,69.9068,37.6668],[20.6839,69.9057,1.7315],[20.6818,69.9036,32.0461],[20.6833,69.9021,50.4692],[20.6911,69.9016,110.7199],[20.687,69.8964,305.6278],[20.675,69.8958,438.5265],[20.6708,69.8938,522.4338],[20.6646,69.8958,385.0988],[20.6583,69.8958,359.2271],[20.6542,69.8979,282.3185],[20.6375,69.8979,147.4081],[20.6307,69.9016,0.0],[20.6229,69.9021,1.8308],[20.6188,69.9042,0.0],[20.6,69.9042,17.1652],[20.5938,69.9063,0.0],[20.5875,69.9042,104.3916],[20.5833,69.9063,1.1237],[20.5703,69.8943,131.8348],[20.5583,69.8938,30.7822],[20.5526,69.8891,2.0752],[20.5599,69.8849,0.0],[20.5589,69.8818,0.0],[20.562,69.8797,68.226],[20.5484,69.8651,0.0],[20.5625,69.8646,229.5852],[20.5641,69.863,325.9153],[20.5542,69.8604,253.367],[20.5438,69.8604,43.7531],[20.5391,69.8568,98.1604],[20.5318,69.8557,16.5446],[20.5281,69.852,27.0599],[20.5586,69.852,440.6373],[20.5585,69.8474,403.266],[20.5975,69.8473,898.2367],[20.5974,69.8428,957.3937],[20.6363,69.8427,497.9286],[20.6362,69.8382,749.1334],[20.6621,69.8381,502.266],[20.662,69.8336,634.2606],[20.675,69.8335,714.3444],[20.6747,69.8245,845.5065],[20.6877,69.8245,547.5211],[20.6875,69.82,377.0154],[20.7005,69.8199,188.8575],[20.7005,69.815,15.6385],[20.7059,69.8158,12.303]]],
[[[20.6875,69.9187,19.8459],[20.6818,69.9213,0.0],[20.6833,69.9229,4.5679],[20.6891,69.9234,4.1663],[20.6833,69.9271,0.0],[20.6771,69.925,46.3777],[20.6667,69.925,0.0],[20.6609,69.9203,0.0],[20.6651,69.9172,4.4616],[20.6688,69.9167,0.0],[20.6734,69.9203,0.0],[20.6771,69.9208,0.0],[20.6786,69.9193,7.8079],[20.6755,69.9151,0.0],[20.6833,69.9146,6.1392],[20.6875,69.9125,0.0],[20.6995,69.9151,3.7998],[20.7016,69.9172,0.0],[20.6958,69.9208,0.0],[20.6875,69.9187,19.8459]]],
[[[20.6646,69.9396,5.9779],[20.6682,69.9401,0.0],[20.6828,69.9547,0.0],[20.6797,69.9578,12.6406],[20.6849,69.9641,0.0],[20.6422,69.9859,46.7005],[20.6432,69.9891,0.0],[20.6391,69.9912,12.547],[20.6292,69.9917,0.0],[20.6245,69.988,0.0],[20.6172,69.987,0.0],[20.6172,69.9838,0.0],[20.6193,69.9818,0.0],[20.6307,69.9755,15.858],[20.6255,69.9703,0.0],[20.6286,69.9672,0.0],[20.6245,69.963,0.0],[20.6172,69.962,0.0],[20.6089,69.9526,0.0],[20.6161,69.9495,9.4689],[20.6151,69.9464,0.0],[20.625,69.9417,0.0],[20.6312,69.9417,0.0],[20.6458,69.9375,0.0],[20.6604,69.9375,0.0],[20.6646,69.9396,5.9779]]],
[[[20.8083,70.0458,0.0],[20.8021,70.0458,0.0],[20.7958,70.0479,0.0],[20.7859,70.0453,0.0],[20.7932,70.0411,0.0],[20.7917,70.0396,0.0],[20.7833,70.0396,0.0],[20.7771,70.0417,0.0],[20.7755,70.0401,0.0],[20.7786,70.038,0.0],[20.775,70.0354,4.2273],[20.7646,70.0354,0.0],[20.7521,70.0313,0.0],[20.7458,70.0333,0.0],[20.7422,70.0328,0.0],[20.737,70.0276,3.0246],[20.7234,70.0245,0.0],[20.713,70.0141,0.0],[20.7141,70.0109,3.6551],[20.7109,70.0068,0.0],[20.7141,70.0057,0.0],[20.713,70.0026,0.0],[20.7203,69.9995,0.0],[20.7193,69.9964,0.0],[20.7359,69.988,0.0],[20.7453,69.987,117.9393],[20.7422,69.9818,0.0],[20.7536,69.9766,67.3337],[20.7526,69.9734,0.0],[20.7557,69.9724,27.312],[20.7505,69.9661,0.0],[20.7536,69.9641,41.2337],[20.7505,69.9589,5.9669],[20.7557,69.9557,61.8566],[20.7547,69.9526,0.0],[20.7745,69.9432,15.5411],[20.7734,69.9401,0.0],[20.7943,69.9297,0.0],[20.8104,69.9271,9.9476],[20.8188,69.9229,0.0],[20.8312,69.9229,0.0],[20.8375,69.9208,0.0],[20.8417,69.9229,2.109],[20.8521,69.9229,0.0],[20.8729,69.9292,0.0],[20.8813,69.9292,0.0],[20.8937,69.9333,6.4012],[20.9188,69.9354,0.0],[20.9234,69.9391,0.0],[20.9375,69.9417,0.0],[20.9422,69.9453,3.4947],[20.9495,69.9464,0.0],[20.9589,69.9557,33.2516],[20.9661,69.9568,0.0],[20.9682,69.9589,0.0],[20.9557,69.9661,0.0],[20.9479,69.9667,31.0491],[20.9422,69.9703,1.0],[20.9458,69.9708,1.0],[20.9521,69.9688,0.0],[20.9583,69.9708,14.2686],[20.9646,69.9688,0.0],[20.9745,69.9714,0.0],[20.9813,69.9771,19.2215],[20.9938,69.9792,0.0],[20.9979,69.9812,0.0],[21.0063,69.9812,0.0],[21.0104,69.9833,23.6879],[21.025,69.9833,0.0],[21.0313,69.9812,0.0],[21.0354,69.9833,16.2525],[21.0458,69.9833,0.0],[21.0505,69.987,12.5461],[21.0578,69.988,0.0],[21.0609,69.9912,0.0],[21.0682,69.9922,0.0],[21.0703,69.9943,0.0],[21.0672,69.9964,17.8708],[21.0682,69.9995,12.2399],[21.0583,70.0,0.0],[21.0375,69.9938,127.2981],[21.0276,69.9943,105.5398],[21.0297,69.9974,0.0],[21.037,69.9984,0.0],[21.0339,70.0005,0.0],[21.0349,70.0036,14.7328],[21.0333,70.0042,11.2842],[21.0271,70.0042,0.0],[21.0172,70.0016,0.0],[21.0125,69.9979,70.0928],[21.0021,69.9979,24.9123],[20.9979,69.9958,81.0186],[20.9896,69.9958,97.0819],[20.9813,70.0,19.4025],[20.9729,70.0,0.0],[20.963,69.9974,0.0],[20.9589,69.9932,0.0],[20.9661,69.9891,0.0],[20.9599,69.9818,41.9101],[20.95,69.9792,29.3376],[20.9417,69.9792,0.0],[20.9349,69.9828,0.0],[20.9276,69.9838,9.4039],[20.8984,69.9984,4.185],[20.9057,70.0016,0.0],[20.9,70.0042,12.8398],[20.8922,70.0047,48.2084],[20.8932,70.0078,5.2417],[20.8776,70.0089,67.2969],[20.8786,70.0162,0.0],[20.8609,70.0214,28.3874],[20.862,70.0245,0.0],[20.8495,70.0307,0.0],[20.8312,70.0333,58.2113],[20.8271,70.0354,14.4598],[20.8208,70.0354,39.8875],[20.8167,70.0375,0.0],[20.8125,70.0354,61.7553],[20.8089,70.0359,36.5759],[20.8047,70.0391,0.0],[20.8068,70.0411,0.0],[20.8125,70.0417,0.0],[20.8141,70.0432,0.0],[20.8083,70.0458,0.0]]],
[[[21.0724,70.0151,0.0],[21.0714,70.013,4.3346],[21.0729,70.0125,4.8682],[21.0812,70.0125,0.0],[21.0911,70.0151,0.0],[21.0932,70.0182,0.0],[21.0854,70.0208,0.0],[21.0755,70.0182,0.0],[21.0724,70.0151,0.0]]],
[[[20.8729,70.0271,0.0],[20.8714,70.0255,0.0],[20.8766,70.0255,0.0],[20.8766,70.0266,0.0],[20.8729,70.0271,0.0]]],
[[[21.0125,70.0437,19.8955],[21.0068,70.0463,3.8115],[21.0078,70.0495,0.0],[21.0057,70.0516,0.0],[20.9984,70.0547,0.0],[20.9995,70.0578,0.0],[20.9938,70.0604,23.7107],[20.9833,70.0583,104.5234],[20.9786,70.0547,252.3896],[20.9714,70.0537,83.1603],[20.9651,70.0474,0.0],[20.9745,70.0443,67.1301],[20.9609,70.0432,0.0],[20.9536,70.0359,154.0693],[20.9464,70.0349,0.0],[20.9411,70.0297,0.0],[20.9339,70.0286,0.0],[20.9286,70.0234,142.3502],[20.9214,70.0224,0.0],[20.9182,70.0193,33.7686],[20.9125,70.0188,0.0],[20.9109,70.0172,0.0],[20.9141,70.0162,0.0],[20.913,70.013,0.0],[20.9161,70.012,0.0],[20.9151,70.0089,0.0],[20.9312,70.0042,0.0],[20.9396,70.0042,0.0],[20.9438,70.0062,0.0],[20.9583,70.0062,0.0],[20.9625,70.0083,0.0],[20.9729,70.0083,0.0],[20.9776,70.012,0.0],[20.9849,70.013,0.0],[20.988,70.0162,0.0],[20.9953,70.0172,0.0],[21.0026,70.0245,0.0],[21.0099,70.0255,0.0],[21.0042,70.0292,26.0124],[20.9734,70.0297,0.0],[20.9776,70.0349,10.2884],[21.0,70.0354,0.0],[21.0047,70.0391,27.6767],[21.012,70.0401,0.0],[21.0141,70.0422,25.7415],[21.0125,70.0437,19.8955]]],
[[[21.2672,70.05,97.9003],[21.2604,70.0521,28.8856],[21.2333,70.0521,67.7688],[21.2286,70.0484,77.2534],[21.2188,70.0458,134.29],[21.2021,70.0458,0.0],[21.1964,70.0401,3.4321],[21.2188,70.0292,0.0],[21.225,70.0292,25.6627],[21.2292,70.0271,9.2106],[21.2542,70.0271,0.0],[21.2557,70.0286,0.0],[21.2526,70.0307,5.512],[21.275,70.0354,0.0],[21.2786,70.038,0.0],[21.2755,70.0401,133.8553],[21.2766,70.0432,0.0],[21.2734,70.0443,29.6652],[21.2745,70.0474,0.0],[21.2724,70.0495,0.0],[21.2672,70.05,97.9003]]],
[[[20.875,70.0458,0.0],[20.8688,70.0458,0.0],[20.8625,70.0479,0.0],[20.8563,70.0437,0.0],[20.8458,70.0437,0.0],[20.8359,70.0411,0.0],[20.8339,70.038,0.0],[20.8438,70.0333,0.0],[20.8521,70.0333,0.0],[20.8557,70.0359,0.0],[20.8526,70.0391,0.0],[20.8766,70.0443,0.0],[20.875,70.0458,0.0]]],
[[[20.85,70.1479,27.5235],[20.8422,70.1484,291.5761],[20.8432,70.1516,105.8207],[20.8375,70.1542,34.6628],[20.8276,70.1536,0.0],[20.8224,70.1484,19.8064],[20.8068,70.1453,0.0],[20.7849,70.1234,5.6861],[20.7776,70.1224,0.0],[20.7729,70.1188,0.0],[20.7672,70.1182,0.0],[20.763,70.113,0.0],[20.7703,70.1099,0.0],[20.7693,70.1068,0.0],[20.7724,70.1047,0.0],[20.7693,70.1005,0.0],[20.7766,70.0974,0.0],[20.7734,70.0922,0.0],[20.7792,70.0896,0.0],[20.7849,70.0891,5.8827],[20.7839,70.0859,0.0],[20.7922,70.0818,0.0],[20.8016,70.0807,10.919],[20.8182,70.0724,0.0],[20.8172,70.0693,0.0],[20.8229,70.0667,0.0],[20.8292,70.0667,0.0],[20.8333,70.0646,0.0],[20.8646,70.0646,0.0],[20.8688,70.0667,0.0],[20.8807,70.0672,0.0],[20.888,70.0745,0.0],[20.8953,70.0755,0.0],[20.8984,70.0787,0.0],[20.9057,70.0797,0.0],[20.9109,70.0849,0.0],[20.9182,70.0859,0.0],[20.9286,70.0964,0.0],[20.9255,70.0984,60.2543],[20.9266,70.1016,0.0],[20.9224,70.1036,23.6525],[20.9146,70.1042,129.1687],[20.9078,70.1078,59.8937],[20.9005,70.1088,295.3064],[20.9016,70.112,21.5617],[20.8958,70.1146,65.7055],[20.888,70.1151,161.1366],[20.8891,70.1182,18.2751],[20.8734,70.1255,368.7906],[20.8807,70.1286,2.3531],[20.8724,70.1328,241.324],[20.8625,70.1333,457.4008],[20.8563,70.1312,445.1316],[20.8505,70.1339,494.1027],[20.8536,70.138,368.9085],[20.8505,70.1412,376.5253],[20.8536,70.1453,15.7916],[20.85,70.1479,27.5235]]],
[[[20.7583,70.0396,0.0],[20.7625,70.0375,0.0],[20.7724,70.038,0.0],[20.7625,70.0437,0.0],[20.7589,70.0432,0.0],[20.7568,70.0411,0.0],[20.7583,70.0396,0.0]]],
[[[20.4417,70.0479,50.6246],[20.4401,70.0463,0.0],[20.4453,70.0463,10.0499],[20.4453,70.0474,70.1895],[20.4417,70.0479,50.6246]]],
[[[20.8229,70.0479,0.0],[20.8266,70.0495,0.0],[20.8167,70.0542,0.0],[20.813,70.0537,0.0],[20.8109,70.0516,0.0],[20.8125,70.05,0.0],[20.8188,70.05,0.0],[20.8229,70.0479,0.0]]],
[[[20.7313,70.2312,199.512],[20.725,70.2312,361.2045],[20.7208,70.2333,223.9753],[20.6875,70.2333,22.5624],[20.6833,70.2312,10.9424],[20.6479,70.2312,0.0],[20.6437,70.2292,3.2387],[20.6229,70.2312,5.9895],[20.6104,70.2271,279.4633],[20.5896,70.2292,1.8124],[20.5854,70.2271,15.7086],[20.5755,70.2266,21.3596],[20.5786,70.2234,172.871],[20.575,70.2208,394.1926],[20.5688,70.2229,267.1438],[20.5589,70.2224,168.7533],[20.5604,70.2208,222.7724],[20.5682,70.2203,363.4124],[20.5667,70.2188,335.9592],[20.5583,70.2188,358.4024],[20.55,70.2229,133.0396],[20.5417,70.2229,91.7843],[20.537,70.2193,122.8241],[20.5297,70.2182,14.259],[20.5276,70.2151,72.3719],[20.5307,70.213,179.1903],[20.5286,70.2109,194.9848],[20.5214,70.2099,89.81],[20.5193,70.2078,8.2955],[20.5224,70.2047,8.1781],[20.5193,70.2005,0.0],[20.5224,70.1984,5.7451],[20.5161,70.1922,4.3642],[20.5042,70.1896,14.2094],[20.5,70.1917,0.0],[20.4875,70.1917,73.2052],[20.4833,70.1937,0.0],[20.4688,70.1937,0.0],[20.4625,70.1896,0.0],[20.4583,70.1896,0.0],[20.4542,70.1875,53.361],[20.4375,70.1875,0.0],[20.4307,70.1818,26.981],[20.4208,70.1792,0.0],[20.4109,70.1787,0.0],[20.4089,70.1766,0.0],[20.412,70.1745,2.3617],[20.4089,70.1703,0.0],[20.412,70.1682,6.4803],[20.4099,70.1651,11.2581],[20.4078,70.163,37.3193],[20.4005,70.162,0.0],[20.4036,70.1589,83.6816],[20.4016,70.1568,117.5098],[20.3943,70.1557,17.2847],[20.3922,70.1536,29.7956],[20.3953,70.1505,97.1009],[20.388,70.1495,13.4347],[20.3807,70.1422,55.7606],[20.3734,70.1412,0.0],[20.375,70.1396,0.0],[20.3828,70.1391,3.5913],[20.3818,70.1359,0.0],[20.3849,70.1339,1.1046],[20.3792,70.1333,0.0],[20.3776,70.1318,0.0],[20.3849,70.1276,60.5569],[20.3776,70.1266,0.0],[20.3755,70.1245,0.0],[20.3786,70.1214,0.0],[20.3714,70.1203,0.0],[20.3786,70.1162,0.0],[20.3734,70.1088,0.0],[20.3813,70.1083,162.1708],[20.387,70.1057,378.5779],[20.3833,70.1042,408.1901],[20.3792,70.1062,188.0793],[20.3755,70.1057,0.0],[20.3786,70.1026,101.6361],[20.3755,70.0984,18.4826],[20.387,70.0922,458.0027],[20.3807,70.0859,213.0131],[20.3734,70.0849,36.2087],[20.3693,70.0797,0.0],[20.3724,70.0787,39.3629],[20.3714,70.0755,8.8351],[20.3828,70.0703,117.4246],[20.3818,70.0672,26.1445],[20.3932,70.062,7.6313],[20.3964,70.0589,37.748],[20.4146,70.0563,65.8007],[20.4188,70.0542,7.6825],[20.425,70.0542,47.6103],[20.4266,70.0537,21.4178],[20.4255,70.0505,0.0],[20.4271,70.05,0.0],[20.4333,70.0521,62.9781],[20.4417,70.0521,150.1832],[20.4542,70.0458,0.0],[20.4854,70.0458,0.0],[20.4917,70.0479,6.81],[20.4979,70.0458,0.0],[20.4995,70.0474,0.0],[20.4964,70.0495,6.1695],[20.4995,70.0537,0.0],[20.4922,70.0568,24.226],[20.4938,70.0583,20.4937],[20.4995,70.0589,0.0],[20.4964,70.0609,0.0],[20.4974,70.0641,0.0],[20.4943,70.0651,0.0],[20.4964,70.0682,0.0],[20.5,70.0687,0.0],[20.5068,70.0651,0.0],[20.5146,70.0646,0.0],[20.5187,70.0625,0.0],[20.5271,70.0625,0.0],[20.5318,70.0661,0.0],[20.5391,70.0672,0.0],[20.5422,70.0703,0.0],[20.5495,70.0714,0.0],[20.5536,70.0755,0.0],[20.5464,70.0797,0.0],[20.5474,70.0828,0.0],[20.5443,70.0839,0.0],[20.5453,70.087,0.0],[20.5422,70.088,0.0],[20.5432,70.0911,0.0],[20.5359,70.0943,0.0],[20.5401,70.0995,0.0],[20.5438,70.1,0.0],[20.5453,70.0995,0.0],[20.5443,70.0964,0.0],[20.5516,70.0932,13.4663],[20.5505,70.0901,0.0],[20.5563,70.0875,0.0],[20.5641,70.087,29.6737],[20.563,70.0839,0.0],[20.5661,70.0828,0.0],[20.5651,70.0797,0.0],[20.5724,70.0766,5.0143],[20.5661,70.0693,0.0],[20.5589,70.0682,0.0],[20.5547,70.0641,0.0],[20.5641,70.0609,48.6292],[20.5568,70.0599,10.6627],[20.5505,70.0537,2.4928],[20.5536,70.0505,35.9204],[20.5516,70.0484,55.3373],[20.5443,70.0474,10.2323],[20.5359,70.0391,13.1918],[20.5391,70.037,4.4647],[20.538,70.0339,5.1319],[20.5458,70.0333,9.8532],[20.55,70.0313,0.0],[20.5625,70.0313,0.0],[20.5688,70.0333,6.8055],[20.575,70.0313,0.0],[20.5792,70.0333,2.1465],[20.5958,70.0333,0.0],[20.6,70.0354,1.9873],[20.6104,70.0354,0.0],[20.6146,70.0375,1.8506],[20.6188,70.0375,0.0],[20.6234,70.0411,1.9068],[20.6307,70.0422,0.0],[20.6349,70.0474,0.0],[20.6318,70.0484,11.8996],[20.6328,70.0516,0.0],[20.6297,70.0537,14.836],[20.637,70.0547,0.0],[20.6417,70.0583,0.0],[20.6495,70.0557,9.8422],[20.6484,70.0526,0.0],[20.6516,70.0516,12.8359],[20.6505,70.0484,1.5605],[20.6604,70.0458,0.0],[20.6729,70.0458,7.7478],[20.6771,70.0437,0.0],[20.7083,70.0437,0.0],[20.7125,70.0417,0.0],[20.7188,70.0437,5.7788],[20.7271,70.0437,7.697],[20.7333,70.0417,0.0],[20.7375,70.0437,0.0],[20.7458,70.0437,0.0],[20.75,70.0458,0.0],[20.7604,70.0458,0.0],[20.7646,70.0479,0.0],[20.7813,70.0479,0.0],[20.7854,70.05,0.0],[20.8036,70.0505,0.0],[20.8078,70.0547,0.0],[20.8047,70.0568,0.0],[20.8057,70.0599,0.0],[20.8026,70.0609,0.0],[20.8057,70.0661,0.0],[20.7964,70.0672,0.0],[20.7922,70.0693,9.7197],[20.7932,70.0724,0.0],[20.7875,70.075,0.0],[20.7797,70.0755,18.1932],[20.7807,70.0787,0.0],[20.7734,70.0797,9.7751],[20.7745,70.0828,0.0],[20.7667,70.0833,0.0],[20.7609,70.0859,9.6393],[20.762,70.0891,0.0],[20.7526,70.0901,14.9497],[20.7536,70.0932,0.0],[20.7505,70.0953,0.0],[20.7557,70.1016,0.0],[20.7484,70.1057,15.0238],[20.7599,70.1172,0.0],[20.7526,70.1224,5.305],[20.7599,70.1234,0.0],[20.762,70.1255,0.0],[20.7589,70.1276,0.0],[20.7609,70.1307,0.0],[20.7682,70.1318,0.0],[20.7745,70.138,0.0],[20.7714,70.1412,3.2014],[20.7786,70.1422,0.0],[20.7849,70.1484,0.0],[20.7818,70.1516,7.6877],[20.7911,70.1609,0.0],[20.788,70.163,3.2245],[20.7891,70.1661,0.0],[20.7859,70.1682,17.1773],[20.7932,70.1693,0.0],[20.7901,70.1724,74.8369],[20.7974,70.1734,0.0],[20.7943,70.1766,83.2981],[20.8016,70.1776,0.0],[20.7984,70.1797,30.3276],[20.7995,70.1828,88.2558],[20.7964,70.1849,442.149],[20.8036,70.1859,138.961],[20.8005,70.1891,489.8618],[20.8078,70.1901,118.2308],[20.8047,70.1932,155.9154],[20.8078,70.1953,38.1419],[20.7979,70.2,545.3368],[20.7901,70.2005,533.913],[20.7859,70.2037,470.989],[20.7995,70.2047,134.3326],[20.8036,70.2099,0.0],[20.7896,70.2167,0.0],[20.7813,70.2146,25.2295],[20.7771,70.2167,7.8812],[20.7589,70.2193,8.8339],[20.762,70.2245,0.0],[20.7589,70.2255,0.0],[20.7599,70.2286,0.0],[20.7542,70.2312,45.9195],[20.7479,70.2292,69.4484],[20.7396,70.2292,245.0296],[20.7354,70.2312,119.1062],[20.7313,70.2312,199.512]]]]}}