{"type":"Feature","properties":{"GID_2":"NOR.18.13_1","GID_0":"NOR","country":"Norway","GID_1":"NOR.18_1","province":"Vest-Agder","NL_NAME_1":"NA","county":"Søgne","VARNAME_2":"NA","NL_NAME_2":"NA","TYPE_2":"Kommuner","ENGTYPE_2":"Municipality","CC_2":"NA","HASC_2":"NO.VA.SG","name":"Søgne.county"},
"geometry":{"type": "MultiPolygon","coordinates": [[[[7.7358,58.024,0.571],[7.7297,58.0257,0.0],[7.7281,58.024,0.3462],[7.7253,58.0251,0.9532],[7.7231,58.0232,1.1706],[7.7286,58.0207,4.0507],[7.7269,58.0176,0.0],[7.7319,58.0151,3.2254],[7.7308,58.0143,3.2254],[7.7219,58.0174,0.0],[7.7219,58.0137,0.0],[7.7303,58.011,7.3513],[7.7286,58.0062,0.7108],[7.7308,58.0046,0.0],[7.7392,58.0051,0.0],[7.7375,58.0065,0.851],[7.7381,58.0085,1.7407],[7.7331,58.0104,11.7282],[7.7347,58.0121,6.378],[7.7397,58.0115,0.0],[7.7403,58.0132,0.0],[7.7303,58.0185,3.0196],[7.7364,58.0176,0.0],[7.7403,58.0207,0.0],[7.7292,58.021,4.0507],[7.7303,58.0232,0.0],[7.7358,58.024,0.571]]],
[[[7.7047,58.0151,0.0],[7.7031,58.0168,0.0],[7.7008,58.0143,0.0],[7.7036,58.0137,0.0],[7.7047,58.0151,0.0]]],
[[[7.6925,58.0257,1.5146],[7.6869,58.0265,4.8389],[7.6819,58.0251,0.0],[7.6819,58.0235,0.0],[7.6892,58.0213,1.7212],[7.6925,58.0218,1.7212],[7.6892,58.0204,0.8878],[7.6903,58.0168,0.0],[7.6931,58.0174,0.0],[7.6931,58.0193,0.0],[7.6947,58.0199,0.0],[7.7014,58.0199,0.0],[7.6992,58.0218,0.5021],[7.6931,58.0224,0.0],[7.6936,58.024,1.4996],[7.6986,58.024,0.0],[7.6986,58.0254,0.0],[7.6925,58.0257,1.5146]]],
[[[7.6958,58.0315,1.8544],[7.6953,58.0332,0.0],[7.6931,58.0335,0.0],[7.6886,58.0304,0.0],[7.6969,58.0262,0.0],[7.7025,58.0288,0.0],[7.7003,58.0315,0.0],[7.6958,58.0315,1.8544]]],
[[[7.7681,58.0224,0.0],[7.7681,58.0251,0.0],[7.7631,58.0229,0.0],[7.7647,58.0213,0.0],[7.7681,58.0224,0.0]]],
[[[7.7892,58.0246,3.7669],[7.7858,58.0254,1.4117],[7.7842,58.0226,5.9678],[7.7881,58.0218,0.0],[7.7914,58.0232,0.0],[7.7892,58.0246,3.7669]]],
[[[7.7597,58.036,0.0],[7.7586,58.039,0.0],[7.7547,58.0379,0.5656],[7.7558,58.0354,0.0],[7.7597,58.036,0.0]]],
[[[7.7714,58.0457,0.0],[7.7719,58.0468,0.0],[7.7697,58.0468,0.0],[7.7681,58.0435,2.4708],[7.7619,58.0449,2.6268],[7.7592,58.0424,3.2678],[7.7525,58.0432,0.0],[7.7519,58.0412,0.0],[7.7564,58.0415,0.0],[7.7603,58.0399,0.0],[7.7658,58.0426,0.0],[7.7719,58.0404,0.0],[7.7736,58.0435,0.0],[7.7703,58.0451,0.0],[7.7714,58.0457,0.0]]],
[[[7.7208,58.0399,1.2573],[7.7169,58.0404,0.0],[7.7214,58.0376,0.0],[7.7275,58.0376,0.0],[7.7247,58.0393,0.0],[7.7208,58.0399,1.2573]]],
[[[7.6969,58.044,6.4552],[7.6958,58.0457,0.0],[7.6942,58.0451,0.2928],[7.6919,58.0407,0.0],[7.6997,58.039,0.0],[7.6975,58.0424,1.311],[7.7014,58.0446,0.0],[7.6969,58.044,6.4552]]],
[[[7.7208,58.0474,0.0],[7.7181,58.0485,3.7719],[7.7175,58.0465,0.0],[7.7153,58.046,0.0],[7.7192,58.0438,1.2272],[7.7186,58.0418,0.0],[7.7242,58.0415,0.0],[7.7208,58.0449,5.1811],[7.7208,58.0474,0.0]]],
[[[7.7075,58.0451,0.0],[7.7064,58.0474,0.0],[7.7031,58.0468,0.0],[7.7053,58.0438,1.2436],[7.7086,58.0438,0.0],[7.7075,58.0451,0.0]]],
[[[7.7797,58.0632,1.3471],[7.7764,58.0635,0.0],[7.7764,58.0593,0.5725],[7.7803,58.059,0.0],[7.7797,58.0632,1.3471]]],
[[[7.7664,58.066,2.1577],[7.7653,58.0671,3.0485],[7.7619,58.0657,0.0],[7.7619,58.0621,0.0],[7.7581,58.0585,0.0],[7.7703,58.0582,0.0],[7.7714,58.061,0.0],[7.7697,58.0629,2.3794],[7.7636,58.0638,1.7462],[7.7664,58.066,2.1577]]],
[[[7.7942,58.0624,0.0],[7.7947,58.0651,0.0],[7.7908,58.0654,0.8124],[7.7892,58.0621,0.0],[7.7925,58.0618,0.0],[7.7942,58.0624,0.0]]],
[[[7.7992,58.0163,6.6263],[7.7958,58.0174,0.0],[7.7953,58.0154,0.3381],[7.8014,58.0132,0.0],[7.7992,58.0163,6.6263]]],
[[[7.8108,58.0165,2.802],[7.8097,58.0179,12.1563],[7.8047,58.0182,15.1347],[7.8031,58.0157,5.0329],[7.8103,58.0137,0.0],[7.8108,58.0165,2.802]]],
[[[7.8064,58.0246,0.0],[7.7986,58.0257,1.0577],[7.7958,58.0246,0.0],[7.7958,58.0232,0.0],[7.8086,58.0193,0.0],[7.8181,58.0207,0.0],[7.8158,58.0226,0.0],[7.8081,58.0221,0.0],[7.8064,58.0246,0.0]]],
[[[7.8214,58.0438,0.0],[7.8197,58.0451,0.0],[7.8147,58.0432,0.0],[7.8069,58.0435,4.3735],[7.8042,58.0451,0.9999],[7.8031,58.0426,0.0],[7.8058,58.0399,0.0],[7.8108,58.0393,0.0],[7.8158,58.041,0.0],[7.8164,58.0429,0.0],[7.8214,58.0438,0.0]]],
[[[7.7825,58.0465,0.0],[7.7775,58.0474,0.0],[7.7758,58.0443,0.0],[7.7797,58.0446,0.0],[7.7825,58.0465,0.0]]],
[[[7.7892,58.0476,2.2514],[7.7914,58.0488,0.0],[7.7814,58.0488,0.0],[7.7881,58.0468,0.2846],[7.7858,58.046,0.0],[7.7869,58.0438,0.0],[7.7931,58.0432,0.0],[7.7947,58.0446,0.0],[7.7892,58.0449,0.0],[7.7892,58.0476,2.2514]]],
[[[7.7797,58.056,0.0],[7.7764,58.0571,0.0],[7.7692,58.0563,1.3151],[7.7686,58.0551,0.35],[7.7708,58.054,1.2837],[7.7686,58.0529,1.0446],[7.7731,58.0488,3.2875],[7.7769,58.049,3.2057],[7.7781,58.0512,2.3947],[7.7814,58.0501,0.0],[7.7831,58.0515,0.6689],[7.7881,58.0515,0.0],[7.7869,58.0529,2.5237],[7.7775,58.0524,0.0],[7.7825,58.054,0.0],[7.7797,58.056,0.0]]],
[[[7.7919,58.0557,0.0],[7.7931,58.0574,0.0],[7.7825,58.0571,0.0],[7.7864,58.054,1.1528],[7.7919,58.0557,0.0]]],
[[[7.8419,58.0435,0.0],[7.8425,58.0454,0.0],[7.8381,58.046,0.0],[7.8336,58.0421,0.0],[7.8381,58.041,0.0],[7.8419,58.0435,0.0]]],
[[[7.8164,58.0546,1.2791],[7.8097,58.0546,0.0],[7.8092,58.0515,0.0],[7.8125,58.0515,4.2253],[7.8158,58.0476,0.3771],[7.8197,58.046,0.0],[7.8258,58.0468,0.0],[7.8286,58.0488,0.0],[7.8275,58.0499,0.0],[7.8197,58.0493,3.8998],[7.8253,58.0532,0.0],[7.8164,58.0546,1.2791]]],
[[[7.8419,58.0588,0.0],[7.8414,58.0607,0.0],[7.8386,58.0607,0.0],[7.8386,58.0618,0.0],[7.8325,58.0618,0.9628],[7.8297,58.0596,9.7582],[7.8231,58.0585,7.0256],[7.8225,58.0568,0.0],[7.8247,58.054,6.1886],[7.8292,58.0524,0.6386],[7.8347,58.0526,1.5576],[7.8325,58.0512,0.0],[7.8336,58.049,1.1008],[7.8425,58.0476,1.4104],[7.8431,58.0462,0.0],[7.8519,58.0471,0.4316],[7.8553,58.0501,0.0],[7.8608,58.0493,0.0],[7.8575,58.0549,0.0],[7.8514,58.0543,1.6336],[7.8469,58.0565,0.0],[7.8458,58.0588,2.5344],[7.8419,58.0588,0.0]]],
[[[7.8686,58.059,0.0],[7.8631,58.0599,0.0],[7.8592,58.0593,0.0],[7.8592,58.0582,0.0],[7.8653,58.0551,0.0],[7.8658,58.0529,0.0],[7.8792,58.0551,0.0],[7.8831,58.054,0.0],[7.8803,58.0571,0.0],[7.8714,58.0574,0.0],[7.8686,58.059,0.0]]],
[[[7.8058,58.0599,0.0],[7.8025,58.0607,0.0],[7.8003,58.0596,7.1499],[7.7997,58.0571,0.0],[7.8042,58.0563,0.0],[7.8047,58.0574,0.0],[7.8025,58.0585,2.6084],[7.8058,58.0599,0.0]]],
[[[7.8014,58.0632,7.392],[7.8008,58.0665,4.614],[7.8036,58.0674,0.0],[7.7975,58.0668,0.0],[7.7975,58.0612,0.0],[7.8019,58.0607,7.8779],[7.8014,58.0632,7.392]]],
[[[7.8764,58.0682,0.9149],[7.8692,58.069,0.0],[7.8581,58.0674,1.4418],[7.8647,58.0629,1.8024],[7.8675,58.0629,1.8024],[7.8697,58.0635,0.0],[7.8708,58.066,5.7453],[7.8781,58.0651,0.0],[7.8764,58.0682,0.9149]]],
[[[7.7453,58.0468,0.0],[7.7381,58.0471,0.0],[7.7375,58.0449,0.0],[7.7419,58.0438,3.1724],[7.7464,58.0449,0.0],[7.7453,58.0468,0.0]]],
[[[7.7497,58.0504,0.0],[7.7469,58.051,0.0],[7.7431,58.049,0.3753],[7.7481,58.0488,1.0646],[7.7497,58.0504,0.0]]],
[[[7.9132,58.0955,67.464],[7.9102,58.1043,122.2897],[7.9018,58.1035,33.4292],[7.8988,58.1123,66.7406],[7.8904,58.1115,26.5],[7.8889,58.1159,123.1631],[7.8805,58.1151,26.5],[7.879,58.1195,51.7006],[7.8622,58.1179,55.9933],[7.8607,58.1223,67.2434],[7.8439,58.1206,17.3515],[7.8424,58.125,16.3752],[7.8256,58.1234,163.5195],[7.8241,58.1278,160.1476],[7.8157,58.127,159.9251],[7.8142,58.1314,155.5326],[7.8058,58.1306,165.531],[7.8043,58.135,182.8272],[7.7875,58.1334,183.3389],[7.786,58.1378,205.4321],[7.7776,58.1369,207.5587],[7.7761,58.1414,194.6316],[7.7677,58.1405,102.6713],[7.7661,58.1449,47.2028],[7.7578,58.1441,40.5],[7.7547,58.1529,40.5],[7.7463,58.1521,88.9858],[7.7416,58.1653,173.4821],[7.7333,58.1645,186.6237],[7.7302,58.1733,222.8448],[7.705,58.1709,268.6381],[7.7066,58.1665,243.5041],[7.6982,58.1656,206.7798],[7.7013,58.1568,188.0765],[7.6929,58.156,156.315],[7.6945,58.1516,175.4434],[7.6693,58.1491,238.2497],[7.6678,58.1535,230.4928],[7.651,58.1518,211.4313],[7.6494,58.1562,210.0151],[7.6076,58.1521,174.2562],[7.6091,58.1477,199.6498],[7.5672,58.1435,132.7881],[7.5735,58.1259,131.5468],[7.5819,58.1267,117.2502],[7.585,58.1179,167.4753],[7.5934,58.1187,171.5429],[7.5949,58.1143,170.8051],[7.6117,58.116,195.8763],[7.6132,58.1116,208.723],[7.6216,58.1124,220.8117],[7.6232,58.108,214.7028],[7.6315,58.1088,154.767],[7.6347,58.1,109.6424],[7.643,58.1008,135.2285],[7.6461,58.092,163.4344],[7.6378,58.0912,134.5969],[7.644,58.0736,140.4545],[7.6273,58.0719,135.2944],[7.6288,58.0675,126.4184],[7.6205,58.0667,108.1976],[7.622,58.0623,73.6068],[7.6304,58.0631,75.4559],[7.6369,58.0446,5.4047],[7.64,58.0425,26.0787],[7.6378,58.0422,15.0194],[7.6382,58.041,56.1562],[7.6465,58.0419,76.6366],[7.6481,58.0375,104.0086],[7.6648,58.0391,77.4407],[7.6663,58.0347,42.5489],[7.679,58.036,19.5548],[7.6814,58.0349,0.0],[7.6825,58.0379,11.8669],[7.6747,58.041,1.6437],[7.6675,58.0401,49.7356],[7.6631,58.0421,5.6762],[7.6647,58.044,4.6919],[7.6692,58.0446,0.0],[7.6847,58.0412,0.0],[7.6897,58.0429,0.0],[7.6908,58.0457,1.8523],[7.6825,58.0465,30.2155],[7.6814,58.0485,9.7471],[7.6992,58.0482,3.1269],[7.7008,58.0476,3.1269],[7.6997,58.0462,1.5859],[7.7019,58.046,0.0],[7.7019,58.0476,1.6709],[7.7092,58.0507,7.1308],[7.7086,58.0529,3.7237],[7.7042,58.0554,29.3047],[7.7019,58.059,10.4711],[7.6953,58.064,0.0],[7.6925,58.0643,23.4663],[7.6936,58.0663,3.2851],[7.6908,58.0696,2.1159],[7.6931,58.0707,3.8631],[7.7014,58.0699,32.6854],[7.7031,58.0663,10.8384],[7.7008,58.0604,7.9942],[7.7064,58.0576,1.236],[7.7075,58.0551,0.0],[7.7158,58.0524,5.462],[7.7131,58.0507,0.0],[7.7136,58.0526,5.462],[7.7097,58.0535,2.244],[7.7131,58.0501,1.3557],[7.7125,58.0482,1.057],[7.7158,58.0479,0.0],[7.7158,58.0493,0.9529],[7.7269,58.0488,4.7097],[7.7281,58.0499,0.0],[7.7269,58.0504,4.7097],[7.7208,58.0507,0.6943],[7.7242,58.0526,1.4045],[7.7214,58.0546,2.105],[7.7286,58.0546,0.8511],[7.7297,58.0532,1.2566],[7.7247,58.0529,1.4045],[7.7281,58.0515,0.0],[7.7358,58.0529,3.4181],[7.7358,58.0543,0.0],[7.7292,58.0574,9.1095],[7.7325,58.0571,0.0],[7.7358,58.0607,15.5838],[7.7425,58.059,2.5231],[7.7381,58.0585,0.0],[7.7408,58.0568,0.0],[7.7469,58.0576,0.0],[7.7442,58.0604,2.5231],[7.7469,58.0624,0.0],[7.7458,58.0643,2.6407],[7.7381,58.0629,0.6096],[7.7375,58.0654,0.0],[7.7431,58.0649,4.4511],[7.7469,58.0668,5.0212],[7.7497,58.0654,4.6987],[7.7492,58.0629,3.1934],[7.7514,58.061,0.0],[7.7564,58.061,0.9699],[7.7569,58.0624,0.0],[7.7547,58.0643,0.536],[7.7569,58.066,0.0],[7.7531,58.0657,0.0],[7.7536,58.0676,0.0],[7.7503,58.0696,2.6444],[7.7575,58.071,8.8714],[7.7586,58.0682,0.6561],[7.7647,58.0674,5.387],[7.7708,58.0704,0.0],[7.7708,58.0738,9.0526],[7.7836,58.0776,0.0],[7.7847,58.0799,0.7083],[7.7875,58.0785,0.0],[7.7864,58.076,3.5134],[7.7831,58.0743,0.0],[7.7847,58.071,21.7717],[7.7836,58.0676,8.267],[7.7853,58.0668,0.0],[7.7975,58.0682,0.6251],[7.7981,58.0701,0.0],[7.7958,58.0707,2.0086],[7.7958,58.0721,8.8296],[7.8042,58.0724,0.0],[7.8036,58.0751,0.0],[7.8008,58.0751,0.0],[7.8042,58.0776,0.5943],[7.8103,58.0754,0.0],[7.8169,58.0776,1.996],[7.8169,58.0749,1.8614],[7.8219,58.0735,0.0],[7.8219,58.0721,0.0],[7.8181,58.0704,0.0],[7.8164,58.0654,0.0],[7.8381,58.0646,1.7817],[7.8375,58.0621,3.4159],[7.8436,58.0629,0.899],[7.8431,58.0646,1.7301],[7.8386,58.0643,1.7817],[7.8403,58.0663,0.0],[7.8392,58.0687,0.0],[7.8414,58.0701,0.0],[7.8381,58.0726,6.8717],[7.8431,58.0754,0.0],[7.8519,58.0757,12.596],[7.8581,58.0701,0.0],[7.8597,58.0713,0.0],[7.8669,58.0707,4.0406],[7.8692,58.0726,1.3764],[7.8775,58.0721,0.7715],[7.8775,58.0738,10.8989],[7.8792,58.0738,10.8989],[7.8864,58.0735,6.2793],[7.8919,58.0713,0.0],[7.8958,58.0735,2.2975],[7.8992,58.0732,0.0],[7.8975,58.0715,0.0],[7.9036,58.0732,1.2679],[7.9047,58.0726,1.2679],[7.9042,58.0699,0.0],[7.9114,58.0696,0.0],[7.9125,58.0715,1.0619],[7.9186,58.0726,1.0625],[7.9164,58.0754,26.5869],[7.9208,58.0751,0.0],[7.9231,58.0771,2.9568],[7.9231,58.0793,0.0],[7.9197,58.0807,12.2268],[7.9286,58.0838,0.0],[7.9252,58.0859,27.5535],[7.9216,58.0963,90.4309],[7.9132,58.0955,67.464]]]]}}