{"type": "Feature","bbox": [17.4356,68.5995,18.0515,68.8337],"geometry": {"type": "MultiPolygon","coordinates": [[[[17.9987,68.6113,958.0859],[18.0102,68.6114,1215.0144],[18.0066,68.6519,1156.4965],[18.0189,68.6521,917.5166],[18.0185,68.6566,894.225],[18.0431,68.6569,777.874],[18.0392,68.7019,558.3248],[18.0515,68.702,578.2848],[18.0512,68.7065,774.5085],[18.0388,68.7064,756.8836],[18.0384,68.7109,887.0757],[18.0261,68.7107,915.0183],[18.0257,68.7152,969.9858],[18.0134,68.7151,987.4879],[18.013,68.7196,1111.3484],[18.0007,68.7195,1093.3859],[18.0003,68.724,1101.6516],[17.9879,68.7238,1053.7943],[17.9871,68.7328,945.6078],[17.9748,68.7327,1003.6065],[17.9744,68.7372,912.2847],[17.962,68.7371,835.3539],[17.9616,68.7416,816.32],[17.9493,68.7414,779.002],[17.9489,68.7459,793.0409],[17.9365,68.7458,765.5302],[17.9357,68.7548,825.3916],[17.9481,68.7549,819.9821],[17.9472,68.7639,749.7967],[17.9596,68.7641,720.5993],[17.9576,68.7866,868.1387],[17.9452,68.7864,833.2064],[17.9448,68.7909,895.8652],[17.9077,68.7905,746.4561],[17.9073,68.795,818.8945],[17.8825,68.7947,726.4764],[17.8821,68.7992,696.0405],[17.8697,68.7991,671.7828],[17.8693,68.8036,626.9899],[17.8569,68.8034,448.5514],[17.856,68.8124,225.1308],[17.8313,68.8121,231.0434],[17.8308,68.8166,252.905],[17.7689,68.8159,656.6082],[17.768,68.8249,849.1724],[17.7556,68.8247,821.0057],[17.7547,68.8337,994.1906],[17.6928,68.8329,824.4606],[17.6932,68.8284,1020.5967],[17.6808,68.8283,922.7114],[17.6813,68.8238,1030.3862],[17.6689,68.8236,1034.4823],[17.6694,68.8191,1092.4036],[17.6446,68.8188,670.1315],[17.6441,68.8233,979.0148],[17.5946,68.8226,747.1473],[17.5951,68.8181,705.5378],[17.5827,68.8179,472.4339],[17.5832,68.8134,123.1392],[17.5773,68.8134,16.7168],[17.5958,68.8063,0.0],[17.6083,68.8063,13.8414],[17.6151,68.8026,0.0],[17.625,68.8,0.0],[17.6417,68.7979,0.0],[17.6458,68.7958,0.0],[17.6563,68.7958,0.0],[17.6604,68.7937,0.0],[17.6667,68.7958,13.958],[17.675,68.7958,53.2172],[17.6792,68.7937,0.0],[17.7354,68.7937,0.0],[17.7396,68.7917,0.0],[17.7667,68.7896,9.6785],[17.7693,68.7859,0.0],[17.775,68.7854,0.0],[17.7807,68.7828,1.8113],[17.7797,68.7797,0.0],[17.7839,68.7776,0.0],[17.7932,68.7766,0.0],[17.7922,68.7734,0.0],[17.7953,68.7724,0.0],[17.7943,68.7693,0.0],[17.8016,68.7641,0.0],[17.7984,68.7589,0.0],[17.8016,68.7568,0.0],[17.7974,68.7505,0.0],[17.7938,68.75,0.0],[17.7922,68.7505,0.0],[17.7932,68.7536,0.0],[17.7839,68.7547,2.626],[17.7714,68.7609,4.7831],[17.7724,68.7641,0.0],[17.7542,68.7729,0.0],[17.7479,68.7729,0.0],[17.7333,68.7771,0.0],[17.7229,68.7771,0.0],[17.7188,68.7792,0.0],[17.7104,68.7771,44.0543],[17.7062,68.7792,5.251],[17.6896,68.7792,57.6009],[17.6833,68.7813,0.0],[17.6818,68.7797,11.7364],[17.6849,68.7776,177.5886],[17.6833,68.7771,177.5886],[17.6604,68.7771,152.6075],[17.6563,68.7813,0.0],[17.6333,68.7813,8.7454],[17.6292,68.7833,0.0],[17.6187,68.7833,37.57],[17.6146,68.7854,12.1585],[17.6083,68.7854,52.4537],[17.6042,68.7875,0.0],[17.5896,68.7896,8.6747],[17.5854,68.7917,0.0],[17.5792,68.7917,11.5264],[17.5776,68.7922,17.7984],[17.5786,68.7953,0.0],[17.5771,68.7958,0.0],[17.5646,68.7958,10.5997],[17.5563,68.8,0.0],[17.525,68.8042,80.4447],[17.5234,68.8047,64.3372],[17.5245,68.8078,0.0],[17.5167,68.8083,5.5675],[17.5099,68.812,0.0],[17.5,68.8146,0.0],[17.4964,68.813,60.1935],[17.5036,68.8089,180.2267],[17.4833,68.8104,428.7987],[17.475,68.8146,198.3477],[17.4521,68.8146,226.5558],[17.4469,68.8125,396.4354],[17.448,68.8025,574.6944],[17.4356,68.8024,559.3218],[17.4377,68.7844,469.5132],[17.45,68.7845,530.1836],[17.4505,68.78,618.8926],[17.4629,68.7802,713.8357],[17.4634,68.7757,844.582],[17.4758,68.7759,984.1508],[17.4763,68.7714,962.8416],[17.4886,68.7716,949.8797],[17.4891,68.7671,734.4674],[17.5262,68.7676,718.853],[17.5267,68.7631,827.2972],[17.5638,68.7636,605.1159],[17.5642,68.7591,599.1968],[17.5766,68.7593,549.6407],[17.5771,68.7548,496.3132],[17.5894,68.7549,488.132],[17.5942,68.7099,906.8278],[17.6065,68.7101,963.9832],[17.607,68.7056,891.126],[17.6563,68.7062,1022.2351],[17.6568,68.7017,873.7626],[17.6814,68.7021,897.3801],[17.681,68.7066,666.1353],[17.7179,68.707,791.299],[17.7184,68.7025,625.5384],[17.743,68.7029,404.6157],[17.7435,68.6984,416.8318],[17.7681,68.6987,629.0424],[17.7686,68.6942,666.1165],[17.7809,68.6943,802.099],[17.7813,68.6898,871.5923],[17.8306,68.6904,1151.7306],[17.8345,68.6499,967.6859],[17.8222,68.6498,937.0129],[17.8226,68.6453,813.4318],[17.798,68.645,641.6872],[17.7984,68.6405,540.8856],[17.7862,68.6403,468.7979],[17.7866,68.6358,481.5901],[17.7989,68.636,533.9006],[17.8002,68.6225,911.7084],[17.7879,68.6223,619.176],[17.7884,68.6178,839.0567],[17.7761,68.6176,696.7498],[17.7765,68.6131,738.9825],[17.7642,68.613,622.8332],[17.7656,68.5995,937.8796],[17.8514,68.6006,411.5619],[17.851,68.6051,403.7316],[17.986,68.6066,583.3489],[17.9856,68.6111,575.8386],[17.9987,68.6113,958.0859]]],
[[[17.6651,68.7797,18.6369],[17.6688,68.7792,65.4234],[17.6703,68.7807,4.045],[17.6667,68.7812,0.0],[17.6651,68.7797,18.6369]]],
[[[17.4854,68.8167,8.5215],[17.4792,68.8187,0.0],[17.4714,68.8182,32.6527],[17.4813,68.8146,115.3835],[17.4911,68.8151,32.7466],[17.4896,68.8167,2.7538],[17.4854,68.8167,8.5215]]]]}
,"properties": {"GID_2": "NOR.17.13_1","GID_0": "NOR","country": "Norway","GID_1": "NOR.17_1","province": "Troms","NL_NAME_1": "NA","county": "Lavangen","VARNAME_2": "NA","NL_NAME_2": "NA","TYPE_2": "Kommuner","ENGTYPE_2": "Municipality","CC_2": "NA","HASC_2": "NO.TR.LA","name": "Lavangen.county","area_km2": 295.6187,"hist_schema_id": "Elevation0-9000","hist_area_km2": {"0": 4.3373,"25": 4.1857,"50": 3.9408,"75": 4.5163,"100": 3.9023,"125": 3.8252,"150": 3.7329,"175": 4.7002,"200": 7.2221,"225": 6.6001,"250": 6.9236,"275": 6.2853,"300": 7.2262,"325": 7.7351,"350": 12.8176,"375": 9.8315,"400": 11.419,"425": 12.6838,"450": 12.4612,"475": 12.0752,"500": 11.5553,"525": 10.5605,"550": 9.2232,"575": 8.0331,"600": 6.787,"625": 6.5793,"650": 7.0172,"675": 6.8484,"700": 7.0863,"725": 6.3707,"750": 6.7261,"775": 6.7287,"800": 6.0658,"825": 5.328,"850": 5.581,"875": 4.7604,"900": 4.2381,"925": 3.9204,"950": 3.6438,"975": 3.2193,"1000": 3.3489,"1025": 2.7652,"1050": 2.5801,"1075": 2.0948,"1100": 2.0564,"1125": 1.34,"1150": 1.1474,"1175": 0.8471,"1200": 0.6705,"1225": 0.5781,"1250": 0.4933,"1275": 0.27,"1300": 0.2314,"1325": 0.1543,"1350": 0.1388,"1375": 0.0694,"1400": 0.0771,"1425": 0.0462,"1450": 0.0154}}}