{"type":"Feature","properties":{"ISO3166-1-Alpha-3":"NOR","country":"Norway","fill":"#F0F","id":"917","name":"Akershus"},
"geometry":{"type": "Polygon","coordinates": [[[11.87463,59.88494,187.3935],[11.87419,59.88531,202.4442],[11.87383,59.88562,205.542],[11.8636,59.89448,197.3816],[11.85554,59.90373,247.0746],[11.84789,59.91596,233.9532],[11.84184,59.93386,205.922],[11.82959,59.99773,226.7176],[11.83021,60.00228,255.5635],[11.83254,60.00636,252.2591],[11.83859,60.01484,234.55],[11.84215,60.02135,244.8029],[11.84448,60.04646,257.5334],[11.84215,60.05822,308.4442],[11.83998,60.06181,343.4137],[11.8189,60.07018,330.0058],[11.73756,60.11687,377.5722],[11.62335,60.1584,167.3394],[11.59576,60.17193,188.1211],[11.58568,60.1801,157.2271],[11.57963,60.18976,133.5734],[11.5771,60.21028,150.9458],[11.59033,60.25162,141.1646],[11.58785,60.26844,310.8343],[11.58274,60.28009,309.7766],[11.51147,60.31647,348.6828],[11.43158,60.3681,341.8622],[11.39246,60.41083,497.014],[11.38037,60.43078,501.2052],[11.35417,60.46132,370.4245],[11.30761,60.49145,366.2054],[11.28942,60.49946,372.5654],[11.24291,60.51269,137.4615],[11.23728,60.51615,119.5],[11.23108,60.52331,119.5],[11.23077,60.54152,119.5],[11.22364,60.55705,119.5],[11.21526,60.57103,119.5],[11.19635,60.58788,119.5],[11.1871,60.60188,119.5],[11.16397,60.62264,166.6622],[11.16219,60.62149,119.5],[11.12638,60.59852,230.7912],[11.12137,60.59258,453.9636],[11.11625,60.58367,522.7084],[11.11796,60.56623,604.6982],[11.11796,60.55677,584.61],[11.11377,60.54411,520.6494],[11.10835,60.53832,526.1559],[11.09532,60.53202,588.439],[10.86226,60.49021,715.0873],[10.79632,60.5007,642.9781],[10.78806,60.50349,694.7834],[10.76061,60.51718,638.0069],[10.7493,60.52439,587.1663],[10.73395,60.53072,543.5933],[10.71607,60.52313,526.9169],[10.71374,60.51656,528.2507],[10.69902,60.4838,558.6063],[10.68553,60.46448,483.6159],[10.68181,60.45264,692.2522],[10.68382,60.44716,671.5209],[10.69189,60.44455,653.1302],[10.80935,60.43652,474.2554],[10.83027,60.4328,489.4703],[10.85746,60.41853,575.0461],[10.91952,60.37389,461.878],[10.92185,60.35688,439.5051],[10.91983,60.35164,486.0371],[10.9127,60.3419,472.9016],[10.8171,60.26759,532.8237],[10.79958,60.25064,540.4216],[10.77503,60.21736,491.4917],[10.7541,60.16816,590.7472],[10.74961,60.16449,535.8629],[10.74279,60.16031,450.7685],[10.72212,60.16537,256.0837],[10.70816,60.16449,293.954],[10.6801,60.15338,401.1967],[10.73317,60.14429,353.34],[10.75271,60.13726,415.6541],[10.76651,60.12791,314.2445],[10.78728,60.10388,371.3049],[10.85963,60.03949,225.1007],[10.92805,59.99339,218.612],[10.93471,59.9773,242.6931],[10.93425,59.87304,302.9053],[10.93254,59.86477,307.4189],[10.91735,59.84617,247.0809],[10.90929,59.84043,235.4892],[10.87622,59.83053,185.2162],[10.7988,59.83816,92.9671],[10.75664,59.84415,0.0],[10.7566,59.84416,0.0],[10.74733,59.81436,35.4595],[10.7282,59.77635,0.0],[10.71778,59.7381,85.9221],[10.69809,59.77717,71.4003],[10.68035,59.82734,106.9045],[10.65553,59.85668,72.1914],[10.61459,59.83369,0.0],[10.60174,59.81391,0.0],[10.57716,59.76642,0.0],[10.56324,59.74836,0.0],[10.56023,59.72622,0.0],[10.57545,59.69961,8.8454],[10.5975,59.68456,0.0],[10.61459,59.69717,90.1125],[10.61769,59.66307,0.0],[10.62599,59.63727,0.0],[10.63901,59.61579,0.0],[10.65642,59.59467,56.3514],[10.64682,59.57258,0.0],[10.64552,59.54947,0.0],[10.65113,59.52643,0.0],[10.6631,59.50471,20.7818],[10.67351,59.49527,0.0],[10.68344,59.48933,0.0],[10.68796,59.4836,0.0],[10.68822,59.48373,0.0],[10.72134,59.50102,53.2477],[10.72971,59.50019,66.7382],[10.73302,59.5005,74.4836],[10.76635,59.51709,52.6012],[10.78511,59.53365,38.6136],[10.79276,59.54611,52.6951],[10.80997,59.56923,69.245],[10.8202,59.57879,81.2713],[10.84392,59.59448,52.7617],[10.85777,59.60882,85.567],[10.89172,59.62639,121.6937],[10.89766,59.64287,103.3764],[10.90045,59.64628,108.1909],[10.91967,59.65672,107.7601],[10.94448,59.66494,128.9133],[10.95208,59.67067,161.9199],[10.9622,59.6807,205.5347],[10.97647,59.71155,200.2567],[10.98189,59.71943,184.2327],[11.0176,59.72553,127.0],[11.08633,59.71661,147.9681],[11.2134,59.71243,100.0],[11.25531,59.71785,150.2422],[11.26058,59.73703,103.9304],[11.25841,59.76907,108.2247],[11.26694,59.78638,173.5547],[11.28973,59.78697,235.773],[11.35541,59.76524,162.4944],[11.37479,59.73506,247.959],[11.40021,59.71253,134.2595],[11.42259,59.70395,132.0693],[11.4415,59.69904,132.0336],[11.45763,59.69641,142.2102],[11.46946,59.69253,142.7363],[11.48078,59.6868,148.8031],[11.49442,59.67579,160.0597],[11.50109,59.66886,156.6007],[11.50357,59.65998,152.3707],[11.50279,59.65352,169.3383],[11.48791,59.63579,151.212],[11.49396,59.62902,195.3446],[11.49969,59.62672,214.0264],[11.52269,59.62579,164.0355],[11.61374,59.67987,277.6716],[11.63968,59.70447,212.8242],[11.67348,59.70881,221.4186],[11.68438,59.7132,238.2486],[11.69508,59.72204,226.7486],[11.70516,59.73284,229.1414],[11.7095,59.74188,279.4006],[11.71105,59.75057,291.5722],[11.71043,59.75811,241.5893],[11.71523,59.76599,202.3626],[11.72655,59.77408,220.6324],[11.75017,59.78674,201.301],[11.80184,59.80129,255.8595],[11.88374,59.80538,314.8644],[11.85486,59.82431,284.9656],[11.84298,59.83842,269.425],[11.84959,59.87242,245.7176],[11.87463,59.88494,187.3935]]]}}