{"type": "Feature","bbox": [7.3964,61.1093,8.2494,61.4599],"geometry": {"type": "MultiPolygon","coordinates": [[[[8.1368,61.4264,1521.2389],[8.1091,61.424,1681.5924],[8.1074,61.4284,1528.3914],[8.0796,61.426,1362.2268],[8.0779,61.4304,1294.5383],[8.0409,61.4272,1467.4633],[8.0392,61.4316,1443.7761],[8.0115,61.4291,1325.9032],[8.0098,61.4336,1212.4457],[7.9913,61.4319,764.7382],[7.9896,61.4363,622.0479],[7.9711,61.4347,957.702],[7.9693,61.4391,1042.5024],[7.9601,61.4383,1484.8945],[7.9584,61.4427,1433.8494],[7.9491,61.4419,1368.8103],[7.9474,61.4463,1540.9854],[7.9382,61.4455,1547.8585],[7.9364,61.4499,1543.5236],[7.9179,61.4483,1784.4741],[7.9162,61.4527,1477.3489],[7.907,61.4519,1746.8542],[7.9052,61.4563,1557.9326],[7.896,61.4554,1834.1758],[7.8942,61.4599,1828.3484],[7.848,61.4557,1760.1964],[7.8497,61.4513,1672.3368],[7.8405,61.4505,1862.5776],[7.8422,61.4461,1832.86],[7.8052,61.4428,1974.4939],[7.807,61.4384,1724.0756],[7.733,61.4318,1366.1967],[7.7313,61.4362,1325.2332],[7.7128,61.4345,1370.9802],[7.711,61.4389,1352.5027],[7.7018,61.4381,1295.4763],[7.7,61.4425,1305.4419],[7.6908,61.4416,1362.1219],[7.689,61.446,1357.0017],[7.6428,61.4419,1503.4264],[7.6446,61.4375,1434.1162],[7.6353,61.4366,1480.7185],[7.6371,61.4322,1448.6409],[7.6186,61.4305,1332.4845],[7.6222,61.4217,1428.5823],[7.6314,61.4226,1411.4548],[7.6367,61.4093,1541.203],[7.6459,61.4102,1442.7861],[7.6512,61.397,1419.5616],[7.6604,61.3978,1466.5491],[7.6657,61.3846,1309.2505],[7.6565,61.3837,1353.0669],[7.6618,61.3705,1370.0105],[7.6525,61.3697,1426.4567],[7.6561,61.3609,1455.2148],[7.6376,61.3592,1381.4023],[7.6394,61.3548,1335.9021],[7.621,61.3531,1325.3621],[7.6227,61.3487,1265.3921],[7.6135,61.3479,1262.3678],[7.6153,61.3435,1192.0059],[7.5968,61.3418,1191.5847],[7.6004,61.333,1203.1018],[7.6096,61.3338,1168.0696],[7.6113,61.3294,1203.3157],[7.6206,61.3303,1205.7134],[7.6258,61.317,1249.7551],[7.589,61.3137,1289.9227],[7.5837,61.3269,1254.0334],[7.5469,61.3235,1305.7004],[7.5451,61.3279,1307.9655],[7.5083,61.3245,1288.2451],[7.5136,61.3113,1446.9397],[7.5044,61.3105,1423.1566],[7.5062,61.3061,1368.1937],[7.4878,61.3044,1280.7216],[7.4896,61.3,1205.3165],[7.4804,61.2991,1167.8595],[7.4822,61.2947,1161.1178],[7.473,61.2939,1169.4822],[7.4748,61.2895,1120.5513],[7.4656,61.2886,1173.5164],[7.4673,61.2842,1100.0],[7.4582,61.2834,1126.3883],[7.4599,61.279,1134.5416],[7.4507,61.2781,1135.3633],[7.4543,61.2693,1184.6288],[7.4451,61.2685,1191.4813],[7.4469,61.2641,1192.6537],[7.4377,61.2632,1138.8027],[7.4413,61.2544,1078.1334],[7.4321,61.2536,1074.4694],[7.4357,61.2447,1027.0814],[7.4265,61.243899999999996,1017.7049],[7.4318,61.2307,966.6436],[7.441,61.2315,949.6329],[7.4428,61.2271,913.6259],[7.4336,61.2263,933.4977],[7.4354,61.2219,935.4406],[7.4262,61.221,913.3425],[7.428,61.2166,895.419],[7.4096,61.2149,723.3514],[7.4114,61.2105,623.939],[7.3975,61.2092,290.9114],[7.3964,61.2068,38.751],[7.4146,61.2021,0.0],[7.4229,61.2021,152.2508],[7.4271,61.2,12.1019],[7.4625,61.2,0.0],[7.4667,61.2021,70.1363],[7.475,61.2021,28.3539],[7.4792,61.2042,116.2486],[7.4938,61.2042,0.0],[7.4964,61.2078,0.0],[7.5062,61.2104,22.1639],[7.5125,61.2083,0.0],[7.5167,61.2104,0.0],[7.525,61.2104,0.0],[7.5292,61.2083,0.0],[7.5458,61.2083,33.298],[7.55,61.2062,0.0],[7.5542,61.2083,0.0],[7.5786,61.2099,0.0],[7.5786,61.2068,0.0],[7.575,61.2042,0.0],[7.5354,61.2042,0.0],[7.5312,61.2,0.0],[7.5109,61.1995,0.0],[7.5109,61.1964,0.0],[7.5141,61.1953,0.0],[7.5125,61.1937,0.0],[7.4922,61.1932,0.0],[7.4911,61.1859,0.0],[7.4888,61.1838,0.0],[7.4933,61.1724,972.7712],[7.5025,61.1733,981.8825],[7.5042,61.1689,1017.3278],[7.4859,61.1672,1242.6145],[7.4877,61.1628,1214.744],[7.4785,61.1619,1124.9139],[7.4821,61.1531,1133.329],[7.4729,61.1523,1028.7389],[7.4747,61.1479,1139.078],[7.493,61.1496,1053.3098],[7.4948,61.1452,986.8394],[7.5314,61.1485,1071.519],[7.5331,61.1441,1157.9961],[7.5423,61.145,1243.1274],[7.544,61.1406,1411.3741],[7.5623,61.1423,1464.45],[7.5641,61.1379,1487.4949],[7.6007,61.1412,1408.6141],[7.6095,61.1192,1400.3901],[7.6186,61.12,1448.7964],[7.6203,61.1156,1396.8217],[7.6295,61.1165,1420.7771],[7.6312,61.1121,1466.5372],[7.6495,61.1137,1322.2816],[7.6513,61.1093,1303.4525],[7.7062,61.1143,1482.7208],[7.7079,61.1099,1391.1725],[7.8268,61.1207,1431.3741],[7.8251,61.1251,1503.9458],[7.8343,61.1259,1487.087],[7.8308,61.1348,1334.9271],[7.8217,61.1339,1441.4861],[7.82,61.1383,1418.9681],[7.8016,61.1367,1305.3545],[7.7999,61.1411,1307.3041],[7.7908,61.1403,1235.538],[7.7839,61.1579,1375.6283],[7.8022,61.1596,1289.9298],[7.8005,61.164,1256.0225],[7.8371,61.1673,1384.8625],[7.8463,61.1681,1484.923],[7.848,61.1637,1381.8947],[7.903,61.1686,1522.5697],[7.9013,61.173,1520.2279],[7.9105,61.1738,1541.5427],[7.9071,61.1827,1358.8002],[7.9162,61.1835,1375.3279],[7.9111,61.1967,1612.2697],[7.9203,61.1975,1684.1324],[7.9169,61.2063,1746.6545],[7.9536,61.2096,1513.5081],[7.9502,61.2184,1364.5798],[7.941,61.2176,1472.8739],[7.9393,61.222,1446.0009],[7.9485,61.2228,1406.1578],[7.9468,61.2273,1492.8225],[7.9559,61.2281,1477.853],[7.9542,61.2325,1473.681],[8.0277,61.239,1396.1384],[8.0295,61.2346,1398.3038],[8.0478,61.2362,1427.0986],[8.0461,61.2406,1386.1455],[8.0553,61.2414,1340.152],[8.0536,61.2458,1370.7355],[8.0628,61.2467,1326.1381],[8.0611,61.2511,1290.1619],[8.0887,61.2535,1266.1932],[8.087,61.2579,1174.0488],[8.1146,61.2603,1168.401],[8.113,61.2647,1117.7809],[8.1314,61.2663,1337.2871],[8.1297,61.2708,1108.4614],[8.1389,61.2716,1105.0789],[8.1338,61.2848,1330.9692],[8.143,61.2856,1205.5211],[8.1413,61.29,1330.2175],[8.1506,61.2908,1285.1105],[8.1489,61.2952,1351.9202],[8.1581,61.296,1187.4536],[8.1564,61.3004,1181.1162],[8.1656,61.3013,1093.8044],[8.1639,61.3057,1114.2972],[8.2284,61.3113,1079.5],[8.2268,61.3157,1091.9048],[8.236,61.3165,1080.8816],[8.2343,61.3209,1088.9001],[8.2435,61.3217,1085.6995],[8.2402,61.3305,1134.5402],[8.2494,61.3313,1079.5],[8.2461,61.3401,1079.5],[8.2368,61.3393,1100.5178],[8.2352,61.3438,1079.5],[8.2167,61.3422,1123.6252],[8.2117,61.3554,1095.3608],[8.1748,61.3522,1309.843],[8.1714,61.361,1178.1511],[8.1622,61.3602,1225.6423],[8.1588,61.3691,1177.0],[8.1496,61.3683,1300.7096],[8.1462,61.3771,1177.0],[8.1554,61.3779,1177.0],[8.1368,61.4264,1521.2389]]]]}
,"properties": {"GID_2": "NOR.14.1_1","GID_0": "NOR","country": "Norway","GID_1": "NOR.14_1","province": "SognogFjordane","NL_NAME_1": "NA","county": "Årdal","VARNAME_2": "NA","NL_NAME_2": "NA","TYPE_2": "Kommuner","ENGTYPE_2": "Municipality","CC_2": "NA","HASC_2": "NO.SF.AR","name": "Årdal.county","area_km2": 984.867,"hist_schema_id": "Elevation0-9000","hist_area_km2": {"0": 29.3349,"25": 3.9062,"50": 3.8733,"75": 3.5169,"100": 3.2727,"125": 3.0792,"150": 3.0282,"175": 3.3027,"200": 2.8242,"225": 3.0791,"250": 3.4147,"275": 3.2925,"300": 3.2213,"325": 3.3935,"350": 4.0569,"375": 3.8123,"400": 4.3321,"425": 4.281,"450": 4.4133,"475": 4.4036,"500": 4.6666,"525": 5.3389,"550": 5.3798,"575": 5.7569,"600": 5.4306,"625": 5.9295,"650": 6.1948,"675": 7.2417,"700": 7.9036,"725": 8.8918,"750": 10.361,"775": 10.6271,"800": 10.8819,"825": 12.1449,"850": 12.6133,"875": 14.2327,"900": 14.2628,"925": 15.3015,"950": 16.1065,"975": 19.2565,"1000": 20.0887,"1025": 21.4856,"1050": 27.9529,"1075": 27.0408,"1100": 31.7688,"1125": 31.2437,"1150": 32.2116,"1175": 32.6333,"1200": 32.5584,"1225": 31.6234,"1250": 30.4262,"1275": 28.2992,"1300": 31.7593,"1325": 35.9938,"1350": 39.8664,"1375": 34.9569,"1400": 31.7154,"1425": 28.9921,"1450": 25.5414,"1475": 22.27,"1500": 16.3359,"1525": 11.47,"1550": 9.3192,"1575": 8.0482,"1600": 7.2745,"1625": 7.122,"1650": 5.4103,"1675": 4.9626,"1700": 4.3101,"1725": 3.5078,"1750": 2.825,"1775": 2.5303,"1800": 1.5946,"1825": 1.5221,"1850": 1.299,"1875": 0.7913,"1900": 0.7913,"1925": 0.4564,"1950": 0.2536,"1975": 0.1217,"2000": 0.0811,"2025": 0.0203,"2050": 0.0203,"2075": 0.0101}}}