{"type": "Feature","bbox": [11.0714,63.8354,11.5162,63.9771],"geometry": {"type": "MultiPolygon","coordinates": [[[[11.3083,63.8354,0.0],[11.3099,63.837,6.6598],[11.3068,63.837,3.9331],[11.3068,63.8359,0.0],[11.3083,63.8354,0.0]]],
[[[11.0797,63.8943,15.7193],[11.0813,63.8937,9.4821],[11.0828,63.8953,18.6737],[11.0813,63.8958,28.6056],[11.0797,63.8943,15.7193]]],
[[[11.3709,63.9689,8.0956],[11.3721,63.969,8.0956],[11.3703,63.9724,0.0],[11.3661,63.9745,6.8524],[11.3583,63.975,3.0924],[11.3458,63.9708,6.0661],[11.3292,63.9688,0.0],[11.3188,63.9646,0.0],[11.312,63.9682,0.0],[11.3047,63.9693,0.0],[11.2896,63.9771,0.0],[11.2755,63.9724,0.0],[11.2745,63.9672,10.2727],[11.2724,63.9651,0.0],[11.2672,63.9641,0.0],[11.2661,63.9609,23.0015],[11.2609,63.9599,1.5764],[11.2599,63.9547,21.7712],[11.2547,63.9536,0.0],[11.2516,63.9505,9.4389],[11.2411,63.9464,22.3094],[11.2333,63.9458,0.0],[11.2255,63.9432,0.0],[11.2245,63.938,0.0],[11.2151,63.937,24.4893],[11.213,63.9349,22.9088],[11.2078,63.9193,32.779],[11.2026,63.9182,0.0],[11.1995,63.9151,24.7164],[11.1896,63.9146,0.0],[11.1833,63.9167,0.0],[11.1703,63.9089,0.0],[11.1625,63.9083,0.0],[11.1521,63.9042,16.7806],[11.1458,63.9042,0.0],[11.1417,63.9063,11.2436],[11.1271,63.9063,15.957],[11.1245,63.9026,18.7523],[11.1151,63.9016,0.0],[11.1141,63.8984,0.0],[11.1026,63.8953,0.0],[11.0974,63.8922,42.4966],[11.0833,63.8875,46.9719],[11.0755,63.887,0.0],[11.0734,63.8797,0.0],[11.076599999999999,63.8786,5.0779],[11.0776,63.8755,0.0],[11.0807,63.8734,156.9366],[11.0786,63.8714,100.2525],[11.0734,63.8703,13.7551],[11.0714,63.863,0.0],[11.0745,63.862,118.0547],[11.0734,63.8568,0.0],[11.0807,63.8516,88.4623],[11.0797,63.8484,0.0],[11.0828,63.8474,55.4301],[11.0839,63.8443,19.3073],[11.0958,63.8375,0.0],[11.1021,63.8396,51.6006],[11.1313,63.8396,35.3256],[11.1354,63.8375,0.0],[11.1458,63.8417,42.9],[11.15,63.8396,0.0],[11.1646,63.8438,32.5372],[11.175,63.8438,0.0],[11.1828,63.8484,0.0],[11.1859,63.8536,10.2598],[11.1938,63.8563,8.1391],[11.2042,63.8563,0.0],[11.2354,63.8688,0.0],[11.2432,63.8682,0.0],[11.2417,63.8646,0.0],[11.2438,63.8625,0.0],[11.2583,63.8625,0.0],[11.2625,63.8646,23.0201],[11.2703,63.8651,0.0],[11.2729,63.8688,0.0],[11.2896,63.8688,0.0],[11.2911,63.8682,5.9944],[11.2901,63.8651,0.0],[11.2974,63.8641,10.6356],[11.2984,63.8609,13.5136],[11.3141,63.8557,0.0],[11.312,63.8526,0.0],[11.3068,63.8495,0.0],[11.3047,63.8453,0.0],[11.313,63.8401,0.0],[11.3229,63.8375,0.0],[11.3333,63.8375,17.4558],[11.3375,63.8354,0.0],[11.3417,63.8375,0.0],[11.3479,63.8375,6.7669],[11.3521,63.8354,0.0],[11.375,63.8354,0.0],[11.3932,63.8401,0.0],[11.3901,63.8432,13.3955],[11.3953,63.8443,0.0],[11.3964,63.8474,2.6571],[11.3996,63.8473,0.0],[11.4005,63.8487,6.9743],[11.4062,63.8471,18.3114],[11.4133,63.84,60.5971],[11.4205,63.8404,150.6959],[11.4192,63.8449,153.4265],[11.4394,63.8461,243.256],[11.438,63.8505,243.7972],[11.4784,63.8529,302.7872],[11.4771,63.8573,292.7375],[11.5074,63.8591,310.0933],[11.5061,63.8635,300.1479],[11.5162,63.8641,388.424],[11.5148,63.8685,286.0524],[11.5047,63.868,292.7983],[11.502,63.8769,263.8396],[11.4919,63.8763,254.544],[11.4906,63.8807,222.3429],[11.4602,63.879,173.6942],[11.4589,63.8834,180.5587],[11.4387,63.8823,88.1864],[11.4373,63.8867,156.6629],[11.4272,63.8861,91.9605],[11.4258,63.8906,60.167],[11.3348,63.8853,0.0],[11.3307,63.8986,0.0],[11.3408,63.8992,0.0],[11.3367,63.9126,0.0],[11.3468,63.9132,0.0],[11.3441,63.9221,0.0],[11.3542,63.9227,0.0],[11.3515,63.9316,0.0],[11.3616,63.9322,0.0],[11.3588,63.9411,-0.5976],[11.369,63.9416,0.0],[11.3649,63.955,56.3245],[11.375,63.9556,13.4403],[11.3709,63.9689,8.0956]]]]}
,"properties": {"GID_2": "NOR.9.6_1","GID_0": "NOR","country": "Norway","GID_1": "NOR.9_1","province": "Nord-Trøndelag","NL_NAME_1": "NA","county": "Inderøy","VARNAME_2": "NA","NL_NAME_2": "NA","TYPE_2": "Kommuner","ENGTYPE_2": "Municipality","CC_2": "NA","HASC_2": "NO.NT.IN","name": "Inderøy.county","area_km2": 157.3866,"hist_schema_id": "Elevation0-9000","hist_area_km2": {"0": 21.7199,"25": 17.7196,"50": 18.1525,"75": 18.0157,"100": 21.5571,"125": 19.5134,"150": 14.5462,"175": 10.7772,"200": 7.2978,"225": 3.1653,"250": 1.9799,"275": 0.6912,"300": 0.962,"325": 0.7098,"350": 0.5417,"375": 0.0374}}}