{"type": "Feature","bbox": [4.8047,61.6656,5.8974,61.9167],"geometry": {"type": "MultiPolygon","coordinates": [[[[5.138,61.7505,0.0],[5.1411,61.7505,7.2001],[5.1411,61.7516,9.4249],[5.1396,61.7521,0.0],[5.138,61.7505,0.0]]],
[[[5.8572,61.8367,793.2097],[5.8479,61.8357,719.2597],[5.8438,61.8438,552.7141],[5.8396,61.8417,701.8],[5.8208,61.8417,173.2879],[5.8167,61.8396,244.8631],[5.8125,61.8396,184.2563],[5.8083,61.8417,17.1497],[5.7937,61.8417,130.635],[5.7896,61.8438,23.8623],[5.7854,61.8438,9.7144],[5.7771,61.8396,323.9336],[5.7625,61.8396,176.8257],[5.7583,61.8375,409.8881],[5.7333,61.8417,0.0],[5.7318,61.8432,0.0],[5.75,61.8438,0.0],[5.7536,61.8464,0.0],[5.7547,61.8495,0.0],[5.7688,61.85,0.0],[5.7703,61.8516,35.5904],[5.7667,61.8542,0.0],[5.7521,61.8563,76.0274],[5.7479,61.8542,333.4702],[5.7411,61.8578,116.0691],[5.7339,61.8589,258.7329],[5.7333,61.8625,26.4478],[5.7349,61.8661,0.0],[5.7318,61.8672,0.0],[5.7307,61.8703,0.0],[5.7193,61.8755,15.8535],[5.7182,61.8786,0.0],[5.7,61.8833,157.5101],[5.6875,61.8833,260.6756],[5.6833,61.8854,148.3044],[5.675,61.8854,194.1808],[5.6708,61.8875,20.7925],[5.6521,61.8875,39.3706],[5.6438,61.8917,0.0],[5.6396,61.8917,6.0606],[5.6354,61.8937,0.0],[5.6271,61.8937,95.7884],[5.6146,61.8979,79.1454],[5.6021,61.8979,148.7509],[5.5875,61.8937,423.7323],[5.5729,61.8937,227.1155],[5.5688,61.8917,175.181],[5.5479,61.8896,0.0],[5.5438,61.8917,0.0],[5.5359,61.8922,0.9355],[5.537,61.8974,0.0],[5.5229,61.9042,163.8281],[5.5104,61.9042,159.3799],[5.5063,61.9063,0.0],[5.5,61.9063,0.0],[5.4958,61.9042,91.7619],[5.4917,61.9063,0.0],[5.4667,61.9063,0.0],[5.4313,61.9167,34.9101],[5.4188,61.9146,21.3348],[5.4146,61.9125,146.0355],[5.4104,61.9146,0.0],[5.4063,61.9125,7.9735],[5.4,61.9125,0.0],[5.3917,61.9083,18.5987],[5.3875,61.9104,0.0],[5.3797,61.9078,0.0],[5.3786,61.9026,102.6771],[5.3495,61.8901,15.853],[5.3422,61.8891,0.0],[5.3396,61.8854,2.8425],[5.3359,61.8859,0.0],[5.3369,61.8891,0.0],[5.3313,61.8917,5.455],[5.3271,61.8896,30.492],[5.3125,61.8896,0.0],[5.3083,61.8917,18.3947],[5.3,61.8917,3.6785],[5.2958,61.8896,53.6312],[5.288,61.8891,55.0268],[5.2839,61.887,95.1845],[5.2813,61.8833,314.1824],[5.2771,61.8875,24.5327],[5.2667,61.8875,115.1007],[5.2625,61.8854,188.8033],[5.2542,61.8854,215.6898],[5.25,61.8833,307.9175],[5.2188,61.8833,48.4682],[5.2146,61.8812,181.1791],[5.2104,61.8833,27.9453],[5.2028,61.8829,6.9096],[5.1979,61.8792,5.3005],[5.2,61.8771,0.0],[5.2167,61.8771,10.7162],[5.225,61.8729,0.0],[5.2646,61.8729,0.0],[5.2688,61.8688,0.0],[5.2833,61.8688,30.6087],[5.2875,61.8667,0.0],[5.2917,61.8688,49.1852],[5.3042,61.8688,0.0],[5.3062,61.8667,0.0],[5.3047,61.8589,8.0717],[5.3104,61.8563,0.0],[5.3333,61.8542,64.7284],[5.3542,61.8479,0.0],[5.3583,61.85,74.5058],[5.3625,61.8479,0.0],[5.3813,61.8479,0.0],[5.3828,61.8474,0.0],[5.3818,61.8443,197.8013],[5.3833,61.8438,189.9852],[5.3938,61.8438,185.8822],[5.3979,61.8458,33.1819],[5.4021,61.8458,68.9223],[5.4063,61.8438,218.8351],[5.4161,61.8432,225.4671],[5.412,61.8401,671.5795],[5.3833,61.8396,643.0112],[5.3792,61.8375,692.0482],[5.375,61.8396,752.3672],[5.3646,61.8354,582.0471],[5.3604,61.8375,740.8824],[5.3521,61.8375,676.6646],[5.3396,61.8417,561.8187],[5.3354,61.8417,619.7723],[5.3208,61.8375,496.246],[5.3042,61.8375,118.9853],[5.2964,61.8349,22.0639],[5.2964,61.8318,3.8842],[5.3062,61.8292,0.0],[5.3266,61.8307,136.1157],[5.3214,61.8286,53.7819],[5.3245,61.8255,339.1373],[5.3188,61.8229,452.2338],[5.3104,61.8229,357.7559],[5.3042,61.8208,369.4736],[5.3,61.8229,165.8315],[5.2917,61.8229,83.6672],[5.2875,61.8187,336.5536],[5.2646,61.8187,172.1016],[5.2604,61.8167,213.6405],[5.2292,61.8167,0.0],[5.225,61.8146,0.0],[5.2208,61.8167,83.1985],[5.1979,61.8167,4.7588],[5.1958,61.8146,0.0],[5.1979,61.8125,0.0],[5.2161,61.812,0.0],[5.2146,61.8104,11.7654],[5.2063,61.8104,0.0],[5.2047,61.8089,10.7398],[5.2161,61.8078,67.0334],[5.2161,61.8047,326.4076],[5.1958,61.8063,241.0138],[5.1917,61.8042,584.3707],[5.1875,61.8063,362.1367],[5.1708,61.8063,263.6284],[5.1563,61.8,502.5728],[5.1401,61.7974,232.4992],[5.1391,61.7943,450.1339],[5.1255,61.7911,321.2921],[5.1172,61.787,172.1782],[5.1161,61.7839,95.3267],[5.1109,61.7828,81.289],[5.1099,61.7797,288.8344],[5.0964,61.7745,55.841],[5.0958,61.7647,68.7426],[5.0984,61.7609,0.0],[5.1063,61.7604,0.0],[5.1104,61.7625,0.0],[5.1229,61.7625,0.0],[5.1313,61.7583,3.8084],[5.1474,61.7672,0.0],[5.1484,61.7703,24.8916],[5.1563,61.7729,10.7932],[5.1604,61.7708,0.0],[5.1646,61.7729,0.0],[5.1771,61.7729,0.0],[5.1813,61.7708,0.0],[5.2,61.7708,0.0],[5.2042,61.7729,32.6406],[5.2229,61.7729,0.0],[5.2271,61.7771,138.8451],[5.2313,61.775,0.0],[5.2396,61.775,0.0],[5.2438,61.7771,25.6647],[5.2667,61.7771,14.397],[5.2708,61.775,0.0],[5.2833,61.775,38.8244],[5.2932,61.7724,0.0],[5.2849,61.7672,13.701],[5.2729,61.7625,17.9441],[5.2688,61.7625,19.3427],[5.2604,61.7667,24.0949],[5.2563,61.7667,44.6116],[5.2458,61.7625,0.0],[5.2375,61.7625,10.3792],[5.2333,61.7646,0.0],[5.2208,61.7604,42.0555],[5.2146,61.7604,0.0],[5.213,61.7599,6.0263],[5.212,61.7547,282.6208],[5.2021,61.7521,458.6312],[5.1901,61.7526,331.4327],[5.1943,61.7557,77.7938],[5.1995,61.7568,23.9673],[5.1979,61.7583,0.0],[5.1937,61.7583,20.9369],[5.1896,61.7604,0.0],[5.1792,61.7604,5.5931],[5.175,61.7583,0.0],[5.1667,61.7625,0.0],[5.1604,61.7562,24.9231],[5.1609,61.7547,58.6753],[5.1667,61.7542,279.9573],[5.1682,61.7526,424.2379],[5.1505,61.7536,0.0],[5.1484,61.7443,5.2936],[5.1516,61.7432,0.0],[5.1526,61.7401,8.8115],[5.1625,61.7375,8.2201],[5.1708,61.7375,0.0],[5.175,61.7354,0.0],[5.1854,61.7375,18.7324],[5.212,61.7307,1.7551],[5.2203,61.7266,0.0],[5.2203,61.7234,32.2567],[5.2125,61.7208,28.7253],[5.2083,61.7208,53.076],[5.2042,61.7229,0.0],[5.2,61.7208,19.1527],[5.1958,61.7208,4.0349],[5.1917,61.7229,6.6295],[5.1771,61.7229,0.0],[5.1714,61.7203,0.0],[5.1688,61.7167,0.0],[5.1661,61.7203,0.0],[5.162,61.7224,0.0],[5.1547,61.7234,7.9829],[5.1464,61.7276,42.468],[5.1453,61.7328,34.1166],[5.138,61.7339,48.9871],[5.1292,61.7396,14.9812],[5.1188,61.7396,25.0226],[5.1167,61.7375,15.0134],[5.1151,61.7276,0.0],[5.1182,61.7266,0.0],[5.1193,61.7193,0.0],[5.1229,61.7167,81.953],[5.1203,61.7109,0.0],[5.1104,61.7104,0.0],[5.1083,61.7125,0.0],[5.1099,61.7203,0.0],[5.1068,61.7214,0.0],[5.1057,61.7286,0.0],[5.1026,61.7297,0.0],[5.1078,61.7339,0.0],[5.1078,61.737,15.2125],[5.1047,61.738,11.7738],[5.1036,61.7411,5.7296],[5.0964,61.7443,18.4176],[5.0953,61.7474,15.1244],[5.0896,61.7479,143.5869],[5.0813,61.7521,29.4715],[5.0729,61.7521,76.714],[5.0688,61.7542,28.4832],[5.0646,61.7521,265.9732],[5.0604,61.7521,272.2509],[5.0563,61.7562,53.492],[5.0375,61.7562,43.3115],[5.0307,61.7526,64.8676],[5.0234,61.7516,0.0],[5.0224,61.7484,75.9686],[5.0089,61.7432,31.1086],[5.0057,61.738,249.2563],[5.0,61.7375,197.5125],[4.9943,61.7391,9.2555],[4.9932,61.7359,67.8106],[4.9839,61.7328,0.0],[4.9833,61.7313,0.0],[4.9839,61.7276,0.0],[4.9896,61.7271,12.4227],[4.9911,61.7255,2.7737],[4.9813,61.725,0.5004],[4.9734,61.7224,18.2061],[4.9724,61.7193,12.3553],[4.9693,61.7172,0.769],[4.9724,61.7161,1.5731],[4.9734,61.713,8.9635],[4.9766,61.712,17.8981],[4.9764,61.7108,9.0199],[4.9812,61.7113,302.5851],[4.9833,61.7069,81.065],[5.0018,61.7089,289.0828],[5.004,61.7046,444.5349],[5.0225,61.7066,230.6753],[5.0246,61.7022,245.3578],[5.0339,61.7032,261.6442],[5.036,61.6989,296.2673],[5.0453,61.6999,528.9444],[5.0517,61.6868,502.3768],[5.061,61.6878,539.2316],[5.0631,61.6834,433.728],[5.1001,61.6875,477.2903],[5.1022,61.6831,547.9501],[5.1115,61.6841,588.9587],[5.1179,61.671,688.6912],[5.1456,61.674,583.8292],[5.1478,61.6697,616.351],[5.1755,61.6727,479.5443],[5.1733,61.6771,512.0231],[5.1826,61.6781,575.9226],[5.1805,61.6824,544.2327],[5.1897,61.6834,527.429],[5.1918,61.6791,536.5464],[5.2103,61.6811,594.8196],[5.2146,61.6723,648.4222],[5.2238,61.6733,639.8502],[5.2259,61.669,711.8709],[5.2352,61.67,581.7982],[5.2373,61.6656,690.9457],[5.3482,61.6775,526.887],[5.3461,61.6819,538.627],[5.3554,61.6829,743.0862],[5.3512,61.6916,814.0314],[5.3419,61.6906,868.1699],[5.3377,61.6994,992.0016],[5.3284,61.6984,766.0],[5.3179,61.7202,704.4338],[5.3271,61.7212,1041.6788],[5.3292,61.7169,1063.6167],[5.357,61.7198,874.6608],[5.3591,61.7155,915.5484],[5.3684,61.7165,836.4684],[5.3705,61.7121,853.5907],[5.3983,61.7151,1023.2043],[5.3962,61.7194,1003.4417],[5.4332,61.7234,790.2339],[5.4311,61.7278,788.4296],[5.4404,61.7287,653.8293],[5.4383,61.7331,844.1037],[5.4476,61.7341,1226.0497],[5.4455,61.7385,1274.3597],[5.5104,61.7454,762.884],[5.5146,61.7366,613.2898],[5.5238,61.7376,581.9709],[5.5259,61.7332,554.799],[5.5537,61.7362,895.66],[5.5558,61.7318,1167.946],[5.7228,61.7493,1102.2046],[5.7248,61.7449,1107.7303],[5.7712,61.7497,1074.7957],[5.7733,61.7454,1243.3391],[5.8197,61.7502,1119.9459],[5.8177,61.7546,1196.5579],[5.8362,61.7565,1200.1884],[5.8342,61.7609,1128.1738],[5.8528,61.7628,1006.0839],[5.8487,61.7715,1055.9323],[5.858,61.7725,942.5619],[5.8539,61.7813,1185.8574],[5.8632,61.7822,1270.0885],[5.8591,61.791,1317.0428],[5.8684,61.7919,1366.1895],[5.8663,61.7963,1407.8395],[5.8756,61.7973,1384.0396],[5.8736,61.8016,1431.8993],[5.8829,61.8026,1363.0562],[5.8808,61.807,1351.3774],[5.8902,61.8079,1360.672],[5.8881,61.8123,1187.6719],[5.8974,61.8133,1203.5916],[5.8954,61.8177,981.8477],[5.8861,61.8167,1091.0],[5.882,61.8255,1059.4587],[5.8727,61.8245,911.0356],[5.8706,61.8289,843.6136],[5.8613,61.8279,954.4557],[5.8572,61.8367,793.2097]]],
[[[5.2922,61.8391,0.0],[5.2938,61.8417,0.0],[5.2917,61.8438,0.0],[5.2875,61.8417,79.0954],[5.2833,61.8438,140.5165],[5.2771,61.8438,31.2202],[5.275,61.8417,43.399],[5.2755,61.838,0.0],[5.2771,61.8375,40.215],[5.2896,61.8375,0.0],[5.2922,61.8391,0.0]]],
[[[4.9063,61.7729,0.0],[4.9068,61.7714,0.0],[4.9125,61.7708,3.2962],[4.9161,61.7745,0.5122],[4.9104,61.7771,2.2643],[4.9063,61.7729,0.0]]],
[[[4.8563,61.8063,0.0],[4.8438,61.8083,23.0659],[4.8339,61.8057,25.0011],[4.8328,61.8026,171.4723],[4.8276,61.8016,9.4561],[4.8266,61.7984,216.4531],[4.8224,61.7964,272.8574],[4.8089,61.7953,170.9935],[4.8078,61.7922,261.8911],[4.8047,61.7911,193.4255],[4.8047,61.788,35.813],[4.812,61.787,5.1867],[4.8229,61.7813,0.0],[4.837,61.7786,22.1571],[4.8411,61.7766,94.2927],[4.8422,61.7714,54.0345],[4.8479,61.7708,39.7533],[4.8536,61.7682,5.3484],[4.8484,61.7661,1.891],[4.8479,61.7646,7.9783],[4.8484,61.7568,0.0],[4.8516,61.7557,71.0815],[4.8505,61.7526,16.875],[4.8521,61.7521,30.3961],[4.8682,61.7526,0.0],[4.8693,61.7557,10.1617],[4.8786,61.7609,1.7981],[4.8797,61.7682,26.9738],[4.8875,61.7687,0.0],[4.9016,61.7734,0.0],[4.9036,61.7807,0.0],[4.8964,61.7818,4.6595],[4.9,61.7854,0.0],[4.8964,61.788,14.8904],[4.8953,61.7911,24.5945],[4.8896,61.7917,0.0],[4.8813,61.7958,41.6934],[4.8771,61.7958,0.0],[4.8729,61.7938,159.5313],[4.8672,61.7943,205.5732],[4.8661,61.8016,0.0],[4.8563,61.8063,0.0]]],
[[[4.9,61.7896,0.0],[4.9021,61.7875,0.0],[4.9083,61.7875,0.0],[4.9104,61.7896,0.0],[4.9083,61.7917,0.0],[4.9021,61.7917,0.0],[4.9,61.7896,0.0]]],
[[[4.9646,61.9042,99.6154],[4.9604,61.9042,172.7953],[4.9563,61.9063,109.1563],[4.9354,61.9063,97.5895],[4.9193,61.8995,208.4975],[4.9182,61.8964,236.7781],[4.9047,61.8932,111.0992],[4.9063,61.8917,0.0],[4.9203,61.8891,7.4773],[4.9286,61.8849,0.0],[4.9255,61.8818,0.0],[4.9411,61.8807,288.1675],[4.937,61.8776,554.4478],[4.9313,61.8792,108.2738],[4.9271,61.8771,283.8752],[4.9167,61.8771,341.5128],[4.9125,61.875,484.0362],[4.9083,61.8771,114.7275],[4.8896,61.8771,76.7027],[4.8854,61.875,137.4986],[4.8771,61.875,0.0],[4.8745,61.8714,287.9951],[4.8625,61.8708,357.0581],[4.8516,61.8651,400.9396],[4.8276,61.8578,125.5675],[4.8266,61.8547,323.8743],[4.8234,61.8526,100.2039],[4.8292,61.85,48.2471],[4.8349,61.8495,74.2013],[4.8417,61.8458,0.0],[4.8688,61.8458,0.0],[4.8729,61.8479,0.0],[4.8854,61.8479,0.0],[4.8953,61.8453,0.0],[4.8964,61.8401,0.0],[4.8995,61.8391,0.0],[4.9021,61.8354,0.0],[4.9271,61.8354,0.0],[4.9333,61.8333,0.0],[4.9417,61.8375,0.0],[4.95,61.8375,4.8255],[4.9542,61.8354,0.0],[4.9646,61.8396,0.0],[4.9688,61.8396,0.0],[4.9729,61.8375,0.0],[4.9854,61.8375,3.9651],[4.9896,61.8354,0.0],[4.9953,61.837,0.0],[4.9953,61.8339,0.0],[4.9938,61.8333,0.0],[4.9896,61.8333,0.0],[4.9854,61.8312,16.3827],[4.9708,61.8312,0.0],[4.9667,61.8271,56.8764],[4.9563,61.8271,0.0],[4.9505,61.8245,7.6609],[4.962,61.8182,0.4698],[4.962,61.8151,0.0],[4.9563,61.8125,0.0],[4.9417,61.8146,0.0],[4.9391,61.8182,0.0],[4.9292,61.8208,15.659],[4.9047,61.8141,14.8835],[4.9047,61.8089,0.0],[4.912,61.8057,13.3195],[4.913,61.8026,17.2396],[4.9161,61.8016,37.2665],[4.9151,61.7984,0.0],[4.9182,61.7974,0.0],[4.9234,61.7901,0.0],[4.9266,61.7891,0.0],[4.9276,61.7839,0.0],[4.9307,61.7828,0.0],[4.9255,61.7807,0.0],[4.925,61.7729,15.3177],[4.9255,61.7714,19.8203],[4.9313,61.7687,0.0],[4.9396,61.7687,11.2568],[4.9422,61.7724,8.9944],[4.9516,61.7755,2.9872],[4.9484,61.7786,0.0],[4.9516,61.7797,0.0],[4.9516,61.7828,0.0],[4.9443,61.788,0.0],[4.9453,61.7911,0.0],[4.9422,61.7922,0.0],[4.9417,61.7958,0.0],[4.9438,61.7979,0.0],[4.9536,61.7932,0.0],[4.9536,61.7901,0.0],[4.9505,61.788,0.0],[4.9563,61.7854,0.0],[4.962,61.7849,34.8009],[4.9568,61.7828,9.1215],[4.9604,61.7792,43.3048],[4.9568,61.7755,4.4469],[4.9625,61.775,0.0],[4.9708,61.7792,13.6437],[4.9854,61.7792,0.0],[4.9938,61.7833,25.1934],[5.0042,61.7833,0.0],[5.0083,61.7854,0.0],[5.0125,61.7854,0.0],[5.0151,61.7891,11.0898],[5.0271,61.7938,4.9906],[5.037,61.7943,0.0],[5.0443,61.7995,0.0],[5.05,61.8,0.0],[5.0557,61.8026,3.3457],[5.0589,61.8057,2.8752],[5.0688,61.8063,0.0],[5.0875,61.8146,6.619],[5.0995,61.8151,0.0],[5.113,61.8224,0.0],[5.1182,61.8234,0.0],[5.1208,61.8271,0.0],[5.1292,61.8229,0.0],[5.1333,61.8229,0.0],[5.1375,61.825,5.8892],[5.1646,61.8271,0.0],[5.1688,61.8292,9.7587],[5.1875,61.8292,0.0],[5.1958,61.8333,10.8255],[5.2021,61.8312,0.0],[5.2063,61.8333,0.0],[5.25,61.8333,0.0],[5.2578,61.838,0.0],[5.2547,61.8411,0.0],[5.2578,61.8422,0.0],[5.2578,61.8453,0.0],[5.2547,61.8464,0.0],[5.2536,61.8516,15.7257],[5.2505,61.8526,86.0345],[5.2516,61.8557,455.0345],[5.2354,61.8563,767.9902],[5.2313,61.8583,666.2711],[5.2255,61.8568,716.4685],[5.2255,61.8599,578.8104],[5.2307,61.8609,446.7775],[5.2318,61.8641,180.5346],[5.2349,61.8651,92.9857],[5.2333,61.8667,4.3808],[5.2063,61.8667,527.6161],[5.2021,61.8688,266.9386],[5.1937,61.8688,321.3617],[5.1896,61.8708,195.0777],[5.1771,61.8708,146.6812],[5.1729,61.8729,107.3165],[5.125,61.8729,437.5438],[5.1208,61.875,329.1112],[5.1104,61.875,397.037],[5.1063,61.8729,471.1026],[5.0938,61.8729,392.095],[5.0911,61.8766,13.8858],[5.0839,61.8776,4.9194],[5.0771,61.8812,0.0],[5.0688,61.8812,123.9579],[5.0646,61.8833,151.0535],[5.0458,61.8833,377.588],[5.0333,61.8875,162.6438],[5.025,61.8875,322.6931],[5.0208,61.8854,458.88869999999997],[5.0083,61.8896,148.2066],[5.0021,61.8896,344.2856],[4.9974,61.8932,94.1569],[4.988,61.8943,288.6609],[4.9766,61.9016,136.3913],[4.9688,61.9021,225.4589],[4.9646,61.9042,99.6154]]]]}
,"properties": {"GID_2": "NOR.14.5_1","GID_0": "NOR","country": "Norway","GID_1": "NOR.14_1","province": "SognogFjordane","NL_NAME_1": "NA","county": "Bremanger","VARNAME_2": "NA","NL_NAME_2": "NA","TYPE_2": "Kommuner","ENGTYPE_2": "Municipality","CC_2": "NA","HASC_2": "NO.SF.BR","name": "Bremanger.county","area_km2": 829.862,"hist_schema_id": "Elevation0-9000","hist_area_km2": {"0": 36.682,"25": 24.9353,"50": 17.1292,"75": 15.4457,"100": 16.0151,"125": 15.6732,"150": 15.1703,"175": 16.5119,"200": 17.8336,"225": 20.0075,"250": 19.8966,"275": 22.7501,"300": 21.5869,"325": 22.8597,"350": 24.5627,"375": 25.7757,"400": 26.7488,"425": 26.079,"450": 26.1697,"475": 26.2776,"500": 29.0603,"525": 24.2386,"550": 23.3878,"575": 18.4278,"600": 16.5605,"625": 15.1191,"650": 15.392,"675": 16.1257,"700": 14.5611,"725": 13.7505,"750": 13.0996,"775": 13.3446,"800": 12.1087,"825": 12.3184,"850": 12.1187,"875": 10.9565,"900": 12.2404,"925": 10.5354,"950": 9.3023,"975": 9.6656,"1000": 8.2214,"1025": 8.6724,"1050": 8.1129,"1075": 7.2017,"1100": 6.9204,"1125": 6.0581,"1150": 5.3461,"1175": 4.7846,"1200": 4.9049,"1225": 4.4534,"1250": 3.8411,"1275": 3.4898,"1300": 3.3692,"1325": 2.9779,"1350": 2.2758,"1375": 1.9141,"1400": 1.8237,"1425": 1.8137,"1450": 1.0722,"1475": 0.5411,"1500": 0.3207,"1525": 0.2004,"1550": 0.3206,"1575": 0.2605,"1600": 0.3006,"1625": 0.1102,"1650": 0.1102,"1675": 0.02}}}