{"type": "Feature","bbox": [5.6518,61.5864,6.7349,61.8604],"geometry": {"type": "MultiPolygon","coordinates": [[[[5.6764,61.7445,1193.0959],[5.6671,61.7435,1277.4716],[5.6816,61.7128,904.4821],[5.6908,61.7138,586.3862],[5.6991,61.6963,1018.5803],[5.7083,61.6973,945.6407],[5.7104,61.6929,741.4313],[5.7011,61.6919,759.605],[5.7073,61.6788,553.4918],[5.698,61.6778,650.9119],[5.7022,61.6691,649.9612],[5.6929,61.6681,612.247],[5.695,61.6637,589.1467],[5.6857,61.6628,525.4785],[5.6878,61.6584,605.619],[5.6785,61.6574,584.0134],[5.6806,61.653,669.1816],[5.6713,61.6521,745.5284],[5.6734,61.6477,690.8219],[5.6641,61.6467,687.8701],[5.6662,61.6423,519.988],[5.6569,61.6414,511.061],[5.6611,61.6326,332.304],[5.6518,61.6316,248.1273],[5.6703,61.5923,690.7076],[5.6796,61.5932,710.8091],[5.6816,61.5889,766.004],[5.7001,61.5908,669.8335],[5.7022,61.5864,823.8969],[5.7576,61.5922,763.1714],[5.7555,61.5966,702.8185],[5.774,61.5985,862.0234],[5.7719,61.6029,872.7252],[5.7812,61.6039,921.4209],[5.7791,61.6082,1064.5143],[5.7976,61.6102,998.0413],[5.7956,61.6145,910.688],[5.8326,61.6184,794.0931],[5.8346,61.614,596.2099],[5.8531,61.6159,779.2478],[5.8551,61.6115,816.0776],[5.8736,61.6135,802.2139],[5.8716,61.6178,739.9767],[5.8901,61.6197,620.4203],[5.888,61.6241,645.8339],[5.9713,61.6327,740.9353],[5.9693,61.6371,886.9584],[6.0156,61.6418,730.1746],[6.0176,61.6374,907.2834],[6.0361,61.6393,978.1042],[6.0381,61.635,905.8677],[6.0659,61.6378,726.1282],[6.0679,61.6334,839.0945],[6.0956,61.6362,941.7115],[6.0936,61.6406,907.5952],[6.2048,61.6519,1327.9608],[6.2107,61.6387,1263.1328],[6.22,61.6397,1350.0011],[6.218,61.644,1329.1575],[6.2736,61.6496,1452.2982],[6.2716,61.654,1267.6979],[6.2902,61.6559,1127.6531],[6.2882,61.6603,1063.0382],[6.2975,61.6612,1192.2697],[6.2994,61.6568,1215.704],[6.3087,61.6577,1410.5255],[6.3126,61.649,1364.5227],[6.3219,61.6499,1270.6562],[6.3317,61.628,1269.7246],[6.3225,61.627,1053.673],[6.3323,61.6051,907.0894],[6.3416,61.606,1079.2844],[6.3455,61.5972,1007.8513],[6.3825,61.6009,1068.3959],[6.3805,61.6053,940.4872],[6.3898,61.6063,875.1139],[6.3878,61.6106,896.9708],[6.3971,61.6116,877.7911],[6.3951,61.616,917.2319],[6.4044,61.6169,962.4301],[6.3966,61.6344,1401.9891],[6.4059,61.6353,1459.7804],[6.4039,61.6397,1451.4983],[6.4688,61.6462,1173.8882],[6.4707,61.6418,1004.1369],[6.5078,61.6454,589.3207],[6.5098,61.6411,504.7525],[6.5376,61.6438,1018.645],[6.5395,61.6394,1109.5996],[6.5673,61.6421,927.6984],[6.5693,61.6377,995.1783],[6.5971,61.6405,1064.0],[6.599,61.6361,1240.0697],[6.6175,61.6379,1023.9831],[6.6156,61.6423,1064.2006],[6.6249,61.6432,745.4756],[6.623,61.6476,749.9896],[6.6415,61.6494,1056.2496],[6.6396,61.6538,849.393],[6.6489,61.6547,1228.2079],[6.647,61.6591,1058.473],[6.6655,61.6609,1478.7],[6.6636,61.6653,1574.4177],[6.6729,61.6662,1610.5402],[6.671,61.6706,1633.6249],[6.6895,61.6724,1669.4575],[6.6876,61.6768,1743.3545],[6.6969,61.6777,1677.2037],[6.6873,61.6997,1397.0101],[6.6966,61.7006,1518.7054],[6.6851,61.7269,1701.1138],[6.6944,61.7278,1695.6506],[6.6905,61.7366,1685.2222],[6.6998,61.7375,1694.1879],[6.6979,61.7419,1661.1823],[6.7072,61.7428,1657.8134],[6.7053,61.7472,1633.1893],[6.7146,61.7481,1645.0826],[6.7108,61.7569,1460.761],[6.7201,61.7578,1510.09],[6.7182,61.7622,1501.7711],[6.7275,61.7631,1512.6583],[6.7256,61.7675,1238.0697],[6.7349,61.7684,1310.9818],[6.7253,61.7903,1504.5232],[6.7066,61.7885,1263.0397],[6.7047,61.7929,1514.8817],[6.6861,61.7911,1352.0276],[6.6841,61.7955,1521.9257],[6.6469,61.7919,1226.141],[6.6488,61.7875,1184.5948],[6.6395,61.7866,1132.3157],[6.6414,61.7822,1042.1107],[6.6228,61.7804,1130.7454],[6.6247,61.776,1262.9652],[6.5502,61.7687,848.9185],[6.5483,61.7731,809.9468],[6.5297,61.7713,748.8164],[6.5277,61.7757,733.7696],[6.5091,61.7738,636.9371],[6.5071,61.7782,591.5826],[6.4699,61.7746,746.9203],[6.4679,61.779,797.4373],[6.4493,61.7771,840.2708],[6.4474,61.7815,765.4377],[6.438,61.7806,826.4229],[6.4361,61.785,866.3156],[6.4268,61.7841,943.7037],[6.4248,61.7884,930.5778],[6.4155,61.7875,997.1473],[6.4135,61.7919,803.4379],[6.4042,61.791,817.5202],[6.4023,61.7954,761.3187],[6.3836,61.7935,965.7551],[6.3817,61.7979,864.6445],[6.3258,61.7924,972.2484],[6.3179,61.8099,760.4746],[6.3086,61.809,828.3239],[6.3006,61.8265,610.2266],[6.2913,61.8256,649.8799],[6.2833,61.8432,331.3015],[6.274,61.8422,394.2855],[6.2733,61.8438,311.8946],[6.2542,61.8438,208.0682],[6.25,61.8417,281.7],[6.2396,61.8417,270.6851],[6.2313,61.8375,441.9439],[6.2125,61.8375,89.1074],[6.2042,61.8333,217.6182],[6.1979,61.8333,116.4119],[6.1938,61.8354,0.0],[6.1896,61.8333,18.1864],[6.1854,61.8333,11.0221],[6.1813,61.8354,0.0],[6.1771,61.8333,37.3285],[6.1583,61.8333,45.321],[6.15,61.8292,219.8556],[6.1229,61.8292,74.3774],[6.1047,61.8339,46.3189],[6.1036,61.837,42.3101],[6.0979,61.8375,121.2132],[6.0896,61.8417,57.1512],[6.0839,61.8411,68.7483],[6.0839,61.8359,110.5364],[6.0974,61.8286,0.0],[6.0984,61.8255,0.0],[6.1151,61.8172,0.0],[6.1292,61.8146,35.6032],[6.1318,61.8109,0.0],[6.1375,61.8104,19.5997],[6.1432,61.8078,0.0],[6.1495,61.8036,0.0],[6.1505,61.8005,0.0],[6.1578,61.7995,35.4401],[6.1547,61.7964,0.0],[6.1604,61.7958,27.0309],[6.1661,61.7932,19.9372],[6.1672,61.7901,0.0],[6.1734,61.7859,0.0],[6.1833,61.7833,0.0],[6.1938,61.7833,4.1026],[6.1979,61.7813,0.0],[6.212,61.7807,44.3267],[6.212,61.7776,0.0],[6.2099,61.7755,0.0],[6.2042,61.7729,3.0441],[6.1984,61.7724,11.9677],[6.1974,61.7693,1.3982],[6.1896,61.7667,1.4931],[6.1771,61.7667,0.0],[6.1672,61.7693,6.5002],[6.1604,61.7729,0.0],[6.1521,61.7729,0.0],[6.1479,61.775,0.0],[6.1396,61.775,1.8704],[6.1354,61.7771,0.0],[6.1313,61.7771,0.0],[6.1286,61.7807,0.0],[6.1214,61.7818,0.0],[6.1203,61.7849,0.0],[6.113,61.7859,4.9058],[6.112,61.7911,0.0],[6.1047,61.7943,107.0738],[6.1057,61.7974,0.0],[6.0901,61.8047,0.0],[6.0891,61.8078,0.0],[6.0818,61.8089,54.8603],[6.0776,61.8109,175.3164],[6.075,61.8146,185.1253],[6.0667,61.8146,428.8843],[6.0568,61.8172,620.197],[6.0568,61.8203,340.3819],[6.062,61.8224,50.7908],[6.0589,61.8234,79.8354],[6.0578,61.8286,0.0],[6.0505,61.8297,157.9651],[6.0516,61.8349,0.0],[6.025,61.8438,32.3447],[6.0188,61.8417,43.3191],[6.0104,61.8417,14.2199],[6.0063,61.8396,15.2234],[5.9943,61.8391,0.0],[5.9938,61.8354,0.0],[5.9974,61.8328,14.345],[5.9974,61.8276,239.7241],[5.9953,61.8234,141.5225],[5.9922,61.8224,-0.1125],[5.9891,61.813,35.0549],[5.9797,61.8099,0.0],[5.987,61.8026,71.994],[5.9839,61.8016,0.0],[5.9807,61.7943,0.0],[5.9776,61.7932,0.0],[5.975,61.7896,0.0],[5.9693,61.7922,0.0],[5.9682,61.7953,0.0],[5.9651,61.7964,0.0],[5.9682,61.7984,0.0],[5.9714,61.8078,0.0],[5.9745,61.8089,0.0],[5.9714,61.8109,0.0],[5.9724,61.8161,0.0],[5.9693,61.8182,0.0],[5.9724,61.8193,0.0],[5.9734,61.8224,0.0],[5.9786,61.8234,0.0],[5.9797,61.8328,0.0],[5.9849,61.8359,0.0],[5.9818,61.838,0.0],[5.9818,61.8411,27.2275],[5.987,61.8432,0.0],[5.9729,61.8479,160.9541],[5.9667,61.8479,189.8026],[5.9651,61.8474,228.2165],[5.9641,61.8422,559.2532],[5.9583,61.8396,528.3386],[5.9521,61.8396,668.518],[5.9479,61.8375,818.579],[5.9438,61.8396,892.529],[5.9271,61.8396,1212.944],[5.9161,61.8453,937.7827],[5.9089,61.8464,930.3963],[5.9266,61.8526,128.0847],[5.9208,61.8563,34.4168],[5.9125,61.8563,145.3424],[5.9063,61.8542,373.0273],[5.9021,61.8563,234.1376],[5.8938,61.8563,194.1075],[5.8896,61.8583,0.0],[5.8854,61.8583,0.0],[5.8792,61.8563,0.0],[5.8792,61.8542,87.5907],[5.8625,61.8542,169.9183],[5.8604,61.8563,0.0],[5.862,61.8599,0.0],[5.8583,61.8604,0.0],[5.8484,61.8578,0.0],[5.8474,61.8547,0.0],[5.8422,61.8516,0.0],[5.8422,61.8484,33.1935],[5.8479,61.8458,422.5829],[5.8536,61.8453,654.3171],[5.8479,61.8417,847.0349],[5.8442,61.8436,675.0839],[5.8479,61.8357,719.2597],[5.8572,61.8367,793.2097],[5.8613,61.8279,954.4557],[5.8706,61.8289,843.6136],[5.8727,61.8245,911.0356],[5.882,61.8255,1059.4587],[5.8861,61.8167,1091.0],[5.8954,61.8177,981.8477],[5.8974,61.8133,1203.5916],[5.8881,61.8123,1187.6719],[5.8902,61.8079,1360.672],[5.8808,61.807,1351.3774],[5.8829,61.8026,1363.0562],[5.8736,61.8016,1431.8993],[5.8756,61.7973,1384.0396],[5.8663,61.7963,1407.8395],[5.8684,61.7919,1366.1895],[5.8591,61.791,1317.0428],[5.8632,61.7822,1270.0885],[5.8539,61.7813,1185.8574],[5.858,61.7725,942.5619],[5.8487,61.7715,1055.9323],[5.8528,61.7628,1006.0839],[5.8342,61.7609,1128.1738],[5.8362,61.7565,1200.1884],[5.8177,61.7546,1196.5579],[5.8197,61.7502,1119.9459],[5.7733,61.7454,1243.3391],[5.7712,61.7497,1074.7957],[5.7248,61.7449,1107.7303],[5.7228,61.7493,1102.2046],[5.6764,61.7445,1193.0959]]],
[[[5.8755,61.8568,0.0],[5.8792,61.8563,0.0],[5.8792,61.8583,0.0],[5.8755,61.8578,0.0],[5.8755,61.8568,0.0]]],
[[[5.8672,61.8589,0.0],[5.8729,61.8583,0.0],[5.8745,61.8599,0.0],[5.8688,61.8604,0.0],[5.8672,61.8589,0.0]]]]}
,"properties": {"GID_2": "NOR.14.11_1","GID_0": "NOR","country": "Norway","GID_1": "NOR.14_1","province": "SognogFjordane","NL_NAME_1": "NA","county": "Gloppen","VARNAME_2": "NA","NL_NAME_2": "NA","TYPE_2": "Kommuner","ENGTYPE_2": "Municipality","CC_2": "NA","HASC_2": "NO.SF.GL","name": "Gloppen.county","area_km2": 992.7866,"hist_schema_id": "Elevation0-9000","hist_area_km2": {"0": 14.4693,"25": 7.2221,"50": 29.9223,"75": 11.4374,"100": 8.8203,"125": 24.7261,"150": 15.1473,"175": 14.8555,"200": 15.2771,"225": 13.5494,"250": 13.9032,"275": 13.9935,"300": 17.2539,"325": 17.4656,"350": 16.5036,"375": 17.1652,"400": 18.1525,"425": 18.3409,"450": 20.036,"475": 25.7492,"500": 23.6227,"525": 21.3017,"550": 24.0541,"575": 22.2448,"600": 22.9277,"625": 23.9023,"650": 24.9293,"675": 24.736,"700": 23.6997,"725": 23.1282,"750": 23.8438,"775": 23.1115,"800": 21.5926,"825": 21.5179,"850": 18.9695,"875": 19.0319,"900": 19.4723,"925": 19.8647,"950": 17.682,"975": 16.7878,"1000": 16.3852,"1025": 17.0329,"1050": 16.9433,"1075": 17.7986,"1100": 16.2712,"1125": 16.1502,"1150": 15.6368,"1175": 14.2799,"1200": 12.2835,"1225": 10.4887,"1250": 9.1518,"1275": 8.7728,"1300": 7.708,"1325": 6.05,"1350": 4.7633,"1375": 4.09,"1400": 3.1757,"1425": 2.774,"1450": 2.4429,"1475": 2.3416,"1500": 2.4523,"1525": 1.9797,"1550": 2.0503,"1575": 2.1404,"1600": 2.2908,"1625": 2.0395,"1650": 1.758,"1675": 1.3262,"1700": 1.0448,"1725": 0.5927,"1750": 0.0704,"1775": 0.0302,"1800": 0.0503,"1825": 0.0101}}}