{"type":"Feature","properties":{"GID_2":"NOR.9.23_1","GID_0":"NOR","country":"Norway","GID_1":"NOR.9_1","province":"Nord-Trøndelag","NL_NAME_1":"NA","county":"Verran","VARNAME_2":"NA","NL_NAME_2":"NA","TYPE_2":"Kommuner","ENGTYPE_2":"Municipality","CC_2":"NA","HASC_2":"NO.NT.VR","name":"Verran.county"},
"geometry":{"type": "MultiPolygon","coordinates": [[[[10.6643,63.7945,357.7119],[10.6598,63.8078,100.0243],[10.6498,63.8072,60.1806],[10.6468,63.8161,0.0],[10.6585,63.8215,0.0],[10.6703,63.822,0.0],[10.678,63.8263,23.2928],[10.6754,63.8293,0.0],[10.681,63.8333,0.0],[10.682,63.8368,18.7153],[10.6763,63.8402,43.276],[10.6891,63.8467,82.7435],[10.7042,63.8458,0.0],[10.7188,63.8521,15.5441],[10.725,63.8521,0.0],[10.7328,63.8547,0.0],[10.7396,63.8583,17.9942],[10.75,63.8583,0.0],[10.7604,63.8625,28.2276],[10.7875,63.8667,0.0],[10.8021,63.8708,4.4665],[10.8083,63.8708,0.0],[10.8167,63.875,20.3139],[10.8292,63.875,0.0],[10.8375,63.8792,0.0],[10.8646,63.8833,0.0],[10.8854,63.8917,0.0],[10.8917,63.8917,0.0],[10.8995,63.8943,0.0],[10.9005,63.8974,9.0792],[10.9083,63.9,0.0],[10.9161,63.9005,0.0],[10.9266,63.9047,0.0],[10.9276,63.9078,18.2438],[10.9391,63.9109,0.0],[10.9401,63.9161,0.0],[10.9516,63.9193,0.0],[10.9526,63.9224,0.0],[10.9578,63.9234,0.0],[10.9589,63.9266,20.095],[10.9807,63.9339,0.0],[10.9818,63.937,20.9143],[10.987,63.938,0.0],[10.988,63.9411,0.0],[10.9958,63.9437,3.6614],[11.0078,63.9443,0.0],[11.0151,63.9495,0.0],[11.0172,63.9536,0.0],[11.0224,63.9547,0.0],[11.0234,63.9578,53.1768],[11.0313,63.9583,0.0],[11.0458,63.9646,37.0157],[11.0521,63.9646,0.0],[11.0583,63.9688,94.456],[11.075,63.9708,0.0],[11.0776,63.9745,26.0349],[11.0854,63.9771,55.7806],[11.0958,63.9771,0.0],[11.0984,63.9807,27.7725],[11.1062,63.9813,0.0],[11.1167,63.9854,5.0077],[11.1271,63.9854,0.0],[11.1417,63.9896,62.6002],[11.1583,63.9917,0.0],[11.1625,63.9938,36.5374],[11.1687,63.9938,0.0],[11.1714,63.9974,31.5603],[11.1766,63.9984,18.7658],[11.1797,64.0016,2.786],[11.187,64.0026,0.0],[11.1917,64.0062,4.4176],[11.2078,64.0068,0.0],[11.2109,64.012,9.1581],[11.2161,64.013,0.0],[11.2214,64.0266,0.0],[11.2266,64.0276,0.0],[11.2193,64.0318,50.4877],[11.2203,64.0349,0.0],[11.2172,64.037,56.5313],[11.2203,64.0391,0.0],[11.2182,64.0432,0.0],[11.2151,64.0443,8.5487],[11.2125,64.05,0.0],[11.213,64.0536,6.6324],[11.2182,64.0547,0.0],[11.2151,64.0568,8.366],[11.2172,64.0641,6.5905],[11.2224,64.0651,0.0],[11.2214,64.0724,0.0],[11.2318,64.0766,69.7161],[11.2767,64.0832,56.2617],[11.3227,64.0971,80.9023],[11.3273,64.1001,16.5071],[11.3221,64.1024,0.0],[11.3034,64.1035,39.0153],[11.3117,64.1069,21.9169],[11.3124,64.1105,0.0],[11.2452,64.1066,219.9086],[11.2438,64.1111,233.9958],[11.2235,64.1099,309.968],[11.2221,64.1143,331.464],[11.2119,64.1137,373.3729],[11.2105,64.1182,363.0404],[11.1901,64.117,422.9501],[11.1887,64.1214,394.5479],[11.1683,64.1202,346.4654],[11.1669,64.1247,326.2103],[11.1567,64.1241,340.8484],[11.1524,64.1374,280.8931],[11.1422,64.1368,310.3646],[11.1394,64.1457,326.0358],[11.0884,64.1427,404.7402],[11.087,64.1471,407.7964],[11.0665,64.1459,487.2513],[11.0651,64.1503,396.607],[11.0549,64.1497,384.2253],[11.0563,64.1453,407.7268],[11.0359,64.144,392.9969],[11.0374,64.1396,436.7923],[11.017,64.1384,421.5053],[11.0184,64.1339,463.8664],[10.9878,64.1321,460.3986],[10.9893,64.1276,446.6239],[10.9689,64.1264,266.8788],[10.9703,64.1219,293.3218],[10.9499,64.1207,450.1161],[10.9514,64.1163,406.6447],[10.931,64.115,493.1453],[10.9325,64.1106,439.6748],[10.9019,64.1087,485.8412],[10.9034,64.1043,414.7975],[10.8626,64.1018,494.7687],[10.8641,64.0973,454.4985],[10.8336,64.0954,324.9606],[10.8365,64.0865,323.7212],[10.8263,64.0859,294.4201],[10.8307,64.0726,330.3946],[10.8205,64.0719,327.0078],[10.8249,64.0586,384.526],[10.8147,64.058,312.407],[10.8162,64.0535,305.838],[10.7959,64.0523,387.6801],[10.7974,64.0478,389.7907],[10.7872,64.0472,485.3511],[10.7887,64.0428,369.9175],[10.7785,64.0421,462.4672],[10.78,64.0377,316.1788],[10.7698,64.037,379.2166],[10.7713,64.0326,295.8742],[10.7611,64.032,335.2408],[10.767,64.0142,265.5489],[10.7772,64.0148,259.5],[10.783,63.997,271.113],[10.7729,63.9964,264.4081],[10.7743,63.992,277.8107],[10.7642,63.9913,285.4161],[10.7657,63.9869,335.5306],[10.7555,63.9863,359.3063],[10.7585,63.9774,352.477],[10.7483,63.9767,367.6],[10.7498,63.9723,390.541],[10.7397,63.9717,424.1292],[10.7411,63.9672,444.5867],[10.731,63.9666,519.2235],[10.7325,63.9621,508.539],[10.7224,63.9615,538.8073],[10.7253,63.9526,539.2997],[10.7152,63.952,486.5971],[10.7166,63.9475,503.5866],[10.7065,63.9469,348.5681],[10.708,63.9424,445.5673],[10.6979,63.9418,367.5493],[10.6994,63.9374,360.8589],[10.6791,63.9361,372.2268],[10.6806,63.9316,356.0943],[10.6604,63.9304,377.5681],[10.6618,63.9259,389.2781],[10.6416,63.9246,455.9872],[10.6431,63.9202,486.0648],[10.6229,63.9189,480.8808],[10.6244,63.9145,527.0796],[10.594,63.9126,541.9352],[10.597,63.9037,497.2656],[10.5869,63.903,471.5173],[10.5884,63.8986,508.182],[10.5783,63.8979,463.0713],[10.5798,63.8935,482.9464],[10.5697,63.8928,464.9711],[10.5727,63.884,439.3921],[10.5626,63.8833,408.986],[10.5641,63.8789,395.512],[10.554,63.8782,386.6144],[10.5555,63.8738,403.5171],[10.5454,63.8731,395.6609],[10.5484,63.8643,437.7539],[10.5383,63.8636,414.4759],[10.5398,63.8592,415.9879],[10.5297,63.8585,406.1759],[10.5312,63.8541,369.3825],[10.5211,63.8534,350.0083],[10.5241,63.8445,375.4914],[10.514,63.8439,361.0888],[10.517,63.835,329.2993],[10.5069,63.8344,344.422],[10.5099,63.8255,313.3557],[10.4998,63.8248,293.5877],[10.5013,63.8204,338.8289],[10.4913,63.8197,310.794],[10.4943,63.8108,377.1941],[10.4842,63.8102,366.4314],[10.4872,63.8013,355.6889],[10.4771,63.8007,331.692],[10.4801,63.7918,377.3536],[10.4701,63.7911,442.2794],[10.4731,63.7822,398.5575],[10.463,63.7816,386.7033],[10.466,63.7727,321.7321],[10.4559,63.7721,513.2214],[10.4589,63.7632,168.2038],[10.4489,63.7625,208.2314],[10.4519,63.7536,171.8074],[10.4418,63.753,169.6286],[10.4449,63.7441,300.7833],[10.4649,63.7454,434.6579],[10.4634,63.7498,390.7831],[10.4835,63.7511,354.5313],[10.482,63.7556,391.8944],[10.5021,63.7569,436.215],[10.5007,63.7613,438.1645],[10.5208,63.7626,431.5683],[10.5193,63.7671,454.5909],[10.5394,63.7684,432.0703],[10.5379,63.7728,357.6944],[10.558,63.7741,434.9353],[10.5565,63.7785,272.5919],[10.5867,63.7805,397.416],[10.5852,63.7849,389.069],[10.6053,63.7862,323.4392],[10.6039,63.7906,281.853],[10.6643,63.7945,357.7119]]]]}}