{"type": "Feature","bbox": [9.1832,61.2957,10.1581,61.9198],"geometry": {"type": "MultiPolygon","coordinates": [[[[10.008,61.8891,970.6588],[10.0124,61.8758,957.5433],[10.0218,61.8765,1017.3854],[10.0233,61.872,1150.33],[10.0327,61.8727,1212.025],[10.0414,61.8461,1570.2998],[10.032,61.8454,1416.6471],[10.0334,61.841,1420.6477],[10.024,61.8403,1275.6162],[10.0269,61.8314,1262.5929],[10.0175,61.8308,1089.8248],[10.0189,61.8263,1077.1725],[10.0095,61.8256,1196.4508],[10.011,61.8212,1103.541],[10.0016,61.8205,1163.1642],[10.003,61.8161,1078.8379],[9.9936,61.8154,1108.5686],[9.9951,61.811,1075.3257],[9.9857,61.8103,1120.7014],[9.9871,61.8059,1111.2003],[9.9777,61.8052,1227.6868],[9.9792,61.8007,1217.0356],[9.9698,61.8001,1230.0511],[9.9712,61.7956,1223.7594],[9.9618,61.7949,1156.0481],[9.9633,61.7905,1130.3091],[9.9539,61.7898,1131.968],[9.9553,61.7854,1125.9746],[9.9459,61.7847,1169.7449],[9.9474,61.7803,1103.6814],[9.938,61.7796,1101.988],[9.9409,61.7707,1128.7396],[9.9315,61.77,1143.3356],[9.9344,61.7612,1096.327],[9.9251,61.7605,1077.9844],[9.9309,61.7427,935.683],[9.9215,61.7421,929.7758],[9.9259,61.7288,791.538],[9.9165,61.7281,743.9902],[9.9209,61.7148,734.9695],[9.9115,61.7141,778.8328],[9.9173,61.6963,799.6553],[9.908,61.6957,861.6133],[9.9123,61.6824,861.7181],[9.903,61.6817,917.6547],[9.9074,61.6684,1078.239],[9.898,61.6677,1161.9873],[9.9024,61.6544,1095.8488],[9.893,61.6537,1013.9924],[9.8959,61.6448,1032.9849],[9.8866,61.6441,1057.3107],[9.8909,61.6308,1065.5646],[9.8816,61.6301,1026.801],[9.8845,61.6213,973.1432],[9.8752,61.6206,1013.5983],[9.8766,61.6161,939.8559],[9.8673,61.6155,993.2203],[9.8687,61.611,888.2871],[9.8594,61.6103,905.5051],[9.8609,61.6059,906.647],[9.8515,61.6052,884.3336],[9.853,61.6008,924.5898],[9.8436,61.6001,880.0287],[9.8451,61.5957,859.5532],[9.8358,61.595,788.8829],[9.8372,61.5905,589.4689],[9.8186,61.5892,531.9438],[9.82,61.5847,220.5],[9.8107,61.584,220.5],[9.8122,61.5796,222.8154],[9.8028,61.5789,220.5],[9.8043,61.5745,291.4937],[9.795,61.5738,294.5168],[9.7979,61.5649,508.5425],[9.7886,61.5642,479.5139],[9.79,61.5598,647.3015],[9.7807,61.5591,565.2466],[9.7822,61.5547,674.4789],[9.7729,61.554,636.7369],[9.7758,61.5451,767.7867],[9.7665,61.5444,826.8867],[9.768,61.54,804.6528],[9.7586,61.5393,849.512],[9.7616,61.5304,834.9893],[9.7523,61.5297,830.5965],[9.7537,61.5253,794.2632],[9.7444,61.5246,778.6379],[9.7459,61.5201,777.588],[9.7366,61.5195,795.1716],[9.738,61.515,824.132],[9.7287,61.5143,863.0297],[9.7302,61.5099,885.1149],[9.7209,61.5092,917.954],[9.7224,61.5048,945.6064],[9.7131,61.5041,944.4474],[9.7145,61.4996,996.5132],[9.7052,61.4989,968.5923],[9.7067,61.4945,969.7224],[9.6974,61.4938,952.9192],[9.6989,61.4894,922.7278],[9.6896,61.4887,893.7513],[9.6911,61.4842,885.975],[9.6818,61.4835,825.2746],[9.6847,61.4747,823.714],[9.5732,61.4662,1357.1168],[9.5717,61.4706,1245.8409],[9.5531,61.4692,1495.182],[9.5516,61.4737,1380.0515],[9.533,61.4722,1386.8157],[9.5315,61.4767,1354.6676],[9.5129,61.4752,1172.2202],[9.5114,61.4797,1207.6625],[9.5021,61.479,1246.3934],[9.5006,61.4834,1117.3894],[9.4913,61.4827,1055.2819],[9.4898,61.4871,1034.1833],[9.4805,61.4864,1048.9464],[9.479,61.4908,1006.0291],[9.4604,61.4894,956.2556],[9.4589,61.4938,949.574],[9.4217,61.491,893.0729],[9.4232,61.4865,859.7781],[9.3954,61.4844,782.5077],[9.3969,61.4799,780.6238],[9.3783,61.4785,667.0],[9.3813,61.4696,682.4439],[9.3999,61.4711,667.0],[9.4014,61.4667,710.3527],[9.42,61.4681,722.4688],[9.4215,61.4637,747.6136],[9.4122,61.4629,783.0586],[9.4153,61.4541,883.2152],[9.3595,61.4498,891.2374],[9.3626,61.4409,984.4066],[9.3533,61.4402,1065.0278],[9.3609,61.418,1071.8804],[9.3702,61.4188,1132.3937],[9.3763,61.4011,1143.2745],[9.3855,61.4018,1194.085],[9.3916,61.3841,1022.1048],[9.3545,61.3812,950.0093],[9.3561,61.3767,962.1478],[9.3468,61.376,961.1275],[9.3498,61.3672,970.1407],[9.3406,61.3664,971.2683],[9.3436,61.3576,978.9253],[9.3344,61.3569,979.1139],[9.3359,61.3524,980.939],[9.3265999999999991,61.3517,982.6611],[9.3281,61.3473,983.9948],[9.3189,61.3466,983.3252],[9.3174,61.351,982.5489],[9.2989,61.3495,986.2833],[9.2973,61.354,982.3851],[9.2511,61.3503,1016.0397],[9.2495,61.3548,1021.2464],[9.231,61.3533,1015.971],[9.2295,61.3577,1016.1953],[9.2203,61.357,1016.5836],[9.2187,61.3614,1016.5236],[9.191,61.3592,1016.4554],[9.1925,61.3548,1016.6205],[9.1832,61.3541,1018.0451],[9.1863,61.3452,1017.3124],[9.1956,61.3459,1016.9922],[9.194,61.3504,1017.279],[9.2033,61.3511,1023.3323],[9.2048,61.3467,1023.6162],[9.2141,61.3474,1020.4231],[9.2156,61.343,1018.0842],[9.2249,61.3437,1017.335],[9.2264,61.3393,1026.1652],[9.2356,61.34,1022.3171],[9.2372,61.3356,1060.9856],[9.2464,61.3363,1060.7186],[9.248,61.3319,1150.8944],[9.2572,61.3326,1142.5629],[9.2587,61.3282,1147.0791],[9.268,61.3289,1127.1603],[9.2695,61.3245,1184.4194],[9.2787,61.3252,1199.5355],[9.2803,61.3208,1263.9198],[9.2895,61.3215,1308.0415],[9.2941,61.3082,1314.4939],[9.3033,61.309,1214.5502],[9.3079,61.2957,1260.9097],[9.3171,61.2964,1166.4271],[9.3156,61.3008,1159.2607],[9.3248,61.3016,1163.1813],[9.3264,61.2971,1199.4916],[9.3541,61.2993,1456.9543],[9.3526,61.3037,1373.839],[9.371,61.3052,1325.17],[9.3695,61.3096,1299.5404],[9.3788,61.3103,1420.502],[9.3773,61.3148,1478.4875],[9.3958,61.3162,1330.1891],[9.3942,61.3206,1298.4584],[9.4127,61.3221,1301.5763],[9.4112,61.3265,1277.9775],[9.4205,61.3272,1285.4406],[9.419,61.3316,1244.7139],[9.4375,61.3331,1231.0297],[9.436,61.3375,1222.5062],[9.4452,61.3382,1221.1533],[9.4437,61.3426,1185.9844],[9.453,61.3434,1148.5885],[9.4515,61.3478,1157.3282],[9.4607,61.3485,1069.9417],[9.4592,61.3529,1060.9001],[9.4685,61.3536,1034.0989],[9.467,61.3581,1080.848],[9.4762,61.3588,1068.1351],[9.4747,61.3632,1094.144],[9.484,61.3639,1134.709],[9.4825,61.3684,1146.0739],[9.4918,61.3691,1144.5144],[9.4903,61.3735,1171.3839],[9.4995,61.3742,1211.5464],[9.498,61.3787,1226.3942],[9.5073,61.3794,1228.09],[9.5058,61.3838,1302.7885],[9.5151,61.3845,1193.1843],[9.5136,61.3889,1265.8579],[9.5228,61.3897,1187.5652],[9.5213,61.3941,1232.4589],[9.5306,61.3948,1152.0516],[9.5291,61.3992,1168.4709],[9.5384,61.3999,1056.7831],[9.5354,61.4088,774.7914],[9.5539,61.4102,724.8551],[9.5525,61.4146,788.7839],[9.5896,61.4175,1221.4796],[9.5911,61.413,1198.4156],[9.6096,61.4145,1361.6959],[9.6111,61.41,1223.666],[9.6296,61.4114,1262.1353],[9.6311,61.407,1189.0996],[9.6497,61.4084,1144.8016],[9.6512,61.404,1081.6481],[9.6697,61.4054,1033.5594],[9.6712,61.401,1021.627],[9.6897,61.4024,972.0771],[9.6912,61.3979,949.0094],[9.7376,61.4014,703.6832],[9.7361,61.4058,705.7322],[9.7918,61.41,899.2465],[9.7903,61.4144,896.2708],[9.7996,61.4151,918.7496],[9.8011,61.4107,915.9667],[9.8568,61.4149,943.7792],[9.8582,61.4104,971.6975],[9.8768,61.4118,929.1704],[9.8782,61.4074,917.1801],[9.8875,61.408,919.1678],[9.889,61.4036,907.32],[9.9075,61.405,925.7961],[9.909,61.4006,906.0124],[9.9183,61.4012,947.9437],[9.9197,61.3968,923.4281],[9.9475,61.3988,994.5764],[9.9461,61.4033,1000.877],[9.9739,61.4053,1069.687],[9.9725,61.4098,1059.5986],[9.9911,61.4111,1081.9534],[9.9868,61.4244,1006.603],[9.9961,61.4251,1035.7379],[9.9918,61.4384,970.0497],[10.0011,61.4391,936.5624],[9.9982,61.448,895.8611],[10.0075,61.4487,887.2718],[10.0032,61.462,876.1494],[10.0125,61.4626,907.163],[10.0097,61.4715,993.2661],[10.019,61.4722,979.1647],[10.0147,61.4855,869.5731],[10.024,61.4862,875.3163],[10.0197,61.4995,956.5482],[10.0383,61.5008,965.8535],[10.0369,61.5053,1054.0352],[10.0555,61.5066,987.245],[10.0498,61.5244,715.0004],[10.0591,61.525,670.4944],[10.0477,61.5605,353.3897],[10.057,61.5612,247.1479],[10.0556,61.5656,354.99],[10.0463,61.565,388.075],[10.0434,61.5738,420.3957],[10.0527,61.5745,349.7796],[10.0484,61.5878,486.6068],[10.0391,61.5872,355.9317],[10.0348,61.6005,621.3828],[10.0255,61.5998,457.1399],[10.024,61.6042,599.7578],[10.0147,61.6035,472.1262],[10.0132,61.608,622.9713],[10.0039,61.6073,499.0065],[10.0024,61.6117,617.1411],[9.9931,61.6111,440.6766],[9.9902,61.6199,622.9615],[9.9809,61.6192,439.8709],[9.9635,61.6725,631.91],[9.9729,61.6731,709.6986],[9.9714,61.6776,652.6762],[9.9656,61.6953,621.6865],[9.9563,61.6946,761.4669],[9.9548,61.6991,687.8932],[9.9642,61.6998,652.7647],[9.9627,61.7042,698.3392],[9.9721,61.7049,749.183],[9.9692,61.7137,781.7935],[9.9786,61.7144,786.77],[9.9771,61.7189,833.1117],[9.9959,61.7202,865.4789],[9.9944,61.7247,921.3898],[10.0038,61.7253,961.2348],[10.0024,61.7298,994.786],[10.0211,61.7311,1027.2346],[10.0197,61.7356,1053.131],[10.0291,61.7362,1094.139],[10.0276,61.7407,1078.0211],[10.037,61.7414,1111.0559],[10.0356,61.7458,1090.1028],[10.045,61.7465,1104.8173],[10.0435,61.7509,1157.0695],[10.0529,61.7516,1140.4729],[10.05,61.7605,1152.7756],[10.0594,61.7611,1159.1454],[10.058,61.7656,1175.5334],[10.0674,61.7663,1181.9457],[10.0645,61.7751,1212.8239],[10.0739,61.7758,1202.5483],[10.071,61.7847,1346.6117],[10.0804,61.7853,1207.3159],[10.079,61.7898,1243.6083],[10.0884,61.7905,1171.7568],[10.0855,61.7993,1125.2784],[10.0949,61.8,1058.9651],[10.092,61.8089,1044.8118],[10.1014,61.8095,1041.8545],[10.1,61.814,1087.0138],[10.1094,61.8147,1090.6814],[10.1065,61.8235,1177.285],[10.1159,61.8242,1184.7106],[10.1145,61.8286,1220.7476],[10.1239,61.8293,1245.7977],[10.121,61.8382,1268.2764],[10.1304,61.8389,1217.5105],[10.129,61.8433,1197.7235],[10.1384,61.844,1077.7173],[10.1356,61.8528,943.8192],[10.145,61.8535,879.187],[10.1421,61.8624,849.9238],[10.1515,61.8631,917.6204],[10.1487,61.8719,819.3018],[10.1581,61.8726,783.6342],[10.1552,61.8815,704.2055],[10.1458,61.8808,734.1523],[10.1444,61.8852,700.5788],[10.1255,61.8839,700.4165],[10.1241,61.8883,700.4399],[10.1146,61.8877,700.6176],[10.1132,61.8921,700.4705],[10.1038,61.8914,737.7809],[10.1023,61.8959,701.8357],[10.0929,61.8952,762.1633],[10.09,61.9041,703.0435],[10.0806,61.9034,718.8919],[10.0791,61.9078,703.1776],[10.0697,61.9072,732.0681],[10.0682,61.9116,704.8476],[10.0588,61.9109,743.8235],[10.0559,61.9198,705.4548],[10.0276,61.9178,796.2287],[10.029,61.9133,805.698],[10.0102,61.912,862.999],[10.016,61.8942,926.9589],[10.0066,61.8935,987.6445],[10.008,61.8891,970.6588]]]]}
,"properties": {"GID_2": "NOR.11.22_1","GID_0": "NOR","country": "Norway","GID_1": "NOR.11_1","province": "Oppland","NL_NAME_1": "NA","county": "Sør-Fron","VARNAME_2": "NA","NL_NAME_2": "NA","TYPE_2": "Kommuner","ENGTYPE_2": "Municipality","CC_2": "NA","HASC_2": "NO.OP.SF","name": "Sør-Fron.county","area_km2": 736.0867,"hist_schema_id": "Elevation0-9000","hist_area_km2": {"175": 4.8486,"200": 7.171,"225": 4.1295,"250": 5.0989,"275": 4.4425,"300": 3.1605,"325": 2.6355,"350": 2.9688,"375": 2.7366,"400": 2.8475,"425": 3.1099,"450": 3.7053,"475": 3.6447,"500": 3.5839,"525": 3.7049,"550": 3.7444,"575": 3.9055,"600": 3.9261,"625": 4.1274,"650": 4.5507,"675": 6.6821,"700": 8.2148,"725": 14.7524,"750": 14.3675,"775": 19.2381,"800": 19.5471,"825": 20.2323,"850": 21.8409,"875": 33.5896,"900": 41.1589,"925": 51.9995,"950": 48.8389,"975": 49.0478,"1000": 44.8886,"1025": 38.5084,"1050": 23.8956,"1075": 27.7663,"1100": 29.3074,"1125": 23.5696,"1150": 20.2463,"1175": 18.4109,"1200": 14.3099,"1225": 13.9469,"1250": 11.6954,"1275": 10.6225,"1300": 9.2153,"1325": 6.0875,"1350": 4.4895,"1375": 2.7895,"1400": 2.3856,"1425": 2.1353,"1450": 1.7227,"1475": 1.4067,"1500": 0.7239,"1525": 0.2708,"1550": 0.11,"1575": 0.03}}}