{"type": "Feature","bbox": [9.1543,58.7637,9.6953,59.0054],"geometry": {"type": "MultiPolygon","coordinates": [[[[9.5508,58.8576,0.0],[9.5464,58.8585,0.0],[9.5458,58.8565,0.0],[9.5542,58.8568,0.0],[9.5508,58.8576,0.0]]],
[[[9.4608,58.8832,15.9929],[9.4519,58.884,0.0],[9.4492,58.8807,0.0],[9.4408,58.8815,0.0],[9.4419,58.8782,0.0],[9.4386,58.874,0.0],[9.4408,58.8729,0.0],[9.4397,58.8704,0.0],[9.4408,58.8696,0.5683],[9.4386,58.869,0.0],[9.4381,58.8671,0.0],[9.4414,58.8654,0.0],[9.4331,58.864,0.0],[9.4331,58.8629,0.0],[9.4419,58.8646,0.0],[9.4492,58.8679,2.0844],[9.4681,58.8671,4.7591],[9.4692,58.8685,0.0],[9.4769,58.8685,0.0],[9.4797,58.8668,1.2941],[9.4764,58.8662,0.0],[9.4792,58.8651,0.5463],[9.4803,58.8621,1.3205],[9.4831,58.8615,7.1184],[9.4631,58.8629,0.0],[9.4419,58.8618,0.4933],[9.4347,58.8601,0.0],[9.4336,58.8574,0.0],[9.4403,58.8554,0.0],[9.4397,58.8579,1.6107],[9.4431,58.8579,0.836],[9.4481,58.8557,0.0],[9.4486,58.8518,0.0],[9.4525,58.8513,5.5376],[9.4581,58.846,0.0],[9.4753,58.8429,1.3383],[9.4769,58.8421,1.3383],[9.4769,58.8401,0.0],[9.4792,58.8396,0.0],[9.4914,58.841,0.0],[9.4875,58.8429,0.0],[9.4886,58.8446,0.0],[9.4786,58.8462,0.0],[9.4758,58.8493,0.0],[9.4708,58.851,0.0],[9.4714,58.8532,3.6104],[9.4758,58.8532,0.0],[9.4758,58.8546,0.0],[9.4892,58.8526,0.0],[9.5103,58.854,4.7677],[9.5114,58.8524,0.7706],[9.5025,58.8518,0.959],[9.5036,58.8485,0.6532],[9.5003,58.8457,0.0],[9.5097,58.8435,0.0],[9.5081,58.8421,0.0],[9.5158,58.8418,0.0],[9.5197,58.8382,0.0],[9.5286,58.8382,0.0],[9.5314,58.8415,0.0],[9.5297,58.8426,0.0],[9.5303,58.8443,0.0],[9.5203,58.8421,0.0],[9.5175,58.8443,0.0],[9.5236,58.8465,0.0],[9.5336,58.846,0.0],[9.5342,58.8476,0.7661],[9.5419,58.8485,0.0],[9.5403,58.8504,0.0],[9.5331,58.8504,0.7766],[9.5375,58.8526,0.0],[9.5297,58.8526,0.0],[9.5286,58.854,2.4217],[9.5408,58.8563,0.0],[9.5408,58.8579,0.8752],[9.5369,58.8582,3.0791],[9.5353,58.8599,0.0],[9.5436,58.8635,0.0],[9.5481,58.8618,0.0],[9.5569,58.8629,0.0],[9.5514,58.8668,1.1069],[9.5592,58.8693,0.9717],[9.5564,58.871,0.0],[9.5442,58.8654,0.0],[9.5347,58.8651,2.4409],[9.5181,58.861,0.0],[9.5153,58.8624,0.0],[9.5153,58.8643,3.4643],[9.5225,58.8643,0.0],[9.5258,58.866,0.0],[9.5253,58.871,0.0],[9.5186,58.8721,2.5477],[9.5231,58.8729,0.0],[9.5231,58.8743,0.0],[9.5125,58.8746,0.7939],[9.5136,58.8765,0.0],[9.5103,58.8788,0.0],[9.5064,58.8726,0.0],[9.5075,58.871,0.0],[9.5058,58.8701,6.7024],[9.5008,58.8693,3.9925],[9.4981,58.871,0.0],[9.4858,58.869,2.0161],[9.4903,58.8732,0.0],[9.4825,58.874,0.0],[9.4792,58.8729,8.6003],[9.4803,58.8751,0.0],[9.4753,58.8782,0.0],[9.4608,58.8832,15.9929]]],
[[[9.6142,58.8879,0.1868],[9.6114,58.8882,0.0],[9.6119,58.886,0.0],[9.6075,58.8829,0.0],[9.6075,58.881,3.0037],[9.6025,58.879,0.0],[9.5992,58.8763,0.0],[9.5975,58.8721,4.5666],[9.5919,58.8696,0.0],[9.5925,58.8668,3.417],[9.5886,58.8665,0.0],[9.5897,58.864,0.0],[9.5703,58.8585,1.1518],[9.5692,58.8568,0.0],[9.5736,58.8551,0.0],[9.5747,58.8515,4.679],[9.5703,58.8513,0.0],[9.5703,58.8493,1.2955],[9.5658,58.844,0.5816],[9.5586,58.8416,0.5017],[9.5525,58.8368,0.6953],[9.5442,58.8332,0.0],[9.5514,58.8343,0.0],[9.5708,58.8424,0.6897],[9.5719,58.8443,0.4177],[9.5864,58.8524,0.0],[9.5897,58.8568,3.4483],[9.5992,58.8621,4.8391],[9.6036,58.8682,2.8477],[9.6092,58.8679,0.0],[9.6114,58.8704,0.0],[9.6103,58.8726,0.0],[9.6131,58.8729,0.0],[9.6103,58.8771,0.8075],[9.6169,58.8851,0.0],[9.6142,58.8879,0.1868]]],
[[[9.6081,58.9099,0.0],[9.6086,58.9121,0.0],[9.6075,58.9124,0.0],[9.5969,58.9107,0.0],[9.5975,58.9082,2.1703],[9.5958,58.9068,0.0],[9.5969,58.906,6.5084],[9.5919,58.9051,0.0],[9.5853,58.9001,22.7111],[9.5736,58.9004,0.0],[9.5725,58.8979,12.9167],[9.5681,58.8968,0.0],[9.5686,58.8937,0.5229],[9.5731,58.8937,0.0],[9.5753,58.891,0.0],[9.5847,58.8913,0.0],[9.5869,58.8896,0.0],[9.5969,58.8915,0.0],[9.5969,58.8929,0.0],[9.5892,58.8946,1.1921],[9.5931,58.896,0.0],[9.5919,58.8976,0.0],[9.5892,58.8976,9.7971],[9.5908,58.901,3.5445],[9.5958,58.9012,0.0],[9.5964,58.904,0.0],[9.6081,58.9099,0.0]]],
[[[9.5797,58.9068,13.4093],[9.5769,58.9071,0.0],[9.5747,58.9038,3.3302],[9.5808,58.9046,2.2775],[9.5797,58.9068,13.4093]]],
[[[9.6669,58.9063,0.0],[9.6675,58.9085,0.0],[9.6664,58.9087,0.0],[9.6597,58.906,0.0],[9.6542,58.9063,0.7155],[9.6508,58.9026,0.9002],[9.6386,58.9038,0.0],[9.6397,58.899,1.1609],[9.6381,58.896,0.0],[9.6425,58.8954,0.2069],[9.6425,58.8929,0.0],[9.6453,58.8929,0.9788],[9.6453,58.891,0.0736],[9.6475,58.8904,0.0],[9.6475,58.8929,0.9788],[9.6564,58.8943,0.0],[9.6542,58.8971,0.0],[9.6486,58.8976,1.7302],[9.6581,58.9021,0.0],[9.6586,58.9057,0.0],[9.6614,58.9049,0.0],[9.6669,58.9063,0.0]]],
[[[9.6408,58.9157,0.0],[9.6392,58.9165,0.176],[9.6347,58.9138,0.0],[9.6375,58.9135,0.0],[9.6408,58.9157,0.0]]],
[[[9.6331,58.9235,0.0],[9.6303,58.9243,0.0],[9.6286,58.9229,0.0],[9.6297,58.9212,0.0],[9.6264,58.9215,0.0],[9.6214,58.9176,0.1839],[9.6125,58.9143,0.0],[9.6158,58.9138,0.0],[9.6253,58.9188,0.6631],[9.6275,58.9185,0.0],[9.6331,58.9235,0.0]]],
[[[9.6953,58.9207,0.0],[9.6936,58.9232,0.0],[9.6875,58.9199,0.0],[9.6908,58.919,0.0],[9.6953,58.9207,0.0]]],
[[[9.6186,58.9221,0.0],[9.6153,58.9238,0.0],[9.6103,58.9218,4.3017],[9.6092,58.9196,5.7745],[9.6136,58.919,2.1974],[9.6186,58.9221,0.0]]],
[[[9.6931,58.9251,0.0],[9.6892,58.9254,1.5705],[9.6875,58.9229,0.0],[9.6892,58.9224,0.0],[9.6931,58.9251,0.0]]],
[[[9.6403,58.9249,0.0],[9.6392,58.9265,0.8093],[9.6347,58.9254,0.0],[9.6358,58.9235,0.0],[9.6403,58.9249,0.0]]],
[[[9.4603,58.8201,0.0],[9.4608,58.8213,0.0],[9.4575,58.8215,0.9653],[9.4531,58.8187,0.0],[9.4625,58.8193,0.0],[9.4603,58.8201,0.0]]],
[[[9.4825,58.8382,0.0],[9.4758,58.8387,0.0],[9.4808,58.8349,0.0],[9.4836,58.8363,0.0],[9.4825,58.8382,0.0]]],
[[[9.3208,58.8557,2.0277],[9.3181,58.8563,1.0623],[9.3225,58.8532,0.0],[9.3225,58.8513,0.0],[9.3264,58.8476,0.0],[9.3314,58.8479,0.0],[9.3292,58.8482,0.0],[9.3231,58.8554,7.0882],[9.3208,58.8557,2.0277]]],
[[[9.3136,58.8571,3.467],[9.3092,58.8579,0.0],[9.3092,58.8568,0.0],[9.3147,58.8563,0.0],[9.3136,58.8571,3.467]]],
[[[9.4953,58.8346,0.3696],[9.4897,58.8354,1.1057],[9.4858,58.8343,0.0],[9.4853,58.8324,0.0],[9.4936,58.829,0.601],[9.4925,58.8268,0.0],[9.4986,58.8271,0.0],[9.5008,58.8304,0.2124],[9.5042,58.8304,0.0],[9.5019,58.8318,0.0],[9.5025,58.8338,0.0],[9.4953,58.8346,0.3696]]],
[[[9.5203,58.8357,0.0],[9.5175,58.8371,0.0],[9.5153,58.8343,0.0],[9.5219,58.8326,0.0],[9.5203,58.8357,0.0]]],
[[[9.5086,58.841,0.0],[9.5064,58.841,0.0],[9.5058,58.8393,0.0],[9.5142,58.839,0.0],[9.5081,58.8407,0.0],[9.5086,58.841,0.0]]],
[[[9.4842,58.8513,3.1428],[9.4819,58.8521,0.0],[9.4814,58.8507,3.1428],[9.4886,58.8485,0.0],[9.4936,58.8493,0.739],[9.4947,58.8479,0.0],[9.4969,58.8493,0.739],[9.4942,58.8513,0.0],[9.4842,58.8513,3.1428]]],
[[[9.3914,58.8604,0.0],[9.3908,58.8618,0.0],[9.3758,58.8613,1.7945],[9.3758,58.8596,0.0],[9.3875,58.8585,34.5884],[9.3731,58.8596,0.0],[9.3697,58.8554,11.8752],[9.3658,58.8537,0.0],[9.3736,58.8524,3.1506],[9.3842,58.8529,0.0],[9.4131,58.8582,0.0],[9.3969,58.8596,0.0],[9.3881,58.8587,34.5884],[9.3914,58.8604,0.0]]],
[[[9.4075,58.8615,5.4674],[9.4003,58.8624,0.0],[9.3997,58.8604,0.0],[9.4103,58.8599,0.0],[9.4075,58.8615,5.4674]]],
[[[9.3153,58.8674,0.0],[9.3108,58.8682,23.2181],[9.3092,58.8657,0.0],[9.3125,58.8646,7.3189],[9.3142,58.8618,0.0],[9.3169,58.8621,24.8561],[9.3192,58.8601,0.0],[9.3242,58.8607,10.7441],[9.3225,58.8635,23.0961],[9.3164,58.8646,17.3701],[9.3169,58.8671,0.0],[9.3153,58.8674,0.0]]],
[[[9.1783,58.8345,183.2713],[9.1853,58.8123,107.1332],[9.1939,58.8131,81.8024],[9.1967,58.8042,132.5455],[9.2052,58.8049,95.7428],[9.2066,58.8005,121.8981],[9.2152,58.8012,99.0506],[9.2166,58.7968,107.0884],[9.2337,58.7983,126.65],[9.2351,58.7938,133.1054],[9.2608,58.796,130.5132],[9.2622,58.7916,125.9337],[9.2793,58.793,109.6576],[9.2807,58.7886,80.0951],[9.2893,58.7893,98.1232],[9.2934,58.776,75.5182],[9.302,58.7768,65.7823],[9.3034,58.7723,22.9733],[9.3205,58.7738,12.4867],[9.3191,58.7782,8.3439],[9.3448,58.7804,41.5213],[9.3462,58.7759,27.4016],[9.3548,58.7766,29.3424],[9.3561,58.7722,22.2966],[9.3647,58.7729,9.7931],[9.366,58.7688,0.2859],[9.3627,58.7637,0.0],[9.3658,58.7637,0.0],[9.3669,58.7649,0.1746],[9.3647,58.7663,0.0],[9.3719,58.7696,0.2196],[9.3731,58.7721,1.3211],[9.3775,58.7726,0.0],[9.3792,58.7713,0.0],[9.3825,58.7729,0.0],[9.3842,58.7793,0.0],[9.3886,58.7801,0.0],[9.3875,58.7824,0.0],[9.3897,58.7835,0.0],[9.3992,58.7837,0.0],[9.3992,58.7868,0.0],[9.4053,58.7865,0.0],[9.4064,58.7879,0.0],[9.4008,58.7888,1.9365],[9.4086,58.7899,0.0],[9.4081,58.7924,0.3945],[9.4125,58.7932,0.0],[9.4119,58.7946,0.0],[9.4153,58.7946,0.0],[9.4147,58.7924,0.0],[9.4203,58.7929,0.0],[9.4214,58.7946,0.0],[9.4203,58.7951,0.0],[9.4219,58.7954,0.0],[9.4214,58.7974,0.2872],[9.4247,58.7979,0.0],[9.4247,58.7999,0.0],[9.4281,58.7999,0.0],[9.4264,58.7976,0.0],[9.4275,58.7954,0.0],[9.4297,58.7954,0.0],[9.4319,58.7976,0.0],[9.4297,58.7993,0.0],[9.4308,58.8004,0.0],[9.4469,58.8037,0.0],[9.4475,58.8054,0.0],[9.4436,58.8054,0.0],[9.4436,58.8068,0.0],[9.4542,58.8079,0.0],[9.4531,58.8101,0.6814],[9.4464,58.8093,0.0],[9.4469,58.8112,0.0],[9.4436,58.8112,0.0],[9.4431,58.8093,0.754],[9.4408,58.809,0.0],[9.4319,58.8121,0.0],[9.4186,58.8085,0.0],[9.4164,58.8063,0.0],[9.4186,58.8046,8.4787],[9.4047,58.8024,1.1209],[9.4036,58.8035,1.1209],[9.4136,58.8049,0.0],[9.4136,58.8065,0.5585],[9.4025,58.8049,3.7775],[9.4019,58.8068,1.1409],[9.4053,58.8068,0.0],[9.4081,58.8093,0.0],[9.3981,58.8124,0.0],[9.3969,58.814,0.0],[9.3981,58.816,9.7025],[9.4275,58.8187,0.0],[9.4564,58.824,0.0],[9.4675,58.8282,0.0],[9.4658,58.8354,0.0],[9.4631,58.839,0.0],[9.4553,58.8426,0.0],[9.4497,58.8424,17.8861],[9.4486,58.8449,6.1246],[9.4425,58.8479,0.0],[9.3975,58.8524,0.0],[9.3636,58.846,1.5935],[9.3425,58.8446,2.1572],[9.3414,58.8418,1.4435],[9.3369,58.8396,1.4329],[9.3325,58.841,0.0],[9.3314,58.8393,0.0],[9.3236,58.8374,0.0],[9.3197,58.8387,6.4525],[9.3147,58.8379,1.6337],[9.3119,58.8407,0.0],[9.3058,58.8413,0.0],[9.2975,58.8371,0.0],[9.2969,58.8385,0.0],[9.2992,58.8399,3.4867],[9.2914,58.8393,0.0],[9.2892,58.8415,7.784],[9.2936,58.8429,12.1083],[9.2947,58.8451,0.0],[9.2931,58.8457,5.2056],[9.2936,58.8471,13.5052],[9.3003,58.846,1.3964],[9.3047,58.8471,0.0],[9.3036,58.8496,1.9794],[9.2936,58.8526,6.7148],[9.3014,58.8535,0.0],[9.3019,58.8554,4.0908],[9.2997,58.8563,14.8892],[9.3036,58.8565,0.0],[9.3036,58.8579,0.0],[9.2986,58.8587,15.3266],[9.3042,58.8613,0.0],[9.3053,58.8713,3.3054],[9.3069,58.8713,0.0],[9.3069,58.8757,0.0],[9.3092,58.8771,3.459],[9.3081,58.8799,8.3343],[9.3092,58.8818,14.7039],[9.2997,58.886,16.7683],[9.3025,58.8879,0.0],[9.3025,58.8896,1.1116],[9.3053,58.8885,13.5789],[9.3047,58.8843,6.362],[9.3142,58.8838,15.7325],[9.3125,58.8818,1.3884],[9.3158,58.8785,11.2998],[9.3142,58.8771,0.0],[9.3186,58.8763,59.4437],[9.3219,58.8701,0.0],[9.3269,58.8707,2.9259],[9.3264,58.8671,0.0],[9.3347,58.8674,5.1449],[9.3403,58.8649,0.8795],[9.3553,58.8654,1.7471],[9.3586,58.8613,0.0],[9.3675,58.8607,0.0],[9.3658,58.8596,0.0],[9.3692,58.859,2.5797],[9.3714,58.8601,1.1532],[9.3681,58.8626,0.0],[9.3792,58.864,29.099],[9.4208,58.8635,0.0],[9.4242,58.8668,0.0],[9.4175,58.8685,1.1369],[9.4164,58.8726,2.4855],[9.4208,58.8757,0.0],[9.4086,58.8779,8.7869],[9.4053,58.8801,4.2333],[9.3986,58.879,0.0],[9.3981,58.8818,0.0],[9.4014,58.8826,5.3746],[9.4158,58.8788,29.8401],[9.4231,58.8804,0.0],[9.4264,58.8851,8.6341],[9.4264,58.8896,0.0],[9.4231,58.8943,22.3733],[9.4247,58.896,0.0],[9.4247,58.8999,0.0],[9.4231,58.9024,0.0],[9.4169,58.9043,0.0],[9.4086,58.904,0.0],[9.4014,58.8985,19.5429],[9.3903,58.8976,0.0],[9.3825,58.8887,0.0],[9.3881,58.8915,1.4248],[9.3908,58.8913,2.2048],[9.3847,58.8865,30.9633],[9.3808,58.8849,10.3964],[9.3764,58.8863,4.0481],[9.3708,58.8835,0.0],[9.3686,58.8849,6.8408],[9.3708,58.8871,0.0],[9.3703,58.8904,0.0],[9.3742,58.8926,0.0],[9.3742,58.894,0.0],[9.3725,58.894,0.0],[9.3731,58.8965,4.0419],[9.3781,58.8996,8.2249],[9.3853,58.8999,0.0],[9.3953,58.9043,5.8183],[9.4036,58.9032,0.0],[9.4114,58.9057,12.1226],[9.4219,58.9065,0.8489],[9.4236,58.9054,10.2512],[9.4236,58.9026,5.2421],[9.4269,58.9021,5.2421],[9.4364,58.9054,0.0],[9.4403,58.9035,3.1287],[9.4347,58.8993,0.0],[9.4386,58.8985,1.9497],[9.4375,58.8965,0.0],[9.4475,58.8974,2.1854],[9.4492,58.8943,0.6076],[9.4469,58.8943,0.6076],[9.4469,58.8926,3.3199],[9.4503,58.8915,0.0],[9.452,58.8927,0.8206],[9.4536,58.891,1.2291],[9.4542,58.8857,0.0],[9.4597,58.8849,0.0],[9.4675,58.8954,0.0],[9.4625,58.8985,0.9666],[9.4564,58.8982,1.656],[9.4536,58.901,5.0087],[9.4619,58.9026,1.4785],[9.4619,58.9051,10.8748],[9.4653,58.9085,0.0],[9.4692,58.9093,8.6732],[9.4697,58.906,7.7364],[9.4664,58.899,0.0],[9.4703,58.8949,0.0],[9.4742,58.8974,0.0],[9.4736,58.9032,1.8473],[9.4758,58.9046,0.0],[9.4742,58.9063,4.5268],[9.4769,58.9071,4.5037],[9.4753,58.9104,0.0],[9.4808,58.9129,0.0],[9.4769,58.9151,10.9384],[9.4814,58.9165,0.8884],[9.4858,58.9124,0.0],[9.4908,58.9118,6.6931],[9.4842,58.9054,0.0],[9.4847,58.9026,0.0],[9.4886,58.9015,0.0],[9.4808,58.8985,4.048],[9.4792,58.8954,9.9238],[9.4808,58.8899,0.0],[9.4869,58.8904,0.0],[9.4831,58.8882,0.7501],[9.4803,58.8782,1.4977],[9.4847,58.8754,0.0],[9.4936,58.8746,7.5845],[9.4953,58.8718,0.0],[9.5036,58.8724,0.0],[9.5025,58.8729,0.0],[9.5031,58.8771,0.0],[9.5058,58.8776,0.0],[9.5058,58.8807,0.0],[9.5036,58.8826,0.0],[9.5153,58.8812,0.0],[9.5175,58.8821,0.0],[9.5169,58.8835,0.0],[9.5231,58.884,0.0],[9.5236,58.886,5.3067],[9.5286,58.8838,1.954],[9.5286,58.8815,0.0],[9.5358,58.8857,3.0097],[9.5392,58.8857,1.1308],[9.5364,58.884,0.0],[9.5375,58.8821,0.4666],[9.5364,58.8804,0.672],[9.5325,58.8799,0.0],[9.5269,58.8763,0.8785],[9.5269,58.874,2.0606],[9.5353,58.8735,0.0],[9.5392,58.8707,1.2552],[9.5531,58.8724,0.4256],[9.5558,58.8749,0.0],[9.5642,58.8743,0.0],[9.5714,58.8757,1.8733],[9.5747,58.8768,0.0],[9.5719,58.8788,0.0],[9.5897,58.8824,0.0],[9.5753,58.8857,0.0],[9.5703,58.8838,0.0],[9.5531,58.8835,4.5792],[9.5614,58.886,1.0154],[9.5681,58.8849,0.0],[9.5692,58.8865,0.5803],[9.5742,58.8871,0.0],[9.5742,58.8885,0.0],[9.5719,58.8885,0.0],[9.5725,58.8915,0.0],[9.5675,58.8937,0.5229],[9.5508,58.8896,0.0],[9.5475,58.8899,0.0],[9.5514,58.8937,0.0],[9.5514,58.8949,0.0],[9.5486,58.8949,0.7817],[9.5436,58.8915,0.4431],[9.5353,58.8904,0.0],[9.5436,58.8954,0.0],[9.5586,58.8999,0.0],[9.5531,58.9012,4.2531],[9.5553,58.9035,0.0],[9.5619,58.9024,0.0],[9.5675,58.9049,0.0],[9.5681,58.9068,0.0],[9.5625,58.9101,2.1126],[9.5636,58.9132,0.0],[9.5586,58.9121,0.0],[9.5569,58.9074,0.0],[9.5553,58.9065,0.0],[9.5508,58.9113,0.0],[9.5342,58.9146,0.0],[9.5319,58.9168,4.6272],[9.5192,58.9171,0.0],[9.5164,58.9179,0.0],[9.5169,58.9199,0.0],[9.4975,58.9188,0.0],[9.4931,58.9215,0.0],[9.5064,58.9218,0.0],[9.513,58.924,0.0],[9.5131,58.9257,0.0],[9.5036,58.9268,42.0127],[9.4908,58.9318,18.8041],[9.4842,58.9313,1.1947],[9.4797,58.9282,0.0],[9.4769,58.9321,17.5801],[9.4825,58.9324,0.0],[9.4831,58.9335,0.0],[9.4814,58.9343,0.0],[9.4675,58.9363,10.2635],[9.4553,58.935,67.575],[9.454,58.9394,49.6649],[9.4196,58.9366,87.4532],[9.4182,58.941,38.5],[9.4096,58.9403,38.5],[9.4054,58.9536,137.9079],[9.371,58.9507,138.9244],[9.3627,58.9773,170.2593],[9.3541,58.9766,146.1371],[9.3513,58.9854,163.4169],[9.3427,58.9847,185.9937],[9.3399,58.9936,128.4163],[9.3313,58.9928,141.6736],[9.3285,59.0017,139.1651],[9.3199,59.001,177.4348],[9.3185,59.0054,166.4202],[9.3013,59.004,215.0836],[9.3027,58.9995,193.9658],[9.2854,58.9981,216.5782],[9.2868,58.9937,197.3181],[9.2782,58.9929,177.9136],[9.2796,58.9885,188.9545],[9.2624,58.9871,59.0],[9.2638,58.9826,59.0],[9.2552,58.9819,59.0],[9.2566,58.9775,67.2587],[9.248,58.9767,158.0218],[9.2494,58.9723,152.6301],[9.2408,58.9716,177.607],[9.2422,58.9672,183.3443],[9.2336,58.9664,218.8866],[9.235,58.962,128.203],[9.2263,58.9613,130.382],[9.2278,58.9569,191.4167],[9.2191,58.9561,183.2217],[9.2205,58.9517,208.5331],[9.2119,58.951,234.2157],[9.2148,58.9421,258.8307],[9.2062,58.9414,251.5721],[9.2104,58.9281,259.6568],[9.2018,58.9274,263.5966],[9.2046,58.9185,259.8217],[9.196,58.9178,245.0285],[9.1988,58.9089,220.5962],[9.1902,58.9082,188.5119],[9.1916,58.9038,161.6177],[9.183,58.9031,142.8729],[9.1844,58.8986,146.7064],[9.1758,58.8979,149.9143],[9.1772,58.8935,210.4971],[9.1686,58.8927,191.8643],[9.17,58.8883,173.2109],[9.1615,58.8876,171.5771],[9.1629,58.8832,162.5924],[9.1543,58.8824,182.527],[9.1557,58.878,200.6837],[9.1643,58.8787,174.8049],[9.1671,58.8699,205.9187],[9.1757,58.8706,210.2898],[9.1855,58.8396,171.5764],[9.1769,58.8389,175.4026],[9.1783,58.8345,183.2713]]],
[[[9.4364,58.8868,5.3274],[9.4342,58.8879,1.3551],[9.4364,58.8835,0.0],[9.4403,58.8832,0.0],[9.4369,58.8868,5.3274],[9.4364,58.8868,5.3274]]]]}
,"properties": {"GID_2": "NOR.16.6_1","GID_0": "NOR","country": "Norway","GID_1": "NOR.16_1","province": "Telemark","NL_NAME_1": "NA","county": "Kragerø","VARNAME_2": "NA","NL_NAME_2": "NA","TYPE_2": "Kommuner","ENGTYPE_2": "Municipality","CC_2": "NA","HASC_2": "NO.TE.KR","name": "Kragerø.county","area_km2": 330.8771,"hist_schema_id": "Elevation0-9000","hist_area_km2": {"0": 44.8557,"25": 40.4303,"50": 46.4297,"75": 46.6536,"100": 42.6513,"125": 33.1169,"150": 26.4161,"175": 19.885,"200": 15.5442,"225": 8.8324,"250": 4.0377,"275": 1.6411,"300": 0.2954,"325": 0.0875}}}