{"type": "Feature","bbox": [10.9853,59.5006,11.2313,59.7027],"geometry": {"type": "MultiPolygon","coordinates": [[[[11.0606,59.6959,176.0618],[11.0618,59.6914,198.4388],[11.053,59.6908,154.5385],[11.0566,59.6775,157.9681],[11.0213,59.6751,147.1906],[11.0261,59.6573,120.4835],[11.0349,59.6579,154.1766],[11.0337,59.6623,167.0092],[11.0426,59.6629,181.7277],[11.0462,59.6496,156.4689],[11.0285,59.6484,185.7788],[11.0321,59.635,120.2565],[11.0409,59.6356,156.784],[11.0457,59.6179,120.3232],[11.0281,59.6166,118.8938],[11.0293,59.6122,114.7828],[11.0117,59.611,135.4231],[11.0165,59.5932,135.3405],[11.0253,59.5938,142.1501],[11.0277,59.5849,164.7581],[11.0189,59.5843,156.5891],[11.0201,59.5799,158.4879],[11.0113,59.5792,245.7727],[11.0125,59.5748,203.8602],[10.9949,59.5736,211.8279],[10.9961,59.5691,210.3996],[10.9873,59.5685,179.4812],[10.9969,59.533,124.7044],[10.9881,59.5323,117.4501],[10.9941,59.5101,131.6787],[10.9853,59.5095,128.3816],[10.9877,59.5006,122.0075],[11.014,59.5024,120.4036],[11.0129,59.5069,141.9801],[11.0216,59.5075,154.3426],[11.0304,59.5081,176.0933],[11.0316,59.5037,169.6711],[11.0579,59.5055,156.1666],[11.0567,59.5099,175.0677],[11.0655,59.5105,181.317],[11.0643,59.515,189.1483],[11.0731,59.5156,190.0113],[11.0719,59.52,192.988],[11.0807,59.5206,186.3031],[11.0795,59.5251,197.6617],[11.0883,59.5257,204.6138],[11.0871,59.5301,193.6261],[11.0959,59.5307,150.7239],[11.0947,59.5352,152.0014],[11.1035,59.5358,125.4973],[11.1047,59.5313,141.477],[11.1223,59.5325,118.5156],[11.1199,59.5414,125.2315],[11.1287,59.542,108.2382],[11.1263,59.5509,99.5047],[11.1175,59.5503,95.3656],[11.114,59.5637,105.7259],[11.1052,59.5631,104.7854],[11.1028,59.572,52.875],[11.094,59.5714,79.6054],[11.0869,59.598,94.8294],[11.1045,59.5992,108.8931],[11.1033,59.6037,80.6661],[11.1209,59.6049,110.4073],[11.1197,59.6093,83.9232],[11.1285,59.6099,101.3213],[11.1273,59.6144,79.0],[11.1362,59.615,79.5],[11.135,59.6194,80.375],[11.1438,59.62,85.3119],[11.1414,59.6289,114.2181],[11.1502,59.6295,94.1514],[11.1467,59.6429,142.5965],[11.1643,59.6441,103.7781],[11.1631,59.6485,116.5068],[11.1896,59.6503,192.6537],[11.1884,59.6548,151.1866],[11.2237,59.6571,127.158],[11.2225,59.6616,111.5394],[11.2313,59.6622,100.0],[11.2255,59.6844,100.0],[11.1813,59.6814,224.8949],[11.1801,59.6859,212.852],[11.1537,59.6841,206.4076],[11.1525,59.6886,210.8029],[11.1437,59.688,209.646],[11.1425,59.6924,160.5],[11.1336,59.6918,160.5],[11.1325,59.6962,180.8322],[11.1148,59.695,161.4259],[11.1136,59.6995,162.1275],[11.096,59.6983,171.8167],[11.0948,59.7027,196.038],[11.0594,59.7003,172.5025],[11.0606,59.6959,176.0618]]]]}
,"properties": {"GID_2": "NOR.2.20_1","GID_0": "NOR","country": "Norway","GID_1": "NOR.2_1","province": "Ãstfold","NL_NAME_1": "NA","county": "Spydeberg","VARNAME_2": "NA","NL_NAME_2": "NA","TYPE_2": "Kommuner","ENGTYPE_2": "Municipality","CC_2": "NA","HASC_2": "NO.OF.SP","name": "Spydeberg.county","area_km2": 139.2858,"hist_schema_id": "Elevation0-9000","hist_area_km2": {"50": 0.0107,"75": 1.5665,"100": 20.8163,"125": 33.2459,"150": 26.9943,"175": 28.1658,"200": 23.6327,"225": 4.7357,"250": 0.1179}}}