{"type": "Feature","bbox": [8.4557607457975621,61.841601426528825,9.1213180372422755,61.883106768454411],"geometry": {"type": "Polygon","coordinates": [[[8.8396115675772649,61.864267464317976,825.7528],[8.8036991440671954,61.873981480513322,787.248],[8.78485983993076,61.87633639353038,809.7025],[8.6141286461943878,61.869566018606349,802.8302],[8.5576107337851113,61.860146366538117,884.0092],[8.5384770655215618,61.862206915428061,550.2288],[8.5261137721820148,61.867505469716434,499.2665],[8.504330826774293,61.88045749131021,973.1492],[8.4899069845448309,61.883106768454411,868.905],[8.4557607457975621,61.883106768454411,447.262],[8.5240532232921,61.851904170978429,375.1464],[8.5661472934719427,61.841601426528825,366.3848],[8.61265682555873,61.857791453521088,363.0],[8.9953301908299181,61.856613997012545,361.0],[9.08246197246089,61.866328013207891,361.0],[9.1213180372422755,61.87633639353038,364.2413],[8.860217056476472,61.862206915428061,819.474],[8.8396115675772649,61.864267464317976,825.7528]]]}
,"properties": {"featurecla": "Lake","scalerank": 9,"name": "null559","name_abb": null,"name_alt": null,"note": "_untitled_181","delta": null,"dam_name": null,"year": -99,"admin": null,"min_zoom": 7.0,"min_label": 8.0,"area_km2": 47.09185,"hist_schema_id": "Elevation0-9000","hist_area_km2": {"350": 4.78933,"375": 10.24945,"400": 3.06936,"425": 2.56943,"450": 2.55944,"475": 2.18955,"500": 1.97964,"525": 2.19954,"550": 1.99954,"575": 2.29947,"600": 1.96953,"625": 1.81955,"650": 1.3597,"675": 1.18976,"700": 1.01976,"725": 0.91981,"750": 0.82982,"775": 0.73985,"800": 0.63987,"825": 0.60989,"850": 0.50991,"875": 0.52992,"900": 0.50987,"925": 0.4099,"950": 0.12997}}}