{"type":"Feature","properties":{"GID_2":"NOR.7.12_1","GID_0":"NOR","country":"Norway","GID_1":"NOR.7_1","province":"Hordaland","NL_NAME_1":"NA","county":"Granvin","VARNAME_2":"NA","NL_NAME_2":"NA","TYPE_2":"Kommuner","ENGTYPE_2":"Municipality","CC_2":"NA","HASC_2":"NO.HO.GR","name":"Granvin.county"},
"geometry":{"type": "MultiPolygon","coordinates": [[[[6.5001,60.4767,1048.0406],[6.509,60.4776,919.3653],[6.5109,60.4733,893.3968],[6.5198,60.4742,904.6462],[6.5235,60.4654,604.5892],[6.5146,60.4645,746.689],[6.5165,60.4601,660.7706],[6.5075,60.4592,798.6744],[6.5094,60.4548,373.7082],[6.5004,60.4539,567.433],[6.5023,60.4495,130.9305],[6.4934,60.4486,200.5167],[6.4952,60.4442,0.0],[6.5021,60.4479,54.7274],[6.5099,60.4484,0.0],[6.5292,60.4583,47.3592],[6.5375,60.4583,0.0],[6.5417,60.4562,0.0],[6.5542,60.4562,40.9376],[6.5583,60.4542,0.0],[6.5667,60.4542,0.0],[6.5729,60.4562,33.3415],[6.5771,60.4542,0.0],[6.5813,60.4562,0.0],[6.5896,60.4562,0.0],[6.5938,60.4583,32.0592],[6.6021,60.4583,0.0],[6.6099,60.463,0.0],[6.6068,60.4651,0.0],[6.6068,60.4682,0.0],[6.6229,60.475,28.3878],[6.6453,60.4755,0.0],[6.6464,60.4807,0.0],[6.6516,60.4839,0.0],[6.6526,60.487,0.0],[6.6583,60.4896,0.0],[6.6661,60.4901,0.0],[6.6672,60.4953,0.0],[6.6687,60.4958,0.0],[6.6745,60.4953,0.0],[6.6745,60.4901,0.9975],[6.6724,60.488,54.4246],[6.6651,60.487,0.0],[6.6568,60.4828,0.0],[6.6542,60.4792,0.0],[6.6536,60.4734,77.5631],[6.6438,60.4668,286.2201],[6.6523,60.4696,197.6425],[6.6542,60.4649,607.9936],[6.6632,60.4658,647.5806],[6.665,60.4614,895.3683],[6.7186,60.4668,717.9244],[6.7168,60.4712,909.4031],[6.7257,60.4721,836.2044],[6.7239,60.4765,1014.8897],[6.7329,60.4774,923.4179],[6.731,60.4818,1114.3621],[6.74,60.4827,1102.5802],[6.7382,60.4871,1064.3699],[6.7471,60.488,1104.0996],[6.7453,60.4924,1010.5694],[6.7632,60.4942,863.1198],[6.7614,60.4985,773.9514],[6.7793,60.5003,675.4417],[6.7775,60.5047,613.222],[6.7864,60.5056,693.2558],[6.7846,60.51,696.5706],[6.8025,60.5118,937.5979],[6.7989,60.5206,838.4315],[6.8078,60.5215,808.9901],[6.8042,60.5303,611.446],[6.8132,60.5312,637.5042],[6.8077,60.5443,545.0383],[6.8167,60.5452,583.1522],[6.8112,60.5584,774.3401],[6.8202,60.5593,779.4054],[6.8166,60.5681,992.0101],[6.8255,60.569,1015.6953],[6.8219,60.5778,885.26],[6.8309,60.5787,917.4845],[6.8272,60.5875,828.2445],[6.8183,60.5866,446.0688],[6.8146,60.5954,350.0709],[6.8416,60.598,500.9763],[6.8397,60.6024,1028.8849],[6.8308,60.6015,850.9438],[6.8289,60.6059,855.6483],[6.8199,60.605,627.4111],[6.8163,60.6138,820.5062],[6.8343,60.6156,1262.201],[6.8325,60.62,1152.0934],[6.8414,60.6209,1391.0179],[6.836,60.6341,1368.9038],[6.818,60.6323,1422.7445],[6.8162,60.6367,1429.8914],[6.7892,60.634,1376.884],[6.7874,60.6384,1134.8062],[6.7694,60.6366,1262.4788],[6.7676,60.641,1095.7272],[6.7586,60.6401,1386.7253],[6.7567,60.6445,1246.9689],[6.7028,60.6391,1241.3896],[6.701,60.6435,993.2051],[6.674,60.6408,1407.0084],[6.6721,60.6452,1264.4493],[6.6542,60.6434,1017.2114],[6.656,60.639,1071.5592],[6.647,60.6381,934.2132],[6.6489,60.6337,831.3178],[6.6309,60.6319,875.2532],[6.6346,60.6231,763.4464],[6.6256,60.6222,874.8354],[6.6293,60.6134,684.707],[6.6203,60.6125,829.991],[6.624,60.6038,829.5583],[6.615,60.6029,832.6104],[6.6187,60.5941,619.8791],[6.6098,60.5932,530.3378],[6.6153,60.58,416.3705],[6.6243,60.5809,563.7852],[6.628,60.5721,755.9276],[6.6369,60.573,732.7792],[6.6406,60.5642,860.3386],[6.6317,60.5633,857.5607],[6.6335,60.5589,845.707],[6.6245,60.558,760.3734],[6.6282,60.5493,576.5601],[6.6193,60.5484,548.6],[6.6211,60.544,547.5542],[6.6122,60.5431,644.965],[6.614,60.5387,675.1811],[6.605,60.5378,1011.0055],[6.6087,60.529,666.4216],[6.5998,60.5281,664.6049],[6.6016,60.5237,613.4105],[6.5927,60.5228,607.4655],[6.5964,60.514,590.9028],[6.5874,60.5131,574.0267],[6.5892,60.5087,531.1313],[6.5445,60.5042,869.7825],[6.5464,60.4998,974.4819],[6.5195,60.497,980.3292],[6.5214,60.4926,991.4347],[6.5124,60.4917,1146.014],[6.5143,60.4873,1022.8531],[6.5053,60.4864,1106.4904],[6.5072,60.482,931.2645],[6.4983,60.4811,943.2189],[6.5001,60.4767,1048.0406]]]]}}