{"type":"Feature","properties":{"GID_2":"NOR.3.12_1","GID_0":"NOR","country":"Norway","GID_1":"NOR.3_1","province":"Aust-Agder","NL_NAME_1":"NA","county":"Risør","VARNAME_2":"NA","NL_NAME_2":"NA","TYPE_2":"Kommuner","ENGTYPE_2":"Municipality","CC_2":"NA","HASC_2":"NO.AA.RI","name":"Risør.county"},
"geometry":{"type": "MultiPolygon","coordinates": [[[[9.0881,58.686,8.561],[9.085,58.6857,0.0],[9.0878,58.6767,118.8175],[9.0963,58.6774,104.6681],[9.1005,58.6641,51.7668],[9.109,58.6649,69.2923],[9.1076,58.6693,108.271],[9.1247,58.6708,109.3331],[9.1289,58.6575,36.0055],[9.146,58.6589,1.5278],[9.1519,58.6657,39.9547],[9.1547,58.6629,0.0],[9.1619,58.6624,2.0438],[9.1625,58.6585,0.0],[9.1658,58.656,0.0],[9.1731,58.659,4.3751],[9.1803,58.6593,0.0],[9.1892,58.664,0.0],[9.1886,58.6662,2.9138],[9.2042,58.6654,0.0],[9.2031,58.6674,1.1276],[9.2053,58.671,0.0],[9.2131,58.6729,0.0],[9.2119,58.6779,0.0],[9.2319,58.6807,0.0],[9.2253,58.6818,0.0],[9.2319,58.684,0.0],[9.2242,58.684,0.0],[9.2269,58.6849,1.2966],[9.2281,58.6874,4.364],[9.2314,58.6876,0.0],[9.2281,58.6904,3.2397],[9.1981,58.6963,4.1602],[9.1881,58.6954,3.4757],[9.1842,58.6929,1.1816],[9.1592,58.694,0.0],[9.1342,58.6901,26.9832],[9.1153,58.6913,0.0],[9.0881,58.686,8.561]]],
[[[9.1831,58.696,0.0],[9.1803,58.6965,3.4828],[9.1758,58.6949,0.0],[9.1819,58.6946,0.9407],[9.1831,58.696,0.0]]],
[[[9.2153,58.7001,8.1969],[9.2097,58.7004,8.3161],[9.2081,58.6988,0.0],[9.1992,58.6979,0.2615],[9.2064,58.6957,8.2392],[9.2192,58.6949,0.0],[9.2203,58.6985,0.0],[9.2153,58.7001,8.1969]]],
[[[9.1397,58.7235,0.0],[9.1308,58.724,0.0],[9.1319,58.7224,11.0394],[9.1303,58.7218,0.0],[9.1347,58.7215,0.0],[9.1397,58.7235,0.0]]],
[[[9.2447,58.7096,0.7215],[9.2397,58.7093,0.0],[9.2364,58.7071,1.4155],[9.2414,58.7054,0.0],[9.2414,58.7065,0.0],[9.2447,58.7068,0.0],[9.2447,58.7096,0.7215]]],
[[[9.2675,58.7304,24.6061],[9.2625,58.731,0.0],[9.2592,58.7271,11.0461],[9.2558,58.7274,0.0],[9.2503,58.7246,1.5459],[9.2519,58.7215,5.2112],[9.2492,58.7204,0.8001],[9.2492,58.7182,0.0],[9.2508,58.7176,0.0],[9.2464,58.7174,0.0],[9.2458,58.716,0.0],[9.2514,58.7151,3.9302],[9.2447,58.714,1.096],[9.2453,58.7113,0.0],[9.2503,58.7104,0.0],[9.2508,58.7118,0.0],[9.2547,58.7124,4.3916],[9.2547,58.714,3.7559],[9.2597,58.7146,0.0],[9.2603,58.7163,0.0],[9.2553,58.7171,6.706],[9.2597,58.7182,0.0],[9.2586,58.7199,0.8427],[9.2597,58.7212,4.977],[9.2619,58.7193,0.2042],[9.2669,58.7188,0.5649],[9.2669,58.7229,0.7051],[9.2719,58.7238,0.0],[9.2708,58.7268,5.7323],[9.2775,58.7287,0.0],[9.2769,58.7301,5.1896],[9.2675,58.7304,24.6061]]],
[[[9.3192,58.7371,0.0],[9.3142,58.7379,0.0],[9.2869,58.736,0.0],[9.2797,58.7335,1.4548],[9.2803,58.7315,1.3698],[9.2786,58.7301,0.4979],[9.2808,58.7279,0.0],[9.2819,58.7287,0.0],[9.2803,58.731,1.3698],[9.2864,58.7296,0.0],[9.2864,58.7271,0.0],[9.2908,58.7254,0.0],[9.3003,58.7257,0.0],[9.3053,58.7285,0.0],[9.3114,58.7279,0.0],[9.3119,58.7299,0.0],[9.3092,58.7307,0.3958],[9.3142,58.7313,0.3179],[9.3086,58.7324,1.6359],[9.3203,58.7354,0.0],[9.3192,58.7371,0.0]]],
[[[9.3203,58.7412,0.0],[9.3125,58.7407,0.4879],[9.3186,58.7393,0.0],[9.3203,58.7396,0.0],[9.3203,58.7412,0.0]]],
[[[9.0211,58.7755,161.8979],[9.0183,58.7844,142.0],[9.0097,58.7836,158.265],[9.0126,58.7748,152.8726],[9.004,58.774,163.0752],[9.0068,58.7652,165.0829],[8.9983,58.7644,156.7917],[8.9997,58.76,162.2508],[9.0083,58.7607,188.9053],[9.0139,58.743,191.5998],[9.0054,58.7423,203.783],[9.0082,58.7335,133.3238],[8.9911,58.732,188.2366],[8.9926,58.7275,137.0678],[8.9755,58.7261,159.904],[8.9783,58.7172,181.4912],[8.9698,58.7165,170.7555],[8.9755,58.6988,199.4605],[8.9925,58.7003,186.1069],[8.994,58.6958,144.1796],[9.0708,58.7025,65.4915],[9.0736,58.6936,39.1482],[9.0821,58.6944,55.8722],[9.0847,58.6868,0.0],[9.0942,58.6899,3.2259],[9.1025,58.6899,0.0],[9.1064,58.6915,0.0],[9.1086,58.6954,0.0],[9.1147,58.6954,0.0],[9.1164,58.6974,4.5827],[9.1242,58.6976,0.0],[9.1297,58.6946,0.0],[9.1419,58.6943,0.0],[9.1492,58.6965,0.0],[9.1547,58.6954,0.0],[9.1653,58.6979,0.0],[9.1731,58.6976,0.0],[9.1919,58.7027,12.057],[9.1942,58.7021,12.057],[9.1853,58.6985,0.0],[9.2019,58.6993,0.0],[9.2042,58.7007,0.0],[9.1947,58.7032,12.057],[9.2069,58.7057,23.9695],[9.2192,58.7035,0.0],[9.2292,58.7065,0.0],[9.2303,58.7107,0.0],[9.2275,58.7113,2.5118],[9.2331,58.7124,2.2729],[9.2347,58.7146,0.0],[9.2419,58.7171,1.7364],[9.2403,58.7196,0.0],[9.2442,58.7204,0.0],[9.2436,58.7218,0.7649],[9.2464,58.7254,0.0],[9.2453,58.7279,0.0],[9.2431,58.7293,0.0],[9.2347,58.7296,0.0],[9.2258,58.7279,0.0],[9.2153,58.7232,32.7271],[9.2069,58.7229,10.9401],[9.2197,58.7326,34.6852],[9.2208,58.7324,0.0],[9.2197,58.7304,0.0],[9.2369,58.7318,0.0],[9.2353,58.7337,0.0],[9.2258,58.7346,0.0],[9.2308,58.7354,0.0],[9.2325,58.7363,0.0],[9.2319,58.7376,4.5642],[9.2358,58.7376,0.0],[9.2353,58.739,0.0],[9.1947,58.7385,8.7443],[9.1592,58.7354,48.313],[9.1358,58.7385,32.9871],[9.1208,58.7429,0.0],[9.1058,58.7438,0.0],[9.0919,58.7385,0.0],[9.0925,58.7368,0.0],[9.0881,58.736,0.0],[9.0853,58.7324,0.0],[9.0886,58.7318,0.0],[9.0892,58.734,5.2291],[9.0931,58.7368,0.0],[9.0964,58.7337,3.255],[9.0986,58.7354,0.0],[9.0975,58.7371,12.1454],[9.1025,58.7371,12.5186],[9.1075,58.7318,0.0],[9.1064,58.7304,0.0],[9.1108,58.729,0.0],[9.1314,58.7293,16.1239],[9.1336,58.7276,1.1695],[9.1492,58.7254,0.0],[9.1519,58.7282,9.6738],[9.1553,58.7282,0.0],[9.1547,58.7257,1.3821],[9.1619,58.724,1.7372],[9.1525,58.724,0.0],[9.1525,58.7229,2.3432],[9.1625,58.7196,0.0],[9.1647,58.7199,0.0],[9.1664,58.7229,0.0],[9.1647,58.7243,6.2079],[9.1881,58.7238,7.8824],[9.2025,58.7215,12.6959],[9.1997,58.7193,1.9639],[9.1942,58.719,0.0],[9.1919,58.7154,26.0413],[9.1897,58.7151,17.1475],[9.1864,58.7157,34.3442],[9.1919,58.7174,0.0],[9.1936,58.7201,0.0],[9.1781,58.7215,19.9494],[9.1686,58.7201,0.0],[9.1675,58.7185,48.4983],[9.1586,58.7179,23.9699],[9.1475,58.7193,57.5269],[9.1458,58.7212,17.9118],[9.1353,58.7188,9.7148],[9.1264,58.7212,0.0],[9.1203,58.7196,1.7157],[9.1197,58.7171,6.3796],[9.1181,58.7171,0.0],[9.1136,58.719,7.5702],[9.1219,58.7204,14.6043],[9.1219,58.7221,5.2935],[9.1258,58.7226,1.5542],[9.1264,58.7243,3.1176],[9.1092,58.7254,2.7228],[9.1075,58.7251,0.0],[9.1086,58.7232,12.4875],[9.1069,58.7232,12.4875],[9.1031,58.726,0.0],[9.0975,58.7268,10.9557],[9.0797,58.726,8.8194],[9.0781,58.7279,0.0],[9.0747,58.7265,6.2372],[9.0658,58.7274,0.0],[9.0669,58.7257,20.7356],[9.0658,58.7257,20.7356],[9.0592,58.7265,3.1381],[9.0586,58.7279,9.7716],[9.0653,58.7324,52.8918],[9.0742,58.7346,0.0],[9.0747,58.7363,0.0],[9.0936,58.7443,2.7741],[9.1014,58.7435,0.0],[9.1042,58.7451,0.0],[9.1008,58.7487,10.226],[9.0903,58.7485,12.5834],[9.0886,58.7476,0.0],[9.0881,58.744,0.0],[9.0814,58.7468,4.5316],[9.0825,58.7485,0.0],[9.0936,58.7499,0.0],[9.1069,58.749,0.0],[9.1125,58.7504,0.0],[9.1225,58.7465,0.0],[9.1325,58.7479,3.0237],[9.1303,58.744,0.0],[9.1325,58.7426,3.3335],[9.1458,58.7404,0.0],[9.1508,58.7415,0.0],[9.1525,58.7399,0.0],[9.1614,58.7382,0.0],[9.1697,58.7415,13.5871],[9.1764,58.7412,1.8363],[9.1775,58.7471,36.1145],[9.1814,58.7463,0.0],[9.1842,58.7476,0.2328],[9.1825,58.749,30.0278],[9.1831,58.751,0.0],[9.1869,58.7465,8.5985],[9.1869,58.7418,0.0],[9.2025,58.744,0.0],[9.2042,58.7449,0.0],[9.2047,58.7479,0.0],[9.207,58.7476,0.0],[9.2086,58.7443,0.0],[9.2208,58.7451,0.0],[9.2381,58.7412,0.0],[9.2447,58.743,0.0],[9.2442,58.7474,11.7383],[9.2503,58.7476,0.0],[9.2553,58.7474,2.8757],[9.2542,58.7457,0.0],[9.2553,58.744,0.0],[9.2692,58.7415,0.0],[9.3086,58.7421,1.1877],[9.3114,58.7449,0.0],[9.2975,58.7446,0.0],[9.3008,58.746,0.0],[9.2997,58.7471,15.758],[9.3103,58.7463,0.0],[9.3125,58.7485,0.0],[9.3153,58.7485,0.0],[9.3186,58.7482,0.0],[9.3164,58.7463,0.0],[9.3175,58.7451,0.0],[9.3264,58.7418,0.0],[9.3281,58.7438,0.0],[9.3242,58.7446,0.0],[9.3269,58.7463,0.0],[9.3208,58.7474,0.0],[9.3203,58.7491,1.7166],[9.3364,58.7532,0.0],[9.3414,58.7524,0.0],[9.3397,58.7562,0.0],[9.3414,58.7565,0.5018],[9.3508,58.7529,0.0],[9.3547,58.7549,0.0],[9.3569,58.7593,0.0],[9.3619,58.7607,0.0],[9.3597,58.7624,0.0],[9.3627,58.7637,0.0],[9.366,58.7688,0.2859],[9.3647,58.7729,9.7931],[9.3561,58.7722,22.2966],[9.3548,58.7766,29.3424],[9.3462,58.7759,27.4016],[9.3448,58.7804,41.5213],[9.3191,58.7782,8.3439],[9.3205,58.7738,12.4867],[9.3034,58.7723,22.9733],[9.302,58.7768,65.7823],[9.2934,58.776,75.5182],[9.2893,58.7893,98.1232],[9.2807,58.7886,80.0951],[9.2793,58.793,109.6576],[9.2622,58.7916,125.9337],[9.2608,58.796,130.5132],[9.2351,58.7938,133.1054],[9.2337,58.7983,126.65],[9.2166,58.7968,107.0884],[9.2152,58.8012,99.0506],[9.2066,58.8005,121.8981],[9.2052,58.8049,95.7428],[9.1967,58.8042,132.5455],[9.1939,58.8131,81.8024],[9.1853,58.8123,107.1332],[9.1839,58.8168,160.7317],[9.1753,58.816,75.5],[9.1767,58.8116,148.5944],[9.1682,58.8109,125.925],[9.1696,58.8064,114.2671],[9.161,58.8057,125.3989],[9.1638,58.7969,171.7701],[9.1381,58.7947,96.8647],[9.1395,58.7902,86.2028],[9.0625,58.7836,131.5766],[9.0639,58.7792,152.7355],[9.0553,58.7785,125.3461],[9.0582,58.7696,149.1747],[9.0496,58.7689,140.9785],[9.051,58.7644,137.3094],[9.0339,58.763,151.9174],[9.0325,58.7674,147.5159],[9.0239,58.7667,153.4566],[9.0211,58.7755,161.8979]]]]}}