{"type": "Feature","bbox": [20.3214,69.2279,21.2928,69.753],"geometry": {"type": "MultiPolygon","coordinates": [[[[20.8214,69.4693,922.7157],[20.8312,69.4688,704.4294],[20.8349,69.4724,742.3307],[20.8229,69.4771,704.8609],[20.8193,69.4745,821.7448],[20.8224,69.4724,775.4366],[20.8214,69.4693,922.7157]]],
[[[20.7943,69.4849,997.0648],[20.7958,69.4833,1025.645],[20.8057,69.4838,731.7101],[20.8042,69.4854,743.4213],[20.7943,69.4849,997.0648]]],
[[[21.2799,69.3119,1290.4839],[21.2926,69.3118,1233.1866],[21.2928,69.3164,1293.5123],[21.2802,69.3164,1308.3464],[21.2804,69.3209,1346.4833],[21.2678,69.321,1294.8683],[21.2683,69.33,1213.2396],[21.2556,69.3301,1248.9375],[21.2559,69.3346,1117.8163],[21.2432,69.3347,1140.9227],[21.2437,69.3437,853.1307],[21.231,69.3438,823.225],[21.2313,69.3483,784.9946],[21.2186,69.3484,777.2939],[21.2191,69.3574,797.7773],[21.2064,69.3575,788.9996],[21.2066,69.362,847.8796],[21.1939,69.3621,837.2017],[21.1942,69.3666,852.6046],[21.1815,69.3667,823.0951],[21.1817,69.3712,879.0031],[21.169,69.3713,825.9922],[21.1692,69.3758,822.8569],[21.1565,69.3759,884.9074],[21.157,69.3849,841.4775],[21.1443,69.3849,836.5806],[21.145,69.3985,915.8473],[21.1323,69.3986,908.9525],[21.1328,69.4076,1044.9155],[21.12,69.4076,1070.1013],[21.1203,69.4121,1040.3099],[21.0821,69.4124,1030.3612],[21.0823,69.4169,1048.929],[21.0568,69.417,1002.4323],[21.0571,69.4215,1051.8109],[21.0316,69.4217,1032.8317],[21.0318,69.4262,1072.2164],[21.0445,69.4261,1072.9855],[21.0448,69.4306,1096.2709],[21.0575,69.4306,1054.9219],[21.0579,69.4396,969.6497],[21.0707,69.4395,936.606],[21.0709,69.444,900.101],[21.0836,69.4439,840.0804],[21.0839,69.4484,768.9451],[21.0966,69.4483,748.9343],[21.0971,69.4574,702.4551],[21.1098,69.4573,698.6895],[21.1101,69.4618,719.7895],[21.1228,69.4617,769.3979],[21.123,69.4662,842.3463],[21.1358,69.4661,865.9402],[21.1363,69.4752,973.674],[21.149,69.4751,993.1782],[21.1493,69.4796,977.5662],[21.162,69.4795,916.2999],[21.1623,69.484,878.66],[21.175,69.4839,919.0574],[21.176,69.5019,810.2786],[21.1632,69.502,822.0386],[21.1635,69.5065,892.1837],[21.1507,69.5066,919.9138],[21.1509,69.5111,1019.4546],[21.1382,69.5112,982.6012],[21.1379,69.5067,928.936],[21.0996,69.5069,849.058],[21.0993,69.5024,843.3066],[21.0738,69.5026,921.0961],[21.0736,69.4981,929.2538],[20.9458,69.4988,973.5552],[20.9462,69.5078,1077.0616],[20.9589,69.5077,1026.9254],[20.9593,69.5167,897.028],[20.9721,69.5167,917.0876],[20.9729,69.5347,866.9642],[20.9601,69.5348,886.7728],[20.9603,69.5393,951.9206],[20.9475,69.5393,996.1406],[20.9477,69.5438,1059.7286],[20.9349,69.5439,1012.2334],[20.9351,69.5484,957.6551],[20.9223,69.5485,957.5591],[20.9225,69.553,931.1022],[20.9097,69.553,989.3387],[20.9099,69.5575,926.9651],[20.8971,69.5576,933.6818],[20.8973,69.5621,1018.7804],[20.8716,69.5622,1142.3011],[20.8718,69.5668,1246.1167],[20.859,69.5668,1227.2656],[20.8595,69.5803,1194.9279],[20.8467,69.5804,1198.5199],[20.8469,69.5849,1255.9487],[20.8597,69.5848,1253.7701],[20.8599,69.5893,1233.8074],[20.8727,69.5893,1121.1604],[20.8729,69.5938,865.973],[20.8857,69.5937,857.7055],[20.8859,69.5982,912.9575],[20.8731,69.5983,733.2573],[20.8734,69.6073,1015.7933],[20.8606,69.6074,1227.6184],[20.8608,69.6119,1179.8026],[20.8479,69.6119,943.0358],[20.8481,69.6164,872.7],[20.8353,69.6165,1121.314],[20.8361,69.639,1059.3422],[20.7975,69.6392,1183.6357],[20.7977,69.6437,1152.8922],[20.7591,69.6439,1128.5189],[20.7594,69.6529,734.2335],[20.7466,69.6529,684.8287],[20.747,69.6665,971.239],[20.7342,69.6665,766.1661],[20.7343,69.671,993.9006],[20.7085,69.6711,938.8342],[20.7084,69.6666,890.2403],[20.6955,69.6667,909.0758],[20.6957,69.6712,1134.915],[20.6828,69.6712,841.3845],[20.6829,69.6757,947.5706],[20.67,69.6758,1114.369],[20.6702,69.6803,1168.1178],[20.6573,69.6803,997.246],[20.6574,69.6848,1099.2539],[20.6445,69.6849,956.2753],[20.6453,69.7119,782.2516],[20.6324,69.712,1002.0965],[20.633,69.73,735.8705],[20.6201,69.73,1102.5581],[20.6202,69.7346,1116.8427],[20.6073,69.7346,900.7286],[20.6074,69.7391,1055.7041],[20.5945,69.7391,868.2737],[20.5947,69.7482,981.2711],[20.5818,69.7482,872.7661],[20.5819,69.7527,790.9619],[20.4856,69.753,0.0],[20.4891,69.7505,1.483],[20.4818,69.7495,0.0],[20.4901,69.7443,0.0],[20.4979,69.7438,5.4298],[20.5063,69.7396,0.0],[20.5125,69.7396,4.6967],[20.5224,69.7349,4.6985],[20.5214,69.7318,0.0],[20.5245,69.7297,0.0],[20.5214,69.7255,0.0],[20.5245,69.7234,0.0],[20.5214,69.7193,0.0],[20.5245,69.7182,1.4622],[20.5234,69.7151,0.0],[20.5266,69.7141,8.4406],[20.5255,69.7109,0.0],[20.5266,69.7089,0.0],[20.525,69.7063,1.8279],[20.5266,69.7026,16.8384],[20.5224,69.6984,13.592],[20.5172,69.6974,1.2091],[20.513,69.6932,0.0],[20.5161,69.6901,13.539],[20.5057,69.6797,19.523],[20.4984,69.6787,2.6654],[20.5016,69.6755,19.4129],[20.488,69.6745,0.0],[20.4995,69.6672,177.7214],[20.4833,69.6687,58.6255],[20.4734,69.6661,0.0],[20.4672,69.6599,0.0],[20.4703,69.6568,0.0],[20.4609,69.6453,0.0],[20.4641,69.6422,74.9687],[20.4609,69.638,0.0],[20.4641,69.637,50.9837],[20.463,69.6339,0.0],[20.4651,69.6318,0.0],[20.4682,69.6307,2.5275],[20.4672,69.6276,0.0],[20.4745,69.6245,13.6996],[20.4734,69.6214,0.0],[20.4849,69.6162,19.4421],[20.4839,69.613,0.0],[20.4917,69.6125,7.1888],[20.4984,69.6088,0.0],[20.5063,69.6083,1.081],[20.5104,69.6062,0.0],[20.5208,69.6062,0.0],[20.525,69.6042,0.0],[20.5313,69.6042,9.4695],[20.5328,69.6036,6.8635],[20.5318,69.6005,0.0],[20.5396,69.6,0.0],[20.5505,69.5943,0.0],[20.5578,69.5932,8.4104],[20.5568,69.5901,0.0],[20.5661,69.5891,2.8471],[20.5703,69.587,1.7398],[20.5693,69.5839,0.0],[20.5771,69.5833,0.0],[20.5828,69.5807,4.279],[20.5818,69.5776,0.0],[20.5849,69.5766,4.095],[20.5839,69.5734,0.0],[20.587,69.5724,2.7285],[20.5859,69.5693,0.0],[20.5953,69.5641,13.1332],[20.5943,69.5609,0.0],[20.6141,69.5516,5.869],[20.613,69.5484,0.0],[20.6286,69.5474,67.3723],[20.6276,69.5443,0.0],[20.6312,69.5417,0.0],[20.6391,69.5411,24.8371],[20.638,69.538,0.0],[20.6474,69.537,0.0],[20.6583,69.5313,0.0],[20.6646,69.5313,19.5277],[20.6771,69.5271,1.789],[20.6833,69.5271,26.0429],[20.6917,69.5229,1.9589],[20.7104,69.525,11.5698],[20.7146,69.5229,0.0],[20.7229,69.5229,0.0],[20.7292,69.525,7.7076],[20.7354,69.5229,0.0],[20.7417,69.525,41.6291],[20.7432,69.5245,31.4966],[20.7422,69.5214,0.0],[20.7458,69.5208,0.0],[20.75,69.5229,0.0],[20.7687,69.5229,0.6613],[20.787,69.5141,19.0976],[20.7891,69.512,8.8721],[20.788,69.5089,0.0],[20.7974,69.5078,17.0212],[20.8141,69.4995,0.3703],[20.8109,69.4943,0.9017],[20.8255,69.4859,91.2445],[20.8354,69.4854,12.8407],[20.8417,69.4875,10.7788],[20.85,69.4833,14.9634],[20.8563,69.4833,16.8477],[20.8734,69.4734,139.6186],[20.8813,69.4729,94.5913],[20.888,69.4693,130.0253],[20.8953,69.4682,69.2185],[20.8943,69.4651,201.1095],[20.9036,69.4641,123.9177],[20.9203,69.4547,130.1641],[20.9104,69.4542,602.0955],[20.9042,69.4563,547.6953],[20.9,69.4542,738.3491],[20.8917,69.4542,902.9971],[20.8849,69.4578,965.7784],[20.8688,69.4604,1109.8457],[20.8604,69.4646,1082.3646],[20.8401,69.4641,891.6845],[20.8432,69.462,972.5564],[20.8422,69.4589,941.4081],[20.8479,69.4583,985.3969],[20.8495,69.4568,1022.0569],[20.8354,69.4563,1065.735],[20.8339,69.4568,1065.735],[20.8349,69.4599,940.0995],[20.8318,69.4609,952.4526],[20.8328,69.4641,796.8801],[20.813,69.4672,1174.8115],[20.8161,69.4724,1110.2878],[20.8089,69.4734,1229.1492],[20.8161,69.4776,846.3607],[20.8125,69.4812,802.6714],[20.8089,69.4807,864.0409],[20.812,69.4776,973.0372],[20.8021,69.4771,1225.4843],[20.7875,69.4812,1188.767],[20.7792,69.4792,1001.0721],[20.7729,69.4833,941.0661],[20.7646,69.4833,1074.3121],[20.7604,69.4812,1181.4995],[20.7458,69.4812,1068.2841],[20.7359,69.4838,957.8907],[20.7292,69.4875,1067.3834],[20.7083,69.4854,1266.0344],[20.7042,69.4875,1110.8555],[20.6938,69.4875,1243.0974],[20.6922,69.488,1236.1648],[20.6932,69.4912,1111.0797],[20.6839,69.4922,1204.5657],[20.6849,69.4953,1178.0977],[20.6792,69.4979,1179.6825],[20.6667,69.4979,1198.3246],[20.6542,69.5021,1030.5948],[20.6479,69.5021,969.5419],[20.6396,69.5062,658.7308],[20.6318,69.5068,402.5526],[20.6349,69.5109,314.418],[20.6318,69.513,156.1968],[20.6328,69.5162,35.1481],[20.6245,69.5203,0.0],[20.6172,69.5214,33.2274],[20.6047,69.5276,100.6187],[20.6057,69.5307,0.0],[20.6026,69.5318,63.4719],[20.6036,69.5349,0.0],[20.5854,69.5354,470.1072],[20.5693,69.5401,238.7529],[20.5708,69.5417,224.1107],[20.5833,69.5417,210.4257],[20.5917,69.5375,188.9302],[20.5953,69.538,36.9274],[20.587,69.5432,87.1877],[20.5771,69.5458,163.8941],[20.5625,69.5458,75.4815],[20.5583,69.5437,56.1616],[20.538,69.5443,0.0],[20.5391,69.5474,0.0],[20.5359,69.5495,0.0],[20.5391,69.5537,0.0],[20.5359,69.5547,0.0],[20.537,69.5578,0.0],[20.5339,69.5589,0.0],[20.5349,69.562,0.0],[20.5224,69.5682,30.2614],[20.513,69.5693,133.7546],[20.5141,69.5724,0.0],[20.5047,69.5724,53.9801],[20.5057,69.5693,269.6656],[20.5042,69.5687,337.0823],[20.5,69.5708,214.9949],[20.4922,69.5714,280.5256],[20.4813,69.5771,70.9527],[20.4625,69.5771,414.9819],[20.4526,69.5797,462.0798],[20.4458,69.5833,339.3671],[20.4396,69.5833,519.0422],[20.4328,69.587,328.8022],[20.425,69.5875,253.7108],[20.4208,69.5896,138.5578],[20.4146,69.5896,49.3923],[20.4104,69.5875,71.3299],[20.4,69.5875,0.0],[20.3943,69.5828,0.0],[20.3974,69.5807,0.0],[20.3964,69.5776,0.0],[20.3995,69.5755,89.0489],[20.3922,69.5745,0.0],[20.3953,69.5714,45.4519],[20.388,69.5703,0.0],[20.3839,69.5661,0.0],[20.387,69.5641,0.0],[20.3859,69.5609,0.0],[20.3891,69.5599,0.0],[20.3839,69.5537,0.0],[20.387,69.5505,0.0],[20.3849,69.5484,0.0],[20.3776,69.5474,0.0],[20.3807,69.5443,0.0],[20.3714,69.5349,0.0],[20.3693,69.5307,0.0],[20.3703,69.5255,4.009],[20.3661,69.5214,42.1463],[20.3589,69.5203,15.793],[20.3505,69.512,0.0],[20.3536,69.5089,0.0],[20.3318,69.487,0.0],[20.3349,69.4838,0.0],[20.3318,69.4797,0.0],[20.3349,69.4776,63.4656],[20.3328,69.4755,57.2407],[20.3276,69.4745,0.0],[20.3214,69.4682,0.0],[20.3245,69.4661,5.0162],[20.3234,69.463,6.3164],[20.3266,69.462,62.8349],[20.3235,69.4579,58.7495],[20.3289,69.4604,77.4495],[20.3445,69.4603,397.896],[20.3444,69.4558,537.142],[20.3954,69.4557,809.4008],[20.3953,69.4512,918.9249],[20.4336,69.4511,820.4526],[20.4335,69.4466,992.3909],[20.4845,69.4465,1098.9719],[20.4829,69.3744,1270.0592],[20.4956,69.3744,1217.7626],[20.4954,69.3653,1265.5378],[20.5081,69.3653,1291.8643],[20.508,69.3608,1251.634],[20.5207,69.3608,1112.8549],[20.5205,69.3517,1195.2655],[20.5332,69.3517,1126.7306],[20.533,69.3427,987.3754],[20.5456,69.3427,1222.6899],[20.5455,69.3382,1244.6107],[20.6343,69.3379,972.7356],[20.6342,69.3334,1032.3138],[20.6469,69.3333,1038.801],[20.6468,69.3288,1068.1536],[20.6594,69.3288,987.9417],[20.6593,69.3243,1063.8391],[20.672,69.3242,1032.1591],[20.6718,69.3197,1101.1418],[20.6972,69.3196,1125.3522],[20.697,69.3151,1168.1249],[20.7351,69.315,1076.3627],[20.7349,69.3104,1092.7007],[20.8489,69.31,1203.4333],[20.8486,69.3009,1098.6975],[20.8613,69.3009,1082.0],[20.8607,69.2874,1085.9253],[20.8734,69.2873,1070.9397],[20.8732,69.2828,1072.743],[20.8606,69.2829,1065.7643],[20.8602,69.2738,1091.9651],[20.8476,69.2739,1122.152],[20.8472,69.2649,1061.5464],[20.8598,69.2648,1078.0275],[20.8597,69.2603,1047.0],[20.885,69.2602,1078.7931],[20.8848,69.2557,1058.6577],[20.8974,69.2556,1041.3542],[20.8972,69.2511,1046.5],[20.9099,69.2511,1065.9104],[20.9097,69.2466,1070.6433],[20.9349,69.2464,1151.4301],[20.9347,69.2419,1092.6581],[20.9474,69.2419,1106.7791],[20.9476,69.2464,1130.9753],[20.9602,69.2463,1089.2847],[20.9604,69.2508,1101.8823],[20.9857,69.2507,1129.4539],[20.9853,69.2417,1083.8152],[20.9979,69.2416,1114.6047],[20.9975,69.2326,1078.6913],[21.0101,69.2325,1105.783],[21.0099,69.228,1097.6331],[21.0225,69.2279,1116.4152],[21.0227,69.2324,1137.5645],[21.0353,69.2324,1149.5054],[21.0356,69.2369,1111.0873],[21.0482,69.2368,1115.8497],[21.0484,69.2413,1091.1934],[21.061,69.2412,1024.8405],[21.0615,69.2502,1033.1327],[21.0741,69.2502,1023.2961],[21.0743,69.2547,1024.9246],[21.087,69.2546,1002.8107],[21.0872,69.2591,1042.4114],[21.0998,69.259,1067.7389],[21.1001,69.2635,1023.1037],[21.1127,69.2635,916.9417],[21.1129,69.268,990.8972],[21.1256,69.2679,941.1849],[21.1258,69.2724,891.3058],[21.1511,69.2722,880.6643],[21.1513,69.2767,918.5667],[21.164,69.2767,934.2391],[21.1642,69.2812,961.7778],[21.1769,69.2811,1036.8333],[21.1771,69.2856,1095.8744],[21.1898,69.2855,1125.254],[21.19,69.29,1150.7333],[21.2153,69.2898,1263.3851],[21.2156,69.2943,1223.9855],[21.2282,69.2943,1091.3959],[21.2285,69.2988,1152.0135],[21.2411,69.2987,1039.7278],[21.2414,69.3032,1199.9213],[21.2541,69.3031,1118.6597],[21.2543,69.3076,1257.6381],[21.267,69.3075,1303.5355],[21.2672,69.312,1306.4398],[21.2799,69.3119,1290.4839]]],
[[[20.7062,69.5021,939.6279],[20.6958,69.5042,726.1212],[20.6901,69.4984,839.2532],[20.6979,69.4979,777.567],[20.7021,69.4958,884.1515],[20.7125,69.4958,1136.9877],[20.7141,69.4953,1155.5996],[20.713,69.4922,1178.7693],[20.7172,69.4901,1309.9738],[20.7313,69.4896,1113.7983],[20.7354,69.4875,933.1301],[20.7516,69.4901,823.1231],[20.7557,69.4943,903.4161],[20.7521,69.4958,950.6956],[20.7474,69.4922,1009.6125],[20.7437,69.4917,1013.0729],[20.7339,69.4943,1291.4718],[20.7271,69.4979,1310.1069],[20.7188,69.4958,1310.0333],[20.7062,69.5021,939.6279]]],
[[[20.7714,69.4974,435.6832],[20.7729,69.4958,424.492],[20.7766,69.4964,358.6049],[20.775,69.4979,380.9717],[20.7714,69.4974,435.6832]]],
[[[20.737,69.4995,919.2492],[20.7411,69.4984,820.45],[20.7391,69.5016,949.905],[20.7339,69.5016,1141.3011],[20.737,69.4995,919.2492]]],
[[[20.3984,69.6057,0.0],[20.4,69.6042,0.0],[20.4036,69.6047,0.0],[20.4021,69.6062,0.0],[20.3984,69.6057,0.0]]]]}
,"properties": {"GID_2": "NOR.17.9_1","GID_0": "NOR","country": "Norway","GID_1": "NOR.17_1","province": "Troms","NL_NAME_1": "NA","county": "Kåfjord","VARNAME_2": "G ivuotna","NL_NAME_2": "NA","TYPE_2": "Kommuner","ENGTYPE_2": "Municipality","CC_2": "NA","HASC_2": "NO.TR.KF","name": "Kåfjord.county","area_km2": 960.4965,"hist_schema_id": "Elevation0-9000","hist_area_km2": {"0": 8.1284,"25": 9.275,"50": 9.4047,"75": 14.7169,"100": 9.0393,"125": 8.7653,"150": 8.327,"175": 7.9788,"200": 7.4184,"225": 7.7906,"250": 8.4469,"275": 8.6471,"300": 8.7946,"325": 8.9716,"350": 9.172,"375": 9.0579,"400": 9.2187,"425": 9.2699,"450": 9.3663,"475": 9.6775,"500": 10.2092,"525": 10.639,"550": 11.7666,"575": 12.9327,"600": 12.7262,"625": 13.2349,"650": 14.64,"675": 14.7478,"700": 21.6312,"725": 18.6968,"750": 17.4382,"775": 35.7556,"800": 24.9082,"825": 29.6487,"850": 31.2691,"875": 36.0564,"900": 40.8959,"925": 39.3991,"950": 40.9758,"975": 47.2851,"1000": 46.3526,"1025": 43.2291,"1050": 41.4092,"1075": 38.5172,"1100": 32.2054,"1125": 26.351,"1150": 19.6835,"1175": 11.5733,"1200": 10.0036,"1225": 8.0833,"1250": 6.0261,"1275": 5.2405,"1300": 3.0599,"1325": 1.7996,"1350": 0.5647,"1375": 0.0742}}}