{"type":"Feature","properties":{"GID_2":"NOR.10.31_1","GID_0":"NOR","country":"Norway","GID_1":"NOR.10_1","province":"Nordland","NL_NAME_1":"NA","county":"Saltdal","VARNAME_2":"NA","NL_NAME_2":"NA","TYPE_2":"Kommuner","ENGTYPE_2":"Municipality","CC_2":"NA","HASC_2":"NO.NO.SA","name":"Saltdal.county"},
"geometry":{"type": "MultiPolygon","coordinates": [[[[14.981,66.7724,1019.5908],[15.015,66.7734,680.4794],[15.0141,66.7779,693.6588],[15.0595,66.7793,1006.6484],[15.0586,66.7838,915.8867],[15.1607,66.7868,1096.0925],[15.1616,66.7823,1178.1923],[15.1729,66.7826,1135.1257],[15.1764,66.7647,1190.0063],[15.1877,66.765,1151.5562],[15.1912,66.7471,1177.0292],[15.2025,66.7474,1206.3424],[15.2051,66.734,1137.3571],[15.1938,66.7336,1150.217],[15.1964,66.7202,1119.6656],[15.1851,66.7198,1046.7158],[15.186,66.7154,989.1412],[15.1746,66.715,967.549],[15.1764,66.7061,1116.7982],[15.1651,66.7057,1194.887],[15.1659,66.7012,1065.5463],[15.1546,66.7009,1078.252],[15.1659,66.6426,1303.0221],[15.1772,66.6429,1175.7534],[15.1781,66.6384,1198.1588],[15.1894,66.6388,1212.759],[15.1902,66.6343,1220.6462],[15.2015,66.6346,1241.8887],[15.2024,66.6301,1233.6353],[15.2136,66.6305,1167.8444],[15.2153,66.6215,1307.9969],[15.2266,66.6218,1205.755],[15.2292,66.6084,1109.0023],[15.2179,66.608,1304.7933],[15.2213,66.5901,1250.0676],[15.2101,66.5898,1272.2214],[15.2109,66.5853,1450.3882],[15.2222,66.5856,1424.9858],[15.223,66.5811,1387.2623],[15.2343,66.5815,1194.0286],[15.2352,66.577,1243.6552],[15.2464,66.5773,1098.8693],[15.2473,66.5728,1204.847],[15.3035,66.5744,807.3449],[15.3043,66.57,784.931],[15.3606,66.5716,715.0479],[15.3614,66.5671,733.8978],[15.4064,66.5684,904.6247],[15.4072,66.5639,903.1685],[15.441,66.5648,1042.9773],[15.4418,66.5603,1029.2322],[15.4643,66.561,1096.6923],[15.4651,66.5565,1080.6895],[15.4988,66.5574,1152.9681],[15.4996,66.5529,1143.6532],[15.5334,66.5538,1176.0038],[15.5326,66.5583,1216.7612],[15.5438,66.5586,1099.532],[15.543,66.5631,1119.0382],[15.5543,66.5634,1117.1104],[15.5535,66.5679,1137.6643],[15.5647,66.5682,1048.592],[15.5639,66.5727,987.8553],[15.5752,66.573,984.0538],[15.5744,66.5775,990.7861],[15.5856,66.5778,983.8595],[15.5849,66.5823,990.6017],[15.5961,66.5826,999.465],[15.5953,66.5871,1118.9596],[15.6066,66.5874,1280.1125],[15.6058,66.5919,1341.4685],[15.6283,66.5925,1390.2756],[15.6268,66.6015,1059.0906],[15.638,66.6018,1029.7014],[15.6365,66.6107,1229.3217],[15.6477,66.6111,1147.8086],[15.6469,66.6155,1276.1388],[15.6582,66.6158,1238.4031],[15.6567,66.6248,1189.963],[15.6679,66.6251,1142.9999],[15.6664,66.6341,1112.8068],[15.6777,66.6344,1076.4722],[15.6769,66.6389,1014.3024],[15.6882,66.6392,1035.0603],[15.6866,66.6482,980.8347],[15.6979,66.6485,997.8596],[15.6971,66.6529,1004.9918],[15.7084,66.6532,973.6975],[15.7069,66.6622,922.9438],[15.7182,66.6625,897.688],[15.7167,66.6715,1061.6971],[15.728,66.6718,1005.1925],[15.7272,66.6763,1066.0573],[15.7385,66.6766,1174.5103],[15.737,66.6855,1246.8485],[15.7483,66.6858,1194.1066],[15.7467,66.6948,1002.1035],[15.758,66.6951,935.7728],[15.7573,66.6996,907.0219],[15.7686,66.6999,853.4404],[15.7671,66.7089,841.9753],[15.7784,66.7092,778.2971],[15.7776,66.7136,756.3842],[15.7889,66.7139,712.0145],[15.7874,66.7229,673.6493],[15.7987,66.7232,705.963],[15.7972,66.7322,658.5069],[15.8086,66.7325,714.9949],[15.8078,66.737,785.4932],[15.8191,66.7373,771.8448],[15.8176,66.7462,702.4538],[15.829,66.7465,688.0616],[15.8282,66.751,627.4041],[15.8395,66.7513,611.1729],[15.838,66.7603,662.9228],[15.8494,66.7606,688.5971],[15.8479,66.7695,976.5106],[15.8592,66.7698,1049.0386],[15.8585,66.7743,1255.4384],[15.8698,66.7746,1236.1339],[15.8683,66.7836,1244.0156],[15.8797,66.7839,1091.4884],[15.8789,66.7884,1003.812],[15.8903,66.7886,920.9014],[15.8888,66.7976,1105.3372],[15.9002,66.7979,1244.069],[15.8987,66.8069,1206.6836],[15.91,66.8072,1201.4619],[15.9093,66.8117,1211.4855],[15.9207,66.8119,1174.2686],[15.9192,66.8209,1165.5883],[15.9306,66.8212,1243.835],[15.9298,66.8257,1072.1189],[15.9412,66.826,1124.2506],[15.9397,66.8349,1210.7472],[15.9511,66.8352,1323.2606],[15.9496,66.8442,1225.5905],[15.961,66.8445,1148.459],[15.9603,66.849,1077.7767],[15.9717,66.8493,1033.1296],[15.9702,66.8582,1134.2169],[15.9816,66.8585,1158.0343],[15.9801,66.8675,1222.0184],[15.9915,66.8678,1406.5645],[15.9908,66.8723,1478.121],[16.0022,66.8725,1310.6924],[16.0007,66.8815,1152.905],[16.0121,66.8818,1060.8851],[16.0107,66.8908,1027.6061],[16.0221,66.8911,877.5754],[16.0207,66.9,903.6352],[16.0321,66.9003,773.5861],[16.0306,66.9093,930.5301],[16.042,66.9096,804.1669],[16.0413,66.914,786.1698],[16.0527,66.9143,849.4979],[16.052,66.9188,764.2216],[16.0634,66.9191,638.1978],[16.0627,66.9236,659.2823],[16.0741,66.9239,659.2724],[16.0734,66.9283,694.6218],[16.0848,66.9286,681.017],[16.0841,66.9331,697.5527],[16.0955,66.9334,614.4575],[16.0948,66.9379,626.7651],[16.1063,66.9381,641.3414],[16.1055,66.9426,680.1192],[16.117,66.9429,683.8187],[16.1163,66.9474,723.1593],[16.1277,66.9477,745.6014],[16.127,66.9521,762.3575],[16.1384,66.9524,785.3762],[16.1377,66.9569,823.3267],[16.1491,66.9572,823.8663],[16.1484,66.9617,905.7616],[16.1599,66.9619,930.0376],[16.1592,66.9664,926.276],[16.1706,66.9667,909.2599],[16.1699,66.9712,883.2502],[16.1814,66.9714,951.9235],[16.1807,66.9759,1005.8256],[16.1921,66.9762,1397.8125],[16.1914,66.9807,1737.5421],[16.2029,66.9809,1447.3062],[16.2022,66.9854,1363.7329],[16.2136,66.9857,1376.538],[16.2129,66.9902,1273.0852],[16.2358,66.9907,1160.2546],[16.2351,66.9952,1132.5564],[16.2466,66.9955,907.6346],[16.2459,67.0,867.6241],[16.2574,67.0002,848.8231],[16.2567,67.0047,848.5864],[16.2681,67.005,848.5823],[16.2675,67.0095,961.4157],[16.2904,67.01,982.355],[16.289,67.019,922.68],[16.1859,67.0166,1211.5969],[16.1852,67.0211,1176.0659],[16.1508,67.0203,1091.2987],[16.1501,67.0248,998.7136],[16.1271,67.0243,917.1376],[16.1264,67.0288,948.3472],[16.115,67.0285,884.7697],[16.1142,67.033,943.7141],[16.0913,67.0324,772.9474],[16.0906,67.0369,830.335],[16.0791,67.0367,809.0268],[16.0784,67.0412,716.7439],[16.0555,67.0406,679.5775],[16.0547,67.0451,656.2812],[16.0318,67.0445,589.0059],[16.0311,67.049,549.7658],[16.0196,67.0488,523.6556],[16.0189,67.0533,509.0],[15.9959,67.0527,541.6776],[15.9952,67.0572,532.0052],[15.9837,67.0569,515.0623],[15.983,67.0614,549.1762],[15.96,67.0609,643.1335],[15.9593,67.0653,660.9187],[15.9363,67.0648,681.6425],[15.9356,67.0693,683.7405],[15.9241,67.069,680.449],[15.9233,67.0735,706.8887],[15.9118,67.0732,744.5397],[15.9111,67.0777,799.8067],[15.8996,67.0774,810.4516],[15.8989,67.0819,825.6219],[15.8874,67.0816,827.4277],[15.8866,67.0861,823.4274],[15.8751,67.0858,800.1639],[15.8744,67.0903,860.0916],[15.8629,67.09,864.284],[15.8621,67.0945,933.5615],[15.8161,67.0934,920.7382],[15.8154,67.0978,965.933],[15.7809,67.097,776.1207],[15.7801,67.1015,846.0285],[15.7686,67.1012,781.7255],[15.7678,67.1057,851.2167],[15.7563,67.1054,856.9532],[15.7556,67.1099,922.0156],[15.7441,67.1096,891.2357],[15.7433,67.1141,893.8553],[15.7203,67.1135,901.683],[15.7195,67.118,939.2831],[15.708,67.1177,981.6318],[15.7072,67.1221,989.2473],[15.6957,67.1218,976.2362],[15.6949,67.1263,954.4474],[15.6719,67.1257,877.8353],[15.6655,67.1617,767.7424],[15.654,67.1614,739.3126],[15.6516,67.1748,911.5598],[15.6401,67.1745,944.2711],[15.6393,67.179,886.2277],[15.6162,67.1784,617.7223],[15.6154,67.1829,506.2299],[15.6039,67.1826,606.825],[15.6022,67.1916,510.8003],[15.5907,67.1913,587.3038],[15.5899,67.1957,503.0075],[15.5206,67.1939,335.6425],[15.5198,67.1984,312.9505],[15.4737,67.1971,315.5103],[15.4745,67.1927,198.4039],[15.47,67.1925,105.1809],[15.4803,67.1877,94.9205],[15.4792,67.1844,0.0],[15.4828,67.1818,20.6553],[15.4807,67.1797,37.6398],[15.4755,67.1786,65.7286],[15.4714,67.1713,0.0],[15.4828,67.1651,0.0],[15.4792,67.1625,3.8931],[15.4693,67.162,0.0],[15.4693,67.1589,0.0],[15.4724,67.1568,122.1909],[15.4651,67.1557,0.0],[15.462,67.1505,50.929],[15.4521,67.15,7.9185],[15.4422,67.1453,0.0],[15.4458,67.1417,0.0],[15.4417,67.1354,0.0],[15.4453,67.1328,0.0],[15.4443,67.1297,0.0],[15.4474,67.1286,0.0],[15.4464,67.1234,0.0],[15.4536,67.1224,24.2034],[15.4542,67.1208,14.8827],[15.451599999999999,67.1172,19.2605],[15.4375,67.1167,0.0],[15.4339,67.1141,0.0],[15.4438,67.1083,0.0],[15.4557,67.1078,3.7183],[15.4599,67.1057,5.1238],[15.4589,67.1026,0.0],[15.4667,67.1021,0.0],[15.4724,67.0984,5.5485],[15.4625,67.0979,0.0],[15.4563,67.0958,0.0],[15.437,67.1036,23.215],[15.4292,67.1042,0.0],[15.425,67.1062,0.0],[15.4208,67.1042,0.0],[15.4146,67.1042,0.9631],[15.4083,67.1062,0.0],[15.4042,67.1042,0.0],[15.3917,67.1042,0.0],[15.3901,67.1047,0.0],[15.3911,67.1078,0.0],[15.388,67.1088,26.9895],[15.3932,67.1109,0.0],[15.3901,67.1141,16.4813],[15.3974,67.1151,0.0],[15.4026,67.1245,2.5541],[15.4047,67.1266,0.0],[15.4099,67.1276,0.0],[15.4125,67.1312,0.0],[15.4104,67.1333,0.0],[15.3917,67.1271,0.0],[15.3901,67.1276,0.0],[15.3901,67.1307,0.0],[15.3922,67.1328,0.0],[15.3974,67.1339,0.0],[15.3943,67.137,16.1448],[15.3964,67.1391,0.0],[15.4016,67.1401,0.0],[15.3984,67.1432,0.0],[15.4078,67.1484,0.0],[15.4078,67.1516,0.0],[15.4047,67.1536,0.0],[15.413,67.1641,4.8451],[15.4182,67.1651,0.0],[15.4187,67.1667,0.0],[15.412,67.1724,0.0],[15.4026,67.1734,140.8562],[15.4078,67.1828,0.0],[15.3984,67.1839,0.0],[15.3875,67.1896,0.0],[15.375,67.1896,0.0],[15.3711,67.1876,42.3814],[15.3724,67.1808,256.9169],[15.3609,67.1805,237.506],[15.3617,67.176,289.6782],[15.3502,67.1757,393.1377],[15.351,67.1712,487.5312],[15.328,67.1706,549.3647],[15.3288,67.1661,518.1717],[15.3173,67.1658,519.6462],[15.3182,67.1613,481.8332],[15.3067,67.1609,534.6894],[15.3075,67.1565,456.2976],[15.296,67.1561,441.1695],[15.2969,67.1516,389.8252],[15.2738,67.151,397.0058],[15.2747,67.1465,367.7484],[15.2632,67.1462,387.4836],[15.264099999999999,67.1417,368.3324],[15.2526,67.1414,373.502],[15.2534,67.1369,372.2424],[15.2419,67.1366,370.594],[15.2428,67.1321,380.4901],[15.2313,67.1317,433.4785],[15.2322,67.1272,526.6675],[15.2207,67.1269,542.5016],[15.2259,67.1,467.3562],[15.2144,67.0997,473.9344],[15.2162,67.0907,507.4109],[15.2047,67.0904,472.3682],[15.2065,67.0814,515.6796],[15.195,67.0811,548.8076],[15.1959,67.0766,534.095],[15.1844,67.0762,555.1322],[15.1879,67.0583,553.8132],[15.1764,67.058,542.0088],[15.18,67.04,516.9734],[15.1685,67.0397,468.0541],[15.1712,67.0262,469.514],[15.1597,67.0259,442.9193],[15.1632,67.0079,539.4243],[15.1518,67.0076,505.786],[15.1544,66.9941,637.6949],[15.143,66.9938,662.2225],[15.1439,66.9893,643.199],[15.1324,66.989,682.5394],[15.1342,66.98,651.6769],[15.1228,66.9797,698.8029],[15.1263,66.9617,698.6639],[15.1149,66.9614,776.2713],[15.1176,66.9479,555.9472],[15.0605,66.9462,523.3045],[15.0623,66.9373,462.4409],[15.0509,66.9369,558.9564],[15.0545,66.919,568.0267],[15.0317,66.9183,609.075],[15.0308,66.9228,611.7274],[15.008,66.9221,621.9191],[15.0143,66.8907,748.0289],[15.0029,66.8904,772.5391],[15.0038,66.8859,743.8276],[14.9924,66.8855,776.2473],[14.9988,66.8541,683.2055],[14.9874,66.8538,671.8217],[14.9901,66.8403,695.9689],[14.9788,66.84,684.6856],[14.9815,66.8265,853.5023],[14.9929,66.8269,911.6845],[14.9974,66.8045,723.1101],[14.986,66.8041,777.1116],[14.9906,66.7817,796.275],[14.9792,66.7813,892.3347],[14.981,66.7724,1019.5908]]]]}}