{"type": "Feature","bbox": [5.9651,62.0341,6.8056,62.3646],"geometry": {"type": "MultiPolygon","coordinates": [[[[6.7534,62.2371,1041.432],[6.7554,62.2327,854.2286],[6.727,62.23,1051.484],[6.7251,62.2344,1258.0197],[6.7062,62.2326,1406.9424],[6.7003,62.2458,1346.7535],[6.6908,62.2449,1252.9812],[6.6889,62.2493,1277.986],[6.651,62.2457,975.7455],[6.649,62.2501,847.9736],[6.6396,62.2492,1072.5406],[6.6376,62.2536,953.3483],[6.6282,62.2527,1255.8274],[6.6262,62.257,1317.1459],[6.6167,62.2561,1113.4557],[6.6148,62.2605,1118.0654],[6.6053,62.2596,1220.7731],[6.5954,62.2816,986.7394],[6.5859,62.2807,1173.4199],[6.58,62.2938,1030.5283],[6.5705,62.2929,1265.4808],[6.5666,62.3017,875.3961],[6.5097,62.2962,920.7326],[6.5078,62.3006,954.5645],[6.4983,62.2997,1170.8579],[6.4923,62.3129,839.3909],[6.4828,62.312,1043.4893],[6.4688,62.3427,676.4578],[6.4399,62.3397,276.0875],[6.4042,62.3596,5.8639],[6.4047,62.3568,0.0],[6.4141,62.3516,0.0],[6.4151,62.3484,0.0],[6.4208,62.3458,0.0],[6.4266,62.3453,15.5463],[6.4318,62.338,4.0181],[6.4349,62.337,2.9342],[6.4333,62.3333,0.0],[6.4339,62.3297,0.0],[6.4411,62.3245,0.0],[6.4401,62.3214,0.0],[6.4437,62.3187,0.0],[6.4422,62.3089,0.0],[6.4495,62.3057,0.0],[6.4505,62.3005,0.0],[6.4536,62.2995,0.0],[6.4547,62.2964,0.0],[6.462,62.2953,0.0],[6.4568,62.2922,0.0],[6.4641,62.2911,0.0],[6.4651,62.288,0.0],[6.4682,62.287,0.0],[6.4682,62.2839,0.0],[6.463,62.2828,0.0],[6.4703,62.2786,0.0],[6.4672,62.2755,0.0],[6.4755,62.2714,0.0],[6.4828,62.2703,0.0],[6.4839,62.2672,0.0],[6.4896,62.2667,0.0],[6.4995,62.262,0.0],[6.4979,62.2583,0.0],[6.5016,62.2557,0.0],[6.5026,62.2505,0.0],[6.5099,62.2474,72.6178],[6.5089,62.2443,0.0],[6.512,62.2432,1.3905],[6.513,62.2401,0.0],[6.5245,62.2349,27.4525],[6.5229,62.2292,0.0],[6.5266,62.2286,0.0],[6.5276,62.2255,0.0],[6.5307,62.2245,51.7797],[6.5318,62.2193,0.0],[6.5391,62.2161,164.3847],[6.5339,62.2141,0.0],[6.537,62.2109,0.0],[6.5339,62.2099,0.0],[6.5318,62.2068,26.5252],[6.5521,62.2062,0.0],[6.5563,62.2083,0.0],[6.5792,62.2083,0.0],[6.5833,62.2104,0.0],[6.5938,62.2104,0.0],[6.5979,62.2083,0.0],[6.6062,62.2083,0.0],[6.6188,62.2042,0.0],[6.6312,62.2042,0.0],[6.6411,62.1995,0.0],[6.637,62.1964,0.0],[6.6312,62.1958,77.0781],[6.6167,62.2,0.0],[6.6151,62.1984,105.0971],[6.6266,62.1922,581.9949],[6.6104,62.1917,931.3642],[6.6062,62.1896,1071.8798],[6.6021,62.1917,1063.0107],[6.575,62.1917,759.2372],[6.5708,62.1937,375.4217],[6.5568,62.1932,60.5581],[6.5599,62.1911,101.7812],[6.563,62.1859,0.0],[6.5703,62.1828,0.0],[6.5714,62.1776,0.0],[6.5786,62.1766,14.1047],[6.5792,62.1729,0.0],[6.5776,62.1693,0.0],[6.5849,62.1661,0.0],[6.5901,62.1589,0.0],[6.5995,62.1536,0.0],[6.6005,62.1505,0.0],[6.6036,62.1495,0.0],[6.6042,62.1458,0.0],[6.6016,62.1422,0.0],[6.5984,62.1411,0.0],[6.5953,62.1297,0.0],[6.5922,62.1286,0.0],[6.5953,62.1255,0.0],[6.5833,62.125,0.0],[6.575,62.1208,217.8652],[6.5646,62.1208,0.0],[6.5604,62.1188,0.0],[6.5563,62.1188,0.0],[6.5547,62.1193,0.0],[6.5547,62.1224,0.0],[6.5578,62.1234,0.0],[6.5589,62.1266,0.0],[6.5667,62.1271,0.0],[6.575,62.1312,0.0],[6.5828,62.1318,0.0],[6.5828,62.137,0.0],[6.5797,62.1391,0.0],[6.5849,62.1411,0.0],[6.5818,62.1422,0.0],[6.5807,62.1474,0.0],[6.5771,62.1479,54.7475],[6.5771,62.15,0.0],[6.5693,62.1526,35.2043],[6.5661,62.1578,0.0],[6.5589,62.1609,0.0],[6.5578,62.1641,0.0],[6.5505,62.1672,0.0],[6.5474,62.1724,0.0],[6.5318,62.1797,15.1086],[6.5307,62.1828,0.0],[6.5234,62.1839,0.0],[6.5109,62.1901,142.8118],[6.5099,62.1932,0.0],[6.5068,62.1943,42.8844],[6.5078,62.1974,0.0],[6.5047,62.1984,0.0],[6.5036,62.2036,0.0],[6.4979,62.2062,16.152],[6.4938,62.2062,14.9704],[6.4896,62.2042,59.225],[6.4797,62.2068,0.0],[6.4797,62.212,0.0],[6.4849,62.213,0.0],[6.4932,62.2172,0.0],[6.4938,62.2188,0.0],[6.4911,62.2224,53.8466],[6.4797,62.2276,370.7213],[6.4828,62.2297,122.4801],[6.4849,62.2349,0.0],[6.4755,62.2359,202.0398],[6.4766,62.2411,47.8513],[6.4734,62.2422,98.8531],[6.4724,62.2474,0.0],[6.4661,62.2516,52.9972],[6.4417,62.2521,699.977],[6.4391,62.2557,326.7277],[6.4359,62.2568,240.2119],[6.4349,62.2599,0.0],[6.4276,62.263,0.0],[6.4286,62.2661,0.0],[6.4255,62.2672,0.0],[6.4245,62.2745,0.0],[6.4214,62.2766,0.0],[6.4266,62.2776,0.0],[6.4234,62.2797,0.0],[6.4229,62.2833,0.0],[6.4234,62.2849,0.0],[6.4286,62.2859,0.0],[6.4286,62.2891,0.0],[6.4255,62.2901,0.0],[6.4245,62.2932,0.0],[6.4187,62.2938,42.5765],[6.413,62.2964,0.0],[6.412,62.2995,0.0],[6.4089,62.3005,0.0],[6.4099,62.3036,0.0],[6.4068,62.3057,0.0],[6.4099,62.3078,0.0],[6.4026,62.313,0.0],[6.4042,62.3167,0.0],[6.4005,62.3193,0.0],[6.3995,62.3224,10.5027],[6.3922,62.3255,0.0],[6.3911,62.3286,0.0],[6.388,62.3297,0.0],[6.3849,62.3349,0.0],[6.3792,62.3354,44.798],[6.3734,62.338,10.1785],[6.3724,62.3411,0.0],[6.3568,62.3484,22.8772],[6.3557,62.3516,0.0],[6.3411,62.3599,269.4517],[6.3276,62.3609,651.1589],[6.3286,62.3641,608.3973],[6.3271,62.3646,546.8014],[6.3208,62.3625,729.8869],[6.3125,62.3625,791.1172],[6.3083,62.3604,843.2662],[6.2937,62.3646,165.4095],[6.2896,62.3625,188.6174],[6.275,62.3625,0.0],[6.2708,62.3604,8.0964],[6.2479,62.3604,0.0],[6.2354,62.3563,54.3588],[6.2292,62.3563,0.0],[6.2089,62.3474,0.0],[6.2078,62.3443,0.0],[6.1958,62.3396,14.6247],[6.1813,62.3396,0.0],[6.1651,62.3328,6.2929],[6.1625,62.3292,105.2293],[6.1438,62.3271,0.0],[6.1359,62.3245,0.0],[6.1333,62.3208,7.0175],[6.1292,62.3208,0.0],[6.1104,62.3146,11.1617],[6.1026,62.3141,0.0],[6.0984,62.312,0.0],[6.0953,62.3068,6.4109],[6.087,62.3026,4.6646],[6.0734,62.2995,0.0],[6.0708,62.2958,26.1745],[6.0646,62.2958,0.0],[6.0563,62.2917,62.3989],[6.0484,62.2911,0.0],[6.0443,62.2891,0.0],[6.0432,62.2859,67.4366],[6.0354,62.2854,0.0],[6.0328,62.2818,82.3914],[6.0255,62.2807,19.8095],[6.0224,62.2755,143.7],[6.013,62.2724,142.397],[6.0078,62.2651,780.2805],[6.0005,62.2672,350.6703],[5.9979,62.2708,54.0916],[5.9859,62.2703,0.0],[5.9818,62.2682,0.0],[5.9807,62.263,57.658],[5.9755,62.262,0.0],[5.9745,62.2547,11.0249],[5.9693,62.2516,38.7123],[5.9693,62.2484,18.3746],[5.9792,62.2458,0.0],[5.9875,62.2458,5.206],[5.9932,62.2432,9.5835],[5.9943,62.2401,0.0],[6.0016,62.2391,9.8606],[6.0026,62.2359,0.0],[6.0062,62.2333,0.0],[6.0047,62.2276,0.0],[6.012,62.2224,0.0],[6.0125,62.2188,0.0],[6.0109,62.2151,0.0],[6.0208,62.2125,0.0],[6.0313,62.2125,0.0],[6.0354,62.2146,28.4119],[6.0396,62.2125,0.0],[6.0583,62.2125,37.6916],[6.0625,62.2104,0.0],[6.0708,62.2104,0.0],[6.0776,62.2068,0.0],[6.0875,62.2042,0.0],[6.1042,62.2042,4.5826],[6.1083,62.2021,0.0],[6.1188,62.2021,8.067],[6.1245,62.1984,2.9922],[6.1224,62.1922,3.6472],[6.1182,62.1901,0.0],[6.0792,62.1896,26.1302],[6.0583,62.1958,8.0015],[6.0542,62.1958,30.1707],[6.0458,62.2,14.5783],[6.0375,62.2,8.3015],[6.0333,62.1979,27.1173],[6.0146,62.1979,44.0666],[5.9964,62.2068,0.0],[5.9974,62.212,0.0],[5.9901,62.2151,0.0],[5.9891,62.2182,0.0],[5.9818,62.2193,208.0217],[5.9854,62.2229,19.242],[5.9849,62.2266,23.9254],[5.9828,62.2286,6.2524],[5.9667,62.2292,10.8655],[5.9651,62.2286,21.4099],[5.9677,62.2289,10.8655],[5.9738,62.2158,433.9805],[5.9833,62.2167,163.532],[5.9915,62.1992,281.8092],[6.0009,62.2001,168.3064],[6.003,62.1958,346.6514],[6.0124,62.1967,89.3354],[6.0165,62.1879,284.6712],[6.026,62.1889,287.653],[6.028,62.1845,227.2667],[6.0374,62.1855,102.5413],[6.0415,62.1767,131.5203],[6.051,62.1776,138.9167],[6.055,62.1689,204.2621],[6.0833,62.1717,311.5135],[6.0853,62.1673,497.0464],[6.1513,62.1739,728.7416],[6.1533,62.1695,596.0959],[6.1627,62.1705,507.168],[6.1648,62.1661,450.3488],[6.1742,62.167,403.4531],[6.1823,62.1495,231.3511],[6.1917,62.1504,244.5424],[6.1998,62.1329,417.1604],[6.2092,62.1338,583.7997],[6.2133,62.125,689.7501],[6.2227,62.126,455.0907],[6.2247,62.1216,429.3168],[6.2435,62.1235,245.4884],[6.2455,62.1191,319.9131],[6.2549,62.12,729.481],[6.2569,62.1156,955.8621],[6.2664,62.1166,1200.3004],[6.2684,62.1122,1202.254],[6.2966,62.115,291.6407],[6.2986,62.1106,367.2412],[6.3362,62.1143,745.4376],[6.3402,62.1055,1183.486],[6.3496,62.1064,834.7299],[6.3516,62.1021,934.5126],[6.3893,62.1058,913.5838],[6.3873,62.1101,1144.4292],[6.4061,62.112,1327.6611],[6.4081,62.1076,1274.4987],[6.4175,62.1085,1326.7056],[6.4234,62.0954,812.9459],[6.414,62.0944,1074.9338],[6.416,62.09,873.591],[6.4254,62.091,853.2213],[6.4314,62.0778,800.7383],[6.4408,62.0787,411.7332],[6.4467,62.0656,466.7635],[6.4561,62.0665,245.8491],[6.4601,62.0577,267.9675],[6.4695,62.0586,396.3054],[6.4754,62.0454,801.0574],[6.4848,62.0464,933.4225],[6.4888,62.0376,1205.1406],[6.4982,62.0385,1255.7385],[6.5001,62.0341,1208.121],[6.5189,62.0359,911.9282],[6.515,62.0447,833.9158],[6.5338,62.0466,1038.2522],[6.5318,62.0509,1040.9407],[6.5882,62.056399999999996,1328.8392],[6.5901,62.052,1311.9104],[6.6277,62.0557,1248.7332],[6.6258,62.06,837.0164],[6.6352,62.061,1024.2866],[6.6332,62.0653,675.2483],[6.6426,62.0663,705.7863],[6.6407,62.0706,633.0],[6.6595,62.0725,1453.3347],[6.6614,62.0681,1223.1694],[6.6896,62.0708,769.9323],[6.6857,62.0796,1100.0833],[6.6951,62.0805,1088.5905],[6.6912,62.0892,1122.531],[6.7101,62.0911,1442.4005],[6.7062,62.0998,1274.1189],[6.6968,62.0989,1521.9351],[6.687,62.1209,1456.0178],[6.7058,62.1227,1133.7142],[6.7039,62.1271,1012.2384],[6.7133,62.128,1082.4501],[6.7114,62.1324,1089.6034],[6.7208,62.1333,902.2812],[6.7188,62.1377,1298.3485],[6.7283,62.1386,723.6218],[6.7263,62.143,1066.0273],[6.7358,62.1439,624.6868],[6.7377,62.1395,425.0652],[6.7471,62.1404,310.0294],[6.7491,62.136,585.5942],[6.7585,62.1369,1059.7332],[6.7604,62.1325,1060.936],[6.7887,62.1352,754.0573],[6.7868,62.1396,655.2437],[6.8056,62.1414,857.4788],[6.8037,62.1458,880.8375],[6.7943,62.1449,1066.4141],[6.7904,62.1537,799.9808],[6.781,62.1528,1021.9749],[6.779,62.1572,1046.3547],[6.7885,62.1581,909.3484],[6.7846,62.1668,1122.0049],[6.794,62.1677,974.1944],[6.7901,62.1765,1053.6012],[6.7996,62.1774,934.3747],[6.7957,62.1862,1125.6575],[6.7862,62.1853,1096.9484],[6.7824,62.1941,941.7125],[6.7729,62.1932,873.8807],[6.7573,62.2284,645.1419],[6.7668,62.2293,623.032],[6.7648,62.2337,825.5186],[6.7629,62.238,1093.1317],[6.7534,62.2371,1041.432]]]]}
,"properties": {"GID_2": "NOR.8.20_1","GID_0": "NOR","country": "Norway","GID_1": "NOR.8_1","province": "MøreogRomsdal","NL_NAME_1": "NA","county": "Ørsta","VARNAME_2": "NA","NL_NAME_2": "NA","TYPE_2": "Kommuner","ENGTYPE_2": "Municipality","CC_2": "NA","HASC_2": "NO.MR.OT","name": "Ørsta.county","area_km2": 815.7497,"hist_schema_id": "Elevation0-9000","hist_area_km2": {"0": 16.852,"25": 12.0194,"50": 13.8033,"75": 20.4909,"100": 18.9598,"125": 15.6372,"150": 14.8565,"175": 14.2632,"200": 14.8686,"225": 14.691,"250": 14.9386,"275": 15.8874,"300": 14.9345,"325": 16.5666,"350": 17.4358,"375": 18.2152,"400": 16.8309,"425": 17.8402,"450": 18.6273,"475": 17.8665,"500": 20.8482,"525": 18.3516,"550": 17.9757,"575": 18.0252,"600": 18.1654,"625": 21.5091,"650": 19.1228,"675": 19.1122,"700": 17.8781,"725": 17.9489,"750": 18.8813,"775": 17.6717,"800": 16.9027,"825": 17.3788,"850": 18.4166,"875": 17.4593,"900": 16.8665,"925": 15.3948,"950": 15.944,"975": 13.617,"1000": 13.4235,"1025": 12.1161,"1050": 12.0395,"1075": 11.4953,"1100": 10.0419,"1125": 9.9836,"1150": 8.7565,"1175": 7.9556,"1200": 7.6201,"1225": 6.0857,"1250": 6.2662,"1275": 5.4843,"1300": 4.5641,"1325": 3.8203,"1350": 3.129,"1375": 2.4948,"1400": 2.208,"1425": 1.4259,"1450": 1.3172,"1475": 0.6339,"1500": 0.654,"1525": 0.4261,"1550": 0.2676,"1575": 0.1785,"1600": 0.1488,"1625": 0.0496,"1650": 0.0397,"1675": 0.0595,"1700": 0.0099}}}