{"type": "Feature","bbox": [8.2609,63.6583,8.9307,63.9562],"geometry": {"type": "MultiPolygon","coordinates": [[[[8.5964,63.6693,1.8691],[8.5995,63.6682,0.0],[8.6021,63.6646,0.0],[8.6047,63.6682,0.0],[8.6099,63.6703,0.0],[8.5979,63.6708,0.0],[8.5964,63.6693,1.8691]]],
[[[8.5995,63.7297,0.0],[8.5979,63.7313,6.5088],[8.5964,63.7307,10.7767],[8.5979,63.7292,0.0],[8.5995,63.7297,0.0]]],
[[[8.5953,63.7318,3.4814],[8.5953,63.7328,0.0],[8.5922,63.7328,0.0],[8.5922,63.7318,0.0],[8.5953,63.7318,3.4814]]],
[[[8.5898,63.7604,0.0],[8.5818,63.7589,3.6075],[8.5807,63.7641,0.0],[8.5792,63.7646,0.0],[8.5714,63.762,0.0],[8.5786,63.7568,0.0],[8.5667,63.7521,0.0],[8.5589,63.7516,0.0],[8.5589,63.7484,0.0],[8.5729,63.7438,0.0],[8.5776,63.7474,0.0],[8.5833,63.7479,0.0],[8.5958,63.7417,0.0],[8.6,63.7438,4.0037],[8.6078,63.7443,0.0],[8.6005,63.7484,0.0],[8.6026,63.7516,0.0],[8.6083,63.75,0.0],[8.6146,63.7542,0.0],[8.6245,63.7516,0.0],[8.6271,63.7479,0.0],[8.6354,63.7479,0.0],[8.6396,63.75,0.0],[8.6563,63.75,0.0],[8.6589,63.7536,19.1491],[8.6641,63.7547,0.0],[8.6609,63.7568,0.0],[8.6599,63.7599,5.685],[8.65,63.7604,11.3557],[8.6458,63.7625,0.0],[8.6396,63.7625,1.8026],[8.6292,63.7583,0.0],[8.6146,63.7583,2.9939],[8.6063,63.7542,0.0],[8.6026,63.7547,0.0],[8.6036,63.7578,0.0],[8.5898,63.7604,0.0]]],
[[[8.5599,63.6651,0.0],[8.5599,63.6661,8.0752],[8.5568,63.6661,9.7712],[8.5568,63.6651,1.5748],[8.5599,63.6651,0.0]]],
[[[8.5813,63.7438,8.6273],[8.5771,63.7438,5.8276],[8.5755,63.7422,0.0],[8.5849,63.7422,0.0],[8.5813,63.7438,8.6273]]],
[[[8.7208,63.8187,0.0],[8.7266,63.8193,0.0],[8.7266,63.8224,0.0],[8.7208,63.825,0.9845],[8.7167,63.8229,0.0],[8.7104,63.825,0.0],[8.7063,63.8229,0.0],[8.6958,63.8229,0.0],[8.6911,63.8172,1.2138],[8.6792,63.8167,0.0],[8.6771,63.8146,0.0],[8.6807,63.812,4.192],[8.6797,63.8068,0.0],[8.6854,63.8042,0.0],[8.6958,63.8042,3.7771],[8.6974,63.8026,0.0],[8.6896,63.8021,0.0],[8.6854,63.8,0.0],[8.6708,63.8,0.0],[8.6667,63.7979,0.0],[8.6604,63.7979,6.5048],[8.6589,63.7964,11.7544],[8.662,63.7943,0.0],[8.6542,63.7938,0.0],[8.65,63.7917,2.943],[8.6422,63.7922,0.0],[8.6432,63.7953,0.0],[8.6417,63.7958,0.0],[8.6313,63.7958,0.0],[8.6271,63.7938,0.0],[8.6193,63.7932,5.1718],[8.6167,63.7896,0.8119],[8.6,63.7896,0.0],[8.5943,63.787,0.0],[8.6083,63.7813,0.0],[8.6161,63.7839,2.2982],[8.6172,63.787,0.0],[8.625,63.7875,0.0],[8.6266,63.7859,2.151],[8.6245,63.7818,5.4814],[8.6193,63.7797,8.9688],[8.625,63.7771,0.0],[8.6313,63.7792,0.0],[8.6458,63.7792,0.9332],[8.65,63.7813,0.0],[8.6646,63.7813,0.0],[8.6688,63.7833,0.0],[8.6792,63.7833,0.0],[8.6807,63.7818,0.0],[8.6766,63.7797,20.2196],[8.6688,63.7792,7.562],[8.6609,63.7766,0.0],[8.6609,63.7734,7.123],[8.6682,63.7724,0.0],[8.6688,63.7708,0.0],[8.6682,63.7693,0.0],[8.663,63.7682,0.0],[8.663,63.763,0.0],[8.6771,63.7625,5.6032],[8.6833,63.7604,0.0],[8.6917,63.7646,11.3198],[8.6979,63.7646,8.4561],[8.7036,63.7609,20.4809],[8.6958,63.7604,1.8112],[8.6813,63.7542,18.0703],[8.6646,63.7521,0.0],[8.65,63.7458,22.1951],[8.6422,63.7453,0.0],[8.6411,63.7422,0.0],[8.6318,63.7411,0.0],[8.6307,63.738,2.5924],[8.6255,63.737,3.4788],[8.6271,63.7354,0.0],[8.6328,63.7349,0.0],[8.6313,63.7333,0.0],[8.625,63.7333,1.7239],[8.6208,63.7313,0.0],[8.6104,63.7313,0.0],[8.6021,63.7271,1.1607],[8.5917,63.7271,0.0],[8.5901,63.7255,0.0],[8.5932,63.7234,0.0],[8.5917,63.7229,19.6376],[8.5812,63.7229,0.0],[8.5771,63.7271,2.4385],[8.5651,63.7245,0.0],[8.5667,63.7229,7.102],[8.5724,63.7224,0.0],[8.5693,63.7203,0.0],[8.5672,63.7151,0.0],[8.5729,63.7167,11.8677],[8.5807,63.7161,0.0],[8.5755,63.7141,0.0],[8.5745,63.7089,0.0],[8.5729,63.7083,0.0],[8.5625,63.7083,24.2586],[8.5583,63.7125,0.0],[8.5479,63.7083,23.5448],[8.538,63.712,0.0],[8.5458,63.7146,3.076],[8.55,63.7125,0.0],[8.5516,63.713,0.0],[8.5516,63.7161,1.9987],[8.5271,63.7167,0.0],[8.5021,63.7083,16.3025],[8.4958,63.7083,16.7868],[8.4917,63.7104,0.0],[8.4875,63.7083,1.8269],[8.4771,63.7083,0.0],[8.4729,63.7062,1.7108],[8.4438,63.7062,3.4751],[8.4359,63.7036,0.0],[8.4333,63.7,0.0],[8.4292,63.7021,0.0],[8.4188,63.6979,6.3761],[8.3938,63.6979,0.0],[8.3854,63.6937,8.5051],[8.3563,63.6937,4.9867],[8.3417,63.6896,0.0],[8.3313,63.6896,2.789],[8.3271,63.6917,0.0],[8.3125,63.6854,1.3985],[8.3021,63.6854,0.0],[8.2979,63.6833,1.433],[8.2917,63.6833,3.3535],[8.2875,63.6792,1.9829],[8.2813,63.6813,0.0],[8.2755,63.6807,3.1339],[8.2734,63.6786,3.0234],[8.2714,63.6693,0.0],[8.2807,63.6682,0.0],[8.2797,63.6651,0.0],[8.2854,63.6625,1.6381],[8.2958,63.6667,1.6076],[8.3,63.6667,2.7815],[8.3083,63.6625,8.8433],[8.3292,63.6625,0.0],[8.3333,63.6646,8.9459],[8.3375,63.6625,0.0],[8.3417,63.6625,0.0],[8.3458,63.6646,6.4165],[8.3667,63.6646,0.0],[8.3708,63.6667,0.0],[8.375,63.6646,9.6993],[8.3813,63.6646,7.6695],[8.3891,63.6693,0.0],[8.3891,63.6724,0.0],[8.3859,63.6734,0.0],[8.3875,63.675,0.0],[8.3938,63.675,0.0],[8.3974,63.6724,0.0],[8.3974,63.6693,11.1881],[8.3943,63.6672,0.0],[8.4042,63.6667,0.0],[8.4083,63.6688,4.8862],[8.425,63.6688,0.0],[8.4333,63.6729,0.0],[8.4396,63.6708,1.8523],[8.4479,63.6708,6.3904],[8.4521,63.6729,1.5969],[8.4625,63.6729,2.7643],[8.4688,63.675,0.0],[8.4745,63.6714,4.0931],[8.463,63.6672,0.0],[8.4729,63.6625,0.0],[8.4792,63.6625,0.0],[8.4833,63.6646,3.5444],[8.4875,63.6625,0.0],[8.4938,63.6625,0.0],[8.4979,63.6646,19.1329],[8.5021,63.6625,0.0],[8.5063,63.6625,0.0],[8.5104,63.6646,9.1205],[8.5208,63.6646,0.0],[8.525,63.6667,0.0],[8.5417,63.6667,0.0],[8.55,63.6708,19.9467],[8.5604,63.6688,8.1489],[8.5646,63.6708,9.9457],[8.5688,63.6688,0.0],[8.5766,63.6682,5.9665],[8.5714,63.6651,5.1612],[8.5833,63.6646,0.0],[8.5964,63.6724,12.1105],[8.6042,63.6729,0.0],[8.6083,63.675,18.4188],[8.6125,63.6729,0.0],[8.6167,63.675,27.1058],[8.6229,63.675,0.0],[8.6292,63.6771,18.2456],[8.6333,63.675,0.0],[8.6479,63.675,0.0],[8.6521,63.6771,11.3348],[8.6625,63.6771,0.0],[8.6708,63.6813,0.0],[8.6771,63.6813,7.697],[8.6813,63.6792,0.0],[8.6854,63.6813,7.2718],[8.6958,63.6813,1.1725],[8.7,63.6833,0.0],[8.7063,63.6833,10.5158],[8.7104,63.6813,2.1204],[8.7229,63.6813,0.0],[8.7271,63.6792,0.0],[8.7375,63.6792,0.0],[8.7417,63.6813,2.7428],[8.7495,63.6818,0.0],[8.7521,63.6854,0.0],[8.7536,63.6849,0.0],[8.7547,63.6797,0.0],[8.7563,63.6792,0.0],[8.7589,63.6828,0.0],[8.7667,63.6854,0.0],[8.7771,63.6854,0.0],[8.7813,63.6896,2.2594],[8.7917,63.6896,9.229],[8.7958,63.6875,0.0],[8.8063,63.6937,0.0],[8.8167,63.6937,0.0],[8.8245,63.6964,0.0],[8.8255,63.6995,1.0642],[8.8349,63.7005,0.0],[8.838,63.7099,5.292],[8.8432,63.7109,0.0],[8.8453,63.7203,0.0],[8.838,63.7234,3.4078],[8.8354,63.7292,0.0],[8.8354,63.7333,0.0],[8.838,63.7411,0.0],[8.8432,63.7422,0.0],[8.8432,63.7453,0.0],[8.8359,63.7484,11.9826],[8.837,63.7536,0.0],[8.8214,63.762,0.0],[8.8396,63.7625,0.0],[8.8479,63.7667,2.7685],[8.8542,63.7667,0.0],[8.8557,63.7651,0.0],[8.8505,63.763,0.0],[8.8604,63.7583,1.7706],[8.8786,63.763,3.4168],[8.8901,63.7703,2.9724],[8.8979,63.7708,0.0],[8.9,63.7729,4.9835],[8.8995,63.7745,2.0563],[8.8922,63.7776,10.8139],[8.8932,63.7807,0.0],[8.8875,63.7833,1.575],[8.8813,63.7833,3.0129],[8.8729,63.7792,10.378],[8.8521,63.7792,0.0],[8.8479,63.7771,0.0],[8.8313,63.775,0.0],[8.8292,63.7729,2.4333],[8.8328,63.7693,2.1968],[8.8208,63.7667,0.0],[8.8188,63.7687,0.0],[8.8208,63.7729,0.0],[8.8208,63.7771,0.0],[8.8188,63.7813,0.0],[8.8203,63.7891,0.0],[8.8167,63.7917,19.247],[8.8172,63.7932,21.4024],[8.8224,63.7943,0.0],[8.8224,63.7995,0.0],[8.8167,63.8021,0.0],[8.8125,63.8,0.0],[8.7979,63.8,0.0],[8.7938,63.7979,7.4201],[8.7901,63.7984,0.0],[8.7922,63.8016,0.0],[8.8,63.8063,0.0],[8.8042,63.8042,0.0],[8.8203,63.8047,3.3636],[8.8172,63.8068,0.0],[8.8161,63.8099,0.0],[8.813,63.8109,0.0],[8.8141,63.8141,0.0],[8.8083,63.8167,0.0],[8.7979,63.8167,0.0],[8.7938,63.8187,0.902],[8.7896,63.8187,0.0],[8.7859,63.8161,0.0],[8.7891,63.8141,0.0],[8.7891,63.8089,0.0],[8.7813,63.8063,0.0],[8.7734,63.8057,0.0],[8.7693,63.8036,0.0],[8.7646,63.7979,0.0],[8.7589,63.7984,6.2266],[8.7646,63.8042,0.0],[8.7640999999999991,63.8057,0.0],[8.7583,63.8083,0.0],[8.7438,63.8063,0.0],[8.7333,63.8,2.5678],[8.7229,63.8,0.0],[8.7188,63.7979,0.0],[8.7151,63.7984,1.2886],[8.7161,63.8016,0.0],[8.7068,63.8026,0.0],[8.712,63.8078,0.0],[8.7047,63.812,0.0],[8.7068,63.8141,0.0],[8.7141,63.8151,6.8355],[8.7172,63.8182,0.0],[8.7208,63.8187,0.0]]],
[[[8.5557,63.7568,0.0],[8.5542,63.7583,0.0],[8.5526,63.7578,1.1587],[8.5542,63.7562,0.0],[8.5557,63.7568,0.0]]],
[[[8.6688,63.7604,0.0],[8.6651,63.7599,0.0],[8.6651,63.7568,2.4591],[8.6745,63.7589,0.0],[8.6729,63.7604,0.0],[8.6688,63.7604,0.0]]],
[[[8.6141,63.763,5.232],[8.6141,63.7641,1.9373],[8.6109,63.7641,0.0],[8.6109,63.763,5.7237],[8.6141,63.763,5.232]]],
[[[8.6313,63.7687,1.3725],[8.6271,63.7687,1.2967],[8.6255,63.7672,0.0],[8.6349,63.7672,0.0],[8.6313,63.7687,1.3725]]],
[[[8.6391,63.7693,0.0],[8.6375,63.7708,12.7496],[8.6359,63.7703,16.6723],[8.6375,63.7687,0.0],[8.6391,63.7693,0.0]]],
[[[8.5911,63.7641,11.1569],[8.5875,63.7646,2.7746],[8.5859,63.763,0.0],[8.5896,63.7625,0.0],[8.5911,63.7641,11.1569]]],
[[[8.6057,63.7641,0.0],[8.6021,63.7646,7.3453],[8.6005,63.763,0.0],[8.6042,63.7625,0.0],[8.6057,63.7641,0.0]]],
[[[8.5875,63.7813,2.3956],[8.5833,63.7813,0.0],[8.5818,63.7797,0.0],[8.5911,63.7797,0.0],[8.5875,63.7813,2.3956]]],
[[[8.5995,63.7797,0.0],[8.5995,63.7807,5.466],[8.5964,63.7807,4.0797],[8.5979,63.7792,0.0],[8.5995,63.7797,0.0]]],
[[[8.4188,63.6604,1.9682],[8.4167,63.6625,3.1834],[8.4146,63.6604,3.5363],[8.4167,63.6583,0.0],[8.4188,63.6604,1.9682]]],
[[[8.4292,63.6625,0.0],[8.4255,63.662,0.0],[8.4234,63.6589,7.5213],[8.4396,63.6583,2.7036],[8.4432,63.6609,0.5127],[8.4417,63.6625,0.0],[8.4292,63.6625,0.0]]],
[[[8.3833,63.6604,0.0],[8.3849,63.6609,5.3037],[8.3849,63.662,6.5657],[8.3818,63.662,4.703],[8.3833,63.6604,0.0]]],
[[[8.2625,63.6646,0.0],[8.2641,63.6651,0.0],[8.2641,63.6661,2.35],[8.2609,63.6661,2.8729],[8.2625,63.6646,0.0]]],
[[[8.462,63.6661,2.8225],[8.4563,63.6667,7.9674],[8.4547,63.6651,0.0],[8.4604,63.6646,0.0],[8.462,63.6661,2.8225]]],
[[[8.4333,63.6667,0.5009],[8.4349,63.6682,0.0],[8.4318,63.6682,0.0],[8.4318,63.6672,1.7588],[8.4333,63.6667,0.5009]]],
[[[8.4104,63.7562,2.1915],[8.4047,63.7557,0.0],[8.4047,63.7526,0.0],[8.4125,63.7521,2.8138],[8.4182,63.7547,1.4262],[8.4167,63.7562,0.7066],[8.4104,63.7562,2.1915]]],
[[[8.4182,63.8005,0.0],[8.413,63.7995,0.0],[8.413,63.7964,1.7524],[8.4208,63.7958,0.0],[8.4266,63.7984,1.1339],[8.4271,63.8,2.7059],[8.425,63.8021,0.0],[8.4182,63.8005,0.0]]],
[[[8.5854,63.775,4.6237],[8.5797,63.7745,0.0],[8.5797,63.7714,4.2097],[8.5891,63.7714,0.0],[8.5891,63.7745,5.6512],[8.5854,63.775,4.6237]]],
[[[8.5458,63.7771,0.0],[8.5443,63.7755,0.0],[8.55,63.7729,3.2753],[8.5542,63.775,0.0],[8.562,63.7755,0.0],[8.5625,63.7792,0.0],[8.562,63.7807,0.0],[8.5563,63.7813,2.9865],[8.5458,63.7771,0.0]]],
[[[8.5818,63.7911,0.0],[8.5755,63.788,0.0],[8.5875,63.7875,0.0],[8.5896,63.7896,0.0],[8.5875,63.7917,0.0],[8.5818,63.7911,0.0]]],
[[[8.5505,63.7964,0.0],[8.5599,63.7984,0.0],[8.5599,63.8016,1.6506],[8.5568,63.8036,0.0],[8.5599,63.8047,0.0],[8.562,63.8078,1.8944],[8.5542,63.8083,0.0],[8.55,63.8063,0.0],[8.5396,63.8063,0.0],[8.5375,63.8042,0.6587],[8.5411,63.8005,0.0],[8.5375,63.8,1.7894],[8.5333,63.8021,0.0],[8.5313,63.8,0.0],[8.5318,63.7964,0.0],[8.5333,63.7958,0.0],[8.5375,63.7958,0.0],[8.5417,63.7979,3.2345],[8.5479,63.7979,0.0],[8.5505,63.7964,0.0]]],
[[[8.5771,63.8021,1.6284],[8.5786,63.8036,1.4863],[8.5755,63.8036,0.0],[8.5755,63.8026,0.0],[8.5771,63.8021,1.6284]]],
[[[8.5401,63.862,0.0],[8.5359,63.8599,0.0],[8.5359,63.8568,0.0],[8.5417,63.8563,0.0],[8.5458,63.8583,0.0],[8.5521,63.8583,0.0],[8.5599,63.8609,0.0],[8.5604,63.8646,8.7605],[8.5599,63.8661,14.7641],[8.5542,63.8688,0.0],[8.5516,63.8651,6.6602],[8.5401,63.862,0.0]]],
[[[8.5354,63.8646,3.9484],[8.5292,63.8646,0.0],[8.5276,63.863,1.6726],[8.537,63.863,0.0],[8.5354,63.8646,3.9484]]],
[[[8.5667,63.8625,6.4355],[8.5682,63.863,7.4035],[8.5682,63.8641,2.2444],[8.5651,63.8641,0.0],[8.5667,63.8625,6.4355]]],
[[[8.4182,63.8339,4.0117],[8.4182,63.8349,0.0],[8.4151,63.8349,5.7684],[8.4167,63.8333,0.0],[8.4182,63.8339,4.0117]]],
[[[8.4255,63.838,0.0],[8.4349,63.838,5.6838],[8.4349,63.8432,3.4883],[8.4188,63.8438,0.0],[8.4109,63.8411,3.1463],[8.4167,63.8375,0.0],[8.4229,63.8396,6.1883],[8.4255,63.838,0.0]]],
[[[8.4995,63.8516,7.9858],[8.4917,63.85,0.0],[8.4901,63.8505,0.0],[8.4911,63.8536,2.4239],[8.4896,63.8542,0.0],[8.4646,63.8542,0.0],[8.462,63.8505,5.0462],[8.4542,63.8479,32.7791],[8.4464,63.8474,0.0],[8.4422,63.8453,5.5607],[8.4401,63.8422,0.0],[8.4458,63.8396,3.4648],[8.4536,63.8391,0.0],[8.4526,63.8359,0.0],[8.4583,63.8333,3.1321],[8.4688,63.8312,0.0],[8.4729,63.8333,0.0],[8.4771,63.8312,0.0],[8.4813,63.8333,4.1999],[8.4891,63.8339,4.5665],[8.4917,63.8396,2.6065],[8.4896,63.8417,3.5656],[8.4849,63.838,0.0],[8.4818,63.838,0.0],[8.4776,63.8401,0.0],[8.4786,63.8432,0.0],[8.4755,63.8443,0.0],[8.4755,63.8474,4.6828],[8.4979,63.8479,0.0],[8.4995,63.8484,0.0],[8.4995,63.8516,7.9858]]],
[[[8.4875,63.8458,4.0447],[8.4839,63.8453,0.0],[8.4839,63.8422,0.0],[8.4932,63.8443,0.0],[8.4917,63.8458,0.0],[8.4875,63.8458,4.0447]]],
[[[8.4224,63.8495,10.6127],[8.4193,63.8495,4.4674],[8.4193,63.8464,0.0],[8.4224,63.8464,0.0],[8.4224,63.8495,10.6127]]],
[[[8.4953,63.8568,0.0],[8.4953,63.8578,0.9461],[8.4922,63.8578,0.0],[8.4922,63.8568,0.0],[8.4953,63.8568,0.0]]],
[[[8.5667,63.875,2.4632],[8.5563,63.875,0.0],[8.5521,63.8771,0.0],[8.5495,63.8734,17.5728],[8.538,63.8693,7.1153],[8.55,63.8688,0.0],[8.5542,63.8708,1.8113],[8.5724,63.8714,0.0],[8.5667,63.875,2.4632]]],
[[[8.5188,63.8875,0.4967],[8.5151,63.887,0.0],[8.5151,63.8839,0.0],[8.5208,63.8833,0.0],[8.5245,63.8859,0.0],[8.5229,63.8875,0.0],[8.5188,63.8875,0.4967]]],
[[[8.75,63.6771,0.0],[8.7458,63.6771,0.0],[8.7443,63.6755,6.4459],[8.7516,63.6755,0.0],[8.75,63.6771,0.0]]],
[[[8.9262,63.7392,0.0],[8.9167,63.7396,0.0],[8.9125,63.7417,0.0],[8.8917,63.7417,0.0],[8.8875,63.7396,0.0],[8.8797,63.7391,0.0],[8.8729,63.7354,0.0],[8.8667,63.7375,0.0],[8.8646,63.7354,1.8115],[8.8651,63.7339,0.0],[8.8724,63.7307,2.4236],[8.8714,63.7234,0.0],[8.8745,63.7224,0.8462],[8.8755,63.7193,0.0],[8.8813,63.7167,0.0],[8.8854,63.7188,7.0367],[8.9016,63.7214,0.0],[8.9099,63.7276,0.0],[8.9109,63.7307,3.1249],[8.9187,63.7313,0.0],[8.9307,63.7359,1.3019],[8.9262,63.7392,0.0]]],
[[[8.8255,63.787,0.0],[8.8229,63.7833,0.0],[8.825,63.7813,0.0],[8.8292,63.7833,3.152],[8.8411,63.7839,0.0],[8.8438,63.7875,0.0],[8.8417,63.7896,0.0],[8.8375,63.7875,0.0],[8.8255,63.787,0.0]]],
[[[8.9099,63.7901,0.0],[8.9161,63.7932,1.3899],[8.9104,63.7958,0.0],[8.9042,63.7938,0.0],[8.9,63.7958,4.7687],[8.8958,63.7938,0.0],[8.8839,63.7932,2.4107],[8.887,63.7911,0.0],[8.8859,63.788,0.0],[8.8917,63.7854,0.0],[8.8995,63.7859,0.0],[8.9005,63.7891,2.4882],[8.9042,63.7917,0.4607],[8.9099,63.7901,0.0]]],
[[[8.6495,63.7703,0.0],[8.6484,63.7651,0.0],[8.6563,63.7646,3.3633],[8.6578,63.7661,10.2442],[8.6547,63.7672,0.0],[8.6547,63.7703,0.0],[8.6599,63.7724,0.0],[8.6542,63.775,0.0],[8.6464,63.7745,0.0],[8.6464,63.7714,0.0],[8.6495,63.7703,0.0]]],
[[[8.6568,63.8089,0.0],[8.6599,63.8078,0.0],[8.6625,63.8042,0.0],[8.6661,63.8068,11.9069],[8.6604,63.8104,9.6291],[8.6568,63.8089,0.0]]],
[[[8.6667,63.8167,13.3164],[8.663,63.813,0.0],[8.6672,63.8141,0.0],[8.6682,63.8161,17.1017],[8.6667,63.8167,13.3164]]],
[[[8.6797,63.8224,10.6521],[8.6854,63.8187,0.0],[8.6891,63.8214,0.0],[8.6833,63.825,0.0],[8.6797,63.8224,10.6521]]],
[[[8.7141,63.8109,0.0],[8.7141,63.812,0.0],[8.7109,63.812,0.0],[8.7125,63.8104,1.1446],[8.7141,63.8109,0.0]]],
[[[8.7797,63.8266,0.0],[8.7839,63.8234,1.4868],[8.7875,63.8229,0.0],[8.7901,63.8266,1.6323],[8.7953,63.8286,0.0],[8.7875,63.8292,0.0],[8.7797,63.8266,0.0]]],
[[[8.7682,63.8328,2.3691],[8.7646,63.8333,0.0],[8.763,63.8318,0.0],[8.7667,63.8312,0.0],[8.7682,63.8328,2.3691]]],
[[[8.7016,63.863,0.0],[8.7,63.8646,0.0],[8.6984,63.8641,0.0],[8.7,63.8625,2.8522],[8.7016,63.863,0.0]]],
[[[8.6141,63.8234,0.0],[8.6125,63.825,0.0],[8.6109,63.8245,3.7433],[8.6125,63.8229,6.6821],[8.6141,63.8234,0.0]]],
[[[8.6141,63.8589,0.0],[8.6125,63.8604,0.0],[8.6109,63.8599,0.0],[8.6125,63.8583,0.0],[8.6141,63.8589,0.0]]],
[[[8.6422,63.8682,0.0],[8.6516,63.8693,0.0],[8.6516,63.8724,0.0],[8.6391,63.8786,0.0],[8.6333,63.8792,0.4565],[8.6255,63.8766,0.0],[8.6193,63.8724,0.0],[8.6208,63.8708,0.0],[8.6286,63.8703,0.0],[8.6276,63.8672,0.0],[8.6333,63.8646,0.0],[8.6391,63.8641,0.0],[8.6474,63.8599,0.0],[8.6479,63.8583,0.0],[8.6458,63.8563,12.3821],[8.6339,63.8557,0.0],[8.6339,63.8526,0.0],[8.637,63.8505,0.0],[8.6276,63.8516,0.0],[8.6266,63.8484,0.0],[8.6214,63.8474,0.0],[8.6214,63.8422,2.3134],[8.6313,63.8417,0.0],[8.6417,63.8458,2.273],[8.6479,63.8438,0.0],[8.6536,63.8464,0.0],[8.6563,63.8542,0.0],[8.6526,63.8578,0.0],[8.6661,63.8589,0.0],[8.6682,63.8609,0.0],[8.6693,63.8661,0.0],[8.6745,63.8703,9.6682],[8.6688,63.8729,0.0],[8.6661,63.8693,0.0],[8.6583,63.8667,13.7835],[8.6438,63.8667,0.0],[8.6422,63.8682,0.0]]],
[[[8.6917,63.8688,0.0],[8.688,63.8651,15.9955],[8.6974,63.8651,0.0],[8.6974,63.8661,0.0],[8.6917,63.8688,0.0]]],
[[[8.6042,63.8438,0.0],[8.6057,63.8453,0.0],[8.5958,63.8479,0.0],[8.588,63.8453,0.0],[8.5896,63.8438,0.0],[8.6042,63.8438,0.0]]],
[[[8.6026,63.8495,0.0],[8.6083,63.8458,0.0],[8.612,63.8464,0.0],[8.6125,63.8479,0.0],[8.612,63.8495,0.0],[8.6063,63.8521,0.0],[8.6026,63.8495,0.0]]],
[[[8.6146,63.8521,6.9312],[8.6208,63.8521,0.0],[8.6224,63.8536,1.2417],[8.6167,63.8563,0.0],[8.6005,63.8557,0.0],[8.6021,63.8542,0.0],[8.6146,63.8521,6.9312]]],
[[[8.6021,63.8688,0.0],[8.5917,63.8688,4.8986],[8.5875,63.8708,0.0],[8.5755,63.8661,0.0],[8.5786,63.863,0.0],[8.5693,63.8599,7.3602],[8.5724,63.8578,5.1437],[8.5714,63.8526,0.0],[8.5849,63.8526,0.0],[8.588,63.862,0.0],[8.6,63.8625,0.0],[8.612,63.8672,0.0],[8.6104,63.8688,0.0],[8.6021,63.8688,0.0]]],
[[[8.6021,63.875,0.0],[8.5979,63.875,0.0],[8.5964,63.8734,0.0],[8.6057,63.8734,0.0],[8.6021,63.875,0.0]]],
[[[8.6099,63.888,3.109],[8.6099,63.8891,3.8266],[8.6068,63.8891,1.6532],[8.6068,63.888,1.3349],[8.6099,63.888,3.109]]],
[[[8.6182,63.8693,1.4038],[8.6182,63.8703,2.7026],[8.6151,63.8703,4.4675],[8.6167,63.8688,5.8154],[8.6182,63.8693,1.4038]]],
[[[8.6745,63.9151,1.0728],[8.6745,63.9161,2.2421],[8.6714,63.9161,0.0],[8.6714,63.9151,0.0],[8.6745,63.9151,1.0728]]],
[[[8.6964,63.8724,0.0],[8.6943,63.8693,0.0],[8.6995,63.8693,0.0],[8.6995,63.8724,0.0],[8.6964,63.8724,0.0]]],
[[[8.7536,63.8828,8.2752],[8.7521,63.8833,0.0],[8.7505,63.8818,0.0],[8.7521,63.8812,0.0],[8.7536,63.8828,8.2752]]],
[[[8.7724,63.9411,0.0],[8.7693,63.9411,0.0],[8.7693,63.9401,0.6135],[8.7724,63.9401,0.4342],[8.7724,63.9411,0.0]]],
[[[8.7958,63.9562,0.0],[8.7922,63.9557,0.0],[8.7922,63.9547,1.3016],[8.7974,63.9547,0.0],[8.7958,63.9562,0.0]]]]}
,"properties": {"GID_2": "NOR.15.4_1","GID_0": "NOR","country": "Norway","GID_1": "NOR.15_1","province": "Sør-Trøndelag","NL_NAME_1": "NA","county": "Frøya","VARNAME_2": "NA","NL_NAME_2": "NA","TYPE_2": "Kommuner","ENGTYPE_2": "Municipality","CC_2": "NA","HASC_2": "NO.ST.FR","name": "Frøya.county","area_km2": 237.039,"hist_schema_id": "Elevation0-9000","hist_area_km2": {"0": 94.5928,"25": 100.5845,"50": 41.5799,"75": 0.2818}}}