{"type": "Feature","bbox": [5.0026,59.9674,5.3036,60.1536],"geometry": {"type": "MultiPolygon","coordinates": [[[[5.0807,60.012,30.9881],[5.0708,60.0146,26.7893],[5.0568,60.0141,27.0248],[5.0583,60.0125,3.4681],[5.0667,60.0125,35.1543],[5.0708,60.0104,0.0],[5.075,60.0104,17.6125],[5.0766,60.0089,0.0],[5.0589,60.0016,0.0],[5.0617,60.0011,25.6302],[5.0444,60.001,0.0],[5.0416,59.9965,0.0],[5.0447,59.994,0.0],[5.0442,59.9915,0.0],[5.0464,59.9899,0.0],[5.0503,59.991,2.4023],[5.0497,59.9885,0.0],[5.0519,59.9871,0.0],[5.0481,59.9885,3.6598],[5.0442,59.9876,0.0],[5.0525,59.9857,2.1761],[5.0564,59.9879,0.0],[5.0719,59.9849,3.5491],[5.0742,59.9818,0.0],[5.0914,59.9815,0.0],[5.0897,59.986,0.9844],[5.0936,59.9876,0.6331],[5.0942,59.9921,0.0],[5.0964,59.9938,0.0],[5.0964,59.9976,0.0],[5.0947,60.0,0.0],[5.0887,60.0,33.1692],[5.0958,60.0021,19.6786],[5.0974,60.0078,38.6199],[5.0807,60.012,30.9881]]],
[[[5.0182,60.0161,26.8363],[5.0083,60.0187,0.0],[5.0026,60.013,0.0],[5.0057,60.012,9.1912],[5.0083,60.0083,0.0],[5.0125,60.0125,21.6172],[5.0224,60.013,0.0],[5.0182,60.0161,26.8363]]],
[[[5.0104,60.0292,18.3802],[5.0089,60.0286,9.5741],[5.0089,60.0276,6.2741],[5.012,60.0276,3.183],[5.0104,60.0292,18.3802]]],
[[[5.0813,60.0417,8.5529],[5.0818,60.038,16.4739],[5.0891,60.038,0.0],[5.0891,60.0411,0.0],[5.0849,60.0432,17.5483],[5.0818,60.0432,9.2253],[5.0813,60.0417,8.5529]]],
[[[5.2057,60.0068,3.3508],[5.2057,60.012,0.0],[5.2,60.0146,0.0],[5.1833,60.0146,0.0],[5.1792,60.0125,8.5866],[5.175,60.0146,0.0],[5.1542,60.0083,15.344],[5.1417,60.0083,23.2203],[5.1286,60.0026,22.9738],[5.1214,60.0016,37.6885],[5.1277,60.0011,33.8051],[5.1073,60.0011,0.0],[5.1003,59.9979,0.0],[5.102,59.9948,0.0],[5.0986,59.9882,0.0],[5.1036,59.9857,3.5374],[5.1047,59.9824,3.7718],[5.1075,59.9807,0.0],[5.1101,59.9829,0.0],[5.115,59.9755,0.0],[5.1314,59.9679,0.0],[5.1436,59.9674,3.2524],[5.1542,59.9693,0.0],[5.1547,59.9704,0.0],[5.1525,59.971,0.6967],[5.1525,59.9724,0.0],[5.1564,59.9746,9.8255],[5.1592,59.974,5.7088],[5.1586,59.9715,0.0],[5.1614,59.9704,0.0],[5.1731,59.971,2.0416],[5.1758,59.9729,0.9826],[5.1836,59.9724,3.466],[5.1969,59.9751,0.0],[5.2042,59.9785,0.0],[5.2036,59.9801,3.7335],[5.2097,59.9824,10.7553],[5.2147,59.9815,0.0],[5.2147,59.9837,8.7801],[5.2231,59.9876,0.0],[5.2186,59.9915,13.9985],[5.2208,59.9938,0.0],[5.2153,59.9932,35.2758],[5.2101,60.0012,0.0],[5.2022,60.0011,52.8116],[5.2078,60.0016,0.0],[5.2047,60.0026,17.7916],[5.2057,60.0068,3.3508]]],
[[[5.2479,60.05,10.2011],[5.2464,60.0495,29.7555],[5.2464,60.0484,36.3183],[5.2495,60.0484,41.4217],[5.2479,60.05,10.2011]]],
[[[5.2339,60.1109,40.5032],[5.2234,60.1151,16.547],[5.2224,60.1203,14.6281],[5.2182,60.1224,13.7087],[5.2026,60.1224,12.0961],[5.2026,60.1151,16.7153],[5.2068,60.113,43.105],[5.2089,60.1089,44.5469],[5.212,60.1078,46.3869],[5.2125,60.1021,7.2303],[5.2151,60.0964,0.0],[5.2224,60.0932,7.8973],[5.2224,60.0901,0.0],[5.2193,60.088,18.8731],[5.2245,60.0849,0.0],[5.2255,60.0818,0.0],[5.2286,60.0807,9.5916],[5.2297,60.0755,25.3921],[5.2328,60.0745,55.0248],[5.2313,60.0708,19.9601],[5.2349,60.0682,6.7023],[5.2359,60.0609,28.8073],[5.2474,60.0599,29.7791],[5.2464,60.0547,0.0],[5.2536,60.0536,13.4898],[5.2536,60.0484,16.0408],[5.2401,60.0432,21.7806],[5.2391,60.038,66.3724],[5.2234,60.038,11.033],[5.2266,60.0401,30.842],[5.2229,60.0438,0.0],[5.2245,60.0474,0.0],[5.2172,60.0505,7.7046],[5.2167,60.0521,3.5471],[5.2172,60.0557,10.2043],[5.2224,60.0589,29.3116],[5.2224,60.062,0.0],[5.2193,60.063,34.0207],[5.2182,60.0661,37.4296],[5.2109,60.0693,20.1819],[5.2083,60.075,0.0],[5.2089,60.0786,4.3786],[5.2146,60.0792,22.0861],[5.2161,60.0807,23.9644],[5.2104,60.0812,0.0],[5.2021,60.0854,34.8778],[5.2005,60.0849,20.5893],[5.1995,60.0776,28.1739],[5.1922,60.0766,32.2293],[5.1891,60.0714,12.8797],[5.1818,60.0703,19.6119],[5.1818,60.0651,31.3601],[5.1849,60.063,23.751],[5.1818,60.062,37.1242],[5.1792,60.0583,29.5328],[5.1813,60.0563,14.7226],[5.1953,60.0568,33.5025],[5.1984,60.0661,28.7986],[5.2,60.0667,0.0],[5.2021,60.0646,0.0],[5.2005,60.0589,0.0],[5.2078,60.0599,0.0],[5.2078,60.0568,26.6821],[5.2047,60.0547,0.0],[5.2078,60.0536,34.8666],[5.2078,60.0505,0.0],[5.1979,60.0521,0.0],[5.1937,60.05,13.9944],[5.1771,60.05,5.0991],[5.1755,60.0484,5.6582],[5.1859,60.0422,47.2928],[5.1932,60.0411,0.0],[5.1943,60.038,22.5232],[5.2,60.0375,0.0],[5.2057,60.0349,36.5259],[5.2047,60.0318,0.0],[5.2078,60.0307,29.604],[5.2078,60.0276,13.8295],[5.2047,60.0266,0.0],[5.2036,60.0234,32.5258],[5.1984,60.0203,0.0],[5.1984,60.0172,0.0],[5.2057,60.0161,0.0],[5.225,60.0062,0.0],[5.2375,60.0083,0.0],[5.2417,60.0062,0.0],[5.2458,60.0083,0.0],[5.2536,60.0057,0.0],[5.2536,60.0026,22.9156],[5.248,60.0012,0.0],[5.2483,60.0,8.0943],[5.2464,60.0,8.0943],[5.2475,59.9979,2.1299],[5.2436,59.9965,0.0],[5.2575,59.9907,5.7456],[5.2647,59.9943,1.5831],[5.2658,59.9935,13.4367],[5.2642,59.9929,0.0],[5.2647,59.989,0.0],[5.2631,59.9876,0.0],[5.2692,59.9865,0.0],[5.2719,59.9885,0.0],[5.2731,59.9915,0.0],[5.2719,59.9921,5.7185],[5.2742,59.9935,5.7185],[5.2714,59.9954,3.3523],[5.2653,59.9951,0.0],[5.2681,59.9975,5.8892],[5.2764,59.9968,0.0],[5.2803,60.0,0.0],[5.271,60.0,52.9223],[5.2828,60.0047,50.1928],[5.2807,60.012,31.6414],[5.2776,60.012,47.6971],[5.2766,60.0089,32.7695],[5.2734,60.0089,27.922],[5.2734,60.0141,20.738],[5.2766,60.0151,0.0],[5.2792,60.0187,0.0],[5.2953,60.0193,0.0],[5.2964,60.0286,58.3325],[5.2995,60.0297,28.0585],[5.3016,60.0339,62.246],[5.2984,60.0359,68.7066],[5.3016,60.0391,0.0],[5.2984,60.0411,36.5071],[5.3016,60.0422,25.8433],[5.3005,60.0474,9.0203],[5.3036,60.0484,8.5154],[5.3,60.0521,41.8338],[5.3016,60.0599,19.9748],[5.2984,60.0609,38.2871],[5.2974,60.0661,25.7736],[5.2932,60.0682,56.0622],[5.2818,60.0693,51.6625],[5.2839,60.0724,26.5],[5.2896,60.0729,66.7494],[5.2911,60.0745,57.6092],[5.2745,60.0828,8.3602],[5.2646,60.0854,11.2166],[5.2604,60.0854,0.0],[5.2563,60.0833,0.0],[5.2505,60.0839,0.0],[5.2526,60.0891,0.0],[5.2557,60.0901,3.0758],[5.2557,60.0953,21.6007],[5.2464,60.1005,0.0],[5.2453,60.1057,9.0548],[5.2339,60.1109,40.5032]]],
[[[5.113,60.0839,21.8324],[5.1161,60.0839,27.5297],[5.1161,60.0849,22.9674],[5.113,60.0849,19.2226],[5.113,60.0839,21.8324]]],
[[[5.0875,60.0458,0.0],[5.0859,60.0443,11.0727],[5.0891,60.0443,19.1999],[5.0891,60.0453,22.4183],[5.0875,60.0458,0.0]]],
[[[5.0818,60.0609,28.7711],[5.0854,60.0583,0.0],[5.0979,60.0583,0.0],[5.1016,60.0609,1.1911],[5.1021,60.0646,0.0],[5.1016,60.0661,0.0],[5.0932,60.0703,18.4941],[5.0875,60.0708,14.3901],[5.0776,60.0661,13.7884],[5.0807,60.0641,11.2889],[5.0818,60.0609,28.7711]]],
[[[5.1104,60.0854,8.4388],[5.1141,60.088,8.6822],[5.1141,60.0932,17.1129],[5.1042,60.0979,0.0],[5.0943,60.0974,20.309],[5.0943,60.0943,0.0],[5.0974,60.0932,0.0],[5.0984,60.0901,10.5099],[5.1057,60.0891,20.6418],[5.1104,60.0854,8.4388]]],
[[[5.0953,60.1349,0.0],[5.088,60.138,32.5134],[5.0854,60.1417,17.8837],[5.0771,60.1417,40.527],[5.0646,60.1375,34.4958],[5.0604,60.1396,12.756],[5.0422,60.1349,7.1501],[5.0401,60.1276,8.4328],[5.0474,60.1245,14.2489],[5.0484,60.1193,20.8201],[5.0547,60.1151,5.1705],[5.0708,60.1146,0.0],[5.0724,60.1161,14.774],[5.0609,60.1224,0.0],[5.0667,60.125,0.0],[5.0833,60.125,0.0],[5.0917,60.1292,0.0],[5.0958,60.125,0.0],[5.1042,60.125,7.8406],[5.1078,60.1276,17.8323],[5.0953,60.1349,0.0]]],
[[[5.1734,60.0932,26.71],[5.175,60.0917,41.115],[5.1766,60.0922,35.2748],[5.1766,60.0932,41.3517],[5.1734,60.0932,26.71]]],
[[[5.1641,60.1182,0.0],[5.1568,60.1193,19.0438],[5.1557,60.1266,0.0],[5.1464,60.1318,0.0],[5.1464,60.1349,12.3518],[5.1536,60.1359,0.0],[5.1557,60.1401,4.9159],[5.1526,60.1422,0.0],[5.1516,60.1453,0.0],[5.1458,60.1458,1.8494],[5.1333,60.1417,30.1528],[5.1172,60.1411,11.505],[5.1203,60.138,7.2573],[5.1172,60.137,23.2409],[5.1172,60.1339,13.9375],[5.1286,60.1286,11.8054],[5.1276,60.1255,0.0],[5.1349,60.1224,8.1577],[5.1359,60.1193,0.0],[5.1391,60.1182,22.0841],[5.1391,60.1151,22.3925],[5.1339,60.1141,0.0],[5.1339,60.1068,0.0],[5.1411,60.1016,9.2678],[5.1401,60.0984,0.0],[5.1484,60.0943,25.4747],[5.1542,60.0958,0.0],[5.1625,60.0917,22.1667],[5.1724,60.0943,16.5861],[5.1734,60.0995,5.8077],[5.1828,60.1026,0.0],[5.1797,60.1047,0.0],[5.1786,60.1078,0.0],[5.1755,60.1089,13.0219],[5.1724,60.1141,0.0],[5.1641,60.1182,0.0]]],
[[[5.2083,60.1437,37.3641],[5.2141,60.1422,18.8514],[5.2141,60.1474,0.0],[5.2104,60.15,31.6418],[5.212,60.1536,0.0],[5.2005,60.1536,3.1671],[5.2026,60.1464,10.2746],[5.2083,60.1437,37.3641]]]]}
,"properties": {"GID_2": "NOR.7.2_1","GID_0": "NOR","country": "Norway","GID_1": "NOR.7_1","province": "Hordaland","NL_NAME_1": "NA","county": "Austevoll","VARNAME_2": "NA","NL_NAME_2": "NA","TYPE_2": "Kommuner","ENGTYPE_2": "Municipality","CC_2": "NA","HASC_2": "NO.HO.AV","name": "Austevoll.county","area_km2": 99.21961,"hist_schema_id": "Elevation0-9000","hist_area_km2": {"0": 17.36632,"25": 34.59348,"50": 26.00485,"75": 6.84573,"100": 4.8008,"125": 3.18982,"150": 2.52139,"175": 1.85358,"200": 1.39781,"225": 0.63525,"250": 0.01059}}}