{"type": "Feature","bbox": [9.1101,61.5554,10.0138,61.9568],"geometry": {"type": "MultiPolygon","coordinates": [[[[9.8374,61.9085,1578.3748],[9.7714,61.9036,1745.8049],[9.7699,61.9081,1863.6268],[9.6945,61.9025,1540.278],[9.693,61.9069,1518.0459],[9.6741,61.9055,1550.196],[9.6726,61.91,1469.0427],[9.6632,61.9093,1724.8667],[9.6587,61.9226,1510.1005],[9.6493,61.9218,1592.7552],[9.6447,61.9351,1756.0321],[9.6353,61.9344,1690.689],[9.6308,61.9477,1735.0631],[9.6119,61.9463,1677.2076],[9.6104,61.9508,1653.3917],[9.5915,61.9493,1533.1465],[9.59,61.9538,1442.4773],[9.5711,61.9524,1572.2194],[9.5696,61.9568,1556.6035],[9.5601,61.9561,1498.4559],[9.5617,61.9516,1552.6715],[9.5428,61.9502,1546.6257],[9.5443,61.9458,1471.0135],[9.5254,61.9444,1533.2926],[9.527,61.9399,1484.4241],[9.5175,61.9392,1439.9586],[9.5191,61.9348,1315.5684],[9.5002,61.9334,1274.8247],[9.5017,61.9289,1262.3167],[9.4829,61.9275,1162.907],[9.4844,61.9231,1144.6174],[9.475,61.9224,1119.514],[9.4765,61.9179,1110.5284],[9.4671,61.9172,1084.6323],[9.4686,61.9128,1057.3058],[9.4403,61.9106,1048.696],[9.4419,61.9062,1052.3907],[9.423,61.9048,951.4333],[9.4246,61.9003,908.4335],[9.3963,61.8982,485.2964],[9.3979,61.8938,433.3357],[9.379,61.8923,597.6048],[9.3806,61.8879,713.4302],[9.3335,61.8843,1093.8055],[9.3319,61.8887,1102.766],[9.3037,61.8865,1271.2494],[9.3084,61.8732,1039.0044],[9.299,61.8725,1073.5244],[9.3052,61.8548,643.4194],[9.2958,61.8541,541.6426],[9.2989,61.8452,832.2098],[9.3083,61.8459,589.217],[9.3098,61.8415,935.5502],[9.3286,61.843,523.2328],[9.3302,61.8385,987.8586],[9.349,61.84,654.968],[9.3505,61.8356,897.7403],[9.3693,61.837,748.5223],[9.3709,61.8326,750.0231],[9.3803,61.8333,647.6065],[9.3849,61.82,640.5558],[9.3943,61.8207,611.7904],[9.3928,61.8252,605.762],[9.4116,61.8266,703.7875],[9.4131,61.8222,648.6768],[9.4225,61.8229,811.3329],[9.424,61.8185,699.7627],[9.4334,61.8192,899.059],[9.435,61.8148,815.6022],[9.4256,61.814,659.4046],[9.4271,61.8096,654.5315],[9.4083,61.8082,688.152],[9.4099,61.8037,746.2203],[9.4005,61.803,825.8173],[9.402,61.7986,918.7008],[9.3926,61.7979,960.4943],[9.3941,61.7934,927.7136],[9.3848,61.7927,714.8417],[9.3863,61.7883,398.1077],[9.3675,61.7869,322.105],[9.366,61.7913,334.1752],[9.3472,61.7898,446.7858],[9.3488,61.7854,588.5504],[9.3394,61.7847,704.6184],[9.3409,61.7803,879.5568],[9.294,61.7766,986.0645],[9.2925,61.7811,1110.6283],[9.2643,61.7789,911.5628],[9.2628,61.7833,1118.422],[9.2534,61.7826,904.212],[9.2518,61.787,998.9655],[9.2425,61.7863,802.4954],[9.2409,61.7907,829.5601],[9.2315,61.79,707.7102],[9.2299,61.7944,737.5654],[9.2018,61.7922,731.8994],[9.2081,61.7745,1003.7816],[9.1987,61.7737,931.5229],[9.2002,61.7693,912.2567],[9.1721,61.7671,1018.8661],[9.1737,61.7627,979.7295],[9.1456,61.7605,958.3353],[9.1471,61.7561,908.3144],[9.119,61.7538,910.5117],[9.1222,61.745,886.3292],[9.1128,61.7443,837.9765],[9.1207,61.7221,704.9817],[9.1113,61.7214,759.202],[9.1192,61.6993,918.0468],[9.1286,61.7,985.4476],[9.138,61.6734,806.0489],[9.1286,61.6727,810.3839],[9.1318,61.6639,913.4124],[9.1224,61.6631,914.9797],[9.1303,61.641,1396.2224],[9.1209,61.6403,1434.6096],[9.1241,61.6314,1528.1024],[9.1147,61.6307,1560.5665],[9.1194,61.6174,1198.2771],[9.1101,61.6166,1202.3336],[9.1179,61.5945,1158.2955],[9.1273,61.5953,1156.9229],[9.1304,61.5864,1163.3507],[9.1397,61.5871,1158.8033],[9.1413,61.5827,1166.3656],[9.1506,61.5835,1155.7948],[9.1521,61.579,1149.5781],[9.1615,61.5798,1135.7411],[9.1646,61.5709,1103.7354],[9.1739,61.5716,1095.0203],[9.1754,61.5672,1078.9978],[9.1848,61.568,1058.6108],[9.1863,61.5635,1043.4919],[9.1956,61.5643,1001.7068],[9.1987,61.5554,986.1732],[9.208,61.5561,934.1846],[9.2065,61.5606,935.4562],[9.2344,61.5628,807.859],[9.2329,61.5672,804.3844],[9.2515,61.5687,774.9871],[9.25,61.5731,781.7084],[9.2779,61.5753,853.7867],[9.2764,61.5797,896.3486],[9.2857,61.5804,886.0717],[9.2842,61.5849,886.7666],[9.2935,61.5856,869.2678],[9.2919,61.59,869.3439],[9.3106,61.5915,917.5706],[9.3091,61.5959,925.6049],[9.3184,61.5966,952.8652],[9.3168,61.601,943.7218],[9.3262,61.6018,948.4525],[9.3246,61.6062,952.7802],[9.334,61.6069,971.2892],[9.3324,61.6113,1041.2913],[9.3418,61.6121,1014.551],[9.3402,61.6165,1123.4087],[9.3496,61.6172,1215.7736],[9.348,61.6217,1546.0554],[9.3574,61.6224,1301.6244],[9.3558,61.6268,1321.4486],[9.3652,61.6275,1179.9108],[9.3636,61.632,1171.8363],[9.373,61.6327,1129.4703],[9.3714,61.6371,1136.4863],[9.3808,61.6378,1176.6697],[9.3792,61.6423,1175.2124],[9.3979,61.6437,1264.9319],[9.3964,61.6481,1344.5725],[9.4057,61.6488,1303.4248],[9.4073,61.6444,1295.9197],[9.4446,61.6473,1383.7682],[9.4462,61.6429,1509.537],[9.4648,61.6443,1337.9733],[9.4633,61.6487,1375.3374],[9.4914,61.6509,1138.6957],[9.4898,61.6553,1107.6205],[9.5179,61.6574,939.7969],[9.5164,61.6619,850.8474],[9.5538,61.6647,270.2845],[9.5523,61.6691,279.7597],[9.5616,61.6698,298.9137],[9.5601,61.6743,337.9117],[9.5695,61.675,382.8936],[9.568,61.6794,420.0411],[9.5773,61.6801,606.812],[9.5758,61.6846,771.1968],[9.5945,61.686,797.5041],[9.593,61.6904,802.3825],[9.6024,61.6911,905.5267],[9.6009,61.6955,1002.566],[9.5915,61.6948,913.8341],[9.5885,61.7037,919.4266],[9.5979,61.7044,967.2791],[9.5964,61.7088,917.9568],[9.6057,61.7095,967.6409],[9.6042,61.714,959.7452],[9.6136,61.7147,1059.9976],[9.6121,61.7191,1000.5334],[9.6215,61.7198,993.3901],[9.62,61.7242,1014.5146],[9.6387,61.7257,1008.5266],[9.6372,61.7301,1056.4504],[9.6466,61.7308,825.9638],[9.6451,61.7352,885.1548],[9.6545,61.7359,796.8185],[9.653,61.7404,711.2336],[9.6623,61.7411,704.6573],[9.6609,61.7455,788.2294],[9.6702,61.7462,729.0662],[9.6687,61.7506,753.5048],[9.6781,61.7513,744.5878],[9.6766,61.7558,795.4023],[9.686,61.7565,824.9371],[9.6845,61.7609,852.056],[9.6939,61.7616,847.9673],[9.6879,61.7793,891.475],[9.6973,61.78,860.3332],[9.6958,61.7845,886.0245],[9.7052,61.7852,858.955],[9.7037,61.7896,934.8099],[9.7131,61.7903,902.3245],[9.7101,61.7992,895.1429],[9.7195,61.7999,939.8701],[9.718,61.8043,989.1285],[9.7274,61.805,1007.39],[9.7259,61.8094,1077.2621],[9.7353,61.8101,1008.3953],[9.7338,61.8145,1012.8307],[9.7432,61.8152,1018.0015],[9.7417,61.8197,1059.8492],[9.7511,61.8204,1016.5884],[9.7497,61.8248,1072.9026],[9.8155,61.8297,1189.113],[9.817,61.8252,1220.5851],[9.911,61.8321,1095.2174],[9.9096,61.8366,1059.7994],[9.9472,61.8393,1378.6464],[9.9458,61.8437,1239.7159],[9.9552,61.8444,1337.567],[9.9537,61.8489,1221.8125],[9.9726,61.8502,1266.1318],[9.9711,61.8547,1211.6167],[9.9899,61.856,1141.2511],[9.9885,61.8605,1103.3251],[9.9979,61.8611,1109.1246],[9.9964,61.8656,1024.9125],[10.0059,61.8662,1103.5619],[10.0044,61.8707,1004.9191],[10.0138,61.8714,1041.0894],[10.008,61.8891,970.6588],[9.9892,61.8877,1384.9647],[9.9877,61.8922,1492.1107],[9.9688,61.8908,1520.6862],[9.9674,61.8953,1636.0841],[9.9485,61.8939,1769.8528],[9.9471,61.8983,1691.1312],[9.9282,61.897,1771.9861],[9.9267,61.9014,1618.5961],[9.9079,61.9,1350.5817],[9.9064,61.9045,1343.3253],[9.8781,61.9024,1869.5822],[9.8766,61.9068,1503.3193],[9.8389,61.9041,1707.9546],[9.8374,61.9085,1578.3748]]]]}
,"properties": {"GID_2": "NOR.11.18_1","GID_0": "NOR","country": "Norway","GID_1": "NOR.11_1","province": "Oppland","NL_NAME_1": "NA","county": "Sel","VARNAME_2": "NA","NL_NAME_2": "NA","TYPE_2": "Kommuner","ENGTYPE_2": "Municipality","CC_2": "NA","HASC_2": "NO.OP.SE","name": "Sel.county","area_km2": 887.7618,"hist_schema_id": "Elevation0-9000","hist_area_km2": {"275": 5.7043,"300": 17.2955,"325": 7.8344,"350": 7.5951,"375": 7.4112,"400": 7.6328,"425": 8.3043,"450": 8.2333,"475": 7.5114,"500": 7.1297,"525": 7.3606,"550": 7.8226,"575": 7.9924,"600": 10.3526,"625": 13.3179,"650": 15.4311,"675": 14.7964,"700": 15.3484,"725": 15.5216,"750": 17.4117,"775": 20.6313,"800": 21.5813,"825": 21.1638,"850": 23.5458,"875": 28.7263,"900": 29.4918,"925": 30.9542,"950": 32.9568,"975": 29.38,"1000": 28.7708,"1025": 29.0396,"1050": 30.2638,"1075": 29.6108,"1100": 26.9809,"1125": 29.3532,"1150": 32.8011,"1175": 27.0545,"1200": 22.6356,"1225": 17.7413,"1250": 14.855,"1275": 14.0823,"1300": 13.2589,"1325": 11.284,"1350": 9.6701,"1375": 10.0712,"1400": 8.6662,"1425": 8.0346,"1450": 8.6904,"1475": 7.7176,"1500": 7.2377,"1525": 7.1472,"1550": 6.846,"1575": 6.7752,"1600": 4.9868,"1625": 4.5368,"1650": 3.5673,"1675": 3.0479,"1700": 2.6185,"1725": 2.6286,"1750": 2.0975,"1775": 1.7978,"1800": 1.2885,"1825": 1.0188,"1850": 0.859,"1875": 0.6193,"1900": 0.4495,"1925": 0.2897,"1950": 0.2397,"1975": 0.1099,"2000": 0.1798,"2025": 0.1198,"2050": 0.1598,"2075": 0.0899,"2100": 0.02,"2125": 0.01}}}