{"type":"Feature","properties":{"GID_2":"NOR.17.21_1","GID_0":"NOR","country":"Norway","GID_1":"NOR.17_1","province":"Troms","NL_NAME_1":"NA","county":"Sørreisa","VARNAME_2":"NA","NL_NAME_2":"NA","TYPE_2":"Kommuner","ENGTYPE_2":"Municipality","CC_2":"NA","HASC_2":"NO.TR.SO","name":"Sørreisa.county"},
"geometry":{"type": "MultiPolygon","coordinates": [[[[18.3727,69.0387,304.5263],[18.3721,69.0477,419.1352],[18.3846,69.0478,433.0769],[18.3843,69.0523,365.7105],[18.4594,69.053,248.3793],[18.4591,69.0575,188.2973],[18.4716,69.0576,166.1151],[18.4713,69.0621,157.0528],[18.4588,69.062,192.5326],[18.4584,69.0665,163.3784],[18.4334,69.0663,157.9323],[18.4321,69.0843,303.6803],[18.4196,69.0842,303.664],[18.4183,69.1022,286.8529],[18.4058,69.1021,302.0481],[18.4054,69.1066,287.6596],[18.418,69.1067,283.4218],[18.4173,69.1157,321.9181],[18.4299,69.1158,362.5312],[18.4293,69.1249,437.5193],[18.4418,69.125,445.1082],[18.4412,69.134,383.5648],[18.3532,69.1332,398.6219],[18.3529,69.1377,395.2706],[18.3278,69.1375,460.5724],[18.3274,69.142,478.8565],[18.3148,69.1419,438.5219],[18.3145,69.1464,457.4914],[18.3019,69.1462,433.8578],[18.3016,69.1507,456.7824],[18.2764,69.1505,439.2477],[18.2761,69.155,444.5416],[18.2635,69.1549,465.1804],[18.2632,69.1594,443.7509],[18.238,69.1591,453.2443],[18.2376,69.1637,375.0584],[18.2251,69.1635,318.4605],[18.2247,69.168,340.2312],[18.2121,69.1679,380.7],[18.2117,69.1724,378.1091],[18.1866,69.1722,427.4091],[18.1858,69.1812,503.6295],[18.1984,69.1813,478.8754],[18.1981,69.1858,439.2577],[18.2358,69.1862,339.7126],[18.2362,69.1817,331.1152],[18.2866,69.1822,249.6717],[18.2869,69.1776,244.9174],[18.3247,69.178,271.3352],[18.3244,69.1825,258.2544],[18.3369,69.1826,330.6791],[18.3342,69.2187,139.0788],[18.1955,69.2173,22.9781],[18.1951,69.2218,22.9945],[18.1825,69.2217,22.853],[18.1829,69.2172,22.943],[18.1703,69.2171,30.5214],[18.1706,69.2126,22.8524],[18.158,69.2124,25.7533],[18.1584,69.2079,23.0271],[18.0583,69.2063,0.0],[18.0547,69.2026,0.0],[18.062,69.1984,0.0],[18.0578,69.1922,8.0631],[18.0505,69.1911,0.0],[18.0536,69.188,0.0],[18.0505,69.1849,0.0],[18.0505,69.1818,0.0],[18.0604,69.1771,0.0],[18.0786,69.1766,0.0],[18.0714,69.1661,21.1706],[18.0745,69.1641,32.308],[18.0734,69.1609,0.0],[18.0792,69.1583,0.0],[18.0917,69.1583,0.0],[18.0958,69.1604,0.0],[18.1063,69.1604,0.0],[18.1104,69.1625,0.0],[18.1141,69.162,4.6354],[18.113,69.1589,0.0],[18.1146,69.1583,0.0],[18.1396,69.1583,0.0],[18.1458,69.1604,0.0],[18.1474,69.1589,0.0],[18.1443,69.1547,0.0],[18.15,69.1521,0.0],[18.1563,69.1521,6.8959],[18.1578,69.1505,0.0],[18.1521,69.15,0.0],[18.1333,69.1438,26.1317],[18.1229,69.1438,0.0],[18.1125,69.1396,5.6442],[18.0979,69.1396,0.0],[18.0938,69.1375,11.43],[18.0708,69.1354,23.6606],[18.0609,69.138,0.0],[18.062,69.1412,0.0],[18.0583,69.1438,0.0],[18.0599,69.1474,0.0],[18.0542,69.15,0.0],[18.0229,69.15,0.0],[18.0187,69.1479,100.0695],[18.0146,69.15,0.0],[17.9854,69.1521,7.2908],[17.9729,69.1479,204.9726],[17.9646,69.15,0.0],[17.9583,69.1438,319.7454],[17.95,69.1438,127.5252],[17.9458,69.1458,0.0],[17.9333,69.1458,21.2114],[17.9292,69.1438,79.3467],[17.9188,69.1438,0.0],[17.9141,69.1401,60.4035],[17.8879,69.1333,11.5035],[17.9005,69.133,64.5126],[17.9014,69.124,283.3192],[17.9139,69.1241,290.3454],[17.9161,69.1016,683.0919],[17.9035,69.1015,710.0806],[17.9048,69.088,977.1885],[17.8923,69.0878,822.8225],[17.8931,69.0788,616.4943],[17.8806,69.0787,479.0172],[17.8832,69.0517,338.8766],[17.8957,69.0518,315.6501],[17.8965,69.0428,368.8427],[17.909,69.0429,293.3355],[17.9095,69.0384,250.1713],[17.922,69.0386,178.8742],[17.9224,69.0341,184.4181],[17.9349,69.0342,303.1226],[17.9353,69.0297,423.8906],[17.9478,69.0299,518.1747],[17.9482,69.0254,559.1428],[17.9607,69.0255,654.5971],[17.9611,69.021,660.0287],[17.9736,69.0211,873.3486],[17.9741,69.0166,792.9395],[17.9865,69.0168,955.5835],[17.987,69.0123,783.8573],[17.9994,69.0124,950.3614],[17.9999,69.0079,782.3373],[18.0123,69.008,847.5189],[18.0131,68.999,745.7783],[18.0256,68.9992,782.072],[18.0264,68.9902,647.8466],[18.0389,68.9903,697.2786],[18.0397,68.9813,555.6602],[18.1395,68.9824,802.1591],[18.1392,68.9869,785.4075],[18.1641,68.9871,934.1055],[18.1638,68.9916,994.7968],[18.2012,68.992,938.2556],[18.2008,68.9965,737.6783],[18.2133,68.9966,1054.4103],[18.213,69.0011,995.4769],[18.238,69.0014,1016.2719],[18.2376,69.0059,960.0303],[18.2501,69.006,987.3631],[18.2497,69.0105,915.7568],[18.2747,69.0108,771.7699],[18.2744,69.0153,735.3836],[18.2869,69.0154,708.5165],[18.2865,69.0199,662.3773],[18.3115,69.0201,677.6438],[18.3112,69.0246,597.688],[18.3237,69.0247,524.1496],[18.3234,69.0293,437.7646],[18.3484,69.0295,374.0664],[18.348,69.034,359.0553],[18.3606,69.0341,356.344],[18.3602,69.0386,309.2937],[18.3727,69.0387,304.5263]]]]}}