{"type": "Feature","bbox": [8.8789,60.7647,9.6853,61.2445],"geometry": {"type": "MultiPolygon","coordinates": [[[[9.272,60.7654,1115.9103],[9.2705,60.7698,992.6066],[9.2796,60.7705,980.3528],[9.2766,60.7794,1154.7935],[9.2857,60.7801,1137.7228],[9.2842,60.7846,1119.8112],[9.2933,60.7853,1134.3152],[9.2903,60.7941,1037.6034],[9.2994,60.7949,1009.797],[9.2979,60.7993,1048.2727],[9.307,60.8,1019.1005],[9.3056,60.8044,1027.2201],[9.3146,60.8052,1020.6981],[9.3132,60.8096,1068.619],[9.3223,60.8103,1066.0872],[9.3208,60.8147,1051.2125],[9.3299,60.8155,967.4973],[9.3284,60.8199,947.1057],[9.3375,60.8206,937.6652],[9.336,60.8251,843.4144],[9.3451,60.8258,891.9838],[9.3436,60.8302,816.6844],[9.3527,60.8309,851.5309],[9.3512,60.8354,855.7758],[9.3694,60.8368,1060.2872],[9.3679,60.8412,1075.8014],[9.3862,60.8427,1054.5917],[9.3832,60.8515,964.6635],[9.3923,60.8522,970.9426],[9.3893,60.8611,906.3669],[9.3985,60.8618,967.0399],[9.3955,60.8707,823.7253],[9.4137,60.8721,801.2056],[9.4152,60.8677,797.8053],[9.4243,60.8684,785.3605],[9.4258,60.864,805.4804],[9.4349,60.8647,776.1074],[9.4334,60.8691,721.6615],[9.4426,60.8698,555.069],[9.4411,60.8743,511.1837],[9.4684,60.8764,423.1658],[9.4714,60.8675,421.117],[9.4805,60.8683,372.907],[9.4849,60.855,493.0684],[9.494,60.8557,361.7209],[9.497,60.8468,457.0255],[9.5152,60.8482,438.4285],[9.5137,60.8527,453.2821],[9.5593,60.8562,751.4068],[9.5564,60.8651,758.4956],[9.5473,60.8644,735.3769],[9.537,60.8954,815.9977],[9.5279,60.8947,862.6954],[9.525,60.9035,886.7707],[9.5341,60.9042,891.0016],[9.5297,60.9175,1104.7792],[9.5388,60.9182,1100.7214],[9.5373,60.9227,1017.8625],[9.5282,60.922,1093.1079],[9.5267,60.9264,1073.45],[9.5176,60.9257,1107.4988],[9.5147,60.9345,981.3083],[9.5055,60.9338,993.8934],[9.5041,60.9383,1002.6203],[9.5132,60.939,947.7534],[9.5117,60.9434,937.7846],[9.5209,60.9441,895.9165],[9.5194,60.9486,958.6216],[9.5103,60.9478,987.4136],[9.5088,60.9523,930.832],[9.4996,60.9516,968.723],[9.4967,60.9604,994.2442],[9.5058,60.9611,1031.0818],[9.5029,60.97,845.4283],[9.512,60.9707,821.9939],[9.5106,60.9751,789.6851],[9.5197,60.9758,815.2137],[9.5212,60.9714,827.0112],[9.5395,60.9728,783.1489],[9.5351,60.9861,648.1688],[9.5259,60.9854,734.3855],[9.5215,60.9987,688.7007],[9.5123,60.998,789.0271],[9.5094,61.0069,783.9836],[9.5002,61.0061,838.9255],[9.4988,61.0106,838.0899],[9.4896,61.0099,906.0267],[9.4867,61.0187,843.2509],[9.4775,61.018,875.3774],[9.4745,61.0269,761.4093],[9.4654,61.0261,855.3201],[9.4639,61.0306,767.9956],[9.4547,61.0299,904.9144],[9.4518,61.0387,756.6565],[9.4426,61.038,918.1898],[9.4411,61.0424,808.4188],[9.4319,61.0417,974.6278],[9.4304,61.0462,878.0414],[9.4213,61.0454,950.4681],[9.4183,61.0543,697.7056],[9.3816,61.0514,717.2583],[9.3771,61.0647,794.6121],[9.423,61.0683,899.6958],[9.4215,61.0727,950.9122],[9.4307,61.0734,986.9634],[9.4292,61.0779,992.4628],[9.4384,61.0786,994.9611],[9.4369,61.083,1001.7592],[9.4461,61.0837,971.0822],[9.4446,61.0882,954.27],[9.4537,61.0889,937.6709],[9.4523,61.0933,951.8375],[9.4614,61.094,971.2334],[9.46,61.0984,990.8262],[9.4967,61.1013,801.4066],[9.4952,61.1057,800.1696],[9.532,61.1086,892.0583],[9.5305,61.113,929.4071],[9.604,61.1187,921.5192],[9.6055,61.1142,932.8312],[9.6238,61.1157,931.8413],[9.6253,61.1112,923.0269],[9.6345,61.1119,921.7836],[9.636,61.1075,921.9535],[9.6452,61.1082,922.5303],[9.6466,61.1038,952.8549],[9.6558,61.1045,963.3086],[9.6543,61.1089,923.5912],[9.6635,61.1096,932.0761],[9.6621,61.114,939.009],[9.6713,61.1147,952.7233],[9.6698,61.1192,957.324],[9.6606,61.1185,961.5364],[9.6577,61.1273,969.9894],[9.6853,61.1294,962.1785],[9.6824,61.1383,1047.2958],[9.6732,61.1376,1051.2344],[9.6702,61.1465,1141.2251],[9.661,61.1458,1096.1965],[9.6596,61.1502,1107.6992],[9.6504,61.1495,1108.5247],[9.6489,61.1539,1143.6302],[9.6305,61.1525,1162.8965],[9.6276,61.1614,1204.4071],[9.6184,61.1607,1167.8494],[9.6169,61.1651,1120.8521],[9.6077,61.1644,1189.2134],[9.6048,61.1733,1033.1586],[9.5956,61.1726,1021.1805],[9.5941,61.177,982.8306],[9.5849,61.1763,1004.1033],[9.5819,61.1851,958.5],[9.5727,61.1844,1019.0743],[9.5712,61.1889,989.4507],[9.562,61.1882,1028.9177],[9.5591,61.197,1068.3552],[9.5499,61.1963,1067.2533],[9.5484,61.2007,1038.467],[9.5392,61.2,1015.0396],[9.5362,61.2089,935.5606],[9.527,61.2082,952.0411],[9.5255,61.2126,972.9126],[9.5163,61.2119,991.2018],[9.5133,61.2208,1064.8275],[9.5041,61.22,1040.6224],[9.5026,61.2245,1032.4506],[9.4934,61.2238,1036.5238],[9.4904,61.2326,1003.6633],[9.4812,61.2319,1009.1804],[9.4797,61.2363,943.2996],[9.4705,61.2356,948.7313],[9.4675,61.2445,941.9359],[9.4582,61.2438,942.5975],[9.4612,61.2349,952.5238],[9.452,61.2342,950.7153],[9.4565,61.2209,1005.717],[9.4473,61.2202,974.7085],[9.4518,61.2069,972.2629],[9.4426,61.2062,947.6824],[9.447,61.1929,908.1221],[9.4378,61.1922,905.916],[9.4393,61.1878,906.4909],[9.4301,61.187,909.441],[9.4316,61.1826,922.2747],[9.4224,61.1819,988.4612],[9.4254,61.173,1000.9277],[9.4162,61.1723,907.5435],[9.4207,61.159,862.895],[9.4115,61.1583,848.3689],[9.4205,61.1317,964.9344],[9.4113,61.131,998.0027],[9.4143,61.1222,992.0919],[9.4051,61.1214,963.2056],[9.4066,61.117,971.9637],[9.3974,61.1163,970.9048],[9.3989,61.1119,995.8907],[9.3897,61.1111,1031.9214],[9.3912,61.1067,1044.0061],[9.382,61.106,1016.9034],[9.385,61.0971,979.9879],[9.3758,61.0964,967.424],[9.3773,61.092,933.7011],[9.359,61.0905,909.9706],[9.3605,61.0861,911.8546],[9.3329,61.084,905.5077],[9.3344,61.0795,863.6768],[9.2519,61.073,899.2751],[9.2534,61.0686,948.2557],[9.2259,61.0664,851.0335],[9.2274,61.0619,904.3707],[9.2182,61.0612,877.2885],[9.2167,61.0656,840.3956],[9.1892,61.0634,658.5179],[9.1907,61.059,654.7407],[9.1724,61.0576,553.184],[9.1755,61.0487,467.4787],[9.1663,61.048,431.7613],[9.1693,61.0391,393.9573],[9.1785,61.0398,460.843],[9.1816,61.031,383.0104],[9.1632,61.0295,557.8135],[9.1648,61.0251,647.0258],[9.0641,61.017,528.803],[9.0656,61.0126,548.3925],[9.0199,61.0088,823.8331],[9.0214,61.0044,745.299],[9.0031,61.0029,790.5947],[9.0047,60.9985,776.2131],[8.9955,60.9978,794.922],[8.9971,60.9933,828.069],[8.9879,60.9926,815.6315],[8.9895,60.9882,852.1343],[8.9803,60.9874,860.821],[8.9834,60.9786,978.1588],[8.9743,60.9778,998.8597],[8.9758,60.9734,1004.5221],[8.9667,60.9727,1014.9028],[8.9713,60.9594,1024.6122],[8.9622,60.9586,999.1171],[8.9638,60.9542,997.1121],[8.9546,60.9535,999.9097],[8.9562,60.949,1007.8284],[8.947,60.9483,1016.5322],[8.9486,60.9439,1022.478],[8.9395,60.9431,986.4133],[8.941,60.9387,1003.6863],[8.9319,60.9379,990.7347],[8.9334,60.9335,980.6705],[8.9243,60.9328,962.0281],[8.9259,60.9283,962.796],[8.9167,60.9276,951.4542],[8.9183,60.9232,965.3595],[8.9092,60.9224,965.3817],[8.9107,60.918,970.8678],[8.9016,60.9172,956.5007],[8.9032,60.9128,953.2834],[8.894,60.9121,924.1967],[8.8956,60.9076,910.8043],[8.8865,60.9069,885.0705],[8.888,60.9025,860.5588],[8.8789,60.9017,852.5],[8.8851,60.884,858.6213],[8.8943,60.8848,836.6142],[8.9005,60.8671,817.0],[8.9096,60.8678,817.0],[8.9111,60.8634,817.0],[8.9202,60.8642,817.0],[8.9218,60.8598,817.0],[8.94,60.8613,817.0],[8.9415,60.8568,817.0],[8.9506,60.8576,817.0],[8.9522,60.8532,817.0],[8.9613,60.8539,817.0],[8.9628,60.8495,817.0],[8.9719,60.8502,817.0],[8.9735,60.8458,817.0],[8.9917,60.8473,817.0],[8.9932,60.8429,817.0],[9.0023,60.8436,817.0],[9.0038,60.8392,817.0],[9.0129,60.8399,817.0],[9.0145,60.8355,817.2603],[9.0236,60.8363,812.3859],[9.0251,60.8318,828.6226],[9.0433,60.8333,809.5153],[9.0448,60.8289,820.7843],[9.0539,60.8296,813.8655],[9.0555,60.8252,812.3875],[9.0646,60.826,806.2463],[9.0661,60.8215,811.9055],[9.0843,60.823,812.5782],[9.0858,60.8186,812.6066],[9.0949,60.8193,817.1927],[9.0964,60.8149,825.875],[9.1055,60.8156,830.2629],[9.107,60.8112,831.6747],[9.1161,60.812,832.6451],[9.1176,60.8075,838.2864],[9.1358,60.809,856.7877],[9.1373,60.8046,853.5266],[9.1464,60.8053,863.1378],[9.1479,60.8009,880.4824],[9.157,60.8016,879.2466],[9.1586,60.7972,917.8824],[9.1676,60.7979,897.0734],[9.1692,60.7935,947.4648],[9.1782,60.7942,914.9982],[9.1798,60.7898,955.663],[9.1888,60.7905,948.3329],[9.1904,60.7861,1034.2931],[9.1994,60.7868,1041.627],[9.2024,60.778,1084.4019],[9.2115,60.7787,1072.4783],[9.213,60.7743,1090.0978],[9.2221,60.775,1066.0441],[9.2236,60.7706,1116.2279],[9.2418,60.7721,1115.1906],[9.2433,60.7676,1212.2251],[9.2615,60.7691,1038.5455],[9.263,60.7647,1122.6062],[9.272,60.7654,1115.9103]]]]}
,"properties": {"GID_2": "NOR.11.11_1","GID_0": "NOR","country": "Norway","GID_1": "NOR.11_1","province": "Oppland","NL_NAME_1": "NA","county": "Nord-Aurdal","VARNAME_2": "NA","NL_NAME_2": "NA","TYPE_2": "Kommuner","ENGTYPE_2": "Municipality","CC_2": "NA","HASC_2": "NO.OP.NA","name": "Nord-Aurdal.county","area_km2": 903.6645,"hist_schema_id": "Elevation0-9000","hist_area_km2": {"300": 4.308,"325": 7.3257,"350": 18.6652,"375": 11.7912,"400": 8.7502,"425": 8.4127,"450": 8.3224,"475": 8.3846,"500": 7.7656,"525": 6.9699,"550": 6.6796,"575": 6.5753,"600": 6.8007,"625": 6.2144,"650": 6.3799,"675": 7.2434,"700": 8.4585,"725": 11.5844,"750": 22.2091,"775": 22.3459,"800": 35.66,"825": 58.4732,"850": 60.6347,"875": 69.0772,"900": 77.177,"925": 69.8842,"950": 64.8233,"975": 68.7513,"1000": 66.3486,"1025": 57.9519,"1050": 35.0312,"1075": 21.736,"1100": 12.892,"1125": 6.0645,"1150": 1.9127,"1175": 1.5074,"1200": 0.3889,"1225": 0.0818,"1250": 0.0511,"1275": 0.0307}}}