{"type": "Feature","bbox": [6.0922,62.4188,6.5529,62.5167],"geometry": {"type": "MultiPolygon","coordinates": [[[[6.5518,62.4404,0.0],[6.5529,62.4412,10.3405],[6.5483,62.4512,444.0186],[6.5388,62.4502,450.9332],[6.5368,62.4546,346.7512],[6.5273,62.4537,390.9173],[6.5233,62.4625,340.1292],[6.5138,62.4616,397.7381],[6.5058,62.4791,27.0],[6.4391,62.4727,27.0],[6.4371,62.4771,30.7557],[6.4275,62.4762,27.0],[6.4215,62.4893,74.4958],[6.431,62.4903,129.1967],[6.4304,62.4917,35.353],[6.4208,62.4917,0.0],[6.4104,62.4875,70.7135],[6.4021,62.4875,0.0],[6.3979,62.4854,17.4931],[6.3833,62.4854,2.0924],[6.3792,62.4833,13.3255],[6.3729,62.4833,9.3756],[6.3714,62.4828,0.0],[6.3703,62.4755,8.2548],[6.3583,62.475,0.0],[6.3542,62.4729,24.3576],[6.3396,62.4729,28.1018],[6.3354,62.475,6.0282],[6.3271,62.475,0.0],[6.3229,62.4729,15.8933],[6.3125,62.4729,14.1387],[6.3083,62.4708,69.072],[6.3042,62.4729,1.4087],[6.3,62.4708,62.9344],[6.2854,62.4708,45.359],[6.2813,62.4688,81.5706],[6.2667,62.4688,14.3315],[6.2609,62.4714,0.0],[6.262,62.4745,18.5537],[6.2563,62.4771,8.6107],[6.2146,62.4771,97.4564],[6.2104,62.475,135.6904],[6.1958,62.475,123.0819],[6.1917,62.4771,77.2828],[6.1875,62.475,108.0424],[6.1833,62.4771,175.8414],[6.1792,62.475,154.1257],[6.1589,62.4745,19.5408],[6.1646,62.4708,6.381],[6.1958,62.4688,20.5283],[6.2,62.4667,0.0],[6.2042,62.4688,0.0],[6.2188,62.4688,0.0],[6.2229,62.4708,4.4717],[6.225,62.4688,3.3344],[6.2234,62.4651,25.5711],[6.2438,62.4646,4.6211],[6.2495,62.462,0.0],[6.2505,62.4589,24.5681],[6.2563,62.4562,0.0],[6.2688,62.4562,0.0],[6.2729,62.4583,11.0896],[6.2917,62.4583,0.0],[6.2958,62.4604,0.0],[6.3146,62.4604,0.0],[6.3188,62.4625,15.7483],[6.325,62.4604,0.0],[6.3333,62.4604,0.0],[6.3375,62.4583,0.0],[6.3417,62.4604,3.0979],[6.3516,62.4578,0.0],[6.3484,62.4557,15.6717],[6.3464,62.4505,39.9552],[6.3495,62.4495,21.1542],[6.3505,62.4464,0.0],[6.3542,62.4437,12.7525],[6.3536,62.4401,0.0],[6.3443,62.437,0.0],[6.3446,62.4341,0.0],[6.3426,62.4312,0.0],[6.3486,62.4308,5.9279],[6.3634,62.4344,20.8523],[6.3665,62.4313,0.0],[6.3729,62.4333,6.608],[6.3854,62.4292,0.0],[6.3896,62.4292,3.6638],[6.3953,62.4266,0.0],[6.3901,62.4245,15.3647],[6.3896,62.4208,55.9986],[6.3917,62.4188,38.7283],[6.3958,62.4188,12.5489],[6.4104,62.425,3.238],[6.4167,62.425,0.0],[6.4292,62.4292,0.0],[6.4938,62.4292,0.0],[6.4979,62.4313,0.0],[6.5063,62.4313,0.0],[6.5104,62.4333,17.386],[6.5438,62.4354,0.0],[6.5464,62.4391,63.7549],[6.5518,62.4404,0.0]]],
[[[6.3401,62.4839,12.3084],[6.3453,62.4839,0.0],[6.3453,62.487,5.4704],[6.3359,62.487,0.0],[6.3401,62.4839,12.3084]]],
[[[6.1245,62.4672,2.5163],[6.1271,62.4688,12.4623],[6.1333,62.4688,4.2453],[6.1349,62.4703,9.9448],[6.1104,62.4708,9.1364],[6.1063,62.4688,23.4592],[6.1,62.4688,25.9878],[6.0958,62.4708,0.0],[6.0938,62.4688,22.5926],[6.0979,62.4646,8.5691],[6.0953,62.4589,226.3539],[6.0922,62.4568,17.9845],[6.0979,62.4542,6.2014],[6.1167,62.4542,0.0],[6.1208,62.4562,0.0],[6.125,62.4542,0.0],[6.1292,62.4562,0.0],[6.1479,62.4562,0.0],[6.1521,62.4583,16.0926],[6.1563,62.4562,0.0],[6.1604,62.4583,0.0],[6.1682,62.4589,0.0],[6.1667,62.4604,0.0],[6.1396,62.4604,85.0374],[6.1354,62.4625,0.0],[6.1313,62.4604,66.329],[6.1214,62.4651,0.0],[6.1245,62.4672,2.5163]]],
[[[6.3005,62.4828,33.7375],[6.3021,62.4813,17.7311],[6.312,62.4818,4.992],[6.3104,62.4833,4.7723],[6.3005,62.4828,33.7375]]],
[[[6.4453,62.5089,6.6924],[6.4536,62.5141,28.7758],[6.4479,62.5167,75.023],[6.4354,62.5167,47.4621],[6.4208,62.5125,37.8249],[6.4104,62.5125,21.018],[6.4063,62.5104,34.8707],[6.4021,62.5125,0.0],[6.3979,62.5104,50.2233],[6.3833,62.5104,16.4525],[6.3792,62.5083,50.528],[6.3646,62.5083,79.149],[6.3521,62.5042,82.3681],[6.3458,62.5062,18.4102],[6.3417,62.5042,114.0761],[6.3292,62.5042,116.713],[6.3266,62.5078,0.0],[6.3208,62.5083,4.165],[6.3151,62.5109,34.1776],[6.3141,62.5141,9.8991],[6.3042,62.5146,23.6864],[6.3,62.5167,0.0],[6.2958,62.5146,57.9068],[6.2854,62.5146,0.0],[6.2813,62.5125,26.8404],[6.2667,62.5125,0.0],[6.2625,62.5104,20.5176],[6.2583,62.5104,18.8322],[6.2542,62.5125,0.0],[6.2438,62.5125,19.6308],[6.2339,62.5078,0.0],[6.2307,62.5026,28.3026],[6.225,62.5,-1.0],[6.1917,62.5,5.9667],[6.1755,62.4953,20.6077],[6.175,62.4917,5.2124],[6.1771,62.4896,0.0],[6.1854,62.4896,0.0],[6.1896,62.4917,10.4785],[6.2,62.4917,0.0],[6.2083,62.4958,7.5918],[6.2229,62.4979,1.2854],[6.2271,62.4958,0.0],[6.2417,62.4958,9.2589],[6.2542,62.4917,0.0],[6.2729,62.4917,18.3034],[6.2771,62.4896,0.0],[6.3083,62.4896,0.0],[6.3167,62.4938,5.4022],[6.3208,62.4917,0.0],[6.3313,62.4917,0.0],[6.3354,62.4938,18.3541],[6.35,62.4938,20.4428],[6.3516,62.4922,0.0],[6.35,62.4896,0.0],[6.3521,62.4875,14.1507],[6.3599,62.4901,16.9411],[6.3563,62.4938,0.0],[6.3583,62.4958,0.0],[6.3771,62.4938,28.4748],[6.3932,62.4984,0.0],[6.4,62.5021,18.9811],[6.4104,62.5021,0.0],[6.4146,62.5042,2.6043],[6.4229,62.5042,0.0],[6.4271,62.5062,0.0],[6.4453,62.5089,6.6924]]]]}
,"properties": {"GID_2": "NOR.8.1_1","GID_0": "NOR","country": "Norway","GID_1": "NOR.8_1","province": "MøreogRomsdal","NL_NAME_1": "NA","county": "Ålesund","VARNAME_2": "NA","NL_NAME_2": "NA","TYPE_2": "Kommuner","ENGTYPE_2": "Municipality","CC_2": "NA","HASC_2": "NO.MR.AL","name": "Ålesund.county","area_km2": 87.92273,"hist_schema_id": "Elevation0-9000","hist_area_km2": {"0": 9.56476,"25": 21.60983,"50": 11.4468,"75": 5.54557,"100": 4.7904,"125": 3.72298,"150": 3.16501,"175": 2.88107,"200": 2.36187,"225": 2.52908,"250": 2.54896,"275": 2.86287,"300": 3.13777,"325": 2.44152,"350": 2.49041,"375": 2.14729,"400": 2.15704,"425": 1.28433,"450": 0.49018,"475": 0.36275,"500": 0.22543,"525": 0.15681}}}