{"type":"Feature","properties":{"GID_2":"NOR.13.6_1","GID_0":"NOR","country":"Norway","GID_1":"NOR.13_1","province":"Rogaland","NL_NAME_1":"NA","county":"Gjesdal","VARNAME_2":"NA","NL_NAME_2":"NA","TYPE_2":"Kommuner","ENGTYPE_2":"Municipality","CC_2":"NA","HASC_2":"NO.RO.GJ","name":"Gjesdal.county"},
"geometry":{"type": "MultiPolygon","coordinates": [[[[6.5249,58.7717,691.2661],[6.5214,58.7805,762.2458],[6.5299,58.7814,738.0891],[6.5264,58.7902,725.5757],[6.5349,58.7911,812.5037],[6.5332,58.7955,845.7693],[6.5417,58.7964,820.6006],[6.5382,58.8051,839.6721],[6.5468,58.806,883.314],[6.5433,58.8148,895.3918],[6.5518,58.8157,937.276],[6.5483,58.8245,762.631],[6.5568,58.8254,675.2499],[6.5551,58.8298,781.9462],[6.5636,58.8307,812.4094],[6.5601,58.8395,836.0172],[6.5686,58.8404,809.4366],[6.5669,58.8448,866.1714],[6.5754,58.8457,935.8452],[6.5737,58.8501,939.7886],[6.5822,58.851,958.5783],[6.5805,58.8554,873.1707],[6.589,58.8563,845.2536],[6.5873,58.8607,934.2227],[6.5958,58.8616,835.0997],[6.5941,58.866,856.3027],[6.6026,58.8669,842.2772],[6.6008,58.8713,811.3646],[6.6094,58.8722,878.8078],[6.6076,58.8766,836.4913],[6.5991,58.8757,628.1517],[6.5974,58.8801,648.6013],[6.5803,58.8783,707.8208],[6.5768,58.887,722.4482],[6.5683,58.8861,851.571],[6.5596,58.9081,859.8298],[6.5681,58.909,881.3135],[6.5664,58.9134,828.6068],[6.5749,58.9143,963.7317],[6.5732,58.9187,951.7211],[6.5903,58.9205,960.8458],[6.5885,58.9249,995.4763],[6.6056,58.9267,942.2866],[6.6039,58.9311,968.0131],[6.621,58.9329,1039.6078],[6.6192,58.9373,1049.8663],[6.6363,58.9391,1054.8549],[6.6311,58.9523,960.4465],[6.6226,58.9514,972.0427],[6.6173,58.9645,1014.0242],[6.6088,58.9636,1077.6195],[6.6036,58.9768,1023.1618],[6.6292,58.9795,980.3099],[6.6275,58.9839,1028.8806],[6.6189,58.983,1047.0758],[6.6172,58.9874,1078.8031],[6.5573,58.9811,1036.0004],[6.5591,58.9767,877.6116],[6.5505,58.9758,855.9388],[6.554,58.967,980.466],[6.5455,58.9661,995.4615],[6.5472,58.9617,949.6523],[6.5387,58.9608,989.007],[6.5404,58.9564,875.6476],[6.5319,58.9555,922.2583],[6.5354,58.9467,835.2065],[6.5268,58.9458,823.4637],[6.5286,58.9414,732.9393],[6.5115,58.9396,888.738],[6.5132,58.9352,833.3333],[6.5047,58.9343,787.5247],[6.5064,58.9299,719.5031],[6.4979,58.929,798.3994],[6.4997,58.9246,748.9044],[6.4826,58.9228,787.4678],[6.4843,58.9184,682.5326],[6.4673,58.9166,951.7814],[6.469,58.9122,762.1887],[6.4178,58.9067,963.8506],[6.4196,58.9023,1004.9438],[6.4111,58.9014,1008.7554],[6.4128,58.897,970.0909],[6.302,58.8851,541.2699],[6.3038,58.8807,501.0],[6.2867,58.8789,548.3203],[6.2885,58.8745,501.0],[6.28,58.8735,595.0327],[6.2817,58.8692,556.1794],[6.2306,58.8636,663.4995],[6.2361,58.8501,0.0],[6.2686,58.849,34.7622],[6.2792,58.846,0.0],[6.2803,58.8401,12.1525],[6.2792,58.8393,10.4002],[6.2547,58.8404,83.4654],[6.2442,58.8435,46.3913],[6.2297,58.8424,30.5634],[6.2264,58.844,0.0],[6.2186,58.8443,0.0],[6.2025,58.8424,9.6856],[6.2031,58.8435,9.6856],[6.1903,58.844,0.0],[6.1842,58.8418,0.0],[6.1853,58.8396,7.7139],[6.1753,58.8351,19.8361],[6.1692,58.8385,25.3745],[6.1519,58.8424,0.0],[6.1381,58.8537,26.8347],[6.1286,58.8551,13.3456],[6.1219,58.8515,28.7724],[6.1214,58.8546,18.9867],[6.1175,58.8571,0.0],[6.1097,58.8587,127.8291],[6.1036,58.8632,22.3274],[6.0975,58.8628,212.3167],[6.0993,58.8584,301.905],[6.0908,58.8575,426.1978],[6.0926,58.8531,500.6335],[6.0671,58.8503,454.5234],[6.0653,58.8547,454.856],[6.0398,58.8519,411.7043],[6.0416,58.8475,409.9011],[6.0331,58.8465,352.4516],[6.0349,58.8421,411.6219],[6.0179,58.8403,332.587],[6.0197,58.8359,306.9104],[6.0112,58.8349,324.8556],[6.0148,58.8262,181.525],[6.0063,58.8252,251.092],[6.0099,58.8165,103.5],[6.0014,58.8155,152.9192],[5.9996,58.8199,239.8878],[5.9911,58.819,358.4604],[5.9893,58.8233,390.0504],[5.9808,58.8224,338.4831],[5.9826,58.818,350.1609],[5.9741,58.8171,427.6278],[5.9759,58.8127,295.678],[5.9589,58.8108,407.4661],[5.9607,58.8064,370.9972],[5.8928,58.7989,281.0517],[5.8946,58.7945,274.8435],[5.8776,58.7926,213.2147],[5.8794,58.7882,204.461],[5.854,58.7853,243.7086],[5.8558,58.781,239.5],[5.8388,58.7791,109.6862],[5.8425,58.7703,106.9558],[5.834,58.7693,147.6298],[5.8358,58.765,139.5027],[5.8273,58.764,127.4406],[5.8292,58.7596,135.4196],[5.8207,58.7587,150.7038],[5.8225,58.7543,137.1162],[5.831,58.7552,156.0488],[5.8328,58.7509,164.4012],[5.8498,58.7528,172.7153],[5.8516,58.7484,271.9332],[5.8601,58.7493,233.7451],[5.8637,58.7406,337.7664],[5.8722,58.7415,275.5955],[5.8758,58.7328,256.4581],[5.8843,58.7337,259.5107],[5.8898,58.7206,232.7473],[5.8813,58.7196,195.6516],[5.8831,58.7152,319.8755],[5.8746,58.7143,307.982],[5.8764,58.7099,292.3489],[5.868,58.7089,263.2559],[5.8698,58.7046,327.098],[5.8783,58.7055,289.8768],[5.8801,58.7011,297.3886],[5.8885,58.7021,336.4077],[5.8922,58.6933,224.5],[5.9091,58.6952,254.0],[5.9109,58.6908,287.0338],[5.9448,58.6946,287.1148],[5.9484,58.6859,356.3822],[5.9569,58.6868,345.9285],[5.9587,58.6824,395.8284],[5.9671,58.6834,335.08],[5.9689,58.679,270.1323],[5.9774,58.6799,273.6254],[5.9792,58.6755,236.353],[5.9877,58.6765,231.7458],[5.9859,58.6809,236.3947],[6.0367,58.6865,319.3129],[6.0295,58.704,366.6305],[6.038,58.705,373.3124],[6.0362,58.7094,307.8187],[6.0531,58.7112,303.6788],[6.0513,58.7156,308.1363],[6.0598,58.7166,390.635],[6.058,58.721,423.6102],[6.0665,58.7219,410.981],[6.0611,58.735,470.1465],[6.0696,58.736,375.8722],[6.0678,58.7404,437.7609],[6.0763,58.7413,527.5336],[6.0745,58.7457,523.6756],[6.0914,58.7476,462.5343],[6.0896,58.7519,456.7272],[6.1236,58.7557,564.0045],[6.1254,58.7513,584.5762],[6.1678,58.756,438.5],[6.166,58.7603,598.3091],[6.1745,58.7613,599.6866],[6.171,58.77,642.6299],[6.1794,58.771,614.2011],[6.1741,58.7841,735.5754],[6.1826,58.7851,653.5],[6.179,58.7938,758.0642],[6.2045,58.7966,704.177],[6.2063,58.7922,661.0496],[6.2233,58.7941,637.4868],[6.2251,58.7897,655.2728],[6.2336,58.7906,687.9916],[6.2354,58.7862,518.83],[6.2439,58.7872,538.3541],[6.2456,58.7828,431.5],[6.2541,58.7837,487.0433],[6.2559,58.7793,693.9373],[6.2644,58.7802,737.0725],[6.2662,58.7759,810.8599],[6.2832,58.7777,730.4639],[6.2973,58.7426,597.6233],[6.3058,58.7435,731.1192],[6.3093,58.7347,650.1623],[6.3178,58.7357,648.2412],[6.3196,58.7313,661.6108],[6.3535,58.735,606.0443],[6.3517,58.7393,602.2065],[6.4367,58.7485,681.0],[6.4349,58.7529,736.9739],[6.4519,58.7547,834.0292],[6.4502,58.7591,856.5172],[6.4671,58.7609,828.5633],[6.4654,58.7653,791.5988],[6.5249,58.7717,691.2661]]]]}}