{"type": "Feature","bbox": [13.199,66.0916,15.5229,66.7868],"geometry": {"type": "MultiPolygon","coordinates": [[[[14.1417,66.3354,2.6902],[14.1432,66.3359,24.6174],[14.1438,66.3375,0.0],[14.1401,66.337,0.0],[14.1417,66.3354,2.6902]]],
[[[14.3948,66.6902,1079.0948],[14.3835,66.6898,1323.7507],[14.3846,66.6853,1275.696],[14.3733,66.6849,1484.8184],[14.3743,66.6804,1311.2067],[14.363,66.68,1342.1885],[14.364,66.6756,1061.0415],[14.3414,66.6748,1163.3075],[14.3425,66.6703,1246.1166],[14.3312,66.6699,1110.4303],[14.3322,66.6654,946.6354],[14.3096,66.6646,1066.0829],[14.3107,66.6602,982.7395],[14.2994,66.6598,988.6802],[14.3004,66.6553,1053.6998],[14.2891,66.6549,1041.9978],[14.2902,66.6504,1068.3624],[14.2789,66.65,1075.4049],[14.2799,66.6455,1089.7175],[14.2686,66.6451,1091.6564],[14.2697,66.6407,1094.6746],[14.2584,66.6403,1105.1138],[14.2594,66.6358,1122.4879],[14.2482,66.6354,1153.1357],[14.2492,66.6309,1160.2285],[14.2379,66.6305,1242.5503],[14.239,66.626,1275.9048],[14.2052,66.6248,1494.3356],[14.201,66.6428,1245.363],[14.2123,66.6432,1283.3715],[14.2082,66.6611,983.8054],[14.1969,66.6607,1071.3555],[14.1958,66.6652,976.2897],[14.1846,66.6647,803.4448],[14.1835,66.6692,757.3752],[14.1497,66.668,700.6096],[14.1507,66.6635,704.3356],[14.1169,66.6623,806.7385],[14.118,66.6578,805.1948],[14.0954,66.657,997.5529],[14.0965,66.6526,998.311],[14.0739,66.6517,1134.8175],[14.075,66.6473,1108.0366],[14.0525,66.6464,1215.4149],[14.0535,66.642,1235.6376],[14.031,66.6411,1261.6754],[14.0321,66.6367,1269.2581],[14.0096,66.6358,1271.0077],[14.0106,66.6314,1305.657],[13.9881,66.6305,1300.1052],[13.9892,66.626,1395.7997],[13.9667,66.6252,1395.1951],[13.9678,66.6207,1269.9006],[13.934,66.6195,1278.7008],[13.9329,66.624,1466.2124],[13.8654,66.6214,1416.9572],[13.8676,66.6125,1343.1166],[13.8564,66.6121,1334.9811],[13.8575,66.6076,1301.3756],[13.8462,66.6072,1261.4484],[13.8484,66.5982,1143.5638],[13.8372,66.5978,1117.0665],[13.8394,66.5888,810.5308],[13.8281,66.5884,861.5897],[13.8293,66.5839,891.212],[13.818,66.5835,904.7552],[13.8202,66.5745,1335.6798],[13.809,66.5741,1377.802],[13.8101,66.5696,1231.0389],[13.7989,66.5692,1306.3175],[13.8011,66.5603,1077.9252],[13.7899,66.5598,1010.3278],[13.7921,66.5509,942.0058],[13.7809,66.5505,1100.4897],[13.7842,66.537,713.5715],[13.8066,66.5379,687.6951],[13.8077,66.5334,595.6044],[13.8189,66.5338,589.8216],[13.8211,66.5249,492.365],[13.8324,66.5253,586.3503],[13.8346,66.5164,472.412],[13.8233,66.5159,685.8361],[13.8277,66.498,833.206],[13.8166,66.4976,837.2627],[13.8199,66.4842,350.2145],[13.7975,66.4833,356.4754],[13.7964,66.4878,291.7199],[13.7628,66.4865,407.2198],[13.765,66.4775,448.7739],[13.7426,66.4767,386.0],[13.7438,66.4722,397.9917],[13.7102,66.4709,606.4359],[13.7113,66.4664,528.287],[13.6778,66.4651,820.907],[13.6789,66.4606,665.246],[13.5672,66.4563,1055.1562],[13.5683,66.4518,817.5814],[13.5348,66.4504,1005.3578],[13.5336,66.4549,1021.8071],[13.5001,66.4536,423.8246],[13.499,66.458,477.8192],[13.4543,66.4562,647.2875],[13.4555,66.4518,663.3182],[13.4443,66.4513,692.026],[13.4454,66.4468,651.4226],[13.4231,66.4459,812.8608],[13.4243,66.4415,736.0433],[13.402,66.4406,857.175],[13.4031,66.4361,845.2335],[13.392,66.4356,889.5986],[13.3931,66.4312,800.1121],[13.3708,66.4302,924.3473],[13.372,66.4258,833.0668],[13.3385,66.4244,766.6357],[13.3397,66.4199,774.1162],[13.3174,66.419,724.9937],[13.3186,66.4145,734.8038],[13.3074,66.4141,716.2801],[13.311,66.4006,764.5064],[13.2887,66.3997,787.6619],[13.2899,66.3953,308.545],[13.2565,66.3939,904.2208],[13.2577,66.3894,765.5475],[13.2688,66.3899,809.2357],[13.2724,66.3764,265.2382],[13.2279,66.3746,808.1757],[13.2291,66.3701,656.7505],[13.2402,66.3706,724.3525],[13.2414,66.3661,383.9624],[13.2525,66.3666,448.2045],[13.2561,66.3531,839.8835],[13.2672,66.3536,770.9121],[13.2708,66.3402,714.5892],[13.2597,66.3397,799.9874],[13.262,66.3308,499.9508],[13.2287,66.3294,370.718],[13.2275,66.3339,595.0918],[13.2164,66.3334,602.1626],[13.2188,66.3245,585.7374],[13.2077,66.324,672.1512],[13.2101,66.315,425.5696],[13.199,66.3146,505.4],[13.2013,66.3061,57.2183],[13.2001,66.3042,0.0],[13.2125,66.3042,0.0],[13.2167,66.3063,47.5044],[13.2438,66.3063,0.0],[13.2479,66.3083,0.0],[13.2563,66.3083,0.0],[13.2604,66.3104,0.0],[13.2729,66.3104,0.0],[13.2875,66.3146,25.954],[13.3,66.3146,0.0],[13.3104,66.3187,6.2151],[13.3229,66.3187,0.0],[13.3271,66.3208,0.0],[13.3354,66.3208,0.0],[13.3458,66.325,0.0],[13.3521,66.325,0.0],[13.3625,66.3292,0.0],[13.3682,66.3297,0.0],[13.3693,66.3328,0.0],[13.3729,66.3354,0.0],[13.4104,66.3354,0.0],[13.4141,66.338,0.0],[13.4151,66.3411,8.3266],[13.4203,66.3422,0.0],[13.4234,66.3453,8.3758],[13.4313,66.3479,0.0],[13.4375,66.3479,0.0],[13.4458,66.3438,2.0248],[13.4563,66.3438,0.0],[13.4604,66.3417,0.0],[13.4708,66.3417,0.0],[13.4833,66.3458,7.7888],[13.4891,66.3422,173.1295],[13.4792,66.3417,0.0],[13.4688,66.3375,148.2147],[13.4563,66.3375,0.0],[13.4521,66.3354,34.943],[13.4438,66.3354,0.0],[13.4396,66.3333,0.0],[13.4333,66.3333,0.0],[13.4255,66.3297,0.0],[13.4339,66.3255,0.0],[13.4411,66.3245,0.0],[13.4438,66.3208,0.0],[13.4542,66.3208,18.5147],[13.4583,66.3187,0.0],[13.4688,66.3187,0.0],[13.4729,66.3167,0.0],[13.4771,66.3187,0.0],[13.4958,66.3187,0.0],[13.5,66.3208,7.4693],[13.5063,66.3208,9.7527],[13.513,66.3172,3.2334],[13.5229,66.3146,0.0],[13.5333,66.3146,8.0731],[13.5458,66.3104,0.0],[13.5521,66.3104,0.0],[13.5578,66.3068,0.0],[13.5333,66.3063,0.0],[13.5292,66.3083,0.0],[13.5229,66.3063,32.7203],[13.5188,66.3083,0.0],[13.5021,66.3083,0.0],[13.4979,66.3063,13.9643],[13.4813,66.3063,0.0],[13.4708,66.3021,0.0],[13.4271,66.3021,0.0],[13.4229,66.3,148.5687],[13.4167,66.3021,0.0],[13.4104,66.3,196.7851],[13.4063,66.3021,0.0],[13.3708,66.3021,31.0809],[13.3646,66.2979,308.5146],[13.3583,66.3,125.0001],[13.3542,66.2979,299.6811],[13.3417,66.2979,198.3208],[13.3271,66.2937,338.5618],[13.3083,66.2937,145.5848],[13.3059,66.2924,196.9894],[13.3181,66.2484,0.0],[13.3208,66.25,8.3917],[13.3271,66.2479,0.0],[13.3313,66.25,7.7574],[13.3479,66.25,0.0],[13.3521,66.2479,0.0],[13.3682,66.2453,0.0],[13.3766,66.2412,11.8433],[13.3755,66.238,0.0],[13.3833,66.2375,6.9997],[13.3875,66.2354,0.0],[13.3917,66.2375,16.2148],[13.4104,66.2375,0.0],[13.4146,66.2396,77.9141],[13.4438,66.2417,0.0],[13.4542,66.2458,166.9532],[13.4667,66.2458,0.0],[13.4745,66.2484,0.0],[13.4755,66.2516,0.0],[13.4833,66.2542,24.2505],[13.4917,66.2542,0.0],[13.4958,66.2562,0.0],[13.5083,66.2562,0.0],[13.5125,66.2604,41.6144],[13.525,66.2604,0.0],[13.5292,66.2625,0.0],[13.5375,66.2625,0.0],[13.5401,66.2662,0.0],[13.55,66.2667,0.0],[13.5578,66.2693,0.0],[13.5609,66.2745,0.0],[13.5661,66.2755,0.0],[13.5682,66.2776,0.0],[13.5724,66.2859,0.0],[13.5693,66.288,0.0],[13.5708,66.2896,0.0],[13.5771,66.2896,3.7722],[13.5813,66.2875,0.0],[13.5854,66.2896,6.1767],[13.6125,66.2896,32.782],[13.6167,66.2875,0.0],[13.6271,66.2875,0.0],[13.6286,66.2859,7.3733],[13.6193,66.2849,0.0],[13.6161,66.2797,74.1299],[13.6026,66.2766,0.0],[13.6016,66.2734,30.3747],[13.5917,66.2729,0.0],[13.5839,66.2703,0.0],[13.5807,66.2651,18.2414],[13.5693,66.262,0.0],[13.5729,66.2583,0.0],[13.5714,66.2547,0.0],[13.5854,66.25,0.0],[13.5917,66.25,-0.0229],[13.6026,66.2443,0.0],[13.6125,66.2417,0.0],[13.6458,66.2417,0.0],[13.6729,66.25,0.0],[13.6813,66.25,0.0],[13.6839,66.2536,20.1243],[13.6938,66.2542,0.0],[13.6979,66.2562,63.582],[13.7021,66.2542,0.0],[13.7146,66.2542,0.0],[13.7188,66.2562,0.0],[13.7458,66.2562,0.0],[13.7536,66.2589,3.4994],[13.7568,66.262,0.0],[13.762,66.263,0.0],[13.7651,66.2682,34.4342],[13.7729,66.2708,68.7655],[13.7771,66.2688,0.0],[13.7938,66.2688,0.0],[13.7985,66.2724,0.0],[13.8063,66.275,80.8785],[13.8125,66.275,32.0179],[13.8167,66.2729,0.0],[13.8229,66.275,21.8183],[13.8271,66.2729,0.0],[13.8375,66.2729,0.0],[13.8438,66.275,49.7671],[13.8479,66.2729,0.0],[13.8542,66.2729,0.0],[13.8583,66.275,0.0],[13.875,66.275,0.0],[13.8979,66.2688,0.0],[13.9078,66.2734,0.0],[13.9125,66.2833,0.0],[13.9089,66.287,56.6306],[13.9141,66.288,0.0],[13.9193,66.2932,0.0],[13.9245,66.2943,0.0],[13.9255,66.2974,9.2978],[13.9307,66.2984,0.0],[13.9354,66.3021,5.3583],[13.9417,66.3021,0.0],[13.9458,66.3042,0.0],[13.975,66.3042,0.0],[13.9958,66.3104,0.0],[14.0021,66.3104,0.0],[14.0104,66.3063,0.0],[14.0271,66.3063,0.0],[14.0474,66.313,0.0],[14.0521,66.3167,19.0458],[14.0583,66.3167,0.0],[14.0688,66.3208,3.5104],[14.0813,66.3208,0.0],[14.1,66.3271,0.0],[14.1203,66.3297,0.0],[14.1234,66.337,0.0],[14.1271,66.3396,0.0],[14.1438,66.3396,4.9382],[14.1536,66.3359,0.0],[14.1438,66.3354,26.0875],[14.1422,66.3318,0.0],[14.1453,66.3307,0.0],[14.1453,66.3276,3.1629],[14.1432,66.3255,6.3059],[14.138,66.3245,3.5405],[14.1328,66.3172,5.4437],[14.1234,66.3161,3.4067],[14.1214,66.313,0.0],[14.1286,66.3089,0.0],[14.1109,66.3037,2.3635],[14.1089,66.3005,0.0],[14.112,66.2984,99.6319],[14.1042,66.2958,232.8108],[14.0917,66.2958,0.0],[14.075,66.2896,8.0738],[14.0479,66.2896,1.2257],[14.0422,66.2849,0.0],[14.0411,66.2818,0.0],[14.0359,66.2807,0.0],[14.0328,66.2776,2.8682],[14.0146,66.2729,16.9716],[14.0083,66.275,0.0],[13.9979,66.275,0.0],[13.9938,66.2729,38.5679],[13.9813,66.2729,0.0],[13.9766,66.2693,0.0],[13.9714,66.2682,0.0],[13.9688,66.2625,0.0],[13.9703,66.2589,0.0],[13.9651,66.2578,0.0],[13.9646,66.2562,0.0],[13.9667,66.2542,0.0],[13.9813,66.2521,8.1254],[13.9828,66.2505,0.0],[13.975,66.2479,76.2895],[13.9563,66.2479,0.0],[13.951599999999999,66.2422,10.1847],[13.9438,66.2417,0.0],[13.925,66.2354,36.8922],[13.9146,66.2354,0.0],[13.9104,66.2375,0.0],[13.9042,66.2375,0.0],[13.8938,66.2333,12.9768],[13.8875,66.2333,4.5701],[13.8833,66.2312,11.587],[13.8708,66.2312,0.0],[13.8708,66.2286,55.8695],[13.8819,66.229,48.4355],[13.8862,66.2111,406.544],[13.8972,66.2115,375.6069],[13.8994,66.2026,597.6484],[13.9104,66.203,598.8638],[13.9115,66.1985,729.3835],[13.9336,66.1994,692.4282],[13.9347,66.1949,810.6407],[13.9458,66.1953,790.8823],[13.9468,66.1908,843.9366],[13.9579,66.1912,821.0031],[13.959,66.1868,797.2755],[14.0032,66.1884,770.7083],[14.0022,66.1929,872.5234],[14.0796,66.1958,789.9399],[14.0786,66.2002,835.9832],[14.0897,66.2007,891.5342],[14.1229,66.2019,893.8641],[14.1239,66.1974,870.0882],[14.1682,66.199,771.9083],[14.1692,66.1945,678.6356],[14.1913,66.1953,677.4979],[14.1934,66.1864,678.4282],[14.2044,66.1868,765.4556],[14.2055,66.1823,767.237],[14.2165,66.1827,851.829],[14.2175,66.1782,793.1831],[14.2286,66.1786,916.9666],[14.2296,66.1741,878.6909],[14.2407,66.1745,962.5909],[14.2417,66.1701,874.9329],[14.2527,66.1705,1036.0278],[14.2537,66.166,898.3351],[14.2648,66.1664,911.7132],[14.2688,66.1485,553.7987],[14.2578,66.1481,586.2177],[14.2618,66.1302,550.8137],[14.2728,66.1305,543.4932],[14.2748,66.1216,679.6743],[14.2859,66.122,739.8776],[14.2879,66.113,992.3445],[14.2989,66.1134,1012.3253],[14.2999,66.1089,1069.251],[14.333,66.1101,821.5472],[14.334,66.1056,742.3565],[14.3561,66.1064,795.8939],[14.3571,66.1019,915.0205],[14.3791,66.1027,1216.5105],[14.3801,66.0982,1237.8582],[14.4022,66.099,1119.2764],[14.4031,66.0945,1023.5745],[14.4473,66.0961,1090.8177],[14.4482,66.0916,1007.543],[14.5254,66.0942,653.9438],[14.5168,66.1346,610.7523],[15.0364,66.1515,627.311],[15.0355,66.156,631.5029],[15.0576,66.1567,687.3297],[15.0568,66.1612,645.4124],[15.0678,66.1615,692.5048],[15.067,66.166,637.548],[15.0891,66.1667,778.8159],[15.0882,66.1711,654.4887],[15.1104,66.1718,720.0439],[15.1095,66.1763,740.178],[15.1206,66.1766,839.3914],[15.1197,66.1811,940.4146],[15.1419,66.1818,899.0817],[15.141,66.1863,724.6955],[15.1632,66.187,762.7466],[15.1623,66.1914,771.8497],[15.1734,66.1918,765.9921],[15.1726,66.1963,829.6235],[15.1947,66.1969,874.1307],[15.1939,66.2014,896.3992],[15.2161,66.2021,848.7553],[15.2152,66.2066,892.6266],[15.2263,66.2069,899.2457],[15.2255,66.2114,927.3298],[15.2477,66.212,870.6431],[15.2468,66.2165,773.3035],[15.2579,66.2168,735.5232],[15.2571,66.2213,738.4449],[15.2793,66.222,695.9016],[15.2784,66.2265,692.8747],[15.3006,66.2271,709.1998],[15.2998,66.2316,707.5908],[15.3109,66.2319,706.2824],[15.3101,66.2364,708.2371],[15.3323,66.237,717.1063],[15.3315,66.2415,732.1181],[15.3537,66.2422,836.2029],[15.3528,66.2467,782.9506],[15.364,66.247,784.5834],[15.3631,66.2515,763.8234],[15.3853,66.2521,767.4618],[15.3845,66.2566,770.1001],[15.4068,66.2572,756.3169],[15.406,66.2617,758.7021],[15.4171,66.262,761.181],[15.4163,66.2665,771.9682],[15.4385,66.2671,755.2248],[15.4377,66.2716,742.7418],[15.4599,66.2723,764.15],[15.4591,66.2767,753.1437],[15.4702,66.2771,736.0278],[15.4694,66.2815,709.6149],[15.4806,66.2819,672.2051],[15.4742,66.3177,742.5498],[15.463,66.3174,691.7319],[15.4566,66.3533,1048.6168],[15.4455,66.353,1017.712],[15.4398,66.3844,1071.5961],[15.4286,66.3841,1077.4313],[15.423,66.4155,926.2446],[15.4118,66.4152,907.7502],[15.4061,66.4466,899.6281],[15.3949,66.4463,876.0757],[15.39,66.4732,1026.2161],[15.3788,66.4729,1022.3499],[15.3763,66.4863,1185.2257],[15.3875,66.4866,1164.5776],[15.3867,66.4911,976.8781],[15.3979,66.4915,899.2278],[15.3971,66.4959,850.4253],[15.4083,66.4963,833.3885],[15.4075,66.5007,825.713],[15.4187,66.5011,830.9],[15.4179,66.5055,892.18],[15.4291,66.5059,912.4858],[15.4283,66.5103,956.5285],[15.4395,66.5107,994.1727],[15.4387,66.5152,955.9254],[15.4499,66.5155,936.3541],[15.4491,66.52,880.7701],[15.4603,66.5203,857.965],[15.4595,66.5247,860.9756],[15.4708,66.5251,874.2891],[15.4699,66.5295,912.1726],[15.4812,66.5299,953.329],[15.4804,66.5343,980.0014],[15.4916,66.5347,1019.2216],[15.4908,66.5391,1058.2211],[15.502,66.5395,1091.1172],[15.5012,66.5439,1121.1421],[15.5125,66.5443,1168.309],[15.5117,66.5487,1224.2152],[15.5229,66.5491,1242.21],[15.5221,66.5535,1247.1423],[15.4996,66.5529,1143.6532],[15.4988,66.5574,1152.9681],[15.4651,66.5565,1080.6895],[15.4643,66.561,1096.6923],[15.4418,66.5603,1029.2322],[15.441,66.5648,1042.9773],[15.4072,66.5639,903.1685],[15.4064,66.5684,904.6247],[15.3614,66.5671,733.8978],[15.3606,66.5716,715.0479],[15.3043,66.57,784.931],[15.3035,66.5744,807.3449],[15.2473,66.5728,1204.847],[15.2464,66.5773,1098.8693],[15.2352,66.577,1243.6552],[15.2343,66.5815,1194.0286],[15.223,66.5811,1387.2623],[15.2222,66.5856,1424.9858],[15.2109,66.5853,1450.3882],[15.2101,66.5898,1272.2214],[15.2213,66.5901,1250.0676],[15.2179,66.608,1304.7933],[15.2292,66.6084,1109.0023],[15.2266,66.6218,1205.755],[15.2153,66.6215,1307.9969],[15.2136,66.6305,1167.8444],[15.2024,66.6301,1233.6353],[15.2015,66.6346,1241.8887],[15.1902,66.6343,1220.6462],[15.1894,66.6388,1212.759],[15.1781,66.6384,1198.1588],[15.1772,66.6429,1175.7534],[15.1659,66.6426,1303.0221],[15.1546,66.7009,1078.252],[15.1659,66.7012,1065.5463],[15.1651,66.7057,1194.887],[15.1764,66.7061,1116.7982],[15.1746,66.715,967.549],[15.186,66.7154,989.1412],[15.1851,66.7198,1046.7158],[15.1964,66.7202,1119.6656],[15.1938,66.7336,1150.217],[15.2051,66.734,1137.3571],[15.2025,66.7474,1206.3424],[15.1912,66.7471,1177.0292],[15.1877,66.765,1151.5562],[15.1764,66.7647,1190.0063],[15.1729,66.7826,1135.1257],[15.1616,66.7823,1178.1923],[15.1607,66.7868,1096.0925],[15.0586,66.7838,915.8867],[15.0595,66.7793,1006.6484],[15.0141,66.7779,693.6588],[15.015,66.7734,680.4794],[14.981,66.7724,1019.5908],[14.9901,66.7275,694.4632],[15.0014,66.7279,675.062],[15.0086,66.692,766.7507],[14.9973,66.6916,1132.8201],[15.0018,66.6692,1197.3214],[14.934,66.6671,1015.2436],[14.935,66.6627,965.8324],[14.9124,66.662,1192.699],[14.9133,66.6575,1165.6245],[14.902,66.6571,1193.8558],[14.9029,66.6526,1116.4508],[14.8804,66.6519,1397.2227],[14.8795,66.6564,1348.2488],[14.8682,66.6561,1202.4791],[14.8672,66.6605,1171.0565],[14.856,66.6602,1112.5356],[14.855,66.6647,1088.2554],[14.8325,66.664,1049.8292],[14.8334,66.6595,1007.5064],[14.8108,66.6588,974.0344],[14.8118,66.6543,953.7507],[14.7892,66.6536,1045.0107],[14.7901,66.6491,1100.0507],[14.7676,66.6484,1090.0366],[14.7685,66.6439,1074.1222],[14.7573,66.6435,1075.2654],[14.7525,66.6659,1085.5237],[14.7413,66.6656,1012.2356],[14.7394,66.6745,935.9542],[14.7281,66.6742,890.0551],[14.7186,66.719,1086.8234],[14.7299,66.7194,1097.0842],[14.7233,66.7507,1315.2689],[14.7006,66.75,1301.1593],[14.7016,66.7455,1252.0278],[14.6789,66.7448,1270.4548],[14.6799,66.7403,1127.9741],[14.6572,66.7396,1231.1028],[14.6582,66.7351,1181.3481],[14.6356,66.7344,1147.9149],[14.6365,66.7299,1106.7157],[14.6139,66.7291,1412.3282],[14.6197,66.7022,942.4678],[14.5971,66.7015,876.6888],[14.5981,66.697,930.5175],[14.5642,66.6959,1257.8984],[14.5652,66.6914,1233.5973],[14.5426,66.6907,1074.7145],[14.5436,66.6862,1058.3656],[14.4984,66.6847,1168.1528],[14.4994,66.6802,1157.308],[14.4769,66.6794,949.8538],[14.4778,66.6749,1116.327],[14.4553,66.6742,774.0578],[14.4563,66.6697,799.3508],[14.4224,66.6685,980.6231],[14.4214,66.673,1031.9963],[14.4101,66.6726,1027.5443],[14.4091,66.6771,1184.524],[14.3979,66.6767,1095.6562],[14.3948,66.6902,1079.0948]]]]}
,"properties": {"GID_2": "NOR.10.28_1","GID_0": "NOR","country": "Norway","GID_1": "NOR.10_1","province": "Nordland","NL_NAME_1": "NA","county": "Rana","VARNAME_2": "NA","NL_NAME_2": "NA","TYPE_2": "Kommuner","ENGTYPE_2": "Municipality","CC_2": "NA","HASC_2": "NO.NO.RA","name": "Rana.county","area_km2": 4413.139,"hist_schema_id": "Elevation0-9000","hist_area_km2": {"0": 23.987,"25": 29.122,"50": 81.409,"75": 51.185,"100": 53.721,"125": 55.063,"150": 49.268,"175": 49.544,"200": 56.6,"225": 56.187,"250": 62.819,"275": 73.367,"300": 79.283,"325": 76.5,"350": 77.222,"375": 80.404,"400": 79.996,"425": 83.423,"450": 85.03,"475": 89.576,"500": 99.593,"525": 161.176,"550": 113.557,"575": 111.768,"600": 116.375,"625": 128.25,"650": 148.674,"675": 145.834,"700": 145.326,"725": 131.121,"750": 130.869,"775": 136.28,"800": 123.808,"825": 113.041,"850": 112.719,"875": 105.69,"900": 102.438,"925": 99.647,"950": 97.946,"975": 90.878,"1000": 85.196,"1025": 79.516,"1050": 73.212,"1075": 65.363,"1100": 58.552,"1125": 54.327,"1150": 47.456,"1175": 40.307,"1200": 40.273,"1225": 36.034,"1250": 33.65,"1275": 28.614,"1300": 22.3,"1325": 16.425,"1350": 8.286,"1375": 6.152,"1400": 3.951,"1425": 2.908,"1450": 1.19,"1475": 0.438,"1500": 0.219,"1525": 0.059}}}