{"type": "Feature","bbox": [10.343,59.8488,10.6464,60.0342],"geometry": {"type": "MultiPolygon","coordinates": [[[[10.5842,59.856,0.0],[10.5836,59.8571,0.0],[10.5797,59.8563,0.0],[10.5842,59.854,2.6645],[10.5769,59.851,0.0],[10.5769,59.8488,0.0],[10.5864,59.8501,0.0],[10.5892,59.8532,5.3519],[10.5942,59.8549,0.1412],[10.5925,59.8563,0.0],[10.5869,59.8549,6.0546],[10.5842,59.856,0.0]]],
[[[10.6236,59.8737,0.0],[10.6231,59.8763,0.455],[10.6192,59.8754,1.1781],[10.6208,59.8735,0.0],[10.6236,59.8737,0.0]]],
[[[10.6464,59.9116,0.0],[10.6458,59.9115,0.0],[10.6425,59.9113,0.3863],[10.6453,59.9107,0.0],[10.6464,59.9116,0.0]]],
[[[10.5875,59.8807,0.0],[10.5786,59.879,0.0],[10.5808,59.8774,3.0762],[10.5869,59.8774,1.9891],[10.5864,59.8724,13.7972],[10.5736,59.8768,4.1108],[10.5592,59.874,0.0],[10.5547,59.869,0.0],[10.5569,59.8685,0.0],[10.5597,59.8638,23.9104],[10.5697,59.8615,11.1778],[10.5642,59.859,1.3975],[10.5653,59.8576,0.7411],[10.5825,59.8607,0.3861],[10.5836,59.8632,3.7768],[10.5931,59.8662,0.0],[10.5931,59.8676,0.351],[10.5847,59.8662,2.6656],[10.5864,59.8707,4.5602],[10.5958,59.8726,3.6043],[10.5992,59.8749,0.0],[10.5981,59.8776,1.9091],[10.5875,59.8782,1.9891],[10.5875,59.8807,0.0]]],
[[[10.5619,59.8818,0.0],[10.5581,59.8829,1.0875],[10.5453,59.8771,0.0],[10.5553,59.876,3.7718],[10.5647,59.8782,0.0],[10.5653,59.8799,0.0],[10.5619,59.8818,0.0]]],
[[[10.5147,59.8749,31.624],[10.5297,59.876,1.0935],[10.5292,59.8774,1.0111],[10.5314,59.879,2.8717],[10.5292,59.8793,2.8717],[10.5331,59.8807,1.853],[10.5264,59.8818,7.3834],[10.5258,59.8799,16.892],[10.5075,59.8757,0.0],[10.5042,59.8757,0.0],[10.5042,59.8768,0.0],[10.5175,59.8799,0.0],[10.5197,59.8815,7.7798],[10.5192,59.8846,14.1768],[10.5269,59.8851,0.0],[10.5286,59.8865,0.1526],[10.5269,59.8876,1.4644],[10.5353,59.8857,1.2396],[10.5342,59.8835,0.0],[10.5364,59.8815,0.0],[10.5403,59.8812,0.0],[10.5453,59.884,1.0148],[10.5458,59.8865,2.641],[10.5436,59.8874,0.0],[10.5369,59.886,4.3148],[10.5331,59.8868,0.0],[10.5308,59.8896,0.0],[10.5331,59.891,8.1863],[10.5531,59.8913,0.0],[10.5508,59.889,0.0],[10.5519,59.8871,8.4828],[10.5697,59.8876,1.4804],[10.5792,59.8926,7.9908],[10.5853,59.8932,0.0],[10.5953,59.8993,7.7728],[10.6114,59.904,24.4362],[10.6147,59.9032,6.1928],[10.6058,59.8985,7.0134],[10.5925,59.8943,2.2288],[10.5919,59.8932,0.0],[10.5947,59.8926,4.7236],[10.6025,59.8937,1.5047],[10.5914,59.8879,0.0],[10.6014,59.8871,2.4574],[10.6114,59.8907,5.6255],[10.6136,59.8907,5.0363],[10.6136,59.8887,6.085],[10.5975,59.884,1.3102],[10.5947,59.8804,0.0],[10.6003,59.8807,1.9701],[10.6008,59.8765,0.0],[10.6031,59.874,6.3497],[10.6103,59.8751,0.0],[10.6092,59.8768,0.496],[10.6153,59.8763,0.875],[10.6258,59.8785,0.0],[10.6264,59.8818,3.2022],[10.6308,59.8832,0.0],[10.6264,59.8835,2.1607],[10.6158,59.8799,6.8478],[10.6136,59.8807,9.6758],[10.6186,59.884,3.8988],[10.6253,59.884,4.4894],[10.6353,59.8876,0.0],[10.6342,59.8893,0.0],[10.6364,59.8921,0.0],[10.6286,59.8935,8.5254],[10.6331,59.8971,4.1246],[10.6303,59.8979,8.9576],[10.6331,59.8985,4.1246],[10.6314,59.9015,4.9025],[10.6375,59.9032,6.2278],[10.6408,59.9051,0.48],[10.6381,59.9065,8.5896],[10.6447,59.9087,0.0],[10.6419,59.9101,1.0418],[10.6425,59.9113,0.3863],[10.6402,59.9111,6.5787],[10.6376,59.92,42.2277],[10.6288,59.9194,42.7255],[10.625,59.9327,99.959],[10.6338,59.9334,78.413],[10.6237,59.9689,144.4264],[10.6148,59.9683,164.0744],[10.6135,59.9727,144.1234],[10.6047,59.9721,178.3739],[10.6034,59.9765,151.2766],[10.5945,59.9759,177.4068],[10.5932,59.9803,198.2597],[10.5843,59.9797,258.6479],[10.583,59.9841,300.0616],[10.5653,59.9828,393.5036],[10.564,59.9873,354.0382],[10.5551,59.9866,386.7489],[10.5525,59.9955,351.2827],[10.5436,59.9949,352.8312],[10.5424,59.9993,357.2109],[10.5335,59.9987,369.8132],[10.5322,60.0031,367.4418],[10.5233,60.0025,372.4211],[10.522,60.0069,361.3658],[10.5131,60.0063,270.1997],[10.5118,60.0107,325.865],[10.5029,60.0101,419.2847],[10.5016,60.0145,448.3433],[10.4927,60.0139,454.6538],[10.4889,60.0272,531.9407],[10.4799,60.0266,542.6188],[10.4787,60.031,533.5098],[10.4608,60.0297,439.91],[10.4596,60.0342,436.1229],[10.4328,60.0322,397.4465],[10.4354,60.0233,335.9698],[10.4265,60.0227,363.2176],[10.4278,60.0183,378.4091],[10.4189,60.0176,376.7417],[10.4202,60.0132,376.6689],[10.4113,60.0125,318.4908],[10.4126,60.0081,264.0318],[10.4037,60.0074,233.0285],[10.4102,59.9852,302.3138],[10.4013,59.9846,341.7147],[10.4026,59.9801,335.9796],[10.3759,59.9782,371.2465],[10.3772,59.9737,345.0731],[10.3506,59.9718,375.2531],[10.3519,59.9673,388.2294],[10.343,59.9667,354.4017],[10.3508,59.9401,374.372],[10.3597,59.9407,389.8115],[10.3636,59.9274,342.0223],[10.3725,59.928,397.5266],[10.3751,59.9192,402.959],[10.3662,59.9185,388.2317],[10.3675,59.9141,412.4837],[10.3586,59.9134,397.4829],[10.3599,59.909,359.8668],[10.3688,59.9096,404.2568],[10.3714,59.9007,379.9456],[10.3803,59.9014,317.6293],[10.3829,59.8925,308.9422],[10.3917,59.8932,310.317],[10.3956,59.8798,290.7098],[10.4045,59.8805,277.0127],[10.4058,59.8761,277.5254],[10.4501,59.8793,142.6657],[10.4514,59.8749,196.3144],[10.4957,59.8781,50.7075],[10.497,59.8736,14.3251],[10.5147,59.8749,31.624]]]]}
,"properties": {"GID_2": "NOR.1.4_1","GID_0": "NOR","country": "Norway","GID_1": "NOR.1_1","province": "Akershus","NL_NAME_1": "NA","county": "Bærum","VARNAME_2": "NA","NL_NAME_2": "NA","TYPE_2": "Kommuner","ENGTYPE_2": "Municipality","CC_2": "NA","HASC_2": "NO.AK.BA","name": "Bærum.county","area_km2": 198.887,"hist_schema_id": "Elevation0-9000","hist_area_km2": {"0": 7.755,"25": 12.8254,"50": 11.4395,"75": 9.6826,"100": 11.9546,"125": 12.6012,"150": 12.8299,"175": 9.8554,"200": 9.3002,"225": 10.5933,"250": 8.853,"275": 10.3295,"300": 10.9972,"325": 13.7665,"350": 12.4485,"375": 12.3326,"400": 10.6339,"425": 5.9622,"450": 2.8936,"475": 0.7099,"500": 0.392,"525": 0.3814,"550": 0.3496}}}