{"type":"Feature","properties":{"GID_1":"NOR.16_1","GID_0":"NOR","country":"Norway","province":"Telemark","VARNAME_1":"Telemarkfylke|Bratsberg|Þelamör","NL_NAME_1":"NA","TYPE_1":"Fylke","ENGTYPE_1":"County","CC_1":"NA","HASC_1":"NO.TE","ISO_1":"NA","name":"Telemark.province"},
"geometry":{"type": "MultiPolygon","coordinates": [[[[9.6147,58.8879,0.1868],[9.6114,58.8882,0.0],[9.6119,58.886,0.0],[9.6075,58.8829,0.0],[9.6075,58.881,3.0037],[9.6025,58.879,0.0],[9.5992,58.8763,0.0],[9.5975,58.8721,4.5666],[9.5919,58.8696,0.0],[9.5925,58.8668,3.417],[9.5886,58.8665,0.0],[9.5897,58.864,0.0],[9.5703,58.8585,1.1518],[9.5692,58.8568,0.0],[9.5736,58.8551,0.0],[9.5747,58.8515,4.679],[9.5703,58.8513,0.0],[9.5703,58.8493,1.2955],[9.5658,58.844,0.5816],[9.5586,58.8416,0.5017],[9.5525,58.8368,0.6953],[9.5442,58.8332,0.0],[9.5514,58.8343,0.0],[9.5708,58.8424,0.6897],[9.5719,58.8443,0.4177],[9.5864,58.8524,0.0],[9.5897,58.8568,3.4483],[9.5992,58.8621,4.8391],[9.6036,58.8682,2.8477],[9.6092,58.8679,0.0],[9.6114,58.8704,0.0],[9.6103,58.8726,0.0],[9.6131,58.8729,0.0],[9.6103,58.8771,0.8075],[9.6169,58.8851,0.0],[9.6147,58.8879,0.1868]]],
[[[9.6664,58.9063,0.0],[9.6669,58.9087,0.0],[9.6597,58.906,0.0],[9.6542,58.9063,0.7155],[9.6508,58.9026,0.9002],[9.6386,58.9038,0.0],[9.6397,58.899,1.1609],[9.6381,58.896,0.0],[9.6425,58.8954,0.2069],[9.6425,58.8929,0.0],[9.6453,58.8929,0.9788],[9.6453,58.891,0.0736],[9.6475,58.8904,0.0],[9.6475,58.8929,0.9788],[9.6564,58.8943,0.0],[9.6542,58.8971,0.0],[9.6486,58.8976,1.7302],[9.6581,58.9021,0.0],[9.6586,58.9057,0.0],[9.6614,58.9049,0.0],[9.6664,58.9063,0.0]]],
[[[9.6075,58.9099,0.0],[9.6086,58.9121,0.0],[9.6075,58.9124,0.0],[9.5969,58.9107,0.0],[9.5975,58.9082,2.1703],[9.5958,58.9068,0.0],[9.5969,58.906,6.5084],[9.5919,58.9051,0.0],[9.5853,58.9001,22.7111],[9.5736,58.9004,0.0],[9.5725,58.8979,12.9167],[9.5681,58.8968,0.0],[9.5686,58.8937,0.5229],[9.5731,58.8937,0.0],[9.5753,58.891,0.0],[9.5847,58.8913,0.0],[9.5869,58.8896,0.0],[9.5969,58.8915,0.0],[9.5969,58.8929,0.0],[9.5892,58.8946,1.1921],[9.5931,58.896,0.0],[9.5919,58.8976,0.0],[9.5892,58.8976,9.7971],[9.5908,58.901,3.5445],[9.5958,58.9012,0.0],[9.5964,58.904,0.0],[9.6003,58.9051,0.0],[9.6014,58.9071,1.8327],[9.6047,58.9071,0.0],[9.6075,58.9099,0.0]]],
[[[9.5808,58.9065,3.3729],[9.5775,58.9074,0.0],[9.5747,58.9038,3.3302],[9.5786,58.9035,0.0],[9.5808,58.9046,2.2775],[9.5808,58.9065,3.3729]]],
[[[9.6403,58.9157,0.0],[9.6414,58.9162,0.0],[9.6358,58.9154,0.0],[9.6347,58.9138,0.0],[9.6375,58.9135,0.0],[9.6403,58.9157,0.0]]],
[[[9.6336,58.9235,0.0],[9.6303,58.9243,0.0],[9.6286,58.9229,0.0],[9.6297,58.9212,0.0],[9.6264,58.9215,0.0],[9.6214,58.9176,0.1839],[9.6125,58.9143,0.0],[9.6158,58.9138,0.0],[9.6225,58.9162,0.0],[9.6253,58.9188,0.6631],[9.6281,58.9188,0.0],[9.6281,58.9201,0.0],[9.6308,58.9201,0.0],[9.6336,58.9235,0.0]]],
[[[9.6947,58.9207,1.5996],[9.6936,58.9232,0.0],[9.6875,58.9199,0.0],[9.6908,58.919,0.0],[9.6947,58.9207,1.5996]]],
[[[9.6175,58.9218,0.0],[9.6186,58.9221,0.0],[9.6153,58.9238,0.0],[9.6103,58.9218,4.3017],[9.6092,58.9196,5.7745],[9.6136,58.919,2.1974],[9.6175,58.9218,0.0]]],
[[[9.5592,58.9257,0.0],[9.5525,58.9265,12.3685],[9.5514,58.924,6.811],[9.5547,58.9235,0.0],[9.5542,58.9215,0.0],[9.5603,58.9193,0.0],[9.5769,58.9196,2.0542],[9.5742,58.924,0.0],[9.5625,58.9243,6.5381],[9.5592,58.9257,0.0]]],
[[[9.6925,58.9251,0.0],[9.6936,58.9257,0.0],[9.6892,58.9254,1.5705],[9.6875,58.9229,0.0],[9.6892,58.9224,0.0],[9.6925,58.9251,0.0]]],
[[[9.6397,58.9249,0.0],[9.6392,58.9265,0.8093],[9.6347,58.9254,0.0],[9.6358,58.9235,0.0],[9.6397,58.9249,0.0]]],
[[[9.6475,58.9499,8.6476],[9.6481,58.9512,0.0],[9.6425,58.9504,9.7785],[9.6414,58.9479,1.8337],[9.6375,58.9468,1.5644],[9.6403,58.9429,0.0],[9.6353,58.9443,0.0],[9.6319,58.9429,0.3724],[9.6308,58.9404,0.0],[9.6347,58.9404,0.0],[9.6381,58.9374,0.0],[9.6492,58.941,3.5655],[9.6531,58.9449,0.0],[9.6514,58.9463,0.0],[9.6464,58.9451,1.1095],[9.6503,58.9468,0.0],[9.6492,58.9485,3.834],[9.6464,58.9479,3.4521],[9.6475,58.9499,8.6476]]],
[[[9.6597,58.9529,10.6642],[9.6608,58.9538,0.0],[9.6564,58.9538,0.0],[9.6536,58.9507,0.0],[9.6597,58.9512,0.0],[9.6597,58.9529,10.6642]]],
[[[9.6936,58.9607,4.7283],[9.6947,58.9607,4.7283],[9.6947,58.9632,4.7701],[9.6936,58.9643,1.5256],[9.6869,58.9635,1.3937],[9.6892,58.9599,0.0],[9.6936,58.9607,4.7283]]],
[[[9.6786,58.9643,0.0],[9.6703,58.9654,0.0],[9.6681,58.9632,0.0],[9.6786,58.9607,0.0],[9.6797,58.9635,0.0],[9.6786,58.9643,0.0]]],
[[[9.7131,58.9715,0.0],[9.7103,58.9726,0.0],[9.7042,58.9712,0.0],[9.7025,58.9663,0.3617],[9.7092,58.9635,0.0],[9.7147,58.9651,0.0],[9.7097,58.9679,0.7965],[9.7136,58.9701,0.0],[9.7131,58.9715,0.0]]],
[[[9.4614,58.8201,0.0],[9.4575,58.8215,0.9653],[9.4531,58.8187,0.0],[9.4586,58.8182,0.0],[9.4625,58.8193,0.0],[9.4614,58.8201,0.0]]],
[[[9.4992,58.8346,0.0],[9.4897,58.8354,1.1057],[9.4858,58.8343,0.0],[9.4853,58.8324,0.0],[9.4936,58.829,0.601],[9.4925,58.8268,0.0],[9.4986,58.8271,0.0],[9.5008,58.8304,0.2124],[9.5042,58.8304,0.0],[9.5019,58.8318,0.0],[9.5031,58.8335,0.0],[9.4992,58.8346,0.0]]],
[[[9.5208,58.8357,0.0],[9.5175,58.8371,0.0],[9.5153,58.8343,0.0],[9.5219,58.8326,0.0],[9.5208,58.8357,0.0]]],
[[[9.4831,58.8382,0.0],[9.4758,58.8387,0.0],[9.4808,58.8349,0.0],[9.4831,58.8354,0.0],[9.4831,58.8382,0.0]]],
[[[9.5081,58.841,0.0],[9.5092,58.8415,0.0],[9.5064,58.841,0.0],[9.5058,58.8393,0.0],[9.5142,58.839,0.0],[9.5136,58.8399,0.0],[9.5081,58.841,0.0]]],
[[[9.4853,58.8513,1.3344],[9.4819,58.8521,0.0],[9.4814,58.8507,3.1428],[9.4886,58.8485,0.0],[9.4936,58.8493,0.739],[9.4947,58.8479,0.0],[9.4969,58.8493,0.739],[9.4942,58.8513,0.0],[9.4853,58.8513,1.3344]]],
[[[9.3919,58.8604,0.0],[9.3908,58.8618,0.0],[9.3758,58.8613,1.7945],[9.3758,58.8596,0.0],[9.3875,58.8585,34.5884],[9.3731,58.8596,0.0],[9.3697,58.8554,11.8752],[9.3658,58.8537,0.0],[9.3736,58.8524,3.1506],[9.3842,58.8529,0.0],[9.4131,58.8582,0.0],[9.3969,58.8596,0.0],[9.3881,58.8587,34.5884],[9.3919,58.8604,0.0]]],
[[[9.5519,58.8576,0.0],[9.5464,58.8585,0.0],[9.5458,58.8565,0.0],[9.5542,58.8568,0.0],[9.5519,58.8576,0.0]]],
[[[9.4614,58.8832,15.9929],[9.4519,58.884,0.0],[9.4492,58.8807,0.0],[9.4408,58.8815,0.0],[9.4419,58.8782,0.0],[9.4386,58.874,0.0],[9.4408,58.8729,0.0],[9.4397,58.8704,0.0],[9.4408,58.8696,0.5683],[9.4386,58.869,0.0],[9.4381,58.8671,0.0],[9.4414,58.8654,0.0],[9.4331,58.864,0.0],[9.4331,58.8629,0.0],[9.4419,58.8646,0.0],[9.4492,58.8679,2.0844],[9.4681,58.8671,4.7591],[9.4692,58.8685,0.0],[9.4769,58.8685,0.0],[9.4797,58.8668,1.2941],[9.4764,58.8662,0.0],[9.4792,58.8651,0.5463],[9.4803,58.8621,1.3205],[9.4831,58.8615,7.1184],[9.4631,58.8629,0.0],[9.4419,58.8618,0.4933],[9.4347,58.8601,0.0],[9.4336,58.8574,0.0],[9.4403,58.8554,0.0],[9.4397,58.8579,1.6107],[9.4431,58.8579,0.836],[9.4481,58.8557,0.0],[9.4486,58.8518,0.0],[9.4525,58.8513,5.5376],[9.4581,58.846,0.0],[9.4753,58.8429,1.3383],[9.4769,58.8421,1.3383],[9.4769,58.8401,0.0],[9.4792,58.8396,0.0],[9.4914,58.841,0.0],[9.4875,58.8429,0.0],[9.4886,58.8446,0.0],[9.4786,58.8462,0.0],[9.4758,58.8493,0.0],[9.4708,58.851,0.0],[9.4714,58.8532,3.6104],[9.4758,58.8532,0.0],[9.4758,58.8546,0.0],[9.4892,58.8526,0.0],[9.5103,58.854,4.7677],[9.5114,58.8524,0.7706],[9.5025,58.8518,0.959],[9.5036,58.8485,0.6532],[9.5003,58.8457,0.0],[9.5097,58.8435,0.0],[9.5081,58.8421,0.0],[9.5158,58.8418,0.0],[9.5197,58.8382,0.0],[9.5286,58.8382,0.0],[9.5314,58.8415,0.0],[9.5297,58.8426,0.0],[9.5303,58.8443,0.0],[9.5203,58.8421,0.0],[9.5175,58.8443,0.0],[9.5236,58.8465,0.0],[9.5336,58.846,0.0],[9.5342,58.8476,0.7661],[9.5419,58.8485,0.0],[9.5403,58.8504,0.0],[9.5331,58.8504,0.7766],[9.5375,58.8526,0.0],[9.5297,58.8526,0.0],[9.5286,58.854,2.4217],[9.5408,58.8563,0.0],[9.5408,58.8579,0.8752],[9.5369,58.8582,3.0791],[9.5353,58.8599,0.0],[9.5436,58.8635,0.0],[9.5481,58.8618,0.0],[9.5569,58.8629,0.0],[9.5514,58.8668,1.1069],[9.5592,58.8693,0.9717],[9.5564,58.871,0.0],[9.5442,58.8654,0.0],[9.5347,58.8651,2.4409],[9.5181,58.861,0.0],[9.5153,58.8624,0.0],[9.5153,58.8643,3.4643],[9.5225,58.8643,0.0],[9.5258,58.866,0.0],[9.5253,58.871,0.0],[9.5186,58.8721,2.5477],[9.5231,58.8729,0.0],[9.5231,58.8743,0.0],[9.5125,58.8746,0.7939],[9.5136,58.8765,0.0],[9.5103,58.8788,0.0],[9.5064,58.8726,0.0],[9.5075,58.871,0.0],[9.5058,58.8701,6.7024],[9.5008,58.8693,3.9925],[9.4981,58.871,0.0],[9.4858,58.869,2.0161],[9.4903,58.8732,0.0],[9.4825,58.874,0.0],[9.4792,58.8729,8.6003],[9.4803,58.8751,0.0],[9.4753,58.8782,0.0],[9.4614,58.8832,15.9929]]],
[[[9.4086,58.8615,5.4674],[9.4003,58.8624,0.0],[9.3997,58.8604,0.0],[9.4103,58.8599,0.0],[9.4086,58.8615,5.4674]]],
[[[9.1769,58.8389,175.4026],[9.1853,58.8123,107.1332],[9.1939,58.8131,81.8024],[9.1967,58.8042,132.5455],[9.2052,58.8049,95.7428],[9.2066,58.8005,121.8981],[9.2152,58.8012,99.0506],[9.2166,58.7968,107.0884],[9.2337,58.7983,126.65],[9.2351,58.7938,133.1054],[9.2608,58.796,130.5132],[9.2622,58.7916,125.9337],[9.2793,58.793,109.6576],[9.2807,58.7886,80.0951],[9.2893,58.7893,98.1232],[9.2934,58.776,75.5182],[9.302,58.7768,65.7823],[9.3034,58.7723,22.9733],[9.3205,58.7738,12.4867],[9.3191,58.7782,8.3439],[9.3448,58.7804,41.5213],[9.3462,58.7759,27.4016],[9.3548,58.7766,29.3424],[9.3561,58.7722,22.2966],[9.3647,58.7729,9.7931],[9.366,58.7688,0.2859],[9.3627,58.7637,0.0],[9.3664,58.764,0.1746],[9.3647,58.7663,0.0],[9.3719,58.7696,0.2196],[9.3742,58.7726,0.0],[9.3792,58.7713,0.0],[9.3825,58.7729,0.0],[9.3842,58.7793,0.0],[9.3886,58.7801,0.0],[9.3875,58.7824,0.0],[9.3903,58.7837,0.0],[9.3992,58.7837,0.0],[9.3992,58.7868,0.0],[9.4058,58.7868,0.0],[9.4064,58.7882,0.0],[9.4008,58.7888,1.9365],[9.4086,58.7899,0.0],[9.4081,58.7924,0.3945],[9.4125,58.7932,0.0],[9.4119,58.7946,0.0],[9.4153,58.7946,0.0],[9.4147,58.7924,0.0],[9.4203,58.7929,0.0],[9.4214,58.7946,0.0],[9.4203,58.7951,0.0],[9.4219,58.7954,0.0],[9.4214,58.7974,0.2872],[9.4247,58.7979,0.0],[9.4247,58.7999,0.0],[9.4281,58.7999,0.0],[9.4264,58.7976,0.0],[9.4275,58.7954,0.0],[9.4297,58.7954,0.0],[9.4319,58.7976,0.0],[9.4297,58.7993,0.0],[9.4314,58.8007,1.6945],[9.4469,58.8037,0.0],[9.4475,58.8054,0.0],[9.4436,58.8054,0.0],[9.4436,58.8068,0.0],[9.4542,58.8079,0.0],[9.4542,58.8093,0.6814],[9.4464,58.8093,0.0],[9.4469,58.8112,0.0],[9.4436,58.8112,0.0],[9.4431,58.8093,0.754],[9.4408,58.809,0.0],[9.4319,58.8121,0.0],[9.4186,58.8085,0.0],[9.4164,58.8063,0.0],[9.4186,58.8046,8.4787],[9.4047,58.8024,1.1209],[9.4036,58.8035,1.1209],[9.4136,58.8049,0.0],[9.4136,58.8065,0.5585],[9.4025,58.8049,3.7775],[9.4019,58.8068,1.1409],[9.4053,58.8068,0.0],[9.4081,58.8093,0.0],[9.3969,58.8135,0.0],[9.3981,58.816,9.7025],[9.4375,58.8204,0.0],[9.4564,58.824,0.0],[9.4675,58.8282,0.0],[9.4681,58.8301,1.3662],[9.4631,58.839,0.0],[9.4553,58.8426,0.0],[9.4497,58.8424,17.8861],[9.4486,58.8449,6.1246],[9.4425,58.8479,0.0],[9.3969,58.8524,0.0],[9.3636,58.846,1.5935],[9.3425,58.8446,2.1572],[9.3414,58.8418,1.4435],[9.3369,58.8396,1.4329],[9.3325,58.841,0.0],[9.3314,58.8393,0.0],[9.3236,58.8374,0.0],[9.3197,58.8387,6.4525],[9.3147,58.8379,1.6337],[9.3119,58.8407,0.0],[9.3069,58.8413,0.0],[9.2997,58.8371,0.0],[9.2969,58.8376,0.0],[9.2986,58.8401,3.4867],[9.2897,58.8399,0.0],[9.2892,58.8415,7.784],[9.2931,58.8424,12.1083],[9.2947,58.8446,0.0],[9.2931,58.8457,5.2056],[9.2936,58.8471,13.5052],[9.3003,58.846,1.3964],[9.3047,58.8471,0.0],[9.3036,58.8496,1.9794],[9.2936,58.8526,6.7148],[9.3014,58.8535,0.0],[9.3019,58.8554,4.0908],[9.2997,58.8563,14.8892],[9.3036,58.8565,0.0],[9.3036,58.8579,0.0],[9.2986,58.8587,15.3266],[9.3042,58.8613,0.0],[9.3053,58.8713,3.3054],[9.3069,58.8713,0.0],[9.3069,58.8757,0.0],[9.3092,58.8771,3.459],[9.3081,58.8799,8.3343],[9.3092,58.8818,14.7039],[9.2997,58.8863,16.7683],[9.3036,58.8896,1.1116],[9.3053,58.8885,13.5789],[9.3047,58.8843,6.362],[9.3142,58.8838,15.7325],[9.3125,58.8818,1.3884],[9.3158,58.8785,11.2998],[9.3142,58.8771,0.0],[9.3186,58.8763,59.4437],[9.3219,58.8701,0.0],[9.3269,58.8707,2.9259],[9.3264,58.8671,0.0],[9.3347,58.8674,5.1449],[9.3403,58.8649,0.8795],[9.3553,58.8654,1.7471],[9.3575,58.8618,0.0],[9.3675,58.8607,0.0],[9.3664,58.8593,0.0],[9.3714,58.8596,1.1532],[9.3675,58.8621,4.4958],[9.3686,58.8629,0.0],[9.3792,58.864,29.099],[9.4208,58.8635,0.0],[9.4242,58.8668,0.0],[9.4175,58.8685,1.1369],[9.4164,58.8726,2.4855],[9.4208,58.8757,0.0],[9.4086,58.8779,8.7869],[9.4053,58.8801,4.2333],[9.3986,58.879,0.0],[9.3981,58.8818,0.0],[9.4014,58.8826,5.3746],[9.4158,58.8788,29.8401],[9.4231,58.8804,0.0],[9.4264,58.8851,8.6341],[9.4264,58.8896,0.0],[9.4231,58.8943,22.3733],[9.4247,58.896,0.0],[9.4247,58.8999,0.0],[9.4231,58.9024,0.0],[9.4169,58.9043,0.0],[9.4086,58.904,0.0],[9.4014,58.8985,19.5429],[9.3903,58.8976,0.0],[9.3825,58.8887,0.0],[9.3881,58.8915,1.4248],[9.3908,58.8913,2.2048],[9.3847,58.8865,30.9633],[9.3808,58.8849,10.3964],[9.3764,58.8863,4.0481],[9.3708,58.8835,0.0],[9.3686,58.8849,6.8408],[9.3708,58.8871,0.0],[9.3703,58.8904,0.0],[9.3742,58.8926,0.0],[9.3742,58.894,0.0],[9.3725,58.894,0.0],[9.3731,58.8965,4.0419],[9.3781,58.8996,8.2249],[9.3853,58.8999,0.0],[9.3953,58.9043,5.8183],[9.4036,58.9032,0.0],[9.4114,58.9057,12.1226],[9.4219,58.9065,0.8489],[9.4236,58.9054,10.2512],[9.4236,58.9026,5.2421],[9.4269,58.9021,5.2421],[9.4364,58.9054,0.0],[9.4403,58.9035,3.1287],[9.4347,58.8993,0.0],[9.4386,58.8985,1.9497],[9.4375,58.8965,0.0],[9.4475,58.8974,2.1854],[9.4492,58.8943,0.6076],[9.4469,58.8943,0.6076],[9.4469,58.8926,3.3199],[9.4503,58.8915,0.0],[9.452,58.8927,0.8206],[9.4536,58.891,1.2291],[9.4542,58.8857,0.0],[9.4597,58.8849,0.0],[9.4675,58.8954,0.0],[9.4625,58.8985,0.9666],[9.4564,58.8982,1.656],[9.4536,58.901,5.0087],[9.4619,58.9026,1.4785],[9.4619,58.9051,10.8748],[9.4653,58.9085,0.0],[9.4692,58.9093,8.6732],[9.4697,58.906,7.7364],[9.4664,58.899,0.0],[9.4703,58.8949,0.0],[9.4742,58.8974,0.0],[9.4736,58.9032,1.8473],[9.4758,58.9046,0.0],[9.4742,58.9063,4.5268],[9.4769,58.9071,4.5037],[9.4753,58.9104,0.0],[9.4808,58.9129,0.0],[9.4769,58.9151,10.9384],[9.4814,58.9165,0.8884],[9.4858,58.9124,0.0],[9.4908,58.9118,6.6931],[9.4842,58.9054,0.0],[9.4847,58.9026,0.0],[9.4886,58.9015,0.0],[9.4808,58.8985,4.048],[9.4792,58.8954,9.9238],[9.4808,58.8899,0.0],[9.4869,58.8904,0.0],[9.4831,58.8882,0.7501],[9.4803,58.8782,1.4977],[9.4847,58.8754,0.0],[9.4936,58.8746,7.5845],[9.4953,58.8718,0.0],[9.5036,58.8724,0.0],[9.5025,58.8729,0.0],[9.5031,58.8771,0.0],[9.5058,58.8776,0.0],[9.5058,58.8807,0.0],[9.5036,58.8826,0.0],[9.5153,58.8812,0.0],[9.5175,58.8821,0.0],[9.5169,58.8835,0.0],[9.5231,58.884,0.0],[9.5236,58.886,5.3067],[9.5286,58.8838,1.954],[9.5286,58.8815,0.0],[9.5358,58.8857,3.0097],[9.5392,58.8857,1.1308],[9.5364,58.884,0.0],[9.5375,58.8821,0.4666],[9.5364,58.8804,0.672],[9.5325,58.8799,0.0],[9.5269,58.8763,0.8785],[9.5269,58.874,2.0606],[9.5353,58.8735,0.0],[9.5392,58.8707,1.2552],[9.5531,58.8724,0.4256],[9.5558,58.8749,0.0],[9.5642,58.8743,0.0],[9.5714,58.8757,1.8733],[9.5747,58.8768,0.0],[9.5719,58.8788,0.0],[9.5897,58.8821,0.0],[9.5864,58.884,0.0],[9.5753,58.8857,0.0],[9.5703,58.8838,0.0],[9.5531,58.8835,4.5792],[9.5614,58.886,1.0154],[9.5681,58.8849,0.0],[9.5692,58.8865,0.5803],[9.5742,58.8871,0.0],[9.5742,58.8885,0.0],[9.5719,58.8885,0.0],[9.5725,58.8915,0.0],[9.5675,58.8937,0.5229],[9.5508,58.8896,0.0],[9.5475,58.8899,0.0],[9.5514,58.8937,0.0],[9.5514,58.8949,0.0],[9.5486,58.8949,0.7817],[9.5436,58.8915,0.4431],[9.5353,58.8904,0.0],[9.5436,58.8954,0.0],[9.5586,58.8999,0.0],[9.5531,58.9012,4.2531],[9.5553,58.9035,0.0],[9.5619,58.9024,0.0],[9.5675,58.9049,0.0],[9.5681,58.9068,0.0],[9.5625,58.9101,2.1126],[9.5636,58.9132,0.0],[9.5586,58.9121,0.0],[9.5569,58.9074,0.0],[9.5553,58.9065,0.0],[9.5508,58.9113,0.0],[9.5342,58.9146,0.0],[9.5319,58.9168,4.6272],[9.5192,58.9171,0.0],[9.5164,58.9179,0.0],[9.5169,58.9199,0.0],[9.4975,58.9188,0.0],[9.4931,58.9215,0.0],[9.5064,58.9218,0.0],[9.513,58.924,0.0],[9.5131,58.9257,0.0],[9.5036,58.9268,42.0127],[9.4908,58.9318,18.8041],[9.4842,58.9313,1.1947],[9.4797,58.9282,0.0],[9.4769,58.9321,17.5801],[9.4831,58.9335,0.0],[9.4653,58.9376,0.0],[9.4914,58.9374,27.5156],[9.4958,58.934,8.5687],[9.5019,58.9335,2.3732],[9.5186,58.9279,0.0],[9.5203,58.9293,4.8621],[9.5303,58.9299,0.0],[9.5314,58.9315,9.5275],[9.5342,58.9315,0.0],[9.5336,58.929,0.0],[9.5519,58.9287,0.0],[9.5481,58.9329,21.082],[9.5492,58.9332,4.4549],[9.5547,58.931,0.0],[9.5531,58.9304,2.452],[9.5536,58.9287,0.0],[9.5681,58.9296,3.6812],[9.5703,58.9265,0.0],[9.5758,58.9285,0.0],[9.5758,58.9265,0.0],[9.5786,58.9246,0.0],[9.5892,58.9246,0.0],[9.5908,58.9271,11.8222],[9.5964,58.9276,0.0],[9.6064,58.9324,2.1533],[9.6075,58.9307,0.0],[9.6125,58.9315,0.0],[9.6097,58.9257,0.8823],[9.6147,58.926,5.7859],[9.6153,58.9274,0.0],[9.6131,58.929,0.0],[9.6164,58.931,0.0],[9.6142,58.9335,2.6017],[9.6208,58.9332,0.0],[9.6236,58.931,0.0],[9.6269,58.9318,0.0],[9.6281,58.9335,0.0],[9.6219,58.9337,4.2352],[9.6231,58.9376,1.3545],[9.6258,58.9379,0.0],[9.6258,58.9399,0.0],[9.6303,58.9429,0.0],[9.6308,58.9454,0.0],[9.6364,58.9493,2.4156],[9.6414,58.9501,0.0],[9.6397,58.9529,0.0],[9.6375,58.9529,0.0],[9.6308,58.949,0.0],[9.6264,58.9493,0.7504],[9.6292,58.9524,9.0433],[9.6258,58.9562,3.6426],[9.6503,58.9604,0.0],[9.6503,58.9637,0.0],[9.6575,58.9654,0.0],[9.6575,58.9668,0.0],[9.6497,58.9679,32.8039],[9.6558,58.9688,0.0],[9.6508,58.9701,1.0023],[9.6525,58.9724,1.3381],[9.6564,58.9729,11.0486],[9.6569,58.9679,0.0],[9.6653,58.9679,0.0],[9.6775,58.9718,0.0],[9.6864,58.9718,0.0],[9.6869,58.9699,7.7744],[9.6842,58.9665,0.0],[9.6919,58.9649,1.5256],[9.7025,58.9721,0.0],[9.7031,58.9735,0.0],[9.6997,58.9751,0.0],[9.7047,58.9765,1.6477],[9.7047,58.9807,0.0],[9.7014,58.9824,0.0],[9.6869,58.9821,0.0],[9.6886,58.9835,0.0],[9.6881,58.9849,0.3744],[9.6825,58.9857,0.0],[9.6747,58.9854,2.946],[9.6731,58.9837,13.7627],[9.6658,58.9888,0.0],[9.6575,58.9901,0.0],[9.6631,58.9907,3.0672],[9.6653,58.9932,0.0],[9.6703,58.9949,0.6487],[9.6708,58.9929,6.5392],[9.6669,58.9924,6.492],[9.6664,58.9899,0.0],[9.6758,58.9904,0.0],[9.6775,58.9882,0.0],[9.6858,58.9874,5.6931],[9.6858,58.9863,0.0],[9.6914,58.9879,0.0],[9.6819,58.9901,25.513],[9.6931,58.9882,0.0],[9.6992,58.989,12.0913],[9.7025,58.9863,0.0],[9.7064,58.9868,0.0],[9.7069,58.989,14.8295],[9.7125,58.9901,0.0],[9.7136,58.9926,0.0],[9.7097,58.996,0.0],[9.7103,58.9987,0.0],[9.7042,59.001,10.829],[9.7036,59.004,8.2088],[9.7092,59.0062,0.0],[9.7203,59.0013,0.0],[9.7192,59.0082,23.5073],[9.7208,59.0088,14.5445],[9.7231,59.0054,0.0],[9.7281,59.0035,7.6581],[9.7281,59.0013,0.0],[9.7325,58.9976,5.4081],[9.7331,58.9954,0.0],[9.7375,58.9954,0.5765],[9.7397,58.9935,0.0],[9.7414,58.9957,0.3206],[9.7425,58.9935,0.0],[9.7458,58.9929,1.1477],[9.7458,58.9899,0.0],[9.7486,58.9876,10.1427],[9.7536,58.9876,0.0],[9.7542,58.9896,0.0],[9.7514,58.9924,8.1125],[9.7514,59.0035,0.0],[9.7492,59.0043,0.0],[9.7481,59.0079,0.0],[9.7486,59.0154,0.0],[9.7381,59.0201,2.4586],[9.7381,59.0235,0.8733],[9.7325,59.0262,5.325],[9.7319,59.0285,8.0146],[9.7281,59.0285,21.5523],[9.7169,59.034,6.755],[9.7153,59.0385,0.0],[9.7058,59.0418,5.2335],[9.7108,59.0432,0.0],[9.7064,59.0457,0.0],[9.7019,59.0443,0.0],[9.6997,59.0474,0.0],[9.6953,59.0482,0.0],[9.6992,59.0513,0.0],[9.7103,59.0504,0.0],[9.7097,59.0524,0.0],[9.7053,59.054,0.0],[9.7053,59.056,14.581],[9.7003,59.0599,0.2242],[9.6947,59.0607,2.278],[9.7008,59.0621,0.0],[9.7008,59.0668,0.0],[9.6919,59.0704,7.8886],[9.6931,59.0738,0.0],[9.6919,59.0749,0.0],[9.6975,59.0765,0.0],[9.6986,59.0799,1.2734],[9.6992,59.0887,0.0],[9.6947,59.0926,12.9128],[9.6975,59.0935,4.0022],[9.6992,59.0913,2.4075],[9.7025,59.0913,0.0],[9.7019,59.0929,0.0],[9.6958,59.0957,1.2917],[9.6953,59.0976,0.2872],[9.7025,59.0993,0.0],[9.7025,59.1066,0.0],[9.7081,59.1096,2.9691],[9.7119,59.1096,14.6294],[9.7131,59.1079,0.0],[9.7169,59.1085,0.0],[9.7197,59.1054,0.0],[9.7158,59.0993,0.1898],[9.7181,59.0974,3.188],[9.7103,59.0932,4.907],[9.7108,59.091,2.5141],[9.7169,59.0868,0.0],[9.7153,59.0801,1.2573],[9.7186,59.0776,3.235],[9.7147,59.0762,2.7282],[9.7158,59.0743,0.0],[9.7147,59.0729,2.9746],[9.7181,59.069,8.5132],[9.7253,59.0674,4.0813],[9.7181,59.0654,0.0],[9.7236,59.061,0.0],[9.7297,59.061,3.596],[9.7308,59.0626,0.0],[9.7381,59.0615,0.5367],[9.7375,59.0601,6.3472],[9.7314,59.0601,0.8954],[9.7342,59.0574,9.6581],[9.7286,59.0596,1.2738],[9.7225,59.0599,6.6357],[9.7192,59.0574,0.0],[9.7208,59.0529,1.0987],[9.7247,59.0515,5.3617],[9.7281,59.0462,0.3156],[9.7342,59.0429,2.4918],[9.7358,59.0432,2.4918],[9.7353,59.0468,3.5896],[9.7364,59.0471,2.1514],[9.7414,59.044,2.4548],[9.7492,59.0457,0.0],[9.7464,59.0499,8.909],[9.7408,59.0518,5.402],[9.7414,59.0529,1.6938],[9.7481,59.0524,1.045],[9.7419,59.0565,5.4447],[9.7419,59.0579,5.5674],[9.7458,59.0576,1.9743],[9.7458,59.0588,0.0],[9.7431,59.0612,2.6893],[9.7381,59.0621,0.0],[9.7353,59.0646,11.8126],[9.7353,59.0676,0.0],[9.7308,59.0693,3.8035],[9.7297,59.0713,18.7642],[9.7314,59.0718,0.8573],[9.7369,59.0707,2.471],[9.7397,59.0726,5.7175],[9.7447,59.0679,8.6207],[9.7486,59.0668,20.8465],[9.7542,59.061,0.0],[9.7525,59.0604,0.0],[9.7525,59.0579,0.0],[9.7547,59.0582,0.0],[9.7536,59.0593,0.0],[9.7553,59.0599,0.6729],[9.7569,59.059,8.5073],[9.7564,59.0571,0.0],[9.7592,59.0551,23.2125],[9.7564,59.0529,0.0],[9.7586,59.0521,6.5765],[9.7592,59.049,5.9274],[9.7614,59.0488,29.5781],[9.7619,59.0468,1.4896],[9.7669,59.0438,2.7475],[9.7719,59.0429,17.8044],[9.7797,59.0388,5.9572],[9.7814,59.0393,5.9572],[9.7803,59.044,0.0],[9.7758,59.0457,3.3524],[9.7758,59.0468,3.3524],[9.7808,59.0465,1.6755],[9.7769,59.051,7.1935],[9.7775,59.0551,0.0],[9.7792,59.0565,7.2808],[9.7781,59.0588,12.9415],[9.7819,59.0601,0.0],[9.7803,59.0618,7.3136],[9.7836,59.0621,0.0],[9.7881,59.0654,0.0],[9.7892,59.069,10.1558],[9.7869,59.0715,14.0824],[9.7925,59.0796,0.0],[9.7914,59.0821,32.5612],[9.7931,59.0829,1.4104],[9.7925,59.0851,0.0],[9.7947,59.0899,0.0],[9.8008,59.0896,1.191],[9.8008,59.0857,4.2623],[9.7975,59.0835,2.9196],[9.7931,59.0721,2.7826],[9.7931,59.0687,0.0],[9.7975,59.0657,15.7045],[9.7975,59.0638,8.1847],[9.8014,59.0624,8.0315],[9.7986,59.0515,0.0],[9.8008,59.0457,0.0],[9.8058,59.0404,2.7593],[9.8058,59.0371,0.9912],[9.8142,59.0365,0.0],[9.8153,59.0346,2.0872],[9.8203,59.0332,1.1833],[9.8192,59.031,20.277],[9.8042,59.0307,1.8373],[9.8025,59.0274,6.4148],[9.8114,59.0207,2.1787],[9.8125,59.019,4.4618],[9.8108,59.0179,0.0],[9.8186,59.0149,27.8146],[9.8181,59.0115,0.0],[9.8225,59.011,4.5207],[9.8247,59.0074,4.5352],[9.8297,59.0076,0.0],[9.8308,59.0099,0.0],[9.8292,59.0118,0.0],[9.8319,59.0143,0.0],[9.8308,59.0168,12.1969],[9.8331,59.0179,0.0],[9.8325,59.0215,0.0],[9.8308,59.0243,8.8262],[9.8242,59.0282,49.4873],[9.8225,59.0318,20.277],[9.8303,59.0326,0.5847],[9.8381,59.0432,4.9124],[9.8462,59.0439,39.2613],[9.8369,59.0749,128.4169],[9.8456,59.0756,107.9854],[9.8443,59.08,79.0026],[9.8529,59.0807,122.9233],[9.8516,59.0851,115.0648],[9.8602,59.0858,173.4763],[9.8523,59.1124,148.8787],[9.8436,59.1118,147.0079],[9.8423,59.1162,127.4196],[9.8336,59.1155,186.6641],[9.831,59.1244,218.2177],[9.8223,59.1237,216.6535],[9.8183,59.137,235.2346],[9.827,59.1377,143.85],[9.8243,59.1465,165.4878],[9.833,59.1472,140.7533],[9.829,59.1605,156.0121],[9.8376,59.1612,146.3002],[9.8363,59.1656,27.8006],[9.8796,59.1691,21.5],[9.8663,59.2134,111.3224],[9.875,59.2141,232.4344],[9.8617,59.2585,243.769],[9.853,59.2578,146.2064],[9.8503,59.2666,178.3402],[9.8416,59.266,210.5919],[9.839,59.2748,292.4227],[9.8303,59.2741,245.6815],[9.8289,59.2786,324.8517],[9.8202,59.2779,218.7123],[9.8175,59.2868,254.4391],[9.8088,59.2861,206.3556],[9.8062,59.2949,265.7944],[9.7975,59.2942,249.8831],[9.7961,59.2987,271.4805],[9.7874,59.298,257.5647],[9.7847,59.3069,304.6507],[9.776,59.3062,319.5968],[9.7733,59.315,395.4141],[9.7646,59.3143,399.6473],[9.7633,59.3188,568.3134],[9.7546,59.3181,509.4641],[9.7505,59.3314,563.075],[9.7592,59.3321,564.8283],[9.7579,59.3365,552.5566],[9.7666,59.3372,507.1179],[9.7639,59.3461,541.6965],[9.7726,59.3468,582.5674],[9.7631,59.3778,463.4191],[9.7718,59.3785,451.1461],[9.7664,59.3962,473.1286],[9.7751,59.3969,463.7651],[9.7711,59.4102,439.9844],[9.7536,59.4088,428.498],[9.7523,59.4133,428.3837],[9.7174,59.4105,465.2798],[9.716,59.4149,480.8722],[9.6636,59.4107,488.0579],[9.665,59.4063,468.634],[9.6563,59.4056,472.7722],[9.6549,59.41,499.6599],[9.6462,59.4093,534.3114],[9.6434,59.4182,597.0057],[9.6347,59.4175,592.3878],[9.6319,59.4264,559.3823],[9.6232,59.4257,619.2715],[9.6205,59.4345,625.2169],[9.6117,59.4338,545.4927],[9.609,59.4427,576.1485],[9.6002,59.442,542.5549],[9.5975,59.4509,549.8266],[9.5887,59.4502,515.0305],[9.5846,59.4634,558.7701],[9.5759,59.4627,543.2985],[9.5703,59.4805,656.8607],[9.5616,59.4798,705.4652],[9.5602,59.4842,744.7332],[9.5427,59.4828,570.0423],[9.5413,59.4872,530.6703],[9.4714,59.4815,777.9924],[9.4672,59.4948,716.0459],[9.4759,59.4955,691.2092],[9.4731,59.5044,613.5007],[9.4819,59.5051,605.1071],[9.4805,59.5095,674.2981],[9.4892,59.5103,660.9597],[9.4878,59.5147,676.7745],[9.4966,59.5154,672.6207],[9.4952,59.5198,609.2292],[9.5039,59.5205,503.713],[9.5026,59.525,522.7735],[9.5113,59.5257,569.9652],[9.5099,59.5301,650.4861],[9.5187,59.5308,707.8338],[9.5173,59.5352,708.1837],[9.5085,59.5345,661.4658],[9.5057,59.5434,684.2042],[9.497,59.5427,685.7038],[9.4956,59.5471,686.045],[9.4868,59.5464,666.0443],[9.4854,59.5508,681.0972],[9.4767,59.5501,674.533],[9.4753,59.5546,675.6362],[9.4665,59.5538,691.7781],[9.4525,59.5981,517.9753],[9.4437,59.5974,552.821],[9.4324,59.6329,695.2169],[9.4236,59.6322,710.0084],[9.4109,59.672,544.433],[9.4021,59.6713,595.5701],[9.3965,59.689,679.0143],[9.3789,59.6876,717.0731],[9.3774,59.692,741.9968],[9.3687,59.6913,725.3502],[9.3672,59.6957,737.7411],[9.3496,59.6943,753.7675],[9.3482,59.6987,668.2783],[9.3306,59.6973,603.7888],[9.3292,59.7017,603.5449],[9.338,59.7024,596.8683],[9.3337,59.7157,599.8138],[9.3425,59.7164,540.6933],[9.3382,59.7297,455.5273],[9.347,59.7304,427.9314],[9.3442,59.7393,461.5396],[9.353,59.74,434.9119],[9.3487,59.7533,625.9192],[9.3575,59.754,649.6666],[9.3532,59.7673,690.903],[9.3621,59.768,716.0513],[9.3592,59.7769,722.5206],[9.368,59.7776,746.9202],[9.3666,59.782,739.7399],[9.3578,59.7813,723.6317],[9.3549,59.7902,731.7709],[9.3461,59.7894,746.2486],[9.3447,59.7939,767.4504],[9.3358,59.7932,782.4581],[9.3344,59.7976,765.7982],[9.3256,59.7969,782.9896],[9.3242,59.8013,795.3462],[9.3065,59.7998,854.5244],[9.3051,59.8043,849.0113],[9.2962,59.8035,867.1792],[9.2948,59.808,848.7809],[9.2772,59.8065,885.324],[9.2757,59.811,856.0259],[9.2581,59.8095,913.8993],[9.2566,59.8139,854.1947],[9.2478,59.8132,883.7213],[9.2464,59.8176,861.3705],[9.2287,59.8162,958.3807],[9.2273,59.8206,1006.9891],[9.2184,59.8199,1156.3645],[9.217,59.8243,1137.278],[9.1993,59.8228,1150.6576],[9.1979,59.8273,1156.8301],[9.1891,59.8265,1156.7367],[9.173,59.8752,1073.4601],[9.1819,59.876,1048.8204],[9.1775,59.8892,981.7728],[9.1864,59.89,1040.5581],[9.1805,59.9077,1136.2783],[9.1894,59.9084,1158.6484],[9.1821,59.9305,954.1938],[9.1732,59.9298,971.3699],[9.1718,59.9342,798.9545],[9.1629,59.9335,801.9911],[9.1615,59.9379,746.3184],[9.1526,59.9372,752.4124],[9.1511,59.9416,746.2576],[9.1423,59.9409,751.7192],[9.1408,59.9453,774.5143],[9.132,59.9446,847.2979],[9.129,59.9534,949.1335],[9.1202,59.9527,949.251],[9.1187,59.9571,957.9156],[9.1098,59.9564,912.0554],[9.1084,59.9608,900.0444],[9.0818,59.9586,855.7073],[9.0803,59.963,855.462],[9.0626,59.9615,896.3235],[9.0611,59.966,944.7145],[9.0522,59.9652,992.7333],[9.0478,59.9785,1006.4965],[9.0389,59.9778,987.2632],[9.036,59.9866,911.0039],[8.9917,59.9829,756.7527],[8.9872,59.9962,846.5254],[8.9961,59.9969,948.3891],[8.9931,60.0058,916.0383],[8.9842,60.005,860.4786],[8.9738,60.036,1001.6996],[8.9826,60.0367,1057.4861],[8.9662,60.0854,1118.2323],[8.9573,60.0846,1065.9513],[8.9528,60.0979,1145.6598],[8.9439,60.0972,1168.6519],[8.9409,60.106,1168.2258],[8.932,60.1053,1245.3193],[8.929,60.1141,1284.7267],[8.9201,60.1134,1336.9937],[8.9186,60.1178,1309.4716],[8.9097,60.117,1262.4781],[8.9067,60.1259,1171.9869],[8.8978,60.1251,1180.7444],[8.8963,60.1296,1196.668],[8.8785,60.1281,1212.7047],[8.877,60.1325,1227.3567],[8.8681,60.1317,1235.3674],[8.8666,60.1361,1240.7903],[8.8577,60.1354,1244.7692],[8.8561,60.1398,1242.4347],[8.8472,60.1391,1240.329],[8.8457,60.1435,1245.3226],[8.8368,60.1427,1230.6704],[8.8353,60.1472,1257.9493],[8.8264,60.1464,1222.0707],[8.8234,60.1552,1230.8448],[8.8055,60.1537,1212.755],[8.804,60.1581,1213.2875],[8.7862,60.1566,1212.8723],[8.7847,60.1611,1212.7651],[8.7758,60.1603,1212.7018],[8.7742,60.1647,1212.7784],[8.7653,60.164,1215.693],[8.7623,60.1728,1233.3663],[8.7445,60.1713,1313.4445],[8.7429,60.1757,1370.2156],[8.6806,60.1704,1372.368],[8.679,60.1748,1337.7965],[8.6078,60.1686,1171.546],[8.6062,60.173,1174.8151],[8.5439,60.1676,1270.8446],[8.5423,60.1721,1277.8468],[8.4533,60.1643,1280.6648],[8.4517,60.1687,1263.2137],[8.4339,60.1671,1259.0381],[8.4323,60.1716,1265.0054],[8.3878,60.1676,1284.6097],[8.3862,60.172,1290.0312],[8.3239,60.1665,1398.2117],[8.3223,60.171,1388.3529],[8.2867,60.1678,1338.3745],[8.2852,60.1722,1343.4174],[8.2763,60.1714,1344.8098],[8.2747,60.1758,1310.3236],[8.2658,60.175,1289.7693],[8.2642,60.1794,1227.4922],[8.2553,60.1787,1197.2167],[8.2537,60.1831,1188.1257],[8.2448,60.1823,1182.1216],[8.2432,60.1867,1187.9082],[8.2343,60.1859,1189.8384],[8.2311,60.1947,1214.822],[8.2043,60.1923,1225.835],[8.2027,60.1967,1243.1295],[8.1582,60.1927,1127.535],[8.1566,60.1972,1131.4703],[8.1388,60.1956,1214.5386],[8.1404,60.1911,1141.3229],[8.1315,60.1903,1144.3606],[8.1331,60.1859,1120.7224],[8.1153,60.1843,1127.5896],[8.1169,60.1799,1163.0898],[8.0991,60.1783,1188.6809],[8.1008,60.1739,1250.8085],[8.0919,60.1731,1278.9762],[8.0935,60.1687,1351.1273],[8.0312,60.163,1342.4824],[8.0329,60.1586,1335.5352],[7.9884,60.1546,1340.52],[7.9901,60.1502,1335.6646],[7.9456,60.1461,1371.2573],[7.9473,60.1417,1335.9974],[7.9117,60.1384,1399.4198],[7.9134,60.134,1347.287],[7.8956,60.1324,1300.6914],[7.8972,60.128,1286.0446],[7.8706,60.1255,1251.9487],[7.8723,60.1211,1258.0964],[7.8545,60.1194,1296.2119],[7.8562,60.115,1266.495],[7.8295,60.1126,1336.436],[7.8312,60.1082,1282.6007],[7.7957,60.1049,1259.3394],[7.794,60.1093,1260.7742],[7.7852,60.1085,1286.3705],[7.7835,60.1129,1271.6648],[7.7746,60.112,1277.3575],[7.773,60.1164,1300.3809],[7.7552,60.1148,1287.5529],[7.7536,60.1192,1247.4258],[7.7358,60.1175,1226.5476],[7.7342,60.1219,1223.236],[7.7075,60.1195,1348.8774],[7.7059,60.1239,1290.8009],[7.6881,60.1222,1350.0619],[7.6865,60.1266,1319.9852],[7.6598,60.1241,1385.8839],[7.6582,60.1285,1370.7904],[7.6315,60.126,1305.4656],[7.6332,60.1216,1291.5874],[7.58,60.1166,1242.803],[7.5817,60.1122,1241.8215],[7.5196,60.1063,1322.9259],[7.5213,60.1019,1328.7162],[7.4947,60.0993,1414.0504],[7.4964,60.0949,1321.158],[7.4876,60.0941,1367.5161],[7.4893,60.0897,1312.0103],[7.4804,60.0889,1298.438],[7.4838,60.08,1305.9489],[7.4749,60.0792,1291.812],[7.4783,60.0704,1176.1066],[7.4695,60.0695,1141.8483],[7.4729,60.0607,1111.5],[7.464,60.0599,1117.0811],[7.4657,60.0555,1193.4169],[7.4569,60.0546,1232.1702],[7.4603,60.0458,1158.927],[7.4514,60.045,1142.5007],[7.4548,60.0362,1103.2168],[7.446,60.0353,1101.8461],[7.4494,60.0265,1183.9976],[7.4405,60.0257,1256.215],[7.4422,60.0213,1301.9276],[7.4334,60.0204,1344.2699],[7.4351,60.016,1322.1125],[7.4086,60.0135,1294.9614],[7.4103,60.0091,1339.4365],[7.3837,60.0065,1376.2897],[7.3855,60.0021,1351.0171],[7.359,59.9995,1294.0773],[7.3607,59.9951,1299.3881],[7.3342,59.9926,1254.8672],[7.3359,59.9882,1264.3445],[7.3182,59.9865,1254.7765],[7.3165,59.9909,1258.5083],[7.2724,59.9866,1171.02],[7.2741,59.9822,1167.6733],[7.2653,59.9813,1161.6176],[7.267,59.9769,1163.0645],[7.2493,59.9752,1229.4788],[7.2511,59.9708,1337.9678],[7.2422,59.9699,1331.3873],[7.244,59.9655,1346.3127],[7.2263,59.9638,1451.1243],[7.228,59.9594,1447.1465],[7.2192,59.9585,1265.9541],[7.2209,59.9541,1248.0535],[7.2121,59.9533,1263.4611],[7.2138,59.9489,1238.9125],[7.205,59.948,1406.4087],[7.2068,59.9436,1355.9692],[7.1979,59.9427,1439.4653],[7.1997,59.9383,1450.6167],[7.1909,59.9375,1419.9634],[7.1943,59.9287,1384.4805],[7.1855,59.9278,1413.2462],[7.1872,59.9234,1380.9199],[7.1784,59.9226,1343.6201],[7.1819,59.9137,1261.3435],[7.1731,59.9129,1265.8916],[7.1748,59.9085,1284.9176],[7.166,59.9076,1629.0607],[7.1694,59.8988,1544.9137],[7.1606,59.8979,1515.0343],[7.1624,59.8936,1515.2903],[7.1536,59.8927,1582.9802],[7.157,59.8839,1576.8693],[7.1482,59.883,1334.9254],[7.1534,59.8698,1272.0498],[7.1446,59.868899999999996,1546.2965],[7.1515,59.8513,1053.4194],[7.1427,59.8505,1015.1988],[7.1479,59.8373,971.912],[7.1567,59.8382,970.5154],[7.1619,59.825,978.5002],[7.1531,59.8241,967.1107],[7.1548,59.8197,1012.589],[7.146,59.8188,1030.0621],[7.1495,59.81,1204.7131],[7.1407,59.8092,1253.7947],[7.1424,59.8047,1305.0299],[7.1249,59.803,1290.3209],[7.1266,59.7986,1438.113],[7.1178,59.7977,1438.5206],[7.1195,59.7933,1428.4507],[7.1108,59.7925,1466.0975],[7.1125,59.7881,1533.5585],[7.095,59.7863,1610.4156],[7.1053,59.7599,1582.4724],[7.1141,59.7608,1613.8281],[7.1158,59.7564,1468.8745],[7.1246,59.7573,1579.7656],[7.1263,59.7529,1537.1576],[7.1351,59.7537,1583.4434],[7.1368,59.7493,1499.5835],[7.128,59.7485,1395.0942],[7.1315,59.7397,1442.5669],[7.1227,59.7388,1372.6714],[7.1261,59.73,1388.9666],[7.1174,59.7291,1410.2952],[7.1208,59.7203,1374.9706],[7.1121,59.7195,1405.8192],[7.1155,59.7107,1367.3495],[7.1068,59.7098,1370.7886],[7.1102,59.701,1207.978],[7.119,59.7019,1118.0],[7.1207,59.6975,1052.4907],[7.1294,59.6983,1050.4625],[7.1312,59.6939,1050.4319],[7.1399,59.6948,1050.5607],[7.1416,59.6904,1051.2443],[7.1504,59.6913,1050.4407],[7.1521,59.6869,1055.9009],[7.1608,59.6877,1052.6965],[7.1625,59.6833,1050.3458],[7.1713,59.6842,1050.5266],[7.173,59.6798,1050.4749],[7.1905,59.6815,1052.8804],[7.1922,59.6771,1050.8661],[7.2009,59.678,1050.733],[7.2026,59.6736,1079.8391],[7.2114,59.6745,1052.3418],[7.2131,59.6701,1069.5828],[7.2218,59.6709,1077.5438],[7.2235,59.6665,1132.8921],[7.2323,59.6674,1042.1938],[7.234,59.663,1065.658],[7.2427,59.6639,1046.0778],[7.2444,59.6595,1086.5266],[7.2619,59.6612,1056.7307],[7.2636,59.6568,1115.4702],[7.2811,59.6585,1065.991],[7.2828,59.6541,1027.7012],[7.3003,59.6558,1008.2118],[7.3037,59.647,1164.3466],[7.3124,59.6479,1041.1292],[7.3141,59.6435,1153.2811],[7.3316,59.6452,951.6499],[7.3333,59.6408,1013.0514],[7.3507,59.6425,928.1233],[7.3524,59.6381,928.8992],[7.3699,59.6398,936.3921],[7.3682,59.6442,992.7917],[7.377,59.645,1009.6786],[7.3753,59.6494,1127.5306],[7.384,59.6503,1076.792],[7.3823,59.6547,1215.3914],[7.3911,59.6555,1194.9253],[7.3894,59.6599,1078.8304],[7.4156,59.6625,1011.6148],[7.4173,59.6581,959.7408],[7.4348,59.6598,896.0],[7.4365,59.6554,917.3204],[7.4452,59.6562,896.0],[7.4469,59.6518,896.0],[7.4556,59.6527,896.0],[7.4573,59.6483,905.7111],[7.466,59.6491,900.5302],[7.4711,59.6359,1047.8055],[7.4798,59.6367,1016.3439],[7.4898,59.6103,1084.4741],[7.4985,59.6112,1113.0632],[7.5035,59.5979,1167.761],[7.5123,59.5988,1194.97],[7.5139,59.5944,1230.5554],[7.5226,59.5952,1254.7869],[7.5243,59.5908,1267.4189],[7.533,59.5917,1270.6099],[7.5364,59.5829,1307.2866],[7.5276,59.582,1315.9635],[7.5309,59.5732,1358.6609],[7.5222,59.5724,1368.9731],[7.5239,59.568,1392.9324],[7.5152,59.5671,1386.3176],[7.5168,59.5627,1404.9196],[7.5081,59.5619,1348.0996],[7.5131,59.5486,1349.4397],[7.5218,59.5495,1403.7288],[7.5301,59.5275,1321.2463],[7.5388,59.5283,1386.8783],[7.5404,59.5239,1429.1237],[7.5491,59.5247,1429.9806],[7.5508,59.5203,1339.3853],[7.5595,59.5212,1314.1328],[7.5612,59.5168,1290.1921],[7.5699,59.5176,1325.9999],[7.5715,59.5132,1312.0198],[7.5802,59.514,1392.8553],[7.5819,59.5096,1414.4406],[7.5906,59.5105,1426.2461],[7.5972,59.4928,1338.7107],[7.6059,59.4937,1437.6882],[7.6223,59.4496,1392.5967],[7.631,59.4505,1406.6956],[7.6457,59.4108,1475.266],[7.637,59.41,1388.1501],[7.6354,59.4144,1393.7039],[7.592,59.4102,1038.0695],[7.5903,59.4146,1125.7858],[7.5469,59.4104,1363.8746],[7.5452,59.4148,1366.9448],[7.5192,59.4123,1275.4296],[7.5208,59.4079,1269.0825],[7.5122,59.407,1171.6848],[7.5138,59.4026,1105.666],[7.5225,59.4035,1208.0908],[7.5258,59.3947,1104.1844],[7.5345,59.3955,1132.5111],[7.5361,59.3911,1251.5081],[7.5448,59.3919,1240.4028],[7.5481,59.3831,1239.7415],[7.5568,59.384,1234.8793],[7.5584,59.3796,1146.2715],[7.5671,59.3804,1169.1759],[7.5704,59.3716,1208.6515],[7.579,59.3724,1126.8977],[7.5839,59.3592,1274.6284],[7.5926,59.36,1225.9584],[7.5959,59.3512,1103.8862],[7.6046,59.3521,904.1609],[7.6078,59.3433,918.2009],[7.6252,59.3449,836.4557],[7.6268,59.3405,880.5428],[7.6441,59.3422,885.3823],[7.6458,59.3378,1003.1536],[7.6631,59.3394,963.5821],[7.6647,59.335,1203.5602],[7.6734,59.3359,1245.7412],[7.675,59.3315,1196.7134],[7.6837,59.3323,1138.0905],[7.6853,59.3279,1097.3264],[7.694,59.3287,1137.3281],[7.7102,59.2846,903.6617],[7.7188,59.2855,1049.8625],[7.7269,59.2634,922.6766],[7.7355,59.2642,949.2553],[7.7404,59.251,847.1016],[7.749,59.2518,849.0064],[7.7522,59.243,886.5182],[7.7609,59.243899999999996,1022.9191],[7.7657,59.2306,982.3154],[7.7744,59.2315,915.4064],[7.7776,59.2226,980.669],[7.7862,59.2235,918.919],[7.7894,59.2146,909.9028],[7.7808,59.2138,863.8363],[7.7824,59.2094,884.9733],[7.7737,59.2086,785.8654],[7.7753,59.2042,750.4097],[7.7581,59.2025,690.3],[7.7597,59.1981,834.6875],[7.751,59.1973,821.2455],[7.7526,59.1929,897.6357],[7.744,59.1921,913.5863],[7.7472,59.1832,964.2315],[7.7386,59.1824,957.1796],[7.7402,59.178,941.7806],[7.7316,59.1772,904.827],[7.7428,59.1463,876.3432],[7.7514,59.1471,856.7349],[7.7546,59.1383,882.5447],[7.7633,59.1392,849.9506],[7.7649,59.1347,847.4983],[7.7735,59.1356,850.7782],[7.7751,59.1312,835.4716],[7.7837,59.132,868.5312],[7.7853,59.1276,906.0114],[7.7939,59.1284,950.6343],[7.7971,59.1196,841.5098],[7.8057,59.1204,922.0024],[7.8105,59.1072,897.306],[7.8191,59.108,959.9647],[7.8239,59.0948,855.5796],[7.8325,59.0956,919.0933],[7.8373,59.0824,791.5498],[7.8459,59.0832,816.1445],[7.8506,59.0699,816.8891],[7.8592,59.0708,805.3766],[7.864,59.0575,793.6059],[7.8726,59.0583,810.2548],[7.8773,59.0451,719.7731],[7.8859,59.0459,760.3741],[7.8907,59.0327,719.6962],[7.8993,59.0335,722.7771],[7.904,59.0203,720.8729],[7.9126,59.0211,731.9633],[7.9158,59.0123,756.7867],[7.9329,59.0139,889.7465],[7.9408,58.9919,762.0428],[7.9494,58.9927,729.2495],[7.9525,58.9838,751.4357],[7.9611,58.9847,753.5032],[7.9642,58.9758,789.0355],[7.9728,58.9766,755.0724],[7.976,58.9678,753.6924],[7.9845,58.9686,715.7617],[7.9861,58.9642,763.2136],[7.9947,58.965,725.9797],[7.9962,58.9606,777.1243],[8.0048,58.9614,693.1975],[8.0064,58.957,717.5217],[8.015,58.9578,707.8169],[8.0165,58.9534,654.1296],[8.0337,58.955,752.717],[8.0352,58.9506,723.9832],[8.0438,58.9514,717.1349],[8.0454,58.947,661.3875],[8.1054,58.9526,636.4603],[8.107,58.9482,539.8814],[8.1241,58.9498,555.3808],[8.1226,58.9542,584.0955],[8.1312,58.955,597.0926],[8.1281,58.9639,471.6023],[8.1195,58.9631,534.155],[8.118,58.9675,537.6876],[8.1008,58.9659,512.9829],[8.0992,58.9703,614.8239],[8.0735,58.9679,539.3868],[8.0719,58.9723,504.1963],[8.0891,58.9739,634.8348],[8.0876,58.9783,692.7296],[8.1133,58.9807,733.7264],[8.1118,58.9851,747.0502],[8.1289,58.9867,747.946],[8.1305,58.9823,774.9854],[8.1477,58.9839,738.3939],[8.1492,58.9795,795.0975],[8.1664,58.9811,823.9656],[8.1679,58.9767,802.538],[8.1765,58.9775,798.9591],[8.1781,58.9731,733.6039],[8.1952,58.9747,885.3447],[8.1968,58.9702,875.5189],[8.2139,58.9718,833.9921],[8.2155,58.9674,779.4028],[8.2241,58.9682,732.7034],[8.2256,58.9638,826.0629],[8.2342,58.9646,637.7711],[8.2372,58.9558,567.1567],[8.2458,58.9566,564.5302],[8.2474,58.9521,569.0897],[8.2559,58.9529,565.6531],[8.2575,58.9485,570.8218],[8.2661,58.9493,564.6082],[8.2691,58.9405,622.6056],[8.2777,58.9413,692.4206],[8.2792,58.9368,629.5491],[8.2878,58.9376,650.5878],[8.2893,58.9332,567.5161],[8.2979,58.934,552.3032],[8.3009,58.9252,619.2101],[8.3095,58.926,582.4462],[8.311,58.9216,630.8389],[8.3196,58.9223,516.22],[8.3211,58.9179,515.7932],[8.3297,58.9187,500.4134],[8.3312,58.9143,511.0676],[8.3569,58.9167,503.4819],[8.3585,58.9122,467.9646],[8.3842,58.9146,471.4206],[8.3857,58.9102,411.0546],[8.4029,58.9117,515.1262],[8.4044,58.9073,436.6645],[8.4129,58.9081,525.3973],[8.4144,58.9037,436.1921],[8.423,58.9045,515.5577],[8.4245,58.9,435.6624],[8.4331,58.9008,515.9221],[8.4346,58.8964,474.0276],[8.4432,58.8972,509.1318],[8.4447,58.8928,426.7151],[8.4618,58.8943,377.5805],[8.4633,58.8899,410.3648],[8.4805,58.8915,382.6747],[8.479,58.8959,376.7698],[8.4875,58.8967,347.3005],[8.486,58.9011,344.645],[8.4946,58.9019,378.0724],[8.4931,58.9063,378.6496],[8.5017,58.907,362.2788],[8.5002,58.9115,431.4536],[8.5088,58.9122,410.6625],[8.5073,58.9167,368.0597],[8.5245,58.9182,195.3781],[8.523,58.9226,159.8695],[8.5573,58.9257,477.3237],[8.5558,58.9301,447.2095],[8.573,58.9317,477.9827],[8.5745,58.9273,466.9142],[8.5831,58.928,475.5782],[8.5845,58.9236,484.8584],[8.5931,58.9244,492.5094],[8.5961,58.9155,398.3053],[8.6047,58.9163,387.3741],[8.6061,58.9119,356.2894],[8.6147,58.9127,336.8141],[8.6162,58.9082,241.2018],[8.6248,58.909,220.1663],[8.6307,58.8913,232.2643],[8.6393,58.8921,228.6891],[8.6452,58.8744,230.8405],[8.6537,58.8752,220.0273],[8.6567,58.8663,273.1493],[8.6653,58.8671,234.0313],[8.6667,58.8627,239.8213],[8.6753,58.8634,407.3289],[8.6768,58.859,404.6655],[8.6939,58.8605,330.6075],[8.6954,58.8561,331.0216],[8.7125,58.8576,342.3112],[8.7154,58.8488,337.1838],[8.724,58.8496,304.0414],[8.7298,58.8319,336.4302],[8.7384,58.8326,316.1889],[8.7369,58.8371,327.5234],[8.7455,58.8378,337.3161],[8.7441,58.8422,392.2171],[8.7612,58.8438,373.4698],[8.7597,58.8482,389.7707],[8.7683,58.8489,437.007],[8.7668,58.8534,399.3895],[8.784,58.8549,436.941],[8.7825,58.8593,384.691],[8.7911,58.86,403.3634],[8.7853,58.8777,444.8601],[8.7939,58.8785,422.8588],[8.7924,58.8829,456.8684],[8.801,58.8837,474.7842],[8.7995,58.8881,486.4416],[8.8081,58.8888,472.8103],[8.8067,58.8933,484.1983],[8.8152,58.894,403.514],[8.8123,58.9029,370.8747],[8.8209,58.9036,365.1209],[8.8195,58.908,483.1779],[8.8281,58.9088,385.3466],[8.8252,58.9176,343.085],[8.8166,58.9169,321.4026],[8.8151,58.9213,287.9313],[8.7979,58.9198,411.3274],[8.7965,58.9242,410.1258],[8.7879,58.9235,407.0975],[8.7864,58.9279,303.6337],[8.7779,58.9271,346.124],[8.7764,58.9316,474.2758],[8.7678,58.9308,464.9325],[8.7663,58.9352,467.2654],[8.7578,58.9345,449.7633],[8.7534,58.9477,570.4738],[8.762,58.9485,562.7312],[8.7605,58.9529,619.2178],[8.7691,58.9537,565.0129],[8.7676,58.9581,642.6205],[8.7934,58.9604,562.8094],[8.792,58.9648,567.6363],[8.8092,58.9663,461.5462],[8.8077,58.9707,440.4095],[8.8249,58.9722,478.8019],[8.8235,58.9767,326.8468],[8.8321,58.9774,283.4528],[8.8291,58.9862,380.1499],[8.8636,58.9893,401.0949],[8.865,58.9848,384.1572],[8.9855,58.9953,239.2306],[8.9884,58.9864,230.9645],[8.997,58.9872,228.9514],[9.007,58.9562,244.4017],[9.0156,58.957,294.7598],[9.0228,58.9348,214.9824],[9.0314,58.9356,169.1232],[9.0342,58.9267,180.1153],[9.0428,58.9275,171.6686],[9.0442,58.923,154.3064],[9.0528,58.9238,168.3255],[9.0557,58.9149,157.3468],[9.0643,58.9157,147.1753],[9.0657,58.9112,130.4348],[9.0743,58.912,124.7565],[9.0757,58.9075,138.257],[9.0843,58.9083,115.5],[9.0857,58.9039,130.0574],[9.0943,58.9046,192.2236],[9.0957,58.9002,177.4841],[9.1129,58.9016,187.7454],[9.1143,58.8972,216.3076],[9.1229,58.8979,195.0667],[9.1243,58.8935,241.5014],[9.1329,58.8942,231.4319],[9.1343,58.8898,272.3326],[9.1429,58.8906,227.1985],[9.1443,58.8861,192.0584],[9.1529,58.8869,154.7786],[9.1557,58.878,200.6837],[9.1643,58.8787,174.8049],[9.1671,58.8699,205.9187],[9.1757,58.8706,210.2898],[9.1855,58.8396,171.5764],[9.1769,58.8389,175.4026]]],
[[[9.4375,58.886,5.3274],[9.4342,58.8879,1.3551],[9.4364,58.8835,0.0],[9.4403,58.8832,0.0],[9.4375,58.8854,0.0],[9.4375,58.886,5.3274]]],
[[[9.3219,58.8557,2.0277],[9.3181,58.8563,1.0623],[9.3225,58.8532,0.0],[9.3225,58.8513,0.0],[9.3264,58.8476,0.0],[9.3314,58.8479,0.0],[9.3292,58.8482,0.0],[9.3219,58.8557,2.0277]]],
[[[9.3147,58.8571,0.0],[9.3125,58.8576,3.467],[9.3092,58.8579,0.0],[9.3114,58.8563,0.0],[9.3147,58.8571,0.0]]],
[[[9.3164,58.8674,0.0],[9.3108,58.8682,23.2181],[9.3092,58.8657,0.0],[9.3125,58.8646,7.3189],[9.3142,58.8618,0.0],[9.3169,58.8621,24.8561],[9.3192,58.8601,0.0],[9.3242,58.8607,10.7441],[9.3225,58.8635,23.0961],[9.3164,58.8646,17.3701],[9.3164,58.8674,0.0]]],
[[[9.7742,59.0074,5.5181],[9.7697,59.0074,6.1812],[9.7703,59.0032,0.0],[9.7719,59.0024,20.0777],[9.7725,58.9963,1.8047],[9.7753,58.9926,0.0],[9.7781,58.9924,1.1268],[9.7792,58.9951,6.6996],[9.7781,58.9965,2.7877],[9.7797,58.9965,0.0],[9.7786,59.0024,3.7086],[9.7742,59.0074,5.5181]]],
[[[9.7558,59.0113,0.942],[9.7508,59.0121,0.6423],[9.7508,59.0076,0.9417],[9.7542,59.0035,0.0],[9.7547,58.9918,0.0],[9.7586,58.9907,0.8454],[9.7597,58.9912,0.0],[9.7592,58.9957,0.0],[9.7558,59.004,4.8491],[9.7603,59.0046,0.0],[9.7558,59.0113,0.942]]],
[[[9.7475,59.0399,6.7493],[9.7414,59.0404,1.0592],[9.7386,59.0374,1.9514],[9.7408,59.0371,0.3042],[9.7408,59.0349,0.3302],[9.7431,59.0337,0.0],[9.7475,59.0329,3.0123],[9.7481,59.029,2.858],[9.7542,59.0282,0.0],[9.7514,59.024,0.0],[9.7569,59.0243,0.0],[9.7597,59.0271,5.0968],[9.7697,59.0204,8.6415],[9.7642,59.0193,0.0],[9.7636,59.0179,0.0],[9.7686,59.0165,3.3162],[9.7703,59.0129,2.3232],[9.7792,59.0143,4.6488],[9.7758,59.0174,7.335],[9.7786,59.0179,1.6925],[9.7775,59.0199,0.0],[9.7808,59.0224,0.8226],[9.7797,59.0257,0.0],[9.7686,59.031,1.8971],[9.7575,59.0329,2.5553],[9.7542,59.0376,10.3196],[9.7475,59.0399,6.7493]]],
[[[9.7892,59.0315,0.0],[9.7892,59.0337,4.913],[9.7853,59.0337,1.2063],[9.7864,59.0315,0.0],[9.7892,59.0315,0.0]]],
[[[9.7764,59.0343,10.6352],[9.7725,59.0351,6.5167],[9.7747,59.0324,0.0],[9.7769,59.0326,5.2852],[9.7764,59.0343,10.6352]]],
[[[9.7814,59.0368,25.9884],[9.7786,59.0376,3.4715],[9.7781,59.0354,0.0],[9.7814,59.0349,0.0],[9.7814,59.0368,25.9884]]],
[[[9.7597,59.0457,0.0],[9.7586,59.0465,5.4488],[9.7564,59.0468,0.0],[9.7608,59.0446,1.1746],[9.7597,59.0457,0.0]]],
[[[9.7903,59.0471,0.0],[9.7881,59.0488,0.0],[9.7864,59.0454,0.0],[9.7914,59.0446,2.1874],[9.7903,59.0471,0.0]]],
[[[9.7869,59.0568,6.1439],[9.7831,59.0571,0.0],[9.7831,59.0521,3.0366],[9.7886,59.0493,0.0],[9.7958,59.0499,1.7689],[9.7953,59.0513,2.1951],[9.7869,59.0568,6.1439]]],
[[[9.7953,59.0568,0.0],[9.7936,59.0574,1.7355],[9.7936,59.0607,0.0],[9.7908,59.0607,0.0],[9.7919,59.0565,0.0],[9.7953,59.0568,0.0]]],
[[[9.7157,59.1054,3.6413],[9.7119,59.1065,19.8415],[9.7108,59.1021,4.1702],[9.7147,59.1015,0.0],[9.7157,59.1054,3.6413]]],
[[[9.5342,58.9263,13.3884],[9.5297,58.9271,0.0],[9.5297,58.924,3.967],[9.5342,58.9232,0.0],[9.5353,58.9188,2.1334],[9.5492,58.9185,0.0],[9.5464,58.9218,19.8293],[9.5342,58.9263,13.3884]]],
[[[9.5469,58.9274,0.0],[9.5436,58.9279,0.0],[9.5436,58.9254,0.0],[9.5464,58.9235,0.0],[9.5497,58.9238,0.0],[9.5497,58.9257,0.0],[9.5469,58.9274,0.0]]]]}}