{"type": "Feature","bbox": [16.7714,68.7229,17.487,68.9313],"geometry": {"type": "MultiPolygon","coordinates": [[[[16.7714,68.7234,3.7321],[16.775,68.7229,3.7751],[16.7766,68.7245,0.0],[16.7729,68.725,0.0],[16.7714,68.7234,3.7321]]],
[[[17.0667,68.8417,0.0],[17.0505,68.8484,0.0],[17.0521,68.8521,0.0],[17.0484,68.8547,0.0],[17.0495,68.8578,0.0],[17.0464,68.8588,0.0],[17.0474,68.862,0.0],[17.0391,68.8662,0.0],[17.025,68.8667,0.0],[17.0203,68.863,3.1771],[17.013,68.862,0.0],[17.012,68.8588,2.4306],[17.0047,68.8578,0.0],[17.0026,68.8557,0.0],[17.0057,68.8536,0.0],[17.0057,68.8505,2.421],[16.9938,68.85,0.0],[16.9901,68.8474,0.0],[16.9891,68.8443,13.5077],[16.9755,68.8411,0.0],[16.9682,68.8339,0.0],[16.963,68.8328,0.0],[16.9578,68.8255,18.3212],[16.9505,68.8245,0.0],[16.9464,68.8203,0.0],[16.9495,68.8172,0.0],[16.9443,68.8161,0.0],[16.9396,68.8104,0.0],[16.9432,68.8068,63.7453],[16.9359,68.8057,0.0],[16.9286,68.7963,30.809],[16.9234,68.7953,0.0],[16.9193,68.7911,0.0],[16.9224,68.7891,3.6175],[16.9193,68.7828,0.0],[16.9224,68.7807,13.0761],[16.9193,68.7766,0.0],[16.9224,68.7745,111.725],[16.9203,68.7693,390.8109],[16.9167,68.7688,427.6441],[16.9125,68.7708,353.1036],[16.8875,68.7708,319.3181],[16.8828,68.7672,525.3076],[16.875,68.7667,256.8037],[16.8734,68.7672,197.0395],[16.8745,68.7703,64.7528],[16.8729,68.7708,38.3401],[16.8568,68.7703,0.0],[16.8568,68.7672,0.0],[16.8599,68.7651,0.0],[16.8568,68.7609,0.0],[16.8599,68.7599,0.0],[16.8583,68.7562,0.0],[16.862,68.7526,132.5497],[16.8599,68.7505,69.7049],[16.8464,68.7474,0.0],[16.8443,68.7443,0.0],[16.8474,68.7422,8.0428],[16.8432,68.7359,6.9224],[16.8359,68.7349,0.0],[16.8328,68.7318,0.0],[16.8276,68.7307,0.0],[16.8255,68.7276,0.0],[16.8333,68.7271,3.1551],[16.8375,68.725,0.0],[16.8438,68.725,0.0],[16.8479,68.7271,18.4724],[16.8563,68.725,0.0],[16.8604,68.7271,18.6961],[16.8688,68.7271,24.2462],[16.8729,68.725,0.0],[16.8792,68.725,0.0],[16.8854,68.7271,111.7675],[16.8896,68.725,0.0],[16.8958,68.725,0.0],[16.9146,68.7312,0.0],[16.9292,68.7312,0.0],[16.9333,68.7333,0.0],[16.9438,68.7333,0.0],[16.9479,68.7354,0.0],[16.9688,68.7375,0.0],[16.9813,68.7417,11.5823],[17.0,68.7417,0.0],[17.0063,68.7438,52.2187],[17.0125,68.7417,0.0],[17.0167,68.7438,0.0],[17.0375,68.7438,0.0],[17.0417,68.7458,32.8392],[17.0479,68.7438,0.0],[17.0771,68.7438,0.0],[17.0812,68.7458,0.0],[17.0958,68.7458,0.0],[17.1,68.7479,0.0],[17.1083,68.7458,0.0],[17.1188,68.75,15.1132],[17.1333,68.75,0.0],[17.1375,68.7521,0.0],[17.1417,68.7521,0.0],[17.1453,68.7547,0.0],[17.1464,68.7578,0.0],[17.1583,68.7583,0.0],[17.1688,68.7625,0.0],[17.1745,68.763,0.0],[17.1776,68.7682,0.0],[17.1849,68.7693,0.0],[17.187,68.7714,0.0],[17.1797,68.7786,0.0],[17.187,68.7797,0.0],[17.1891,68.7828,0.0],[17.1797,68.7839,4.0692],[17.1807,68.787,0.0],[17.1776,68.788,0.0],[17.1766,68.7911,0.0],[17.1667,68.7937,0.0],[17.1604,68.7917,0.0],[17.1521,68.7917,0.0],[17.1505,68.7922,0.0],[17.1516,68.7953,0.0],[17.138,68.7963,0.0],[17.137,68.7995,0.0],[17.1313,68.8021,0.0],[17.1146,68.8021,0.0],[17.113,68.8026,0.0],[17.1141,68.8057,0.0],[17.1125,68.8063,0.0],[17.0984,68.8068,17.8871],[17.0995,68.8099,0.0],[17.0922,68.813,8.0458],[17.0932,68.8161,2.6525],[17.0839,68.8172,0.0],[17.0849,68.8203,0.0],[17.0818,68.8224,7.1969],[17.0849,68.8287,0.0],[17.0776,68.8318,8.0655],[17.0786,68.8349,0.0],[17.0714,68.838,0.0],[17.0724,68.8411,2.3198],[17.0667,68.8417,0.0]]],
[[[17.2687,68.9271,0.0],[17.263,68.9276,12.6161],[17.2563,68.9313,0.0],[17.25,68.9292,14.5611],[17.2292,68.9292,0.0],[17.2167,68.925,122.3362],[17.2068,68.9245,8.5381],[17.2036,68.9213,39.1547],[17.1984,68.9203,0.0],[17.1932,68.9151,0.0],[17.1896,68.9146,0.0],[17.1667,68.9208,0.0],[17.1437,68.9208,17.4127],[17.1396,68.9229,0.0],[17.1318,68.9234,2.5807],[17.125,68.9271,3.1168],[17.1167,68.9271,0.0],[17.113,68.9224,0.0],[17.1161,68.9193,8.3298],[17.113,68.9151,0.0],[17.1161,68.913,0.0],[17.1042,68.9104,0.0],[17.0964,68.9068,0.0],[17.1036,68.9036,7.3604],[17.1005,68.8984,0.0],[17.1146,68.8979,40.865],[17.1161,68.8974,65.0125],[17.1151,68.8943,0.0],[17.1245,68.8932,78.6312],[17.1234,68.8901,0.0],[17.1266,68.8891,6.2051],[17.1255,68.8859,0.0],[17.1286,68.8849,25.2461],[17.1276,68.8818,0.0],[17.1307,68.8807,0.0],[17.1297,68.8776,0.0],[17.137,68.8724,0.0],[17.1339,68.8672,0.0],[17.1432,68.8662,0.0],[17.1599,68.8578,13.6537],[17.1589,68.8547,0.0],[17.1661,68.8516,0.0],[17.1651,68.8484,0.0],[17.1724,68.8432,0.0],[17.1714,68.8401,0.0],[17.1828,68.8349,0.0],[17.1766,68.8276,0.0],[17.1714,68.8266,0.0],[17.1745,68.8245,4.98],[17.1734,68.8214,0.0],[17.1807,68.8182,20.6546],[17.1797,68.8151,0.0],[17.1828,68.8141,10.0442],[17.1828,68.8109,0.0],[17.1797,68.8068,0.0],[17.1854,68.8042,0.0],[17.1931,68.8037,0.0],[17.2,68.8,0.0],[17.2062,68.8,0.0],[17.2146,68.7958,0.0],[17.2375,68.7958,0.0],[17.2417,68.7937,0.0],[17.2458,68.7958,0.0],[17.2604,68.7958,0.0],[17.2646,68.7979,0.0],[17.275,68.7979,0.0],[17.2828,68.8005,0.0],[17.2859,68.8037,0.0],[17.2958,68.8063,0.0],[17.3042,68.8063,0.0],[17.3089,68.8099,0.0],[17.337,68.8172,0.0],[17.3432,68.8193,0.0],[17.3479,68.8229,0.0],[17.3682,68.8276,10.5958],[17.3745,68.8297,0.0],[17.3792,68.8333,0.0],[17.3833,68.8333,0.0],[17.4083,68.8417,0.0],[17.4125,68.8417,0.0],[17.4172,68.8453,0.0],[17.425,68.8479,0.0],[17.4292,68.8479,0.0],[17.4333,68.85,0.0],[17.4417,68.85,0.0],[17.4578,68.8547,0.0],[17.4641,68.8609,0.0],[17.4651,68.8641,10.1803],[17.4807,68.8672,0.0],[17.4818,68.8703,0.0],[17.487,68.8755,0.0],[17.4813,68.8792,0.0],[17.4734,68.8797,15.5985],[17.4745,68.8828,0.0],[17.4729,68.8833,0.0],[17.4542,68.8833,236.5205],[17.45,68.8812,405.4336],[17.4417,68.8812,445.399],[17.4333,68.8854,437.0038],[17.4151,68.8859,401.7148],[17.4068,68.8912,417.6573],[17.4146,68.8917,94.2847],[17.4208,68.8896,65.5231],[17.4224,68.8912,39.3873],[17.4125,68.8958,65.561],[17.4047,68.8964,191.8011],[17.4057,68.8995,70.8106],[17.3984,68.9026,183.0564],[17.3995,68.9057,51.648],[17.3839,68.913,275.2953],[17.3849,68.9161,30.0541],[17.3833,68.9167,89.8322],[17.363,68.9161,330.1496],[17.3609,68.913,425.861],[17.3682,68.9089,517.3973],[17.3583,68.9063,914.2866],[17.3292,68.9146,507.4348],[17.3125,68.9146,540.0005],[17.3083,68.9167,454.99],[17.2943,68.9172,437.4765],[17.2979,68.9208,250.8697],[17.3063,68.9208,203.7502],[17.3208,68.9167,323.9012],[17.3266,68.9224,44.0929],[17.3208,68.925,0.0],[17.2979,68.925,77.7275],[17.2938,68.9271,0.0],[17.2792,68.9271,0.0],[17.2729,68.925,26.1986],[17.2687,68.9271,0.0]]],
[[[17.3526,68.9172,301.1902],[17.3563,68.9167,291.2594],[17.3578,68.9182,256.2691],[17.3542,68.9187,268.2411],[17.3526,68.9172,301.1902]]],
[[[17.3609,68.9213,58.151],[17.3708,68.9208,35.8558],[17.3724,68.9224,0.0],[17.3625,68.9229,32.3879],[17.3609,68.9213,58.151]]]]}
,"properties": {"GID_2": "NOR.17.8_1","GID_0": "NOR","country": "Norway","GID_1": "NOR.17_1","province": "Troms","NL_NAME_1": "NA","county": "Ibestad","VARNAME_2": "NA","NL_NAME_2": "NA","TYPE_2": "Kommuner","ENGTYPE_2": "Municipality","CC_2": "NA","HASC_2": "NO.TR.IB","name": "Ibestad.county","area_km2": 246.01,"hist_schema_id": "Elevation0-9000","hist_area_km2": {"0": 20.9063,"25": 14.6137,"50": 12.938,"75": 9.3101,"100": 8.4387,"125": 9.1976,"150": 12.3442,"175": 12.4205,"200": 11.0297,"225": 10.2277,"250": 10.8112,"275": 9.6673,"300": 8.716,"325": 7.188,"350": 6.7594,"375": 5.7647,"400": 5.657,"425": 5.473,"450": 5.2129,"475": 5.2203,"500": 5.7493,"525": 4.3019,"550": 4.1107,"575": 3.7422,"600": 3.9105,"625": 3.6806,"650": 3.0072,"675": 2.701,"700": 2.6099,"725": 2.4723,"750": 2.4567,"775": 2.1894,"800": 2.3199,"825": 1.761,"850": 1.5768,"875": 1.2245,"900": 1.1627,"925": 0.9176,"950": 0.6803,"975": 0.6805,"1000": 0.6345,"1025": 0.497,"1050": 0.4204,"1075": 0.4128,"1100": 0.3287,"1125": 0.2675,"1150": 0.1529,"1175": 0.0841,"1200": 0.0459,"1250": 0.0153}}}