{"type":"Feature","properties":{"GID_2":"NOR.9.21_1","GID_0":"NOR","country":"Norway","GID_1":"NOR.9_1","province":"Nord-Trøndelag","NL_NAME_1":"NA","county":"Stjørdal","VARNAME_2":"NA","NL_NAME_2":"NA","TYPE_2":"Kommuner","ENGTYPE_2":"Municipality","CC_2":"NA","HASC_2":"NO.NT.SD","name":"Stjørdal.county"},
"geometry":{"type": "MultiPolygon","coordinates": [[[[10.9542,63.5632,227.5062],[10.9349,63.562,0.0],[10.9208,63.5542,68.7473],[10.9104,63.5542,0.0],[10.9057,63.5484,74.0009],[10.8964,63.5474,0.0],[10.8938,63.5438,67.149],[10.8896,63.5458,0.0],[10.875,63.5438,48.282],[10.8708,63.5458,0.0],[10.8646,63.5458,0.0],[10.8604,63.5438,0.0],[10.8458,63.5438,0.0],[10.8354,63.5396,0.0],[10.8313,63.5417,0.0],[10.8271,63.5396,17.0737],[10.8208,63.5396,6.9367],[10.8167,63.5417,0.0],[10.8021,63.5417,0.0],[10.7979,63.5396,0.0],[10.7792,63.5396,0.0],[10.7714,63.537,0.0],[10.7682,63.5276,21.0287],[10.763,63.5266,0.0],[10.7599,63.5214,0.0],[10.7547,63.5182,0.0],[10.7547,63.5151,0.0],[10.7578,63.513,23.8456],[10.7526,63.512,0.0],[10.7505,63.5068,0.0],[10.7536,63.5057,0.0],[10.7547,63.5026,0.0],[10.7672,63.4964,6.8777],[10.7745,63.4953,16.2913],[10.7734,63.4922,0.0],[10.7771,63.4896,1.9641],[10.7755,63.4859,1.5111],[10.7964,63.4776,0.0],[10.8036,63.4766,4.2684],[10.8104,63.4729,2.5194],[10.8146,63.4729,0.0],[10.8188,63.4708,0.0],[10.8438,63.4708,0.0],[10.8521,63.475,0.0],[10.8583,63.475,0.0],[10.8625,63.4771,10.0271],[10.8729,63.4771,15.4542],[10.8833,63.4708,22.9889],[10.9042,63.4708,3.4123],[10.9042,63.4688,0.0],[10.912,63.4661,1.4176],[10.912,63.463,0.6933],[10.9099,63.4609,0.0],[10.8938,63.4583,3.6767],[10.8901,63.4557,1.6671],[10.8932,63.4536,0.0],[10.8953,63.4484,4.5212],[10.888,63.4474,0.0],[10.8833,63.4437,64.5056],[10.863,63.4432,51.7199],[10.8599,63.4401,99.6412],[10.8519,63.4374,74.3368],[10.8543,63.43,247.3329],[10.8443,63.4294,269.7442],[10.8627,63.3716,294.2982],[10.8528,63.3709,351.0053],[10.8556,63.362,283.1147],[10.8656,63.3627,276.654],[10.867,63.3582,271.9462],[10.8769,63.3588,311.2185],[10.8783,63.3544,322.8261],[10.8882,63.355,279.2531],[10.8896,63.3506,362.3886],[10.8996,63.3512,305.4731],[10.901,63.3468,349.9854],[10.9109,63.3474,356.4737],[10.9123,63.3429,368.0258],[10.9222,63.3435,409.9215],[10.9236,63.3391,417.0129],[10.9335,63.3397,475.5238],[10.9349,63.3353,412.2017],[10.9448,63.3359,420.2913],[10.9462,63.3314,455.9886],[10.9859,63.3339,453.4245],[10.9845,63.3384,436.7574],[11.0936,63.3451,392.3631],[11.095,63.3406,400.4353],[11.1446,63.3437,419.494],[11.1459,63.3392,481.1838],[11.1559,63.3398,421.2794],[11.1545,63.3443,431.9934],[11.1743,63.3455,506.536],[11.173,63.3499,454.5386],[11.2028,63.3517,567.3794],[11.2041,63.3473,555.2964],[11.2339,63.3491,495.4854],[11.2352,63.3446,495.5132],[11.265,63.3464,507.6625],[11.2664,63.342,538.0258],[11.2961,63.3438,442.8894],[11.2975,63.3393,455.6305],[11.3272,63.3411,474.9945],[11.3286,63.3367,502.4428],[11.3584,63.3384,538.433],[11.3597,63.334,533.7536],[11.3895,63.3357,671.8251],[11.3908,63.3313,686.3948],[11.4206,63.3331,850.1775],[11.4219,63.3286,793.9164],[11.4417,63.3298,1028.9047],[11.4431,63.3253,1037.7065],[11.453,63.3259,1140.8031],[11.4503,63.3348,930.1852],[11.4603,63.3354,870.6133],[11.4563,63.3487,846.4539],[11.4662,63.3493,791.6312],[11.4636,63.3582,733.9315],[11.4735,63.3588,585.7875],[11.4709,63.3677,478.9597],[11.4808,63.3683,430.7817],[11.4768,63.3817,388.5],[11.4868,63.3822,388.5],[11.4841,63.3911,606.5749],[11.4941,63.3917,678.9962],[11.4901,63.4051,834.2982],[11.5001,63.4057,863.0397],[11.4974,63.4146,780.2166],[11.5074,63.4151,862.6438],[11.5048,63.4241,712.5313],[11.5147,63.4246,684.672],[11.5108,63.438,652.678],[11.5207,63.4386,537.3414],[11.5181,63.4475,458.921],[11.5281,63.4481,377.6264],[11.5254,63.457,351.1141],[11.5354,63.4575,315.8254],[11.5328,63.4664,314.2696],[11.5427,63.467,349.7113],[11.5414,63.4715,488.7667],[11.5514,63.4721,533.5231],[11.5501,63.4765,600.3032],[11.56,63.4771,578.3549],[11.5587,63.4815,626.6691],[11.5687,63.4821,627.9976],[11.5674,63.4866,660.708],[11.5774,63.4871,721.0405],[11.5761,63.4916,749.3155],[11.596,63.4927,820.3929],[11.5947,63.4972,788.4409],[11.6247,63.4989,809.5781],[11.6234,63.5034,869.8832],[11.6333,63.5039,898.239],[11.6268,63.5262,505.8637],[11.6368,63.5268,490.3221],[11.6303,63.5491,651.8063],[11.6503,63.5502,723.9521],[11.649,63.5547,782.1446],[11.659,63.5552,754.9216],[11.6577,63.5597,850.8109],[11.6677,63.5603,844.1439],[11.6664,63.5647,851.9431],[11.6764,63.5653,895.5416],[11.6751,63.5697,824.1003],[11.6851,63.5703,803.4823],[11.6838,63.5747,653.3973],[11.6938,63.5753,661.7094],[11.6925,63.5798,588.2546],[11.7125,63.5809,544.7078],[11.7113,63.5854,483.1819],[11.7213,63.5859,523.3737],[11.72,63.5904,440.4757],[11.73,63.5909,433.6009],[11.7287,63.5954,408.3213],[11.7387,63.596,402.0],[11.7374,63.6004,426.8533],[11.7174,63.5993,475.3014],[11.7187,63.5948,422.1101],[11.6586,63.5914,400.5273],[11.6573,63.5959,400.4733],[11.6473,63.5953,395.0],[11.6459,63.5998,401.0694],[11.6259,63.5986,398.467],[11.6272,63.5942,402.1497],[11.6172,63.5936,395.0],[11.6185,63.5891,431.3524],[11.5684,63.5863,395.16],[11.5658,63.5952,415.0083],[11.5558,63.5946,394.4727],[11.5545,63.599,396.5955],[11.4844,63.595,455.4132],[11.4857,63.5905,433.4026],[11.4456,63.5882,457.2782],[11.447,63.5837,453.7574],[11.417,63.582,499.0437],[11.4183,63.5775,433.8557],[11.3983,63.5764,314.5603],[11.3996,63.5719,350.8839],[11.3596,63.5696,354.2451],[11.3583,63.574,353.7843],[11.2882,63.5699,382.2976],[11.2869,63.5743,468.7075],[11.2769,63.5737,476.4095],[11.2755,63.5782,461.8654],[11.2655,63.5776,410.0045],[11.264099999999999,63.582,356.028],[11.2041,63.5784,283.4467],[11.2055,63.574,300.75],[11.1555,63.571,270.5],[11.1569,63.5665,336.6836],[11.1369,63.5653,323.3663],[11.1355,63.5697,270.5],[11.0855,63.5667,349.6742],[11.0841,63.5712,365.1746],[11.0341,63.5681,363.4868],[11.0327,63.5725,366.5343],[10.9927,63.5701,376.6644],[10.9942,63.5656,390.2633],[10.9742,63.5644,260.855],[10.9756,63.56,221.84],[10.9656,63.5593,185.2239],[10.9642,63.5638,229.6484],[10.9542,63.5632,227.5062]]],
[[[10.9045,63.4656,7.9941],[10.9042,63.4688,0.0],[10.9021,63.4687,0.0],[10.8979,63.4646,0.0],[10.9,63.4625,0.0],[10.9042,63.4625,12.1136],[10.9057,63.463,0.0],[10.9045,63.4656,7.9941]]],
[[[10.8797,63.5505,0.0],[10.8875,63.55,0.0],[10.8932,63.5536,0.0],[10.8911,63.5557,0.0],[10.8875,63.5563,0.0],[10.8818,63.5536,43.3716],[10.8797,63.5505,0.0]]],
[[[10.9242,63.5613,0.0],[10.918,63.5609,0.0],[10.9161,63.5604,0.0],[10.9229,63.5604,0.0],[10.9242,63.5613,0.0]]]]}}