{"type": "Feature","bbox": [3.9047,60.1625,5.2224,60.3125],"geometry": {"type": "MultiPolygon","coordinates": [[[[5.0182,60.1745,4.5453],[5.0083,60.1771,31.9738],[5.0026,60.1734,0.0],[5.0167,60.1729,0.0],[5.0182,60.1745,4.5453]]],
[[[5.0188,60.1958,24.0029],[5.0172,60.1943,10.4081],[5.0245,60.1943,0.0],[5.0229,60.1958,13.7775],[5.0188,60.1958,24.0029]]],
[[[5.0107,60.2835,65.9152],[5.0196,60.2846,52.3896],[5.0153,60.2938,5.0156],[5.0109,60.2932,0.0],[5.0099,60.288,51.506],[5.0057,60.2859,22.0299],[5.0,60.2875,30.2769],[4.9958,60.2854,33.0512],[4.9917,60.2854,12.9609],[4.9734,60.2901,20.6241],[4.9734,60.2932,27.03],[4.9792,60.2938,0.0],[4.9807,60.2953,0.0],[4.9734,60.2964,21.2639],[4.9745,60.2995,13.732],[4.9688,60.3021,7.4194],[4.9547,60.3016,18.7916],[4.9547,60.2984,0.0],[4.9599,60.2974,0.0],[4.9641,60.2943,0.0],[4.9568,60.2932,0.0],[4.9557,60.288,14.929],[4.9505,60.2849,0.0],[4.9583,60.2771,0.0],[4.9542,60.2729,7.2124],[4.9568,60.2651,8.1615],[4.9604,60.2625,10.1455],[4.9589,60.2547,12.933],[4.9661,60.2536,14.7752],[4.9703,60.2516,25.7817],[4.9729,60.2479,29.0878],[4.9755,60.2516,13.816],[4.9813,60.2521,0.0],[4.9839,60.2484,0.0],[4.987,60.2474,30.7229],[4.987,60.2443,17.3503],[4.9839,60.2422,0.0],[4.9854,60.2396,21.8832],[4.9859,60.2297,35.5343],[4.9891,60.2286,28.0739],[4.988,60.2234,6.6766],[4.9995,60.2182,18.7418],[5.0005,60.213,28.6551],[5.0083,60.2104,0.0],[5.0125,60.2125,2.644],[5.0182,60.212,25.2653],[5.0224,60.2099,38.9663],[5.0234,60.2047,23.5888],[5.025,60.2042,6.9624],[5.0458,60.2042,0.0],[5.0516,60.2068,0.0],[5.0536,60.2109,0.0],[5.0505,60.2141,30.3354],[5.0578,60.2172,0.0],[5.0542,60.2208,20.7391],[5.0563,60.2271,0.0],[5.0557,60.2307,0.0],[5.0484,60.2339,20.5861],[5.0484,60.2391,0.0],[5.0521,60.2396,45.8054],[5.0599,60.237,0.0],[5.0609,60.2339,0.0],[5.0641,60.2328,44.2247],[5.0609,60.2307,0.0],[5.0646,60.2271,30.2558],[5.063,60.2234,0.0],[5.0703,60.2182,23.8227],[5.0714,60.213,33.5411],[5.0745,60.2109,40.1411],[5.0709,60.2084,0.0],[5.0625,60.2083,0.0],[5.0526,60.2036,0.0],[5.0516,60.1984,0.0],[5.0464,60.1953,0.0],[5.0453,60.1901,15.6739],[5.0422,60.1891,0.0],[5.0401,60.1849,11.047],[5.0432,60.1828,0.0],[5.0438,60.1792,0.0],[5.0401,60.1766,0.0],[5.0391,60.1734,13.9246],[5.0339,60.1703,5.724],[5.0339,60.1651,19.4135],[5.0563,60.1646,0.0],[5.0604,60.1667,22.6812],[5.0646,60.1625,0.0],[5.0729,60.1625,20.3437],[5.0786,60.1651,19.6483],[5.0818,60.1745,14.8922],[5.0849,60.1766,0.0],[5.0776,60.1797,15.3313],[5.0766,60.1828,0.0],[5.0714,60.1859,21.4112],[5.0714,60.1911,17.915],[5.075,60.1937,3.3835],[5.0729,60.2,7.2569],[5.075,60.2021,0.0],[5.0807,60.1995,0.0],[5.0797,60.1943,0.0],[5.087,60.1911,3.0419],[5.0875,60.1854,0.0],[5.0859,60.1818,0.0],[5.1,60.175,19.2897],[5.1042,60.175,21.4777],[5.1099,60.1776,3.4819],[5.1125,60.1813,0.0],[5.1208,60.1813,11.201],[5.125,60.1792,0.0],[5.1292,60.1792,17.3939],[5.1333,60.1813,21.6271],[5.1411,60.1818,19.7639],[5.1521,60.1875,16.1409],[5.1578,60.188,0.0],[5.1583,60.1917,4.4843],[5.1563,60.1958,0.0],[5.1599,60.1995,0.0],[5.1568,60.2005,0.0],[5.1568,60.2036,9.2384],[5.1625,60.2021,12.7431],[5.1646,60.2042,18.3787],[5.1641,60.2057,0.0],[5.1589,60.2068,0.0],[5.1547,60.2099,0.0],[5.1578,60.2109,19.4799],[5.1589,60.2161,0.0],[5.162,60.2172,0.0],[5.162,60.2203,0.0],[5.1526,60.2255,9.3729],[5.1516,60.2307,0.0],[5.1464,60.2339,14.0306],[5.1453,60.2391,17.8918],[5.1422,60.2401,51.6224],[5.1411,60.2432,30.6426],[5.1339,60.2464,70.0172],[5.1307,60.2516,33.7867],[5.1276,60.2526,51.9881],[5.1266,60.2557,0.0],[5.1193,60.2589,47.2348],[5.1161,60.2641,13.5347],[5.1089,60.2651,5.7022],[5.1078,60.2682,2.4895],[5.1021,60.2708,3.4631],[5.0922,60.2693,0.0],[5.0911,60.2745,0.0],[5.0892,60.275,10.8903],[5.0917,60.2698,0.0],[5.0828,60.2688,61.6486],[5.0848,60.2644,69.2969],[5.0621,60.2618,53.2647],[5.0648,60.2683,65.4569],[5.0619,60.2715,37.6235],[5.0561,60.2659,2.5],[5.0496,60.2646,33.4467],[5.0469,60.2615,2.5],[5.0422,60.2623,21.649],[5.0365,60.2604,10.2232],[5.0284,60.2667,33.804],[5.0348,60.2697,11.0],[5.0418,60.2707,32.077],[5.0395,60.2764,36.6726],[5.0329,60.2795,32.8976],[5.0316,60.2719,11.0],[5.0259,60.2706,22.8659],[5.0216,60.2802,32.4663],[5.0128,60.2792,82.5307],[5.0107,60.2835,65.9152]]],
[[[5.1941,60.2353,18.0868],[5.188,60.2359,17.3573],[5.1813,60.2396,8.2805],[5.1688,60.2396,14.7877],[5.1667,60.2375,6.6637],[5.1703,60.2349,22.1504],[5.1693,60.2318,0.0],[5.1792,60.2292,0.0],[5.1875,60.2292,0.0],[5.1953,60.2318,1.3398],[5.1953,60.2349,10.1234],[5.1941,60.2353,18.0868]]],
[[[3.9063,60.1854,0.0],[3.9047,60.1839,0.0],[3.9078,60.1839,0.0],[3.9078,60.1849,0.0],[3.9063,60.1854,0.0]]],
[[[4.9917,60.2917,14.737],[4.9901,60.2911,27.4523],[4.9901,60.2901,0.0],[4.9932,60.2901,0.0],[4.9917,60.2917,14.737]]],
[[[4.9875,60.2938,39.7531],[4.9859,60.2922,26.3173],[4.9891,60.2922,19.7462],[4.9891,60.2932,27.235],[4.9875,60.2938,39.7531]]],
[[[5.0036,60.2964,36.5364],[5.0026,60.2943,0.0],[5.0042,60.2938,16.3718],[5.0078,60.2974,16.6622],[5.0062,60.2979,23.6039],[5.0036,60.2964,36.5364]]],
[[[5.2089,60.2359,22.3016],[5.2203,60.2359,0.0],[5.2224,60.2453,0.0],[5.2167,60.2479,42.71],[5.2047,60.2432,0.0],[5.2078,60.2411,20.0002],[5.2089,60.2359,22.3016]]],
[[[4.938,60.3047,8.0118],[4.9411,60.3047,2.7576],[4.9417,60.3063,10.9282],[4.937,60.3099,9.5905],[4.9297,60.3078,27.5848],[4.9297,60.3068,13.6439],[4.938,60.3047,8.0118]]],
[[[4.9505,60.312,14.3775],[4.9521,60.3104,0.0],[4.9578,60.3109,14.9462],[4.9563,60.3125,10.849],[4.9505,60.312,14.3775]]]]}
,"properties": {"GID_2": "NOR.7.28_1","GID_0": "NOR","country": "Norway","GID_1": "NOR.7_1","province": "Hordaland","NL_NAME_1": "NA","county": "Sund","VARNAME_2": "NA","NL_NAME_2": "NA","TYPE_2": "Kommuner","ENGTYPE_2": "Municipality","CC_2": "NA","HASC_2": "NO.HO.SU","name": "Sund.county","area_km2": 89.78407,"hist_schema_id": "Elevation0-9000","hist_area_km2": {"0": 12.3359,"25": 34.66791,"50": 21.88184,"75": 7.46189,"100": 3.92693,"125": 2.60069,"150": 2.67492,"175": 2.50663,"200": 0.9479,"225": 0.46346,"250": 0.23175,"275": 0.08427}}}