{"type":"Feature","properties":{"GID_2":"NOR.1.9_1","GID_0":"NOR","country":"Norway","GID_1":"NOR.1_1","province":"Akershus","NL_NAME_1":"NA","county":"Gjerdrum","VARNAME_2":"NA","NL_NAME_2":"NA","TYPE_2":"Kommuner","ENGTYPE_2":"Municipality","CC_2":"NA","HASC_2":"NO.AK.GJ","name":"Gjerdrum.county"},
"geometry":{"type": "MultiPolygon","coordinates": [[[[10.9135,60.1342,299.3981],[10.9046,60.1336,314.1392],[10.912,60.1069,349.9382],[10.921,60.1076,330.4005],[10.9247,60.0942,332.1891],[10.9336,60.0948,300.3593],[10.9348,60.0904,281.6557],[10.9259,60.0898,324.6789],[10.9382,60.0453,423.3428],[10.9471,60.0459,319.1542],[10.9483,60.0415,321.2043],[10.9573,60.0421,316.0576],[10.9585,60.0377,283.024],[10.9942,60.0401,222.9136],[10.9954,60.0357,222.0976],[11.0132,60.0369,233.9348],[11.0144,60.0324,208.4271],[11.0233,60.033,200.3544],[11.0246,60.0286,198.0729],[11.0424,60.0298,173.4944],[11.0412,60.0342,175.167],[11.0679,60.0361,293.1663],[11.0655,60.045,215.5123],[11.0744,60.0456,190.6613],[11.072,60.0545,114.5515],[11.0809,60.0551,115.6497],[11.0821,60.0506,122.1966],[11.0911,60.0512,111.4379],[11.0899,60.0557,124.3212],[11.0988,60.0563,130.8414],[11.0951,60.0696,123.8079],[11.1041,60.0702,133.9172],[11.0992,60.088,142.0001],[11.1082,60.0886,115.465],[11.1045,60.1019,128.3177],[11.1135,60.1025,134.8014],[11.1123,60.107,126.3811],[11.1212,60.1076,157.2957],[11.12,60.112,141.5165],[11.1111,60.1114,114.9519],[11.1099,60.1159,130.9086],[11.1009,60.1153,112.6384],[11.0997,60.1197,157.8362],[11.0908,60.1191,128.2574],[11.0896,60.1236,160.6342],[11.0806,60.123,110.977],[11.0818,60.1185,148.6911],[11.0639,60.1173,159.9763],[11.0652,60.1129,160.1957],[11.0473,60.1117,189.7452],[11.0461,60.1161,180.6037],[11.0103,60.1137,167.1924],[11.0066,60.127,208.5563],[10.9888,60.1258,226.1748],[10.9875,60.1302,279.3022],[10.9428,60.1272,315.8253],[10.9416,60.1316,327.934],[10.9237,60.1304,303.482],[10.9225,60.1348,307.477],[10.9135,60.1342,299.3981]]],
[[[10.9034,60.1381,327.246],[10.8944,60.1374,359.1497],[10.8957,60.133,367.2596],[10.9046,60.1336,314.1392],[10.9034,60.1381,327.246]]]]}}