{"type":"Feature","properties":{"GID_2":"NOR.5.14_1","GID_0":"NOR","country":"Norway","GID_1":"NOR.5_1","province":"Finnmark","NL_NAME_1":"NA","county":"Nordkapp","VARNAME_2":"NA","NL_NAME_2":"NA","TYPE_2":"Kommuner","ENGTYPE_2":"Municipality","CC_2":"NA","HASC_2":"NO.FI.NO","name":"Nordkapp.county"},
"geometry":{"type": "MultiPolygon","coordinates": [[[[25.8505,70.7599,4.523],[25.8536,70.762,12.2871],[25.8417,70.7667,0.0],[25.8354,70.7625,11.8491],[25.8271,70.7646,0.0],[25.8229,70.7625,0.0],[25.8104,70.7625,0.0],[25.8068,70.7589,0.0],[25.8167,70.7542,0.0],[25.8375,70.7542,0.0],[25.8474,70.7568,0.0],[25.8505,70.7599,4.523]]],
[[[26.6568,70.9507,203.7751],[26.6601,70.9604,145.2627],[26.6437,70.9604,11.9207],[26.6349,70.9547,151.6454],[26.6167,70.95,194.3168],[26.6104,70.9521,178.0063],[26.5812,70.9521,0.0],[26.5771,70.95,6.3351],[26.5708,70.9521,9.6752],[26.5609,70.9516,8.9778],[26.5536,70.9464,83.7243],[26.5464,70.9453,153.8345],[26.537,70.938,268.2732],[26.525,70.9375,142.3016],[26.5161,70.9318,274.7372],[26.4984,70.9287,44.5657],[26.5016,70.9255,283.906],[26.4958,70.9229,348.182],[26.4818,70.9203,94.0304],[26.4828,70.9172,154.2037],[26.4807,70.9151,346.1507],[26.4734,70.9141,284.0441],[26.4661,70.9089,280.6063],[26.4604,70.9083,187.1296],[26.4547,70.9057,82.4357],[26.4526,70.9026,26.9283],[26.4557,70.9005,67.7377],[26.4417,70.9,282.3467],[26.4286,70.8901,0.0],[26.4042,70.8854,187.5304],[26.3937,70.8792,291.6559],[26.3818,70.8786,114.0327],[26.3661,70.8672,278.1694],[26.3604,70.8667,144.9373],[26.3547,70.8641,84.2542],[26.3495,70.8588,267.2212],[26.3401,70.8578,44.8433],[26.3432,70.8547,178.9984],[26.3255,70.8516,0.0],[26.3286,70.8484,79.1984],[26.3229,70.8479,69.7388],[26.3172,70.8453,41.6937],[26.3203,70.8432,84.2144],[26.3182,70.8401,63.3712],[26.3104,70.8396,0.0],[26.3068,70.837,0.0],[26.3099,70.8339,49.9607],[26.3042,70.8313,257.4763],[26.2938,70.8313,206.1292],[26.2849,70.8255,264.2964],[26.2776,70.8245,74.8247],[26.2714,70.8203,0.0],[26.2745,70.8172,3.7093],[26.2583,70.8146,104.0905],[26.2542,70.8125,184.1198],[26.2422,70.812,0.0],[26.2453,70.8089,97.6599],[26.2255,70.7953,0.0],[26.2286,70.7922,0.0],[26.2255,70.788,7.136],[26.2313,70.7875,44.0987],[26.2328,70.7859,165.317],[26.2146,70.7854,17.2678],[26.2057,70.7797,56.099],[26.1958,70.7771,5.5577],[26.1708,70.7771,0.0],[26.1609,70.7745,47.4726],[26.1563,70.7708,73.1086],[26.1359,70.7703,0.0],[26.1318,70.7651,14.4221],[26.1411,70.7599,3.0902],[26.1401,70.7568,0.0],[26.1411,70.7547,32.8088],[26.1339,70.7536,0.0],[26.1318,70.7516,4.2809],[26.1328,70.7484,27.2136],[26.1297,70.7443,0.0],[26.1328,70.7422,12.7434],[26.1214,70.7349,13.3374],[26.1161,70.7297,8.6077],[26.1068,70.7286,0.0],[26.1141,70.7234,23.8259],[26.1,70.7229,0.0],[26.0984,70.7214,0.0],[26.1016,70.7193,0.0],[26.0979,70.7188,0.0],[26.0859,70.7255,23.9588],[26.087,70.7286,0.0],[26.0854,70.7292,0.0],[26.0583,70.7292,0.0],[26.0516,70.7234,23.2655],[26.0422,70.7224,0.0],[26.0453,70.7203,20.6051],[26.0432,70.7172,14.2938],[26.0375,70.7146,13.7627],[26.0318,70.7141,6.9732],[26.0349,70.7109,8.4245],[26.0318,70.7099,2.1684],[26.0297,70.7068,1.5435],[26.037,70.7037,9.5177],[26.0339,70.7005,0.0],[26.0432,70.6995,0.0],[26.0422,70.6964,0.0],[26.0453,70.6943,0.0],[26.0391,70.6901,21.1046],[26.0193,70.6849,0.0],[26.0286,70.6776,9.5015],[26.0214,70.6724,26.4325],[26.0172,70.6672,21.9985],[26.0182,70.6654,31.4561],[26.0875,70.6632,316.6605],[26.0862,70.6587,339.2992],[26.1131,70.6579,427.7949],[26.1144,70.6624,286.6052],[26.1413,70.6615,227.1241],[26.1427,70.666,255.8327],[26.1561,70.6656,316.8295],[26.1575,70.6701,359.346],[26.1844,70.6692,377.1066],[26.1857,70.6737,336.9723],[26.1992,70.6733,356.2431],[26.2005,70.6778,372.9792],[26.214,70.6773,413.5289],[26.2154,70.6818,440.2995],[26.2288,70.6814,450.9023],[26.2329,70.6948,492.2537],[26.2195,70.6953,472.4853],[26.2236,70.7087,465.6738],[26.2371,70.7083,460.1286],[26.2398,70.7173,449.9167],[26.2533,70.7168,446.1517],[26.2561,70.7258,549.0419],[26.2696,70.7254,557.6181],[26.2709,70.7299,559.1227],[26.2844,70.7294,555.0063],[26.2886,70.7429,513.1766],[26.3021,70.7424,521.9989],[26.3049,70.7514,494.1495],[26.3184,70.751,495.3036],[26.3212,70.7599,447.9586],[26.3347,70.7595,433.02],[26.3375,70.7685,333.6605],[26.351,70.768,302.3297],[26.3538,70.777,332.596],[26.3673,70.7766,379.2354],[26.3716,70.79,283.7917],[26.3851,70.7896,288.9094],[26.3879,70.7986,299.3003],[26.4015,70.7981,173.1037],[26.4043,70.8071,288.5126],[26.4178,70.8066,287.4031],[26.4207,70.8156,387.6842],[26.4342,70.8152,442.1551],[26.4371,70.8241,418.3809],[26.4506,70.8237,388.6942],[26.4535,70.8326,423.2924],[26.4671,70.8322,438.5822],[26.4685,70.8367,412.4712],[26.482,70.8362,418.3981],[26.4849,70.8452,439.7798],[26.4985,70.8447,453.3024],[26.4999,70.8492,440.6671],[26.5135,70.8488,420.2362],[26.5149,70.8533,394.3578],[26.5285,70.8528,338.6263],[26.53,70.8573,301.7361],[26.5435,70.8568,302.3551],[26.545,70.8613,330.1965],[26.5586,70.8609,312.9943],[26.56,70.8653,349.3366],[26.5736,70.8649,367.1987],[26.575,70.8694,384.8573],[26.5886,70.8689,386.2633],[26.596,70.8913,311.6823],[26.6096,70.8909,246.5658],[26.6169,70.9133,322.2599],[26.6305,70.9128,313.3271],[26.6394,70.9398,242.3712],[26.6531,70.9393,222.609],[26.6568,70.9507,203.7751]]],
[[[25.8188,70.8146,0.0],[25.8109,70.8152,22.5776],[25.812,70.8182,0.0],[25.8104,70.8187,11.1785],[25.7964,70.8161,0.0],[25.8021,70.8125,0.0],[25.8271,70.8125,0.0],[25.8312,70.8104,0.0],[25.8349,70.8109,0.0],[25.8292,70.8146,3.8],[25.8188,70.8146,0.0]]],
[[[25.8583,70.9583,0.0],[25.8521,70.9583,30.179],[25.8479,70.9604,2.4063],[25.8333,70.9604,12.2057],[25.8297,70.9568,0.0],[25.8359,70.9561,17.966],[25.8438,70.9521,0.0],[25.8661,70.9526,7.6044],[25.8641,70.9557,33.6539],[25.8583,70.9583,0.0]]],
[[[25.7354,70.7521,0.0],[25.7339,70.7505,0.0],[25.7516,70.7505,0.0],[25.7458,70.7542,16.2608],[25.7354,70.7521,0.0]]],
[[[25.3677,70.8657,20.8022],[25.3617,70.8433,18.5234],[25.3753,70.8429,38.2704],[25.3729,70.8339,81.0918],[25.3865,70.8335,120.885],[25.3841,70.8245,173.5495],[25.3977,70.8242,196.3074],[25.3965,70.8197,201.0967],[25.3829,70.82,162.2466],[25.3793,70.8066,216.3477],[25.3658,70.8069,177.848],[25.3622,70.7934,294.975],[25.3486,70.7938,254.4254],[25.3451,70.7803,332.9762],[25.3315,70.7807,271.6715],[25.3268,70.7627,294.3042],[25.3133,70.7631,347.1707],[25.3109,70.7541,340.6209],[25.338,70.7534,290.1929],[25.3368,70.7489,267.7212],[25.3773,70.7478,212.4543],[25.3761,70.7433,183.3559],[25.403199999999998,70.7425,141.9266],[25.402,70.738,147.4761],[25.4425,70.7369,155.0286],[25.4413,70.7324,131.8067],[25.4818,70.7312,144.1685],[25.4806,70.7267,140.6397],[25.5076,70.726,121.6804],[25.5064,70.7215,89.1185],[25.5199,70.7211,101.0119],[25.5186,70.7166,121.2717],[25.5321,70.7162,154.7645],[25.5309,70.7117,130.1616],[25.5444,70.7113,111.7876],[25.5432,70.7068,47.5795],[25.5494,70.7067,23.8641],[25.5521,70.7083,44.2473],[25.5641,70.7089,0.0],[25.5734,70.7161,5.172],[25.5828,70.7172,0.0],[25.588,70.7224,18.8735],[25.5953,70.7234,0.0],[25.6021,70.7271,23.668],[25.6125,70.7271,0.0],[25.6229,70.7333,0.0],[25.6349,70.7338,0.0],[25.6318,70.737,0.0],[25.6354,70.7396,5.1971],[25.6599,70.7391,3.0077],[25.662,70.737,18.0004],[25.6609,70.7338,5.4014],[25.6641,70.7328,36.479],[25.662,70.7297,13.7354],[25.6589,70.7286,0.0],[25.6604,70.7271,0.0],[25.675,70.7271,0.0],[25.6818,70.7307,4.2103],[25.6891,70.7318,0.0],[25.6859,70.7349,17.008],[25.6911,70.7391,7.609],[25.688,70.7401,7.8242],[25.6891,70.7432,4.9025],[25.6839,70.7474,8.3288],[25.6911,70.7484,0.0],[25.688,70.7516,0.0],[25.6911,70.7526,0.0],[25.6932,70.7557,9.0791],[25.6875,70.7583,37.5986],[25.6755,70.7557,0.0],[25.6786,70.7526,9.7793],[25.6708,70.7479,0.0],[25.6672,70.7484,13.7396],[25.6682,70.7516,0.0],[25.6661,70.7536,0.0],[25.6604,70.7542,0.0],[25.6557,70.7505,65.4541],[25.6417,70.7479,30.8372],[25.6349,70.7443,23.5319],[25.625,70.7417,9.3615],[25.6167,70.7417,3.8181],[25.6109,70.7443,0.0],[25.612,70.7516,7.91],[25.6104,70.7521,0.0],[25.6042,70.75,4.8569],[25.5958,70.75,0.0],[25.5943,70.7516,0.0],[25.5964,70.7536,0.0],[25.6021,70.7542,0.0],[25.6078,70.7568,0.0],[25.6047,70.7599,0.304],[25.6109,70.7641,6.5618],[25.6182,70.7651,0.0],[25.6203,70.7682,0.0],[25.6172,70.7703,0.0],[25.6234,70.7745,0.0],[25.6333,70.7771,28.196],[25.6396,70.7771,0.0],[25.6437,70.7792,32.3268],[25.6729,70.7792,0.0],[25.6958,70.7854,0.0],[25.7104,70.7854,0.0],[25.712,70.7849,18.454],[25.7109,70.7818,0.0],[25.7146,70.7813,0.0],[25.7271,70.7854,0.0],[25.7438,70.7854,0.0],[25.7505,70.7891,14.2606],[25.7578,70.7901,0.0],[25.7641,70.7943,0.0],[25.7609,70.7974,23.7503],[25.7641,70.8016,0.0],[25.7589,70.8057,0.0],[25.7766,70.8193,0.0],[25.7734,70.8214,9.5992],[25.7745,70.8245,0.0],[25.7734,70.8266,16.3533],[25.7979,70.8271,0.0],[25.8021,70.8292,0.0],[25.8083,70.8292,0.0],[25.812,70.8318,0.0],[25.8089,70.8349,0.0],[25.8271,70.8354,0.0],[25.8328,70.838,13.9359],[25.8297,70.8411,0.0],[25.8625,70.8479,0.0],[25.8693,70.8516,52.746],[25.8766,70.8526,0.0],[25.8813,70.8562,0.0],[25.8974,70.8588,0.0],[25.8943,70.862,17.3133],[25.9,70.8646,17.443],[25.9057,70.8651,0.0],[25.9026,70.8682,24.0354],[25.9057,70.8693,9.0206],[25.9078,70.8724,0.0],[25.9,70.875,0.0],[25.8875,70.8708,100.6549],[25.875,70.8708,0.0],[25.8625,70.8667,39.2929],[25.8563,70.8688,0.0],[25.8479,70.8667,18.1268],[25.8438,70.8688,0.0],[25.8297,70.8693,0.0],[25.8333,70.8729,0.0],[25.8458,70.8729,0.0],[25.8557,70.8755,0.0],[25.863,70.8807,0.0],[25.8703,70.8818,0.0],[25.8839,70.8932,0.0],[25.887,70.8943,0.0],[25.8813,70.8979,16.0648],[25.875,70.8958,17.3785],[25.8542,70.8958,2.4351],[25.8526,70.8974,0.0],[25.8583,70.8979,0.0],[25.8599,70.8995,0.0],[25.8542,70.9021,17.2191],[25.8458,70.9021,0.0],[25.8417,70.9,52.0926],[25.8188,70.9,46.3132],[25.8146,70.8979,85.6223],[25.7896,70.8979,0.0],[25.7833,70.8938,6.103],[25.763,70.8932,0.0],[25.7599,70.8901,0.0],[25.7526,70.8891,1.7336],[25.7464,70.8849,0.0],[25.7495,70.8828,0.0],[25.7484,70.8797,0.0],[25.7495,70.8776,0.0],[25.7443,70.8714,0.0],[25.7495,70.8672,0.0],[25.7438,70.8667,0.0],[25.7333,70.8625,0.0],[25.7297,70.8662,0.0],[25.7391,70.8745,0.0],[25.7333,70.8771,0.0],[25.7255,70.8776,83.6621],[25.7266,70.8849,0.0],[25.7188,70.8854,22.5056],[25.7146,70.8875,0.0],[25.6958,70.8875,90.3837],[25.6922,70.8901,0.6413],[25.7021,70.8938,46.2872],[25.7141,70.8943,0.0],[25.713,70.8974,0.0],[25.7141,70.8995,0.0],[25.7109,70.9005,0.0],[25.7114,70.9042,0.0],[25.7083,70.9063,16.8839],[25.6958,70.9063,128.439],[25.6854,70.9104,0.0],[25.6792,70.9063,127.7827],[25.6667,70.9063,126.6394],[25.6625,70.9042,159.4369],[25.6542,70.9042,121.4509],[25.65,70.9063,0.0],[25.6292,70.9063,47.2536],[25.6229,70.9042,172.7989],[25.6187,70.9063,52.5494],[25.6042,70.9063,0.0],[25.6,70.9042,33.0007],[25.5938,70.9042,0.0],[25.5901,70.9016,0.0],[25.5932,70.8984,62.5523],[25.5891,70.8964,69.1935],[25.5854,70.8958,51.5194],[25.5792,70.8979,0.0],[25.5755,70.8953,0.0],[25.5786,70.8932,0.0],[25.5771,70.8917,0.0],[25.5568,70.8912,0.0],[25.5661,70.888,0.0],[25.5578,70.8818,240.8619],[25.5438,70.8792,16.4886],[25.537,70.8755,0.0],[25.5297,70.8745,0.0],[25.5328,70.8714,42.5891],[25.5172,70.8703,0.0],[25.5083,70.8625,0.0],[25.4979,70.8625,2.1513],[25.4964,70.8641,8.7357],[25.5078,70.8714,0.0],[25.512,70.8766,0.0],[25.5063,70.8792,10.7854],[25.4979,70.8792,0.0],[25.488,70.8724,0.0],[25.4911,70.8693,7.879],[25.4771,70.8667,0.0],[25.4714,70.8641,0.0],[25.4589,70.8536,0.0],[25.462,70.8505,10.5401],[25.4526,70.8495,1.5473],[25.4479,70.8458,1.8318],[25.438,70.8464,0.0],[25.4391,70.8495,0.0],[25.4359,70.8505,0.0],[25.4474,70.8599,0.0],[25.4208,70.8604,12.131],[25.4167,70.8625,0.0],[25.4089,70.863,0.0],[25.4104,70.8646,21.6344],[25.4208,70.8646,0.0],[25.4255,70.8682,11.9035],[25.4349,70.8693,0.0],[25.4396,70.8729,0.0],[25.45,70.8729,0.0],[25.4542,70.875,0.0],[25.4688,70.8771,0.0],[25.4734,70.8807,0.0],[25.4813,70.8812,0.0],[25.4859,70.8849,0.0],[25.4932,70.8859,0.0],[25.5021,70.8917,0.0],[25.5125,70.8938,0.0],[25.5187,70.8917,0.0],[25.5255,70.8953,0.0],[25.5328,70.8964,0.0],[25.5297,70.8984,0.0],[25.5318,70.9016,0.0],[25.5443,70.9099,0.0],[25.5516,70.9109,0.0],[25.5354,70.9208,19.9776],[25.5229,70.9208,145.5152],[25.5187,70.9229,25.326],[25.5109,70.9234,0.0],[25.5068,70.9255,8.9906],[25.5099,70.9287,6.2577],[25.5005,70.9297,130.911],[25.5036,70.9349,0.0],[25.4963,70.9354,16.052],[25.4899,70.9121,369.2946],[25.4763,70.9125,264.012],[25.4738,70.9035,233.561],[25.4602,70.9039,296.1498],[25.459,70.8994,269.7131],[25.4454,70.8998,255.459],[25.443,70.8908,245.0632],[25.4293,70.8912,129.8785],[25.4281,70.8867,89.3022],[25.4145,70.8871,77.1021],[25.4121,70.8781,178.0267],[25.3985,70.8785,66.4053],[25.3961,70.8695,115.0865],[25.3825,70.8699,141.7426],[25.3813,70.8654,91.1187],[25.3677,70.8657,20.8022]]],
[[[25.6854,71.15,0.0],[25.6776,71.1505,52.9533],[25.6828,71.1547,0.0],[25.6797,71.1578,0.0],[25.6849,71.1609,0.0],[25.687,71.1641,0.0],[25.6734,71.1713,0.0],[25.6755,71.1745,0.0],[25.6786,71.1755,0.0],[25.6755,71.1776,0.0],[25.6766,71.1807,16.3797],[25.675,71.1813,44.8406],[25.6714,71.1807,79.194],[25.6641,71.1755,170.9026],[25.6568,71.1745,0.0],[25.6599,71.1724,165.4975],[25.6583,71.1708,152.976],[25.6458,71.1708,38.3826],[25.6396,71.1667,268.1807],[25.6271,71.1667,232.0961],[25.6063,71.1604,269.2548],[25.6,71.1604,210.9342],[25.5875,71.1563,161.547],[25.5812,71.1563,0.0],[25.5729,71.15,256.5046],[25.5693,71.1505,238.7417],[25.5703,71.1536,5.0888],[25.563,71.1568,71.3202],[25.5609,71.1589,0.0],[25.562,71.162,0.0],[25.5563,71.1646,0.0],[25.5443,71.162,124.2828],[25.5297,71.1516,0.0],[25.5313,71.15,0.0],[25.5438,71.15,0.0],[25.5583,71.1458,0.0],[25.5708,71.1458,119.2511],[25.5792,71.1417,0.0],[25.5917,71.1417,146.562],[25.6005,71.1359,0.0],[25.6099,71.1349,3.426],[25.6083,71.1333,141.2607],[25.5917,71.1333,184.8798],[25.5901,71.1318,31.3379],[25.6005,71.1255,0.0],[25.6099,71.1245,0.0],[25.6089,71.1214,0.0],[25.6125,71.1188,0.0],[25.625,71.1188,115.8494],[25.6396,71.1146,0.0],[25.6458,71.1146,-0.0672],[25.65,71.1125,0.0],[25.6641,71.112,0.0],[25.6932,71.0953,0.0],[25.6922,71.0922,0.0],[25.6964,71.0901,0.0],[25.7042,71.0896,6.4799],[25.7089,71.0859,0.0],[25.7182,71.0849,13.869],[25.7172,71.0818,0.0],[25.7188,71.0813,0.0],[25.737,71.0787,0.0],[25.7391,71.0755,0.0],[25.7349,71.0714,4.1857],[25.7292,71.0687,22.2188],[25.7188,71.0687,0.0],[25.7125,71.0667,5.0009],[25.7068,71.0693,0.0],[25.712,71.0745,0.0],[25.7042,71.075,40.9587],[25.6958,71.0792,0.0],[25.6776,71.0818,121.8721],[25.6703,71.087,55.3792],[25.6609,71.088,126.5923],[25.662,71.0911,0.0],[25.6604,71.0917,8.5133],[25.6313,71.0938,180.4732],[25.625,71.0979,101.0815],[25.6125,71.0979,159.4052],[25.6083,71.1,139.3413],[25.6047,71.0995,47.8661],[25.5958,71.0938,183.8152],[25.5771,71.0938,0.0],[25.5729,71.0917,98.1],[25.5583,71.0917,31.2624],[25.5568,71.0932,0.0],[25.5589,71.0953,0.0],[25.5682,71.0964,0.0],[25.5651,71.0984,4.3097],[25.5661,71.1016,9.7774],[25.5651,71.1036,12.6383],[25.5682,71.1078,79.7049],[25.5589,71.1088,91.1624],[25.562,71.1109,5.6191],[25.5604,71.1125,0.0],[25.55,71.1104,211.6268],[25.5458,71.1125,150.4919],[25.5125,71.1125,117.532],[25.5083,71.1104,249.2068],[25.4958,71.1104,31.8716],[25.4896,71.1062,34.4618],[25.4813,71.1062,7.364],[25.4797,71.1068,5.6676],[25.4807,71.1099,0.0],[25.4792,71.1104,0.0],[25.4625,71.1125,86.5189],[25.4583,71.1146,35.0947],[25.45,71.1146,4.6005],[25.4464,71.1109,0.0],[25.4536,71.1068,159.0587],[25.4505,71.1057,9.3658],[25.4464,71.1005,0.0],[25.4557,71.0953,50.1658],[25.4547,71.0922,0.0],[25.4599,71.088,19.9609],[25.4438,71.0875,2.258],[25.4333,71.0917,0.0],[25.4271,71.0875,69.8116],[25.4188,71.0875,93.4523],[25.4063,71.0938,23.2529],[25.3813,71.0938,23.4108],[25.3797,71.0953,0.0],[25.3849,71.0995,7.8801],[25.3771,71.1,15.2921],[25.3688,71.1042,6.5622],[25.3589,71.1036,4.1798],[25.3641,71.0995,3.535],[25.3604,71.0958,0.0],[25.3354,71.0958,0.0],[25.3292,71.0938,0.0],[25.325,71.0958,6.5302],[25.3167,71.0958,24.5871],[25.3042,71.0917,160.9671],[25.2979,71.0938,152.2926],[25.2734,71.0932,0.0],[25.2807,71.0891,188.8085],[25.2797,71.0859,5.2967],[25.2818,71.0839,0.0],[25.2896,71.0833,1.4983],[25.2979,71.0792,0.0],[25.3146,71.0771,17.0162],[25.3203,71.0745,8.9488],[25.313,71.0672,122.5432],[25.3208,71.0667,109.2706],[25.3224,71.0651,214.6328],[25.3021,71.0646,205.8796],[25.2979,71.0625,326.0989],[25.2875,71.0625,268.2441],[25.2833,71.0604,295.6216],[25.2734,71.0609,128.0951],[25.2745,71.0641,26.9949],[25.2729,71.0646,2.2308],[25.2651,71.062,27.9401],[25.2682,71.0589,130.1725],[25.2609,71.0578,1.7194],[25.2641,71.0547,62.052],[25.2547,71.0537,0.0],[25.2526,71.0505,4.4636],[25.2729,71.05,0.0],[25.2771,71.0479,0.0],[25.2833,71.0479,0.0],[25.2849,71.0463,0.0],[25.2708,71.0458,0.0],[25.2661,71.0422,66.3682],[25.2589,71.0411,52.1528],[25.2526,71.0359,0.0],[25.2604,71.0354,143.6754],[25.262,71.0339,210.9932],[25.2547,71.0328,21.8547],[25.2578,71.0297,58.0327],[25.2547,71.0277,0.0],[25.2604,71.025,0.0],[25.2682,71.0245,174.7765],[25.2724,71.0224,151.912],[25.2693,71.0193,0.0],[25.2771,71.0188,104.881],[25.2854,71.0146,0.0],[25.2979,71.0146,24.3734],[25.3021,71.0125,0.0],[25.3292,71.0125,0.0],[25.3438,71.0167,39.0866],[25.3708,71.0188,0.0],[25.3833,71.0229,0.0],[25.4083,71.0229,0.0],[25.4266,71.0276,0.0],[25.4245,71.0307,23.7597],[25.4214,71.0318,85.8143],[25.425,71.0354,0.0],[25.4312,71.0333,0.0],[25.4375,71.0333,16.9131],[25.4417,71.0313,35.9232],[25.45,71.0313,7.5961],[25.4542,71.0333,10.3033],[25.462,71.0339,0.0],[25.4667,71.0375,0.0],[25.475,71.0375,0.0],[25.4833,71.0333,0.0],[25.4917,71.0333,0.0],[25.4979,71.0354,0.0],[25.5021,71.0333,0.0],[25.5208,71.0333,0.0],[25.5292,71.0292,0.0],[25.5354,71.0313,0.0],[25.5438,71.0313,0.0],[25.5453,71.0297,13.1409],[25.5401,71.0266,0.0],[25.5432,71.0245,0.0],[25.5417,71.0229,15.7063],[25.5313,71.0229,14.2004],[25.5167,71.0188,70.1382],[25.5083,71.0208,0.0],[25.5036,71.0172,22.869],[25.4964,71.0162,0.0],[25.4911,71.013,2.2149],[25.4771,71.0104,32.3345],[25.4703,71.0068,217.5986],[25.4521,71.0021,275.007],[25.4464,71.0026,177.3329],[25.4417,71.0062,0.0],[25.4354,71.0042,0.0],[25.4292,71.0042,0.0],[25.4276,71.0026,0.0],[25.4349,70.9984,203.2651],[25.425,70.9979,221.4315],[25.4188,71.0,69.4811],[25.4146,70.9979,150.9052],[25.4021,70.9979,48.395],[25.3964,70.9922,79.3224],[25.4036,70.9912,53.0914],[25.4026,70.988,0.0],[25.4042,70.9875,0.0],[25.4167,70.9875,8.0153],[25.4312,70.9833,0.0],[25.4479,70.9812,13.3189],[25.4495,70.9797,10.5489],[25.4464,70.9786,0.0],[25.4479,70.9771,0.0],[25.4604,70.9771,11.6285],[25.4688,70.9729,0.0],[25.4766,70.9724,5.2288],[25.4693,70.9651,0.0],[25.4891,70.962,0.0],[25.4911,70.9599,18.8048],[25.4901,70.9568,48.9019],[25.4932,70.9557,100.2301],[25.4922,70.9526,5.4389],[25.4974,70.9495,29.9324],[25.4964,70.9464,0.0],[25.5104,70.9458,0.0],[25.5172,70.9422,0.0],[25.5245,70.9411,0.0],[25.5234,70.938,0.0],[25.5417,70.9354,0.0],[25.55,70.9313,0.0],[25.5771,70.9313,0.0],[25.5896,70.9354,0.0],[25.6021,70.9354,0.0],[25.6068,70.9391,108.8075],[25.6141,70.9401,60.394],[25.6182,70.9422,20.5394],[25.6151,70.9453,71.1097],[25.6187,70.9479,0.0],[25.6271,70.9479,0.0],[25.6313,70.9458,0.0],[25.6563,70.9458,0.0],[25.6708,70.9417,0.0],[25.7125,70.9417,0.0],[25.7167,70.9437,0.0],[25.7286,70.9443,0.0],[25.7307,70.9474,7.6302],[25.7151,70.9484,159.2489],[25.7193,70.9516,0.0],[25.7266,70.9526,0.0],[25.7208,70.9563,0.0],[25.7146,70.9563,0.0],[25.7104,70.9583,0.0],[25.7021,70.9583,0.0],[25.6979,70.9563,0.0],[25.6833,70.9563,20.3321],[25.6818,70.9578,0.0],[25.6995,70.9609,0.0],[25.7016,70.9641,0.0],[25.6984,70.9661,2.6552],[25.7161,70.9693,0.0],[25.7109,70.9734,0.0],[25.713,70.9766,2.9311],[25.7203,70.9776,3.1277],[25.7297,70.9849,0.0],[25.7391,70.9859,0.0],[25.7438,70.9896,0.0],[25.7516,70.987,0.0],[25.7484,70.9838,0.0],[25.7542,70.9812,0.0],[25.762,70.9807,2.8051],[25.775,70.9729,0.0],[25.7875,70.9729,0.0],[25.7917,70.9708,0.0],[25.8,70.9708,0.0],[25.8016,70.9714,0.0],[25.8005,70.9745,0.0],[25.8021,70.975,0.0],[25.8479,70.975,0.0],[25.8521,70.9729,0.0],[25.8646,70.9729,0.0],[25.8688,70.9708,0.0],[25.8813,70.9708,3.1265],[25.8896,70.9667,0.0],[25.9104,70.9667,11.0505],[25.9161,70.9724,13.5535],[25.9104,70.9729,190.5967],[25.9089,70.9745,117.5551],[25.9161,70.9755,0.0],[25.9208,70.9792,0.0],[25.937,70.9818,0.0],[25.9339,70.9849,80.3044],[25.937,70.987,0.0],[25.9292,70.9875,18.8223],[25.9276,70.9891,0.0],[25.9375,70.9917,0.0],[25.9562,70.9917,0.0],[25.9609,70.9953,0.0],[25.9646,70.9958,0.0],[25.9703,70.9922,7.2412],[25.9682,70.9901,21.7363],[25.9604,70.9896,0.0],[25.9589,70.988,0.0],[25.9682,70.987,20.6556],[25.9672,70.9797,0.0],[25.9745,70.9766,0.0],[25.9776,70.9734,0.0],[26.0083,70.9729,0.0],[26.0125,70.975,86.4619],[26.0245,70.9755,4.623],[26.0193,70.9797,0.0],[26.0203,70.9828,0.0],[26.0172,70.9838,0.0],[26.0187,70.9854,0.0],[26.0286,70.9849,0.0],[26.0276,70.9818,0.0],[26.0292,70.9812,0.0],[26.05,70.9812,0.0],[26.0542,70.9833,14.7826],[26.0667,70.9833,0.0],[26.0708,70.9854,0.0],[26.0875,70.9854,0.0],[26.0958,70.9896,20.6018],[26.1063,70.9896,0.0],[26.1104,70.9917,26.8627],[26.1182,70.9922,0.0],[26.1224,70.9964,17.1868],[26.1193,70.9984,32.096],[26.1224,71.0005,0.0],[26.1193,71.0026,0.0],[26.1208,71.0042,0.0],[26.1396,71.0042,0.0],[26.1437,71.0062,1.9194],[26.1667,71.0062,0.0],[26.1708,71.0083,0.0],[26.1771,71.0083,0.0],[26.1818,71.012,0.0],[26.1875,71.0125,0.0],[26.1932,71.0151,0.0],[26.2068,71.0266,22.9311],[26.2161,71.0276,0.0],[26.2203,71.0318,0.0],[26.2193,71.0349,0.0],[26.2328,71.0359,0.0],[26.2313,71.0375,0.0],[26.2234,71.038,0.0],[26.2214,71.0401,10.4432],[26.2266,71.0474,0.0],[26.2245,71.0495,0.0],[26.2167,71.05,141.8534],[26.2151,71.0516,177.5049],[26.2203,71.0547,60.543],[26.2245,71.0599,1.8197],[26.2224,71.062,23.2277],[26.2167,71.0625,0.0],[26.2125,71.0604,47.788],[26.1958,71.0604,4.111],[26.1896,71.0563,160.7324],[26.1771,71.0563,115.6226],[26.1729,71.0542,247.2505],[26.1646,71.0563,71.2163],[26.1599,71.0526,222.1861],[26.1505,71.0516,120.2403],[26.1458,71.0479,79.4694],[26.1396,71.05,21.9933],[26.1359,71.0495,0.0],[26.138,71.0463,47.4443],[26.1411,71.0453,43.5336],[26.1396,71.0437,190.8219],[26.1313,71.0437,266.7151],[26.125,71.0458,204.1295],[26.1151,71.0432,75.7636],[26.1083,71.0396,221.759],[26.1026,71.0391,181.8982],[26.0953,71.0339,238.9369],[26.0896,71.0333,144.2157],[26.0839,71.0307,64.3859],[26.0786,71.0255,121.3848],[26.0693,71.0245,8.1485],[26.0724,71.0214,80.6853],[26.0651,71.0203,0.0],[26.0661,71.0172,0.0],[26.063,71.0141,0.0],[26.0661,71.0109,86.733],[26.0526,71.012,0.0],[26.0505,71.0099,0.0],[26.0536,71.0078,133.5737],[26.0521,71.0062,193.8351],[26.0401,71.0109,6.7948],[26.0432,71.0141,0.0],[26.0354,71.0146,3.0289],[26.0313,71.0167,3.9753],[26.0187,71.0167,0.7904],[26.0172,71.0172,4.396],[26.0182,71.0203,32.252],[26.0146,71.0208,27.0217],[26.0099,71.0172,0.8613],[26.0005,71.0162,0.0],[25.9953,71.0109,2.394],[25.9896,71.0083,30.2451],[25.925,71.0083,181.0026],[25.9188,71.0104,66.6239],[25.9083,71.0062,199.7067],[25.8953,71.0141,0.0],[25.8875,71.0146,2.6169],[25.8818,71.0182,9.222],[25.8896,71.0229,0.0],[25.8958,71.0208,0.0],[25.9083,71.0208,11.0156],[25.9146,71.0188,0.0],[25.9208,71.0229,0.0],[25.9271,71.0208,0.0],[25.9375,71.0208,0.0],[25.9417,71.0229,0.0],[25.9583,71.0229,5.1669],[25.9661,71.0286,0.0],[25.9464,71.0318,135.4836],[25.9474,71.0349,0.0],[25.9458,71.0354,0.0],[25.9318,71.0359,47.579],[25.937,71.0411,0.0],[25.9313,71.0437,12.5468],[25.9234,71.0443,28.0706],[25.9188,71.0479,0.0],[25.9125,71.0479,0.0],[25.9063,71.05,8.9443],[25.9021,71.0479,25.443],[25.8958,71.0479,11.4513],[25.8896,71.0458,0.0],[25.888,71.0474,6.9695],[25.8911,71.0495,0.0],[25.888,71.0516,34.2913],[25.8901,71.0537,0.0],[25.8979,71.0542,0.0],[25.8995,71.0557,0.0],[25.8937,71.0583,0.0],[25.8792,71.0583,31.7059],[25.875,71.0563,204.8699],[25.8708,71.0563,189.6428],[25.8693,71.0578,117.1948],[25.8724,71.0599,0.0],[25.8682,71.062,121.572],[25.8479,71.0625,49.8341],[25.8464,71.063,7.597],[25.8474,71.0661,0.0],[25.8453,71.0682,0.0],[25.8375,71.0687,6.8873],[25.8359,71.0703,127.1519],[25.8479,71.0708,0.0],[25.8521,71.0729,0.0],[25.8708,71.0729,0.0],[25.875,71.075,0.0],[25.8833,71.075,0.0],[25.8875,71.0729,0.0],[25.9083,71.0729,0.0],[25.9125,71.075,0.0],[25.9203,71.0755,0.0],[25.9172,71.0776,0.0],[25.9188,71.0792,0.0],[25.9438,71.0792,0.0],[25.9562,71.0833,87.0833],[25.9625,71.0813,24.4129],[25.9771,71.0813,0.0],[25.9813,71.0833,164.4263],[25.9875,71.0833,0.0],[25.9974,71.0901,5.7196],[25.9958,71.0917,52.6548],[25.988,71.0922,77.5977],[25.9901,71.0953,3.3195],[25.9938,71.0958,11.8548],[26.0,71.0938,0.0],[26.0042,71.0958,32.6361],[26.0167,71.0958,0.0],[26.0266,71.1026,62.0275],[26.025,71.1042,242.183],[26.0167,71.1042,240.0666],[26.0104,71.1021,300.5622],[26.0063,71.1042,137.7341],[25.9922,71.1047,75.6512],[25.9943,71.1078,15.322],[26.0187,71.1125,1.0],[26.0271,71.1167,4.4019],[26.0307,71.1162,1.0],[26.0354,71.1125,1.0],[26.0391,71.113,2.9865],[26.0432,71.1162,0.0],[26.0359,71.1193,1.7641],[26.0339,71.1214,0.0],[26.0349,71.1245,0.0],[26.0307,71.1266,27.5468],[26.0193,71.1255,260.393],[26.0214,71.1286,41.439],[26.0245,71.1297,0.0],[26.0229,71.1312,0.0],[26.0104,71.1312,15.2162],[26.0089,71.1318,9.3981],[26.0099,71.1349,0.0],[26.0021,71.1354,0.0],[25.9979,71.1375,0.0],[25.9708,71.1375,95.1701],[25.962,71.1318,204.6114],[25.9547,71.1307,0.0],[25.9557,71.1276,102.7554],[25.9484,71.1224,0.0],[25.9516,71.1193,166.7269],[25.9396,71.1104,46.2004],[25.9255,71.113,170.1431],[25.9328,71.1203,0.0],[25.9255,71.1234,96.3652],[25.9234,71.1255,47.2763],[25.9245,71.1286,0.0],[25.9229,71.1292,1.9756],[25.9125,71.125,4.9928],[25.9005,71.1245,4.4765],[25.8922,71.1182,0.0],[25.8953,71.1151,190.0279],[25.8776,71.112,0.0],[25.8688,71.1062,160.5518],[25.8625,71.1083,45.7982],[25.8542,71.1083,0.0],[25.85,71.1062,23.8503],[25.8354,71.1062,31.9567],[25.8255,71.1109,6.7737],[25.8271,71.1125,0.1872],[25.8432,71.1151,0.0],[25.8479,71.1188,17.3235],[25.8641,71.1214,0.0],[25.8661,71.1234,0.0],[25.8651,71.1266,35.3008],[25.8661,71.1286,5.0672],[25.8646,71.1292,1.8839],[25.8609,71.1286,12.9943],[25.8563,71.125,62.7403],[25.85,71.125,23.4298],[25.8104,71.1146,49.4784],[25.8042,71.1146,4.1678],[25.7979,71.1104,26.41],[25.788,71.1109,0.0],[25.7839,71.113,59.3447],[25.7849,71.1162,23.5527],[25.7833,71.1167,0.0],[25.775,71.1167,0.0],[25.7625,71.1125,27.9607],[25.7589,71.113,0.0],[25.762,71.1182,0.0],[25.7589,71.1203,16.8061],[25.7729,71.125,17.0553],[25.7807,71.1255,0.0],[25.7932,71.1359,0.0],[25.7901,71.1391,84.6464],[25.7932,71.1412,0.0],[25.7901,71.1432,0.0],[25.7974,71.1443,0.0],[25.8036,71.1484,0.0],[25.7943,71.1547,177.1584],[25.7964,71.1578,0.0],[25.8083,71.1583,0.0],[25.8161,71.163,1.2406],[25.8146,71.1646,16.8711],[25.7979,71.1667,297.8016],[25.7917,71.1708,98.6948],[25.7813,71.1708,270.1491],[25.7714,71.1682,91.3232],[25.7667,71.1646,126.6426],[25.7417,71.1646,210.9733],[25.7375,71.1625,180.8667],[25.7313,71.1625,15.361],[25.7297,71.1609,0.0],[25.7328,71.1589,25.4979],[25.7255,71.1578,0.0],[25.7286,71.1557,49.1892],[25.7271,71.1542,151.1799],[25.7104,71.1542,40.2297],[25.7062,71.1563,78.3428],[25.6979,71.1563,17.1692],[25.6911,71.1505,85.6766],[25.6854,71.15,0.0]]],
[[[25.4328,71.0974,1.6313],[25.4297,71.0984,0.0],[25.4307,71.1016,0.0],[25.4292,71.1021,0.0],[25.4208,71.1021,0.0],[25.4146,71.1,21.1629],[25.4083,71.1021,0.0],[25.4047,71.0995,0.0],[25.4063,71.0979,0.0],[25.4125,71.0979,0.0],[25.4271,71.0938,0.0],[25.4432,71.0943,0.0],[25.4417,71.0958,0.0],[25.4354,71.0958,0.0],[25.4328,71.0974,1.6313]]],
[[[26.6761,70.9671,156.6687],[26.6897,70.9616,0.0],[26.7016,70.9651,0.0],[26.7,70.9667,25.5858],[26.6813,70.9667,154.7537],[26.675,70.9688,18.2715],[26.6708,70.9667,109.5019],[26.663,70.9661,5.4751],[26.6609,70.963,0.0],[26.6741,70.9613,30.8527],[26.6761,70.9671,156.6687]]],
[[[25.9479,71.0458,0.0],[25.9516,71.0463,0.0],[25.9562,71.05,4.2773],[25.9688,71.05,0.0],[25.9703,71.0516,4.4825],[25.9646,71.0542,0.4926],[25.9375,71.0542,0.0],[25.9333,71.0521,11.909],[25.9193,71.0516,0.0],[25.925,71.0479,0.0],[25.9375,71.0479,2.6937],[25.9417,71.0458,0.0],[25.9479,71.0458,0.0]]],
[[[25.9068,71.0547,32.7254],[25.9089,71.0526,0.0],[25.9146,71.0521,0.0],[25.9182,71.0557,0.0],[25.9083,71.0563,28.1198],[25.9068,71.0547,32.7254]]],
[[[25.7604,71.1687,0.0],[25.7589,71.1672,0.0],[25.7641,71.1672,0.0],[25.7641,71.1682,0.0],[25.7604,71.1687,0.0]]],
[[[25.3917,71.1042,9.1829],[25.3901,71.1026,0.0],[25.3953,71.1026,0.0],[25.3953,71.1036,0.0],[25.3917,71.1042,9.1829]]],
[[[25.3458,71.1083,5.5694],[25.3443,71.1068,7.48],[25.3557,71.1068,0.0],[25.3542,71.1083,13.3823],[25.3458,71.1083,5.5694]]],
[[[25.3708,71.1354,27.7749],[25.3646,71.1354,101.9912],[25.3583,71.1375,0.0],[25.3526,71.1339,20.4471],[25.362,71.1328,0.0],[25.3729,71.1271,0.0],[25.3828,71.1276,0.0],[25.3771,71.1312,42.0743],[25.3693,71.1318,19.6623],[25.3724,71.1339,0.0],[25.3708,71.1354,27.7749]]],
[[[25.3516,71.1391,0.0],[25.3484,71.1401,18.7277],[25.3495,71.1432,0.0],[25.3479,71.1438,61.0214],[25.3271,71.1438,47.1062],[25.3234,71.1412,33.6957],[25.3271,71.1396,85.2582],[25.3312,71.1417,253.0414],[25.3411,71.1412,229.0169],[25.3396,71.1396,201.2099],[25.3339,71.1391,74.2395],[25.3354,71.1375,10.9209],[25.35,71.1375,0.0],[25.3516,71.1391,0.0]]]]}}