{"type": "Feature","bbox": [5.0157,60.5417,5.7321,60.8541],"geometry": {"type": "MultiPolygon","coordinates": [[[[5.1187,60.6771,0.0],[5.1172,60.6755,14.494],[5.1208,60.675,19.4298],[5.1203,60.6766,17.8599],[5.1187,60.6771,0.0]]],
[[[5.15,60.6813,0.0],[5.1484,60.6797,6.0294],[5.1521,60.6792,27.7963],[5.1521,60.6813,0.0],[5.15,60.6813,0.0]]],
[[[5.3714,60.6911,3.0223],[5.3714,60.688,0.0],[5.3729,60.6875,15.8113],[5.3828,60.688,0.0],[5.3771,60.6917,7.7444],[5.3714,60.6911,3.0223]]],
[[[5.1167,60.6937,18.4076],[5.113,60.6943,25.7837],[5.0979,60.7021,2.2478],[5.0896,60.7021,0.0],[5.0875,60.7,3.0988],[5.0922,60.6964,6.1966],[5.0995,60.6953,9.6498],[5.1026,60.6922,0.0],[5.1099,60.6911,16.2903],[5.125,60.6833,0.0],[5.1292,60.6833,18.8252],[5.1333,60.6813,0.0],[5.1474,60.6818,24.0758],[5.1458,60.6833,12.3348],[5.1401,60.6839,7.681],[5.1391,60.687,15.3038],[5.1349,60.6891,11.3333],[5.1167,60.6937,18.4076]]],
[[[5.1083,60.6813,17.0402],[5.1068,60.6797,5.7932],[5.1099,60.6797,0.0],[5.1099,60.6807,0.0],[5.1083,60.6813,17.0402]]],
[[[5.1042,60.6833,13.4358],[5.1026,60.6828,17.216],[5.1026,60.6818,16.5951],[5.1057,60.6818,18.0703],[5.1042,60.6833,13.4358]]],
[[[5.0745,60.6828,11.5394],[5.0871,60.6778,27.386],[5.108,60.6739,26.6803],[5.1036,60.6766,15.5697],[5.0979,60.6771,19.6961],[5.0859,60.6818,20.8736],[5.0849,60.6849,0.0],[5.0818,60.6859,0.0],[5.0849,60.6891,26.6664],[5.0682,60.6974,0.0],[5.0609,60.6974,9.9693],[5.0609,60.6943,0.0],[5.0641,60.6932,9.2276],[5.0651,60.6901,0.0],[5.0724,60.687,15.9725],[5.0745,60.6828,11.5394]]],
[[[5.0786,60.7078,17.4236],[5.0688,60.7104,8.0474],[5.063,60.7099,20.4319],[5.0672,60.7068,0.0],[5.0828,60.7026,8.1737],[5.0828,60.7057,0.0],[5.0786,60.7078,17.4236]]],
[[[5.0875,60.7426,37.8659],[5.1064,60.7313,18.0319],[5.1292,60.7313,11.2759],[5.1333,60.7333,20.7901],[5.1375,60.7313,8.1739],[5.1458,60.7313,0.0],[5.15,60.7333,0.0],[5.1542,60.7333,0.0],[5.1599,60.7307,2.6223],[5.1609,60.7276,0.0],[5.1651,60.7255,21.0952],[5.1672,60.7214,0.0],[5.1745,60.7182,27.1926],[5.1755,60.7151,0.0],[5.1828,60.712,16.1334],[5.1828,60.7089,26.3009],[5.1807,60.7068,0.0],[5.175,60.7062,16.7861],[5.1568,60.7109,29.3285],[5.1578,60.7141,7.9315],[5.1521,60.7167,0.0],[5.1464,60.7172,19.839],[5.1354,60.7229,5.954],[5.1313,60.7229,24.6162],[5.1297,60.7214,19.1899],[5.137,60.7182,17.5442],[5.1401,60.713,19.3236],[5.1458,60.7125,5.0386],[5.1474,60.7109,0.0],[5.1375,60.7104,20.5542],[5.1349,60.7141,0.0],[5.125,60.7167,0.0],[5.1193,60.7161,11.0967],[5.1193,60.713,3.0876],[5.1266,60.7099,12.4652],[5.1276,60.7068,0.0],[5.1318,60.7047,0.0],[5.1458,60.7021,31.5465],[5.1505,60.6984,0.0],[5.1604,60.6958,0.0],[5.1703,60.6953,33.9863],[5.1953,60.6828,14.2299],[5.1984,60.6797,0.0],[5.2057,60.6786,43.6509],[5.2068,60.6755,19.3504],[5.2193,60.6693,0.0],[5.225,60.6688,35.9186],[5.2359,60.663,0.0],[5.2411,60.662,24.5337],[5.2422,60.6589,17.2467],[5.2453,60.6568,9.8638],[5.2297,60.6516,0.0],[5.2276,60.6495,0.0],[5.2276,60.6464,0.0],[5.2307,60.6453,0.0],[5.2359,60.638,0.0],[5.2422,60.6339,0.0],[5.2661,60.6214,0.0],[5.2521,60.6208,0.0],[5.2464,60.6234,0.0],[5.2453,60.6266,0.0],[5.2411,60.6286,0.0],[5.2214,60.6339,24.8712],[5.2203,60.637,0.0],[5.2109,60.6422,15.6551],[5.2099,60.6474,0.0],[5.2026,60.6505,32.2877],[5.1995,60.6578,0.0],[5.1922,60.6589,19.0462],[5.1786,60.6661,0.0],[5.1714,60.6672,24.6482],[5.1609,60.6734,0.0],[5.1599,60.6766,25.0322],[5.1542,60.6792,20.9887],[5.1521,60.6792,27.7963],[5.1516,60.6755,0.0],[5.15,60.675,0.0],[5.1458,60.675,8.0674],[5.1333,60.6792,0.0],[5.1208,60.675,19.4298],[5.1245,60.6714,0.0],[5.1172,60.6703,15.2761],[5.1129,60.6585,0.0],[5.1184,60.6524,0.0],[5.1231,60.6514,0.0],[5.1363,60.6415,0.0],[5.1909,60.6161,0.0],[5.1928,60.6106,0.0],[5.199,60.6075,0.0],[5.202,60.601,0.0],[5.2088,60.5946,0.0],[5.2112,60.5865,0.0],[5.2243,60.5758,0.0],[5.2282,60.5667,7.5279],[5.2458,60.5583,0.0],[5.25,60.5583,18.4593],[5.2604,60.5542,0.0],[5.2703,60.5536,0.0],[5.2745,60.5516,0.0],[5.2755,60.5443,16.2721],[5.2797,60.5422,39.3671],[5.2938,60.5417,0.0],[5.2995,60.5443,9.3933],[5.3005,60.5474,39.8582],[5.3078,60.5484,0.0],[5.3109,60.5536,0.0],[5.325,60.5563,0.0],[5.3396,60.5625,0.0],[5.3438,60.5625,0.0],[5.3479,60.5646,63.9199],[5.3771,60.5646,0.0],[5.3828,60.5672,0.0],[5.3849,60.5693,0.0],[5.3849,60.5724,5.9422],[5.3776,60.5755,12.8408],[5.3766,60.5786,0.0],[5.3734,60.5797,0.0],[5.3745,60.5849,0.0],[5.3672,60.5901,12.9868],[5.3672,60.5932,0.0],[5.3813,60.5938,0.0],[5.3979,60.5854,0.0],[5.4063,60.5854,0.0],[5.412,60.5891,0.0],[5.4068,60.5922,0.0],[5.4057,60.5974,0.0],[5.4026,60.5984,5.8973],[5.4026,60.6016,0.0],[5.4042,60.6021,0.0],[5.4167,60.6,3.1451],[5.425,60.5958,0.0],[5.4333,60.5958,0.0],[5.4417,60.6,13.1842],[5.4479,60.6,0.0],[5.4547,60.6036,1.3612],[5.462,60.6047,0.0],[5.463,60.6078,21.8075],[5.4724,60.6109,0.0],[5.4734,60.6182,0.0],[5.4807,60.6193,0.0],[5.4854,60.6229,3.9468],[5.4953,60.6234,0.0],[5.4964,60.6286,9.8128],[5.4979,60.6292,0.0],[5.5188,60.6292,0.0],[5.5313,60.625,0.0],[5.5458,60.625,0.0],[5.5484,60.6286,0.0],[5.5583,60.6292,0.0],[5.5682,60.6339,0.0],[5.5714,60.6391,107.1985],[5.5839,60.6453,57.6819],[5.5932,60.6464,0.0],[5.5943,60.6557,44.5026],[5.5995,60.6568,0.0],[5.6,60.6583,88.8328],[5.6,60.6667,0.0],[5.5979,60.6708,0.0],[5.6021,60.675,98.3005],[5.5984,60.6776,95.0963],[5.5995,60.6828,52.2399],[5.5964,60.6828,53.6469],[5.5917,60.6792,0.0],[5.5859,60.6818,128.8917],[5.587,60.6849,0.0],[5.5828,60.687,41.8823],[5.5755,60.687,62.1787],[5.5776,60.6714,88.0265],[5.5875,60.6646,46.14],[5.5839,60.662,0.0],[5.5828,60.6589,0.0],[5.5797,60.6589,0.0],[5.5745,60.6661,0.0],[5.5714,60.6672,27.9557],[5.5724,60.6724,0.0],[5.5651,60.6755,147.9683],[5.5641,60.6849,0.0],[5.5589,60.688,19.6224],[5.5578,60.6911,0.0],[5.5505,60.6943,243.6754],[5.5505,60.6995,0.0],[5.5583,60.7,0.0],[5.5625,60.6979,0.0],[5.5875,60.6979,0.0],[5.5943,60.7016,112.8612],[5.6,60.7021,65.0469],[5.612,60.7068,0.0],[5.613,60.7099,78.2098],[5.6161,60.7109,54.1553],[5.6193,60.7161,3.302],[5.6333,60.7167,0.0],[5.6359,60.7203,7.3867],[5.6547,60.7286,0.0],[5.6604,60.7271,26.71],[5.6703,60.7318,0.0],[5.6724,60.7339,0.0],[5.6734,60.7391,0.0],[5.6805,60.7421,0.0],[5.6698,60.7657,466.6661],[5.6788,60.7666,339.4163],[5.6768,60.771,412.2468],[5.6858,60.772,315.7346],[5.6839,60.7764,330.5792],[5.6929,60.7773,392.5792],[5.6909,60.7817,430.554],[5.6999,60.7827,428.145],[5.6959,60.7914,669.4772],[5.7049,60.7924,745.9827],[5.7029,60.7968,692.7244],[5.7119,60.7977,791.3357],[5.7099,60.8021,799.4957],[5.7189,60.8031,864.4441],[5.717,60.8075,910.336],[5.726,60.8084,774.2243],[5.722,60.8172,840.1021],[5.731,60.8181,800.4072],[5.7231,60.8357,843.592],[5.7321,60.8366,854.0982],[5.7241,60.8541,891.8786],[5.7061,60.8522,614.224],[5.7081,60.8478,598.0232],[5.681,60.8449,527.0],[5.683,60.8405,729.8208],[5.674,60.8396,698.0901],[5.676,60.8352,815.9346],[5.667,60.8342,815.0092],[5.669,60.8299,755.8477],[5.6419,60.8269,764.2614],[5.6439,60.8226,795.0854],[5.6259,60.8206,824.7307],[5.6279,60.8163,748.6713],[5.6189,60.8153,454.7034],[5.6209,60.8109,583.0115],[5.6029,60.809,776.2213],[5.6049,60.8046,719.1373],[5.5959,60.8036,829.8556],[5.5979,60.7992,807.1406],[5.5799,60.7973,736.2764],[5.5819,60.7929,773.8806],[5.5729,60.7919,727.0559],[5.5709,60.7963,742.6596],[5.5529,60.7944,727.0102],[5.5508,60.7987,610.5993],[5.5238,60.7958,741.6852],[5.5259,60.7914,751.2883],[5.5079,60.7895,504.7124],[5.5099,60.7851,496.6551],[5.5009,60.7841,530.1909],[5.5029,60.7797,613.4809],[5.4939,60.7788,691.4519],[5.504,60.7569,365.1422],[5.495,60.7559,418.8821],[5.497,60.7515,467.1031],[5.506,60.7525,370.9967],[5.508,60.7481,461.2837],[5.517,60.7491,436.9146],[5.521,60.7404,495.748],[5.512,60.7394,601.2406],[5.516,60.7306,448.0],[5.507,60.7297,448.0],[5.509,60.7253,539.2197],[5.4911,60.7233,681.1786],[5.4931,60.719,755.1985],[5.4841,60.718,689.7993],[5.4861,60.7136,723.7299],[5.4497,60.7096,0.0],[5.4578,60.7078,252.8948],[5.4578,60.7047,463.8775],[5.4563,60.7042,595.5185],[5.4521,60.7062,299.736],[5.4354,60.7062,134.4086],[5.4255,60.7036,111.0352],[5.4234,60.7016,37.1925],[5.4359,60.6943,27.565],[5.4432,60.6932,73.2879],[5.4443,60.6901,12.8256],[5.4473,60.6891,19.5891],[5.4464,60.6859,0.0],[5.4495,60.6849,34.7039],[5.4464,60.6818,0.0],[5.4521,60.6813,87.2346],[5.4589,60.6776,0.0],[5.4646,60.6771,41.4371],[5.4703,60.6745,0.0],[5.4703,60.6714,0.0],[5.4651,60.6682,10.258],[5.4682,60.6661,0.0],[5.4682,60.6609,0.0],[5.4651,60.6609,5.6124],[5.4526,60.6672,12.8682],[5.4516,60.6703,0.0],[5.4458,60.6708,101.3674],[5.4401,60.6734,38.5733],[5.4339,60.6776,14.4475],[5.4328,60.6807,0.0],[5.4214,60.6859,81.0002],[5.4203,60.6891,0.0],[5.413,60.6901,133.5903],[5.4141,60.6932,27.9203],[5.4099,60.6953,25.1249],[5.3917,60.6958,10.4956],[5.3875,60.6917,0.0],[5.3875,60.6833,9.1512],[5.3859,60.6797,0.0],[5.3932,60.6786,1.7524],[5.3943,60.6755,0.0],[5.3984,60.6734,0.0],[5.4057,60.6724,13.5233],[5.4182,60.6661,37.6183],[5.4172,60.6609,0.0],[5.4214,60.6589,4.9881],[5.437,60.6557,35.0542],[5.438,60.6526,0.0],[5.4443,60.6484,0.0],[5.4599,60.6432,7.4042],[5.4604,60.6375,19.3971],[5.4583,60.6354,0.0],[5.4464,60.6359,12.2013],[5.4474,60.6391,0.0],[5.4417,60.6417,0.0],[5.4359,60.6422,0.0],[5.4318,60.6443,25.9314],[5.4307,60.6474,0.0],[5.425,60.65,72.0789],[5.4193,60.6505,245.6922],[5.4078,60.6578,0.0],[5.4005,60.6589,202.0638],[5.3995,60.662,0.0],[5.388,60.6672,16.0925],[5.3807,60.6724,0.0],[5.3734,60.6734,0.0],[5.3667,60.6771,47.395],[5.3641,60.6734,45.7214],[5.3547,60.6714,27.5915],[5.3557,60.6745,0.0],[5.3484,60.6776,33.4648],[5.3474,60.6849,0.0],[5.3422,60.688,0.0],[5.3411,60.6932,0.0],[5.3339,60.6964,44.4999],[5.3333,60.6979,10.9948],[5.3354,60.7,0.0],[5.3396,60.7,16.91],[5.3438,60.6979,0.0],[5.3516,60.7005,0.0],[5.3516,60.7036,0.0],[5.3484,60.7047,33.7052],[5.3474,60.7099,0.0],[5.3417,60.7125,20.2499],[5.3359,60.713,138.7339],[5.337,60.7161,0.0],[5.3286,60.7203,0.0],[5.3214,60.7214,78.7984],[5.3203,60.7245,23.3617],[5.3172,60.7255,34.7052],[5.3141,60.7307,10.5442],[5.2958,60.7354,8.5744],[5.2813,60.7313,0.0],[5.2766,60.737,0.0],[5.2734,60.738,0.0],[5.2724,60.7411,50.6964],[5.2667,60.7438,31.217],[5.2625,60.7438,26.6],[5.2583,60.7458,17.5094],[5.2458,60.7458,0.0],[5.2417,60.7438,16.219],[5.2375,60.7438,0.0],[5.225,60.7479,0.0],[5.2167,60.7479,20.8136],[5.2042,60.7521,0.0],[5.2,60.7521,0.0],[5.1891,60.7578,0.0],[5.1818,60.7589,6.5683],[5.1807,60.762,0.0],[5.1688,60.7667,0.0],[5.163,60.7672,11.483],[5.162,60.7703,0.0],[5.1521,60.775,13.2332],[5.1396,60.775,0.0],[5.1354,60.7771,0.0],[5.1271,60.7771,19.9454],[5.1229,60.7792,10.1848],[5.1146,60.775,18.5266],[5.1063,60.7792,10.5064],[5.1042,60.7771,0.0],[5.1057,60.7714,0.0],[5.1,60.7708,16.6575],[5.0839,60.7797,0.0],[5.0786,60.787,11.3204],[5.0714,60.7901,17.207],[5.0724,60.7932,0.0],[5.0693,60.7943,0.0],[5.0686,60.7964,1.4855],[5.0427,60.7932,76.6421],[5.0447,60.7888,53.87],[5.0268,60.7868,32.4427],[5.0247,60.7912,29.9355],[5.0157,60.7902,33.143],[5.024,60.7727,39.9824],[5.033,60.7737,39.9141],[5.0351,60.7693,17.729],[5.0441,60.7669,0.0],[5.0453,60.7706,19.1014],[5.0363,60.781,0.0],[5.0455,60.7796,27.2245],[5.0558,60.7697,28.9776],[5.0545,60.7662,17.0388],[5.0627,60.7604,15.161],[5.0696,60.7508,23.8789],[5.0875,60.7426,37.8659]]],
[[[5.0589,60.712,27.8356],[5.0604,60.7104,6.5638],[5.062,60.7109,37.2159],[5.0604,60.7125,36.3393],[5.0589,60.712,27.8356]]],
[[[5.0979,60.7792,0.0],[5.1036,60.7818,5.2644],[5.1036,60.7849,26.1223],[5.0979,60.7875,9.396],[5.0938,60.7875,0.0],[5.0911,60.7839,13.4859],[5.088,60.7828,0.0],[5.088,60.7818,0.0],[5.0979,60.7792,0.0]]]]}
,"properties": {"GID_2": "NOR.7.16_1","GID_0": "NOR","country": "Norway","GID_1": "NOR.7_1","province": "Hordaland","NL_NAME_1": "NA","county": "Lindås","VARNAME_2": "NA","NL_NAME_2": "NA","TYPE_2": "Kommuner","ENGTYPE_2": "Municipality","CC_2": "NA","HASC_2": "NO.HO.LI","name": "Lindås.county","area_km2": 461.1662,"hist_schema_id": "Elevation0-9000","hist_area_km2": {"0": 32.8509,"25": 68.7961,"50": 65.5915,"75": 33.4673,"100": 25.398,"125": 19.4425,"150": 16.7494,"175": 15.4595,"200": 14.9908,"225": 13.4913,"250": 11.2133,"275": 9.8939,"300": 9.9947,"325": 9.9204,"350": 9.7903,"375": 7.5795,"400": 6.7157,"425": 6.7134,"450": 6.0098,"475": 6.0407,"500": 5.2843,"525": 5.0768,"550": 4.7671,"575": 4.611,"600": 4.507,"625": 4.352,"650": 3.7911,"675": 4.3396,"700": 4.8898,"725": 5.9448,"750": 6.4792,"775": 5.5888,"800": 4.1475,"825": 2.6157,"850": 2.0884,"875": 1.3336,"900": 0.7961,"925": 0.3619,"950": 0.0827}}}