{"type":"Feature","properties":{"GID_2":"NOR.7.25_1","GID_0":"NOR","country":"Norway","GID_1":"NOR.7_1","province":"Hordaland","NL_NAME_1":"NA","county":"Radøy","VARNAME_2":"NA","NL_NAME_2":"NA","TYPE_2":"Kommuner","ENGTYPE_2":"Municipality","CC_2":"NA","HASC_2":"NO.HO.RA","name":"Radøy.county"},
"geometry":{"type": "MultiPolygon","coordinates": [[[[4.9734,60.6464,0.0],[4.975,60.6458,0.0],[4.9766,60.6474,25.5333],[4.9734,60.6474,24.3795],[4.9734,60.6464,0.0]]],
[[[4.9229,60.6646,12.1235],[4.9172,60.6651,15.3979],[4.9104,60.6688,6.2147],[4.9083,60.6667,21.9264],[4.9109,60.6589,0.0],[4.9208,60.6542,0.0],[4.9292,60.6542,0.0],[4.9333,60.6521,6.3912],[4.9391,60.6536,6.4182],[4.9432,60.6516,2.6002],[4.9401,60.6495,14.9496],[4.9401,60.6464,11.9175],[4.9495,60.6453,5.1118],[4.9536,60.6432,0.0],[4.9547,60.6401,15.6379],[4.9604,60.6396,9.7407],[4.9661,60.637,12.0809],[4.9672,60.6339,11.5523],[4.9771,60.6333,10.7414],[4.9813,60.6312,0.0],[4.9911,60.6318,0.0],[4.9911,60.637,0.0],[4.9839,60.638,14.8553],[4.9849,60.6432,0.0],[4.9792,60.6458,13.4543],[4.975,60.6437,0.0],[4.9708,60.6437,0.0],[4.9682,60.6474,0.0],[4.9609,60.6484,1.5977],[4.9682,60.6516,15.4583],[4.9568,60.6568,3.8412],[4.9536,60.6599,0.0],[4.9505,60.6599,1.5879],[4.9484,60.6578,0.0],[4.9516,60.6547,0.0],[4.9458,60.6542,11.5788],[4.9375,60.6583,22.6443],[4.9318,60.6589,16.8277],[4.9229,60.6646,12.1235]]],
[[[5.108,60.6739,26.6803],[5.0871,60.6778,27.386],[5.0777,60.6817,26.1831],[5.0747,60.682,8.579],[5.0745,60.6797,0.0],[5.0729,60.6792,0.0],[5.0688,60.6792,15.381],[5.0589,60.6839,11.0159],[5.0604,60.6896,0.0],[5.0568,60.6922,10.141],[5.0557,60.6974,0.0],[5.0526,60.6984,26.1425],[5.0536,60.7016,0.0],[5.0464,60.7047,28.4293],[5.0453,60.7078,0.0],[5.0354,60.7125,4.4761],[5.0297,60.713,27.0345],[5.0193,60.7193,0.0],[5.0208,60.7208,0.0],[5.0266,60.7214,9.8176],[5.0266,60.7245,12.3798],[5.025,60.725,10.0918],[5.0125,60.7271,10.1698],[5.0109,60.7255,7.4124],[5.0141,60.7234,0.0],[5.0042,60.7229,25.8541],[4.975,60.7313,0.0],[4.9729,60.7313,0.0],[4.9729,60.7292,0.0],[4.9583,60.7292,15.0537],[4.9542,60.7271,0.0],[4.95,60.7292,0.0],[4.9417,60.7292,14.5144],[4.9391,60.7328,0.0],[4.9333,60.7333,12.4195],[4.9266,60.737,0.0],[4.9083,60.7417,5.5877],[4.9021,60.7417,3.2909],[4.9021,60.7396,13.8464],[4.9057,60.7391,18.9342],[4.9063,60.7375,7.1877],[4.9057,60.7359,24.6408],[4.9005,60.7349,0.0],[4.9036,60.7328,0.0],[4.9021,60.7313,17.192],[4.8964,60.7318,37.6529],[4.8854,60.7375,0.0],[4.8729,60.7375,2.6328],[4.8708,60.7354,0.0],[4.8729,60.7333,0.0],[4.8786,60.7349,0.0],[4.887,60.7307,27.5744],[4.888,60.7276,0.0],[4.8953,60.7266,23.0224],[4.8964,60.7234,0.0],[4.9099,60.7203,0.0],[4.9099,60.7172,8.6316],[4.8958,60.7167,9.7304],[4.8917,60.7125,0.0],[4.8693,60.7161,10.5277],[4.8693,60.713,13.1885],[4.8745,60.7099,5.566],[4.8755,60.7068,2.5844],[4.8995,60.7036,0.0],[4.8995,60.7005,4.0976],[4.8922,60.6995,6.8433],[4.8901,60.6943,0.0],[4.9,60.6917,0.0],[4.9063,60.6958,0.0],[4.9161,60.6953,10.1341],[4.9151,60.6901,21.6272],[4.9208,60.6875,0.0],[4.9349,60.6849,9.8605],[4.9359,60.6818,0.0],[4.9432,60.6786,0.0],[4.9422,60.6734,8.2395],[4.9505,60.6693,0.0],[4.9578,60.6682,27.6434],[4.9589,60.6651,0.0],[4.9672,60.6609,0.0],[5.0036,60.6557,15.4825],[5.0068,60.6464,10.4385],[5.0104,60.6437,3.1325],[5.0089,60.6359,0.0],[5.0188,60.6333,0.0],[5.0229,60.6354,1.5066],[5.0271,60.6333,0.0],[5.0396,60.6333,10.6623],[5.0438,60.6292,0.0],[5.0479,60.6292,0.0],[5.0521,60.6271,0.0],[5.0646,60.6271,20.3585],[5.0729,60.6229,0.0],[5.0786,60.6224,19.144],[5.0797,60.6193,0.0],[5.0833,60.6167,34.5709],[5.0813,60.6125,0.0],[5.0917,60.6083,0.0],[5.1,60.6083,16.0416],[5.1042,60.6063,0.0],[5.1458,60.6063,0.0],[5.1526,60.6026,0.0],[5.1583,60.6021,62.0557],[5.1641,60.5995,76.4948],[5.1651,60.5964,18.4374],[5.187,60.5849,42.6356],[5.188,60.5818,0.0],[5.1979,60.5771,0.0],[5.2036,60.5766,37.5325],[5.2099,60.5724,22.1021],[5.2151,60.5651,0.0],[5.2282,60.5667,7.5279],[5.2243,60.5758,0.0],[5.2112,60.5865,0.0],[5.2088,60.5946,0.0],[5.202,60.601,0.0],[5.199,60.6075,0.0],[5.1928,60.6106,0.0],[5.1909,60.6161,0.0],[5.1363,60.6415,0.0],[5.1231,60.6514,0.0],[5.1184,60.6524,0.0],[5.1109,60.6589,0.0],[5.1099,60.662,0.0],[5.1068,60.663,35.317],[5.1047,60.6672,0.0],[5.1078,60.6693,20.9044],[5.108,60.6739,26.6803]]],
[[[4.863,60.7339,10.6176],[4.8646,60.7333,10.1597],[4.8661,60.7349,7.1515],[4.8646,60.7354,0.0],[4.863,60.7339,10.6176]]],
[[[4.8943,60.738,21.1798],[4.8974,60.738,9.9658],[4.8974,60.7411,8.0179],[4.8859,60.7411,22.8328],[4.8859,60.7401,7.5139],[4.8943,60.738,21.1798]]],
[[[4.8984,60.7432,0.0],[4.8984,60.7422,0.0],[4.9021,60.7417,3.2909],[4.9021,60.7438,0.0],[4.8984,60.7432,0.0]]]]}}