{"type":"Feature","properties":{"GID_2":"NOR.10.8_1","GID_0":"NOR","country":"Norway","GID_1":"NOR.10_1","province":"Nordland","NL_NAME_1":"NA","county":"Brønnøy","VARNAME_2":"NA","NL_NAME_2":"NA","TYPE_2":"Kommuner","ENGTYPE_2":"Municipality","CC_2":"NA","HASC_2":"NO.NO.BR","name":"Brønnøy.county"},
"geometry":{"type": "MultiPolygon","coordinates": [[[[11.9708,65.3354,7.6339],[11.9672,65.3339,0.0],[11.9766,65.3339,0.0],[11.9766,65.3391,5.7527],[11.9734,65.3391,0.0],[11.9708,65.3354,7.6339]]],
[[[11.9688,65.3438,0.0],[11.9651,65.3422,0.0],[11.9745,65.3422,0.0],[11.9729,65.3438,10.4472],[11.9688,65.3438,0.0]]],
[[[11.9807,65.3443,0.0],[11.9792,65.3417,4.0598],[11.9813,65.3396,0.0],[11.9875,65.3396,0.0],[11.9953,65.3422,0.0],[11.9974,65.3516,0.0],[11.9943,65.3516,0.0],[11.9932,65.3484,13.3446],[11.9807,65.3443,0.0]]],
[[[11.9464,65.3672,0.0],[11.9521,65.3646,1.9004],[11.9557,65.3651,0.0],[11.95,65.3708,0.0],[11.9464,65.3672,0.0]]],
[[[12.0146,65.3792,0.0],[12.0109,65.3786,2.1727],[12.0109,65.3776,0.0],[12.0161,65.3776,0.0],[12.0146,65.3792,0.0]]],
[[[12.0375,65.4,0.799],[12.0292,65.4,15.3545],[12.025,65.4021,16.3661],[12.0083,65.4021,0.0],[12.0005,65.3995,0.0],[12.0005,65.3964,0.0],[12.0036,65.3943,3.7041],[11.9984,65.3922,2.1594],[12.0016,65.3912,0.0],[12.0005,65.388,0.0],[12.0021,65.3875,3.0277],[12.0245,65.387,0.0],[12.0193,65.3849,0.0],[12.0172,65.3807,0.0],[12.0188,65.3792,0.0],[12.0224,65.3797,0.0],[12.0234,65.3828,0.0],[12.0313,65.3854,0.0],[12.0333,65.3833,0.0],[12.0318,65.3797,3.3707],[12.0333,65.3792,1.6857],[12.0474,65.3818,0.0],[12.0495,65.3839,0.0],[12.0505,65.3891,10.3217],[12.0557,65.3912,0.0],[12.0479,65.3917,0.0],[12.0437,65.3875,0.0],[12.0396,65.3917,4.4901],[12.0234,65.3922,7.5817],[12.0286,65.3943,0.0],[12.0297,65.3974,3.0884],[12.0411,65.3984,0.0],[12.0375,65.4,0.799]]],
[[[12.0125,65.4125,0.0],[12.0104,65.4104,0.0],[12.0125,65.4083,0.0],[12.0161,65.412,2.0114],[12.0125,65.4125,0.0]]],
[[[12.0276,65.412,1.2656],[12.0255,65.4089,0.0],[12.0307,65.4089,0.0],[12.0307,65.412,5.9359],[12.0276,65.412,1.2656]]],
[[[12.0307,65.3786,0.0],[12.0276,65.3786,4.5405],[12.0276,65.3776,3.5033],[12.0307,65.3776,0.0],[12.0307,65.3786,0.0]]],
[[[12.0667,65.3833,5.6398],[12.063,65.3818,0.0],[12.0724,65.3818,0.0],[12.0708,65.3833,0.4299],[12.0667,65.3833,5.6398]]],
[[[12.1849,65.4734,3.6031],[12.1755,65.4734,4.1259],[12.1714,65.4755,0.0],[12.1724,65.4786,0.0],[12.1708,65.4792,0.0],[12.1484,65.4786,0.0],[12.1453,65.4734,0.0],[12.1214,65.4661,0.0],[12.1203,65.463,8.0294],[12.1151,65.462,0.0],[12.1182,65.4589,18.7995],[12.113,65.4578,0.0],[12.1161,65.4547,5.2369],[12.1083,65.4542,0.0],[12.1047,65.4516,0.0],[12.1047,65.4484,14.7972],[12.1063,65.4479,0.0],[12.1125,65.4479,0.0],[12.1167,65.45,0.0],[12.1188,65.4479,0.0],[12.1161,65.4422,0.0],[12.1109,65.4411,0.0],[12.1078,65.4359,3.7567],[12.1026,65.4328,0.0],[12.1036,65.4297,7.9315],[12.0979,65.4271,2.6942],[12.0901,65.4276,0.0],[12.0953,65.4297,0.0],[12.0984,65.437,7.3802],[12.1036,65.438,0.0],[12.1063,65.4437,14.7295],[12.1042,65.4458,0.0],[12.1,65.4437,8.262],[12.0922,65.4432,0.0],[12.0891,65.4401,8.7458],[12.0839,65.4391,0.0],[12.0828,65.4359,16.0685],[12.0776,65.4349,0.0],[12.0703,65.4297,0.0],[12.0339,65.4172,4.3954],[12.0432,65.4161,7.6451],[12.0422,65.413,0.0],[12.0458,65.4104,6.0494],[12.0443,65.4068,0.0],[12.0474,65.4057,1.7987],[12.0422,65.4036,0.0],[12.0422,65.4005,0.0],[12.0437,65.4,0.0],[12.0542,65.4,0.0],[12.0745,65.4068,0.0],[12.0755,65.4099,5.2121],[12.0833,65.4125,0.0],[12.0869,65.412,0.0],[12.0849,65.4068,0.7063],[12.0714,65.4016,0.0],[12.0688,65.3958,0.0],[12.0724,65.3932,1.4107],[12.0714,65.3901,0.0],[12.0807,65.3891,0.0],[12.0755,65.3859,4.7658],[12.0833,65.3854,-0.2898],[12.0938,65.3896,4.7838],[12.1016,65.3901,0.0],[12.1089,65.4036,0.0],[12.1182,65.4068,17.9665],[12.1214,65.4099,0.0],[12.1266,65.4109,0.0],[12.1266,65.4141,0.0],[12.1234,65.4161,0.0],[12.1286,65.4182,0.0],[12.1255,65.4203,0.0],[12.1292,65.4208,0.0],[12.1359,65.4172,9.9593],[12.139099999999999,65.4172,0.0],[12.1422,65.4224,3.6097],[12.1474,65.4234,0.0],[12.1505,65.4307,0.0],[12.1557,65.4318,0.0],[12.1578,65.437,0.0],[12.1505,65.4391,5.3392],[12.1474,65.4339,3.0738],[12.1422,65.4328,1.8201],[12.1401,65.4307,0.0],[12.139099999999999,65.4276,0.0],[12.125,65.4229,0.0],[12.1229,65.425,0.0],[12.1245,65.4287,0.0],[12.1214,65.4297,2.9359],[12.1214,65.4328,5.11],[12.1266,65.4339,0.0],[12.1297,65.4411,0.0],[12.1349,65.4422,0.0],[12.138,65.4453,0.0],[12.1474,65.4484,0.0],[12.1505,65.4537,0.0],[12.1646,65.4542,0.0],[12.1724,65.4568,0.0],[12.1734,65.4599,0.0],[12.1833,65.4604,0.0],[12.1911,65.463,3.1576],[12.1943,65.4703,0.0],[12.1995,65.4714,0.0],[12.2,65.4729,0.0],[12.1979,65.475,0.0],[12.1875,65.475,0.0],[12.1849,65.4734,3.6031]]],
[[[12.0505,65.462,0.0],[12.0479,65.4604,0.0],[12.0443,65.4609,0.0],[12.0453,65.4641,4.3618],[12.0437,65.4646,2.3307],[12.0375,65.4646,0.0],[12.0333,65.4625,2.6862],[12.0208,65.4625,0.0],[12.0089,65.4578,3.6451],[12.0068,65.4547,0.0],[12.0125,65.4563,0.0],[12.025,65.4563,11.1304],[12.0292,65.4583,0.8817],[12.037,65.4578,3.3661],[12.0193,65.4516,0.0],[12.0208,65.45,0.0],[12.0333,65.45,0.0],[12.0375,65.4521,3.7551],[12.0479,65.4521,0.0],[12.0557,65.4547,0.0],[12.0526,65.4578,39.1479],[12.0578,65.4589,0.0],[12.0599,65.4609,0.0],[12.0583,65.4625,24.7408],[12.0505,65.462,0.0]]],
[[[12.0188,65.4146,0.0],[12.0172,65.413,5.9561],[12.025,65.4125,0.0],[12.0328,65.4161,0.0],[12.025,65.4167,0.0],[12.0188,65.4146,0.0]]],
[[[12.0161,65.4474,15.4549],[12.0083,65.4521,0.0],[11.9958,65.4521,0.0],[11.9938,65.45,7.1184],[11.9958,65.4479,0.0],[12.0,65.45,0.0],[12.0063,65.45,0.0],[12.0104,65.4458,3.5026],[12.0146,65.4458,0.0],[12.0161,65.4474,15.4549]]],
[[[12.951599999999999,65.3172,0.0],[12.95,65.3187,0.0],[12.9422,65.3193,23.1671],[12.9432,65.3224,8.5642],[12.9396,65.3229,0.0],[12.9276,65.3182,0.0],[12.9255,65.3151,28.0136],[12.9286,65.3141,0.0],[12.9297,65.3109,0.0],[12.9354,65.3104,0.0],[12.9495,65.3151,0.0],[12.951599999999999,65.3172,0.0]]],
[[[13.053,65.2457,920.8121],[13.0542,65.2412,888.001],[13.0648,65.2417,916.4029],[13.066,65.2373,829.6937],[13.0767,65.2377,804.0389],[13.0755,65.2422,995.3323],[13.0861,65.2427,949.7187],[13.085,65.2471,1041.1949],[13.0956,65.2476,885.9758],[13.0945,65.2521,887.7824],[13.1051,65.2526,705.3058],[13.104,65.257,857.6917],[13.168,65.2599,818.4376],[13.1668,65.2643,868.3964],[13.1775,65.2648,899.9955],[13.1763,65.2693,859.9147],[13.1657,65.2688,947.1243],[13.1622,65.2822,929.0916],[13.1409,65.2813,860.7375],[13.1397,65.2857,858.1417],[13.1184,65.2848,782.8122],[13.1172,65.2893,851.4622],[13.1065,65.2888,918.5901],[13.1054,65.2933,826.1328],[13.0947,65.2928,781.8833],[13.0889,65.3151,843.4728],[13.1102,65.3161,506.4961],[13.1079,65.325,982.3508],[13.0972,65.3245,993.3977],[13.0949,65.3335,862.2499],[13.0628,65.3321,806.1343],[13.0581,65.3499,818.0842],[13.0688,65.3504,735.3895],[13.0665,65.3593,800.1661],[13.0772,65.3598,712.7072],[13.076,65.3643,705.0438],[13.0867,65.3648,689.5557],[13.0856,65.3692,712.0792],[13.0749,65.3688,689.4177],[13.0737,65.3732,689.3149],[13.063,65.3727,722.1005],[13.0618,65.3772,694.2337],[13.0511,65.3767,748.4567],[13.0487,65.3857,688.9309],[13.038,65.3852,773.9933],[13.0368,65.3897,696.9338],[13.0261,65.3892,692.6122],[13.025,65.3937,718.9126],[12.9714,65.3912,798.5117],[12.9702,65.3957,758.3639],[12.9488,65.3947,975.9194],[12.9452,65.4081,870.4866],[12.9559,65.4086,974.2565],[12.9511,65.4265,793.9944],[12.9619,65.427,663.1266],[12.9607,65.4315,594.2195],[12.9821,65.4324,796.4011],[12.9809,65.4369,530.3462],[12.9917,65.4374,400.7156],[12.9905,65.4418,489.5849],[13.0012,65.4423,547.3506],[13.0,65.4468,610.9587],[13.0215,65.4478,758.2678],[13.0203,65.4522,782.9271],[13.0311,65.4527,885.0699],[13.0299,65.4572,721.7747],[13.0406,65.4576,931.8259],[13.0347,65.48,733.631],[13.0455,65.4805,687.7342],[13.036,65.5162,824.1687],[13.0468,65.5167,820.9922],[13.0408,65.539,1026.1069],[12.9654,65.5357,737.7098],[12.9642,65.5401,752.4346],[12.9103,65.5377,815.4519],[12.9116,65.5332,750.6345],[12.9008,65.5328,812.8552],[12.902,65.5283,763.4265],[12.8912,65.5278,804.3771],[12.8924,65.5233,677.2722],[12.8817,65.5228,759.7742],[12.8829,65.5184,653.0715],[12.743,65.5119,471.8967],[12.7418,65.5164,616.1526],[12.7202,65.5154,679.9294],[12.701599999999999,65.5824,884.2436],[12.7124,65.5829,703.438],[12.7099,65.5918,649.6901],[12.6452,65.5888,775.9178],[12.6414,65.6022,692.6512],[12.6306,65.6017,727.7458],[12.6293,65.6062,649.8908],[12.6078,65.6051,441.4612],[12.6065,65.6096,460.3848],[12.5741,65.6081,314.946],[12.5728,65.6125,331.3445],[12.5404,65.611,209.6728],[12.5392,65.6155,301.1881],[12.4852,65.6129,393.6405],[12.4865,65.6084,410.3727],[12.4541,65.6069,558.7458],[12.4554,65.6024,614.3853],[12.4446,65.6019,630.6921],[12.4459,65.5974,584.1652],[12.4567,65.598,523.3506],[12.458,65.5935,490.3421],[12.4687,65.594,520.7425],[12.47,65.5895,542.2897],[12.4808,65.5901,598.7941],[12.4847,65.5767,709.5208],[12.4739,65.5762,708.584],[12.4752,65.5717,558.3528],[12.4644,65.5712,799.3622],[12.4682,65.5578,353.2583],[12.4575,65.5573,573.2784],[12.46,65.5483,273.8084],[12.4277,65.5468,470.397],[12.429,65.5423,452.861],[12.4101,65.5414,200.722],[12.3893,65.5534,66.6811],[12.3875,65.55,3.9959],[12.388,65.5484,0.0],[12.3953,65.5453,10.4959],[12.3943,65.5422,0.0],[12.4016,65.5391,46.51],[12.4005,65.5359,0.0],[12.4141,65.5349,0.0],[12.4182,65.5328,0.0],[12.4193,65.5297,0.0],[12.4266,65.5286,16.0185],[12.4333,65.525,0.0],[12.45,65.525,0.0],[12.4568,65.5349,39.9484],[12.4641,65.5339,0.0],[12.4693,65.5411,0.0],[12.4745,65.5422,0.0],[12.4755,65.5453,0.0],[12.4849,65.5463,0.0],[12.488,65.5516,46.6622],[12.4932,65.5526,0.0],[12.4964,65.5557,25.6788],[12.5078,65.5589,29.2302],[12.513,65.5703,16.4794],[12.5203,65.5755,0.0],[12.5234,65.5807,53.47],[12.5375,65.5833,0.0],[12.5432,65.5807,101.958],[12.5411,65.5776,114.5197],[12.5359,65.5766,22.948],[12.5359,65.5734,0.0],[12.5391,65.5724,118.6098],[12.537,65.5693,259.3083],[12.5318,65.5682,139.8367],[12.5292,65.5646,220.3257],[12.5193,65.5641,16.2352],[12.5229,65.5604,71.5443],[12.5182,65.5505,203.2032],[12.5104,65.5521,78.433],[12.4964,65.5474,0.0],[12.4932,65.5422,36.85],[12.4776,65.537,0.0],[12.4755,65.5349,3.4887],[12.4786,65.5328,43.1186],[12.4786,65.5297,140.6873],[12.475,65.5292,83.1963],[12.4708,65.5313,0.0],[12.4661,65.5276,16.9486],[12.4609,65.5266,0.0],[12.4583,65.5188,9.7851],[12.4609,65.5151,0.0],[12.4729,65.5146,51.2278],[12.4771,65.5104,0.0],[12.5021,65.5083,0.0],[12.5266,65.5151,0.0],[12.5276,65.5182,40.9129],[12.5391,65.5214,0.0],[12.5422,65.5266,0.0],[12.5474,65.5276,0.0],[12.5484,65.5307,11.2059],[12.5536,65.5318,0.0],[12.5563,65.5354,0.0],[12.5526,65.538,69.6786],[12.5536,65.5411,0.0],[12.5505,65.5432,52.2233],[12.5557,65.5443,0.0],[12.5563,65.5458,0.0],[12.5526,65.5484,20.3766],[12.5536,65.5516,0.0],[12.5505,65.5526,60.3317],[12.5495,65.5557,0.0],[12.5464,65.5578,37.6546],[12.5505,65.5641,25.1617],[12.5557,65.5651,0.0],[12.5557,65.5682,0.0],[12.5526,65.5693,42.0242],[12.5547,65.5745,0.0],[12.5568,65.5766,8.7735],[12.562,65.5776,0.0],[12.562,65.5807,0.0],[12.5589,65.5828,48.0321],[12.5625,65.5854,0.0],[12.5833,65.5854,242.3374],[12.5849,65.5839,291.4807],[12.5828,65.5797,507.3754],[12.575,65.5792,212.3671],[12.5651,65.5745,0.0],[12.5693,65.5714,0.0],[12.576599999999999,65.5703,189.672],[12.5734,65.5682,22.3227],[12.5755,65.563,51.3368],[12.5828,65.562,169.1994],[12.5813,65.5604,264.556],[12.575,65.5604,239.6218],[12.5672,65.5578,7.1081],[12.5703,65.5557,102.6066],[12.5714,65.5526,0.0],[12.5745,65.5516,126.4659],[12.5734,65.5463,45.6796],[12.5786,65.5432,35.8036],[12.5797,65.5401,0.0],[12.5828,65.5391,120.8546],[12.5792,65.5313,6.6973],[12.5828,65.5286,3.5949],[12.5818,65.5255,0.0],[12.6042,65.5229,0.0],[12.6188,65.5271,86.8901],[12.6312,65.5271,39.9693],[12.6328,65.5255,176.5641],[12.6125,65.5229,34.7706],[12.5984,65.5182,7.7051],[12.6021,65.5146,98.6936],[12.6,65.5125,252.2863],[12.5922,65.513,196.1108],[12.5771,65.5208,6.7629],[12.5693,65.5182,0.0],[12.5672,65.5151,0.0],[12.5786,65.5109,204.1016],[12.5708,65.5104,129.2987],[12.5667,65.5083,136.2215],[12.5542,65.5083,54.3688],[12.5526,65.5068,11.6234],[12.5625,65.5021,0.0],[12.5703,65.5016,74.7448],[12.5693,65.4964,0.0],[12.576599999999999,65.4953,50.5229],[12.5797,65.488,0.0],[12.5828,65.487,23.2771],[12.5818,65.4838,0.0],[12.5849,65.4828,24.6197],[12.5859,65.4797,24.4479],[12.5958,65.475,39.3137],[12.6021,65.475,0.0],[12.6063,65.4771,47.1706],[12.6167,65.4771,0.0],[12.6208,65.4792,0.0],[12.6292,65.4792,0.0],[12.6438,65.4854,31.4766],[12.6641,65.4807,0.0],[12.6667,65.4771,151.1084],[12.6729,65.4771,279.0342],[12.6771,65.4792,195.2933],[12.6828,65.4766,382.3534],[12.675,65.4729,558.9406],[12.6604,65.4771,87.0656],[12.6526,65.4745,43.1419],[12.6505,65.4693,208.0624],[12.6599,65.4703,205.1459],[12.6599,65.4672,336.9696],[12.6583,65.4667,404.1547],[12.6167,65.4667,203.5503],[12.6104,65.4688,0.0],[12.6047,65.4661,11.0623],[12.6068,65.463,19.1856],[12.625,65.4542,0.0],[12.6458,65.4542,0.0],[12.6667,65.4604,59.3014],[12.6729,65.4583,0.0],[12.6771,65.4604,13.6842],[12.6833,65.4604,68.0802],[12.6875,65.4583,0.0],[12.6938,65.4583,0.0],[12.6979,65.4604,13.2694],[12.7104,65.4604,0.0],[12.7146,65.4625,0.0],[12.7313,65.4625,0.0],[12.7354,65.4646,64.7675],[12.75,65.4646,156.9161],[12.7542,65.4625,0.0],[12.7604,65.4625,0.0],[12.7646,65.4646,0.0],[12.775,65.4646,0.0],[12.7766,65.463,0.0],[12.7714,65.462,0.0],[12.7688,65.4583,94.1526],[12.7417,65.4563,138.0418],[12.7339,65.4537,200.0264],[12.7292,65.45,454.9048],[12.7229,65.45,590.3979],[12.7125,65.4458,658.2458],[12.7,65.4458,369.364],[12.6896,65.4417,553.8184],[12.6792,65.4437,446.2988],[12.675,65.4417,500.7531],[12.6688,65.4417,496.7431],[12.6672,65.4422,452.8627],[12.6688,65.4458,215.5959],[12.6667,65.4479,186.4139],[12.6604,65.4479,272.1443],[12.6563,65.4458,231.0112],[12.6521,65.4479,204.4239],[12.6484,65.4453,109.6178],[12.6458,65.4396,0.0],[12.6495,65.4359,0.0],[12.6464,65.4297,22.4719],[12.6583,65.4292,94.0489],[12.6625,65.4271,157.7142],[12.6813,65.4271,390.8622],[12.6833,65.425,539.0339],[12.6813,65.4229,613.2571],[12.6563,65.4229,474.566],[12.6521,65.425,405.1469],[12.6417,65.425,134.6421],[12.639099999999999,65.4287,11.635],[12.6318,65.4318,10.4309],[12.6328,65.4349,0.0],[12.6312,65.4354,14.6372],[12.613,65.4349,32.0567],[12.613,65.4318,0.0],[12.6203,65.4287,0.0],[12.6167,65.425,0.0],[12.6026,65.4318,135.5834],[12.6036,65.4349,49.3461],[12.6005,65.4359,73.3518],[12.5995,65.4391,0.0],[12.5896,65.4417,6.2304],[12.5792,65.4417,19.0426],[12.5776,65.4411,0.0],[12.5792,65.4375,0.0],[12.5776,65.4339,0.0],[12.5807,65.4328,19.3424],[12.5818,65.4297,0.0],[12.5849,65.4276,24.5602],[12.5807,65.4193,6.9018],[12.5755,65.4172,0.0],[12.587,65.412,22.2279],[12.5859,65.4089,0.0],[12.5891,65.4078,2.4655],[12.5875,65.4063,3.5667],[12.5813,65.4063,0.0],[12.576599999999999,65.4099,0.0],[12.5688,65.4104,17.6897],[12.563,65.413,0.0],[12.5641,65.4161,0.0],[12.5604,65.4187,2.7134],[12.5703,65.4391,0.0],[12.5495,65.4495,25.1347],[12.5354,65.45,52.072],[12.5313,65.4458,11.6727],[12.5167,65.4479,0.0],[12.5125,65.4458,19.9926],[12.5063,65.4458,0.0],[12.4922,65.4526,0.0],[12.4974,65.4557,9.9953],[12.4875,65.4604,0.0],[12.4771,65.4604,0.0],[12.4667,65.4563,8.4688],[12.4589,65.4557,7.5596],[12.462,65.4526,0.0],[12.4568,65.4516,9.6528],[12.4547,65.4495,3.7687],[12.4583,65.4458,0.0],[12.4568,65.4422,13.1551],[12.4625,65.4396,0.0],[12.4703,65.4391,0.0],[12.4693,65.4339,0.0],[12.4724,65.4328,34.523],[12.4714,65.4297,12.3656],[12.4786,65.4266,29.3249],[12.4776,65.4234,13.4154],[12.487,65.4224,33.9042],[12.4995,65.4161,0.0],[12.4974,65.413,0.0],[12.4922,65.412,13.9081],[12.4922,65.4089,12.8971],[12.5063,65.4042,0.0],[12.5182,65.4036,0.0],[12.5172,65.4005,0.0],[12.5208,65.3979,12.4592],[12.5167,65.3938,0.0],[12.5109,65.3964,15.0598],[12.5099,65.3995,18.5243],[12.4917,65.4042,0.0],[12.4839,65.4047,0.0],[12.4849,65.4099,23.9651],[12.4776,65.413,0.0],[12.4745,65.4161,43.9189],[12.4583,65.4187,44.8199],[12.4557,65.4224,0.0],[12.4484,65.4234,0.0],[12.4453,65.4307,0.0],[12.4422,65.4318,0.0],[12.4438,65.4354,0.0],[12.4401,65.438,9.3041],[12.4411,65.4432,0.0],[12.438,65.4443,36.1371],[12.4391,65.4474,0.0],[12.4354,65.45,7.0556],[12.438,65.4557,47.8107],[12.4458,65.4563,0.0],[12.4495,65.4589,0.0],[12.4536,65.4672,0.0],[12.4505,65.4703,33.1649],[12.4557,65.4714,0.0],[12.4563,65.4729,0.0],[12.4526,65.4755,0.0],[12.4536,65.4786,0.0],[12.4339,65.488,7.9085],[12.4349,65.4912,0.0],[12.4255,65.4922,7.3645],[12.4266,65.4953,0.0],[12.3901,65.513,28.1572],[12.3911,65.5162,0.0],[12.3828,65.5203,0.0],[12.3667,65.5229,0.0],[12.3474,65.5328,0.0],[12.3333,65.5354,8.2179],[12.3276,65.538,0.0],[12.3292,65.5437,0.0],[12.3255,65.5463,0.0],[12.326599999999999,65.5516,0.0],[12.3193,65.5557,0.0],[12.325,65.5667,0.0],[12.3214,65.5703,23.56],[12.326599999999999,65.5714,0.0],[12.3286,65.5745,0.0],[12.3255,65.5755,0.0],[12.3245,65.5787,0.0],[12.3125,65.5792,12.5688],[12.3016,65.5849,0.0],[12.2917,65.5875,21.0254],[12.2651,65.5787,0.0],[12.264099999999999,65.5755,0.0],[12.2589,65.5745,0.0],[12.2557,65.5693,3.1728],[12.2505,65.5682,0.0],[12.2474,65.563,0.0],[12.2422,65.562,5.0545],[12.2411,65.5589,7.8535],[12.2359,65.5578,4.9377],[12.2339,65.5557,8.384],[12.2297,65.5463,0.0],[12.2391,65.5453,6.6449],[12.2432,65.5432,4.0521],[12.2422,65.5401,0.0],[12.2495,65.5391,0.0],[12.2542,65.5354,0.0],[12.2516,65.5318,8.7314],[12.2464,65.5286,0.0],[12.2432,65.5234,0.0],[12.238,65.5224,0.6047],[12.238,65.5193,0.0],[12.2453,65.5151,0.0],[12.2411,65.5068,7.9233],[12.2339,65.5016,0.0],[12.237,65.4995,0.0],[12.237,65.4964,4.1783],[12.2234,65.4912,2.3096],[12.2203,65.4859,4.3702],[12.2151,65.4849,0.0],[12.2151,65.4818,0.0],[12.2182,65.4807,8.0077],[12.2161,65.4776,8.8082],[12.2099,65.4734,7.2678],[12.2047,65.4724,0.0],[12.2036,65.4693,6.8212],[12.1984,65.4682,0.0],[12.1964,65.4661,0.0],[12.1932,65.4568,0.0],[12.1797,65.4516,0.0],[12.1797,65.4484,0.0],[12.1828,65.4464,1.8611],[12.1797,65.4401,0.0],[12.1849,65.4401,0.0],[12.1875,65.4437,0.0],[12.1974,65.4443,0.0],[12.2,65.4479,1.5779],[12.2078,65.4484,0.0],[12.213,65.4557,0.0],[12.2224,65.4568,0.0],[12.2255,65.462,0.0],[12.2307,65.463,0.0],[12.2318,65.4661,4.2172],[12.2354,65.4667,0.0],[12.2396,65.4646,0.0],[12.2536,65.4693,0.0],[12.2563,65.4729,4.6773],[12.264099999999999,65.4724,0.0],[12.263,65.4672,0.0],[12.2646,65.4667,1.938],[12.2708,65.4688,13.9085],[12.275,65.4667,0.0],[12.2797,65.4703,0.0],[12.2875,65.4729,0.0],[12.2953,65.4724,0.0],[12.2932,65.4672,11.6783],[12.2755,65.462,0.0],[12.2813,65.4563,3.0948],[12.2839,65.4599,0.0],[12.2901,65.462,2.6571],[12.3016,65.463,0.0],[12.3047,65.4703,0.0],[12.3161,65.4734,0.0],[12.3172,65.4766,2.8048],[12.325,65.4771,0.0],[12.326599999999999,65.4766,0.0],[12.3297,65.4693,4.4523],[12.3339,65.4672,0.0],[12.3396,65.4688,2.1465],[12.3474,65.4682,1.1015],[12.3453,65.4609,4.7221],[12.3417,65.4583,17.1087],[12.3313,65.4583,0.0],[12.3146,65.4521,0.0],[12.3068,65.4516,0.0],[12.3036,65.4464,7.0825],[12.2958,65.4437,14.7266],[12.2792,65.4437,0.0],[12.2714,65.4411,3.2905],[12.2667,65.4375,9.0218],[12.2563,65.4375,0.0],[12.2484,65.4349,0.0],[12.2464,65.4328,0.0],[12.2464,65.4297,28.9307],[12.2536,65.4287,244.1499],[12.2521,65.4271,294.5454],[12.2375,65.4292,0.0],[12.1984,65.4161,0.0],[12.1953,65.4109,9.7715],[12.1891,65.4068,28.7586],[12.1839,65.4057,0.0],[12.1828,65.4026,0.0],[12.1776,65.4016,0.0],[12.1745,65.3964,2.2181],[12.1651,65.3953,0.0],[12.1609,65.3891,1.4831],[12.1641,65.387,1.2959],[12.1651,65.3839,0.0],[12.1708,65.3812,0.0],[12.1766,65.3807,0.0],[12.177,65.3789,0.8102],[12.1944,65.3806,8.6286],[12.2612,65.3967,22.0817],[12.2648,65.3946,12.1715],[12.2453,65.3794,0.0],[12.2586,65.3801,10.0325],[12.2573,65.3845,20.4112],[12.268,65.385,13.2544],[12.2667,65.3895,0.0],[12.2774,65.39,23.8144],[12.2721,65.4079,67.1872],[12.2828,65.4084,60.2438],[12.2815,65.4129,80.8011],[12.2922,65.4134,292.4251],[12.2909,65.4179,244.898],[12.3124,65.4189,368.9444],[12.3111,65.4234,530.8752],[12.3218,65.4239,339.3028],[12.3205,65.4284,415.1775],[12.3526,65.43,444.8399],[12.3539,65.4255,378.3872],[12.3646,65.426,548.7814],[12.3672,65.4171,466.3814],[12.3779,65.4176,421.722],[12.3805,65.4087,352.9626],[12.3912,65.4092,387.5648],[12.3989,65.3824,402.4378],[12.4311,65.384,413.3829],[12.4362,65.3662,175.1745],[12.4469,65.3667,121.4347],[12.4479,65.3646,25.8325],[12.4583,65.3688,62.15],[12.4688,65.3688,0.0],[12.4703,65.3672,56.7753],[12.4566,65.3626,19.0417],[12.4684,65.3632,0.0],[12.4708,65.3646,43.4096],[12.4786,65.3641,0.0],[12.4786,65.3609,256.2032],[12.4708,65.3583,326.1801],[12.4604,65.3573,183.9123],[12.4703,65.3255,4.9169],[12.4625,65.325,0.0],[12.4593,65.3232,125.3728],[12.4621,65.3131,178.0806],[12.4515,65.3126,112.4254],[12.4566,65.2947,376.619],[12.4779,65.2958,329.2246],[12.4817,65.2824,325.9571],[12.4923,65.2829,600.095],[12.4936,65.2784,740.9953],[12.5149,65.2795,598.3082],[12.5162,65.275,694.3403],[12.5269,65.2755,384.5175],[12.5256,65.28,524.2332],[12.5469,65.281,182.9753],[12.5457,65.2855,190.6829],[12.5611,65.2862,148.3101],[12.5657,65.291,38.642],[12.5764,65.2915,66.7174],[12.5777,65.287,54.1031],[12.5732,65.2868,56.0299],[12.5682,65.282,41.4206],[12.572,65.2686,55.4258],[12.5827,65.2692,59.9932],[12.5839,65.2647,43.9036],[12.5946,65.2652,30.7387],[12.5958,65.2607,24.495],[12.6065,65.2612,18.0705],[12.6077,65.2568,30.4337],[12.6503,65.2588,14.0],[12.6516,65.2543,14.0],[12.6835,65.2559,14.0],[12.6847,65.2514,70.2995],[12.6954,65.2519,49.1055],[12.6966,65.2474,51.3691],[12.7073,65.2479,54.0324],[12.7097,65.239,419.07],[12.7204,65.2395,399.695],[12.7228,65.2306,406.7503],[12.7122,65.2301,374.8354],[12.7134,65.2256,377.4567],[12.7028,65.2251,414.261],[12.704,65.2206,386.6309],[12.6933,65.2201,411.8033],[12.6946,65.2157,409.5306],[12.7052,65.2162,385.4743],[12.7064,65.2117,307.5856],[12.7108,65.2119,249.042],[12.7127,65.2083,0.0],[12.7182,65.2089,0.0],[12.7214,65.212,0.0],[12.7292,65.2146,0.0],[12.737,65.2151,0.0],[12.7401,65.2203,0.0],[12.7453,65.2214,0.0],[12.7464,65.2245,82.0057],[12.7516,65.2255,0.0],[12.7578,65.2297,0.0],[12.763,65.2391,81.1447],[12.787,65.2464,0.0],[12.7896,65.25,0.0],[12.7995,65.2505,0.0],[12.8005,65.2536,0.0],[12.8057,65.2547,0.0],[12.8109,65.2641,0.0],[12.8286,65.2693,0.0],[12.8318,65.2766,0.0],[12.8401,65.2828,6.4602],[12.8479,65.2833,0.0],[12.862,65.288,0.0],[12.8651,65.2953,0.0],[12.8703,65.2963,0.0],[12.8734,65.3016,5.6304],[12.8813,65.3042,0.0],[12.889099999999999,65.3047,0.0],[12.8922,65.3078,0.0],[12.8974,65.3089,0.0],[12.8984,65.312,0.0],[12.9036,65.313,0.0],[12.9068,65.3161,0.0],[12.9146,65.3167,0.0],[12.9224,65.3193,0.0],[12.9193,65.3224,5.1298],[12.9286,65.3234,0.0],[12.9318,65.3287,9.744],[12.9396,65.3292,0.0],[12.9438,65.3313,0.0],[12.9474,65.3297,0.9287],[12.9401,65.3255,0.0],[12.9479,65.325,1.1407],[12.9542,65.3271,0.0],[12.9599,65.3245,1.4123],[12.9589,65.3214,0.0],[12.962,65.3193,30.6916],[12.9578,65.3109,56.2806],[12.9526,65.3099,59.9754],[12.95,65.3063,250.3675],[12.9464,65.3068,208.2216],[12.9474,65.3099,8.5695],[12.9438,65.3104,0.0],[12.9396,65.3063,97.0377],[12.9255,65.3057,0.0],[12.9255,65.3026,6.1921],[12.9286,65.3016,27.3209],[12.9266,65.2963,131.37],[12.9188,65.2937,137.9864],[12.9109,65.2953,0.0],[12.9141,65.2922,126.8705],[12.9063,65.2896,106.4261],[12.8922,65.2891,19.0609],[12.8901,65.2818,352.8819],[12.8974,65.2776,699.0734],[12.8833,65.2771,572.247],[12.8792,65.275,681.9521],[12.875,65.2771,351.0122],[12.8688,65.2771,106.3208],[12.8547,65.2724,0.0],[12.8578,65.2693,70.1547],[12.8484,65.2682,0.0],[12.8516,65.2651,212.6438],[12.8401,65.262,0.0],[12.838,65.2589,0.0],[12.8411,65.2568,207.9429],[12.8297,65.2536,0.0],[12.8286,65.2505,0.0],[12.8231,65.2484,0.0],[12.8363,65.2494,276.283],[12.8375,65.245,349.5218],[12.8695,65.2464,735.6396],[12.8743,65.2286,433.392],[12.9169,65.2305,876.748],[12.9216,65.2126,901.1085],[12.9536,65.2141,783.5634],[12.9524,65.2186,831.8201],[12.9737,65.2195,672.0029],[12.9725,65.224,627.564],[12.9938,65.225,556.4615],[12.9926,65.2294,631.7341],[13.0033,65.2299,572.7532],[13.0009,65.2389,862.1254],[12.9903,65.2384,815.1213],[12.9891,65.2428,874.347],[12.9784,65.2424,916.6318],[12.9772,65.2468,986.1006],[12.9879,65.2473,980.8211],[12.9867,65.2518,1039.1449],[13.0187,65.2532,796.584],[13.0199,65.2487,764.6132],[13.0305,65.2492,769.1458],[13.0317,65.2448,783.6471],[13.053,65.2457,920.8121]]],
[[[12.2057,65.4349,0.0],[12.2026,65.4318,1.8704],[12.2146,65.4313,0.0],[12.2172,65.4349,3.0019],[12.2349,65.4401,0.0],[12.2359,65.4432,5.3328],[12.2411,65.4453,0.0],[12.2333,65.4458,0.0],[12.225,65.4417,0.0],[12.2063,65.4396,0.0],[12.2042,65.4375,0.0],[12.2057,65.4349,0.0]]],
[[[12.1625,65.4417,2.2399],[12.1589,65.438,3.8321],[12.1641,65.438,6.532],[12.1641,65.4411,7.7849],[12.1625,65.4417,2.2399]]],
[[[12.5245,65.4516,7.4065],[12.5271,65.45,0.0],[12.5354,65.45,52.072],[12.537,65.4537,5.5732],[12.5172,65.4537,9.7651],[12.5188,65.4521,4.6579],[12.5245,65.4516,7.4065]]],
[[[12.562,65.4547,6.5414],[12.562,65.4557,0.0],[12.5589,65.4557,21.1859],[12.5589,65.4547,0.0],[12.562,65.4547,6.5414]]],
[[[12.5578,65.4568,17.1812],[12.5578,65.4578,5.2311],[12.5547,65.4578,14.1225],[12.5547,65.4568,12.0107],[12.5578,65.4568,17.1812]]],
[[[12.5099,65.4609,5.3902],[12.5099,65.462,0.0],[12.5068,65.462,0.0],[12.5068,65.4609,0.0],[12.5099,65.4609,5.3902]]],
[[[12.6333,65.4729,109.2343],[12.6318,65.4714,133.1185],[12.6349,65.4714,137.8015],[12.6349,65.4724,112.8943],[12.6333,65.4729,109.2343]]],
[[[12.0667,65.4875,2.8796],[12.0625,65.4875,0.0],[12.0609,65.4859,0.0],[12.0833,65.4854,12.2041],[12.0875,65.4896,0.0],[12.0828,65.4932,4.0166],[12.075,65.4938,0.0],[12.0734,65.4932,0.0],[12.0724,65.488,0.0],[12.0667,65.4875,2.8796]]],
[[[12.1354,65.4979,0.0],[12.1292,65.4958,0.0],[12.1255,65.4964,5.6245],[12.1229,65.5,5.3685],[12.1234,65.5036,1.5204],[12.137,65.5089,0.0],[12.1401,65.5162,2.7637],[12.1453,65.5172,0.0],[12.1484,65.5224,15.1381],[12.1536,65.5234,0.0],[12.1547,65.5266,0.0],[12.1599,65.5286,0.0],[12.1521,65.5292,0.0],[12.1443,65.5266,0.0],[12.1432,65.5234,4.7667],[12.138,65.5224,0.0],[12.137,65.5193,2.8367],[12.1318,65.5182,3.5441],[12.1286,65.513,6.0489],[12.1234,65.512,0.0],[12.1203,65.5068,8.5393],[12.1151,65.5057,2.1607],[12.112,65.5005,3.4627],[12.0979,65.4958,8.6689],[12.0901,65.4953,0.0],[12.0901,65.4922,0.0],[12.0932,65.4912,0.0],[12.0922,65.488,0.0],[12.1016,65.487,0.0],[12.0964,65.4849,17.5075],[12.0932,65.4797,7.4773],[12.088,65.4786,0.0],[12.0849,65.4755,0.0],[12.0729,65.4708,0.0],[12.0667,65.4729,0.0],[12.0589,65.4693,0.0],[12.0708,65.4688,0.0],[12.076599999999999,65.4661,0.0],[12.0734,65.4589,0.0],[12.0854,65.4583,0.0],[12.0917,65.4604,0.0],[12.0932,65.4599,0.0],[12.0922,65.4568,0.0],[12.0958,65.4563,15.1323],[12.0984,65.4599,0.0],[12.112,65.4651,0.0],[12.113,65.4703,15.4267],[12.1286,65.4714,0.0],[12.1318,65.4766,5.4252],[12.1396,65.4792,0.0],[12.1474,65.4797,0.0],[12.1505,65.4828,0.0],[12.1557,65.4838,0.0],[12.1568,65.487,4.9224],[12.162,65.488,0.0],[12.162,65.4912,0.0],[12.1547,65.4943,25.4678],[12.1557,65.4995,12.3328],[12.15,65.4979,12.4604],[12.1354,65.4979,0.0]]],
[[[12.15,65.5104,3.5757],[12.1464,65.5099,0.0],[12.1464,65.5068,1.561],[12.1557,65.5089,9.8213],[12.1578,65.512,6.8509],[12.1542,65.5125,3.874],[12.15,65.5104,3.5757]]],
[[[12.0833,65.5313,6.6999],[12.0792,65.5313,0.0],[12.0776,65.5297,0.0],[12.0849,65.5297,0.0],[12.0833,65.5313,6.6999]]],
[[[12.0953,65.5391,0.0],[12.0995,65.538,0.0],[12.1016,65.5401,0.0],[12.1016,65.5432,0.0],[12.0943,65.5453,0.0],[12.0917,65.5417,1.698],[12.0953,65.5391,0.0]]],
[[[12.1068,65.5432,0.6633],[12.1104,65.5417,0.0],[12.1125,65.5437,1.4586],[12.1104,65.5458,0.445],[12.1068,65.5432,0.6633]]]]}}