{"type":"Feature","properties":{"id":97509.0,"name":"Rosskreppfjorden","lge_id":"no","pfafstette":7913.0,"lke_type":"B","altitude":923,"objectid":52950,"scalerank":12,"featurecla":"Lake","note":null,"funkyname":0,"min_zoom":7.0,"min_label":8.0},
"geometry":{"type": "Polygon","coordinates": [[[7.1295272144587329,59.076544500775327,934.6483],[7.1295272144587329,59.076544500775327,934.6483],[7.1262313160212329,59.063116766400327,944.4774],[7.1319686207087329,59.055182196087827,913.0],[7.1566268238337329,59.053107000775327,913.0],[7.1770125660212329,59.059820867962827,913.0],[7.1878768238337329,59.064947821087827,929.1627],[7.1976424488337329,59.072882391400327,930.1453],[7.2039901050837329,59.079230047650327,924.7274],[7.2146102222712329,59.088629461712827,924.7111],[7.2019149097712329,59.094427801556577,933.0621],[7.2006942066462329,59.111456610150327,914.1459],[7.2033797535212329,59.133978582806577,1005.2352],[7.1882430347712329,59.137945867962827,945.16],[7.1790877613337329,59.140936590619077,966.3644],[7.1629744800837329,59.143316961712827,1033.1605],[7.1556502613337329,59.138495184369077,963.6649],[7.1493026050837329,59.123053289837827,1020.9749],[7.1429549488337329,59.101690985150327,1066.436],[7.1372176441462329,59.086798407025327,1031.3958],[7.1295272144587329,59.076544500775327,934.6483]]]}}