{"type": "Feature","id": 90336.0,"bbox": [8.7688094410212329,60.332403875775327,8.9051619800837329,60.454901434369077],"geometry": {"type": "Polygon","coordinates": [[[8.8781844410212329,60.360357977337827,732.0],[8.8781844410212329,60.360357977337827,732.0],[8.8802596363337329,60.353644110150327,732.0],[8.8833113941462329,60.345770574994077,732.0],[8.8991805347712329,60.332403875775327,732.0],[8.9051619800837329,60.339667059369077,855.6429],[8.8939315113337329,60.353949285931577,800.4817],[8.8881942066462329,60.362494207806577,750.079],[8.8823348316462329,60.370367742962827,761.9371],[8.8774520191462329,60.383185125775327,732.0],[8.8814803394587329,60.404425360150327,732.0],[8.8827010425837329,60.423590399212827,769.6654],[8.8637801441462329,60.438116766400327,833.4299],[8.8237410816462329,60.446051336712827,787.7019],[8.7909041675837329,60.453985907025327,768.082],[8.7754012378962329,60.454901434369077,770.5474],[8.7688094410212329,60.442999578900327,732.0],[8.7815047535212329,60.435736395306577,732.0],[8.8234969410212329,60.428473211712827,732.0],[8.8617049488337329,60.421148992962827,732.0],[8.8725692066462329,60.417181707806577,732.0],[8.8620711597712329,60.411993719525327,772.3087],[8.8525496753962329,60.396185614056577,740.3765],[8.8608504566462329,60.373419500775327,732.0],[8.8708602222712329,60.366461492962827,732.0],[8.8781844410212329,60.360357977337827,732.0]]]}
,"properties": {"name": "Tunhovdfjorden","lge_id": "no","pfafstette": 5111.0,"lke_type": "B","altitude": 0,"objectid": 46220,"scalerank": 12,"featurecla": "Lake","note": null,"funkyname": 0,"min_zoom": 7.0,"min_label": 8.0,"area_km2": 20.85412,"hist_schema_id": "Elevation0-9000","hist_area_km2": {"725": 13.67434,"750": 3.92519,"775": 2.34417,"800": 0.78487,"825": 0.12555}}}