{"type":"Feature","properties":{"id":21058.0,"name":"Langvatnet","lge_id":"no","pfafstette":41.0,"lke_type":"B","altitude":0,"objectid":12128,"scalerank":12,"featurecla":"Lake","note":null,"funkyname":0,"min_zoom":7.0,"min_label":8.0},
"geometry":{"type": "Polygon","coordinates": [[[14.147593620708733,66.375067449994077,42.5],[14.147593620708733,66.375067449994077,42.5],[14.170176628521233,66.377508856244077,42.5],[14.198985222271233,66.377203680462827,42.5],[14.223643425396233,66.379339910931577,42.5],[14.246348503521233,66.382086492962827,42.5],[14.258189323833733,66.386053778119077,51.083],[14.246958855083733,66.393072821087827,45.5223],[14.216807487896233,66.392462469525327,348.5317],[14.177378776958733,66.389105535931577,562.8015],[14.156138542583733,66.388800360150327,500.4041],[14.065562370708733,66.390631414837827,237.9836],[14.053111198833733,66.390021063275327,308.6718],[14.033335808208733,66.392462469525327,99.2395],[14.021983269146233,66.403937078900327,171.3891],[14.009532097271233,66.414923407025327,327.2537],[13.995005730083733,66.414007879681577,129.0112],[13.996592644146233,66.395453192181577,42.5],[14.009898308208733,66.374762274212827,53.629],[14.016856316021233,66.362311102337827,42.5],[14.022959831646233,66.359869696087827,42.5],[14.043345573833733,66.370489813275327,42.5],[14.099864128521233,66.375067449994077,42.5],[14.147593620708733,66.375067449994077,42.5]]]}}