{"type":"Feature","properties":{"id":22550.0,"name":"Storakersvatnet","lge_id":"no","pfafstette":0.0,"lke_type":"B","altitude":0,"objectid":15389,"scalerank":11,"featurecla":"Lake","note":null,"funkyname":0,"min_zoom":6.7,"min_label":7.7},
"geometry":{"type": "Polygon","coordinates": [[[14.458262566021233,66.179999090619077,517.0],[14.458262566021233,66.179999090619077,517.0],[14.439463737896233,66.192755438275327,716.5787],[14.394786003521233,66.203070379681577,758.2574],[14.375254753521233,66.205511785931577,797.901],[14.349742058208733,66.204901434369077,627.0028],[14.341563347271233,66.187262274212827,517.0],[14.350352409771233,66.167853094525327,517.0],[14.322276237896233,66.159613348431577,762.4537],[14.298350456646233,66.154181219525327,635.5389],[14.327159050396233,66.148382879681577,517.0],[14.361582878521233,66.142889715619077,517.0],[14.398081901958733,66.138006903119077,517.0],[14.429942253521233,66.143805242962827,517.0],[14.445567253521233,66.151068426556577,517.0],[14.459727409771233,66.145880438275327,526.2565],[14.479014519146233,66.141363836712827,517.0],[14.502329948833733,66.148688055462827,532.7596],[14.483775261333733,66.156561590619077,574.7894],[14.449473503521233,66.168463446087827,550.2526],[14.458262566021233,66.179999090619077,517.0]]]}}