{"type": "Feature","id": 97225.0,"bbox": [8.0422469410212329,59.035773016400327,8.2662459644587329,59.205939032025327],"geometry": {"type": "Polygon","coordinates": [[[8.2662459644587329,59.040289617962827,385.9394],[8.2662459644587329,59.040289617962827,385.9394],[8.2631942066462329,59.048529364056577,336.1496],[8.2583113941462329,59.058844305462827,374.7861],[8.2559920582087329,59.074103094525327,356.6549],[8.2529403003962329,59.083502508587827,519.1338],[8.2307235035212329,59.089544989056577,558.1981],[8.1933699878962329,59.102667547650327,830.5319],[8.1665145191462329,59.113898016400327,842.8386],[8.1532088550837329,59.120856024212827,528.6604],[8.1379500660212329,59.130316473431577,384.6167],[8.1237899097712329,59.139166571087827,420.5681],[8.1013289722712329,59.150030828900327,548.0355],[8.0846053394587329,59.165838934369077,307.0882],[8.0872908863337329,59.182562567181577,285.0818],[8.0783797535212329,59.198370672650327,316.5208],[8.0614119800837329,59.205939032025327,281.2407],[8.0561629566462329,59.194098211712827,298.2561],[8.0498153003962329,59.183783270306577,398.4998],[8.0422469410212329,59.175909735150327,357.9584],[8.0462752613337329,59.167120672650327,277.5],[8.0529891285212329,59.156134344525327,277.5],[8.0623885425837329,59.143683172650327,277.5],[8.0723983082087329,59.133673407025327,277.5],[8.0842391285212329,59.124823309369077,277.5],[8.1115828785212329,59.119940496869077,277.5],[8.1319686207087329,59.109625555462827,277.5],[8.1523543628962329,59.089606024212827,277.5],[8.1845809253962329,59.074957586712827,277.5],[8.2058211597712329,59.065558172650327,277.5],[8.2237654957087329,59.054938055462827,277.5],[8.2380477222712329,59.045172430462827,277.5],[8.2550154957087329,59.035773016400327,277.5],[8.2662459644587329,59.040289617962827,385.9394]]]}
,"properties": {"name": "Fyresvatnet","lge_id": "no","pfafstette": 6191.0,"lke_type": "B","altitude": 278,"objectid": 52902,"scalerank": 11,"featurecla": "Lake","note": null,"funkyname": 0,"min_zoom": 6.7,"min_label": 7.7,"area_km2": 50.06356,"hist_schema_id": "Elevation0-9000","hist_area_km2": {"275": 35.81687,"300": 2.44725,"325": 1.69799,"350": 1.12099,"375": 0.97948,"400": 0.87088,"425": 0.6421,"450": 0.67464,"475": 0.729,"500": 0.4571,"525": 0.54426,"550": 0.43541,"575": 0.47905,"600": 0.37023,"625": 0.52266,"650": 0.67519,"675": 0.46819,"700": 0.30486,"725": 0.20686,"750": 0.17419,"775": 0.21773,"800": 0.11975,"825": 0.06532,"850": 0.04354}}}