{"type": "Feature","id": 88501.0,"bbox": [10.141001823833733,60.252814032025327,10.470713737896233,60.809881903119077],"geometry": {"type": "Polygon","coordinates": [[[10.161143425396233,60.809271551556577,381.5627],[10.161143425396233,60.809271551556577,381.5627],[10.141001823833733,60.806280828900327,179.8938],[10.168345573833733,60.799872137494077,145.526],[10.201182487896233,60.797430731244077,132.5],[10.218516472271233,60.786505438275327,132.5],[10.227549675396233,60.766424871869077,147.3828],[10.236827019146233,60.748541571087827,132.5],[10.250498894146233,60.735480047650327,132.5],[10.277476433208733,60.716925360150327,132.5],[10.317393425396233,60.687384344525327,132.5],[10.339854362896233,60.655768133587827,132.5],[10.333994987896233,60.624762274212827,271.3835],[10.312998894146233,60.606878973431577,312.4041],[10.298472526958733,60.596564032025327,151.9161],[10.294444206646233,60.559149481244077,132.5],[10.301524284771233,60.526617742962827,132.5],[10.333994987896233,60.520880438275327,132.5],[10.373789909771233,60.512640692181577,132.5],[10.388194206646233,60.492254949994077,167.8878],[10.393321159771233,60.473395086712827,132.5],[10.393077019146233,60.451239324994077,155.8794],[10.382578972271233,60.428473211712827,233.4128],[10.376231316021233,60.412604071087827,141.4829],[10.369883659771233,60.401373602337827,217.755],[10.358897331646233,60.391607977337827,211.8129],[10.357676628521233,60.367621160931577,141.5217],[10.353770378521233,60.347906805462827,211.9266],[10.345469597271233,60.333624578900327,132.5],[10.351573112896233,60.313849188275327,132.5],[10.361338737896233,60.295294500775327,132.5],[10.374766472271233,60.279791571087827,132.5],[10.388194206646233,60.260992742962827,132.5],[10.406016472271233,60.252814032025327,132.5],[10.421275261333733,60.263434149212827,149.779],[10.412364128521233,60.275274969525327,189.9931],[10.406260612896233,60.287359930462827,164.668],[10.401866081646233,60.295599676556577,239.8746],[10.386607292583733,60.306891180462827,157.9516],[10.381724480083733,60.326910711712827,132.5],[10.392100456646233,60.345770574994077,132.5],[10.406382683208733,60.357611395306577,132.5],[10.413584831646233,60.368902899212827,132.5],[10.417613151958733,60.380133367962827,132.5],[10.425791862896233,60.399542547650327,132.5],[10.437754753521233,60.421148992962827,132.5],[10.458628776958733,60.430548407025327,137.8593],[10.470713737896233,60.437567449994077,189.0471],[10.455577019146233,60.441168524212827,189.2155],[10.444590691021233,60.454230047650327,132.5],[10.452891472271233,60.473395086712827,132.5],[10.450450066021233,60.488898016400327,230.7203],[10.420054558208733,60.512030340619077,239.6466],[10.382090691021233,60.529913641400327,473.1383],[10.343150261333733,60.533270574994077,408.2991],[10.318858269146233,60.540594793744077,147.1378],[10.322520378521233,60.553961492962827,132.5],[10.331065300396233,60.578253485150327,132.5],[10.340342644146233,60.604986883587827,132.5],[10.355967644146233,60.619269110150327,132.5],[10.362559441021233,60.650274969525327,166.1474],[10.349253776958733,60.692877508587827,164.6724],[10.327647331646233,60.716559149212827,239.5928],[10.299571159771233,60.726324774212827,238.9834],[10.272227409771233,60.738775946087827,216.692],[10.259532097271233,60.751837469525327,203.7112],[10.247691276958733,60.762213446087827,181.1094],[10.239512566021233,60.781317449994077,132.5],[10.233409050396233,60.801031805462827,211.2143],[10.209727409771233,60.809881903119077,305.0331],[10.188487175396233,60.808966375775327,419.3514],[10.161143425396233,60.809271551556577,381.5627]]]}
,"properties": {"name": "Randsfjorden","lge_id": "no","pfafstette": 6137.0,"lke_type": "B","altitude": 134,"objectid": 47310,"scalerank": 10,"featurecla": "Lake","note": null,"funkyname": 0,"min_zoom": 6.0,"min_label": 7.0,"area_km2": 138.8378,"hist_schema_id": "Elevation0-9000","hist_area_km2": {"125": 109.1886,"150": 11.3044,"175": 7.3429,"200": 3.9881,"225": 2.02,"250": 1.2387,"275": 0.8011,"300": 0.7075,"325": 0.6551,"350": 0.4478,"375": 0.4363,"400": 0.4993,"425": 0.1352,"450": 0.0522,"475": 0.0209}}}