{"type":"Feature","properties":{"id":94354.0,"name":"Fiskumvatnet-Eikeren","lge_id":"no","pfafstette":1417.0,"lke_type":"B","altitude":21,"objectid":49824,"scalerank":12,"featurecla":"Lake","note":null,"funkyname":0,"min_zoom":7.0,"min_label":8.0},
"geometry":{"type": "Polygon","coordinates": [[[10.024668816021233,59.600470282025327,85.3593],[10.024668816021233,59.600470282025327,85.3593],[10.024668816021233,59.607062078900327,79.738],[10.011241081646233,59.618414617962827,32.6393],[10.002452019146233,59.633307196087827,97.273],[9.9926863941462329,59.645148016400327,73.3716],[9.9759627613337329,59.655523992962827,244.6138],[9.9433699878962329,59.673468328900327,273.8005],[9.9055281910212329,59.689581610150327,189.5815],[9.8745223316462329,59.702887274212827,131.4101],[9.8620711597712329,59.711127020306577,27.2063],[9.8529158863337329,59.716315008587827,18.3451],[9.8359481128962329,59.722967840619077,20.4496],[9.8191024097712329,59.719610907025327,53.1782],[9.8149520191462329,59.710211492962827,28.7522],[9.8291121753962329,59.704779364056577,18.0],[9.8601180347712329,59.690497137494077,18.0],[9.8939315113337329,59.670721746869077,18.0],[9.9170028003962329,59.658575750775327,18.0],[9.9318953785212329,59.649725653119077,18.0],[9.9434920582087329,59.642462469525327,18.0],[9.9550887378962329,59.633917547650327,18.0],[9.9690047535212329,59.623602606244077,18.0],[9.9936629566462329,59.608710028119077,18.0],[10.024668816021233,59.600470282025327,85.3593]]]}}