{"type":"Feature","properties":{"id":101088.0,"name":"Lundevatnet","lge_id":"no","pfafstette":17.0,"lke_type":"R","altitude":210,"objectid":55956,"scalerank":12,"featurecla":"Reservoir","note":null,"funkyname":0,"min_zoom":7.0,"min_label":8.0},
"geometry":{"type": "Polygon","coordinates": [[[6.5003768238337329,58.317267157025327,176.7031],[6.5003768238337329,58.317267157025327,176.7031],[6.5087996753962329,58.316961981244077,215.579],[6.5338240894587329,58.322149969525327,255.6251],[6.5515242847712329,58.326971746869077,106.9821],[6.5664168628962329,58.332770086712827,47.0],[6.5766707691462329,58.339422918744077,47.0],[6.5833846363337329,58.349737860150327,47.0],[6.6086531910212329,58.361944891400327,47.0],[6.6225692066462329,58.384405828900327,102.8016],[6.6211043628962329,58.410528875775327,113.3609],[6.6135360035212329,58.428473211712827,278.4595],[6.6037703785212329,58.442755438275327,68.5147],[6.5903426441462329,58.449164129681577,337.3118],[6.5656844410212329,58.455572821087827,268.9409],[6.5550643238337329,58.450384832806577,47.0],[6.5666610035212329,58.434576727337827,47.0],[6.5876570972712329,58.404486395306577,47.0],[6.5905867847712329,58.374090887494077,139.478],[6.5699569019587329,58.356451727337827,319.3788],[6.5471297535212329,58.336432196087827,268.0185],[6.5192977222712329,58.324835516400327,243.6051],[6.5003768238337329,58.317267157025327,176.7031]]]}}