{"type":"Feature","properties":{"id":81864.0,"name":"Strynevatnet","lge_id":"no","pfafstette":131.0,"lke_type":"B","altitude":0,"objectid":41472,"scalerank":12,"featurecla":"Lake","note":null,"funkyname":0,"min_zoom":7.0,"min_label":8.0},
"geometry":{"type": "Polygon","coordinates": [[[6.8523055347712329,61.939032293744077,379.3775],[6.8523055347712329,61.939032293744077,379.3775],[6.8630477222712329,61.936285711712827,128.0434],[6.8845320972712329,61.938727117962827,33.5078],[6.9069930347712329,61.940558172650327,217.112],[6.9438582691462329,61.943854071087827,27.5],[6.9826766285212329,61.946051336712827,27.5],[7.0107528003962329,61.940863348431577,27.5],[7.0307723316462329,61.928717352337827,27.5],[7.0711776050837329,61.911688543744077,27.5],[7.1054793628962329,61.910467840619077,27.5],[7.1091414722712329,61.922308660931577,529.6391],[7.0982772144587329,61.926886297650327,519.7938],[7.0639754566462329,61.939642645306577,864.8766],[7.0158797535212329,61.956671453900327,538.8654],[6.9726668628962329,61.960333563275327,771.4679],[6.9477645191462329,61.953924871869077,309.4959],[6.9004012378962329,61.945074774212827,373.9398],[6.8523055347712329,61.939032293744077,379.3775]]]}}