{"type":"Feature","properties":{"id":68612.0,"name":"Gjevilvatnet","lge_id":"no","pfafstette":613.0,"lke_type":"B","altitude":0,"objectid":35197,"scalerank":12,"featurecla":"Lake","note":null,"funkyname":0,"min_zoom":7.0,"min_label":8.0},
"geometry":{"type": "Polygon","coordinates": [[[9.4836531910212329,62.660650946087827,659.5],[9.4836531910212329,62.660650946087827,659.5],[9.4893904957087329,62.664862371869077,680.5306],[9.4832869800837329,62.677923895306577,708.2013],[9.4683944019587329,62.684942938275327,725.0678],[9.4361678394587329,62.697394110150327,817.6514],[9.4021102222712329,62.706793524212827,683.5522],[9.3659774097712329,62.708624578900327,853.3201],[9.3404647144587329,62.711676336712827,966.3922],[9.3142195972712329,62.716559149212827,1187.1602],[9.2492781910212329,62.721075750775327,942.085],[9.2133895191462329,62.715948797650327,800.437],[9.2456160816462329,62.711065985150327,659.5],[9.2973738941462329,62.708624578900327,659.5],[9.3198348316462329,62.706183172650327,659.5],[9.3343611988337329,62.703131414837827,659.5],[9.3741561207087329,62.698858953900327,677.9226],[9.4033309253962329,62.692267157025327,659.5],[9.4209090503962329,62.681280828900327,659.5],[9.4563094410212329,62.670050360150327,659.5],[9.4836531910212329,62.660650946087827,659.5]]]}}