{"type": "Feature","id": 37992.0,"bbox": [11.905161980083733,64.265997625775327,12.047862175396233,64.333502508587827],"geometry": {"type": "Polygon","coordinates": [[[11.990244987896233,64.308294989056577,313.0],[11.990244987896233,64.308294989056577,313.0],[12.020518425396233,64.314703680462827,313.0],[12.047862175396233,64.327398992962827,324.7807],[12.024546745708733,64.333502508587827,409.5938],[11.974375847271233,64.318304754681577,388.4493],[11.948863151958733,64.305548407025327,325.2098],[11.933970573833733,64.298590399212827,337.5334],[11.916026237896233,64.291266180462827,348.8719],[11.905161980083733,64.283697821087827,326.7394],[11.929209831646233,64.274237371869077,313.0],[11.957408073833733,64.265997625775327,313.0],[11.967784050396233,64.268439032025327,313.0],[11.964976433208733,64.289435125775327,345.0602],[11.967051628521233,64.304022528119077,313.0],[11.990244987896233,64.308294989056577,313.0]]]}
,"properties": {"name": "Bangsjene","lge_id": "no","pfafstette": 59.0,"lke_type": "B","altitude": 0,"objectid": 21001,"scalerank": 12,"featurecla": "Lake","note": null,"funkyname": 0,"min_zoom": 7.0,"min_label": 8.0,"area_km2": 14.3435,"hist_schema_id": "Elevation0-9000","hist_area_km2": {"325": 10.94306,"350": 1.59023,"375": 0.79946,"400": 0.74429,"425": 0.26645}}}