{"type": "Feature","id": 70000.0,"bbox": [8.1103621753962329,62.488898016400327,8.1821395191462329,62.635382391400327],"geometry": {"type": "Polygon","coordinates": [[[8.1608992847712329,62.488898016400327,22.0],[8.1608992847712329,62.488898016400327,22.0],[8.1702986988337329,62.509283758587827,42.6335],[8.1772567066462329,62.540899969525327,22.0],[8.1821395191462329,62.556036688275327,82.5978],[8.1781111988337329,62.576117254681577,22.0],[8.1742049488337329,62.592535711712827,257.0574],[8.1709090503962329,62.612311102337827,22.0],[8.1621199878962329,62.631109930462827,548.3708],[8.1325789722712329,62.635382391400327,138.4335],[8.1103621753962329,62.632330633587827,78.2276],[8.1235457691462329,62.628363348431577,22.0],[8.1450301441462329,62.622565008587827,22.0],[8.1486922535212329,62.612311102337827,61.6786],[8.1474715503962329,62.600104071087827,22.0],[8.1464949878962329,62.580084539837827,99.9711],[8.1508895191462329,62.560919500775327,22.0],[8.1535750660212329,62.546271063275327,100.3887],[8.1495467457087329,62.530768133587827,120.4825],[8.1456404957087329,62.515631414837827,134.0507],[8.1456404957087329,62.500372625775327,22.0],[8.1608992847712329,62.488898016400327,22.0]]]}
,"properties": {"name": "Eikesdalsvatnet","lge_id": "no","pfafstette": 1535.0,"lke_type": "B","altitude": 757,"objectid": 35919,"scalerank": 12,"featurecla": "Lake","note": null,"funkyname": 0,"min_zoom": 7.0,"min_label": 8.0,"area_km2": 21.41162,"hist_schema_id": "Elevation0-9000","hist_area_km2": {"25": 17.90818,"50": 0.8104,"75": 0.42983,"100": 0.3318,"125": 0.37109,"150": 0.26349,"175": 0.11713,"200": 0.12681,"225": 0.14627,"250": 0.06827,"275": 0.09753,"300": 0.07799,"325": 0.08773,"350": 0.06824,"375": 0.06823,"400": 0.05849,"425": 0.01949,"450": 0.04874,"475": 0.06823,"500": 0.02924,"525": 0.05848,"550": 0.04873,"575": 0.00975,"600": 0.02924,"625": 0.02924,"650": 0.02924,"700": 0.00975}}}