{"type":"Feature","properties":{"id":74206.0,"name":"Aursjen","lge_id":"no","pfafstette":51.0,"lke_type":"B","altitude":1018,"objectid":38287,"scalerank":11,"featurecla":"Lake","note":null,"funkyname":0,"min_zoom":6.7,"min_label":7.7},
"geometry":{"type": "Polygon","coordinates": [[[8.7104598316462329,62.301947332806577,854.7177],[8.7104598316462329,62.301947332806577,854.7177],[8.7139998707087329,62.312567449994077,853.0],[8.7194930347712329,62.322882391400327,866.3965],[8.7091170582087329,62.339606024212827,912.2673],[8.6911727222712329,62.350592352337827,957.5121],[8.6684676441462329,62.363348699994077,911.7525],[8.6438094410212329,62.378241278119077,908.8489],[8.6289168628962329,62.388556219525327,875.4675],[8.6140242847712329,62.400152899212827,876.0913],[8.5954695972712329,62.405279852337827,951.7046],[8.5691024097712329,62.410162664837827,947.6601],[8.5449324878962329,62.410467840619077,914.4681],[8.5730086597712329,62.393439032025327,853.0],[8.6181746753962329,62.370001532025327,853.0],[8.6411238941462329,62.354498602337827,853.0],[8.6657820972712329,62.342413641400327,853.0],[8.6833602222712329,62.313238836712827,853.0],[8.7075301441462329,62.282477117962827,853.0],[8.7319442066462329,62.267950750775327,853.0],[8.7705184253962329,62.256048895306577,853.0],[8.8070174488337329,62.254523016400327,913.1286],[8.7944442066462329,62.262152410931577,1079.897],[8.7732039722712329,62.268805242962827,1052.0474],[8.7556258472712329,62.275763250775327,950.1849],[8.7410994800837329,62.283697821087827,910.6652],[8.7253524097712329,62.291327215619077,891.0925],[8.7104598316462329,62.301947332806577,854.7177]]]}}