{"type":"Feature","properties":{"id":90560.0,"name":"Hurdalsjen","lge_id":"no","pfafstette":214333.0,"lke_type":"B","altitude":0,"objectid":46998,"scalerank":12,"featurecla":"Lake","note":null,"funkyname":0,"min_zoom":7.0,"min_label":8.0},
"geometry":{"type": "Polygon","coordinates": [[[11.074717644146233,60.410223699994077,173.0],[11.074717644146233,60.410223699994077,173.0],[11.073496941021233,60.429388739056577,186.0582],[11.065928581646233,60.424200750775327,185.344],[11.050669792583733,60.404425360150327,181.8327],[11.031260612896233,60.388312078900327,304.2053],[11.018565300396233,60.379767157025327,265.7954],[11.013682487896233,60.366705633587827,193.5094],[11.023936394146233,60.352789617962827,173.0],[11.041026237896233,60.344549871869077,173.0],[11.059825066021233,60.338141180462827,173.0],[11.073496941021233,60.317816473431577,173.0],[11.082041862896233,60.302313543744077,173.0],[11.089976433208733,60.295660711712827,173.0],[11.102061394146233,60.288336492962827,173.0],[11.114878776958733,60.295294500775327,173.0],[11.117686394146233,60.316595770306577,188.88],[11.122813347271233,60.329962469525327,173.0],[11.123667839458733,60.335699774212827,237.8037],[11.104869011333733,60.343634344525327,229.5626],[11.078135612896233,60.351813055462827,276.8702],[11.056895378521233,60.364630438275327,220.6158],[11.050059441021233,60.378302313275327,173.0],[11.061289909771233,60.388006903119077,173.0],[11.074717644146233,60.410223699994077,173.0]]]}}