{"type":"Feature","properties":{"id":88394.0,"name":"Djupsvatnet","lge_id":"no","pfafstette":482511.0,"lke_type":"B","altitude":0,"objectid":47442,"scalerank":11,"featurecla":"Lake","note":null,"funkyname":0,"min_zoom":6.7,"min_label":7.7},
"geometry":{"type": "Polygon","coordinates": [[[8.0705672535212329,60.750921942181577,1087.1498],[8.0705672535212329,60.750921942181577,1087.1498],[8.0708113941462329,60.762213446087827,1088.2235],[8.0666610035212329,60.772833563275327,1140.7942],[8.0498153003962329,60.779791571087827,1179.1451],[8.0377303394587329,60.784674383587827,1144.0911],[8.0216170582087329,60.793829657025327,1128.845],[8.0134383472712329,60.803839422650327,1086.978],[8.0161238941462329,60.816290594525327,1195.9316],[7.9985457691462329,60.822943426556577,1248.3506],[7.9777938160212329,60.818976141400327,1375.8571],[7.9596053394587329,60.816595770306577,1280.6588],[7.9375106128962329,60.818121649212827,1303.4318],[7.9267684253962329,60.812933660931577,1136.2769],[7.9462996753962329,60.809576727337827,1087.8007],[7.9760848316462329,60.802252508587827,1086.8267],[7.9777938160212329,60.788580633587827,1107.4779],[7.9675399097712329,60.778265692181577,1105.1616],[7.9741317066462329,60.771002508587827,1088.3193],[7.9951278003962329,60.754889227337827,1087.9508],[8.0140486988337329,60.747320867962827,1086.9408],[8.0273543628962329,60.756109930462827,1087.2655],[8.0429793628962329,60.755804754681577,1087.1714],[8.0544539722712329,60.742438055462827,1088.381],[8.0771590503962329,60.727545477337827,1086.942],[8.1130477222712329,60.723578192181577,1090.2701],[8.1228133472712329,60.731451727337827,1115.1713],[8.1157332691462329,60.744879461712827,1103.8551],[8.1067000660212329,60.759405828900327,1157.905],[8.0903426441462329,60.758795477337827,1091.4025],[8.0913192066462329,60.744879461712827,1087.8101],[8.0997420582087329,60.736334539837827,1088.0105],[8.0857039722712329,60.737555242962827,1091.9305],[8.0705672535212329,60.750921942181577,1087.1498]],
[[8.0249129566462329,60.778265692181577,1088.6543],[8.0249129566462329,60.778265692181577,1088.6543],[8.0256453785212329,60.771246649212827,1088.8667],[8.0189315113337329,60.774054266400327,1093.5713],[8.0249129566462329,60.778265692181577,1088.6543]]]}}