{"type":"Feature","properties":{"id":88898.0,"name":"Strandavatnet","lge_id":"no","pfafstette":4857.0,"lke_type":"B","altitude":0,"objectid":47349,"scalerank":12,"featurecla":"Lake","note":null,"funkyname":0,"min_zoom":7.0,"min_label":8.0},
"geometry":{"type": "Polygon","coordinates": [[[7.8671981128962329,60.670660711712827,975.5],[7.8671981128962329,60.670660711712827,975.5],[7.8930770191462329,60.665838934369077,975.5],[7.9128524097712329,60.670660711712827,975.5],[7.9279891285212329,60.677374578900327,1126.0946],[7.9113875660212329,60.681891180462827,975.5],[7.8847762378962329,60.694098211712827,975.5],[7.8449813160212329,60.716559149212827,1190.0944],[7.7804061207087329,60.729254461712827,1264.9684],[7.7544051441462329,60.724188543744077,975.5],[7.7775985035212329,60.718695379681577,975.5],[7.8025008472712329,60.712897039837827,975.5],[7.8237410816462329,60.707464910931577,975.5],[7.8400985035212329,60.692877508587827,1002.4274],[7.8671981128962329,60.670660711712827,975.5]]]}}