{"type": "Feature","id": 23527.0,"bbox": [14.353770378521233,66.048346258587827,14.581675651958733,66.101263739056577],"geometry": {"type": "Polygon","coordinates": [[[14.464610222271233,66.049566961712827,595.5],[14.464610222271233,66.049566961712827,595.5],[14.485240105083733,66.061163641400327,595.5],[14.522715691021233,66.075079657025327,595.5],[14.563975456646233,66.085760809369077,595.5],[14.581675651958733,66.091803289837827,722.9193],[14.566172722271233,66.098517157025327,632.4941],[14.539073112896233,66.101263739056577,637.2001],[14.522715691021233,66.094244696087827,642.2925],[14.503550651958733,66.085455633587827,738.6118],[14.458262566021233,66.083929754681577,906.7252],[14.422984245708733,66.082403875775327,785.8141],[14.398448112896233,66.079352117962827,794.162],[14.377452019146233,66.078741766400327,988.3488],[14.353770378521233,66.079840399212827,1074.3579],[14.358164909771233,66.071783758587827,614.5309],[14.401621941021233,66.067511297650327,595.5],[14.429698112896233,66.064825750775327,595.5],[14.441172722271233,66.056280828900327,595.5],[14.448741081646233,66.048346258587827,595.5],[14.464610222271233,66.049566961712827,595.5]]]}
,"properties": {"name": "Grasvatnet","lge_id": "no","pfafstette": 71.0,"lke_type": "B","altitude": 0,"objectid": 14553,"scalerank": 12,"featurecla": "Lake","note": null,"funkyname": 0,"min_zoom": 7.0,"min_label": 8.0,"area_km2": 20.66967,"hist_schema_id": "Elevation0-9000","hist_area_km2": {"600": 12.31452,"625": 1.54738,"650": 1.44406,"675": 0.94558,"700": 0.87674,"725": 0.78211,"750": 0.73055,"775": 0.46415,"800": 0.23211,"825": 0.2579,"850": 0.2407,"875": 0.16333,"900": 0.12895,"925": 0.14614,"950": 0.13754,"975": 0.05158,"1000": 0.09457,"1025": 0.05158,"1050": 0.06018}}}