{"type": "Feature","id": 96874.0,"bbox": [6.8426619800837329,59.145514227337827,7.0466414722712329,59.226080633587827],"geometry": {"type": "Polygon","coordinates": [[[6.8447371753962329,59.151617742962827,973.3226],[6.8447371753962329,59.151617742962827,973.3226],[6.8426619800837329,59.146124578900327,915.0967],[6.8563338550837329,59.149725653119077,883.0],[6.8836776050837329,59.145514227337827,883.0],[6.8982039722712329,59.148565985150327,946.1714],[6.9106551441462329,59.164313055462827,883.0],[6.9404403003962329,59.173773504681577,883.0],[6.9602156910212329,59.178961492962827,981.4492],[6.9807235035212329,59.186529852337827,883.0],[7.0040389332087329,59.199896551556577,883.0],[7.0307723316462329,59.215094305462827,883.0],[7.0466414722712329,59.224493719525327,1086.6973],[7.0305281910212329,59.226080633587827,940.2406],[7.0144149097712329,59.220892645306577,1010.4059],[6.9997664722712329,59.219671942181577,999.3254],[6.9870711597712329,59.213873602337827,913.1129],[6.9818221363337329,59.202887274212827,941.4992],[6.9644881519587329,59.202032782025327,996.6423],[6.9462996753962329,59.209601141400327,891.8163],[6.9347029957087329,59.209357000775327,1034.0226],[6.9307967457087329,59.196295477337827,883.0],[6.9265242847712329,59.187750555462827,929.0159],[6.9165145191462329,59.180182196087827,998.0818],[6.9079695972712329,59.176153875775327,954.9675],[6.8940535816462329,59.179205633587827,1029.1724],[6.8814803394587329,59.170416571087827,965.2191],[6.8647567066462329,59.161017157025327,1080.3571],[6.8447371753962329,59.151617742962827,973.3226]],
[[6.9614363941462329,59.184393621869077,898.6482],[6.9614363941462329,59.184393621869077,898.6482],[6.9508162769587329,59.187750555462827,883.0],[6.9616805347712329,59.192938543744077,891.7915],[6.9724227222712329,59.189581610150327,883.0],[6.9614363941462329,59.184393621869077,898.6482]]]}
,"properties": {"name": "Svartevatnet","lge_id": "no","pfafstette": 793.0,"lke_type": "B","altitude": 1227,"objectid": 51224,"scalerank": 12,"featurecla": "Lake","note": null,"funkyname": 0,"min_zoom": 7.0,"min_label": 8.0,"area_km2": 24.05751,"hist_schema_id": "Elevation0-9000","hist_area_km2": {"875": 12.60086,"900": 2.313,"925": 2.62808,"950": 1.72678,"975": 1.53113,"1000": 1.67216,"1025": 0.84698,"1050": 0.49954,"1075": 0.21725,"1100": 0.02174}}}