{"type":"Feature","properties":{"id":86160.0,"name":"Ossjen","lge_id":"no","pfafstette":6417.0,"lke_type":"B","altitude":0,"objectid":45905,"scalerank":11,"featurecla":"Lake","note":null,"funkyname":0,"min_zoom":6.7,"min_label":7.7},
"geometry":{"type": "Polygon","coordinates": [[[11.855845573833733,61.212286688275327,436.0],[11.855845573833733,61.212286688275327,436.0],[11.868662956646233,61.194708563275327,436.0],[11.896250847271233,61.174017645306577,436.0],[11.935801628521233,61.151861883587827,436.0],[11.963145378521233,61.129950262494077,436.0],[11.979869011333733,61.117193914837827,436.0],[11.983164909771233,61.127508856244077,466.5387],[11.934580925396233,61.166998602337827,478.1455],[11.889292839458733,61.199225164837827,474.1126],[11.885996941021233,61.219305731244077,436.0],[11.867930534771233,61.246954657025327,460.1729],[11.846690300396233,61.264593817181577,470.184],[11.828257683208733,61.278570867962827,474.2929],[11.806895378521233,61.295904852337827,462.1924],[11.794444206646233,61.308050848431577,459.6808],[11.774180534771233,61.309271551556577,439.2471],[11.756114128521233,61.304693914837827,459.3554],[11.755625847271233,61.292608953900327,436.0],[11.762217644146233,61.279486395306577,436.0],[11.784190300396233,61.271857000775327,436.0],[11.826426628521233,61.245123602337827,436.0],[11.855845573833733,61.212286688275327,436.0]]]}}