{"type": "Feature","id": 95789.0,"bbox": [8.0180770191462329,59.387457586712827,8.4760848316462329,59.454596258587827],"geometry": {"type": "Polygon","coordinates": [[[8.4680281910212329,59.387457586712827,214.6682],[8.4680281910212329,59.387457586712827,214.6682],[8.4760848316462329,59.387457586712827,308.7794],[8.4616805347712329,59.392889715619077,209.0558],[8.4475203785212329,59.398993231244077,261.7072],[8.4033309253962329,59.402960516400327,536.8761],[8.3569442066462329,59.404181219525327,653.6853],[8.3225203785212329,59.410834051556577,841.5397],[8.2854110035212329,59.415106512494077,698.8026],[8.2365828785212329,59.423956610150327,743.0304],[8.1851912769587329,59.431830145306577,320.16],[8.1337996753962329,59.437018133587827,644.6894],[8.0811873707087329,59.448858953900327,802.2053],[8.0432235035212329,59.454596258587827,701.7327],[8.0180770191462329,59.449713446087827,330.9122],[8.0289412769587329,59.443976141400327,79.6433],[8.0578719410212329,59.444891668744077,82.2202],[8.0824080738337329,59.442755438275327,503.1091],[8.1021834644587329,59.437567449994077,459.3864],[8.1191512378962329,59.431769110150327,209.653],[8.1477156910212329,59.424811102337827,72.0],[8.1921492847712329,59.415411688275327,72.0],[8.2417098316462329,59.407477117962827,72.0],[8.3078719410212329,59.400152899212827,72.0],[8.3881942066462329,59.394415594525327,129.4985],[8.4426375660212329,59.393500067181577,78.4523],[8.4680281910212329,59.387457586712827,214.6682]]]}
,"properties": {"name": "Bandak","lge_id": "no","pfafstette": 2333.0,"lke_type": "B","altitude": 74,"objectid": 50850,"scalerank": 12,"featurecla": "Lake","note": null,"funkyname": 0,"min_zoom": 7.0,"min_label": 8.0,"area_km2": 28.6074,"hist_schema_id": "Elevation0-9000","hist_area_km2": {"75": 5.69653,"100": 0.7336,"125": 0.81985,"150": 0.92787,"175": 0.94937,"200": 0.84136,"225": 0.97098,"250": 0.71201,"275": 0.8199,"300": 0.74434,"325": 0.6688,"350": 0.80904,"375": 0.79831,"400": 0.66883,"425": 0.73357,"450": 0.61481,"475": 0.72266,"500": 0.76585,"525": 0.87372,"550": 0.76586,"575": 0.91698,"600": 1.04633,"625": 1.17585,"650": 0.85209,"675": 0.7117,"700": 0.65781,"725": 0.75489,"750": 0.87332,"775": 0.593,"800": 0.25879,"825": 0.11862,"850": 0.01079}}}