{"type": "Feature","id": 100335.0,"bbox": [6.6672469410212329,58.446417547650327,6.7141219410212329,58.670416571087827],"geometry": {"type": "Polygon","coordinates": [[[6.6672469410212329,58.447638250775327,49.0],[6.6672469410212329,58.447638250775327,49.0],[6.6775008472712329,58.446417547650327,67.8864],[6.6851912769587329,58.468268133587827,102.7271],[6.6860457691462329,58.495062567181577,63.9116],[6.6909285816462329,58.515997625775327,49.0],[6.7037459644587329,58.535773016400327,49.0],[6.7131453785212329,58.574103094525327,68.2844],[6.7133895191462329,58.610541082806577,218.0277],[6.7141219410212329,58.647589422650327,108.5534],[6.7082625660212329,58.670416571087827,94.6157],[6.6988631519587329,58.662848211712827,91.4639],[6.6994735035212329,58.628180242962827,73.8733],[6.6980086597712329,58.596319891400327,154.4808],[6.6965438160212329,58.575018621869077,78.8725],[6.6937361988337329,58.549200750775327,159.4607],[6.6900740894587329,58.534308172650327,49.0],[6.6843367847712329,58.522101141400327,240.2596],[6.6778670582087329,58.500189520306577,49.0],[6.6702986988337329,58.472540594525327,104.0668],[6.6672469410212329,58.447638250775327,49.0]]]}
,"properties": {"name": "Sirdalsvatnet","lge_id": "no","pfafstette": 313.0,"lke_type": "B","altitude": 392,"objectid": 54185,"scalerank": 12,"featurecla": "Lake","note": null,"funkyname": 0,"min_zoom": 7.0,"min_label": 8.0,"area_km2": 18.85524,"hist_schema_id": "Elevation0-9000","hist_area_km2": {"50": 16.06634,"75": 0.79682,"100": 0.5312,"125": 0.40945,"150": 0.26556,"175": 0.27661,"200": 0.23235,"225": 0.17723,"250": 0.05535,"275": 0.01108,"300": 0.03325}}}