{"type": "Feature","id": 93151.0,"bbox": [7.4611922535212329,59.827276922650327,7.6088973316462329,59.922980047650327],"geometry": {"type": "Polygon","coordinates": [[[7.5708113941462329,59.827276922650327,970.0],[7.5708113941462329,59.827276922650327,970.0],[7.5783797535212329,59.835150457806577,970.0],[7.5881453785212329,59.835699774212827,970.0],[7.5998641285212329,59.836310125775327,970.0],[7.6088973316462329,59.846686102337827,970.0],[7.5969344410212329,59.860052801556577,1067.0886],[7.5778914722712329,59.874945379681577,1011.0226],[7.5669051441462329,59.880133367962827,1021.4651],[7.5575057300837329,59.877691961712827,1012.1869],[7.5352889332087329,59.874945379681577,1162.145],[7.5018416675837329,59.879828192181577,1117.0846],[7.4897567066462329,59.890509344525327,997.3054],[7.4826766285212329,59.898932196087827,1074.848],[7.4709578785212329,59.911749578900327,1041.5515],[7.4611922535212329,59.922980047650327,1117.2678],[7.4614363941462329,59.908697821087827,970.0],[7.4718123707087329,59.891363836712827,970.0],[7.4721785816462329,59.884649969525327,970.0],[7.4714461597712329,59.870367742962827,970.8053],[7.5009871753962329,59.858282782025327,970.0],[7.5444442066462329,59.848517157025327,970.0],[7.5642195972712329,59.833929754681577,970.0],[7.5708113941462329,59.827276922650327,970.0]]]}
,"properties": {"name": "Songevatnet","lge_id": "no","pfafstette": 2919.0,"lke_type": "B","altitude": 965,"objectid": 50335,"scalerank": 12,"featurecla": "Lake","note": null,"funkyname": 0,"min_zoom": 7.0,"min_label": 8.0,"area_km2": 26.12122,"hist_schema_id": "Elevation0-9000","hist_area_km2": {"975": 19.65191,"1000": 2.2559,"1025": 1.04277,"1050": 0.78732,"1075": 0.52135,"1100": 0.56392,"1125": 0.2766,"1150": 0.28727,"1175": 0.18089,"1200": 0.1596,"1225": 0.14896,"1250": 0.11704,"1275": 0.12769}}}