{"type": "Feature","id": 81344.0,"bbox": [6.1225692066462329,61.911688543744077,6.5109969410212329,61.985235907025327],"geometry": {"type": "Polygon","coordinates": [[[6.2335311207087329,61.911688543744077,52.5],[6.2335311207087329,61.911688543744077,52.5],[6.2821151050837329,61.919928289837827,52.5],[6.3675643238337329,61.936896063275327,52.5],[6.4295760425837329,61.948736883587827,52.5],[6.4532576832087329,61.948492742962827,52.5],[6.4746199878962329,61.947272039837827,136.5129],[6.4660750660212329,61.954230047650327,200.6971],[6.4566756519587329,61.962164617962827,52.5],[6.4687606128962329,61.965460516400327,52.5],[6.4940291675837329,61.969122625775327,52.5],[6.5109969410212329,61.977057196087827,91.1736],[6.4983016285212329,61.980353094525327,169.1308],[6.4646102222712329,61.984625555462827,639.1212],[6.4426375660212329,61.985235907025327,153.7837],[6.4189559253962329,61.978277899212827,766.4481],[6.3879500660212329,61.972784735150327,367.5801],[6.3691512378962329,61.962408758587827,529.0734],[6.3293563160212329,61.953314520306577,547.9891],[6.2797957691462329,61.946905828900327,559.8745],[6.2517195972712329,61.936285711712827,181.6904],[6.2290145191462329,61.927496649212827,234.2251],[6.2031356128962329,61.927801824994077,283.7388],[6.1733504566462329,61.929632879681577,620.9217],[6.1396590503962329,61.925055242962827,689.4535],[6.1225692066462329,61.918097235150327,80.9045],[6.1506453785212329,61.914740301556577,52.5],[6.1788436207087329,61.914740301556577,52.5],[6.1912947925837329,61.915899969525327,52.5],[6.2086287769587329,61.914435125775327,52.5],[6.2335311207087329,61.911688543744077,52.5]]]}
,"properties": {"name": "Hornindalsvatnet","lge_id": "no","pfafstette": 153.0,"lke_type": "B","altitude": 0,"objectid": 41820,"scalerank": 11,"featurecla": "Lake","note": null,"funkyname": 0,"min_zoom": 6.7,"min_label": 7.7,"area_km2": 48.40141,"hist_schema_id": "Elevation0-9000","hist_area_km2": {"50": 28.00227,"75": 1.34619,"100": 1.15672,"125": 1.19658,"150": 1.18657,"175": 1.40619,"200": 1.19662,"225": 1.04701,"250": 0.91746,"275": 1.00716,"300": 0.78776,"325": 0.80763,"350": 0.6481,"375": 0.61811,"400": 0.48856,"425": 0.66798,"450": 0.59813,"475": 0.66792,"500": 0.52833,"525": 0.51843,"550": 0.56811,"575": 0.49829,"600": 0.45843,"625": 0.44848,"650": 0.4485,"675": 0.31889,"700": 0.28903,"725": 0.20921,"750": 0.12954,"775": 0.10964,"800": 0.04984,"825": 0.06976,"850": 0.00996}}}