{"type":"Feature","properties":{"id":83861.0,"name":"Breimsvatnet","lge_id":"no","pfafstette":171.0,"lke_type":"B","altitude":0,"objectid":44405,"scalerank":12,"featurecla":"Lake","note":null,"funkyname":0,"min_zoom":7.0,"min_label":8.0},
"geometry":{"type": "Polygon","coordinates": [[[6.2906600269587329,61.759100653119077,595.2292],[6.2906600269587329,61.759100653119077,595.2292],[6.2878524097712329,61.758185125775327,539.3264],[6.3108016285212329,61.756354071087827,172.0188],[6.3510848316462329,61.742071844525327,59.0],[6.3800154957087329,61.722052313275327,59.0],[6.3784285816462329,61.710211492962827,295.0788],[6.3745223316462329,61.694708563275327,59.0],[6.3867293628962329,61.677984930462827,59.0],[6.4077254566462329,61.666388250775327,59.0],[6.4238387378962329,61.657904364056577,59.0],[6.4340926441462329,61.641485907025327,59.0],[6.4438582691462329,61.630255438275327,59.0],[6.4475203785212329,61.641485907025327,59.0],[6.4369002613337329,61.661261297650327,490.9836],[6.4165145191462329,61.673956610150327,253.5387],[6.4043074878962329,61.689459539837827,101.1358],[6.4061385425837329,61.706183172650327,59.0],[6.4065047535212329,61.729010321087827,59.0],[6.3940535816462329,61.747565008587827,235.6542],[6.3772078785212329,61.753058172650327,263.0867],[6.3413192066462329,61.760321356244077,337.3998],[6.3064070972712329,61.760321356244077,401.383],[6.2906600269587329,61.759100653119077,595.2292]]]}}