{"type": "Feature","bbox": [7.9298,58.246,8.4521,58.6364],"geometry": {"type": "MultiPolygon","coordinates": [[[[7.9352,58.5581,455.2462],[7.9383,58.5493,440.6561],[7.9298,58.5485,493.5529],[7.9421,58.5132,422.5335],[7.9591,58.5148,473.4691],[7.9606,58.5104,434.9723],[7.986,58.5128,450.6661],[7.9891,58.504,443.6265],[7.9976,58.5048,384.0268],[8.0007,58.496,461.9126],[8.0091,58.4968,442.2979],[8.0107,58.4924,412.969],[8.0191,58.4932,350.0565],[8.0222,58.4844,382.1856],[8.0306,58.4852,334.8423],[8.0322,58.4808,360.7964],[8.0491,58.4824,244.5774],[8.0506,58.478,254.201],[8.0591,58.4788,361.8465],[8.0606,58.4743,285.8467],[8.0691,58.4752,259.125],[8.0706,58.4707,277.292],[8.0791,58.4715,336.5488],[8.0806,58.4671,366.1516],[8.0721,58.4663,319.982],[8.0752,58.4575,286.5307],[8.0667,58.4567,209.7706],[8.0682,58.4523,212.6383],[8.0598,58.4515,220.9242],[8.0613,58.4471,291.7598],[8.0782,58.4487,229.0198],[8.0797,58.4443,236.8429],[8.0967,58.4459,239.3638],[8.0982,58.4414,203.4139],[8.1066,58.4422,204.189],[8.1082,58.4378,191.3832],[8.0997,58.437,201.4767],[8.1043,58.4238,202.4418],[8.0958,58.423,211.9484],[8.1004,58.4097,223.6341],[8.0919,58.4089,207.4628],[8.0949,58.4001,194.0808],[8.0865,58.3993,204.5673],[8.0956,58.3728,221.936],[8.0787,58.3712,199.0014],[8.0802,58.3668,218.8631],[8.0634,58.3652,188.8777],[8.0649,58.3608,220.0108],[8.048,58.3592,201.7604],[8.0495,58.3548,187.4605],[8.0411,58.354,217.8372],[8.0441,58.3451,149.9217],[8.0526,58.346,198.0777],[8.0556,58.3371,173.004],[8.064,58.3379,256.9814],[8.0686,58.3247,233.8216],[8.0602,58.3239,204.4248],[8.0647,58.3106,202.9065],[8.0563,58.3098,258.2809],[8.0593,58.301,290.5062],[8.0509,58.3002,297.2515],[8.0524,58.2958,302.467],[8.044,58.295,288.1815],[8.0485,58.2817,216.6742],[8.0654,58.2834,201.3397],[8.0669,58.2789,146.7881],[8.0837,58.2805,193.9368],[8.0852,58.2761,175.0883],[8.1021,58.2777,231.8999],[8.1036,58.2733,161.4706],[8.112,58.2741,153.3278],[8.1105,58.2785,214.5892],[8.1273,58.2801,204.9261],[8.1258,58.2845,210.0314],[8.1511,58.2869,82.4732],[8.1526,58.2825,104.1173],[8.1694,58.2841,53.2821],[8.1709,58.2797,24.2024],[8.1793,58.2805,33.0439],[8.1808,58.2761,86.5322],[8.1724,58.2753,19.0899],[8.1739,58.2709,17.879],[8.1655,58.2701,26.6041],[8.167,58.2657,22.533],[8.1586,58.2649,51.6044],[8.1616,58.256,19.8637],[8.1784,58.2576,73.4133],[8.1799,58.2532,102.4017],[8.1883,58.254,99.6266],[8.1898,58.2496,143.6353],[8.1982,58.2504,106.5058],[8.1997,58.246,124.2147],[8.2081,58.2468,127.631],[8.2067,58.2512,129.1985],[8.2151,58.252,113.9724],[8.2121,58.2608,143.0703],[8.2205,58.2616,162.3743],[8.222,58.2572,154.052],[8.2304,58.258,127.5062],[8.2319,58.2536,130.3047],[8.2403,58.2544,149.991],[8.2388,58.2588,145.709],[8.2472,58.2596,148.8799],[8.2457,58.264,163.1138],[8.2542,58.2648,148.6674],[8.2512,58.2736,181.9678],[8.2596,58.2744,131.9944],[8.2581,58.2788,86.9021],[8.2665,58.2796,142.3357],[8.265,58.284,148.8325],[8.2735,58.2848,94.466],[8.272,58.2892,120.1178],[8.2804,58.29,130.0903],[8.2789,58.2944,145.817],[8.2873,58.2952,93.1367],[8.2859,58.2996,82.122],[8.3027,58.3012,124.8576],[8.3012,58.3056,146.4698],[8.3096,58.3064,152.2628],[8.3082,58.3108,106.5264],[8.2997,58.31,97.0627],[8.2982,58.3145,113.2401],[8.2898,58.3137,132.993],[8.2883,58.3181,102.5979],[8.2799,58.3173,135.9372],[8.2769,58.3261,131.3018],[8.2854,58.3269,120.924],[8.2839,58.3313,168.4906],[8.3176,58.3345,164.5966],[8.3191,58.3301,146.6318],[8.336,58.3316,153.0995],[8.3374,58.3272,183.3233],[8.3712,58.3304,130.3911],[8.3697,58.3348,124.1412],[8.3613,58.334,171.7636],[8.3583,58.3428,247.2012],[8.3499,58.342,245.0958],[8.3469,58.3509,202.3896],[8.3385,58.3501,241.6194],[8.3325,58.3678,227.3882],[8.3241,58.367,216.0419],[8.3196,58.3802,223.652],[8.3281,58.381,224.1379],[8.3236,58.3943,250.5958],[8.3152,58.3935,239.3089],[8.3122,58.4023,259.8114],[8.3206,58.4031,275.9192],[8.3191,58.4075,311.7347],[8.3276,58.4083,322.0092],[8.3261,58.4127,337.8921],[8.3346,58.4135,286.3072],[8.3331,58.4179,250.3259],[8.3415,58.4187,276.1501],[8.3386,58.4275,273.1873],[8.347,58.4283,263.2382],[8.3455,58.4327,256.0973],[8.354,58.4335,225.3978],[8.3525,58.438,219.4765],[8.3694,58.4395,245.8487],[8.3679,58.4439,235.1793],[8.3764,58.4447,286.4158],[8.3749,58.4491,303.366],[8.3834,58.4499,289.6774],[8.3819,58.4543,291.412],[8.3904,58.4551,298.7092],[8.3889,58.4595,308.005],[8.4058,58.4611,257.7825],[8.4029,58.4699,324.268],[8.4113,58.4707,350.3878],[8.4098,58.4751,353.6865],[8.4183,58.4759,306.357],[8.4168,58.4803,280.9412],[8.4084,58.4795,300.6666],[8.4069,58.484,273.8876],[8.3984,58.4832,299.4901],[8.3895,58.5097,293.6168],[8.398,58.5105,295.9362],[8.395,58.5193,296.0624],[8.4035,58.5201,296.3895],[8.3961,58.5422,236.8285],[8.4045,58.543,214.8588],[8.4031,58.5474,221.8422],[8.4115,58.5482,277.5277],[8.4101,58.5526,245.2343],[8.4186,58.5534,285.8019],[8.4171,58.5578,236.4122],[8.4256,58.5586,277.7453],[8.4241,58.563,249.367],[8.4411,58.5645,259.1779],[8.4381,58.5734,291.4172],[8.4466,58.5742,282.585],[8.4436,58.583,289.3651],[8.4521,58.5838,284.2633],[8.4506,58.5882,245.7999],[8.4421,58.5874,258.0056],[8.4407,58.5918,248.455],[8.4322,58.591,267.3053],[8.4307,58.5955,312.5813],[8.3967,58.5923,149.6286],[8.3952,58.5968,202.9804],[8.3612,58.5936,295.5721],[8.3687,58.5715,200.1719],[8.3602,58.5708,218.2537],[8.3631,58.5619,109.5597],[8.3547,58.5611,119.9431],[8.3561,58.5567,144.4183],[8.3222,58.5536,205.609],[8.3207,58.558,300.7817],[8.2952,58.5556,214.4448],[8.2967,58.5512,186.5254],[8.2713,58.5488,218.0468],[8.2728,58.5444,145.0],[8.2643,58.5436,166.1425],[8.2673,58.5348,147.9574],[8.2588,58.534,162.9078],[8.2573,58.5384,166.1131],[8.2488,58.5376,217.4829],[8.2458,58.5465,153.6781],[8.2373,58.5457,264.7681],[8.2313,58.5633,203.9682],[8.2228,58.5626,153.7663],[8.2107,58.5979,182.7336],[8.2022,58.5971,162.3439],[8.1992,58.6059,174.0627],[8.1907,58.6051,159.0],[8.1816,58.6316,159.5],[8.1561,58.6292,355.47],[8.1576,58.6248,376.2551],[8.1321,58.6224,433.8342],[8.1306,58.6268,430.0442],[8.1136,58.6252,413.7163],[8.112,58.6296,413.4731],[8.078,58.6264,488.4755],[8.0765,58.6308,496.4099],[8.0595,58.6292,520.899],[8.058,58.6336,519.4711],[8.041,58.632,608.3129],[8.0394,58.6364,538.9463],[8.0224,58.6348,537.7994],[8.0255,58.626,555.6831],[8.017,58.6252,549.8163],[8.0185,58.6208,546.7083],[8.01,58.62,502.6005],[8.0116,58.6156,515.2955],[8.0031,58.6148,505.1455],[8.0046,58.6104,555.1112],[7.9961,58.6095,586.0763],[7.9977,58.6051,569.0162],[7.9892,58.6043,561.074],[7.9907,58.5999,542.1618],[7.9822,58.5991,510.4148],[7.9853,58.5903,536.2762],[7.9768,58.5895,483.5861],[7.9861,58.563,393.4314],[7.9352,58.5581,455.2462]]]]}
,"properties": {"GID_2": "NOR.3.3_1","GID_0": "NOR","country": "Norway","GID_1": "NOR.3_1","province": "Aust-Agder","NL_NAME_1": "NA","county": "Birkenes","VARNAME_2": "NA","NL_NAME_2": "NA","TYPE_2": "Kommuner","ENGTYPE_2": "Municipality","CC_2": "NA","HASC_2": "NO.AA.BI","name": "Birkenes.county","area_km2": 680.6095,"hist_schema_id": "Elevation0-9000","hist_area_km2": {"25": 6.3708,"50": 9.1502,"75": 17.3431,"100": 16.2013,"125": 20.0931,"150": 27.8842,"175": 37.8733,"200": 64.1156,"225": 80.9254,"250": 75.1931,"275": 69.2977,"300": 54.6794,"325": 49.6919,"350": 36.0972,"375": 27.9943,"400": 20.5064,"425": 19.475,"450": 13.2682,"475": 10.4908,"500": 10.8501,"525": 6.9253,"550": 3.622,"575": 1.6892,"600": 0.6513,"625": 0.1656,"650": 0.0552}}}