{"type": "Feature","bbox": [8.2318,63.1563,8.8848,63.4233],"geometry": {"type": "MultiPolygon","coordinates": [[[[8.2318,63.2432,0.0],[8.2318,63.2401,19.2585],[8.2333,63.2396,35.1285],[8.2411,63.2401,0.0],[8.2354,63.2438,0.0],[8.2318,63.2432,0.0]]],
[[[8.2333,63.2542,0.0],[8.2375,63.2521,0.0],[8.2417,63.2521,0.0],[8.2495,63.2557,0.0],[8.2318,63.2557,0.0],[8.2333,63.2542,0.0]]],
[[[8.2625,63.275,0.0],[8.2609,63.2734,0.0],[8.2641,63.2734,0.0],[8.2641,63.2745,2.3667],[8.2625,63.275,0.0]]],
[[[8.3313,63.2771,0.0],[8.3297,63.2755,3.7263],[8.3349,63.2755,0.0],[8.3349,63.2766,0.0],[8.3313,63.2771,0.0]]],
[[[8.3375,63.175,0.0],[8.3376,63.1727,0.0],[8.3411,63.1703,0.0],[8.3401,63.1672,0.0],[8.3484,63.163,0.0],[8.3583,63.1604,0.0],[8.4104,63.1604,0.0],[8.4146,63.1583,0.0],[8.4229,63.1583,0.0],[8.4307,63.1609,0.0],[8.4333,63.1646,18.2081],[8.4479,63.1646,0.0],[8.4604,63.1583,0.0],[8.4646,63.1583,0.0],[8.4688,63.1604,21.6056],[8.4714,63.1568,0.0],[8.4771,63.1563,0.0],[8.4813,63.1583,11.5576],[8.4979,63.1583,0.0],[8.5021,63.1625,26.345],[8.5063,63.1604,0.0],[8.5208,63.1667,0.0],[8.5313,63.1667,0.0],[8.5417,63.1708,33.1894],[8.5521,63.1708,0.0],[8.5604,63.175,0.0],[8.5667,63.175,0.0],[8.5745,63.1776,0.0],[8.5792,63.1813,15.9834],[8.5755,63.1839,61.9747],[8.5766,63.187,0.0],[8.5693,63.1922,16.8218],[8.5672,63.1964,0.0],[8.5688,63.1979,0.0],[8.5745,63.1984,47.9277],[8.5714,63.2005,38.8991],[8.5724,63.2036,0.0],[8.5604,63.2021,0.0],[8.5547,63.2047,0.0],[8.5536,63.2078,0.0],[8.5505,63.2089,40.2942],[8.5516,63.2141,0.0],[8.5484,63.2151,0.0],[8.5536,63.2182,0.0],[8.5411,63.2245,0.0],[8.5354,63.225,47.1336],[8.5297,63.2276,11.518],[8.5286,63.2328,6.371],[8.5193,63.238,18.5956],[8.5182,63.2411,0.0],[8.5151,63.2422,0.0],[8.5172,63.2516,50.1106],[8.5224,63.2536,0.0],[8.5151,63.2568,14.659],[8.5140999999999991,63.2599,0.0],[8.5068,63.263,0.0],[8.5078,63.2661,0.0],[8.5047,63.2672,0.0],[8.5036,63.2724,0.0],[8.5021,63.2729,0.0],[8.4979,63.2708,45.1398],[8.4901,63.2703,0.0],[8.4901,63.2672,0.0],[8.4932,63.2661,0.0],[8.4932,63.263,47.9885],[8.4839,63.262,0.0],[8.4953,63.2578,12.4588],[8.4953,63.2547,12.6165],[8.4875,63.2521,0.0],[8.4818,63.2526,0.0],[8.4807,63.2578,0.0],[8.4776,63.2589,0.0],[8.4786,63.262,0.0],[8.4755,63.263,0.0],[8.4745,63.2661,0.0],[8.4672,63.2693,0.0],[8.4724,63.2714,0.0],[8.4693,63.2734,0.0],[8.4682,63.2766,0.0],[8.4625,63.2792,0.0],[8.4568,63.2776,12.4025],[8.4557,63.2807,0.0],[8.45,63.2833,30.5579],[8.4354,63.2833,0.0],[8.425,63.2771,5.6235],[8.4167,63.2771,30.2451],[8.4104,63.2792,0.0],[8.3958,63.2729,21.3812],[8.3901,63.2724,0.0],[8.3833,63.2667,0.0],[8.3854,63.2646,0.0],[8.3911,63.2641,0.0],[8.3896,63.2625,31.1568],[8.3818,63.263,0.0],[8.3776,63.2651,22.9335],[8.3786,63.2682,0.0],[8.3771,63.2687,0.0],[8.3625,63.2687,22.8845],[8.3547,63.2661,0.0],[8.3521,63.2625,0.0],[8.3401,63.2641,0.0],[8.3391,63.2589,0.0],[8.3313,63.2562,0.0],[8.3255,63.2568,0.0],[8.3229,63.2604,28.8866],[8.3187,63.2583,25.9556],[8.3109,63.2589,0.0],[8.2854,63.2729,0.0],[8.2708,63.2687,36.3445],[8.25,63.2687,4.744],[8.2443,63.2661,0.0],[8.2609,63.2568,0.0],[8.2724,63.2557,0.0],[8.2724,63.2526,14.4845],[8.2672,63.2516,0.0],[8.2672,63.2484,0.0],[8.2828,63.2432,0.0],[8.2708,63.2375,34.676],[8.2589,63.237,0.0],[8.2557,63.2297,0.0],[8.2482,63.2292,0.0],[8.2505,63.226,16.9394],[8.2566,63.2229,0.0],[8.262,63.2224,0.0],[8.263,63.2172,58.4737],[8.2755,63.2109,3.4935],[8.2813,63.2104,0.0],[8.287,63.2078,0.0],[8.2859,63.2047,0.0],[8.2901,63.2026,0.0],[8.2974,63.2016,17.0105],[8.298,63.1999,0.0],[8.3062,63.1958,0.0],[8.3182,63.1932,0.0],[8.3193,63.1901,0.0],[8.3224,63.1891,12.628],[8.3237,63.1847,0.0],[8.3307,63.1828,16.0118],[8.3314,63.1791,0.0],[8.337,63.1766,28.4611],[8.3375,63.175,0.0]]],
[[[8.3443,63.2766,0.0],[8.3443,63.2734,0.0],[8.3458,63.2729,0.0],[8.3604,63.2729,0.0],[8.3625,63.275,0.0],[8.362,63.2786,0.0],[8.3604,63.2792,16.2723],[8.3443,63.2766,0.0]]],
[[[8.8333,63.2021,91.6396],[8.8398,63.2021,106.1857],[8.8437,63.2077,397.7608],[8.8359,63.2071,345.7732],[8.8344,63.2111,402.4103],[8.8442,63.2119,467.2725],[8.8408,63.2207,566.1212],[8.8506,63.2215,607.5958],[8.8455,63.2347,444.8105],[8.8356,63.234,407.1753],[8.8339,63.2384,683.4254],[8.8241,63.2376,697.4312],[8.8189,63.2509,686.3315],[8.8288,63.2517,727.188],[8.8253,63.2605,526.8913],[8.8352,63.2613,475.3774],[8.8317,63.2701,488.7749],[8.8416,63.2709,498.9467],[8.8382,63.2797,435.8932],[8.848,63.2805,382.6831],[8.8446,63.2893,477.526],[8.8544,63.2901,422.5677],[8.8475,63.3078,208.6056],[8.8574,63.3085,455.6073],[8.8522,63.3218,510.3142],[8.8621,63.3226,460.7206],[8.857,63.3358,275.0153],[8.8668,63.3366,243.1937],[8.8651,63.341,251.0307],[8.8848,63.3425,232.1937],[8.878,63.3602,392.0587],[8.8681,63.3595,354.7867],[8.8629,63.3727,382.7755],[8.8234,63.3697,296.5636],[8.8217,63.3741,198.7657],[8.8118,63.3733,347.637],[8.8101,63.3778,383.4612],[8.8002,63.377,491.0961],[8.7967,63.3858,323.4594],[8.7868,63.3851,398.7165],[8.7851,63.3895,139.2344],[8.795,63.3903,91.2736],[8.7881,63.408,149.6266],[8.7782,63.4072,83.4571],[8.7764,63.4116,83.0171],[8.7665,63.4108,73.7107],[8.7631,63.4197,45.2796],[8.7532,63.4189,60.8456],[8.7514,63.4233,18.475],[8.7401,63.4224,0.0],[8.7391,63.4172,16.7654],[8.7354,63.4125,9.0565],[8.725,63.4125,0.0],[8.7167,63.4167,0.0],[8.7083,63.4167,0.0],[8.7042,63.4146,32.1174],[8.6938,63.4146,0.0],[8.6896,63.4125,7.7835],[8.6688,63.4125,0.0],[8.6646,63.4104,11.9144],[8.6568,63.4099,0.0],[8.6557,63.4068,4.8638],[8.6526,63.4057,0.0],[8.65,63.4021,3.2528],[8.6542,63.3979,27.9397],[8.6521,63.3937,0.0],[8.6526,63.3901,4.1028],[8.6583,63.3875,0.0],[8.6641,63.387,0.0],[8.663,63.3839,0.0],[8.6661,63.3828,0.0],[8.6714,63.3755,10.2618],[8.6771,63.3729,0.0],[8.6828,63.3724,12.3091],[8.6818,63.3693,0.0],[8.6911,63.3682,8.9637],[8.7057,63.3599,32.4409],[8.7068,63.3547,0.0],[8.7099,63.3536,16.6218],[8.7083,63.35,0.0],[8.7089,63.3464,0.0],[8.7146,63.3479,0.0],[8.7292,63.3479,0.0],[8.7333,63.3458,0.0],[8.7417,63.3458,0.0],[8.7458,63.3438,0.0],[8.7563,63.3438,0.0],[8.7604,63.3458,9.4585],[8.7766,63.3453,0.0],[8.775,63.3438,0.0],[8.763,63.3432,0.0],[8.762,63.3401,0.0],[8.7583,63.3375,9.0181],[8.7438,63.3375,0.0],[8.7396,63.3354,17.3387],[8.725,63.3333,0.0],[8.7146,63.3292,41.9639],[8.6896,63.3292,0.0],[8.6854,63.3271,0.0],[8.675,63.3271,0.0],[8.6667,63.3229,2.6664],[8.6589,63.3224,0.0],[8.6578,63.3172,0.0],[8.6563,63.3167,19.1017],[8.65,63.3187,0.0],[8.6417,63.3187,0.0],[8.6375,63.3208,0.0],[8.6229,63.3167,0.0],[8.6125,63.3167,0.0],[8.6109,63.3182,0.0],[8.6214,63.3224,0.0],[8.6333,63.3229,0.0],[8.6438,63.3271,28.916],[8.6479,63.325,0.0],[8.6521,63.325,3.578],[8.6563,63.3271,6.659],[8.6667,63.3271,0.0],[8.6813,63.3312,0.0],[8.6875,63.3312,0.0],[8.6917,63.3333,11.6935],[8.6979,63.3333,0.0],[8.7036,63.3359,0.0],[8.7063,63.3396,8.4538],[8.7042,63.3417,0.0],[8.6922,63.3422,0.0],[8.6932,63.3453,0.0],[8.6901,63.3464,7.1727],[8.6896,63.35,0.0],[8.6901,63.3516,0.0],[8.6953,63.3526,0.0],[8.6917,63.3563,0.0],[8.6932,63.3599,0.0],[8.6672,63.3609,0.0],[8.663,63.363,0.0],[8.662,63.3661,0.0],[8.6505,63.3714,66.3579],[8.6516,63.3766,0.0],[8.6484,63.3776,0.0],[8.6474,63.3807,0.0],[8.6432,63.3828,2.5917],[8.6292,63.3833,0.0],[8.6187,63.3875,0.0],[8.6161,63.3839,0.0],[8.6104,63.3812,0.0],[8.6,63.3812,0.0],[8.5974,63.3849,0.0],[8.5833,63.3917,0.0],[8.5688,63.3917,0.0],[8.5604,63.3875,2.2048],[8.5458,63.3875,0.0],[8.5313,63.3833,40.7558],[8.525,63.3833,11.9113],[8.5208,63.3854,0.0],[8.5078,63.3776,15.8644],[8.5026,63.3766,4.3878],[8.5016,63.3734,6.6882],[8.4984,63.3714,0.0],[8.5078,63.3651,1.9247],[8.5047,63.3641,0.0],[8.5036,63.3609,1.5736],[8.4922,63.3578,0.0],[8.4922,63.3547,0.0],[8.5140999999999991,63.3536,0.0],[8.5188,63.35,0.0],[8.5161,63.3464,0.0],[8.5063,63.3458,13.2077],[8.5021,63.35,0.0],[8.4917,63.35,0.0],[8.4875,63.3479,16.6635],[8.4833,63.35,0.0],[8.4646,63.3438,0.0],[8.4464,63.3411,0.0],[8.4464,63.338,6.62],[8.4536,63.3339,0.0],[8.4458,63.3312,16.3903],[8.4354,63.3312,0.0],[8.4271,63.3354,0.0],[8.4188,63.3312,32.8887],[8.4109,63.3307,0.0],[8.4146,63.3271,0.0],[8.4125,63.325,0.0],[8.4021,63.3292,0.0],[8.3979,63.325,0.0],[8.3833,63.325,0.0],[8.3786,63.3214,16.3951],[8.3714,63.3203,10.316],[8.3682,63.3151,14.1598],[8.3589,63.312,0.0],[8.3583,63.3104,0.0],[8.3589,63.3068,0.0],[8.3771,63.3042,10.0765],[8.3854,63.3,0.0],[8.3958,63.3042,23.7939],[8.4,63.3042,0.0],[8.4042,63.3021,0.0],[8.4188,63.3021,0.0],[8.4229,63.3042,11.2771],[8.4417,63.3042,0.0],[8.4458,63.3021,0.0],[8.4625,63.3083,0.0],[8.4745,63.3109,0.0],[8.4755,63.3161,0.0],[8.4807,63.3172,0.0],[8.4813,63.3187,0.0],[8.4807,63.3203,0.0],[8.4734,63.3234,0.0],[8.4771,63.3271,0.0],[8.4917,63.3271,0.0],[8.4958,63.325,0.0],[8.5083,63.325,28.6722],[8.5125,63.3229,0.0],[8.5188,63.3229,0.0],[8.5229,63.325,31.0681],[8.5313,63.3208,0.0],[8.5474,63.3214,0.0],[8.5474,63.3245,8.3922],[8.5437,63.3271,3.5146],[8.5453,63.3328,0.0],[8.538,63.3339,0.0],[8.5354,63.3375,4.961],[8.5255,63.338,0.0],[8.5208,63.3417,0.0],[8.5229,63.3438,5.8517],[8.5271,63.3417,0.0],[8.5333,63.3438,4.0231],[8.5375,63.3417,0.0],[8.55,63.3417,0.0],[8.5599,63.3391,0.0],[8.5682,63.3349,0.0],[8.5589,63.3297,0.0],[8.5646,63.3292,10.6142],[8.5703,63.3266,0.0],[8.5703,63.3234,1.9661],[8.5568,63.3224,0.0],[8.5604,63.3187,0.0],[8.5589,63.3151,0.0],[8.5854,63.3146,0.0],[8.5896,63.3167,0.0],[8.6042,63.3167,0.0],[8.6057,63.3151,0.0],[8.5875,63.3104,30.44],[8.5646,63.3104,0.0],[8.5604,63.3083,22.3762],[8.55,63.3083,0.0],[8.5458,63.3042,19.8488],[8.5234,63.3036,0.0],[8.5214,63.2984,0.0],[8.5286,63.2953,0.0],[8.5286,63.2901,1.8344],[8.5208,63.2896,0.0],[8.5167,63.2875,12.9779],[8.5042,63.2917,0.0],[8.5005,63.2911,7.6332],[8.4964,63.2891,0.0],[8.4995,63.2859,0.0],[8.4943,63.2849,0.0],[8.4917,63.2771,6.1912],[8.4938,63.275,0.0],[8.5083,63.275,0.0],[8.5125,63.2729,12.8303],[8.5182,63.2745,0.0],[8.5224,63.2724,20.1704],[8.5234,63.2693,28.4806],[8.5266,63.2682,7.5108],[8.5255,63.263,0.0],[8.5328,63.262,9.6651],[8.5313,63.2604,3.61],[8.5255,63.2599,0.0],[8.5234,63.2568,0.0],[8.5333,63.2521,0.0],[8.5375,63.2542,17.8096],[8.5437,63.2542,27.0134],[8.5536,63.2516,18.2358],[8.5547,63.2484,0.0],[8.5578,63.2464,0.0],[8.5526,63.2432,0.0],[8.5505,63.2401,0.0],[8.5583,63.2396,2.7554],[8.5651,63.2359,0.0],[8.5724,63.2349,7.8125],[8.5672,63.2328,0.0],[8.5672,63.2276,0.0],[8.5828,63.2266,41.649],[8.5828,63.2214,0.0],[8.5776,63.2172,0.0],[8.5911,63.2099,0.0],[8.5917,63.2062,0.0],[8.5911,63.2047,0.0],[8.5833,63.2042,0.0],[8.5818,63.2026,0.0],[8.5938,63.2021,0.0],[8.6005,63.2057,20.7863],[8.6036,63.2057,0.0],[8.6078,63.2036,0.0],[8.6083,63.2,0.0],[8.6026,63.1943,0.0],[8.6125,63.1896,0.0],[8.6208,63.1896,0.0],[8.625,63.1875,0.0],[8.6313,63.1875,0.0],[8.6354,63.1896,128.9388],[8.6396,63.1875,0.0],[8.6438,63.1875,0.0],[8.6479,63.1896,84.2498],[8.6583,63.1896,0.0],[8.6729,63.1958,0.0],[8.6792,63.1958,0.0],[8.6875,63.1917,0.0],[8.725,63.1917,0.0],[8.7292,63.1937,72.1476],[8.7333,63.1917,0.0],[8.7375,63.1937,0.0],[8.7521,63.1937,0.0],[8.7563,63.1958,126.2723],[8.7604,63.1937,0.0],[8.7667,63.1937,0.0],[8.7708,63.1958,56.3356],[8.775,63.1937,0.0],[8.7896,63.1979,127.0226],[8.7938,63.1958,0.0],[8.8,63.1958,0.0],[8.8042,63.1979,0.0],[8.8271,63.1979,0.0],[8.8333,63.2021,91.6396]]],
[[[8.4896,63.3083,0.0],[8.488,63.3068,2.7756],[8.4911,63.3068,1.2542],[8.4911,63.3078,2.3527],[8.4896,63.3083,0.0]]],
[[[8.2979,63.2938,13.5278],[8.3,63.2917,0.0],[8.3057,63.2922,7.1011],[8.3,63.2958,0.0],[8.2979,63.2938,13.5278]]],
[[[8.3276,63.3016,0.0],[8.3292,63.3,0.0],[8.3354,63.3,0.0],[8.3411,63.3026,0.0],[8.3432,63.3057,9.139],[8.3271,63.3063,0.0],[8.3255,63.3047,0.0],[8.3286,63.3036,0.0],[8.3276,63.3016,0.0]]],
[[[8.4901,63.3141,0.0],[8.4917,63.3125,5.7345],[8.4974,63.313,34.6747],[8.4958,63.3146,4.9959],[8.4901,63.3141,0.0]]],
[[[8.7151,63.3411,20.4055],[8.7167,63.3396,0.0],[8.7203,63.3401,0.0],[8.7188,63.3417,0.0],[8.7151,63.3411,20.4055]]]]}
,"properties": {"GID_2": "NOR.8.3_1","GID_0": "NOR","country": "Norway","GID_1": "NOR.8_1","province": "MøreogRomsdal","NL_NAME_1": "NA","county": "Aure","VARNAME_2": "NA","NL_NAME_2": "NA","TYPE_2": "Kommuner","ENGTYPE_2": "Municipality","CC_2": "NA","HASC_2": "NO.MR.AR","name": "Aure.county","area_km2": 511.9433,"hist_schema_id": "Elevation0-9000","hist_area_km2": {"0": 38.6062,"25": 43.3154,"50": 41.8101,"75": 41.1113,"100": 27.6774,"125": 18.1405,"150": 18.8233,"175": 16.0846,"200": 16.7203,"225": 18.0631,"250": 16.7007,"275": 16.6334,"300": 16.0328,"325": 16.6911,"350": 18.3995,"375": 17.047,"400": 16.7142,"425": 16.5538,"450": 14.4939,"475": 14.5988,"500": 12.307,"525": 10.6971,"550": 9.9616,"575": 8.6258,"600": 8.1289,"625": 6.7462,"650": 4.3227,"675": 2.9106,"700": 1.8219,"725": 1.0781,"750": 0.7537,"775": 0.3722}}}