{"type":"Feature","properties":{"GID_2":"NOR.19.11_1","GID_0":"NOR","country":"Norway","GID_1":"NOR.19_1","province":"Vestfold","NL_NAME_1":"NA","county":"Stokke","VARNAME_2":"NA","NL_NAME_2":"NA","TYPE_2":"Kommuner","ENGTYPE_2":"Municipality","CC_2":"NA","HASC_2":"NO.VF.ST","name":"Stokke.county"},
"geometry":{"type": "MultiPolygon","coordinates": [[[[10.3414,59.1976,0.0],[10.3364,59.1965,1.9638],[10.3364,59.194,0.0],[10.3386,59.1918,10.6735],[10.3392,59.1879,7.2437],[10.3425,59.1871,6.2102],[10.3447,59.1876,6.2102],[10.3453,59.1907,26.9419],[10.3436,59.1929,19.8733],[10.3442,59.1949,16.8049],[10.3414,59.1976,0.0]]],
[[[10.3503,59.2049,0.0],[10.3453,59.2051,0.0],[10.3442,59.204,0.0],[10.3497,59.1999,0.0],[10.3503,59.2049,0.0]]],
[[[10.1708,59.2053,70.6285],[10.172,59.2009,53.5243],[10.2155,59.2042,86.252],[10.2142,59.2086,71.4892],[10.2316,59.2099,87.9249],[10.2354,59.1966,101.0724],[10.2441,59.1973,86.7534],[10.2479,59.1839,94.5862],[10.2566,59.1846,83.0944],[10.2579,59.1802,77.2419],[10.2666,59.1808,71.7214],[10.2679,59.1764,95.1391],[10.2765,59.177,68.9499],[10.2778,59.1726,64.7443],[10.2865,59.1733,78.3523],[10.2878,59.1688,67.2944],[10.2964,59.1695,51.6906],[10.2977,59.165,57.0793],[10.3064,59.1657,18.3802],[10.3077,59.1613,41.9625],[10.3163,59.1619,43.1248],[10.3186,59.154,0.0],[10.3225,59.1568,6.6395],[10.3214,59.1596,9.824],[10.3231,59.1624,18.594],[10.3264,59.1626,3.6479],[10.3242,59.156,0.0],[10.3292,59.154,1.8156],[10.3319,59.1563,0.0],[10.3325,59.1593,0.0],[10.3275,59.161,13.7964],[10.3347,59.1668,1.7404],[10.3353,59.1693,0.0],[10.3336,59.1704,6.2712],[10.3286,59.1696,3.3387],[10.3297,59.171,0.0],[10.3286,59.1726,24.2901],[10.3336,59.1751,0.0],[10.3331,59.1785,3.5435],[10.3297,59.1815,0.8543],[10.3325,59.1829,0.0],[10.3336,59.1907,5.8919],[10.3319,59.1926,0.9087],[10.3275,59.1924,3.8573],[10.3319,59.1971,0.0],[10.3325,59.1999,0.0],[10.3358,59.2018,0.5754],[10.3347,59.2038,15.8303],[10.3381,59.2032,0.0],[10.3375,59.2046,1.4734],[10.3436,59.2118,0.0],[10.3442,59.2154,7.8213],[10.3392,59.2174,0.0],[10.3392,59.2196,0.0],[10.3447,59.2174,0.0],[10.3514,59.2171,17.78],[10.3592,59.2124,4.7518],[10.3592,59.2151,23.4156],[10.3658,59.2226,0.3192],[10.3664,59.2246,2.3937],[10.3642,59.226,4.5148],[10.3714,59.2246,1.72],[10.3769,59.2282,0.0],[10.3758,59.2301,10.0041],[10.3786,59.2332,2.433],[10.3786,59.2363,1.4757],[10.3769,59.2365,1.4757],[10.3781,59.2412,0.0],[10.3736,59.2432,0.5285],[10.3714,59.2474,6.0656],[10.3753,59.2616,4.1755],[10.3592,59.2604,40.2496],[10.3604,59.2559,42.2098],[10.3169,59.2527,18.5362],[10.3144,59.2615,44.3651],[10.297,59.2602,41.5509],[10.2932,59.2736,71.2753],[10.2845,59.2729,48.3725],[10.2832,59.2773,16.6708],[10.2745,59.2767,39.7678],[10.2693,59.2944,19.7179],[10.278,59.2951,15.3607],[10.2768,59.2995,69.0939],[10.2681,59.2989,36.7167],[10.2655,59.3078,92.6181],[10.2568,59.3071,95.1173],[10.2542,59.316,70.7182],[10.2455,59.3153,103.3097],[10.2468,59.3109,61.3713],[10.2293,59.3096,70.5612],[10.2255,59.3229,127.7884],[10.2168,59.3222,136.347],[10.2155,59.3266,163.5186],[10.2068,59.326,158.5351],[10.2055,59.3304,161.0707],[10.1968,59.3298,140.6986],[10.2006,59.3165,99.0429],[10.1919,59.3158,84.6731],[10.201,59.2847,57.3039],[10.1836,59.2834,87.2787],[10.1887,59.2656,96.778],[10.18,59.265,81.0674],[10.1813,59.2605,79.1532],[10.1726,59.2599,58.5125],[10.1739,59.2554,56.7359],[10.1652,59.2548,40.9843],[10.1639,59.2592,41.3632],[10.1465,59.2579,127.5105],[10.1452,59.2623,98.6971],[10.1365,59.2617,134.2177],[10.1378,59.2572,138.0478],[10.1291,59.2565,144.0325],[10.1317,59.2477,148.3784],[10.1404,59.2483,146.9416],[10.1456,59.2306,47.1737],[10.1543,59.2313,78.3514],[10.1595,59.2135,88.5428],[10.1682,59.2142,105.2344],[10.1708,59.2053,70.6285]]],
[[[10.3781,59.2663,0.0],[10.3753,59.2661,18.8724],[10.3764,59.2624,0.0],[10.3775,59.2635,0.0],[10.3781,59.2663,0.0]]]]}}