{"type": "Feature","bbox": [6.1365,60.8777,7.0182,61.175],"geometry": {"type": "MultiPolygon","coordinates": [[[[6.1992,60.9132,1060.097],[6.2083,60.9141,1076.4556],[6.2102,60.9097,1011.2265],[6.2192,60.9107,970.1047],[6.2212,60.9063,971.6288],[6.2302,60.9072,930.7731],[6.2341,60.8984,831.3675],[6.2431,60.8994,863.313],[6.245,60.895,902.2939],[6.2541,60.8959,984.5046],[6.256,60.8915,1084.9935],[6.265,60.8925,1179.0759],[6.267,60.8881,1106.7694],[6.276,60.889,1098.7794],[6.2779,60.8846,1069.8599],[6.287,60.8856,1059.1156],[6.2889,60.8812,1128.6749],[6.2979,60.8821,1105.3615],[6.2998,60.8777,1089.4486],[6.3089,60.8786,1096.3708],[6.307,60.883,1128.3857],[6.316,60.8839,1100.8241],[6.3141,60.8883,1098.6936],[6.3232,60.8893,1096.1796],[6.3212,60.8936,1171.0315],[6.3303,60.8946,1232.3278],[6.3284,60.899,1221.5559],[6.3465,60.9008,1240.8889],[6.3446,60.9052,1170.8546],[6.3536,60.9061,1280.0977],[6.3517,60.9105,1095.5867],[6.3608,60.9114,1235.7922],[6.3589,60.9158,1100.5148],[6.377,60.9177,1251.6094],[6.3751,60.922,1232.1266],[6.3842,60.923,1258.5487],[6.3822,60.9274,1227.1569],[6.4094,60.9301,1090.79],[6.4113,60.9257,1167.9092],[6.4385,60.9285,970.4996],[6.4404,60.9241,1024.8525],[6.4495,60.925,977.0422],[6.4476,60.9294,1003.1086],[6.4566,60.9303,1035.3568],[6.4548,60.9347,991.4623],[6.4638,60.9356,1058.1558],[6.4619,60.94,1022.4111],[6.471,60.9409,1091.7551],[6.4691,60.9453,1059.187],[6.4963,60.9481,1034.7329],[6.5133,60.9085,1108.0564],[6.5224,60.9095,1033.3301],[6.5261,60.9007,1280.095],[6.5352,60.9016,1262.6848],[6.5389,60.8928,1337.788],[6.5661,60.8955,1249.8213],[6.5642,60.8999,1146.9347],[6.5824,60.9017,1292.0369],[6.5805,60.9061,1213.9037],[6.5895,60.907,1196.5482],[6.5877,60.9114,1103.8519],[6.5967,60.9123,1269.5432],[6.5949,60.9167,1219.8831],[6.6039,60.9176,1328.5182],[6.602,60.922,1103.2903],[6.6655,60.9284,1404.4683],[6.6599,60.9415,1164.8911],[6.669,60.9424,1167.2367],[6.6597,60.9644,1361.1235],[6.6687,60.9653,1422.9945],[6.6706,60.9609,1346.771],[6.6797,60.9618,1230.0601],[6.6815,60.9574,1398.5397],[6.6906,60.9583,1357.2158],[6.6962,60.9451,1011.8257],[6.7053,60.946,1077.9122],[6.7127,60.9285,831.333],[6.749,60.9321,719.6886],[6.7453,60.9408,776.2759],[6.7544,60.9417,851.9545],[6.7507,60.9505,1053.0447],[6.7597,60.9514,1112.9084],[6.7579,60.9558,1240.3528],[6.767,60.9567,1345.9014],[6.7651,60.9611,1446.765],[6.7833,60.9629,1287.01],[6.7814,60.9673,1455.821],[6.7905,60.9682,1460.1516],[6.7831,60.9858,1291.9209],[6.7922,60.9867,1185.5236],[6.7903,60.9911,1440.6145],[6.7994,60.992,1473.5548],[6.7976,60.9963,1444.9677],[6.8339,60.9999,1401.6636],[6.8321,61.0043,1170.3777],[6.8594,61.007,1383.2018],[6.8575,61.0114,1145.6385],[6.9121,61.0167,1321.1381],[6.914,61.0123,1227.3772],[6.9686,61.0176,887.1258],[6.9704,61.0132,965.069],[6.9977,61.0159,939.5422],[6.9959,61.0203,831.5005],[7.0141,61.022,454.1571],[7.0123,61.0264,453.9844],[7.0182,61.0286,0.0],[7.0109,61.0297,504.5282],[7.0167,61.0354,18.9009],[7.0161,61.037,60.7623],[7.0089,61.0401,325.5622],[7.0125,61.0542,0.0],[7.012,61.0578,6.288],[7.0089,61.0589,59.7994],[7.0099,61.0641,0.0],[7.0,61.0687,98.1125],[6.9943,61.0672,257.9814],[6.9943,61.0703,47.3422],[6.9974,61.0714,0.0],[6.9958,61.0729,0.0],[6.9859,61.0714,149.3352],[6.987,61.0766,0.0],[6.9786,61.0807,113.2345],[6.9646,61.0812,537.3625],[6.9604,61.0833,230.0072],[6.9479,61.0833,135.3725],[6.9443,61.0807,39.2543],[6.9432,61.0755,18.4031],[6.9333,61.075,5.1704],[6.9234,61.0776,0.0],[6.9125,61.0833,42.774],[6.9,61.0833,207.7312],[6.8917,61.0875,27.8402],[6.8818,61.088,22.0344],[6.8828,61.0932,0.0],[6.8755,61.0964,78.6043],[6.875,61.1,0.0],[6.8776,61.1036,0.0],[6.8807,61.1047,0.0],[6.8828,61.1141,0.0],[6.8797,61.1151,53.389],[6.8786,61.1203,9.185],[6.8734,61.1234,125.1031],[6.8724,61.1286,76.5967],[6.8693,61.1297,313.3298],[6.8703,61.1328,189.4353],[6.863,61.1339,355.675],[6.862,61.137,183.3075],[6.8578,61.1391,263.1797],[6.8505,61.1401,359.5284],[6.8495,61.1432,150.0222],[6.8432,61.1474,0.0],[6.8313,61.1458,26.1323],[6.8271,61.1479,0.0],[6.813,61.1474,0.0],[6.8089,61.1453,0.0],[6.8104,61.1375,572.1476],[6.8083,61.1354,779.0578],[6.8057,61.1391,401.1665],[6.7917,61.1437,20.3272],[6.7818,61.1411,233.6707],[6.775,61.1375,500.359],[6.7729,61.1396,301.8665],[6.7766,61.1422,58.3645],[6.7766,61.1453,0.0],[6.7708,61.1479,10.7277],[6.7651,61.1484,18.949],[6.7604,61.1521,0.0],[6.7562,61.15,0.0],[6.7417,61.1521,0.0],[6.7375,61.15,99.0587],[6.7188,61.15,96.0025],[6.7188,61.1479,305.4831],[6.7104,61.1479,279.3274],[6.7063,61.15,63.9418],[6.7021,61.1479,359.9164],[6.6932,61.1536,18.4993],[6.6792,61.1563,15.8038],[6.6766,61.1599,0.0],[6.6693,61.1609,43.2002],[6.6568,61.1672,0.0],[6.6578,61.1703,0.0],[6.6479,61.175,0.0],[6.6354,61.175,2.5478],[6.6318,61.1724,0.0],[6.6307,61.163,0.0],[6.6234,61.1536,0.0],[6.6266,61.1516,17.771],[6.6266,61.1484,32.9546],[6.6234,61.1474,0.0],[6.6224,61.1443,17.7285],[6.6172,61.1432,0.0],[6.6161,61.1359,12.2884],[6.6109,61.1349,0.0],[6.6099,61.1297,9.363],[6.6068,61.1286,0.0],[6.6057,61.1255,6.3182],[6.6005,61.1245,0.0],[6.6078,61.1214,78.025],[6.6005,61.1203,0.0],[6.5984,61.1151,0.0],[6.6016,61.113,160.5491],[6.5943,61.112,0.0],[6.5917,61.1,0.0],[6.5953,61.0964,80.8805],[6.5901,61.0953,0.0],[6.5891,61.0922,0.0],[6.5833,61.0938,0.0],[6.5776,61.0922,0.0],[6.5766,61.0974,0.0],[6.5708,61.1,54.1223],[6.5667,61.1,96.7193],[6.5625,61.0979,378.9387],[6.5542,61.0979,364.4351],[6.5526,61.0995,209.4825],[6.5583,61.1,141.0508],[6.5599,61.1016,11.6815],[6.5417,61.1042,0.0],[6.5318,61.0995,12.0395],[6.5307,61.0964,47.0442],[6.5172,61.0911,0.0],[6.5109,61.087,0.0],[6.5083,61.0833,51.9728],[6.5,61.0833,0.0],[6.4958,61.0812,133.7704],[6.4917,61.0833,0.0],[6.4854,61.0833,0.0],[6.4755,61.0807,35.9136],[6.4786,61.0786,314.3527],[6.4771,61.0771,387.8649],[6.4688,61.0771,342.735],[6.4646,61.0812,23.4728],[6.4484,61.0786,0.0],[6.4484,61.0734,278.3244],[6.4516,61.0714,491.2889],[6.4339,61.0682,28.2043],[6.4328,61.063,0.0],[6.4234,61.0599,0.0],[6.425,61.0583,0.0],[6.4307,61.0578,0.0],[6.4276,61.0557,0.0],[6.4266,61.0505,0.0],[6.4214,61.0495,0.0],[6.4203,61.0443,0.0],[6.4151,61.0411,0.0],[6.4141,61.0359,0.0],[6.4047,61.0328,0.0],[6.4036,61.0297,0.0],[6.4005,61.0286,0.0],[6.3979,61.0208,0.0],[6.3984,61.0172,0.0],[6.4042,61.0167,0.0],[6.4068,61.013,0.0],[6.4141,61.012,0.0],[6.412,61.0068,0.0],[6.4104,61.0062,5.7858],[6.3979,61.0062,113.9081],[6.3938,61.0083,75.568],[6.3896,61.0083,181.9442],[6.3854,61.0062,374.5897],[6.3813,61.0083,33.6491],[6.3771,61.0083,8.9993],[6.3729,61.0062,169.1503],[6.3688,61.0083,0.0],[6.3625,61.0042,0.0],[6.3542,61.0042,37.5492],[6.3521,61.0062,0.0],[6.3547,61.0099,0.0],[6.3604,61.0104,0.0],[6.3688,61.0146,46.0542],[6.3833,61.0146,0.0],[6.3891,61.0172,0.0],[6.3891,61.0203,0.0],[6.3854,61.0229,26.7729],[6.387,61.0286,0.0],[6.3839,61.0307,123.1247],[6.4016,61.0359,0.0],[6.4016,61.0411,0.0],[6.3984,61.0432,85.2948],[6.4036,61.0443,0.0],[6.4047,61.0516,136.8485],[6.4141,61.0568,0.0],[6.4141,61.062,0.0],[6.4109,61.063,21.2648],[6.412,61.0682,24.4441],[6.4078,61.0703,18.6566],[6.4047,61.0703,0.0],[6.3958,61.0646,308.8302],[6.3901,61.0651,225.0244],[6.3911,61.0682,0.0],[6.3854,61.0708,0.0],[6.3813,61.0687,86.6258],[6.375,61.0708,0.0],[6.3708,61.0687,78.5344],[6.3667,61.0708,0.0],[6.3625,61.0708,0.0],[6.3583,61.0667,328.5195],[6.3557,61.0703,0.0],[6.35,61.0729,0.0],[6.3458,61.0708,0.0],[6.3401,61.0714,0.0],[6.3411,61.0766,0.0],[6.3255,61.0797,0.0],[6.3229,61.0833,0.0],[6.313,61.0839,5.3993],[6.3047,61.088,0.0],[6.3057,61.0932,0.0],[6.3,61.0938,22.4768],[6.2932,61.0974,0.0],[6.2833,61.1,13.5717],[6.2604,61.1,102.7407],[6.2563,61.0979,342.6893],[6.2521,61.0979,347.6838],[6.2438,61.1021,0.0],[6.2313,61.1021,0.0],[6.2214,61.0995,70.8593],[6.2203,61.0964,287.5567],[6.2167,61.0958,399.9443],[6.2151,61.0964,333.485],[6.2167,61.1,61.1186],[6.2161,61.1036,0.0],[6.2104,61.1063,0.0],[6.2047,61.1068,58.8669],[6.1932,61.1141,0.0],[6.1833,61.1146,73.7071],[6.175,61.1188,0.0],[6.1756,61.1171,8.0415],[6.1665,61.1161,162.2185],[6.182,61.081,1207.7146],[6.1911,61.082,1211.2223],[6.2028,61.0557,1146.0244],[6.1755,61.0529,1180.0024],[6.1774,61.0485,984.1588],[6.1683,61.0475,1131.0096],[6.1722,61.0388,1071.1782],[6.1631,61.0378,1137.8353],[6.167,61.0291,944.9591],[6.1579,61.0281,946.2695],[6.1618,61.0194,859.7538],[6.1527,61.0184,848.6304],[6.1586,61.0053,661.0649],[6.1676,61.0062,909.746],[6.1715,60.9974,1111.3052],[6.1624,60.9965,1113.4059],[6.1663,60.9877,965.0183],[6.1573,60.9868,875.843],[6.1592,60.9824,901.4954],[6.1501,60.9815,758.4462],[6.1521,60.9771,882.0724],[6.143,60.9762,844.0449],[6.1488,60.963,895.6229],[6.1398,60.9621,909.4432],[6.1456,60.9489,841.6597],[6.1365,60.948,926.9164],[6.1481,60.9217,1138.3784],[6.1572,60.9226,1133.3376],[6.1591,60.9182,1116.3605],[6.1682,60.9192,994.2676],[6.1701,60.9148,1133.4775],[6.1882,60.9166,1043.2896],[6.1901,60.9123,1093.0574],[6.1992,60.9132,1060.097]]],
[[[6.7151,61.1505,32.6057],[6.7188,61.15,96.0025],[6.7188,61.1521,0.0],[6.7151,61.1516,0.0],[6.7151,61.1505,32.6057]]],
[[[6.4255,61.0714,0.0],[6.4292,61.0708,0.0],[6.4307,61.0724,0.0],[6.4271,61.0729,0.0],[6.4255,61.0714,0.0]]],
[[[6.5464,61.1068,0.0],[6.5495,61.1068,0.0],[6.5495,61.1078,0.0],[6.5464,61.1078,0.0],[6.5464,61.1068,0.0]]],
[[[6.5505,61.112,0.0],[6.5505,61.1109,0.0],[6.5536,61.1109,0.0],[6.5536,61.112,0.0],[6.5505,61.112,0.0]]]]}
,"properties": {"GID_2": "NOR.14.26_1","GID_0": "NOR","country": "Norway","GID_1": "NOR.14_1","province": "SognogFjordane","NL_NAME_1": "NA","county": "Vik","VARNAME_2": "NA","NL_NAME_2": "NA","TYPE_2": "Kommuner","ENGTYPE_2": "Municipality","CC_2": "NA","HASC_2": "NO.SF.VI","name": "Vik.county","area_km2": 823.0829,"hist_schema_id": "Elevation0-9000","hist_area_km2": {"0": 11.4779,"25": 6.0594,"50": 5.6288,"75": 5.0656,"100": 5.1782,"125": 5.0037,"150": 5.0655,"175": 5.4753,"200": 5.4652,"225": 5.6707,"250": 5.9477,"275": 6.0814,"300": 6.6142,"325": 6.8812,"350": 7.3435,"375": 7.5076,"400": 7.2203,"425": 7.9279,"450": 8.4309,"475": 8.7383,"500": 9.0768,"525": 9.3427,"550": 9.6614,"575": 10.0206,"600": 9.9177,"625": 11.0759,"650": 11.1794,"675": 12.8204,"700": 12.8018,"725": 12.516,"750": 12.8488,"775": 14.5262,"800": 14.1281,"825": 15.056,"850": 22.7068,"875": 25.704,"900": 28.0185,"925": 26.5778,"950": 29.812,"975": 27.6503,"1000": 28.4014,"1025": 27.763,"1050": 31.7154,"1075": 30.7885,"1100": 27.4574,"1125": 24.5986,"1150": 20.6363,"1175": 18.4861,"1200": 17.8958,"1225": 17.0843,"1250": 16.7133,"1275": 14.9229,"1300": 11.9535,"1325": 9.9903,"1350": 8.6927,"1375": 9.2247,"1400": 7.4767,"1425": 7.2078,"1450": 7.1772,"1475": 7.1571,"1500": 5.8933,"1525": 4.5579,"1550": 3.4079,"1575": 2.5047,"1600": 1.8992,"1625": 1.2525}}}