{"type":"Feature","properties":{"GID_2":"NOR.8.38_1","GID_0":"NOR","country":"Norway","GID_1":"NOR.8_1","province":"MøreogRomsdal","NL_NAME_1":"NA","county":"Volda","VARNAME_2":"NA","NL_NAME_2":"NA","TYPE_2":"Kommuner","ENGTYPE_2":"Municipality","CC_2":"NA","HASC_2":"NO.MR.VO","name":"Volda.county"},
"geometry":{"type": "MultiPolygon","coordinates": [[[[5.8917,62.0521,0.0],[5.8896,62.0521,0.0],[5.8896,62.05,0.0],[5.8974,62.0505,0.0],[5.8958,62.0521,0.0],[5.8917,62.0521,0.0]]],
[[[5.9653,62.2287,21.4099],[5.9563,62.2229,170.1139],[5.9375,62.2229,0.0],[5.9318,62.2193,7.0853],[5.9375,62.2167,0.0],[5.9432,62.2161,0.0],[5.9443,62.213,0.0],[5.9484,62.2109,0.0],[5.9542,62.2104,0.0],[5.9599,62.2078,0.0],[5.9599,62.2047,0.0],[5.9547,62.2036,13.9429],[5.9547,62.1984,0.0],[5.9672,62.1922,0.0],[5.9729,62.1937,48.7497],[5.987,62.187,0.0],[5.9922,62.1797,0.0],[6.0016,62.1745,0.0],[6.0026,62.1693,0.0],[6.0083,62.1667,0.0],[6.0141,62.1661,0.0],[6.0208,62.1625,0.0],[6.0391,62.1599,43.8932],[6.0401,62.1568,0.0],[6.0609,62.1464,0.0],[6.0667,62.1458,11.4017],[6.0724,62.1432,6.0265],[6.0734,62.1401,0.0],[6.0786,62.137,45.2869],[6.0755,62.1349,21.4985],[6.0755,62.1318,27.5988],[6.0839,62.1276,1.7547],[6.0911,62.1266,131.6881],[6.0901,62.1214,0.0],[6.0995,62.1203,126.7938],[6.1042,62.1167,0.0],[6.112,62.1161,0.0],[6.1224,62.1099,0.0],[6.1234,62.1068,0.0],[6.1307,62.1057,0.0],[6.1432,62.0995,0.0],[6.1443,62.0943,36.9186],[6.15,62.0917,0.0],[6.1583,62.0917,0.0],[6.1667,62.0958,67.5171],[6.1729,62.0958,0.0],[6.1771,62.0979,0.0],[6.1813,62.0958,0.0],[6.1979,62.0958,27.4357],[6.2063,62.0917,0.0],[6.212,62.0911,25.592],[6.213,62.088,0.0],[6.2188,62.0854,0.0],[6.2229,62.0875,55.9529],[6.2271,62.0854,0.0],[6.2333,62.0854,0.0],[6.2375,62.0875,0.0],[6.2417,62.0875,0.0],[6.2474,62.0849,0.0],[6.25,62.0812,46.9814],[6.2583,62.0812,0.0],[6.2682,62.0786,0.0],[6.2729,62.075,0.0],[6.2703,62.0693,0.0],[6.2604,62.0667,44.6367],[6.2563,62.0687,0.0],[6.2443,62.0693,47.0826],[6.2411,62.0724,0.0],[6.2313,62.0771,0.0],[6.225,62.0771,14.6971],[6.2208,62.075,0.0],[6.2,62.075,93.8947],[6.1875,62.0812,18.7053],[6.1771,62.0812,162.5152],[6.1672,62.0786,91.8453],[6.1646,62.075,396.1005],[6.1604,62.0771,74.0409],[6.1458,62.0771,0.0],[6.1417,62.075,109.9331],[6.1375,62.0771,0.0],[6.1333,62.0771,22.2935],[6.1271,62.075,370.3285],[6.1229,62.0771,115.268],[6.1104,62.0771,0.0],[6.1063,62.075,42.0002],[6.1,62.075,0.0],[6.0901,62.0724,0.0],[6.0891,62.0672,10.6432],[6.0839,62.0661,0.0],[6.0828,62.0589,0.0],[6.0792,62.0583,0.0],[6.0776,62.0589,0.0],[6.0786,62.062,0.0],[6.0755,62.063,0.0],[6.0745,62.0661,0.0],[6.0714,62.0682,0.0],[6.0786,62.0693,0.0],[6.0813,62.0729,0.0],[6.0776,62.0766,0.0],[6.087,62.0797,0.0],[6.088,62.0849,0.0],[6.0932,62.088,0.0],[6.0901,62.0901,0.0],[6.0891,62.0953,0.0],[6.0724,62.1036,62.1814],[6.0583,62.1063,50.1475],[6.0432,62.1141,0.0],[6.0359,62.1151,14.2988],[6.037,62.1203,0.0],[6.0255,62.1255,23.761],[6.0245,62.1286,0.0],[6.0172,62.1318,69.9904],[6.0161,62.1349,0.0],[6.0063,62.1375,135.2029],[5.9708,62.1396,0.0],[5.9651,62.137,43.9934],[5.9646,62.1354,19.1919],[5.9682,62.1328,0.0],[5.9672,62.1297,0.0],[5.9745,62.1245,15.3481],[5.9714,62.1224,0.0],[5.9745,62.1203,0.0],[5.9729,62.1167,0.0],[5.9729,62.1083,16.0347],[5.9703,62.1047,0.0],[5.9672,62.1036,0.0],[5.9661,62.0984,0.0],[5.9609,62.0974,0.0],[5.9604,62.0917,79.6839],[5.9578,62.0859,155.9339],[5.9505,62.0849,64.0156],[5.9479,62.0812,191.1016],[5.9359,62.0807,0.0],[5.9349,62.0755,0.0],[5.9297,62.0724,0.0],[5.9286,62.0693,0.0],[5.9193,62.0682,0.0],[5.9188,62.0604,0.0],[5.9161,62.0526,11.4187],[5.913,62.0516,0.0],[5.9099,62.0464,10.4389],[5.9016,62.0422,0.0],[5.8839,62.037,0.0],[5.8818,62.0349,0.0],[5.8813,62.0271,99.6917],[5.8786,62.0234,164.4592],[5.8714,62.0224,0.0],[5.8703,62.0193,49.1173],[5.8641,62.0172,0.0],[5.8583,62.0167,0.0],[5.8568,62.0172,0.0],[5.8568,62.0203,0.0],[5.862,62.0214,0.0],[5.863,62.0286,0.0],[5.8682,62.0297,0.0],[5.8693,62.037,0.0],[5.8828,62.0443,0.0],[5.8849,62.0464,0.0],[5.8859,62.0516,0.0],[5.8896,62.0521,0.0],[5.8896,62.0542,0.0],[5.8938,62.0542,0.0],[5.8995,62.0568,0.0],[5.9,62.0625,0.0],[5.9026,62.0682,0.0],[5.9203,62.0755,0.0],[5.9224,62.0807,0.0],[5.9188,62.0833,0.0],[5.9193,62.0911,0.0],[5.9328,62.0943,0.0],[5.9339,62.0974,0.0],[5.9391,62.1005,0.0],[5.9401,62.1057,0.0],[5.9453,62.1068,0.0],[5.9458,62.1146,0.0],[5.9484,62.1224,0.0],[5.9516,62.1245,0.0],[5.9464,62.1276,0.0],[5.9453,62.1328,0.0],[5.938,62.1359,0.0],[5.9375,62.1396,0.0],[5.938,62.1411,0.0],[5.9432,62.1422,0.0],[5.9443,62.1495,0.0],[5.9495,62.1505,0.0],[5.9505,62.1557,0.0],[5.9536,62.1578,0.0],[5.9484,62.1609,0.0],[5.9474,62.1641,0.0],[5.9401,62.1693,28.3214],[5.9391,62.1724,0.0],[5.9318,62.1755,0.0],[5.9328,62.1786,0.0],[5.9234,62.1797,25.1113],[5.9172,62.1839,0.0],[5.9161,62.187,0.0],[5.912,62.1891,47.7192],[5.9005,62.1901,358.0517],[5.8995,62.1932,75.9768],[5.8938,62.1958,122.1044],[5.8854,62.1958,357.9409],[5.8813,62.1979,189.2187],[5.8667,62.1979,2.8367],[5.8542,62.2021,18.8639],[5.8523,62.2013,21.7475],[5.8534,62.199,44.3734],[5.844,62.198,53.7229],[5.8502,62.1849,237.892],[5.8408,62.1839,222.2558],[5.8533,62.1576,884.1567],[5.8627,62.1586,872.8843],[5.8647,62.1542,740.8801],[5.8553,62.1532,792.7398],[5.8574,62.1489,524.853],[5.848,62.1479,673.8139],[5.8501,62.1435,653.8792],[5.8407,62.1426,878.4183],[5.8448,62.1338,900.5459],[5.8166,62.1309,661.0],[5.8291,62.1047,652.7557],[5.8385,62.1056,721.2835],[5.8426,62.0969,767.8171],[5.852,62.0978,941.5064],[5.8541,62.0934,836.2042],[5.8729,62.0954,993.9625],[5.8749,62.091,962.998],[5.8843,62.0919,897.5627],[5.8885,62.0832,772.5211],[5.8791,62.0822,954.4268],[5.8811,62.0778,702.0436],[5.8717,62.0769,668.0682],[5.8759,62.0681,709.7385],[5.8665,62.0672,898.6349],[5.8686,62.0628,892.2165],[5.8592,62.0618,621.3929],[5.8633,62.0531,620.6734],[5.8539,62.0521,589.6773],[5.856,62.0477,722.2614],[5.8466,62.0468,803.0255],[5.8487,62.0424,708.684],[5.83,62.0405,526.7276],[5.832,62.0361,705.0789],[5.7852,62.0313,1087.0541],[5.7873,62.0269,1036.9077],[5.7779,62.0259,777.6909],[5.782,62.0172,692.5],[5.7446,62.0133,714.6488],[5.7488,62.0046,592.6312],[5.7394,62.0036,571.9117],[5.7435,61.9948,540.4974],[5.7342,61.993899999999996,683.2123],[5.7384,61.9851,678.0],[5.729,61.9842,809.381],[5.7311,61.9798,810.3738],[5.7404,61.9807,687.2463],[5.7425,61.9764,679.5],[5.7519,61.9773,828.9667],[5.7539,61.973,818.034],[5.7726,61.9749,861.1766],[5.7747,61.9705,775.3755],[5.7841,61.9715,756.676],[5.7861,61.9671,555.5669],[5.8048,61.969,463.6866],[5.8069,61.9646,658.0882],[5.863,61.9704,767.6652],[5.8609,61.9748,812.0],[5.8796,61.9767,690.4525],[5.8776,61.9811,733.0],[5.8869,61.982,782.43],[5.8849,61.9864,748.4674],[5.9691,61.995,1183.7936],[5.9711,61.9906,1020.9118],[5.9805,61.9916,877.5308],[5.9825,61.9872,853.6496],[6.0013,61.9891,732.3309],[6.0094,61.9716,565.7863],[6.0188,61.9725,475.9651],[6.0269,61.955,535.8073],[6.0363,61.9559,782.4667],[6.0383,61.9515,773.5722],[6.1412,61.9619,307.965],[6.1372,61.9707,553.5223],[6.1465,61.9716,714.3564],[6.1405,61.9848,851.1437],[6.1686,61.9876,554.6846],[6.1665,61.992,612.3771],[6.1759,61.9929,481.8871],[6.1719,62.0017,436.7268],[6.1812,62.0026,450.1962],[6.1772,62.0114,651.7167],[6.1866,62.0123,640.3879],[6.1846,62.0167,660.4985],[6.2127,62.0195,717.8776],[6.2167,62.0107,592.9889],[6.2261,62.0117,783.5755],[6.2341,61.9941,973.8877],[6.2529,61.996,867.391],[6.2549,61.9916,767.3431],[6.2642,61.9925,618.4454],[6.2662,61.9882,600.6071],[6.2756,61.9891,484.2744],[6.2776,61.9847,446.4172],[6.287,61.9856,455.8708],[6.289,61.9813,420.0917],[6.2983,61.9822,420.5685],[6.3043,61.969,755.5001],[6.3137,61.97,710.3826],[6.3157,61.9656,719.011],[6.3344,61.9674,536.597],[6.3364,61.963,640.4161],[6.3551,61.9649,876.8768],[6.3531,61.9693,705.6118],[6.3719,61.9711,593.5338],[6.3699,61.9755,811.9102],[6.3886,61.9774,662.7407],[6.3866,61.9817,892.1267],[6.4054,61.9836,1040.1058],[6.4034,61.988,1062.4172],[6.4128,61.9889,1022.708],[6.4108,61.9933,1032.8005],[6.4202,61.9942,853.6824],[6.4182,61.9986,860.0056],[6.4275,61.9995,666.0247],[6.4236,62.0083,767.3448],[6.433,62.0092,582.8353],[6.431,62.0136,716.3821],[6.4404,62.0145,777.3042],[6.4384,62.0189,814.9011],[6.5135,62.0262,836.8375],[6.5095,62.035,1125.2625],[6.5001,62.0341,1208.121],[6.4982,62.0385,1255.7385],[6.4888,62.0376,1205.1406],[6.4848,62.0464,933.4225],[6.4754,62.0454,801.0574],[6.4695,62.0586,396.3054],[6.4601,62.0577,267.9675],[6.4561,62.0665,245.8491],[6.4467,62.0656,466.7635],[6.4408,62.0787,411.7332],[6.4314,62.0778,800.7383],[6.4254,62.091,853.2213],[6.416,62.09,873.591],[6.414,62.0944,1074.9338],[6.4234,62.0954,812.9459],[6.4175,62.1085,1326.7056],[6.4081,62.1076,1274.4987],[6.4061,62.112,1327.6611],[6.3873,62.1101,1144.4292],[6.3893,62.1058,913.5838],[6.3516,62.1021,934.5126],[6.3496,62.1064,834.7299],[6.3402,62.1055,1183.486],[6.3362,62.1143,745.4376],[6.2986,62.1106,367.2412],[6.2966,62.115,291.6407],[6.2684,62.1122,1202.254],[6.2664,62.1166,1200.3004],[6.2569,62.1156,955.8621],[6.2549,62.12,729.481],[6.2455,62.1191,319.9131],[6.2435,62.1235,245.4884],[6.2247,62.1216,429.3168],[6.2227,62.126,455.0907],[6.2133,62.125,689.7501],[6.2092,62.1338,583.7997],[6.1998,62.1329,417.1604],[6.1917,62.1504,244.5424],[6.1823,62.1495,231.3511],[6.1742,62.167,403.4531],[6.1648,62.1661,450.3488],[6.1627,62.1705,507.168],[6.1533,62.1695,596.0959],[6.1513,62.1739,728.7416],[6.0853,62.1673,497.0464],[6.0833,62.1717,311.5135],[6.055,62.1689,204.2621],[6.051,62.1776,138.9167],[6.0415,62.1767,131.5203],[6.0374,62.1855,102.5413],[6.028,62.1845,227.2667],[6.026,62.1889,287.653],[6.0165,62.1879,284.6712],[6.0124,62.1967,89.3354],[6.003,62.1958,346.6514],[6.0009,62.2001,168.3064],[5.9915,62.1992,281.8092],[5.9833,62.2167,163.532],[5.9738,62.2158,433.9805],[5.9677,62.2289,10.8655],[5.9653,62.2287,21.4099]]]]}}