{"type": "Feature","bbox": [6.8671,57.9954,7.2867,58.3217],"geometry": {"type": "MultiPolygon","coordinates": [[[[6.9864,58.0037,14.8567],[6.9808,58.0032,0.0],[6.9808,58.0015,0.0],[6.9831,58.0004,1.3343],[6.9825,57.9971,1.3817],[6.9858,57.9965,0.0],[6.9914,58.0007,0.0],[6.9864,58.0037,14.8567]]],
[[[7.0008,58.0085,3.1123],[7.0014,58.0107,0.0],[6.9947,58.0101,0.0],[6.9919,58.0068,5.7438],[6.9869,58.0057,0.0],[6.9925,58.0021,5.1036],[6.9947,58.0026,5.1036],[6.9953,58.0046,12.5181],[6.9981,58.0043,3.8477],[6.9964,58.0026,0.0],[6.9992,58.0007,2.0561],[6.9975,58.0004,4.4848],[6.9981,57.9979,7.6846],[6.9953,57.9971,0.0],[6.9953,57.9957,0.0],[6.9986,57.9954,0.0],[7.0064,57.9985,0.0],[7.0047,58.001,0.087],[7.0064,58.0026,0.0],[7.0042,58.0029,0.0],[7.0047,58.0074,0.0],[7.0008,58.0085,3.1123]]],
[[[6.9797,58.0304,0.0],[6.9703,58.0304,6.1873],[6.9664,58.0265,0.0],[6.9697,58.0243,1.4223],[6.9719,58.0257,2.2919],[6.9757999999999996,58.0243,0.8901],[6.9803,58.0268,0.0],[6.9797,58.0288,0.0],[6.9825,58.0288,0.0],[6.9797,58.0304,0.0]]],
[[[6.9625,58.0357,0.0],[6.9597,58.0363,0.0],[6.9597,58.0346,0.0],[6.9681,58.0318,0.0],[6.9664,58.0346,0.0],[6.9625,58.0357,0.0]]],
[[[7.0592,58.0518,0.0],[7.0569,58.0532,0.0],[7.0542,58.0515,2.863],[7.0525,58.0501,7.9128],[7.0531,58.0479,0.0],[7.0558,58.0488,3.2854],[7.0564,58.0507,5.7159],[7.0592,58.0518,0.0]]],
[[[7.1053,58.0646,4.7002],[7.1008,58.0649,0.0],[7.1014,58.0624,0.0],[7.1075,58.0632,0.0],[7.1053,58.0646,4.7002]]],
[[[7.2334,58.297,377.4202],[7.2286,58.3102,294.3829],[7.2202,58.3093,223.4966],[7.2169,58.3181,150.0399],[7.2085,58.3173,145.2296],[7.2069,58.3217,219.5685],[7.1985,58.3208,327.7679],[7.2001,58.3164,416.6451],[7.1833,58.3147,404.5068],[7.1849,58.3103,451.0065],[7.1681,58.3086,397.2946],[7.1697,58.3042,426.194],[7.1613,58.3033,395.5388],[7.163,58.2989,397.7475],[7.1546,58.298,406.3065],[7.1562,58.2936,443.4134],[7.1394,58.2919,550.2161],[7.141,58.2875,487.4518],[7.0906,58.2823,371.4775],[7.089,58.2867,349.6206],[7.0806,58.2858,338.8456],[7.0722,58.285,347.0267],[7.0738,58.2806,363.1314],[7.057,58.2788,334.9396],[7.0587,58.2744,334.4934],[7.0503,58.2736,326.0239],[7.0519,58.2692,305.2694],[7.0435,58.2683,318.1069],[7.0452,58.2639,314.2128],[7.0536,58.2648,328.8476],[7.0585,58.2516,303.5409],[7.0501,58.2507,280.4694],[7.0517,58.2463,288.7819],[7.035,58.2445,251.9214],[7.0333,58.2489,291.4338],[7.0284,58.2484,320.2832],[6.9998,58.2454,311.6044],[7.0014,58.2411,347.033],[6.9763,58.2384,362.3911],[6.9746,58.2428,338.0181],[6.9243,58.2376,334.3845],[6.926,58.2332,317.2866],[6.9008,58.2305,344.2433],[6.9025,58.2261,276.0562],[6.9109,58.227,342.975],[6.9158,58.2138,340.6986],[6.9242,58.2147,226.4138],[6.9341,58.1883,435.4257],[6.9258,58.1874,470.1463],[6.9274,58.183,303.386],[6.8939,58.1795,404.8894],[6.8956,58.1751,386.3332],[6.8872,58.1742,417.3853],[6.8905,58.1654,300.662],[6.8738,58.1637,285.3667],[6.8755,58.1593,341.455],[6.8671,58.1584,317.2785],[6.8711,58.1478,0.0],[6.8912,58.1438,19.6242],[6.8922,58.1388,8.3482],[6.9004,58.139,114.5754],[6.9021,58.1346,0.0],[6.9105,58.1355,200.7698],[6.9121,58.1311,0.0],[6.9205,58.132,0.0],[6.9212,58.13,0.0],[6.9248,58.1307,0.0],[6.9317,58.1286,0.0],[6.9388,58.1294,93.0237],[6.9454,58.1118,34.9477],[6.9538,58.1126,7.805],[6.9554,58.1082,86.4025],[6.9888,58.1118,104.1293],[6.9954,58.0942,128.8289],[6.987,58.0933,181.5061],[6.9887,58.0889,174.6038],[6.9803,58.088,147.8607],[6.982,58.0836,112.8767],[6.9653,58.0819,11.3106],[6.9685,58.0731,37.2043],[6.9602,58.0722,20.4473],[6.967,58.054,2.5069],[6.9775,58.056,0.0],[6.9764,58.059,0.0],[6.9742,58.0596,11.9371],[6.9742,58.0612,18.5249],[6.9775,58.0624,0.0],[6.9747,58.0646,12.2527],[6.9769,58.0668,0.0],[6.9731,58.0696,0.0],[6.9786,58.0707,11.8038],[6.9825,58.0687,0.0],[6.9886,58.0696,0.0],[6.9886,58.0754,0.9394],[6.9914,58.076,0.0],[6.9908,58.0782,4.7372],[6.9975,58.0776,0.0],[7.0064,58.0843,15.64],[7.0097,58.0896,39.5219],[7.0114,58.0899,4.4544],[7.0108,58.0949,8.6115],[7.0069,58.0965,32.3446],[7.0075,58.0974,41.3967],[7.0242,58.0979,0.0],[7.0242,58.1068,2.7576],[7.0275,58.106,1.2525],[7.0275,58.1085,7.9578],[7.0298,58.109,12.5022],[7.0253,58.1118,7.901],[7.0258,58.1129,3.9767],[7.0347,58.114,1.9765],[7.0369,58.1165,12.7497],[7.0447,58.1154,0.0],[7.0453,58.1168,0.0],[7.0436,58.1179,34.45],[7.0475,58.1204,0.0],[7.0453,58.1213,1.6449],[7.0458,58.1224,1.7018],[7.0619,58.1196,54.2042],[7.0586,58.1154,0.0],[7.0592,58.1135,40.1688],[7.0486,58.1093,0.0],[7.0464,58.1065,4.6007],[7.0392,58.1032,30.8228],[7.0386,58.1013,72.7896],[7.0331,58.0974,0.0],[7.0336,58.0926,9.2206],[7.0269,58.0929,8.2735],[7.0269,58.091,33.7629],[7.0136,58.0857,0.0],[7.0131,58.0826,18.2185],[7.0158,58.0812,4.9463],[7.0147,58.0785,0.0],[7.0169,58.0774,32.3717],[7.0081,58.0762,7.1312],[7.0064,58.0754,3.343],[7.0069,58.074,3.343],[7.0047,58.0738,3.343],[7.0131,58.0671,21.7933],[7.0103,58.0618,46.0823],[7.0075,58.0638,0.0],[7.0042,58.0632,5.6686],[7.0003,58.0668,10.0648],[6.9958,58.0668,9.0593],[6.9886,58.0612,0.0],[6.9936,58.059,10.2704],[6.9953,58.0543,0.0],[6.9892,58.0529,0.3494],[6.9942,58.0524,1.77],[6.9881,58.0504,2.9755],[6.9831,58.0507,0.0],[6.9742,58.046,0.0],[6.9775,58.0446,14.0379],[6.9753,58.0421,0.0],[6.9775,58.0407,0.0],[6.9736,58.0401,0.0],[6.9736,58.0379,0.0],[6.9764,58.0365,0.0],[6.9831,58.0376,0.4626],[6.9842,58.0363,2.3975],[6.9797,58.0354,3.4725],[6.9814,58.0315,18.1506],[6.9842,58.0301,0.0],[6.9869,58.031,19.7586],[6.9869,58.029,0.0],[6.9847,58.0288,0.0],[6.9853,58.0274,4.7001],[6.9786,58.024,0.0],[6.9797,58.0229,0.9852],[6.9881,58.0243,0.0],[6.9892,58.0288,28.4698],[6.9975,58.0285,0.0],[7.0014,58.0299,0.0],[7.0014,58.0315,16.9969],[7.0142,58.0326,3.9316],[7.0075,58.0288,0.0],[7.0036,58.0285,19.725],[7.0047,58.0262,3.1099],[7.0014,58.024,0.0],[6.9964,58.024,0.0],[6.9975,58.0224,0.0],[6.9953,58.0215,6.0131],[6.9975,58.021,1.5302],[6.9964,58.0204,24.8999],[6.9908,58.0213,0.0],[6.9875,58.0182,15.2546],[6.9864,58.0199,0.0],[6.9797,58.0193,0.0],[6.9786,58.0146,0.0],[6.9853,58.0115,0.8818],[6.9853,58.0085,0.0],[6.9886,58.0085,0.0],[6.9875,58.0107,0.0],[6.9886,58.0132,0.0],[6.9997,58.0137,0.0],[6.9981,58.0187,0.0],[6.9997,58.0199,0.0],[7.0042,58.0171,14.6924],[7.0031,58.0146,2.6837],[7.0069,58.0132,0.0],[7.0125,58.0137,2.0216],[7.0131,58.0115,0.0],[7.0181,58.0124,2.6722],[7.0192,58.0143,6.7311],[7.0175,58.016,1.4958],[7.0203,58.0154,2.8765],[7.0219,58.0129,0.0],[7.0242,58.0132,0.0],[7.0253,58.0163,0.0],[7.0231,58.0224,23.8513],[7.0247,58.0265,0.0],[7.0175,58.0282,4.7918],[7.0203,58.0293,0.0],[7.0203,58.031,1.3066],[7.0158,58.0324,3.9316],[7.0169,58.0349,0.2978],[7.0281,58.0388,1.2879],[7.0275,58.0415,1.0305],[7.0319,58.0407,8.8854],[7.0341,58.0444,14.5192],[7.0397,58.0451,0.0],[7.0442,58.049,13.6103],[7.0436,58.0524,12.0391],[7.0486,58.054,2.254],[7.0508,58.0576,18.2475],[7.0592,58.0554,0.0],[7.0669,58.0618,15.8705],[7.0692,58.0607,8.7064],[7.0686,58.0588,0.0],[7.0758,58.0579,0.0],[7.0803,58.0618,5.2265],[7.0897,58.0651,0.0],[7.0908,58.0682,0.0],[7.0947,58.0685,0.0],[7.0936,58.0715,14.0783],[7.0953,58.074,9.6668],[7.1003,58.0724,15.4895],[7.0975,58.071,5.2346],[7.0986,58.0674,3.6444],[7.1053,58.0679,0.0],[7.1075,58.0696,0.0],[7.1064,58.0735,9.3848],[7.1092,58.0729,0.0],[7.1103,58.0754,0.0],[7.1092,58.0768,0.0],[7.1058,58.076,4.6795],[7.1025,58.0776,3.2855],[7.1036,58.0782,3.2855],[7.1131,58.0793,1.8168],[7.1158,58.0762,1.2147],[7.1253,58.0746,12.6202],[7.1308,58.0801,2.0606],[7.1358,58.0801,8.2811],[7.1314,58.0762,53.4683],[7.1269,58.0749,12.6202],[7.1247,58.0726,0.0],[7.1264,58.071,2.6371],[7.1292,58.0724,6.1964],[7.1322,58.0715,0.5366],[7.1503,58.0737,7.0766],[7.1471,58.0825,165.4342],[7.1555,58.0834,0.0],[7.1538,58.0878,0.0],[7.1622,58.0887,0.0],[7.159,58.0975,0.0],[7.1673,58.0983,0.0],[7.1657,58.1027,0.0],[7.1741,58.1036,0.0],[7.1708,58.1124,107.2532],[7.1792,58.1133,9.7208],[7.1776,58.1177,118.5172],[7.1943,58.1194,125.3794],[7.1927,58.1238,130.1024],[7.201,58.1246,219.611],[7.1994,58.129,277.5037],[7.2078,58.1299,296.236],[7.2062,58.1343,228.4005],[7.2229,58.136,287.3234],[7.2213,58.1404,230.2243],[7.2297,58.1413,230.1105],[7.228,58.1457,256.4445],[7.2364,58.1465,230.3028],[7.2332,58.1554,231.6736],[7.2416,58.1562,254.532],[7.2367,58.1694,266.2015],[7.2451,58.1703,277.3685],[7.2403,58.1835,307.6521],[7.2486,58.1843,317.8376],[7.2454,58.1931,337.0376],[7.2538,58.194,314.7495],[7.2425,58.2248,369.4896],[7.2509,58.2257,337.4517],[7.2493,58.2301,315.6817],[7.2577,58.2309,321.2169],[7.2561,58.2353,323.4197],[7.2644,58.2362,295.0923],[7.2612,58.245,307.1393],[7.2696,58.2459,307.114],[7.2664,58.2547,305.9142],[7.2748,58.2555,311.3672],[7.2716,58.2643,280.4778],[7.28,58.2652,268.1206],[7.2783,58.2696,253.5],[7.2867,58.2704,268.295],[7.2851,58.2748,257.2035],[7.2767,58.274,298.921],[7.2735,58.2828,278.3222],[7.2651,58.2819,371.0648],[7.2635,58.2863,347.6946],[7.2551,58.2855,373.0352],[7.2535,58.2899,369.925],[7.2451,58.289,365.8356],[7.2434,58.2934,371.5033],[7.235,58.2926,367.0517],[7.2334,58.297,377.4202]]]]}
,"properties": {"GID_2": "NOR.18.9_1","GID_0": "NOR","country": "Norway","GID_1": "NOR.18_1","province": "Vest-Agder","NL_NAME_1": "NA","county": "Lyngdal","VARNAME_2": "NA","NL_NAME_2": "NA","TYPE_2": "Kommuner","ENGTYPE_2": "Municipality","CC_2": "NA","HASC_2": "NO.VA.LY","name": "Lyngdal.county","area_km2": 415.9959,"hist_schema_id": "Elevation0-9000","hist_area_km2": {"0": 26.223,"25": 14.9564,"50": 17.288,"75": 15.0733,"100": 16.8121,"125": 17.7406,"150": 18.7113,"175": 21.9874,"200": 28.0944,"225": 30.4909,"250": 30.7576,"275": 33.9393,"300": 40.7163,"325": 36.2337,"350": 25.0521,"375": 17.1824,"400": 10.7763,"425": 8.6536,"450": 4.1257,"475": 0.8586,"500": 0.1672,"525": 0.1337,"550": 0.0223}}}