{"type":"Feature","properties":{"GID_1":"NOR.4_1","GID_0":"NOR","country":"Norway","province":"Buskerud","VARNAME_1":"Buskerudfylke","NL_NAME_1":"NA","TYPE_1":"Fylke","ENGTYPE_1":"County","CC_1":"NA","HASC_1":"NO.BU","ISO_1":"NA","name":"Buskerud.province"},
"geometry":{"type": "MultiPolygon","coordinates": [[[[10.5019,59.489,0.0],[10.4981,59.489,0.7011],[10.4981,59.4874,7.6506],[10.4953,59.4854,3.7489],[10.4953,59.4813,0.0],[10.5008,59.4835,0.5689],[10.5031,59.4876,0.0],[10.5019,59.489,0.0]]],
[[[10.5614,59.5157,0.0],[10.5564,59.5168,0.0],[10.5542,59.5124,0.0],[10.5608,59.5132,0.0],[10.5625,59.5149,0.0],[10.5614,59.5157,0.0]]],
[[[10.5381,59.5187,1.4183],[10.5347,59.5204,9.9034],[10.5314,59.5182,0.0],[10.5314,59.5157,0.0],[10.5353,59.5165,0.0],[10.5358,59.5185,3.8568],[10.5381,59.5187,1.4183]]],
[[[10.5269,59.6843,1.2518],[10.5203,59.6904,10.9532],[10.5208,59.6932,6.2747],[10.5181,59.696,8.8185],[10.5203,59.7038,5.0914],[10.5236,59.7068,0.0],[10.5219,59.716,12.3126],[10.5203,59.7171,8.8475],[10.5208,59.7201,3.3832],[10.5192,59.7212,13.9967],[10.5219,59.7285,4.2915],[10.5175,59.734,0.0],[10.5114,59.7337,22.3251],[10.5131,59.7349,0.7065],[10.5131,59.7432,0.0],[10.5114,59.7432,7.3646],[10.5114,59.7465,9.5307],[10.5142,59.7535,0.0],[10.5147,59.7607,2.7896],[10.5164,59.7618,0.0],[10.5125,59.7649,0.139],[10.5064,59.7621,0.0],[10.5058,59.7604,6.7187],[10.4986,59.7626,6.2001],[10.5025,59.7704,0.0],[10.5025,59.7832,0.0],[10.496,59.7829,16.4464],[10.4947,59.7873,11.537],[10.477,59.786,123.6595],[10.4783,59.7816,88.2287],[10.4518,59.7797,165.3652],[10.4531,59.7752,144.9238],[10.4443,59.7746,199.5459],[10.443,59.779,173.9557],[10.4253,59.7777,120.5012],[10.424,59.7822,109.655],[10.371,59.7783,287.4016],[10.3684,59.7871,277.0337],[10.3596,59.7865,314.0753],[10.3583,59.7909,278.2123],[10.3494,59.7903,291.6982],[10.3481,59.7947,295.3701],[10.3393,59.7941,290.7741],[10.3354,59.8074,200.997],[10.3442,59.808,193.8288],[10.3403,59.8214,216.7823],[10.3492,59.822,203.14],[10.3466,59.8309,250.1616],[10.3377,59.8302,252.6313],[10.3247,59.8746,310.3374],[10.3424,59.8759,294.9631],[10.3411,59.8804,298.0194],[10.35,59.881,329.4597],[10.3487,59.8855,388.3133],[10.3576,59.8861,368.1589],[10.3511,59.9083,354.6472],[10.3599,59.909,359.8668],[10.3586,59.9134,397.4829],[10.3675,59.9141,412.4837],[10.3662,59.9185,388.2317],[10.3751,59.9192,402.959],[10.3725,59.928,397.5266],[10.3636,59.9274,342.0223],[10.3597,59.9407,389.8115],[10.3508,59.9401,374.372],[10.343,59.9667,354.4017],[10.3519,59.9673,388.2294],[10.3506,59.9718,375.2531],[10.3772,59.9737,345.0731],[10.3759,59.9782,371.2465],[10.4026,59.9801,335.9796],[10.4013,59.9846,341.7147],[10.4102,59.9852,302.3138],[10.4037,60.0074,233.0285],[10.4126,60.0081,264.0318],[10.4113,60.0125,318.4908],[10.4202,60.0132,376.6689],[10.4189,60.0176,376.7417],[10.4278,60.0183,378.4091],[10.4265,60.0227,363.2176],[10.4354,60.0233,335.9698],[10.4328,60.0322,397.4465],[10.4596,60.0342,436.1229],[10.4608,60.0297,439.91],[10.4787,60.031,533.5098],[10.4799,60.0266,542.6188],[10.4889,60.0272,531.9407],[10.4927,60.0139,454.6538],[10.5016,60.0145,448.3433],[10.5003,60.019,407.2071],[10.5092,60.0196,377.9073],[10.5067,60.0285,383.745],[10.5156,60.0291,325.7695],[10.5143,60.0336,368.3604],[10.5232,60.0342,454.6164],[10.5206,60.0431,448.559],[10.5295,60.0437,470.74],[10.5282,60.0482,510.038],[10.5372,60.0488,467.3236],[10.5359,60.0533,461.9584],[10.5448,60.0539,460.3199],[10.5422,60.0628,466.6718],[10.5511,60.0634,491.9579],[10.5499,60.0679,444.7038],[10.5588,60.0685,508.1007],[10.5575,60.073,503.4261],[10.5664,60.0736,529.6417],[10.5651,60.078,526.2791],[10.6008,60.0806,423.1653],[10.5995,60.085,409.6249],[10.5906,60.0844,414.4745],[10.5842,60.1066,427.0054],[10.5753,60.106,440.174],[10.5702,60.1237,559.6934],[10.588,60.125,535.3871],[10.5867,60.1295,566.7338],[10.5957,60.1301,497.6584],[10.5931,60.139,461.8987],[10.5842,60.1383,507.9893],[10.5803,60.1517,469.1551],[10.5714,60.151,460.3917],[10.5675,60.1644,473.7284],[10.5586,60.1637,474.5596],[10.556,60.1726,478.6122],[10.5292,60.1707,485.8332],[10.5279,60.1751,526.7607],[10.5011,60.1732,535.4584],[10.4998,60.1776,551.6249],[10.4908,60.177,483.2176],[10.4895,60.181399999999996,509.5733],[10.4806,60.1808,538.5889],[10.4793,60.1852,539.6293],[10.4703,60.1846,549.4495],[10.469,60.189,540.7325],[10.4601,60.1884,531.2342],[10.4588,60.1928,560.3307],[10.4498,60.1922,523.2477],[10.4472,60.201,566.7109],[10.4383,60.2004,538.4199],[10.437,60.2048,528.017],[10.428,60.2042,585.3865],[10.4267,60.2086,489.9677],[10.4178,60.208,517.3224],[10.4165,60.2124,487.6331],[10.4075,60.2118,448.9964],[10.4062,60.2162,398.9792],[10.3793,60.2143,259.9348],[10.378,60.2187,197.2312],[10.3512,60.2168,126.1995],[10.3498,60.2212,193.5002],[10.3409,60.2205,206.7419],[10.3396,60.225,155.6448],[10.3306,60.2243,202.6511],[10.328,60.2332,213.0123],[10.319,60.2325,212.6553],[10.3164,60.2414,295.338],[10.3074,60.2408,338.1199],[10.3048,60.2496,378.4296],[10.3137,60.2503,380.4152],[10.3111,60.2592,427.9976],[10.32,60.2598,453.9829],[10.3187,60.2643,465.6408],[10.3097,60.2636,451.2342],[10.3058,60.2769,429.3006],[10.2968,60.2763,408.0348],[10.2928,60.2896,376.6154],[10.2838,60.2889,358.3309],[10.2812,60.2978,341.13],[10.2722,60.2972,353.3345],[10.2682,60.3105,349.5499],[10.2592,60.3098,369.2773],[10.2552,60.3231,393.0478],[10.2463,60.3225,387.7442],[10.2422,60.3358,408.2072],[10.2333,60.3351,356.0228],[10.2292,60.3484,428.2106],[10.2203,60.3478,360.1308],[10.2149,60.3655,350.553],[10.2059,60.3649,283.6426],[10.2019,60.3782,229.152],[10.1929,60.3775,288.6246],[10.1672,60.4618,381.0],[10.1762,60.4625,399.899],[10.1722,60.4758,396.3844],[10.1812,60.4765,358.7169],[10.1798,60.4809,371.6741],[10.1708,60.4802,418.3633],[10.1667,60.4936,436.5572],[10.1577,60.4929,473.498],[10.1482,60.524,239.2931],[10.1392,60.5233,263.7087],[10.1351,60.5366,281.6313],[10.126,60.5359,228.0],[10.1233,60.5448,247.4611],[10.1143,60.5441,282.394],[10.1115,60.553,318.7015],[10.1025,60.5523,332.3877],[10.0998,60.5612,399.2263],[10.0907,60.5605,512.1404],[10.0811,60.5916,624.0436],[10.0721,60.5909,672.2531],[10.0679,60.6042,725.9406],[10.0589,60.6036,711.2464],[10.0561,60.6124,723.8198],[10.0471,60.6118,709.3367],[10.0429,60.6251,692.9659],[10.0339,60.6244,694.0871],[10.0311,60.6333,644.2997],[10.022,60.6326,608.8872],[10.0207,60.637,592.9938],[10.0025,60.6357,490.1911],[10.0012,60.6401,421.8075],[9.9287,60.6347,325.6843],[9.9273,60.6391,325.7477],[9.9001,60.6371,174.6393],[9.9015,60.6326,156.5952],[9.9105,60.6333,206.4961],[9.9133,60.6244,149.5],[9.9224,60.6251,175.0845],[9.9238,60.6207,166.1444],[9.9328,60.6214,177.5914],[9.9342,60.6169,155.5491],[9.9433,60.6176,165.6719],[9.9461,60.6087,288.8179],[9.937,60.6081,297.5458],[9.9398,60.5992,434.8953],[9.9308,60.5985,423.0801],[9.9322,60.5941,459.431],[9.8869,60.5906,482.9352],[9.8883,60.5862,553.8123],[9.8431,60.5828,531.3031],[9.8417,60.5872,531.8557],[9.8326,60.5865,654.425],[9.834,60.5821,658.5465],[9.825,60.5814,766.6141],[9.8264,60.577,762.0631],[9.8174,60.5763,656.0607],[9.8202,60.5674,621.2188],[9.8111,60.5667,557.6254],[9.8154,60.5534,489.6713],[9.8063,60.5527,445.9758],[9.8105,60.5394,308.8769],[9.8015,60.5387,321.1893],[9.8268,60.4589,602.9965],[9.7818,60.4555,1110.2467],[9.7803,60.4599,1132.8739],[9.7713,60.4592,1117.0323],[9.7699,60.4637,1131.3649],[9.7519,60.4623,1000.3143],[9.7505,60.4667,1087.4384],[9.7415,60.466,1061.8757],[9.7401,60.4704,1073.63],[9.7311,60.4697,1094.5463],[9.7296,60.4742,1126.8877],[9.7116,60.4728,1157.0055],[9.7102,60.4772,1177.3739],[9.7012,60.4765,1121.2826],[9.6998,60.481,1142.3871],[9.6908,60.4803,1139.5718],[9.6893,60.4847,1112.9491],[9.6713,60.4833,1195.0613],[9.6699,60.4877,1106.7418],[9.6609,60.487,1089.27],[9.6594,60.4915,1085.8812],[9.6504,60.4907,1138.4882],[9.649,60.4952,1191.1619],[9.64,60.4945,1228.6162],[9.6386,60.4989,1222.532],[9.6205,60.4975,1157.1161],[9.6062,60.5418,583.3885],[9.534,60.5362,551.2101],[9.5354,60.5317,546.4804],[9.4903,60.5282,568.1798],[9.4888,60.5326,597.6545],[9.4798,60.5319,575.4162],[9.4784,60.5363,609.5453],[9.4693,60.5356,571.5241],[9.4679,60.5401,579.6608],[9.4589,60.5393,571.5748],[9.4574,60.5438,572.3036],[9.4394,60.5423,575.7716],[9.4379,60.5468,586.3567],[9.4289,60.5461,601.1728],[9.4274,60.5505,639.5023],[9.4184,60.5498,609.353],[9.4096,60.5763,608.9676],[9.4186,60.5771,666.5446],[9.4157,60.5859,651.4874],[9.4248,60.5866,723.0571],[9.4233,60.5911,702.1252],[9.4323,60.5918,758.2347],[9.4279,60.6051,748.6816],[9.4189,60.6043,792.103],[9.4174,60.6088,747.715],[9.4084,60.6081,774.049],[9.4069,60.6125,747.2228],[9.3888,60.611,822.4356],[9.3874,60.6155,747.4143],[9.3783,60.6148,758.9769],[9.3769,60.6192,747.2677],[9.3678,60.6185,823.881],[9.3545,60.6583,905.4506],[9.3636,60.659,857.4788],[9.3621,60.6635,872.0885],[9.3531,60.6628,876.5767],[9.3516,60.6672,850.2958],[9.3425,60.6665,855.6763],[9.341,60.6709,835.3939],[9.332,60.6702,834.899],[9.329,60.679,918.1453],[9.32,60.6783,926.8303],[9.317,60.6871,933.6666],[9.3261,60.6879,920.4689],[9.3216,60.7012,822.7404],[9.3307,60.7019,820.4795],[9.3262,60.7152,928.6115],[9.3353,60.7159,914.4941],[9.3294,60.7336,1042.5787],[9.3203,60.7329,1097.197],[9.3173,60.7417,1078.2042],[9.3082,60.741,1109.8727],[9.3053,60.7499,1082.1176],[9.2962,60.7491,1118.9337],[9.2917,60.7624,1079.37],[9.2735,60.761,1037.8347],[9.272,60.7654,1115.9103],[9.263,60.7647,1122.6062],[9.2615,60.7691,1038.5455],[9.2433,60.7676,1212.2251],[9.2418,60.7721,1115.1906],[9.2236,60.7706,1116.2279],[9.2221,60.775,1066.0441],[9.213,60.7743,1090.0978],[9.2115,60.7787,1072.4783],[9.2024,60.778,1084.4019],[9.1994,60.7868,1041.627],[9.1904,60.7861,1034.2931],[9.1888,60.7905,948.3329],[9.1798,60.7898,955.663],[9.1782,60.7942,914.9982],[9.1692,60.7935,947.4648],[9.1676,60.7979,897.0734],[9.1586,60.7972,917.8824],[9.157,60.8016,879.2466],[9.1479,60.8009,880.4824],[9.1464,60.8053,863.1378],[9.1373,60.8046,853.5266],[9.1358,60.809,856.7877],[9.1176,60.8075,838.2864],[9.1161,60.812,832.6451],[9.107,60.8112,831.6747],[9.1055,60.8156,830.2629],[9.0964,60.8149,825.875],[9.0949,60.8193,817.1927],[9.0858,60.8186,812.6066],[9.0843,60.823,812.5782],[9.0661,60.8215,811.9055],[9.0646,60.826,806.2463],[9.0555,60.8252,812.3875],[9.0539,60.8296,813.8655],[9.0448,60.8289,820.7843],[9.0433,60.8333,809.5153],[9.0251,60.8318,828.6226],[9.0236,60.8363,812.3859],[9.0145,60.8355,817.2603],[9.0129,60.8399,817.0],[9.0038,60.8392,817.0],[9.0023,60.8436,817.0],[8.9932,60.8429,817.0],[8.9917,60.8473,817.0],[8.9735,60.8458,817.0],[8.9719,60.8502,817.0],[8.9628,60.8495,817.0],[8.9613,60.8539,817.0],[8.9522,60.8532,817.0],[8.9506,60.8576,817.0],[8.9415,60.8568,817.0],[8.94,60.8613,817.0],[8.9218,60.8598,817.0],[8.9202,60.8642,817.0],[8.9111,60.8634,817.0],[8.9096,60.8678,817.0],[8.9005,60.8671,817.0],[8.8943,60.8848,836.6142],[8.8851,60.884,858.6213],[8.8805,60.8973,862.1475],[8.8623,60.8958,906.016],[8.8607,60.9002,891.4308],[8.8242,60.8972,1037.7742],[8.8227,60.9016,1009.6248],[8.7953,60.8993,1101.6912],[8.7938,60.9038,1075.4802],[8.7847,60.903,1100.0692],[8.7831,60.9074,1067.3043],[8.774,60.9067,1070.7769],[8.7724,60.9111,1054.3416],[8.7633,60.9103,1067.3074],[8.7617,60.9147,1051.9813],[8.7526,60.914,1088.5869],[8.751,60.9184,1096.88],[8.7328,60.9169,1129.0378],[8.7312,60.9213,1102.014],[8.713,60.9198,1107.8027],[8.7114,60.9242,1101.6105],[8.6932,60.9227,1073.428],[8.6916,60.9271,1068.1924],[8.6825,60.9263,1076.1865],[8.6809,60.9307,1075.1381],[8.6718,60.93,1084.2395],[8.6702,60.9344,1095.1381],[8.6611,60.9336,1101.771],[8.6595,60.938,1099.4388],[8.6504,60.9373,1199.3666],[8.6488,60.9417,1117.6997],[8.6305,60.9401,1315.0632],[8.6289,60.9446,1200.9736],[8.6198,60.9438,1305.6998],[8.6182,60.9482,1238.0188],[8.6091,60.9474,1321.6959],[8.6075,60.9519,1215.2272],[8.6166,60.9526,1164.8839],[8.6134,60.9615,973.0662],[8.6225,60.9622,964.6436],[8.6178,60.9755,1057.6378],[8.6086,60.9747,1039.842],[8.607,60.9791,1144.7703],[8.5979,60.9784,1030.0247],[8.5947,60.9872,1237.045],[8.5856,60.9864,1202.7145],[8.584,60.9909,1377.6134],[8.5748,60.9901,1322.4973],[8.5732,60.9945,1623.636],[8.5641,60.9937,1645.2504],[8.5609,61.0026,1776.1055],[8.5517,61.0018,1754.3755],[8.5501,61.0062,1819.1042],[8.541,61.0054,1803.083],[8.5394,61.0098,1862.1654],[8.5302,61.0091,1845.4872],[8.5286,61.0135,1757.1866],[8.5195,61.0127,1876.8622],[8.5179,61.0171,1447.8804],[8.4996,61.0156,1872.7465],[8.498,61.02,1857.4846],[8.4797,61.0184,1762.2307],[8.4781,61.0228,1798.8157],[8.4324,61.0189,1579.637],[8.4291,61.0278,1803.28],[8.42,61.027,1820.4358],[8.4184,61.0314,1795.7134],[8.4092,61.0306,1737.322],[8.4076,61.035,1737.0343],[8.3985,61.0342,1672.7709],[8.3952,61.0431,1671.8689],[8.3861,61.0423,1632.9417],[8.3844,61.0467,1581.2267],[8.3753,61.0459,1554.1693],[8.372,61.0547,1462.9072],[8.3629,61.054,1535.7926],[8.3596,61.0628,1576.7368],[8.3504,61.062,1532.1611],[8.3471,61.0708,1559.8601],[8.338,61.07,1585.5814],[8.3347,61.0789,1488.4873],[8.3256,61.0781,1437.1892],[8.3223,61.0869,1523.4065],[8.3131,61.0861,1428.0389],[8.3115,61.0905,1589.314],[8.2932,61.089,1528.7786],[8.2948,61.0845,1385.5234],[8.2673,61.0822,1633.4751],[8.269,61.0777,1491.2744],[8.2507,61.0761,1416.3607],[8.2523,61.0717,1430.1139],[8.2432,61.0709,1491.9008],[8.2449,61.0665,1596.8833],[8.2357,61.0657,1636.6222],[8.2374,61.0613,1664.509],[8.2282,61.0605,1697.0665],[8.2332,61.0473,1730.3668],[8.2423,61.0481,1780.733],[8.244,61.0437,1561.1023],[8.2531,61.0444,1565.7593],[8.2548,61.04,1553.5919],[8.2639,61.0408,1469.6324],[8.2705,61.0232,1283.5621],[8.2614,61.0224,1282.2242],[8.263,61.018,1516.7592],[8.2539,61.0172,1604.2766],[8.2572,61.0083,1603.2897],[8.2481,61.0075,1544.808],[8.2497,61.0031,1427.052],[8.2406,61.0023,1437.9347],[8.2439,60.9935,1525.951],[8.2348,60.9927,1578.3936],[8.2381,60.9839,1322.6874],[8.229,60.9831,1328.2155],[8.2306,60.9787,1392.8931],[8.2215,60.9779,1358.3594],[8.2248,60.969,1494.708],[8.2157,60.9682,1556.1722],[8.214,60.9727,1527.6143],[8.1958,60.9711,1534.272],[8.1941,60.9755,1432.3236],[8.185,60.9747,1488.7443],[8.1833,60.9791,1365.6487],[8.1651,60.9775,1186.938],[8.1634,60.9819,1158.3239],[8.1452,60.9803,1181.7972],[8.1469,60.9759,1190.5129],[8.1377,60.9751,1508.186],[8.1411,60.9663,1463.1968],[8.132,60.9654,1426.9449],[8.1336,60.961,1409.3668],[8.1245,60.9602,1349.9357],[8.1262,60.9558,1326.5],[8.1171,60.955,1326.5],[8.1187,60.9506,1326.5],[8.1096,60.9498,1326.5],[8.1113,60.9454,1326.5],[8.1022,60.9446,1326.5],[8.1038,60.9402,1326.5],[8.0947,60.9394,1329.3333],[8.0964,60.9349,1326.5],[8.0873,60.9341,1385.9871],[8.089,60.9297,1364.443],[8.0799,60.9289,1487.6995],[8.0815,60.9245,1452.95],[8.0724,60.9237,1420.333],[8.0741,60.9193,1375.8959],[8.065,60.9185,1438.9871],[8.0667,60.9141,1472.2256],[8.0576,60.9133,1563.9314],[8.0609,60.9044,1569.994],[8.0518,60.9036,1639.5603],[8.0535,60.8992,1675.6661],[8.0171,60.896,1718.0557],[8.0188,60.8916,1673.098],[8.0006,60.8899,1634.6279],[7.9989,60.8943,1618.7737],[7.9898,60.8935,1722.2068],[7.9881,60.8979,1759.6388],[7.97,60.8963,1621.616],[7.9683,60.9007,1662.558],[7.9592,60.8999,1629.1249],[7.9575,60.9043,1665.4792],[7.9484,60.9035,1529.3907],[7.9467,60.9079,1567.2053],[7.9285,60.9063,1542.2526],[7.9268,60.9107,1562.561],[7.9177,60.9099,1667.8258],[7.9161,60.9143,1635.8145],[7.907,60.9135,1636.264],[7.9053,60.9179,1578.6991],[7.8689,60.9146,1585.186],[7.8706,60.9102,1618.2828],[7.8524,60.9085,1669.0184],[7.8541,60.9041,1665.4539],[7.845,60.9033,1595.6993],[7.8467,60.8989,1571.7701],[7.8285,60.8973,1579.0829],[7.8302,60.8928,1497.0779],[7.8211,60.892,1530.9613],[7.8228,60.8876,1619.4879],[7.8138,60.8868,1619.3309],[7.8155,60.8824,1601.1996],[7.7973,60.8807,1522.916],[7.799,60.8763,1534.6871],[7.7899,60.8755,1524.4297],[7.7916,60.8711,1524.5472],[7.7825,60.8703,1500.579],[7.7842,60.8658,1487.0436],[7.7752,60.865,1490.7],[7.7769,60.8606,1516.7988],[7.7678,60.8598,1525.3331],[7.7695,60.8554,1614.3491],[7.7604,60.8545,1572.2849],[7.7638,60.8457,1544.1686],[7.7548,60.8449,1521.1344],[7.7565,60.8405,1508.6387],[7.7474,60.8397,1515.9635],[7.7525,60.8264,1435.0],[7.7435,60.8256,1435.0],[7.7469,60.8168,1435.0],[7.7378,60.816,1435.0],[7.7429,60.8027,1435.0],[7.7339,60.8019,1435.0],[7.7373,60.7931,1435.0],[7.7282,60.7923,1456.6664],[7.7351,60.7746,1483.079],[7.726,60.7738,1490.6422],[7.7294,60.765,1569.8333],[7.7204,60.7642,1595.5507],[7.7238,60.7554,1542.2],[7.7148,60.7545,1447.5],[7.7165,60.7501,1526.7046],[7.7074,60.7493,1600.2273],[7.7091,60.7449,1633.5582],[7.7001,60.744,1687.0663],[7.7018,60.7396,1714.6208],[7.6656,60.7363,1478.083],[7.6639,60.7407,1518.7615],[7.6458,60.739,1385.8065],[7.6441,60.7434,1466.9589],[7.626,60.7418,1387.1559],[7.6243,60.7462,1426.515],[7.6153,60.7453,1489.6],[7.617,60.7409,1356.7549],[7.608,60.7401,1321.6725],[7.6097,60.7357,1320.5972],[7.5916,60.734,1240.608],[7.5933,60.7296,1290.7377],[7.5843,60.7288,1198.5574],[7.586,60.7244,1181.1859],[7.5679,60.7227,1209.026],[7.5697,60.7183,1195.549],[7.5516,60.7166,1375.2882],[7.5533,60.7122,1411.9103],[7.5443,60.7113,1426.856],[7.546,60.7069,1497.4958],[7.528,60.7052,1483.9707],[7.5297,60.7008,1468.6459],[7.5207,60.7,1455.5503],[7.5224,60.6956,1564.4353],[7.5044,60.6939,1523.2133],[7.5061,60.6895,1582.8888],[7.488,60.6878,1661.813],[7.4898,60.6834,1712.9835],[7.4808,60.6826,1697.2628],[7.4825,60.6782,1694.3761],[7.4645,60.6765,1717.6821],[7.4662,60.6721,1632.2948],[7.4752,60.6729,1526.0665],[7.4769,60.6685,1404.6436],[7.495,60.6702,1357.8978],[7.4967,60.6658,1363.8157],[7.5147,60.6675,1342.2239],[7.5165,60.6631,1535.1589],[7.5255,60.6639,1515.5385],[7.5272,60.6595,1615.5547],[7.5453,60.6612,1620.1499],[7.547,60.6568,1694.7434],[7.556,60.6576,1647.5039],[7.5577,60.6532,1536.8336],[7.5667,60.6541,1503.0734],[7.5685,60.6497,1685.4962],[7.5775,60.6505,1542.9188],[7.5792,60.6461,1451.2014],[7.5882,60.6469,1449.0862],[7.5899,60.6425,1449.0752],[7.6079,60.6442,1707.5229],[7.6097,60.6398,1594.3862],[7.6187,60.6406,1529.8092],[7.6204,60.6362,1660.5814],[7.6294,60.6371,1649.455],[7.6345,60.6239,1764.7322],[7.6255,60.623,1790.9789],[7.6307,60.6098,1482.4823],[7.6217,60.609,1441.9681],[7.6251,60.6002,1311.9886],[7.6161,60.5993,1437.3682],[7.6315,60.5597,1334.8826],[7.6404,60.5605,1403.9711],[7.6439,60.5517,1216.519],[7.6529,60.5525,1186.0177],[7.6563,60.5437,1427.6086],[7.6652,60.5445,1249.9299],[7.6669,60.5401,1434.5663],[7.6759,60.541,1223.6292],[7.6776,60.5366,1367.4491],[7.6866,60.5374,1253.9863],[7.6883,60.533,1408.1155],[7.6973,60.5338,1370.6895],[7.699,60.5294,1431.0234],[7.708,60.5302,1383.1079],[7.7131,60.517,1433.3831],[7.7041,60.5162,1391.3319],[7.7092,60.503,1234.1895],[7.7002,60.5021,1241.658],[7.707,60.4845,1304.2527],[7.698,60.4837,1291.4487],[7.7031,60.4705,1181.0114],[7.6941,60.4696,1175.8555],[7.6992,60.4564,1176.5741],[7.6902,60.4556,1179.8347],[7.6953,60.4424,1248.7203],[7.6863,60.4415,1323.6554],[7.6931,60.4239,1286.6582],[7.6841,60.4231,1231.3595],[7.6892,60.4098,1147.4519],[7.6803,60.409,1169.2988],[7.687,60.3914,1137.8938],[7.6781,60.3905,1156.3621],[7.6848,60.3729,1190.6719],[7.6759,60.3721,1180.3723],[7.6843,60.35,1156.0981],[7.6754,60.3492,1164.7214],[7.6821,60.3316,1333.4473],[7.6732,60.3308,1336.6984],[7.6799,60.3131,1325.9049],[7.671,60.3123,1365.392],[7.6778,60.2947,1308.6089],[7.6688,60.2938,1276.0833],[7.6705,60.2894,1228.6786],[7.6616,60.2886,1216.0496],[7.6632999999999996,60.2842,1218.0667],[7.6544,60.2834,1227.2499],[7.6561,60.2789,1231.1514],[7.6471,60.2781,1221.2394],[7.6488,60.2737,1216.8475],[7.6399,60.2729,1215.0261],[7.6433,60.2641,1214.2117],[7.6344,60.2632,1213.5438],[7.6361,60.2588,1217.073],[7.6272,60.258,1221.2518],[7.6289,60.2536,1218.1384],[7.6199,60.2527,1217.512],[7.6216,60.2483,1218.9729],[7.6127,60.2475,1220.1537],[7.6144,60.2431,1215.2104],[7.6055,60.2422,1222.6564],[7.6089,60.2334,1225.5699],[7.6,60.2326,1234.7667],[7.6051,60.2194,1259.7867],[7.5962,60.2185,1247.2393],[7.5995,60.2097,1239.6016],[7.5907,60.2089,1235.8496],[7.5957,60.1957,1236.3711],[7.5868,60.1948,1236.5402],[7.5902,60.186,1225.3876],[7.5813,60.1852,1229.4175],[7.5847,60.1764,1354.6837],[7.5758,60.1755,1324.1566],[7.5775,60.1711,1353.9921],[7.5686,60.1703,1306.7078],[7.572,60.1615,1223.8046],[7.5631,60.1606,1259.6553],[7.5648,60.1562,1265.3494],[7.5559,60.1554,1287.0475],[7.5576,60.151,1263.1152],[7.5487,60.1501,1257.3275],[7.5504,60.1457,1253.8746],[7.5416,60.1449,1259.4127],[7.5432,60.1405,1258.6061],[7.5344,60.1396,1260.6409],[7.5361,60.1352,1262.9233],[7.5272,60.1344,1261.2163],[7.5306,60.1256,1294.1036],[7.5217,60.1247,1321.5425],[7.5234,60.1203,1307.9114],[7.5145,60.1195,1308.6034],[7.5162,60.1151,1301.4132],[7.5074,60.1143,1302.0118],[7.5091,60.1098,1345.5699],[7.5002,60.109,1354.5991],[7.5019,60.1046,1386.6307],[7.493,60.1038,1385.9872],[7.4947,60.0993,1414.0504],[7.5213,60.1019,1328.7162],[7.5196,60.1063,1322.9259],[7.5817,60.1122,1241.8215],[7.58,60.1166,1242.803],[7.6332,60.1216,1291.5874],[7.6315,60.126,1305.4656],[7.6582,60.1285,1370.7904],[7.6598,60.1241,1385.8839],[7.6865,60.1266,1319.9852],[7.6881,60.1222,1350.0619],[7.7059,60.1239,1290.8009],[7.7075,60.1195,1348.8774],[7.7342,60.1219,1223.236],[7.7358,60.1175,1226.5476],[7.7536,60.1192,1247.4258],[7.7552,60.1148,1287.5529],[7.773,60.1164,1300.3809],[7.7746,60.112,1277.3575],[7.7835,60.1129,1271.6648],[7.7852,60.1085,1286.3705],[7.794,60.1093,1260.7742],[7.7957,60.1049,1259.3394],[7.8312,60.1082,1282.6007],[7.8295,60.1126,1336.436],[7.8562,60.115,1266.495],[7.8545,60.1194,1296.2119],[7.8723,60.1211,1258.0964],[7.8706,60.1255,1251.9487],[7.8972,60.128,1286.0446],[7.8956,60.1324,1300.6914],[7.9134,60.134,1347.287],[7.9117,60.1384,1399.4198],[7.9473,60.1417,1335.9974],[7.9456,60.1461,1371.2573],[7.9901,60.1502,1335.6646],[7.9884,60.1546,1340.52],[8.0329,60.1586,1335.5352],[8.0312,60.163,1342.4824],[8.0935,60.1687,1351.1273],[8.0919,60.1731,1278.9762],[8.1008,60.1739,1250.8085],[8.0991,60.1783,1188.6809],[8.1169,60.1799,1163.0898],[8.1153,60.1843,1127.5896],[8.1331,60.1859,1120.7224],[8.1315,60.1903,1144.3606],[8.1404,60.1911,1141.3229],[8.1388,60.1956,1214.5386],[8.1566,60.1972,1131.4703],[8.1582,60.1927,1127.535],[8.2027,60.1967,1243.1295],[8.2043,60.1923,1225.835],[8.2311,60.1947,1214.822],[8.2343,60.1859,1189.8384],[8.2432,60.1867,1187.9082],[8.2448,60.1823,1182.1216],[8.2537,60.1831,1188.1257],[8.2553,60.1787,1197.2167],[8.2642,60.1794,1227.4922],[8.2658,60.175,1289.7693],[8.2747,60.1758,1310.3236],[8.2763,60.1714,1344.8098],[8.2852,60.1722,1343.4174],[8.2867,60.1678,1338.3745],[8.3223,60.171,1388.3529],[8.3239,60.1665,1398.2117],[8.3862,60.172,1290.0312],[8.3878,60.1676,1284.6097],[8.4323,60.1716,1265.0054],[8.4339,60.1671,1259.0381],[8.4517,60.1687,1263.2137],[8.4533,60.1643,1280.6648],[8.5423,60.1721,1277.8468],[8.5439,60.1676,1270.8446],[8.6062,60.173,1174.8151],[8.6078,60.1686,1171.546],[8.679,60.1748,1337.7965],[8.6806,60.1704,1372.368],[8.7429,60.1757,1370.2156],[8.7445,60.1713,1313.4445],[8.7623,60.1728,1233.3663],[8.7653,60.164,1215.693],[8.7742,60.1647,1212.7784],[8.7758,60.1603,1212.7018],[8.7847,60.1611,1212.7651],[8.7862,60.1566,1212.8723],[8.804,60.1581,1213.2875],[8.8055,60.1537,1212.755],[8.8234,60.1552,1230.8448],[8.8264,60.1464,1222.0707],[8.8353,60.1472,1257.9493],[8.8368,60.1427,1230.6704],[8.8457,60.1435,1245.3226],[8.8472,60.1391,1240.329],[8.8561,60.1398,1242.4347],[8.8577,60.1354,1244.7692],[8.8666,60.1361,1240.7903],[8.8681,60.1317,1235.3674],[8.877,60.1325,1227.3567],[8.8785,60.1281,1212.7047],[8.8963,60.1296,1196.668],[8.8978,60.1251,1180.7444],[8.9067,60.1259,1171.9869],[8.9097,60.117,1262.4781],[8.9186,60.1178,1309.4716],[8.9201,60.1134,1336.9937],[8.929,60.1141,1284.7267],[8.932,60.1053,1245.3193],[8.9409,60.106,1168.2258],[8.9439,60.0972,1168.6519],[8.9528,60.0979,1145.6598],[8.9573,60.0846,1065.9513],[8.9662,60.0854,1118.2323],[8.9826,60.0367,1057.4861],[8.9738,60.036,1001.6996],[8.9842,60.005,860.4786],[8.9931,60.0058,916.0383],[8.9961,59.9969,948.3891],[8.9872,59.9962,846.5254],[8.9917,59.9829,756.7527],[9.036,59.9866,911.0039],[9.0389,59.9778,987.2632],[9.0478,59.9785,1006.4965],[9.0522,59.9652,992.7333],[9.0611,59.966,944.7145],[9.0626,59.9615,896.3235],[9.0803,59.963,855.462],[9.0818,59.9586,855.7073],[9.1084,59.9608,900.0444],[9.1098,59.9564,912.0554],[9.1187,59.9571,957.9156],[9.1202,59.9527,949.251],[9.129,59.9534,949.1335],[9.132,59.9446,847.2979],[9.1408,59.9453,774.5143],[9.1423,59.9409,751.7192],[9.1511,59.9416,746.2576],[9.1526,59.9372,752.4124],[9.1615,59.9379,746.3184],[9.1629,59.9335,801.9911],[9.1718,59.9342,798.9545],[9.1732,59.9298,971.3699],[9.1821,59.9305,954.1938],[9.1894,59.9084,1158.6484],[9.1805,59.9077,1136.2783],[9.1864,59.89,1040.5581],[9.1775,59.8892,981.7728],[9.1819,59.876,1048.8204],[9.173,59.8752,1073.4601],[9.1891,59.8265,1156.7367],[9.1979,59.8273,1156.8301],[9.1993,59.8228,1150.6576],[9.217,59.8243,1137.278],[9.2184,59.8199,1156.3645],[9.2273,59.8206,1006.9891],[9.2287,59.8162,958.3807],[9.2464,59.8176,861.3705],[9.2478,59.8132,883.7213],[9.2566,59.8139,854.1947],[9.2581,59.8095,913.8993],[9.2757,59.811,856.0259],[9.2772,59.8065,885.324],[9.2948,59.808,848.7809],[9.2962,59.8035,867.1792],[9.3051,59.8043,849.0113],[9.3065,59.7998,854.5244],[9.3242,59.8013,795.3462],[9.3256,59.7969,782.9896],[9.3344,59.7976,765.7982],[9.3358,59.7932,782.4581],[9.3447,59.7939,767.4504],[9.3461,59.7894,746.2486],[9.3549,59.7902,731.7709],[9.3578,59.7813,723.6317],[9.3666,59.782,739.7399],[9.368,59.7776,746.9202],[9.3592,59.7769,722.5206],[9.3621,59.768,716.0513],[9.3532,59.7673,690.903],[9.3575,59.754,649.6666],[9.3487,59.7533,625.9192],[9.353,59.74,434.9119],[9.3442,59.7393,461.5396],[9.347,59.7304,427.9314],[9.3382,59.7297,455.5273],[9.3425,59.7164,540.6933],[9.3337,59.7157,599.8138],[9.338,59.7024,596.8683],[9.3292,59.7017,603.5449],[9.3306,59.6973,603.7888],[9.3482,59.6987,668.2783],[9.3496,59.6943,753.7675],[9.3672,59.6957,737.7411],[9.3687,59.6913,725.3502],[9.3774,59.692,741.9968],[9.3789,59.6876,717.0731],[9.3965,59.689,679.0143],[9.4021,59.6713,595.5701],[9.4109,59.672,544.433],[9.4236,59.6322,710.0084],[9.4324,59.6329,695.2169],[9.4437,59.5974,552.821],[9.4525,59.5981,517.9753],[9.4665,59.5538,691.7781],[9.4753,59.5546,675.6362],[9.4767,59.5501,674.533],[9.4854,59.5508,681.0972],[9.4868,59.5464,666.0443],[9.4956,59.5471,686.045],[9.497,59.5427,685.7038],[9.5057,59.5434,684.2042],[9.5085,59.5345,661.4658],[9.5173,59.5352,708.1837],[9.5187,59.5308,707.8338],[9.5099,59.5301,650.4861],[9.5113,59.5257,569.9652],[9.5026,59.525,522.7735],[9.5039,59.5205,503.713],[9.4952,59.5198,609.2292],[9.4966,59.5154,672.6207],[9.4878,59.5147,676.7745],[9.4892,59.5103,660.9597],[9.4805,59.5095,674.2981],[9.4819,59.5051,605.1071],[9.4731,59.5044,613.5007],[9.4759,59.4955,691.2092],[9.4672,59.4948,716.0459],[9.4714,59.4815,777.9924],[9.5413,59.4872,530.6703],[9.5427,59.4828,570.0423],[9.5602,59.4842,744.7332],[9.5616,59.4798,705.4652],[9.5703,59.4805,656.8607],[9.5759,59.4627,543.2985],[9.5846,59.4634,558.7701],[9.5887,59.4502,515.0305],[9.5975,59.4509,549.8266],[9.6002,59.442,542.5549],[9.609,59.4427,576.1485],[9.6117,59.4338,545.4927],[9.6205,59.4345,625.2169],[9.6232,59.4257,619.2715],[9.6319,59.4264,559.3823],[9.6347,59.4175,592.3878],[9.6434,59.4182,597.0057],[9.6462,59.4093,534.3114],[9.6549,59.41,499.6599],[9.6563,59.4056,472.7722],[9.665,59.4063,468.634],[9.6636,59.4107,488.0579],[9.716,59.4149,480.8722],[9.7174,59.4105,465.2798],[9.7523,59.4133,428.3837],[9.7536,59.4088,428.498],[9.7711,59.4102,439.9844],[9.7562,59.459,583.6813],[9.7911,59.4617,517.7929],[9.7898,59.4662,503.9544],[9.8248,59.4689,250.7991],[9.8261,59.4645,283.9956],[9.8349,59.4652,243.845],[9.8362,59.4608,251.4041],[9.845,59.4614,225.3313],[9.8463,59.457,259.2123],[9.855,59.4577,189.3216],[9.8564,59.4533,201.5345],[9.8651,59.4539,183.5413],[9.8665,59.4495,173.7466],[9.9189,59.4536,406.4034],[9.9176,59.458,430.8068],[9.9438,59.4601,349.0836],[9.9425,59.4645,372.1069],[9.9512,59.4652,396.695],[9.9526,59.4608,403.0887],[9.9963,59.4641,108.5989],[9.9976,59.4597,58.6072],[10.0064,59.4604,42.5929],[10.0051,59.4648,68.7368],[10.0488,59.4682,233.2505],[10.0422,59.4904,213.9894],[10.0334,59.4897,196.8537],[10.0308,59.4986,215.7362],[10.022,59.4979,177.7006],[10.0181,59.5112,392.1657],[10.0093,59.5105,359.4738],[10.0053,59.5238,488.7505],[9.9966,59.5232,499.997],[9.9939,59.532,454.7816],[9.9851,59.5314,519.1368],[9.9825,59.5402,454.9001],[9.9737,59.5396,547.9723],[9.971,59.5484,413.1696],[9.9623,59.5478,418.1033],[9.9609,59.5522,413.1585],[9.9522,59.5515,426.4116],[9.9508,59.5559,411.2473],[9.942,59.5553,421.2717],[9.938,59.5686,410.0403],[9.9293,59.5679,412.5536],[9.9225,59.5901,421.4988],[9.9313,59.5907,446.5731],[9.93,59.5952,413.8666],[9.9388,59.5959,411.0],[9.9374,59.6003,411.0],[9.955,59.6017,469.7415],[9.9536,59.6061,462.2304],[9.9624,59.6068,319.6478],[9.9611,59.6112,291.2114],[9.9699,59.6119,84.6082],[9.9685,59.6163,47.5414],[9.9773,59.617,18.0],[9.972,59.6347,18.0],[9.9808,59.6354,18.0],[9.9768,59.6487,83.9383],[10.0031,59.6508,247.8989],[10.0018,59.6552,282.1304],[10.0106,59.6559,356.4354],[10.0119,59.6514,333.0067],[10.0207,59.6521,461.1956],[10.0234,59.6432,479.981],[10.0498,59.6453,519.4092],[10.0511,59.6408,522.5766],[10.0951,59.6442,462.4644],[10.0924,59.653,490.8771],[10.1012,59.6537,446.2376],[10.0986,59.6626,386.5852],[10.1074,59.6633,372.4403],[10.1061,59.6677,364.9243],[10.1413,59.6704,333.0798],[10.1426,59.6659,248.5047],[10.1778,59.6686,263.1777],[10.1791,59.6642,265.0244],[10.276,59.6714,198.2344],[10.2773,59.667,221.8159],[10.3125,59.6696,240.7721],[10.3099,59.6785,256.4554],[10.3187,59.6791,239.1851],[10.3149,59.6924,0.0],[10.2981,59.6963,12.7209],[10.2742,59.7076,10.2411],[10.2703,59.7124,0.0],[10.2675,59.7124,0.0],[10.2664,59.7174,22.7014],[10.2681,59.7204,0.0],[10.2647,59.7229,1.7654],[10.2558,59.7246,8.9307],[10.2542,59.7254,20.9968],[10.2553,59.7268,0.8492],[10.2464,59.7296,3.4522],[10.2458,59.7321,0.0],[10.2286,59.7307,1.3419],[10.1925,59.7449,0.8232],[10.2147,59.7399,0.1879],[10.2225,59.7399,0.0],[10.2242,59.739,0.0],[10.2169,59.7374,0.0],[10.2286,59.7326,0.8824],[10.2353,59.7324,0.497],[10.2375,59.7329,0.0],[10.2342,59.734,0.0],[10.2325,59.7371,3.8634],[10.2381,59.7379,1.3108],[10.2381,59.7396,0.5699],[10.2353,59.7404,1.3826],[10.2375,59.7407,0.3832],[10.2381,59.7426,2.3163],[10.2508,59.7457,1.1043],[10.2569,59.7443,0.0],[10.2564,59.7493,1.5802],[10.2597,59.751,2.6521],[10.2658,59.7501,0.5101],[10.2658,59.7474,1.4014],[10.2681,59.7465,0.0],[10.2814,59.7482,0.0],[10.2869,59.7463,0.2187],[10.2853,59.739,0.2692],[10.2875,59.7374,0.0],[10.2925,59.736,0.2009],[10.2936,59.7379,4.5331],[10.3009,59.7382,0.9407],[10.3019,59.7368,2.0998],[10.3003,59.7357,2.0998],[10.3003,59.7321,2.712],[10.3036,59.724,0.0],[10.3103,59.7249,3.7835],[10.3108,59.7226,2.4058],[10.3164,59.7201,2.2184],[10.3158,59.7174,0.0],[10.3175,59.7163,7.1863],[10.3303,59.7154,6.4104],[10.3347,59.7113,0.0],[10.3492,59.7124,7.9479],[10.3586,59.7101,0.0],[10.3631,59.7101,0.0],[10.3664,59.7143,0.0],[10.3714,59.7146,2.5381],[10.3736,59.7137,22.4912],[10.3719,59.7113,0.0],[10.3775,59.7104,14.5686],[10.3792,59.706,0.0],[10.3897,59.7004,11.8376],[10.3903,59.696,0.5882],[10.3925,59.6949,0.0],[10.3947,59.6896,3.8408],[10.3975,59.689,0.0],[10.3969,59.6901,0.0],[10.4008,59.6918,0.0],[10.4108,59.6901,0.8715],[10.4114,59.6868,11.7605],[10.4192,59.6815,0.0],[10.4264,59.6854,6.6106],[10.4303,59.6851,7.6647],[10.4281,59.6793,0.0],[10.4281,59.6738,4.1624],[10.4336,59.6699,0.0],[10.4369,59.6699,5.8128],[10.4386,59.6651,1.5985],[10.4342,59.6535,11.1668],[10.4297,59.6549,2.9403],[10.4286,59.6529,0.0],[10.4319,59.644,33.4189],[10.4286,59.6424,0.0],[10.4303,59.6413,12.7992],[10.4292,59.6401,0.0],[10.4308,59.6332,0.0],[10.4381,59.6285,1.3966],[10.4408,59.6226,0.7669],[10.4331,59.6199,1.8313],[10.4147,59.6176,0.0],[10.4131,59.6168,2.3728],[10.4131,59.614,4.7013],[10.4142,59.6129,2.0222],[10.4314,59.6124,9.8166],[10.4408,59.6079,3.5593],[10.4408,59.6049,13.7956],[10.4347,59.5974,14.6887],[10.4375,59.5946,29.3022],[10.4375,59.5907,45.6571],[10.4342,59.5879,14.4489],[10.4358,59.5871,14.4489],[10.4364,59.5832,27.7274],[10.4347,59.5832,5.9643],[10.4342,59.5793,11.3118],[10.4297,59.5732,9.7981],[10.4303,59.5679,12.1348],[10.4253,59.5618,2.2048],[10.4269,59.5599,6.5518],[10.4236,59.5604,6.5518],[10.4203,59.5565,5.3871],[10.4192,59.5479,0.0],[10.4147,59.5449,0.0],[10.4108,59.5374,0.0],[10.4153,59.5285,0.0],[10.4186,59.526,0.0],[10.4214,59.5246,0.0],[10.4253,59.5254,0.0],[10.4347,59.5204,0.0],[10.4469,59.5215,0.0],[10.4464,59.5238,10.53],[10.4481,59.5238,10.53],[10.4547,59.5187,0.0],[10.4603,59.519,12.7913],[10.4631,59.5165,0.0],[10.4747,59.5204,0.9375],[10.4747,59.5232,24.4863],[10.4797,59.521,0.0],[10.4819,59.5224,0.0],[10.4825,59.5249,0.0],[10.4858,59.5249,6.8804],[10.4864,59.5226,0.8435],[10.4947,59.5201,0.0],[10.4992,59.526,26.2068],[10.5064,59.5265,0.0],[10.5097,59.5246,0.0],[10.5103,59.5201,0.0],[10.5131,59.5201,0.0],[10.5153,59.5282,0.0],[10.5286,59.5318,0.0],[10.5369,59.5318,0.0],[10.5381,59.5349,1.7863],[10.5519,59.5379,0.0],[10.5508,59.5399,5.9612],[10.5581,59.539,1.4995],[10.5642,59.5418,0.0],[10.5653,59.5438,5.5247],[10.5753,59.5443,0.0],[10.5775,59.546,3.9759],[10.5764,59.5474,23.6819],[10.5808,59.5507,12.5717],[10.5892,59.551,5.3638],[10.5936,59.554,0.0],[10.5925,59.5565,1.6839],[10.6064,59.5638,20.8132],[10.6092,59.5638,0.0],[10.6125,59.569,12.2033],[10.6169,59.569,4.9713],[10.6192,59.571,0.0],[10.6181,59.5743,0.6101],[10.6192,59.5804,0.0],[10.6186,59.5838,0.0],[10.6169,59.5846,23.1877],[10.6181,59.5954,0.0],[10.6164,59.5968,11.2033],[10.6164,59.6032,6.533],[10.6142,59.6049,24.1963],[10.6131,59.6115,3.1344],[10.6086,59.6188,18.5449],[10.6064,59.6271,19.8079],[10.6042,59.6415,24.4086],[10.6069,59.6424,0.0],[10.6031,59.6515,5.969],[10.6036,59.6624,0.0],[10.6003,59.6646,5.3036],[10.5992,59.6674,0.0],[10.5881,59.6679,9.9262],[10.5808,59.6701,15.5461],[10.5781,59.6688,1.4368],[10.5869,59.6665,18.1725],[10.5875,59.6649,11.1382],[10.5808,59.6662,0.0],[10.5847,59.6632,17.9092],[10.5758,59.6643,5.9299],[10.5708,59.6679,2.6737],[10.5764,59.6682,0.0],[10.5764,59.6696,2.0512],[10.5525,59.6779,2.5468],[10.5486,59.6824,0.0],[10.5364,59.6851,0.0],[10.5375,59.6829,5.5104],[10.5347,59.6815,1.9088],[10.5375,59.6785,4.5566],[10.5342,59.6779,11.5635],[10.5331,59.6807,0.0],[10.5269,59.6843,1.2518]]],
[[[10.5453,59.6899,5.5615],[10.5425,59.6907,0.0],[10.5419,59.6896,0.0],[10.5486,59.6876,4.246],[10.5481,59.689,0.0],[10.5453,59.6899,5.5615]]],
[[[10.5236,59.6968,2.3193],[10.5208,59.6976,0.0],[10.5192,59.6963,8.8185],[10.5242,59.6924,1.3557],[10.5247,59.6899,3.4211],[10.5342,59.6874,9.6493],[10.5348,59.6899,0.0],[10.5269,59.691,4.0877],[10.5236,59.6968,2.3193]]],
[[[10.5342,59.7093,13.3446],[10.5286,59.7093,18.8017],[10.5281,59.7021,2.1624],[10.5303,59.7004,11.0752],[10.5297,59.6988,11.0752],[10.5397,59.6937,0.0],[10.5436,59.6937,0.0],[10.5397,59.699,0.0],[10.5375,59.6996,10.4983],[10.5403,59.7001,0.0],[10.5381,59.7029,12.2354],[10.5386,59.7057,4.026],[10.5342,59.7093,13.3446]]],
[[[10.5225,59.7435,0.0],[10.5231,59.7446,1.4136],[10.5214,59.7449,1.5461],[10.5181,59.7426,0.0],[10.5214,59.7424,9.0319],[10.5225,59.7435,0.0]]],
[[[10.404,59.6332,25.4755],[10.4041,59.633,25.4755],[10.4042,59.6327,25.4755],[10.4042,59.6332,25.4755],[10.404,59.6332,25.4755]]],
[[[10.3142,59.7171,17.5248],[10.3136,59.7199,7.1521],[10.3103,59.7185,0.0],[10.3131,59.7168,0.0],[10.3142,59.7171,17.5248]]],
[[[7.4947,60.0993,1414.0504],[7.4949,60.0988,1414.0504],[7.4958,60.0967,1345.3029],[7.4948,60.0991,1414.0504],[7.4947,60.0993,1414.0504]]]]}}