{"type":"Feature","properties":{"ISO3166-1-Alpha-3":"NOR","country":"Norway","fill":"#F0F","id":"918","name":"Buskerud"},
"geometry":{"type": "Polygon","coordinates": [[[9.83142,60.48499,586.9625],[9.7492,60.49295,1154.7223],[9.65763,60.5147,1160.4832],[9.63825,60.52587,700.7242],[9.62864,60.53778,543.1355],[9.62027,60.55088,891.019],[9.60642,60.56121,1117.5344],[9.58255,60.56452,1105.239],[9.47656,60.5686,1065.5566],[9.44338,60.57354,909.2651],[9.41015,60.58473,643.4653],[9.40783,60.62922,973.2881],[9.39527,60.6457,856.3081],[9.31951,60.71469,938.05],[9.32137,60.73821,1042.2466],[9.32603,60.75293,1111.592],[9.32199,60.76518,960.85],[9.31207,60.775149999999996,1022.9575],[9.3006,60.78146,1108.3849],[9.28091,60.78955,1084.4191],[9.21477,60.80259,947.7325],[8.97116,60.88068,884.3492],[8.89313,60.91339,930.1219],[8.74151,60.93153,885.5075],[8.66333,60.94951,939.4915],[8.63227,60.96434,893.7617],[8.62669,60.97225,1065.9625],[8.62111,60.98331,1036.7166],[8.61801,60.99297,1022.0305],[8.61413,60.99819,1035.6738],[8.61212,61.00041,1037.2638],[8.60483,61.00393,1045.2668],[8.56943,61.01695,1165.7772],[8.45848,61.03896,1647.5565],[8.38665,61.05994,1557.8583],[8.33978,61.0818,1538.0601],[8.27973,61.11767,1435.8966],[8.26061,61.11195,1473.7269],[8.19808,61.07245,1692.9158],[8.19374,61.02305,1300.8252],[8.17622,61.01439,1333.7819],[8.15995,61.00393,1174.1851],[8.1461,60.99958,1115.2352],[8.12207,60.98605,1479.922],[8.07752,60.95385,1338.4382],[8.03685,60.93272,1540.8353],[7.98492,60.92284,1699.197],[7.94952,60.92651,1612.1906],[7.92875,60.93098,1468.4896],[7.87397,60.93044,1425.1227],[7.77341,60.88553,1489.3218],[7.73754,60.86003,1521.264],[7.68959,60.80259,1487.6561],[7.68525,60.78833,1435.0],[7.67951,60.77965,1505.8704],[7.66897,60.77366,1487.1631],[7.65068,60.7705,1477.5052],[7.62349,60.77022,1446.9568],[7.58484,60.75738,1208.8862],[7.47792,60.70234,1429.5],[7.56655,60.67312,1633.9222],[7.58903,60.66038,1497.244],[7.60644,60.63565,1560.1577],[7.61512,60.61759,1602.1975],[7.66866,60.54736,1166.9055],[7.67641,60.52395,1369.3986],[7.67889,60.51109,1396.2017],[7.66556,60.43492,1268.2926],[7.66261,60.4129,1171.0846],[7.66943,60.34761,1193.7159],[7.66649,60.33136,1332.5879],[7.65765,60.31792,1323.9141],[7.61264,60.27418,1217.6921],[7.5543,60.18935,1270.7223],[7.48231,60.12997,1348.5751],[7.46784,60.1137,1392.0328],[7.62427,60.14568,1239.9586],[7.7101,60.14765,1312.5383],[7.82338,60.12775,1261.806],[7.88885,60.14015,1347.975],[8.17142,60.19751,1161.3789],[8.22046,60.19452,1268.6825],[8.27617,60.19607,1240.2289],[8.37735,60.18721,1305.8616],[8.40898,60.17932,1295.3693],[8.80652,60.16979,1218.2593],[8.84285,60.1615,1218.7167],[8.91995,60.1338,1118.1493],[8.93344,60.12687,1176.603],[8.95923,60.10457,1141.4667],[8.98155,60.04561,1062.9475],[8.99741,60.01698,978.847],[9.02051,60.00006,911.6041],[9.1172,59.97618,823.761],[9.13782,59.96807,819.6746],[9.16981,59.95037,754.0524],[9.18019,59.94161,746.1998],[9.1833,59.93495,804.9971],[9.17864,59.93058,954.1938],[9.17895,59.92531,1151.1034],[9.18345,59.92187,1175.5122],[9.20097,59.91536,1093.6547],[9.20748,59.87867,992.9985],[9.20314,59.85004,1112.8691],[9.25993,59.83462,791.7601],[9.30696,59.82728,682.5471],[9.35987,59.80769,774.5265],[9.3572399999999991,59.79154,737.9566],[9.34964,59.77268,699.8029],[9.34887,59.75237,625.9192],[9.35166,59.73594,447.1756],[9.35755,59.727,403.9383],[9.36887,59.72085,428.8229],[9.38421,59.71496,418.699],[9.40535,59.7039,379.5998],[9.42256,59.68385,609.7279],[9.44602,59.65047,440.387],[9.46586,59.59543,454.0284],[9.4778,59.57502,534.501],[9.5025,59.56262,585.887],[9.50452,59.55678,619.873],[9.49764,59.54908,700.3259],[9.484,59.53895,619.1757],[9.47718,59.53022,502.0195],[9.47749,59.522,585.1155],[9.48043,59.51794,628.4698],[9.49299,59.51471,692.113],[9.5487,59.51528,473.8498],[9.55945,59.51141,532.6691],[9.57309,59.50495,685.6011],[9.5951,59.48603,578.7979],[9.62446,59.4666,532.9204],[9.63484,59.45622,529.8425],[9.68233,59.43978,418.4502],[9.78274,59.43219,512.4486],[9.77385,59.47709,508.2063],[9.77695,59.48422,558.845],[9.78491,59.49198,416.4991],[10.01859,59.49254,95.191],[10.04929,59.49596,177.6988],[10.06577,59.49983,184.8929],[10.06577,59.50102,157.3157],[10.06546,59.50169,157.3157],[10.0636,59.50903,194.4692],[10.02572,59.54934,421.1888],[9.98754,59.57507,442.7815],[9.94206,59.59931,485.3358],[9.93245,59.60752,431.0981],[9.92811,59.61429,380.2502],[9.9295,59.62835,197.9677],[9.9494,59.64344,18.0],[10.03301,59.68463,369.4234],[10.05332,59.68302,343.3366],[10.07135,59.66525,453.3207],[10.12846,59.69072,153.6764],[10.16613,59.69558,135.6625],[10.27863,59.69041,142.5158],[10.28301,59.69584,141.863],[10.26889,59.69717,117.6693],[10.25709,59.70108,84.5556],[10.23805,59.71898,142.891],[10.22438,59.72382,52.3452],[10.23894,59.73876,0.5699],[10.26686,59.73973,0.0],[10.29664,59.732,0.0],[10.33229,59.71149,0.0],[10.34734,59.71039,0.0],[10.35247,59.71064,11.2079],[10.35377,59.71068,12.5036],[10.36052,59.711,51.7663],[10.3711,59.70673,0.0],[10.37452,59.70429,0.0],[10.39763,59.68806,0.0],[10.40301,59.68285,0.0],[10.4087,59.67121,0.0],[10.41147,59.6623,0.0],[10.41554,59.64191,0.0],[10.42742,59.60737,0.0],[10.42921,59.59785,0.0],[10.42237,59.55402,40.8863],[10.42359,59.53384,101.3985],[10.4367,59.51838,0.0],[10.48373,59.51447,0.0],[10.54274,59.53555,6.3387],[10.59311,59.57038,117.1743],[10.61459,59.60773,7.1772],[10.61052,59.62336,0.0],[10.59913,59.64399,45.42],[10.58269,59.66205,109.6939],[10.56324,59.66983,76.3337],[10.53981,59.67503,18.6476],[10.51889,59.68903,23.773],[10.50221,59.70873,58.4982],[10.49122,59.73127,126.9939],[10.48569,59.75788,163.2562],[10.48455,59.78864,61.7037],[10.48666,59.80317,36.4417],[10.43924,59.8024,109.9513],[10.39878,59.80829,222.2216],[10.36059,59.82482,204.326],[10.34989,59.83847,265.3192],[10.34912,59.85345,434.9523],[10.35098,59.88079,329.4597],[10.36617,59.90725,384.8209],[10.37888,59.93854,305.4161],[10.37454,59.97546,370.564],[10.38291,59.98538,279.3214],[10.43939,60.03362,374.4538],[10.48952,60.04956,589.8865],[10.53345,60.0567,486.8913],[10.55267,60.06703,450.52],[10.57132,60.08383,372.1731],[10.62362,60.15473,577.2028],[10.55577,60.18367,620.0029],[10.39831,60.23632,169.2243],[10.37904,60.2463,152.236],[10.33155,60.28004,377.1836],[10.30597,60.30283,386.7231],[10.23739,60.37849,486.9288],[10.22525,60.39631,421.1008],[10.21626,60.41492,410.3943],[10.18091,60.50768,302.0457],[10.16799,60.53227,224.1552],[10.14396,60.56,481.8023],[10.10608,60.59718,602.1414],[10.09321,60.61803,639.4261],[10.0788,60.63211,613.0],[10.04371,60.65539,593.4652],[9.94299,60.65857,512.7681],[9.93725,60.65444,376.0725],[9.93198,60.64922,288.8472],[9.94237,60.64209,284.7448],[9.94749,60.6341,345.4291],[9.9464,60.62581,389.1624],[9.93539,60.6162,161.2705],[9.92547,60.61289,253.5541],[9.84325,60.6009,619.8641],[9.82088,60.59139,801.3245],[9.8077,60.57917,575.393],[9.80352,60.56555,537.6548],[9.80615,60.54649,368.9947],[9.82786,60.50088,600.0015],[9.83142,60.48499,586.9625]]]}}