{"type": "Feature","bbox": [5.4176,61.2305,6.4108,61.4297],"geometry": {"type": "MultiPolygon","coordinates": [[[[5.4202,61.3854,0.0],[5.4271,61.3854,6.313],[5.4313,61.3833,0.0],[5.4437,61.3833,0.0],[5.4505,61.3797,23.1478],[5.4604,61.3771,0.0],[5.4646,61.3771,0.0],[5.4687,61.3792,0.0],[5.525,61.3792,0.0],[5.5307,61.3766,0.0],[5.5276,61.3745,0.0],[5.5267,61.3718,22.9651],[5.5424,61.3724,0.0],[5.5594,61.3669,20.5064],[5.5674,61.3663,0.7028],[5.5702,61.3612,126.4327],[5.5666,61.3608,89.4825],[5.5809,61.3302,656.5167],[5.5901,61.3312,722.4995],[5.5942,61.3224,570.0002],[5.6033,61.3234,686.7155],[5.6074,61.3146,587.048],[5.6165,61.3156,625.9024],[5.6186,61.3112,634.8157],[5.6277,61.3122,579.4901],[5.6298,61.3078,746.8927],[5.6481,61.3098,622.4393],[5.6542,61.2966,593.5391],[5.6633,61.2976,504.7049],[5.6653,61.2932,497.5],[5.6745,61.2942,526.5036],[5.6765,61.2898,564.3342],[5.6857,61.2908,413.3027],[5.6877,61.2864,437.7195],[5.6968,61.2874,684.02],[5.6989,61.283,770.0198],[5.708,61.284,633.0992],[5.7141,61.2708,737.5772],[5.7232,61.2718,762.107],[5.7252,61.2674,669.0898],[5.7344,61.2684,723.1236],[5.7404,61.2553,642.8858],[5.7313,61.2543,657.6887],[5.7333,61.2499,639.0],[5.7516,61.2518,648.377],[5.7536,61.2475,687.2665],[5.7445,61.2465,689.9254],[5.7465,61.2421,753.1218],[5.7374,61.2412,750.2488],[5.7394,61.2368,877.1857],[5.7211,61.2349,711.7969],[5.7231,61.2305,830.1014],[5.7688,61.2353,593.4979],[5.7708,61.2309,613.3668],[5.7982,61.2338,784.2043],[5.7962,61.2382,755.9832],[5.8693,61.2458,382.1891],[5.8673,61.2502,467.8594],[5.8764,61.2512,386.3109],[5.8724,61.2599,545.2481],[5.8816,61.2609,575.3265],[5.8796,61.2653,666.4534],[5.9161,61.2691,751.7279],[5.9141,61.2735,872.7396],[5.9233,61.2744,829.9938],[5.9213,61.2788,904.091],[5.9304,61.2798,885.6984],[5.9265,61.2885,899.2063],[5.9356,61.2895,874.0],[5.9376,61.2851,877.1188],[5.9925,61.2908,1070.7278],[5.9945,61.2864,1039.1844],[6.022,61.2893,907.0149],[6.0239,61.2849,900.1991],[6.0514,61.2877,1020.863],[6.0534,61.2833,945.6025],[6.1449,61.2927,1100.7753],[6.1548,61.2708,1119.926],[6.1639,61.2718,921.5698],[6.1659,61.2674,868.5627],[6.175,61.2683,720.4354],[6.177,61.2639,713.9373],[6.1861,61.2649,816.5045],[6.1842,61.2692,901.3829],[6.2025,61.2711,951.0042],[6.2005,61.2755,1106.2953],[6.2097,61.2764,1122.1244],[6.2077,61.2808,1148.7451],[6.2261,61.2827,1066.3779],[6.2241,61.2871,1322.9601],[6.3615,61.301,906.7922],[6.3596,61.3054,818.9674],[6.378,61.3072,689.5223],[6.376,61.3116,715.6993],[6.4035,61.3144,1106.8716],[6.4016,61.3188,1019.1488],[6.4108,61.3197,939.3156],[6.4031,61.3372,620.7441],[6.3939,61.3363,617.393],[6.39,61.3451,700.2065],[6.3808,61.3442,660.5233],[6.377,61.3529,1124.2687],[6.3861,61.3539,1141.0594],[6.3784,61.3714,1194.6829],[6.3692,61.3705,1090.6958],[6.3673,61.3749,1177.7932],[6.3489,61.373,1022.2377],[6.3469,61.3774,1089.3179],[6.3378,61.3765,1217.3771],[6.3358,61.3809,1237.4423],[6.3266,61.38,1236.9132],[6.3247,61.3843,811.2312],[6.3155,61.3834,710.8388],[6.3135,61.3878,700.9083],[6.3043,61.3869,723.6849],[6.3024,61.3913,687.338],[6.2932,61.3903,697.9263],[6.2913,61.3947,618.6536],[6.2637,61.3919,296.0],[6.2617,61.3963,296.0],[6.1698,61.387,761.5541],[6.1679,61.3914,847.435],[6.1587,61.3904,640.0692],[6.1567,61.3948,557.5351],[6.1383,61.3929,529.3881],[6.1363,61.3973,619.8724],[6.118,61.3954,884.9],[6.1199,61.3911,798.2968],[6.1108,61.3901,791.7599],[6.1127,61.3857,717.3118],[6.1036,61.3848,716.8026],[6.1055,61.3804,844.0018],[6.0963,61.3795,847.9772],[6.0983,61.3751,963.7828],[6.0891,61.3741,846.4076],[6.0911,61.3698,936.4144],[6.0819,61.3688,861.7695],[6.0839,61.3644,916.7012],[6.0656,61.3626,1052.9222],[6.0636,61.3669,1080.8442],[6.0544,61.366,1007.1012],[6.0485,61.3791,895.3364],[6.0026,61.3744,596.2254],[6.0045,61.37,595.8863],[5.9495,61.3643,867.8191],[5.9515,61.36,905.6746],[5.924,61.3571,999.5435],[5.926,61.3527,840.2841],[5.9168,61.3518,816.4069],[5.9148,61.3561,1042.3503],[5.9056,61.3552,962.528],[5.9036,61.3596,909.2762],[5.8945,61.3586,806.0524],[5.8924,61.363,823.2525],[5.8833,61.362,724.5605],[5.8793,61.3708,665.3624],[5.8609,61.368899999999996,630.1705],[5.8448,61.4039,411.522],[5.8356,61.403,492.8203],[5.8276,61.4205,371.0773],[5.8092,61.4186,342.0592],[5.8072,61.4229,350.9357],[5.7888,61.421,511.556],[5.7868,61.4254,546.9351],[5.7684,61.4235,493.7422],[5.7704,61.4191,493.6414],[5.6786,61.4094,881.1042],[5.6766,61.4138,739.1868],[5.6582,61.4119,802.8199],[5.6561,61.4162,773.2618],[5.6378,61.4143,758.892],[5.6357,61.4187,710.1633],[5.6174,61.4167,788.9907],[5.6153,61.4211,910.9108],[5.597,61.4192,944.3868],[5.5952,61.4229,1034.7003],[5.5674,61.4206,1074.1261],[5.5653,61.425,1150.3308],[5.547,61.423,1210.3242],[5.5449,61.4274,993.0931],[5.4806,61.4205,938.8052],[5.4786,61.4249,777.2654],[5.4694,61.4239,730.8036],[5.4673,61.4283,638.925],[5.4398,61.4254,485.6827],[5.4377,61.4297,477.0],[5.4285,61.4287,477.0],[5.4306,61.4244,486.1946],[5.4214,61.4234,619.0481],[5.4297,61.4059,432.3961],[5.4206,61.4049,618.2579],[5.4268,61.3918,198.8029],[5.4176,61.3908,381.9959],[5.4202,61.3854,0.0]]]]}
,"properties": {"GID_2": "NOR.14.10_1","GID_0": "NOR","country": "Norway","GID_1": "NOR.14_1","province": "SognogFjordane","NL_NAME_1": "NA","county": "Gaular","VARNAME_2": "NA","NL_NAME_2": "NA","TYPE_2": "Kommuner","ENGTYPE_2": "Municipality","CC_2": "NA","HASC_2": "NO.SF.GA","name": "Gaular.county","area_km2": 576.1883,"hist_schema_id": "Elevation0-9000","hist_area_km2": {"0": 6.2172,"25": 4.5111,"50": 5.0918,"75": 4.9404,"100": 5.5098,"125": 8.9211,"150": 23.1408,"175": 14.8465,"200": 13.8053,"225": 13.1322,"250": 13.1136,"275": 11.091,"300": 15.0806,"325": 14.2296,"350": 15.4764,"375": 14.3119,"400": 15.9792,"425": 16.4275,"450": 15.7668,"475": 15.6862,"500": 16.6007,"525": 15.5646,"550": 15.587,"575": 17.1243,"600": 17.1762,"625": 16.4042,"650": 18.3443,"675": 17.517,"700": 17.0074,"725": 16.6705,"750": 14.9519,"775": 13.4779,"800": 12.625,"825": 12.4509,"850": 11.625,"875": 11.3406,"900": 11.1274,"925": 10.7113,"950": 9.7949,"975": 9.3263,"1000": 7.9645,"1025": 7.3444,"1050": 6.2266,"1075": 5.3218,"1100": 4.63,"1125": 3.4802,"1150": 2.4412,"1175": 1.7591,"1200": 1.1696,"1225": 0.9563,"1250": 0.7428,"1275": 0.5495,"1300": 0.4989,"1325": 0.3666,"1350": 0.0305}}}