{"type":"Feature","properties":{"GID_2":"NOR.9.3_1","GID_0":"NOR","country":"Norway","GID_1":"NOR.9_1","province":"Nord-Trøndelag","NL_NAME_1":"NA","county":"Frosta","VARNAME_2":"NA","NL_NAME_2":"NA","TYPE_2":"Kommuner","ENGTYPE_2":"Municipality","CC_2":"NA","HASC_2":"NO.NT.FR","name":"Frosta.county"},
"geometry":{"type": "MultiPolygon","coordinates": [[[[10.6292,63.5854,6.5371],[10.6229,63.5875,0.0],[10.6172,63.5849,7.0115],[10.6245,63.5807,0.0],[10.6229,63.5792,0.0],[10.6104,63.5792,0.0],[10.6062,63.5771,10.1139],[10.6021,63.5792,0.0],[10.5995,63.5755,11.0311],[10.5901,63.5745,0.0],[10.5932,63.5714,9.1713],[10.588,63.5703,0.0],[10.5859,63.563,0.0],[10.5953,63.5651,0.0],[10.5964,63.5682,0.0],[10.6042,63.5708,0.0],[10.6083,63.5667,1.578],[10.6203,63.5693,0.0],[10.6214,63.5724,0.0],[10.6266,63.5734,0.0],[10.6276,63.5787,0.0],[10.6297,63.5807,0.0],[10.639099999999999,63.5839,1.5725],[10.6375,63.5854,0.0],[10.6292,63.5854,6.5371]]],
[[[10.8979,63.6104,0.0],[10.8957,63.6185,154.1007],[10.9057,63.6191,139.7484],[10.9029,63.628,230.7876],[10.9129,63.6286,205.048],[10.9115,63.6331,279.4397],[10.9215,63.6337,231.438],[10.9201,63.6382,300.3088],[10.9301,63.6388,339.868],[10.9244,63.6566,231.1087],[10.9144,63.6559,322.9766],[10.9115,63.6648,275.9756],[10.9015,63.6642,283.8488],[10.8987,63.6731,174.9826],[10.8937,63.6728,109.7268],[10.8932,63.6714,153.1919],[10.888,63.6703,118.1802],[10.887,63.6672,174.7731],[10.8755,63.6641,0.0],[10.8755,63.6609,8.4452],[10.8786,63.6589,154.2329],[10.8708,63.6563,58.7254],[10.8646,63.6563,0.0],[10.8589,63.6536,6.9212],[10.8557,63.6484,39.6922],[10.8505,63.6474,0.0],[10.8495,63.6422,0.0],[10.8474,63.6401,8.2742],[10.8417,63.6375,12.0379],[10.8292,63.6375,0.0],[10.8167,63.6333,26.0169],[10.8042,63.6333,0.0],[10.8,63.6312,15.535],[10.7958,63.6333,0.0],[10.7875,63.6333,0.0],[10.7833,63.6354,0.0],[10.7729,63.6354,0.0],[10.7495,63.6255,3.8753],[10.7354,63.6208,4.5014],[10.7292,63.6208,0.0],[10.7172,63.6161,22.3471],[10.7141,63.6109,11.124],[10.7026,63.6036,0.0],[10.6974,63.5901,31.2108],[10.6854,63.5854,25.1678],[10.6792,63.5854,0.0],[10.6714,63.5828,0.0],[10.6714,63.5797,0.0],[10.6745,63.5786,0.0],[10.6734,63.5755,0.0],[10.6766,63.5734,0.0],[10.6714,63.5703,2.3023],[10.6703,63.5651,0.0],[10.6661,63.5589,0.0],[10.6604,63.5563,0.0],[10.6563,63.5583,0.0],[10.6484,63.5578,0.0],[10.6453,63.5505,2.5645],[10.6318,63.5495,5.512],[10.6297,63.5443,0.0],[10.637,63.5432,0.0],[10.6479,63.5375,0.0],[10.6521,63.5396,28.0128],[10.6625,63.5396,0.0],[10.6667,63.5417,3.4268],[10.6729,63.5417,0.0],[10.6849,63.5464,0.0],[10.6984,63.5557,0.0],[10.7266,63.5651,0.0],[10.7276,63.5682,1.9552],[10.7396,63.5729,0.0],[10.7474,63.5724,0.0],[10.7464,63.5693,0.0],[10.7563,63.5667,0.0],[10.7729,63.5687,0.0],[10.7755,63.5724,0.0],[10.7849,63.5734,0.0],[10.7859,63.5766,27.0486],[10.8042,63.5812,0.0],[10.8146,63.5812,0.0],[10.8224,63.5839,3.2554],[10.8193,63.587,0.0],[10.8271,63.5875,0.0],[10.8313,63.5896,21.4916],[10.8417,63.5896,0.0],[10.8547,63.5974,2.612],[10.8625,63.6,0.0],[10.8703,63.6005,0.0],[10.8714,63.6036,47.6483],[10.8792,63.6042,0.0],[10.887,63.6068,0.0],[10.8886,63.609,31.3711],[10.8979,63.6104,0.0]]]]}}