{"type":"Feature","properties":{"GID_2":"NOR.9.2_1","GID_0":"NOR","country":"Norway","GID_1":"NOR.9_1","province":"Nord-Trøndelag","NL_NAME_1":"NA","county":"Fosnes","VARNAME_2":"NA","NL_NAME_2":"NA","TYPE_2":"Kommuner","ENGTYPE_2":"Municipality","CC_2":"NA","HASC_2":"NO.NT.FO","name":"Fosnes.county"},
"geometry":{"type": "MultiPolygon","coordinates": [[[[11.3188,64.6917,14.2027],[11.3146,64.6937,0.0],[11.3042,64.6896,0.0],[11.2979,64.6896,0.0],[11.2938,64.6875,0.0],[11.2813,64.6875,0.0],[11.2771,64.6854,2.5909],[11.2667,64.6875,0.0],[11.2625,64.6854,0.0],[11.2479,64.6854,0.0],[11.2453,64.6891,0.0],[11.2396,64.6896,0.0],[11.2354,64.6875,22.24],[11.2083,64.6854,0.0],[11.2047,64.6828,8.019],[11.2078,64.6797,0.0],[11.201599999999999,64.6755,16.6709],[11.1964,64.6745,0.0],[11.1953,64.6713,34.5062],[11.1729,64.6708,0.0],[11.1651,64.6672,0.0],[11.1766,64.663,0.0],[11.1688,64.6625,0.0],[11.1646,64.6604,20.0961],[11.1604,64.6625,0.0],[11.1568,64.6589,2.2935],[11.1625,64.6563,0.0],[11.1688,64.6583,2.3342],[11.1729,64.6563,0.0],[11.1974,64.6557,0.0],[11.1974,64.6526,0.0],[11.1958,64.6521,0.0],[11.1792,64.6521,0.0],[11.1688,64.6479,15.2324],[11.1609,64.6474,0.0],[11.1667,64.6438,0.0],[11.1745,64.6432,0.0],[11.1693,64.6412,0.0],[11.1672,64.638,0.0],[11.1755,64.6339,0.0],[11.1792,64.6333,0.0],[11.1833,64.6354,0.2174],[11.2021,64.6354,0.0],[11.2063,64.6333,0.0],[11.2182,64.6328,0.0],[11.2172,64.6297,0.0],[11.2188,64.6292,0.0],[11.2292,64.6292,0.0],[11.2328,64.6318,0.0],[11.2359,64.637,0.0],[11.2479,64.6375,0.0],[11.2536,64.6349,0.0],[11.2526,64.6318,0.0],[11.264099999999999,64.6266,0.0],[11.2672,64.6193,34.0657],[11.2703,64.6182,55.6306],[11.2734,64.613,0.0],[11.2792,64.6104,0.0],[11.2911,64.6099,87.1701],[11.2901,64.6047,0.0],[11.2958,64.6021,0.0],[11.3063,64.6021,1.8305],[11.312,64.5995,38.7831],[11.3109,64.5964,12.2248],[11.3188,64.5958,0.0],[11.3234,64.6016,0.0],[11.3297,64.6057,12.8798],[11.3349,64.6068,0.0],[11.3318,64.6088,0.0],[11.3318,64.612,0.0],[11.3432,64.6151,15.2123],[11.3401,64.6182,31.5315],[11.3495,64.6193,0.0],[11.3495,64.6224,0.0],[11.3464,64.6234,0.0],[11.3474,64.6286,0.0],[11.3443,64.6307,0.0],[11.3505,64.6474,11.3197],[11.3557,64.6484,0.0],[11.3578,64.6505,0.0],[11.3604,64.6583,0.0],[11.3568,64.662,41.2819],[11.3604,64.6687,0.0],[11.3568,64.6713,25.4719],[11.3583,64.6771,0.0],[11.3563,64.6792,0.0],[11.3479,64.6792,54.0857],[11.3417,64.6813,0.0],[11.3313,64.6771,0.0],[11.3271,64.6792,0.0],[11.3125,64.6792,32.6689],[11.3068,64.6818,0.0],[11.3083,64.6833,17.3099],[11.3208,64.6833,0.0],[11.3286,64.6859,0.0],[11.3307,64.6901,0.0],[11.3292,64.6917,0.0],[11.3188,64.6917,14.2027]]],
[[[11.2526,64.688,8.1508],[11.2583,64.6875,0.0],[11.2724,64.6932,0.0],[11.2604,64.6937,0.0],[11.2526,64.6911,5.0867],[11.2526,64.688,8.1508]]],
[[[12.0155,64.675,587.9911],[12.0259,64.6755,620.9276],[12.0246,64.68,656.83],[12.035,64.6805,637.893],[12.0337,64.685,570.7327],[12.0545,64.6861,490.5],[12.0532,64.6905,498.3338],[12.0741,64.6916,537.8199],[12.0728,64.6961,600.7374],[12.0832,64.6966,658.1325],[12.0819,64.7011,657.5242],[12.1028,64.7022,719.7542],[12.1015,64.7066,659.6841],[12.1223,64.7077,657.7373],[12.121,64.7122,603.6385],[12.1419,64.7133,519.264],[12.1406,64.7177,509.5941],[12.151,64.7183,438.5594],[12.1497,64.7227,349.7855],[12.1602,64.7233,217.6137],[12.1576,64.7322,429.0034],[12.168,64.7327,455.21],[12.1668,64.7372,472.1347],[12.1772,64.7377,486.2776],[12.1746,64.7466,456.581],[12.1851,64.7472,533.7556],[12.1838,64.7516,574.9374],[12.1942,64.7522,596.488],[12.1917,64.7611,604.5],[12.2021,64.7616,649.4471],[12.197,64.7795,625.3471],[12.2075,64.78,616.1357],[12.2049,64.7889,691.4171],[12.1944,64.7884,713.5345],[12.1919,64.7973,505.3984],[12.1814,64.7968,571.662],[12.1788,64.8057,496.5908],[12.1998,64.8068,594.4983],[12.1985,64.8112,502.325],[12.188,64.8107,277.5037],[12.1867,64.8151,445.824],[12.1762,64.8146,284.7372],[12.1749,64.8191,298.4828],[12.1645,64.8185,162.5393],[12.1632,64.823,146.5],[12.1422,64.8219,146.5],[12.1409,64.8264,270.3585],[12.1305,64.8258,292.984],[12.1292,64.8303,325.901],[12.1187,64.8298,342.5679],[12.1174,64.8342,321.2225],[12.0964,64.8331,396.059],[12.0977,64.8287,417.2123],[12.0768,64.8276,487.2838],[12.0781,64.8231,498.5748],[12.0152,64.8198,299.9737],[12.0179,64.8109,146.5],[12.0074,64.8104,146.5],[12.01,64.8015,317.4184],[11.9996,64.8009,231.6414],[12.0022,64.792,189.1996],[11.9917,64.7915,221.6362],[11.9931,64.787,206.3268],[11.9721,64.7859,255.1102],[11.9735,64.7814,295.3522],[11.9526,64.7803,360.1131],[11.9539,64.7759,178.8173],[11.9016,64.7731,165.9783],[11.9029,64.7686,247.6422],[11.8925,64.7681,253.6055],[11.8938,64.7636,270.9947],[11.8834,64.7631,287.3244],[11.8847,64.7586,320.8042],[11.8743,64.7581,234.2196],[11.8729,64.7625,303.9688],[11.7685,64.7569,434.3527],[11.7698,64.7524,368.9976],[11.749,64.7513,287.6653],[11.7503,64.7469,351.2526],[11.7294,64.7457,233.2695],[11.7308,64.7413,226.71],[11.7099,64.7401,220.5462],[11.7113,64.7357,217.6566],[11.7008,64.7351,302.9366],[11.7049,64.7217,9.5],[11.6528,64.7189,9.5],[11.6514,64.7233,52.6392],[11.6306,64.7222,9.5],[11.6292,64.7267,18.7206],[11.6083,64.7255,158.8447],[11.607,64.73,114.6399],[11.5861,64.7288,73.0199],[11.5847,64.7333,156.4238],[11.5639,64.7321,14.0],[11.5625,64.7366,14.0],[11.552,64.736,14.0],[11.5507,64.7404,127.4278],[11.5271,64.7375,0.0],[11.5193,64.7349,0.0],[11.5161,64.7297,0.0],[11.5042,64.725,11.9473],[11.4771,64.7208,10.7233],[11.4604,64.7146,29.3833],[11.45,64.7146,0.0],[11.4396,64.7104,22.0538],[11.4271,64.7104,0.0],[11.4229,64.7083,7.6484],[11.4146,64.7125,0.0],[11.4042,64.7125,0.0],[11.4026,64.7109,0.0],[11.4063,64.7083,8.5971],[11.4047,64.7026,0.0],[11.4266,64.6995,0.0],[11.4328,64.6953,0.0],[11.4328,64.6901,0.0],[11.4276,64.6891,0.0],[11.4182,64.6818,0.0],[11.4089,64.6807,0.0],[11.4063,64.6771,181.344],[11.4026,64.6776,48.6847],[11.3995,64.6828,0.0],[11.3964,64.6839,27.8703],[11.3938,64.6875,0.0],[11.3911,64.6839,31.2816],[11.3859,64.6828,0.0],[11.3792,64.6687,0.0],[11.3818,64.6589,0.0],[11.3849,64.6578,37.8565],[11.3839,64.6526,0.0],[11.4078,64.6474,0.0],[11.4078,64.6443,0.0],[11.4063,64.6438,0.0],[11.4,64.6458,0.0],[11.3943,64.6432,0.0],[11.3974,64.6401,91.6615],[11.3943,64.6339,0.0],[11.3974,64.6328,0.0],[11.3984,64.6297,0.0],[11.4068,64.6255,0.0],[11.4125,64.625,11.316],[11.4182,64.6224,0.0],[11.4172,64.6193,0.0],[11.4286,64.6141,2.9166],[11.4297,64.6109,0.0],[11.4391,64.6057,0.0],[11.4401,64.6026,7.172],[11.4458,64.6,0.0],[11.451599999999999,64.5995,0.0],[11.4599,64.5943,19.903],[11.4422,64.5943,0.0],[11.438,64.5964,8.8913],[11.437,64.5995,13.1759],[11.4339,64.6005,33.2175],[11.4349,64.6036,0.0],[11.4318,64.6047,0.0],[11.4307,64.6078,0.0],[11.4234,64.6088,26.6374],[11.4224,64.612,0.0],[11.3938,64.6271,19.2323],[11.3859,64.6245,0.0],[11.3875,64.6229,0.0],[11.3932,64.6224,22.3343],[11.3932,64.6193,0.0],[11.3911,64.6172,33.104],[11.3776,64.6172,6.0991],[11.3792,64.6208,0.0],[11.3755,64.6245,7.9074],[11.3807,64.6286,16.4766],[11.3734,64.6297,27.6715],[11.3766,64.6391,0.0],[11.3646,64.6417,0.0],[11.3568,64.6391,0.0],[11.3563,64.6375,0.0],[11.3568,64.6359,0.0],[11.3641,64.6328,65.4083],[11.3604,64.6229,0.0],[11.3641,64.6203,20.6192],[11.363,64.6172,0.0],[11.3661,64.6162,26.3544],[11.3672,64.613,0.0],[11.3745,64.6099,27.4001],[11.3724,64.6047,40.5149],[11.3672,64.6036,0.0],[11.3703,64.6016,20.1644],[11.3693,64.5984,0.0],[11.3771,64.5979,0.0],[11.3828,64.595,0.0],[11.3949,64.5957,35.9183],[11.3963,64.5913,27.7943],[11.4066,64.5919,90.3151],[11.408,64.5874,83.503],[11.4184,64.588,24.5],[11.4198,64.5835,132.7497],[11.4302,64.5841,202.3518],[11.4316,64.5797,245.7815],[11.442,64.5803,212.2525],[11.4447,64.5714,199.5756],[11.4655,64.5725,56.3271],[11.4627,64.5814,73.1325],[11.4721,64.582,54.9486],[11.4703,64.5909,44.7298],[11.4807,64.5915,320.916],[11.4779,64.6004,242.6664],[11.4883,64.601,131.7652],[11.4869,64.6055,129.8167],[11.4973,64.606,44.0],[11.4959,64.6105,44.0],[11.5062,64.6111,44.0],[11.5049,64.6155,53.047],[11.5152,64.6161,51.8981],[11.5139,64.6206,115.1354],[11.5242,64.6211,62.7464],[11.5229,64.6256,157.1475],[11.5332,64.6262,139.3597],[11.5319,64.6306,145.1672],[11.563,64.6324,329.3665],[11.5617,64.6368,312.5684],[11.5824,64.638,262.946],[11.5838,64.6335,338.8882],[11.6566,64.6376,189.3367],[11.6579,64.6331,109.5604],[11.7203,64.6365,249.8307],[11.7217,64.6321,242.2792],[11.7944,64.636,502.0959],[11.7958,64.6316,490.6369],[11.9102,64.6377,483.8085],[11.9088,64.6422,544.8489],[11.9296,64.6433,498.4675],[11.9283,64.6477,505.669],[11.9387,64.6483,478.4887],[11.9374,64.6527,438.2112],[11.9582,64.6538,347.8095],[11.9569,64.6583,323.986],[11.9777,64.6594,481.497],[11.9764,64.6639,411.7559],[11.9868,64.6644,453.7428],[11.9855,64.6689,399.8618],[12.0063,64.67,470.4646],[12.005,64.6744,568.2726],[12.0155,64.675,587.9911]]]]}}