{"type": "Feature","id": "923","bbox": [9.77013,58.95563,10.56105,59.69584],"geometry": {"type": "MultiPolygon","coordinates": [[[[10.43466,59.08678,0.0],[10.43051,59.09638,6.2354],[10.43116,59.09972,0.0],[10.43491,59.10598,1.9475],[10.43466,59.11103,0.0],[10.43214,59.11583,0.2517],[10.42921,59.11799,14.6739],[10.42408,59.10875,0.8256],[10.42156,59.09809,27.7591],[10.42579,59.08031,0.0],[10.4336,59.06721,35.8836],[10.44402,59.06269,0.0],[10.45053,59.0646,4.1283],[10.45248,59.06916,4.5418],[10.4524,59.08735,0.0],[10.44988,59.0941,10.6049],[10.44532,59.0926,14.7098],[10.43889,59.08641,0.0],[10.43466,59.08678,0.0]]],
[[[10.56105,59.21573,0.0],[10.54363,59.21971,0.0],[10.53826,59.21312,3.3678],[10.56064,59.20844,1.5491],[10.56105,59.21573,0.0]]],
[[[10.53826,59.37417,14.1738],[10.53826,59.38414,2.2838],[10.53614,59.38491,20.8604],[10.52727,59.38752,0.0],[10.51637,59.39204,16.135],[10.51726,59.38508,0.6833],[10.51173,59.37918,0.0],[10.52206,59.37226,2.3505],[10.53338,59.36664,0.6077],[10.53826,59.37417,14.1738]]],
[[[10.29721,59.6918,143.5855],[10.28443,59.69571,136.9265],[10.28301,59.69584,141.863],[10.27863,59.69041,142.5158],[10.16613,59.69558,135.6625],[10.12846,59.69072,153.6764],[10.07135,59.66525,453.3207],[10.05332,59.68302,343.3366],[10.03301,59.68463,369.4234],[9.9494,59.64344,18.0],[9.9295,59.62835,197.9677],[9.92811,59.61429,380.2502],[9.93245,59.60752,431.0981],[9.94206,59.59931,485.3358],[9.98754,59.57507,442.7815],[10.02572,59.54934,421.1888],[10.0636,59.50903,194.4692],[10.06546,59.50169,157.3157],[10.06577,59.50102,157.3157],[10.06577,59.49983,184.8929],[10.04929,59.49596,177.6988],[10.01859,59.49254,95.191],[9.78491,59.49198,416.4991],[9.77695,59.48422,558.845],[9.77385,59.47709,508.2063],[9.78274,59.43219,512.4486],[9.77013,59.36878,510.4796],[9.77835,59.34868,529.4447],[9.78739,59.33659,394.022],[9.86852,59.28129,206.5919],[9.86279,59.26724,202.9871],[9.86279,59.26305,206.3387],[9.87349,59.24145,280.5634],[9.87628,59.21928,70.5355],[9.88403,59.20435,121.7484],[9.88139,59.19944,24.2131],[9.86914,59.19143,234.2174],[9.85364,59.18429,184.5312],[9.84093,59.17685,234.0778],[9.83266,59.169,73.5608],[9.83142,59.16225,143.7074],[9.83406,59.15122,146.4415],[9.84527,59.1358,150.8151],[9.85287,59.12208,165.5475],[9.85519,59.10823,128.797],[9.85039,59.08875,139.2758],[9.84543,59.07577,107.9854],[9.84667,59.03733,49.6704],[9.82734,59.01857,83.2623],[9.82718,59.0184,83.2623],[9.83676,59.00934,0.0],[9.84523,58.98933,0.0],[9.83888,58.97187,17.4947],[9.81219,58.96345,0.0],[9.8462,58.95563,0.0],[9.95737,58.95669,0.0],[9.98365,58.96088,0.0],[10.01482,58.97313,0.0],[10.03338,58.99348,27.9377],[10.01677,59.03368,30.1907],[10.03346,59.03107,0.0],[10.05372,59.02285,0.0],[10.05942,59.01813,0.0],[10.07651,59.02131,9.3575],[10.10377,59.03539,12.8501],[10.11793,59.03856,16.4383],[10.14877,59.05158,14.7382],[10.16342,59.05231,0.0],[10.16969,59.03547,0.0],[10.16188,59.02753,34.6142],[10.12566,59.01455,0.0],[10.11451,59.00507,0.0],[10.1408,58.99995,0.0],[10.17498,59.00532,0.0],[10.20704,59.01642,0.0],[10.22779,59.02896,0.0],[10.23219,59.04035,1.6528],[10.22592,59.05024,36.8187],[10.21656,59.05891,30.9359],[10.21127,59.06656,4.2244],[10.21274,59.07811,5.7016],[10.22267,59.1009,6.0455],[10.22438,59.11433,0.0],[10.23113,59.11433,3.1307],[10.2601,59.04999,0.0],[10.26246,59.03856,0.0],[10.26954,59.0478,25.367],[10.26808,59.09467,49.1272],[10.27215,59.11433,0.0],[10.28199,59.09968,11.3794],[10.28663,59.0843,0.0],[10.29265,59.07014,0.0],[10.3069,59.05972,17.6094],[10.29591,59.0847,4.852],[10.28696,59.11489,14.9228],[10.28981,59.13459,0.0],[10.31373,59.128,8.0341],[10.31178,59.13972,21.0557],[10.31316,59.15937,29.487],[10.31715,59.17959,5.7983],[10.32838,59.20222,26.3788],[10.33025,59.20966,33.1706],[10.33473,59.21479,51.1731],[10.36199,59.21955,4.4372],[10.36476,59.22598,4.5148],[10.36085,59.23786,40.8927],[10.36109,59.24518,49.6667],[10.35914,59.26508,63.7648],[10.36085,59.27131,51.8968],[10.37159,59.27375,1.0366],[10.41619,59.26508,9.263],[10.45118,59.24897,4.3401],[10.46957,59.24779,1.8737],[10.47755,59.26822,23.2093],[10.48707,59.28413,25.7715],[10.50473,59.2934,2.1491],[10.51417,59.30292,45.0521],[10.49871,59.31977,3.9323],[10.46168,59.33576,53.9347],[10.44451,59.34894,81.9598],[10.44679,59.36473,66.0117],[10.47218,59.39387,24.288],[10.48032,59.4121,24.1434],[10.47755,59.42963,0.0],[10.45899,59.44086,15.2661],[10.3694,59.45527,0.0],[10.33131,59.49506,0.0],[10.31031,59.50471,0.0],[10.29103,59.51057,20.7479],[10.26791,59.52505,192.7659],[10.24781,59.54316,25.8552],[10.23732,59.55996,3.2028],[10.26938,59.55903,6.3347],[10.33277,59.53262,0.4561],[10.36427,59.52582,0.0],[10.38103,59.53535,54.704],[10.39015,59.55829,42.2139],[10.39422,59.58637,1.0244],[10.39487,59.61115,48.0302],[10.39088,59.63817,134.7713],[10.37924,59.65835,65.4398],[10.36004,59.67276,176.5593],[10.29721,59.6918,143.5855]]]]}
,"properties": {"ISO3166-1-Alpha-3": "NOR","country": "Norway","fill": "#FF0","name": "Vestfold","area_km2": 2149.021,"hist_schema_id": "Elevation0-9000","hist_area_km2": {"0": 135.657,"25": 280.927,"50": 270.672,"75": 290.25,"100": 235.264,"125": 170.199,"150": 129.647,"175": 101.526,"200": 81.977,"225": 64.556,"250": 56.957,"275": 47.367,"300": 39.36,"325": 35.897,"350": 32.709,"375": 26.573,"400": 27.197,"425": 24.612,"450": 28.869,"475": 25.406,"500": 21.493,"525": 14.606,"550": 5.954,"575": 1.066,"600": 0.279}}}