{"type": "Feature","bbox": [9.7505,58.9368,10.5953,59.6924],"geometry": {"type": "MultiPolygon","coordinates": [[[[10.5214,59.0488,0.0],[10.5214,59.0521,0.0],[10.5186,59.0521,0.0],[10.5181,59.0476,1.2594],[10.5214,59.0488,0.0]]],
[[[10.5158,59.054,0.0],[10.5153,59.0601,0.0],[10.5142,59.0601,0.0],[10.5119,59.0588,0.0],[10.5114,59.0551,3.2335],[10.5158,59.054,0.0]]],
[[[10.4986,59.1035,0.3425],[10.4975,59.1063,2.395],[10.4947,59.1065,2.395],[10.4947,59.104,4.1003],[10.4986,59.1035,0.3425]]],
[[[10.4992,59.1449,8.5104],[10.4975,59.1471,0.0],[10.4947,59.1471,0.0],[10.4931,59.1437,0.0],[10.5003,59.1418,0.0],[10.5008,59.1435,1.1005],[10.4992,59.1449,8.5104]]],
[[[10.5358,59.0557,0.0],[10.5369,59.0582,0.0],[10.5353,59.0585,0.0],[10.5319,59.0532,0.0],[10.5342,59.0529,0.0],[10.5358,59.0557,0.0]]],
[[[10.5253,59.0729,5.5016],[10.5225,59.0746,5.1447],[10.5197,59.0726,0.0],[10.5203,59.0682,10.6441],[10.5175,59.0663,3.3377],[10.5242,59.0596,0.0],[10.5264,59.0596,0.0],[10.5292,59.0624,0.0],[10.5275,59.0713,0.0],[10.5253,59.0729,5.5016]]],
[[[10.5781,59.1682,1.4517],[10.5792,59.1682,1.4517],[10.5786,59.1732,2.2533],[10.5769,59.1721,0.0],[10.5781,59.1682,1.4517]]],
[[[10.5397,59.1724,0.0],[10.5369,59.1735,0.8025],[10.5392,59.1676,0.7081],[10.5408,59.1679,0.7081],[10.5397,59.1724,0.0]]],
[[[10.4881,59.159,0.0],[10.4864,59.1607,0.0],[10.4819,59.1607,0.0],[10.4808,59.159,1.9583],[10.4814,59.1568,0.113],[10.4864,59.1554,5.4487],[10.4831,59.1549,2.9757],[10.4831,59.1526,2.0985],[10.4853,59.1512,0.0],[10.4892,59.1526,1.1685],[10.4881,59.159,0.0]]],
[[[10.4886,59.1638,2.6953],[10.4892,59.1662,3.2415],[10.4869,59.1674,0.3217],[10.4869,59.1643,0.0],[10.4886,59.1638,2.6953]]],
[[[10.4931,59.1696,1.8674],[10.4908,59.1715,1.65],[10.4886,59.1701,0.0],[10.4914,59.1643,0.0],[10.4986,59.1638,1.4029],[10.4975,59.1654,4.9992],[10.4986,59.1679,1.4021],[10.4931,59.1696,1.8674]]],
[[[10.4936,59.1815,0.0],[10.4931,59.1829,0.8743],[10.4881,59.1835,2.6278],[10.4842,59.181,0.0],[10.4853,59.1799,3.1494],[10.4842,59.1768,0.0],[10.4869,59.1729,0.0],[10.4925,59.176,0.0],[10.4919,59.1799,1.0202],[10.4947,59.1799,0.0],[10.4936,59.1815,0.0]]],
[[[10.5947,59.1746,0.3777],[10.5953,59.1782,1.0766],[10.5925,59.176,0.8279],[10.5925,59.1743,0.4958],[10.5947,59.1746,0.3777]]],
[[[10.5292,59.1776,0.0],[10.5275,59.1804,1.3993],[10.5247,59.1793,1.8641],[10.5275,59.1763,-0.0124],[10.5292,59.1776,0.0]]],
[[[10.5392,59.1813,0.6394],[10.5375,59.1832,0.0],[10.5325,59.1824,6.9239],[10.5347,59.1782,0.6801],[10.5386,59.1787,0.0],[10.5408,59.1771,3.8016],[10.5403,59.1757,0.6472],[10.5447,59.174,4.1182],[10.5453,59.1765,0.0],[10.5392,59.1813,0.6394]]],
[[[10.5269,59.1838,20.5834],[10.5275,59.1804,1.3993],[10.5314,59.1821,6.9239],[10.5308,59.1865,3.3447],[10.5258,59.1907,0.0],[10.5231,59.1882,1.0582],[10.5258,59.1871,5.4819],[10.5269,59.1838,20.5834]]],
[[[10.4681,59.1179,0.0],[10.4675,59.124,0.0],[10.4636,59.124,0.0],[10.4592,59.1199,10.1494],[10.4625,59.1143,0.0],[10.4669,59.1126,0.0],[10.4708,59.1146,3.2329],[10.4681,59.1179,0.0]]],
[[[10.4514,59.1329,7.5862],[10.4508,59.1418,1.3628],[10.4469,59.1418,7.1184],[10.4442,59.1404,17.2643],[10.4431,59.1349,7.7521],[10.4392,59.1338,0.0],[10.4386,59.1312,0.0],[10.4453,59.1274,3.7322],[10.4481,59.1285,0.0],[10.4475,59.1299,2.5874],[10.4514,59.1329,7.5862]]],
[[[10.4714,59.1399,3.0911],[10.4681,59.1426,0.0],[10.4653,59.1349,2.9484],[10.4686,59.1335,0.0],[10.4708,59.1357,0.0],[10.4703,59.1371,1.3115],[10.4725,59.1382,1.3115],[10.4714,59.1399,3.0911]]],
[[[10.4714,59.1496,3.3647],[10.4703,59.1512,0.267],[10.4658,59.1507,0.0],[10.4692,59.1482,0.0],[10.4719,59.1485,0.0],[10.4714,59.1496,3.3647]]],
[[[10.3536,59.1676,0.0],[10.3469,59.169,0.0],[10.3464,59.1665,3.3859],[10.3431,59.1665,1.6766],[10.3436,59.1646,2.0997],[10.3386,59.1576,0.0],[10.3342,59.1426,0.0],[10.3347,59.1413,0.0],[10.3375,59.1415,1.7881],[10.3392,59.1426,0.7764],[10.3386,59.1446,10.3439],[10.3403,59.1446,2.3699],[10.3425,59.1382,0.3163],[10.3464,59.1382,0.0],[10.3469,59.1413,10.8078],[10.3486,59.1418,0.5448],[10.3481,59.1465,0.4484],[10.3531,59.1449,0.0],[10.3531,59.1482,5.7887],[10.3547,59.1488,12.8243],[10.3558,59.1393,1.6657],[10.3575,59.1387,0.0],[10.3575,59.1357,0.0],[10.3597,59.1351,0.0],[10.3658,59.1387,1.2262],[10.3642,59.1415,0.0],[10.3681,59.1479,0.0],[10.3642,59.1543,0.0],[10.3642,59.1593,0.0],[10.3608,59.1632,4.3154],[10.3619,59.1646,0.0],[10.3597,59.1654,0.0],[10.3564,59.1638,2.0358],[10.3575,59.1651,2.0358],[10.3564,59.1671,0.0],[10.3536,59.1676,0.0]]],
[[[10.3575,59.1832,35.3619],[10.3575,59.1851,6.9515],[10.3553,59.1854,6.9515],[10.3503,59.1801,20.5887],[10.3497,59.1782,13.2147],[10.3525,59.1746,13.1653],[10.3564,59.1738,19.4484],[10.3592,59.1757,16.8656],[10.3592,59.1821,5.3785],[10.3575,59.1832,35.3619]]],
[[[10.3425,59.196,5.8831],[10.3408,59.1979,5.9279],[10.3364,59.1965,1.9638],[10.3392,59.1879,7.2437],[10.3408,59.1871,7.2437],[10.3447,59.1876,6.2102],[10.3453,59.1896,23.7395],[10.3442,59.1949,16.8049],[10.3425,59.196,5.8831]]],
[[[10.3486,59.2004,0.0],[10.3497,59.1999,0.0],[10.3503,59.2049,0.0],[10.3442,59.2049,0.0],[10.3442,59.204,0.0],[10.3486,59.2004,0.0]]],
[[[10.4614,59.174,0.0],[10.4519,59.1746,9.2452],[10.4531,59.1721,6.3391],[10.4503,59.1707,2.6888],[10.4486,59.1668,0.0],[10.4542,59.1601,0.0],[10.4592,59.1596,0.0],[10.4586,59.1629,0.0],[10.4608,59.1662,3.0377],[10.4608,59.1699,2.5417],[10.4631,59.171,0.9833],[10.4614,59.174,0.0]]],
[[[10.4758,59.1735,0.0],[10.4775,59.174,0.0],[10.4769,59.1763,4.5116],[10.4742,59.176,0.0],[10.4742,59.1738,0.8632],[10.4758,59.1735,0.0]]],
[[[10.4686,59.209,5.1643],[10.4681,59.2121,0.0],[10.4647,59.2121,0.0],[10.4625,59.2099,0.0],[10.4581,59.2004,7.9741],[10.4602,59.1965,1.1626],[10.4719,59.1951,0.0],[10.4736,59.1999,11.0317],[10.4758,59.2001,0.0],[10.4764,59.2062,4.0142],[10.4686,59.209,5.1643]]],
[[[10.4475,59.1738,22.0224],[10.4519,59.1746,9.2452],[10.4564,59.1793,11.7515],[10.4669,59.1774,0.0],[10.4681,59.1799,3.28],[10.4703,59.1804,0.0],[10.4703,59.1824,5.1966],[10.4719,59.1824,5.1966],[10.4692,59.1874,0.5891],[10.4658,59.1829,4.7103],[10.4597,59.1818,6.5534],[10.4681,59.1904,0.0],[10.4625,59.1949,11.3683],[10.4553,59.1979,4.2641],[10.4553,59.2007,5.4701],[10.4581,59.2049,5.151],[10.4531,59.2074,1.1267],[10.4581,59.2079,0.0],[10.4569,59.2126,0.5002],[10.4603,59.2146,0.0],[10.4586,59.2179,0.0],[10.4603,59.2193,0.0],[10.4581,59.2221,6.6513],[10.4625,59.2229,4.5319],[10.4631,59.2212,0.0],[10.4658,59.2212,0.0],[10.4669,59.2224,0.0],[10.4642,59.2321,4.9087],[10.4614,59.2346,2.498],[10.4719,59.2318,0.0],[10.4758,59.2343,0.7955],[10.4758,59.2365,0.0],[10.4719,59.2399,3.9562],[10.4597,59.2438,2.4344],[10.4531,59.2432,2.2613],[10.4519,59.2393,1.1929],[10.4497,59.2393,9.5395],[10.4464,59.241,0.0],[10.4464,59.2451,0.0],[10.4436,59.2457,0.0],[10.4425,59.2429,2.8075],[10.4375,59.2412,1.5678],[10.4403,59.231,6.5492],[10.4558,59.2232,3.7948],[10.4447,59.2246,0.0682],[10.4414,59.2265,0.6939],[10.4414,59.229,1.391],[10.4375,59.2313,0.8275],[10.4369,59.236,1.2904],[10.4314,59.2365,0.2967],[10.4292,59.2388,10.2666],[10.4336,59.2418,0.0],[10.4336,59.2446,0.7046],[10.4269,59.2485,1.5325],[10.4303,59.2521,0.0607],[10.4269,59.2521,3.469],[10.4269,59.2551,2.7399],[10.4242,59.2588,0.696],[10.4319,59.261,0.0],[10.4297,59.2696,0.0],[10.4364,59.2704,0.4961],[10.4375,59.269,0.4961],[10.4419,59.269,1.2784],[10.4386,59.2676,0.02],[10.4397,59.2621,0.0],[10.4447,59.2604,0.3672],[10.4442,59.2565,4.9546],[10.4503,59.2535,2.1321],[10.4469,59.2487,1.1196],[10.4508,59.2465,0.0],[10.4542,59.2474,1.9686],[10.4597,59.2443,2.4344],[10.4692,59.2451,0.3001],[10.4692,59.2474,1.8737],[10.4736,59.2476,0.7217],[10.4781,59.2507,2.5122],[10.4792,59.2562,0.0],[10.4781,59.2593,1.6099],[10.4825,59.2601,0.0],[10.4831,59.2624,3.0947],[10.4864,59.2626,0.6197],[10.4853,59.264,1.5663],[10.4875,59.2651,0.0],[10.4903,59.2643,1.4036],[10.4908,59.2585,0.0],[10.5047,59.2546,0.0],[10.5053,59.2557,0.0],[10.5019,59.2565,0.0],[10.5031,59.259,0.0],[10.5014,59.2613,1.5289],[10.4925,59.2671,0.0],[10.4914,59.2701,2.3717],[10.4942,59.2721,0.0],[10.4925,59.2757,0.5531],[10.4958,59.2774,1.8522],[10.5008,59.2762,0.1847],[10.5031,59.2804,0.0],[10.5053,59.2813,0.0],[10.5058,59.2832,0.0],[10.4997,59.2837,0.8525],[10.4986,59.2885,2.1371],[10.5014,59.2915,1.4977],[10.5214,59.2938,9.7914],[10.5219,59.2974,9.2098],[10.5203,59.3004,0.9911],[10.5219,59.3051,7.5202],[10.5286,59.309,0.0],[10.5287,59.311,0.0],[10.5258,59.3126,7.52],[10.5308,59.3165,0.0],[10.5253,59.3171,1.0183],[10.5253,59.3201,0.0],[10.5192,59.3235,0.6463],[10.5131,59.3232,8.587],[10.5075,59.3254,5.6724],[10.4981,59.3226,0.7359],[10.4969,59.3288,0.9265],[10.4925,59.3315,0.97],[10.4919,59.334,0.0],[10.4875,59.334,0.0],[10.4842,59.3371,11.6601],[10.4842,59.341,3.2668],[10.4825,59.3429,0.0],[10.4736,59.3474,1.8693],[10.4731,59.3507,0.0],[10.4708,59.3496,6.7111],[10.4692,59.3513,0.0],[10.4669,59.3613,0.0],[10.4614,59.3699,12.7243],[10.4669,59.3765,0.0],[10.4725,59.3771,0.0],[10.4736,59.3804,2.1576],[10.4786,59.3824,0.0],[10.4803,59.3854,0.0],[10.4797,59.3913,0.0],[10.4825,59.3921,0.0],[10.4769,59.3932,19.2899],[10.4775,59.396,14.1202],[10.4814,59.3963,0.0],[10.4858,59.4015,0.0],[10.4875,59.4093,0.7328],[10.4914,59.4138,3.0519],[10.4947,59.4126,0.0],[10.4947,59.4151,0.0],[10.4981,59.4151,0.0],[10.4986,59.419,1.4638],[10.4969,59.4204,20.3723],[10.4986,59.4207,-0.0682],[10.4958,59.4246,6.6032],[10.4964,59.4293,0.961],[10.4936,59.4321,3.9778],[10.4986,59.434,0.0],[10.4903,59.4346,1.3405],[10.4875,59.431,0.0],[10.4914,59.4304,2.2725],[10.4892,59.4285,6.9299],[10.4853,59.4287,5.3818],[10.4819,59.4313,1.7985],[10.4797,59.429,2.2852],[10.4869,59.4232,3.4306],[10.4758,59.4226,2.3873],[10.4564,59.4315,12.2391],[10.4553,59.4332,5.8148],[10.4586,59.4343,0.0],[10.4569,59.4385,0.0],[10.4519,59.4385,12.4101],[10.4419,59.4421,0.9025],[10.4414,59.4451,1.6666],[10.4481,59.4437,0.0],[10.4575,59.4443,5.3988],[10.4558,59.4418,1.7569],[10.4597,59.4393,2.5992],[10.4664,59.4393,1.8328],[10.4669,59.4421,4.0212],[10.4725,59.4418,0.0],[10.4753,59.4413,9.9209],[10.4753,59.4382,1.7549],[10.4781,59.4379,1.4666],[10.4831,59.4454,0.9508],[10.4831,59.451,0.0],[10.4708,59.4493,0.0],[10.4681,59.4476,0.0],[10.4681,59.4437,4.0212],[10.4664,59.4437,12.2185],[10.4658,59.4479,3.5364],[10.4558,59.4454,0.0],[10.4536,59.449,10.0075],[10.4486,59.4504,70.6094],[10.4481,59.4535,3.1],[10.4408,59.4535,3.2993],[10.4397,59.4515,0.0],[10.4319,59.4521,0.0],[10.4331,59.4493,3.6055],[10.4303,59.4479,5.8212],[10.4303,59.4449,7.8188],[10.4319,59.4429,19.9208],[10.4286,59.4413,2.9904],[10.4092,59.4465,2.1588],[10.4081,59.4504,0.0],[10.3975,59.4501,0.0],[10.3908,59.4446,0.0],[10.3903,59.4388,14.3438],[10.3831,59.4388,3.4693],[10.3725,59.4482,5.2392],[10.3703,59.4521,0.0],[10.3608,59.4554,18.1559],[10.3619,59.4574,0.0],[10.3558,59.4612,12.4907],[10.3581,59.4674,5.3137],[10.3575,59.4715,53.1951],[10.3503,59.4813,3.7993],[10.3475,59.4804,28.1274],[10.3442,59.4701,1.3249],[10.3342,59.471,13.1803],[10.3319,59.4751,0.8181],[10.3336,59.4785,0.0],[10.3286,59.4807,6.7384],[10.3269,59.4851,0.0],[10.3297,59.486,0.0],[10.3247,59.4896,1.2765],[10.3247,59.4915,0.0],[10.3208,59.4896,0.1964],[10.3175,59.4899,0.5094],[10.3136,59.4949,0.0],[10.3064,59.4971,0.0],[10.2992,59.5062,5.3686],[10.2919,59.5107,0.0],[10.2947,59.5137,0.0],[10.2825,59.5254,7.9586],[10.2803,59.5315,1.1633],[10.2714,59.5324,0.0],[10.2692,59.5307,2.7674],[10.2653,59.5307,1.9075],[10.2608,59.5329,6.6883],[10.2503,59.5476,0.0],[10.2397,59.5507,8.8965],[10.2386,59.5563,11.3256],[10.2431,59.556,0.0],[10.2436,59.5579,4.3679],[10.2381,59.5593,3.2028],[10.2353,59.5649,0.0],[10.2314,59.5649,8.7549],[10.2303,59.5665,3.1209],[10.2308,59.5693,1.7441],[10.2436,59.5729,0.9369],[10.2475,59.5707,13.4177],[10.2464,59.5699,0.2241],[10.2525,59.5612,0.0],[10.2597,59.5607,0.0],[10.2592,59.5624,3.7437],[10.2664,59.5626,0.1713],[10.2819,59.5513,1.2345],[10.2864,59.5513,1.0393],[10.3019,59.5424,1.2556],[10.3203,59.5379,0.901],[10.3364,59.531,0.0569],[10.3414,59.5326,1.0869],[10.3492,59.5326,1.0992],[10.3608,59.5288,16.2394],[10.3692,59.531,6.8274],[10.3803,59.5299,0.0],[10.3842,59.5337,5.9465],[10.3914,59.5368,0.0],[10.3825,59.5401,0.8701],[10.3842,59.5421,5.9375],[10.3914,59.541,0.0],[10.3919,59.5465,31.4591],[10.3947,59.5499,0.0],[10.3925,59.554,15.6906],[10.3969,59.5551,0.0],[10.3969,59.561,1.0252],[10.4019,59.5621,14.6679],[10.4064,59.5607,15.2718],[10.4092,59.5621,0.0],[10.4092,59.5679,0.0],[10.3969,59.5704,6.3226],[10.3908,59.5765,3.3348],[10.3897,59.5812,0.3697],[10.3925,59.5815,0.3697],[10.3964,59.5887,0.0714],[10.4114,59.5901,0.0],[10.4108,59.5924,0.0],[10.4047,59.5924,4.2471],[10.4036,59.594,0.8145],[10.4075,59.599,0.0],[10.4069,59.6004,11.5476],[10.4142,59.6032,0.251],[10.4086,59.611,4.843],[10.4114,59.6154,4.7013],[10.4108,59.6188,0.1495],[10.4075,59.619,10.4086],[10.4119,59.6221,0.0],[10.4086,59.624,21.781],[10.4036,59.634,3.1627],[10.3969,59.6387,4.1723],[10.3975,59.6401,0.0],[10.3908,59.6432,23.111],[10.3903,59.6493,0.0],[10.3864,59.6515,19.2981],[10.3881,59.6532,4.016],[10.3858,59.6543,13.5192],[10.3886,59.6596,0.0],[10.3803,59.6635,5.2316],[10.3825,59.6654,0.0],[10.3775,59.6688,2.1478],[10.3781,59.6707,1.2461],[10.3753,59.6774,0.0],[10.3736,59.6785,1.375],[10.3669,59.6776,0.0],[10.3658,59.6796,0.0],[10.3636,59.6799,10.5714],[10.3647,59.6829,0.0],[10.3547,59.6857,0.0],[10.3464,59.6901,2.6831],[10.3149,59.6924,0.0],[10.3187,59.6791,239.1851],[10.3099,59.6785,256.4554],[10.3125,59.6696,240.7721],[10.2773,59.667,221.8159],[10.276,59.6714,198.2344],[10.1791,59.6642,265.0244],[10.1778,59.6686,263.1777],[10.1426,59.6659,248.5047],[10.1413,59.6704,333.0798],[10.1061,59.6677,364.9243],[10.1074,59.6633,372.4403],[10.0986,59.6626,386.5852],[10.1012,59.6537,446.2376],[10.0924,59.653,490.8771],[10.0951,59.6442,462.4644],[10.0511,59.6408,522.5766],[10.0498,59.6453,519.4092],[10.0234,59.6432,479.981],[10.0207,59.6521,461.1956],[10.0119,59.6514,333.0067],[10.0106,59.6559,356.4354],[10.0018,59.6552,282.1304],[10.0031,59.6508,247.8989],[9.9768,59.6487,83.9383],[9.9808,59.6354,18.0],[9.972,59.6347,18.0],[9.9773,59.617,18.0],[9.9685,59.6163,47.5414],[9.9699,59.6119,84.6082],[9.9611,59.6112,291.2114],[9.9624,59.6068,319.6478],[9.9536,59.6061,462.2304],[9.955,59.6017,469.7415],[9.9374,59.6003,411.0],[9.9388,59.5959,411.0],[9.93,59.5952,413.8666],[9.9313,59.5907,446.5731],[9.9225,59.5901,421.4988],[9.9293,59.5679,412.5536],[9.938,59.5686,410.0403],[9.942,59.5553,421.2717],[9.9508,59.5559,411.2473],[9.9522,59.5515,426.4116],[9.9609,59.5522,413.1585],[9.9623,59.5478,418.1033],[9.971,59.5484,413.1696],[9.9737,59.5396,547.9723],[9.9825,59.5402,454.9001],[9.9851,59.5314,519.1368],[9.9939,59.532,454.7816],[9.9966,59.5232,499.997],[10.0053,59.5238,488.7505],[10.0093,59.5105,359.4738],[10.0181,59.5112,392.1657],[10.022,59.4979,177.7006],[10.0308,59.4986,215.7362],[10.0334,59.4897,196.8537],[10.0422,59.4904,213.9894],[10.0488,59.4682,233.2505],[10.0051,59.4648,68.7368],[10.0064,59.4604,42.5929],[9.9976,59.4597,58.6072],[9.9963,59.4641,108.5989],[9.9526,59.4608,403.0887],[9.9512,59.4652,396.695],[9.9425,59.4645,372.1069],[9.9438,59.4601,349.0836],[9.9176,59.458,430.8068],[9.9189,59.4536,406.4034],[9.8665,59.4495,173.7466],[9.8651,59.4539,183.5413],[9.8564,59.4533,201.5345],[9.855,59.4577,189.3216],[9.8463,59.457,259.2123],[9.845,59.4614,225.3313],[9.8362,59.4608,251.4041],[9.8349,59.4652,243.845],[9.8261,59.4645,283.9956],[9.8248,59.4689,250.7991],[9.7898,59.4662,503.9544],[9.7911,59.4617,517.7929],[9.7562,59.459,583.6813],[9.7751,59.3969,463.7651],[9.7664,59.3962,473.1286],[9.7718,59.3785,451.1461],[9.7631,59.3778,463.4191],[9.7726,59.3468,582.5674],[9.7639,59.3461,541.6965],[9.7666,59.3372,507.1179],[9.7579,59.3365,552.5566],[9.7592,59.3321,564.8283],[9.7505,59.3314,563.075],[9.7546,59.3181,509.4641],[9.7633,59.3188,568.3134],[9.7646,59.3143,399.6473],[9.7733,59.315,395.4141],[9.776,59.3062,319.5968],[9.7847,59.3069,304.6507],[9.7874,59.298,257.5647],[9.7961,59.2987,271.4805],[9.7975,59.2942,249.8831],[9.8062,59.2949,265.7944],[9.8088,59.2861,206.3556],[9.8175,59.2868,254.4391],[9.8202,59.2779,218.7123],[9.8289,59.2786,324.8517],[9.8303,59.2741,245.6815],[9.839,59.2748,292.4227],[9.8416,59.266,210.5919],[9.8503,59.2666,178.3402],[9.853,59.2578,146.2064],[9.8617,59.2585,243.769],[9.875,59.2141,232.4344],[9.8663,59.2134,111.3224],[9.8796,59.1691,21.5],[9.8363,59.1656,27.8006],[9.8376,59.1612,146.3002],[9.829,59.1605,156.0121],[9.833,59.1472,140.7533],[9.8243,59.1465,165.4878],[9.827,59.1377,143.85],[9.8183,59.137,235.2346],[9.8223,59.1237,216.6535],[9.831,59.1244,218.2177],[9.8336,59.1155,186.6641],[9.8423,59.1162,127.4196],[9.8436,59.1118,147.0079],[9.8523,59.1124,148.8787],[9.8602,59.0858,173.4763],[9.8516,59.0851,115.0648],[9.8529,59.0807,122.9233],[9.8443,59.08,79.0026],[9.8456,59.0756,107.9854],[9.8369,59.0749,128.4169],[9.8462,59.0439,39.2613],[9.8381,59.0432,4.9124],[9.8353,59.0354,0.0],[9.8381,59.0351,6.0213],[9.8386,59.0307,0.0],[9.8358,59.0324,0.0],[9.8342,59.0315,0.0],[9.8364,59.0285,0.0],[9.8403,59.0285,16.5102],[9.8392,59.0268,13.8658],[9.8358,59.0268,0.0],[9.8358,59.0254,0.0],[9.8403,59.024,9.3069],[9.8419,59.0129,3.0135],[9.8464,59.0129,1.0837],[9.8447,59.0146,10.0195],[9.8458,59.0154,1.1205],[9.8475,59.0146,3.9746],[9.8475,59.0126,3.3381],[9.8519,59.0113,6.0817],[9.8503,59.0101,0.6257],[9.8514,59.0074,0.0],[9.8481,59.0054,0.0],[9.8497,59.0043,5.5724],[9.8481,59.001,2.0049],[9.8486,58.9974,0.0],[9.8542,58.9965,1.7756],[9.8547,58.9938,0.0],[9.8569,58.9926,0.0],[9.8547,58.9893,4.2417],[9.8392,58.9896,0.0],[9.8386,58.9921,0.0],[9.8358,58.9918,0.0],[9.8431,58.9843,1.686],[9.8381,58.9851,0.5032],[9.8381,58.9832,0.0],[9.8408,58.9815,0.0],[9.8331,58.9807,0.0],[9.8314,58.9771,1.8975],[9.8275,58.976,0.0],[9.8242,58.9776,0.0],[9.8169,58.9771,0.0],[9.8136,58.981,0.0],[9.8086,58.9804,0.0],[9.8058,58.9854,1.261],[9.8019,58.9863,0.0],[9.8036,58.9846,0.0],[9.8025,58.979,3.8922],[9.8053,58.9768,0.0],[9.8081,58.9771,0.0],[9.8097,58.9801,0.0],[9.8225,58.9707,0.0],[9.8286,58.9688,0.8666],[9.8358,58.9688,5.5487],[9.8364,58.9671,0.0],[9.8397,58.9663,0.0],[9.8481,58.9671,0.728],[9.8519,58.9649,6.209],[9.8475,58.9621,0.0],[9.8503,58.9588,0.0],[9.8569,58.9596,0.0],[9.8581,58.9576,0.8303],[9.8608,58.9576,0.0],[9.8642,58.9601,0.0],[9.8603,58.9635,2.1137],[9.8675,58.9635,0.0],[9.8703,58.9651,0.0],[9.8703,58.9679,0.0],[9.8653,58.9729,0.8434],[9.8669,58.9751,0.0],[9.8775,58.9743,3.5502],[9.8786,58.9724,0.0],[9.8842,58.9707,0.3468],[9.8875,58.9718,0.0],[9.8886,58.9679,0.0],[9.9081,58.9657,0.0],[9.9064,58.9679,3.9483],[9.9086,58.9696,0.0],[9.9242,58.9682,0.0],[9.9236,58.9765,1.1528],[9.9253,58.9771,0.6215],[9.9264,58.9696,0.0],[9.9308,58.9651,0.0],[9.9353,58.9663,0.3244],[9.9369,58.9643,0.0],[9.9458,58.9615,0.0],[9.9486,58.9654,0.0],[9.9631,58.9601,0.0],[9.9647,58.9613,0.0],[9.9642,58.964,2.0635],[9.9681,58.9635,0.0],[9.9753,58.9654,0.0],[9.9703,58.9771,0.0],[9.9658,58.9782,1.9025],[9.9736,58.9832,0.0],[9.9808,58.9821,0.0],[9.9814,58.9782,0.4687],[9.9836,58.9774,0.4687],[9.9853,58.9738,0.3521],[9.9853,58.9693,0.0],[9.9897,58.9682,0.0],[9.9942,58.9696,0.0],[9.9958,58.9735,0.0],[10.0014,58.9712,0.0],[10.0019,58.9735,1.4313],[10.0053,58.9704,0.0],[10.0092,58.9732,1.2277],[10.0092,58.9779,2.6365],[10.0125,58.9788,6.0568],[10.0164,58.9751,0.0],[10.0192,58.9757,0.7105],[10.0186,58.9776,0.3506],[10.0231,58.9771,5.3396],[10.0225,58.9751,0.0],[10.0264,58.9746,0.7295],[10.0258,58.9735,0.0],[10.0303,58.9749,0.0],[10.0292,58.9763,0.0],[10.0303,58.9774,1.2757],[10.0408,58.9771,0.3603],[10.0419,58.9782,0.3603],[10.0375,58.981,0.4423],[10.0431,58.9801,0.0],[10.0436,58.9837,0.0],[10.0325,58.9865,12.5383],[10.0353,58.9893,3.4878],[10.0392,58.9896,0.0],[10.0392,58.9926,1.6695],[10.0419,58.9885,0.0],[10.0453,58.9888,0.0],[10.0436,58.991,2.0955],[10.0447,58.9938,0.0],[10.0414,58.9943,1.1098],[10.0419,58.9957,0.0],[10.0403,58.9968,0.0],[10.0419,58.9985,3.307],[10.0469,58.9985,0.0],[10.0508,59.0004,0.0],[10.0497,59.0026,0.0],[10.0464,59.0035,4.0637],[10.0497,59.0054,0.0],[10.0469,59.0062,0.0],[10.0403,59.0029,1.6236],[10.0347,59.0051,4.4758],[10.0342,59.0065,15.1844],[10.0392,59.0074,0.0],[10.0381,59.0101,1.164],[10.0358,59.0107,1.7195],[10.0375,59.0182,0.0],[10.0303,59.0179,0.0],[10.0192,59.0285,39.8351],[10.0214,59.0324,25.9556],[10.0258,59.0326,1.3729],[10.0253,59.039,0.0],[10.0181,59.0418,8.6699],[10.0158,59.0462,6.3829],[10.0192,59.049,5.7997],[10.0314,59.0488,1.1864],[10.0331,59.0454,0.0],[10.0419,59.0451,0.0],[10.0458,59.0435,0.4684],[10.0386,59.0371,0.0],[10.0558,59.0382,0.343],[10.0647,59.0438,1.7473],[10.0686,59.0482,0.0],[10.0703,59.061,0.0],[10.0731,59.0607,2.0842],[10.0731,59.0588,2.6359],[10.0697,59.0468,10.0636],[10.0653,59.0429,2.0546],[10.0636,59.0382,7.2243],[10.0558,59.0374,0.343],[10.0536,59.034,0.0],[10.0569,59.0315,0.4338],[10.0603,59.0318,3.0704],[10.0586,59.0296,0.0],[10.0592,59.0276,0.0],[10.0636,59.0285,0.0],[10.0642,59.0315,0.3491],[10.0681,59.0307,8.1956],[10.0664,59.0299,0.0],[10.0664,59.0268,0.0],[10.0692,59.0265,2.0267],[10.0647,59.0246,1.6259],[10.0675,59.0235,0.0],[10.0692,59.0171,0.0],[10.0725,59.0149,0.0],[10.0869,59.0199,0.0],[10.0892,59.0218,5.0744],[10.0881,59.0238,7.1158],[10.0969,59.0235,0.0],[10.0953,59.0282,2.1214],[10.0986,59.0271,0.2544],[10.1064,59.0279,0.4477],[10.1086,59.0257,1.6566],[10.1147,59.0274,5.7041],[10.1192,59.0321,0.0],[10.1197,59.0349,0.0],[10.1214,59.036,1.3007],[10.1281,59.0351,0.476],[10.1264,59.0371,2.0682],[10.1336,59.0401,0.0],[10.1375,59.0399,0.0],[10.1369,59.0365,0.0],[10.1458,59.0374,2.7069],[10.1492,59.0351,0.6411],[10.1519,59.0363,1.7176],[10.1531,59.034,0.673],[10.1564,59.0329,23.3221],[10.1236,59.024,0.0],[10.1242,59.0226,0.0],[10.1297,59.0218,12.7328],[10.1297,59.0185,1.8706],[10.1319,59.0179,10.6958],[10.1319,59.0149,11.5991],[10.1281,59.0146,0.0],[10.1281,59.0129,0.9467],[10.1314,59.011,15.4452],[10.1319,59.0082,9.199],[10.1275,59.0096,0.0],[10.1269,59.0082,0.0],[10.1325,59.0043,0.0],[10.1392,59.0065,0.0],[10.1408,59.0082,0.0],[10.1403,59.0107,2.6609],[10.1419,59.0113,6.4899],[10.1453,59.009,1.3015],[10.1497,59.009,1.6736],[10.1492,59.0079,0.0],[10.1531,59.0057,1.9824],[10.1547,59.0079,1.551],[10.1631,59.0076,0.0],[10.1625,59.0101,0.0],[10.1714,59.0113,0.0],[10.1747,59.0154,0.0],[10.1769,59.016,0.0],[10.1797,59.019,0.0],[10.1786,59.0224,7.4757],[10.1842,59.0221,3.5154],[10.1847,59.019,0.0],[10.1892,59.0182,0.0],[10.1958,59.0226,0.9788],[10.1958,59.0257,0.4992],[10.1981,59.0251,6.0868],[10.1975,59.0229,4.0127],[10.1992,59.0215,0.0],[10.2031,59.0218,0.0],[10.2036,59.0232,8.0657],[10.2081,59.0226,1.3894],[10.2092,59.0254,15.3188],[10.2125,59.0262,0.0],[10.2136,59.0282,1.2246],[10.2086,59.0321,21.6784],[10.2147,59.031,0.0],[10.2186,59.0335,0.0],[10.2219,59.0335,1.3575],[10.2197,59.0315,0.0],[10.2208,59.0307,0.0],[10.2269,59.0379,2.7679],[10.2292,59.0379,2.7679],[10.2275,59.0396,1.4062],[10.2319,59.0418,1.9487],[10.2314,59.0432,1.6119],[10.2286,59.0432,4.0923],[10.2308,59.046,3.1903],[10.2297,59.051,7.321],[10.2319,59.0513,7.0785],[10.2314,59.0551,0.7408],[10.2247,59.061,2.9971],[10.2319,59.0576,0.0],[10.2342,59.0618,0.0],[10.2219,59.0693,0.0],[10.2175,59.0685,11.3472],[10.2114,59.0707,6.4013],[10.2125,59.0735,0.0],[10.2208,59.079,0.0],[10.2175,59.0796,4.2961],[10.2203,59.0818,0.0],[10.2181,59.0846,0.0],[10.2181,59.0887,0.3522],[10.2203,59.0887,4.2725],[10.2197,59.0871,0.3522],[10.2231,59.0871,1.6915],[10.2236,59.0893,0.5049],[10.2197,59.0896,6.5866],[10.2208,59.0921,12.6572],[10.2269,59.0932,0.0],[10.2275,59.096,0.0],[10.2258,59.0985,3.0433],[10.2308,59.1007,0.0],[10.2297,59.1032,3.5654],[10.2258,59.1051,2.5794],[10.2258,59.1124,0.0],[10.2219,59.1146,2.0502],[10.2242,59.1165,0.0],[10.2247,59.1201,0.0],[10.2186,59.1226,26.7877],[10.2253,59.124,0.0],[10.2219,59.1265,0.4357],[10.2264,59.1265,0.1828],[10.2281,59.1249,0.0],[10.2308,59.1271,1.7756],[10.2414,59.1268,3.9505],[10.2331,59.1229,5.4497],[10.2319,59.1207,1.2862],[10.2292,59.1207,0.0],[10.2269,59.1162,1.0071],[10.2292,59.1157,1.0071],[10.2286,59.1146,0.0],[10.2314,59.1118,0.0],[10.2308,59.1101,0.0],[10.2342,59.1079,7.0592],[10.2342,59.106,0.7249],[10.2386,59.1049,1.0032],[10.2369,59.1001,5.3754],[10.2392,59.0957,1.3603],[10.2436,59.096,0.3778],[10.2436,59.1004,2.0892],[10.2475,59.0996,2.7467],[10.2469,59.0943,2.371],[10.2508,59.0951,0.0],[10.2519,59.0985,0.2614],[10.2542,59.0979,0.0],[10.2547,59.0887,0.0],[10.2597,59.0854,4.0494],[10.2619,59.0771,10.2222],[10.2597,59.0771,0.0],[10.2586,59.0718,4.2114],[10.2525,59.0696,0.0],[10.2519,59.0674,0.0],[10.2586,59.0657,0.0],[10.2569,59.0671,1.3106],[10.2586,59.0674,1.3106],[10.2614,59.0643,10.1109],[10.2597,59.0635,8.364],[10.2592,59.0596,7.4213],[10.2642,59.0557,1.3139],[10.2658,59.0493,0.0],[10.2686,59.0479,6.1022],[10.2686,59.0462,2.114],[10.2669,59.0457,0.0],[10.2681,59.0415,0.0],[10.2742,59.041,1.3674],[10.2747,59.0468,13.504],[10.2814,59.0501,1.9327],[10.2814,59.0526,4.3115],[10.2758,59.0568,11.0504],[10.2753,59.0607,15.9216],[10.2697,59.0665,0.0],[10.2731,59.0679,4.5782],[10.2758,59.0638,2.6271],[10.2814,59.0651,1.7923],[10.2775,59.071,1.0585],[10.2814,59.0749,0.8911],[10.2814,59.0776,2.194],[10.2792,59.0799,4.734],[10.2814,59.0818,3.6057],[10.2781,59.0835,3.8596],[10.2769,59.0874,0.0],[10.2725,59.0913,0.0],[10.2747,59.0949,29.1116],[10.2697,59.1001,4.709],[10.2697,59.1024,0.0],[10.2636,59.1071,3.3443],[10.2631,59.1093,1.177],[10.2653,59.1107,1.3259],[10.2619,59.1138,0.0],[10.2631,59.1179,12.2385],[10.2658,59.1174,8.26],[10.2642,59.114,0.0],[10.2664,59.1115,1.3259],[10.2681,59.1118,0.0],[10.2675,59.1154,0.51],[10.2719,59.116,0.0],[10.2669,59.1182,8.26],[10.2658,59.1218,3.0052],[10.2686,59.1215,0.0],[10.2725,59.1168,0.0],[10.2747,59.1171,14.3061],[10.2775,59.114,1.252],[10.2758,59.1126,0.0],[10.2831,59.1071,5.1954],[10.2831,59.1029,9.8849],[10.2769,59.1043,0.0],[10.2764,59.1018,1.5843],[10.2792,59.0982,0.0],[10.2803,59.0982,0.8986],[10.2797,59.1004,1.899],[10.2825,59.0999,11.3794],[10.2825,59.0954,1.9189],[10.2853,59.0932,0.0],[10.2881,59.096,8.9469],[10.2908,59.0962,2.3646],[10.2892,59.0943,0.0],[10.2919,59.0926,16.0394],[10.2919,59.0899,8.7603],[10.2897,59.0896,0.0],[10.2892,59.0879,0.0],[10.2914,59.0846,0.0],[10.2936,59.084,3.5117],[10.2886,59.0829,0.0],[10.2903,59.0824,1.1338],[10.2897,59.0804,0.0],[10.2925,59.0768,13.6019],[10.2919,59.0746,6.0017],[10.3025,59.0654,11.871],[10.3025,59.0629,8.8201],[10.2986,59.0626,0.0],[10.2964,59.0582,0.0],[10.3025,59.0535,0.7975],[10.3053,59.0532,0.0],[10.3047,59.0563,0.6086],[10.3081,59.0551,0.0],[10.3108,59.0576,0.0],[10.3097,59.0596,17.6094],[10.3119,59.0635,4.4537],[10.3103,59.0646,16.4018],[10.3131,59.0649,0.0],[10.3147,59.0704,0.0],[10.3058,59.0726,9.4261],[10.3047,59.0774,0.0],[10.3003,59.0826,5.6537],[10.3031,59.0832,0.2703],[10.3008,59.0843,20.2557],[10.3019,59.0854,20.2557],[10.3069,59.0824,5.0714],[10.3119,59.0838,9.2143],[10.3125,59.0868,0.0],[10.3108,59.0887,20.7152],[10.3125,59.089,0.0],[10.3097,59.0913,14.7498],[10.3086,59.099,0.0],[10.3031,59.1004,8.6157],[10.3047,59.1021,0.0],[10.3019,59.1026,22.3163],[10.3042,59.1037,0.0],[10.3036,59.106,6.2997],[10.2953,59.1146,1.7988],[10.2914,59.1162,14.1967],[10.2997,59.1171,8.2229],[10.2986,59.1204,6.9373],[10.2919,59.1193,3.1023],[10.2908,59.1221,8.1779],[10.2925,59.1221,0.0],[10.2925,59.124,0.0],[10.2897,59.1279,3.952],[10.2831,59.1274,3.7394],[10.2869,59.1285,1.3724],[10.2869,59.1299,6.2575],[10.2842,59.1335,0.0],[10.2853,59.1351,0.0],[10.2819,59.136,0.0],[10.2803,59.139,1.5211],[10.2858,59.1407,0.7543],[10.2958,59.1382,0.8114],[10.3003,59.1396,4.0414],[10.2986,59.1357,0.0],[10.3031,59.134,7.011],[10.3058,59.134,2.6497],[10.3081,59.136,1.8181],[10.3136,59.1357,0.8357],[10.3103,59.1315,0.0],[10.3108,59.1276,0.0],[10.3164,59.1271,2.3127],[10.3158,59.129,9.8206],[10.3181,59.129,0.5165],[10.3175,59.1312,4.1556],[10.3192,59.1318,20.8685],[10.3208,59.1279,3.1463],[10.3192,59.1254,8.1596],[10.3208,59.1212,1.3786],[10.3253,59.1207,0.0],[10.3269,59.1265,0.0],[10.3231,59.1265,4.7931],[10.3219,59.1288,6.6959],[10.3258,59.1282,0.0],[10.3264,59.1304,2.933],[10.3303,59.1296,0.0],[10.3297,59.1365,0.0],[10.3264,59.1421,0.0],[10.3225,59.1443,9.8867],[10.3242,59.1449,0.71],[10.3258,59.1435,0.0],[10.3269,59.1482,0.0],[10.3242,59.1476,0.0],[10.3231,59.1457,0.0],[10.3119,59.1482,0.1469],[10.3081,59.1457,0.1823],[10.3075,59.1474,0.2649],[10.3086,59.1501,1.5464],[10.3119,59.1521,12.2662],[10.3192,59.1515,1.0661],[10.3186,59.1546,0.0],[10.3225,59.1568,6.6395],[10.3214,59.1596,9.824],[10.3236,59.1626,18.594],[10.3264,59.1626,3.6479],[10.3242,59.156,0.0],[10.3292,59.154,1.8156],[10.3325,59.1574,0.0],[10.3314,59.1604,0.0],[10.3275,59.161,13.7964],[10.3353,59.1679,0.0],[10.3336,59.1704,6.2712],[10.3286,59.1696,3.3387],[10.3297,59.171,0.0],[10.3286,59.1726,24.2901],[10.3336,59.1751,0.0],[10.3331,59.1785,3.5435],[10.3297,59.1815,0.8543],[10.3325,59.1829,0.0],[10.3336,59.1907,5.8919],[10.3319,59.1926,0.9087],[10.3275,59.1924,3.8573],[10.3319,59.1971,0.0],[10.3325,59.1999,0.0],[10.3358,59.2018,0.5754],[10.3347,59.2038,15.8303],[10.3381,59.2032,0.0],[10.3375,59.2046,1.4734],[10.3436,59.2118,0.0],[10.3442,59.2154,7.8213],[10.3392,59.2174,0.0],[10.3392,59.2196,0.0],[10.3447,59.2174,0.0],[10.3514,59.2171,17.78],[10.3592,59.2124,4.7518],[10.3592,59.2151,23.4156],[10.3658,59.2226,0.3192],[10.3664,59.2246,2.3937],[10.3642,59.226,4.5148],[10.3714,59.2246,1.72],[10.3769,59.2282,0.0],[10.3758,59.2301,10.0041],[10.3786,59.2332,2.433],[10.3786,59.2363,1.4757],[10.3769,59.2365,1.4757],[10.3781,59.2412,0.0],[10.3731,59.2438,-0.0486],[10.3714,59.2493,11.3817],[10.3742,59.2549,0.0],[10.3742,59.2604,0.0],[10.3781,59.2654,0.0],[10.3781,59.2699,0.3588],[10.3736,59.2724,0.1808],[10.3786,59.2762,0.0],[10.3775,59.2782,0.7775],[10.3836,59.2768,0.0655],[10.3869,59.2738,0.8592],[10.3964,59.2762,0.0],[10.4031,59.2671,2.5981],[10.3881,59.2682,0.0],[10.3897,59.266,2.7725],[10.3869,59.266,4.749],[10.3847,59.264,15.1435],[10.3836,59.2565,0.0],[10.3864,59.2546,1.5994],[10.3864,59.2518,1.2894],[10.3819,59.2513,0.0],[10.3814,59.2471,0.0],[10.3853,59.246,8.9185],[10.3842,59.2374,0.0],[10.3853,59.236,17.7409],[10.3836,59.236,0.0],[10.3836,59.2343,1.4127],[10.3853,59.2307,5.1085],[10.3825,59.2304,7.7811],[10.3831,59.229,7.7811],[10.3797,59.2246,0.0],[10.3742,59.2188,30.7264],[10.3708,59.2174,0.0],[10.3703,59.2132,27.9786],[10.3675,59.2124,4.5086],[10.3686,59.2088,8.2657],[10.3642,59.2085,3.7233],[10.3631,59.2054,0.8073],[10.3669,59.2018,24.6055],[10.3631,59.1976,1.8228],[10.3636,59.194,5.4158],[10.3597,59.1871,0.0],[10.3608,59.1838,3.4205],[10.3625,59.1832,21.3827],[10.3631,59.1779,1.7038],[10.3647,59.1774,20.93],[10.3636,59.1765,0.1708],[10.3658,59.171,2.0871],[10.3731,59.1707,3.9064],[10.3708,59.1654,0.0],[10.3725,59.1635,0.0],[10.3792,59.1649,0.4947],[10.3797,59.1632,0.0],[10.3831,59.1624,3.3365],[10.3836,59.1676,18.1314],[10.3858,59.1699,0.0],[10.3842,59.1746,12.0672],[10.3919,59.1776,1.2905],[10.3919,59.1738,0.0],[10.3936,59.1729,0.0],[10.3992,59.1732,12.6927],[10.4158,59.1688,19.0882],[10.4225,59.1688,11.99],[10.4247,59.1657,6.2012],[10.4331,59.1632,0.0],[10.4342,59.1654,2.3156],[10.4375,59.1638,1.9765],[10.4414,59.166,1.7229],[10.4475,59.1738,22.0224]]],
[[[10.4747,59.2174,0.0],[10.4775,59.2171,0.0],[10.4781,59.2188,0.0],[10.4747,59.2196,0.0],[10.4736,59.2176,0.0],[10.4747,59.2174,0.0]]],
[[[10.4769,59.2415,0.0],[10.4769,59.2468,3.1654],[10.4731,59.2468,4.8565],[10.4714,59.2449,0.3001],[10.4719,59.2429,0.0],[10.4747,59.241,0.0],[10.4769,59.2415,0.0]]],
[[[10.5803,59.1893,0.0],[10.5775,59.191,0.0],[10.5747,59.1871,12.5773],[10.5792,59.1874,5.0743],[10.5803,59.1893,0.0]]],
[[[10.5475,59.1993,0.0],[10.5447,59.1999,0.0],[10.5442,59.1968,0.0],[10.5469,59.1932,0.3853],[10.5464,59.1893,0.0],[10.5497,59.1885,0.0],[10.5514,59.191,0.0],[10.5492,59.1929,0.0],[10.5497,59.1971,0.0],[10.5475,59.1993,0.0]]],
[[[10.5681,59.1974,0.0],[10.5658,59.1996,0.5767],[10.5647,59.1954,2.5127],[10.5619,59.1943,0.1676],[10.5658,59.1915,0.0],[10.5692,59.1926,0.0],[10.5692,59.1951,0.6504],[10.5669,59.1957,1.0578],[10.5681,59.1974,0.0]]],
[[[10.5408,59.196,3.2374],[10.5375,59.1982,2.7665],[10.5381,59.196,4.1952],[10.5419,59.1946,0.0548],[10.5408,59.196,3.2374]]],
[[[10.4836,59.1896,2.7722],[10.4792,59.1907,1.0203],[10.4792,59.1851,10.234],[10.4808,59.1821,2.063],[10.4842,59.1832,2.5839],[10.4836,59.1874,6.284],[10.4869,59.1882,0.1817],[10.4836,59.1896,2.7722]]],
[[[10.5108,59.1982,9.5469],[10.5092,59.2038,0.0],[10.5064,59.2035,4.0783],[10.5036,59.2024,0.0],[10.5036,59.2001,3.9591],[10.5008,59.1993,1.0345],[10.4992,59.1949,0.0],[10.5058,59.1951,0.6986],[10.5103,59.1896,0.5547],[10.5131,59.1899,0.0],[10.5125,59.1935,1.8899],[10.5192,59.1943,0.2587],[10.5147,59.1979,0.0],[10.5108,59.1982,9.5469]]],
[[[10.4969,59.2101,9.5204],[10.4942,59.2118,2.4017],[10.4925,59.2065,14.4505],[10.4897,59.2049,7.8012],[10.4881,59.1988,5.0171],[10.4908,59.1957,5.1855],[10.4964,59.1976,4.1081],[10.5025,59.2062,0.0],[10.5008,59.2088,0.0],[10.4969,59.2101,9.5204]]],
[[[10.4853,59.2051,0.0],[10.4864,59.2071,0.0357],[10.4842,59.2074,0.0],[10.4808,59.2021,2.0751],[10.4831,59.2018,0.0],[10.4853,59.2051,0.0]]],
[[[10.5564,59.1979,7.207],[10.5547,59.2012,0.5688],[10.5525,59.201,0.5688],[10.5531,59.1982,1.7724],[10.5569,59.1968,0.0],[10.5564,59.1979,7.207]]],
[[[10.5831,59.1996,1.2879],[10.5831,59.2018,0.0],[10.5781,59.2026,1.5052],[10.5803,59.1988,4.1306],[10.5836,59.1985,0.0],[10.5831,59.1996,1.2879]]],
[[[10.5436,59.2029,0.2925],[10.5425,59.2029,0.0],[10.5425,59.2004,0.0],[10.5447,59.1999,0.0],[10.5453,59.2024,0.0],[10.5436,59.2029,0.2925]]],
[[[10.5325,59.221,8.4886],[10.5275,59.2215,3.9523],[10.5269,59.2157,19.1359],[10.5292,59.2126,17.6985],[10.5453,59.2099,0.0],[10.5519,59.2101,2.4006],[10.5614,59.2076,7.9738],[10.5653,59.2018,0.0],[10.5686,59.2021,3.9108],[10.5686,59.1996,0.0298],[10.5708,59.199,7.4451],[10.5714,59.1971,1.8306],[10.5742,59.1979,10.7706],[10.5758,59.1957,1.2306],[10.5786,59.1965,0.4192],[10.5764,59.2029,2.1275],[10.5725,59.2049,1.7699],[10.5719,59.2068,0.0],[10.5681,59.2093,0.0],[10.5636,59.2093,0.0],[10.5653,59.2113,0.0],[10.5625,59.2151,0.0],[10.5564,59.2171,0.0],[10.5503,59.2168,2.2082],[10.5469,59.2196,0.8711],[10.5442,59.2196,0.0],[10.5425,59.219,0.4393],[10.5419,59.2163,1.6971],[10.5369,59.2143,2.5034],[10.5364,59.2215,0.9758],[10.5325,59.221,8.4886]]],
[[[10.5036,59.2182,4.3335],[10.5042,59.221,0.0],[10.5019,59.2218,2.5772],[10.5003,59.2176,6.002],[10.5031,59.2168,0.0],[10.5036,59.2182,4.3335]]],
[[[10.5103,59.2249,0.0],[10.5092,59.2263,0.0],[10.5047,59.226,0.0951],[10.5069,59.2215,0.0],[10.5142,59.2154,0.0],[10.5153,59.2207,0.0],[10.5131,59.2232,0.8663],[10.5097,59.2229,5.0799],[10.5103,59.2249,0.0]]],
[[[10.4908,59.2246,0.7269],[10.4925,59.2254,0.0],[10.4914,59.2268,0.0],[10.4875,59.2254,0.9928],[10.4886,59.2224,0.1502],[10.4925,59.221,0.0],[10.4919,59.2229,0.0432],[10.4936,59.2238,0.0],[10.4908,59.2246,0.7269]]],
[[[10.5158,59.2235,0.0],[10.5158,59.2249,0.0],[10.5119,59.2263,0.0],[10.5131,59.2238,0.6159],[10.5158,59.2235,0.0]]],
[[[10.5103,59.2379,0.0],[10.5069,59.2385,0.0],[10.5058,59.2351,0.0],[10.5108,59.2318,0.0],[10.5119,59.2374,0.0],[10.5103,59.2379,0.0]]],
[[[10.4919,59.239,0.0],[10.4925,59.2438,0.3881],[10.4886,59.244,0.0],[10.4892,59.2396,0.0],[10.4919,59.239,0.0]]],
[[[10.5208,59.2432,0.0],[10.5175,59.244,0.0987],[10.5119,59.2421,0.0],[10.5175,59.2418,0.0],[10.5208,59.2432,0.0]]],
[[[10.5019,59.249,0.0],[10.4981,59.2507,0.0],[10.4975,59.2479,0.0],[10.4986,59.2454,0.0],[10.5025,59.2438,7.1028],[10.5064,59.2435,0.0],[10.5108,59.2471,0.0],[10.5075,59.2487,0.3091],[10.5019,59.249,0.0]]],
[[[10.5219,59.2226,3.9345],[10.5186,59.2238,0.0],[10.5192,59.2185,0.0],[10.5214,59.2163,0.0],[10.5225,59.219,0.0],[10.5219,59.2226,3.9345]]],
[[[10.5214,59.3899,5.0368],[10.5203,59.3921,0.0],[10.5153,59.3913,5.4292],[10.5186,59.3849,0.6833],[10.5131,59.3771,0.4036],[10.5186,59.3765,0.9135],[10.5208,59.3729,2.3505],[10.5358,59.3662,0.0],[10.5403,59.3715,0.0],[10.5386,59.3768,6.9595],[10.5392,59.3846,0.0],[10.5375,59.3868,0.0],[10.5342,59.3874,0.0],[10.5208,59.3862,1.6702],[10.5214,59.3899,5.0368]]],
[[[10.4953,59.441,0.0],[10.4942,59.4451,0.0],[10.4864,59.4443,0.0],[10.4864,59.4426,0.0],[10.4919,59.4407,0.7444],[10.4931,59.4385,0.0],[10.4992,59.4396,0.0],[10.4953,59.441,0.0]]],
[[[9.9381,58.9388,0.0],[9.9347,58.9407,0.0],[9.9319,58.9396,0.0],[9.9364,58.9368,0.0],[9.9381,58.9388,0.0]]],
[[[9.8803,58.9463,0.0],[9.8775,58.9488,0.0],[9.8753,58.9457,0.0],[9.8769,58.9451,0.0],[9.8775,58.9465,0.4539],[9.8803,58.9463,0.0]]],
[[[9.8992,58.9476,0.0],[9.8958,58.9482,1.0719],[9.8953,58.9499,0.0],[9.8925,58.9493,0.0],[9.8936,58.9468,0.0],[9.8992,58.9476,0.0]]],
[[[9.8642,58.9543,0.0],[9.8653,58.9557,0.0],[9.8642,58.9568,0.0],[9.8592,58.956,0.0],[9.8608,58.9532,0.0],[9.8647,58.9532,0.0],[9.8642,58.9543,0.0]]],
[[[9.8714,58.9576,0.6186],[9.8681,58.959,0.0],[9.8681,58.9576,0.0],[9.8714,58.956,0.0],[9.8681,58.9557,0.0],[9.8686,58.9512,0.0],[9.8708,58.9524,0.0],[9.8714,58.9554,1.067],[9.8742,58.956,0.0],[9.8714,58.9576,0.6186]]],
[[[9.8925,58.9613,0.218],[9.8808,58.9624,0.0],[9.8792,58.9601,0.0],[9.8814,58.9585,0.0],[9.8997,58.9571,0.0],[9.8947,58.9585,0.2623],[9.8925,58.9613,0.218]]],
[[[10.1431,58.9749,0.0],[10.1375,58.9763,0.0],[10.1364,58.9749,0.0],[10.1381,58.9746,0.0],[10.1375,58.9721,3.3429],[10.1347,58.9726,0.0],[10.1342,58.971,2.2831],[10.1419,58.9674,0.0],[10.1464,58.9682,0.0],[10.1503,58.9649,0.0],[10.1531,58.9663,0.4532],[10.1531,58.9649,0.0],[10.1564,58.9649,0.0],[10.1558,58.9676,0.0],[10.1514,58.9693,0.14],[10.1542,58.971,0.0],[10.1475,58.9751,0.0],[10.1436,58.9746,0.0],[10.1447,58.9735,7.3873],[10.1431,58.974,0.0],[10.1431,58.9749,0.0]]],
[[[10.1608,58.9757,0.71],[10.1619,58.9774,0.0],[10.1542,58.9776,1.2155],[10.1564,58.9751,0.0],[10.1608,58.9757,0.71]]],
[[[10.1975,58.9735,0.0],[10.1925,58.9746,0.0],[10.1942,58.9712,0.0],[10.1969,58.9715,0.0],[10.1975,58.9735,0.0]]],
[[[10.2203,58.9776,0.0],[10.2181,58.979,0.0],[10.2147,58.9785,-0.0692],[10.2181,58.976,0.0],[10.2208,58.9763,0.0],[10.2203,58.9776,0.0]]],
[[[10.2336,58.9801,0.0],[10.2275,58.9813,0.0],[10.2281,58.9771,0.0],[10.2319,58.9763,0.0],[10.2325,58.9787,0.0],[10.2353,58.979,0.0],[10.2336,58.9801,0.0]]],
[[[10.2247,58.9815,0.0],[10.2192,58.9824,0.0],[10.2186,58.9813,0.0],[10.2208,58.9796,0.0],[10.2192,58.9787,0.0],[10.2264,58.9793,1.0524],[10.2247,58.9815,0.0]]],
[[[10.0547,58.9979,0.0],[10.0536,58.9996,0.0],[10.0497,58.999,0.0],[10.0519,58.9971,0.0],[10.0469,58.996,0.0],[10.0469,58.9935,0.0],[10.0458,58.9935,0.0],[10.0458,58.9915,0.0],[10.0486,58.9901,2.1724],[10.0481,58.9876,0.0],[10.0503,58.986,0.0],[10.0547,58.9857,2.5036],[10.0553,58.9879,0.0],[10.0581,58.9896,0.0],[10.0581,58.9935,0.0],[10.0547,58.9949,5.3158],[10.0564,58.9963,1.0225],[10.0547,58.9979,0.0]]],
[[[9.7897,59.0154,11.8893],[9.7842,59.016,3.5219],[9.7842,59.011,17.4261],[9.7864,59.0071,0.7816],[9.7903,59.0062,0.807],[9.7914,59.0043,0.084],[9.7953,59.0046,2.1925],[9.7947,59.0026,0.6059],[9.7969,59.0018,4.8198],[9.7969,59.0001,17.933],[9.7914,58.9987,0.0],[9.7925,58.9957,3.8892],[9.7969,58.9924,7.5566],[9.8092,58.9924,2.6258],[9.8092,58.9946,6.9109],[9.8058,58.9968,10.395],[9.8147,58.9943,0.0],[9.8158,58.9965,2.4447],[9.8208,58.9951,0.0],[9.8253,58.9974,0.0],[9.8169,58.999,0.0],[9.8181,59.001,2.2622],[9.8075,59.0051,2.123],[9.8047,59.0057,0.9928],[9.8019,59.0038,28.2236],[9.8019,59.0062,15.2459],[9.7958,59.0107,6.7623],[9.7964,59.0132,0.0],[9.7897,59.0154,11.8893]]],
[[[10.1131,59.0071,0.0],[10.1103,59.0096,0.0],[10.1075,59.0082,0.0],[10.1103,59.0051,0.0],[10.1125,59.0051,0.0],[10.1108,59.0068,0.8809],[10.1131,59.0071,0.0]]],
[[[9.8469,59.0071,0.0],[9.8492,59.0071,2.5951],[9.8486,59.0099,0.0],[9.8464,59.0082,0.0],[9.8469,59.0071,0.0]]],
[[[10.2192,58.9829,0.0],[10.2208,58.9849,0.0],[10.2169,58.9854,0.369],[10.2147,58.984,0.369],[10.2164,58.9826,0.0],[10.2192,58.9829,0.0]]],
[[[10.2375,58.9857,0.0],[10.2353,58.9874,0.0],[10.2325,58.9868,0.0],[10.2325,58.9821,0.0],[10.2364,58.9824,0.0],[10.2375,58.9857,0.0]]],
[[[10.2292,58.986,1.4923],[10.2308,58.9885,0.0],[10.2253,58.9871,0.0],[10.2269,58.9854,0.0],[10.2292,58.986,1.4923]]],
[[[10.2314,59.0354,1.7056],[10.2303,59.0368,4.8577],[10.2269,59.0354,6.2681],[10.2264,59.0321,3.1913],[10.2281,59.0324,3.1913],[10.2314,59.0354,1.7056]]],
[[[10.1064,59.0179,0.7835],[10.1042,59.0201,0.7561],[10.0931,59.0176,1.218],[10.0858,59.0104,0.8229],[10.0842,59.0104,0.8229],[10.0847,59.0082,0.6624],[10.0914,59.0085,0.0],[10.0981,59.0035,0.0],[10.1008,59.0035,0.0],[10.1019,59.0082,3.9178],[10.1086,59.0099,0.0],[10.1069,59.0129,0.0],[10.1075,59.0157,0.0],[10.1036,59.0151,14.2813],[10.1031,59.0163,5.5594],[10.1031,59.0176,6.84],[10.1064,59.0179,0.7835]]],
[[[10.1231,59.0135,2.0503],[10.1186,59.0146,1.1112],[10.1153,59.0093,0.5277],[10.1231,59.0099,0.0],[10.1242,59.0115,5.6983],[10.1231,59.0135,2.0503]]],
[[[10.1131,59.0182,0.0],[10.1169,59.0185,0.0],[10.1175,59.0199,0.6448],[10.1136,59.0207,0.0],[10.1131,59.0182,0.0]]],
[[[10.1225,59.021,0.0],[10.1214,59.0229,0.0],[10.1175,59.0221,0.0],[10.1197,59.0179,0.9809],[10.1236,59.0179,1.1978],[10.1225,59.021,0.0]]],
[[[10.2347,59.0374,0.0],[10.2358,59.0385,0.0],[10.2347,59.0393,0.0],[10.2319,59.0379,0.0],[10.2342,59.036,0.0],[10.2347,59.0374,0.0]]],
[[[10.2297,59.0738,0.935],[10.2314,59.0754,0.9428],[10.2275,59.074,0.935],[10.227,59.0699,0.0],[10.2292,59.0707,4.3871],[10.2297,59.0738,0.935]]],
[[[10.2269,59.0757,0.0],[10.2275,59.0782,0.0],[10.2242,59.0785,3.086],[10.2214,59.0754,15.3002],[10.2181,59.0757,3.6272],[10.2147,59.0715,1.6719],[10.2186,59.0702,0.0],[10.2197,59.0718,5.2675],[10.2258,59.0729,1.0404],[10.2269,59.0757,0.0]]],
[[[10.2531,59.0762,0.8445],[10.2553,59.0765,0.0],[10.2547,59.0799,2.1213],[10.2525,59.0793,0.0],[10.2531,59.0762,0.8445]]],
[[[10.2558,59.0824,4.7762],[10.2575,59.0821,0.0],[10.2581,59.0851,0.0],[10.2547,59.0849,0.0],[10.2558,59.0824,4.7762]]],
[[[10.2819,59.0832,1.1685],[10.2836,59.0835,0.0],[10.2825,59.0863,0.7102],[10.2808,59.0857,0.0],[10.2819,59.0832,1.1685]]],
[[[10.2736,59.1026,8.3897],[10.2731,59.1015,2.2962],[10.2758,59.101,1.5843],[10.2758,59.1037,0.0],[10.2736,59.1026,8.3897]]],
[[[10.2775,59.109,0.0],[10.2742,59.111,0.0],[10.2714,59.1085,18.9033],[10.2736,59.1054,0.0],[10.2764,59.1051,0.0],[10.2775,59.109,0.0]]],
[[[10.2981,59.0438,0.0],[10.2981,59.0485,1.1099],[10.2958,59.0496,1.2012],[10.2942,59.0457,7.9101],[10.2953,59.0432,0.0],[10.2981,59.0438,0.0]]],
[[[10.4008,59.0576,0.0],[10.4008,59.0588,1.9093],[10.3964,59.0596,1.1589],[10.3953,59.0571,0.3099],[10.3986,59.0565,0.0],[10.4008,59.0576,0.0]]],
[[[10.3503,59.1079,2.3522],[10.3519,59.109,0.0],[10.3514,59.1113,0.0],[10.3508,59.1096,1.8413],[10.3442,59.1096,0.0],[10.3458,59.1049,0.0],[10.3503,59.1079,2.3522]]],
[[[10.3586,59.1076,0.0],[10.3597,59.109,1.0809],[10.3586,59.1104,1.0809],[10.3536,59.1093,3.5163],[10.3547,59.106,2.0779],[10.3586,59.1076,0.0]]],
[[[10.4492,59.0549,0.0],[10.4419,59.0554,0.0],[10.4419,59.0524,0.0],[10.4469,59.0496,0.0],[10.4514,59.0499,0.0],[10.4525,59.0518,0.3117],[10.4508,59.0518,0.0],[10.4508,59.0543,0.0],[10.4492,59.0549,0.0]]],
[[[10.4377,59.059,0.0],[10.4358,59.0607,0.0],[10.4331,59.0601,0.0],[10.4347,59.0576,0.0],[10.4377,59.059,0.0]]],
[[[10.4619,59.0851,12.2061],[10.4581,59.0863,6.0115],[10.4586,59.079,19.8362],[10.4608,59.0779,10.1958],[10.4608,59.0743,0.0],[10.4642,59.0726,3.1441],[10.4631,59.0687,1.302],[10.4697,59.0679,0.0],[10.4714,59.071,9.5727],[10.4736,59.0715,1.3256],[10.4714,59.0754,17.9198],[10.4714,59.0818,5.4805],[10.4686,59.0829,8.3263],[10.4686,59.0849,4.8759],[10.4619,59.0851,12.2061]]],
[[[10.4314,59.1157,11.0852],[10.4314,59.1199,4.6013],[10.4258,59.1193,1.349],[10.4281,59.1171,14.6739],[10.4258,59.1129,0.0],[10.4286,59.111,3.0848],[10.4286,59.106,2.3668],[10.4258,59.1063,6.2185],[10.4258,59.1082,4.8334],[10.4225,59.1118,3.6637],[10.4208,59.1082,1.4452],[10.4231,59.1074,7.9712],[10.4236,59.1049,15.3894],[10.4203,59.1021,2.0387],[10.4231,59.0887,0.0],[10.4292,59.086,3.2822],[10.4247,59.0849,8.3005],[10.4258,59.0821,2.536],[10.4292,59.081,0.7142],[10.4281,59.0751,1.5569],[10.4297,59.0665,5.551],[10.4375,59.0624,0.0],[10.4447,59.0643,1.9669],[10.4508,59.064,4.1283],[10.4503,59.0668,8.1718],[10.4542,59.0687,2.5192],[10.4519,59.0779,11.6514],[10.4547,59.0801,0.0],[10.4519,59.0821,7.4434],[10.4514,59.0899,2.3386],[10.4486,59.091,5.3232],[10.4503,59.0943,1.1423],[10.4425,59.0979,3.6527],[10.4414,59.0938,0.0],[10.4436,59.0918,3.1557],[10.4414,59.0901,0.0],[10.4425,59.0865,11.4268],[10.4408,59.084,1.7209],[10.4425,59.0838,7.2472],[10.4403,59.0832,3.3958],[10.4403,59.0796,8.8764],[10.4375,59.0796,1.4563],[10.4347,59.086,0.0],[10.4314,59.0863,0.8294],[10.4331,59.0879,2.1318],[10.4375,59.0874,0.0],[10.4386,59.0893,0.0],[10.4347,59.0901,1.9342],[10.4353,59.0932,0.0],[10.4308,59.094,6.5874],[10.4319,59.0962,0.0],[10.4292,59.0988,6.3727],[10.4292,59.1004,6.3727],[10.4331,59.1004,0.0],[10.4319,59.1076,3.3461],[10.4364,59.106,0.0],[10.4353,59.1115,0.0],[10.4331,59.1115,3.055],[10.4314,59.1157,11.0852]]],
[[[10.4853,59.1065,0.0],[10.4831,59.1087,9.4119],[10.4764,59.1079,2.1181],[10.4736,59.1032,0.0],[10.4797,59.0982,0.0],[10.4836,59.0985,0.3622],[10.4853,59.1015,7.0266],[10.4869,59.0946,0.0],[10.4897,59.0938,1.6224],[10.4925,59.0971,0.0],[10.4925,59.104,0.0],[10.4908,59.1051,3.128],[10.4864,59.1043,5.4352],[10.4853,59.1065,0.0]]],
[[[10.4536,59.1063,5.5861],[10.4442,59.1079,6.8886],[10.4431,59.1004,0.0],[10.4525,59.0996,0.0],[10.4536,59.1063,5.5861]]],
[[[10.3969,59.1671,0.0],[10.3942,59.169,0.0],[10.3897,59.1682,3.8357],[10.3869,59.166,5.2146],[10.3881,59.1638,3.374],[10.3864,59.1599,2.025],[10.3781,59.1607,0.0],[10.3747,59.1576,11.3141],[10.3764,59.1471,9.3416],[10.3814,59.1474,2.7545],[10.3786,59.144,0.9076],[10.3786,59.1415,0.0],[10.3875,59.1424,3.2078],[10.3803,59.1404,9.6456],[10.3786,59.1374,1.5776],[10.3792,59.1315,0.0],[10.3836,59.121,4.5499],[10.3814,59.1185,0.3048],[10.3825,59.1138,7.2014],[10.3792,59.1115,0.0],[10.3808,59.1099,11.6793],[10.3786,59.1099,0.0],[10.3803,59.1057,10.1077],[10.3786,59.1032,0.0],[10.3814,59.0968,0.0],[10.3847,59.0974,0.0],[10.3836,59.1035,12.1997],[10.3881,59.1035,4.5589],[10.3886,59.0962,5.154],[10.3947,59.0966,10.3818],[10.3986,59.0935,5.3225],[10.3953,59.091,2.536],[10.3975,59.0882,3.62],[10.3981,59.0799,2.7435],[10.3914,59.0768,0.0],[10.3936,59.0693,0.466],[10.3914,59.0687,0.0],[10.3942,59.0643,0.069],[10.3964,59.0635,0.6268],[10.3964,59.0601,1.1589],[10.4014,59.0599,16.4268],[10.4064,59.0535,0.0],[10.4097,59.0604,-0.2353],[10.4147,59.0632,2.4957],[10.4203,59.0632,0.0],[10.4208,59.0665,0.5511],[10.4258,59.0704,1.0297],[10.4247,59.0779,0.0],[10.4197,59.0868,0.0],[10.4153,59.0904,6.7419],[10.4114,59.0907,0.0],[10.4075,59.0976,3.3176],[10.4125,59.0976,5.7279],[10.4147,59.096,0.5952],[10.4175,59.0968,0.8863],[10.4169,59.1024,19.9204],[10.4181,59.1024,2.5768],[10.4192,59.1162,3.9062],[10.4236,59.1157,0.0],[10.4231,59.1179,1.7178],[10.4247,59.1196,1.349],[10.4231,59.1201,3.378],[10.4269,59.1212,0.0945],[10.4314,59.1251,1.8209],[10.4353,59.1251,0.0],[10.4369,59.131,0.0],[10.4369,59.1324,0.0],[10.4325,59.1346,2.4615],[10.4275,59.1346,0.0],[10.4281,59.1307,4.6138],[10.4203,59.1299,3.0918],[10.4186,59.1318,0.0],[10.4153,59.1315,1.4807],[10.4175,59.1335,0.0],[10.4164,59.1363,0.6661],[10.4181,59.1365,0.0],[10.4153,59.1379,0.0],[10.4186,59.141,0.5524],[10.4181,59.1435,0.6896],[10.4164,59.1437,5.4307],[10.4186,59.1446,0.0],[10.4208,59.1493,5.7619],[10.4247,59.1488,4.6705],[10.4231,59.1482,2.5089],[10.4236,59.1457,3.4176],[10.4314,59.1451,0.0],[10.4336,59.1468,2.515],[10.4403,59.1468,0.0],[10.4464,59.1457,0.0],[10.4447,59.1501,0.0],[10.4464,59.1538,0.0],[10.4453,59.1579,0.0],[10.4353,59.1587,0.0],[10.4369,59.1574,6.1464],[10.4325,59.1535,5.6297],[10.4297,59.1535,3.5408],[10.4303,59.1571,0.0],[10.4264,59.1596,3.9026],[10.4153,59.1607,3.2605],[10.4131,59.1643,0.1362],[10.4081,59.164,1.0368],[10.4086,59.1654,1.0368],[10.4064,59.1676,1.2986],[10.3969,59.1671,0.0]]],
[[[10.4514,59.1207,0.4477],[10.4469,59.1224,0.9029],[10.4453,59.1179,6.5131],[10.4469,59.116,25.5732],[10.4464,59.114,16.6474],[10.4525,59.1124,3.2499],[10.4547,59.114,0.0],[10.4547,59.1171,0.0],[10.4514,59.1207,0.4477]]],
[[[10.3675,59.1263,0.9531],[10.3642,59.1268,1.1382],[10.3647,59.1279,0.0],[10.3564,59.1279,0.0],[10.3531,59.1251,0.6728],[10.3542,59.1226,14.1018],[10.3503,59.1226,3.4755],[10.3497,59.1179,7.4083],[10.3525,59.1165,1.4038],[10.3553,59.1185,2.5229],[10.3581,59.1168,4.6332],[10.3592,59.1143,1.2764],[10.3575,59.1126,0.0],[10.3625,59.1093,0.4411],[10.3653,59.1129,0.0506],[10.3647,59.1162,2.9646],[10.3681,59.1154,0.0],[10.3675,59.1179,0.3796],[10.3653,59.1179,1.7896],[10.3653,59.1204,0.0],[10.3636,59.1215,15.065],[10.3664,59.1229,3.053],[10.3669,59.121,2.9947],[10.3692,59.121,2.9947],[10.3697,59.1251,7.1112],[10.3675,59.1263,0.9531]]],
[[[10.3414,59.1263,2.1233],[10.3408,59.1235,0.0],[10.3436,59.1229,0.8261],[10.3431,59.1271,0.0],[10.3414,59.1263,2.1233]]],
[[[10.3719,59.1304,7.4338],[10.3753,59.1304,0.0],[10.3747,59.1351,2.237],[10.3697,59.1315,0.0],[10.3692,59.1285,0.0],[10.3714,59.1279,0.3758],[10.3719,59.1304,7.4338]]],
[[[10.3703,59.1449,2.8767],[10.3714,59.146,1.3827],[10.3681,59.1465,3.0452],[10.3664,59.1426,3.5971],[10.3686,59.1413,2.4172],[10.3669,59.139,4.8494],[10.3708,59.1401,1.1543],[10.3703,59.1449,2.8767]]],
[[[10.3736,59.221,6.5084],[10.3719,59.2226,0.0],[10.3686,59.2188,0.0],[10.3703,59.2185,0.0],[10.3736,59.221,6.5084]]],
[[[10.3675,59.5024,0.0],[10.3619,59.5032,2.7408],[10.3625,59.5013,1.8923],[10.3669,59.4985,0.4963],[10.3819,59.4918,0.0],[10.3819,59.4901,0.0],[10.3869,59.4888,-28.5],[10.3986,59.4813,0.0],[10.4003,59.4821,0.2431],[10.4008,59.484,0.0],[10.3964,59.4863,-17.5122],[10.3969,59.4876,0.0],[10.3936,59.4885,-12.9865],[10.3819,59.4968,6.3883],[10.3675,59.5024,0.0]]],
[[[10.3292,59.5163,0.0],[10.3286,59.5179,2.0474],[10.3264,59.5179,0.0],[10.3275,59.5149,2.0072],[10.3303,59.5135,0.0],[10.3292,59.5163,0.0]]],
[[[10.3419,59.5265,1.5997],[10.3381,59.5274,0.0],[10.3375,59.5235,5.5433],[10.3458,59.5171,3.8618],[10.3569,59.5126,0.0],[10.3569,59.5185,23.0176],[10.3525,59.5229,0.8986],[10.3419,59.5265,1.5997]]],
[[[10.3336,59.5257,1.0526],[10.3292,59.5274,0.0],[10.3275,59.5265,3.1787],[10.3275,59.5243,0.0],[10.3364,59.5196,0.902],[10.3353,59.5243,0.0],[10.3336,59.5257,1.0526]]],
[[[10.3114,59.534,7.396],[10.3064,59.5354,10.7823],[10.3136,59.5249,0.0],[10.3208,59.5193,13.6227],[10.3214,59.5157,0.0],[10.3247,59.5151,0.0],[10.3242,59.524,2.631],[10.3175,59.5274,0.0],[10.3158,59.531,2.6858],[10.3114,59.534,7.396]]]]}
,"properties": {"GID_1": "NOR.19_1","GID_0": "NOR","country": "Norway","province": "Vestfold","VARNAME_1": "Vestfoldfylke|JarlsbergogLarv","NL_NAME_1": "NA","TYPE_1": "Fylke","ENGTYPE_1": "County","CC_1": "NA","HASC_1": "NO.VF","ISO_1": "NA","name": "Vestfold.province","area_km2": 2234.809,"hist_schema_id": "Elevation0-9000","hist_area_km2": {"-25": 0.118,"0": 160.736,"25": 346.22,"50": 298.624,"75": 289.037,"100": 228.563,"125": 163.661,"150": 125.994,"175": 99.091,"200": 79.362,"225": 62.656,"250": 55.593,"275": 47.978,"300": 42.054,"325": 36.509,"350": 32.67,"375": 25.885,"400": 27.501,"425": 24.433,"450": 25.834,"475": 20.637,"500": 18.282,"525": 11.382,"550": 6.828,"575": 3.029,"600": 1.573,"625": 0.559}}}