{"type":"Feature","properties":{"ISO3166-1-Alpha-3":"NOR","country":"Norway","fill":"#00F","id":"921","name":"Oslo"},
"geometry":{"type": "Polygon","coordinates": [[[10.6801,60.15338,401.1967],[10.62362,60.15473,577.2028],[10.57132,60.08383,372.1731],[10.55267,60.06703,450.52],[10.53345,60.0567,486.8913],[10.48952,60.04956,589.8865],[10.43939,60.03362,374.4538],[10.38291,59.98538,279.3214],[10.37454,59.97546,370.564],[10.37888,59.93854,305.4161],[10.36617,59.90725,384.8209],[10.35098,59.88079,329.4597],[10.34912,59.85345,434.9523],[10.34989,59.83847,265.3192],[10.36059,59.82482,204.326],[10.39878,59.80829,222.2216],[10.43924,59.8024,109.9513],[10.48666,59.80317,36.4417],[10.48666,59.80317,36.4417],[10.48862,59.81631,0.0],[10.49871,59.83369,0.7669],[10.47381,59.84138,41.6448],[10.47543,59.85004,55.9],[10.50815,59.87153,0.0],[10.52947,59.88231,0.0],[10.55323,59.8841,0.0],[10.59425,59.88207,0.0],[10.60288,59.88532,13.7572],[10.61557,59.8946,13.7201],[10.62143,59.89631,15.6278],[10.66627,59.8889,0.0],[10.67433,59.89444,0.0],[10.68084,59.90497,25.4193],[10.68873,59.91177,26.0537],[10.71111,59.9007,0.0],[10.74,59.89517,26.7384],[10.75261,59.8889,0.0],[10.74513,59.88207,0.0],[10.75847,59.85017,0.0],[10.7566,59.84416,0.0],[10.75664,59.84415,0.0],[10.7988,59.83816,92.9671],[10.87622,59.83053,185.2162],[10.90929,59.84043,235.4892],[10.91735,59.84617,247.0809],[10.93254,59.86477,307.4189],[10.93425,59.87304,302.9053],[10.93471,59.9773,242.6931],[10.92805,59.99339,218.612],[10.85963,60.03949,225.1007],[10.78728,60.10388,371.3049],[10.76651,60.12791,314.2445],[10.75271,60.13726,415.6541],[10.73317,60.14429,353.34],[10.6801,60.15338,401.1967]]]}}