{"type":"Feature","properties":{"GID_2":"NOR.8.29_1","GID_0":"NOR","country":"Norway","GID_1":"NOR.8_1","province":"MøreogRomsdal","NL_NAME_1":"NA","county":"Sula","VARNAME_2":"NA","NL_NAME_2":"NA","TYPE_2":"Kommuner","ENGTYPE_2":"Municipality","CC_2":"NA","HASC_2":"NO.MR.SU","name":"Sula.county"},
"geometry":{"type": "MultiPolygon","coordinates": [[[[6.3486,62.4308,5.9279],[6.3426,62.4312,0.0],[6.3396,62.4292,9.2867],[6.3083,62.4292,44.2689],[6.3042,62.4313,0.0],[6.2911,62.4234,0.0],[6.2854,62.4229,12.5263],[6.2839,62.4245,0.0],[6.287,62.4266,0.0],[6.2839,62.4286,0.0],[6.2932,62.4349,0.0],[6.2807,62.4411,0.0],[6.2625,62.4437,10.4914],[6.2583,62.4417,6.4807],[6.2438,62.4396,0.0],[6.2411,62.4432,0.0],[6.2328,62.4474,4.5994],[6.2229,62.45,0.0],[6.2125,62.45,2.5454],[6.2,62.4458,3.7833],[6.1896,62.4458,0.0],[6.187,62.4422,3.7263],[6.1813,62.4396,0.0],[6.1563,62.4396,8.6929],[6.1521,62.4375,42.2037],[6.1021,62.4375,2.019],[6.0979,62.4354,96.7072],[6.0938,62.4354,142.999],[6.0896,62.4375,31.5081],[6.0792,62.4333,478.2311],[6.0667,62.4375,57.6872],[6.0589,62.4328,0.0],[6.062,62.4307,6.7854],[6.063,62.4255,0.0],[6.0661,62.4245,0.0],[6.0672,62.4214,0.0],[6.0828,62.4141,85.5655],[6.0818,62.4109,0.0],[6.0875,62.4104,0.0],[6.0958,62.4063,0.0],[6.1021,62.4063,43.8247],[6.1068,62.4026,0.0],[6.1146,62.4021,61.0959],[6.1229,62.3979,0.0],[6.1354,62.3979,0.0],[6.1396,62.3958,0.0],[6.1438,62.3979,8.6339],[6.1542,62.3979,32.4979],[6.1667,62.3937,0.0],[6.1792,62.3937,0.0],[6.1833,62.3958,19.9601],[6.1896,62.3958,0.0],[6.1938,62.3937,0.0],[6.1979,62.3937,0.0],[6.2021,62.3958,0.0],[6.2167,62.3958,0.0],[6.2292,62.4,0.0],[6.2438,62.4,0.0],[6.2479,62.4021,4.2956],[6.2542,62.4,0.0],[6.2583,62.4021,33.15],[6.2771,62.4021,0.0],[6.2813,62.4042,0.0],[6.3042,62.4042,0.0],[6.3083,62.4063,58.9252],[6.3125,62.4042,0.0],[6.3245,62.4109,0.0],[6.3271,62.4146,5.5956],[6.3375,62.4125,0.0],[6.3458,62.4167,24.6727],[6.3604,62.4167,0.0],[6.3661,62.4193,0.0],[6.3661,62.4224,0.0],[6.363,62.4234,6.837],[6.3641,62.4286,0.0],[6.3609,62.4297,0.0],[6.3625,62.4313,0.0],[6.3665,62.4313,0.0],[6.3634,62.4344,20.8523],[6.3486,62.4308,5.9279]]],
[[[6.3441,62.434,0.0],[6.3446,62.4341,0.0],[6.3441,62.4365,0.0],[6.3438,62.4354,0.0],[6.3441,62.434,0.0]]],
[[[6.3146,62.4437,0.0],[6.3042,62.4479,0.0],[6.2813,62.4479,14.7294],[6.2734,62.4453,0.0],[6.275,62.4437,0.0],[6.2833,62.4437,0.0],[6.2875,62.4417,0.0],[6.3063,62.4417,0.0],[6.3161,62.4391,0.0],[6.3146,62.4375,0.0],[6.3026,62.4349,5.4539],[6.3042,62.4333,0.0],[6.3188,62.4333,2.1802],[6.3229,62.4313,0.0],[6.3271,62.4313,0.0],[6.3313,62.4333,35.3092],[6.3354,62.4313,0.0],[6.3391,62.4339,0.0],[6.3391,62.437,0.0],[6.3266,62.4432,0.0],[6.3146,62.4437,0.0]]]]}}