{"type": "Feature","bbox": [7.774,58.3178,8.1082,58.5617],"geometry": {"type": "MultiPolygon","coordinates": [[[[7.9352,58.5581,455.2462],[7.9267,58.5573,441.3],[7.9252,58.5617,451.1884],[7.9167,58.5609,456.3513],[7.9182,58.5565,476.4053],[7.9097,58.5557,492.0475],[7.9113,58.5513,482.4996],[7.8943,58.5496,498.907],[7.8928,58.5541,472.4534],[7.8843,58.5532,534.3091],[7.8827,58.5577,492.5657],[7.8743,58.5568,514.0046],[7.8774,58.548,491.0777],[7.8689,58.5472,480.0261],[7.8736,58.534,518.6168],[7.8651,58.5331,499.77],[7.8728,58.5111,493.0462],[7.822,58.5062,250.5952],[7.8236,58.5018,231.9038],[7.7982,58.4993,234.3808],[7.7998,58.4949,243.6682],[7.7913,58.4941,258.2364],[7.796,58.4809,193.8464],[7.7875,58.48,167.4068],[7.7953,58.458,183.1056],[7.8038,58.4588,166.5],[7.81,58.4412,195.653],[7.8015,58.4403,191.7085],[7.8031,58.4359,200.7119],[7.7947,58.4351,227.9064],[7.7962,58.4307,191.2213],[7.7878,58.4299,227.129],[7.7893,58.4255,257.5383],[7.7809,58.4246,206.8337],[7.7824,58.4202,196.4806],[7.774,58.4194,289.4021],[7.7755,58.415,167.7565],[7.784,58.4158,166.5],[7.7855,58.4114,182.6297],[7.8109,58.4139,211.8486],[7.8124,58.4095,166.5],[7.8378,58.4119,177.7418],[7.8393,58.4075,166.5],[7.8478,58.4083,166.5],[7.8524,58.3951,204.4772],[7.8608,58.3959,275.0163],[7.8624,58.3915,196.1017],[7.8877,58.394,198.117],[7.8892,58.3895,130.8831],[7.8977,58.3904,126.6929],[7.9192,58.3286,229.5616],[7.9276,58.3294,100.285],[7.9307,58.3206,208.3728],[7.9476,58.3222,201.7984],[7.9491,58.3178,93.7176],[7.9744,58.3202,86.9769],[7.9698,58.3335,168.5103],[7.9614,58.3327,245.9489],[7.9583,58.3415,269.8406],[7.9667,58.3423,147.9253],[7.9652,58.3467,196.7589],[7.9905,58.3491,239.079],[7.989,58.3535,217.8912],[7.9974,58.3544,227.7277],[7.9959,58.3588,250.4767],[8.0043,58.3596,277.7279],[8.0028,58.364,220.7279],[8.0112,58.3648,277.185],[8.0097,58.3692,279.9852],[8.0519,58.3732,234.8504],[8.0534,58.3688,218.2498],[8.045,58.368,263.6105],[8.0467,58.363,275.7833],[8.0427,58.3587,249.3717],[8.0396,58.3584,258.138],[8.0411,58.354,217.8372],[8.0495,58.3548,187.4605],[8.048,58.3592,201.7604],[8.0649,58.3608,220.0108],[8.0634,58.3652,188.8777],[8.0802,58.3668,218.8631],[8.0787,58.3712,199.0014],[8.0956,58.3728,221.936],[8.0865,58.3993,204.5673],[8.0949,58.4001,194.0808],[8.0919,58.4089,207.4628],[8.1004,58.4097,223.6341],[8.0958,58.423,211.9484],[8.1043,58.4238,202.4418],[8.0997,58.437,201.4767],[8.1082,58.4378,191.3832],[8.1066,58.4422,204.189],[8.0982,58.4414,203.4139],[8.0967,58.4459,239.3638],[8.0797,58.4443,236.8429],[8.0782,58.4487,229.0198],[8.0613,58.4471,291.7598],[8.0598,58.4515,220.9242],[8.0682,58.4523,212.6383],[8.0667,58.4567,209.7706],[8.0752,58.4575,286.5307],[8.0721,58.4663,319.982],[8.0806,58.4671,366.1516],[8.0791,58.4715,336.5488],[8.0706,58.4707,277.292],[8.0691,58.4752,259.125],[8.0606,58.4743,285.8467],[8.0591,58.4788,361.8465],[8.0506,58.478,254.201],[8.0491,58.4824,244.5774],[8.0322,58.4808,360.7964],[8.0306,58.4852,334.8423],[8.0222,58.4844,382.1856],[8.0191,58.4932,350.0565],[8.0107,58.4924,412.969],[8.0091,58.4968,442.2979],[8.0007,58.496,461.9126],[7.9976,58.5048,384.0268],[7.9891,58.504,443.6265],[7.986,58.5128,450.6661],[7.9606,58.5104,434.9723],[7.9591,58.5148,473.4691],[7.9421,58.5132,422.5335],[7.9298,58.5485,493.5529],[7.9383,58.5493,440.6561],[7.9352,58.5581,455.2462]]]]}
,"properties": {"GID_2": "NOR.3.10_1","GID_0": "NOR","country": "Norway","GID_1": "NOR.3_1","province": "Aust-Agder","NL_NAME_1": "NA","county": "Iveland","VARNAME_2": "NA","NL_NAME_2": "NA","TYPE_2": "Kommuner","ENGTYPE_2": "Municipality","CC_2": "NA","HASC_2": "NO.AA.IV","name": "Iveland.county","area_km2": 268.9445,"hist_schema_id": "Elevation0-9000","hist_area_km2": {"75": 0.0223,"100": 1.0017,"125": 4.2586,"150": 4.5809,"175": 15.6023,"200": 26.0749,"225": 25.8449,"250": 30.1846,"275": 32.5448,"300": 28.096,"325": 21.1816,"350": 15.4616,"375": 15.7862,"400": 15.4253,"425": 13.3824,"450": 9.635,"475": 4.749,"500": 2.9437,"525": 1.6377,"550": 0.5311}}}