{"type": "Feature","id": "911","bbox": [8.27174,62.27431,12.27952,64.43171],"geometry": {"type": "MultiPolygon","coordinates": [[[[8.41977,63.59199,3.7818],[8.4179,63.59357,0.0],[8.4122,63.59606,10.0568],[8.40789,63.59219,0.0],[8.41204,63.58918,0.0],[8.41204,63.58836,10.1013],[8.40724,63.58991,5.0809],[8.40146,63.59154,1.0106],[8.3921,63.59068,0.0],[8.39055,63.588,0.0],[8.38413,63.5867,14.4745],[8.3707,63.5867,2.6164],[8.36573,63.58487,3.7866],[8.36923,63.5799,0.0],[8.3672,63.5775,0.0],[8.36866,63.57518,0.0],[8.37892,63.57526,0.0],[8.38152,63.57164,0.0],[8.38282,63.56981,0.0],[8.38657,63.56603,0.0],[8.39291,63.56603,0.0],[8.39861,63.57005,20.0105],[8.40358,63.57526,6.5892],[8.41025,63.57864,3.4107],[8.41635,63.57901,0.0],[8.41546,63.57713,0.0],[8.41066,63.57644,0.0],[8.40707,63.57368,8.3703],[8.40219,63.57071,0.0],[8.39788,63.56399,0.0],[8.40366,63.5609,0.0],[8.40838,63.56468,0.0],[8.41082,63.56497,0.0],[8.41546,63.5631,0.0],[8.42075,63.56525,0.0],[8.4262,63.56603,0.0],[8.42433,63.56521,0.0],[8.41855,63.56061,0.0],[8.42823,63.56192,0.0],[8.43702,63.56822,0.0],[8.43914,63.57213,20.0582],[8.43629,63.57534,9.0925],[8.43409,63.57636,0.0],[8.43263,63.58019,0.0],[8.42921,63.57978,8.4909],[8.42628,63.58145,0.0],[8.42042,63.58181,16.625],[8.41765,63.58491,8.1467],[8.41855,63.588,0.0],[8.41977,63.59199,3.7818]]],
[[[9.81072,63.54857,60.8292],[9.79998,63.56314,0.0],[9.78549,63.57518,5.7976],[9.73959,63.60261,178.5697],[9.72023,63.62075,51.7818],[9.72397,63.63666,105.4938],[9.69907,63.64448,0.0],[9.66765,63.63776,0.0],[9.60792,63.61677,43.6407],[9.54607,63.6103,0.0],[9.51677,63.60371,0.0],[9.49057,63.58942,0.0],[9.52418,63.58763,36.6378],[9.54591,63.58055,0.0],[9.56056,63.56586,0.0],[9.57325,63.541,0.0],[9.55991,63.54584,362.7127],[9.53639,63.56729,101.2745],[9.51857,63.57518,0.0],[9.49537,63.57689,0.0],[9.47682,63.57176,0.0],[9.46013,63.56167,23.3566],[9.41668,63.52489,57.463],[9.40333,63.51846,0.0],[9.38819,63.52119,53.0486],[9.37827,63.53046,128.1978],[9.37452,63.5423,211.9072],[9.3777,63.55386,0.0],[9.38819,63.5622,0.0],[9.36801,63.5633,0.0],[9.34278,63.55561,0.0],[9.31902,63.54328,0.0],[9.30226,63.53083,0.0],[9.28338,63.52969,0.0],[9.25587,63.53531,0.0],[9.23715,63.53449,0.0],[9.24431,63.51374,0.0],[9.19256,63.51362,0.0],[9.16196,63.50715,0.0],[9.14861,63.48583,0.0],[9.16733,63.46686,0.0],[9.21022,63.45942,92.358],[9.29217,63.45913,16.3103],[9.2776,63.46479,38.7986],[9.26808,63.47346,231.8253],[9.26205,63.48517,206.5676],[9.25782,63.50007,0.0],[9.26808,63.49555,20.8069],[9.27996,63.48237,77.5569],[9.28533,63.47956,0.0],[9.30063,63.47777,0.0],[9.33302,63.46654,0.0],[9.36427,63.46625,264.7424],[9.45655,63.47956,136.2349],[9.47218,63.48554,247.9563],[9.48072,63.48705,147.6351],[9.48439,63.48265,83.7897],[9.4839,63.47606,0.0],[9.48194,63.47321,0.0],[9.18295,63.43452,0.0],[9.16912,63.42121,0.0],[9.16774,63.402,0.0],[9.19166,63.38361,0.0],[9.20436,63.37653,0.0],[9.21803,63.37202,0.0],[9.22999,63.37287,0.0],[9.26026,63.38125,162.852],[9.39389,63.38666,478.3889],[9.44996,63.40095,381.6827],[9.4769,63.40388,441.4475],[9.43458,63.38044,0.0],[9.26466,63.36294,0.0],[9.19158,63.33845,0.0],[9.14308,63.33088,0.0],[9.12525,63.32062,0.0],[9.09344,63.29401,0.0],[9.08872,63.32001,102.9927],[9.10288,63.34321,104.5643],[9.12623,63.36225,258.2448],[9.14861,63.37592,4.1067],[9.13551,63.38443,299.1972],[9.12859,63.39545,307.4971],[9.12306,63.40729,375.4471],[9.11451,63.41816,114.9739],[9.05299,63.45234,0.0],[9.01832,63.46654,0.0],[9.00636,63.46723,0.0],[9.00082,63.46613,0.0],[8.97486,63.4466,38.0344],[8.96746,63.43342,0.0],[8.9734,63.42438,0.0],[8.99724,63.42438,108.7991],[8.99724,63.41816,44.5385],[8.96754,63.41852,0.0],[8.92612,63.4239,4.1221],[8.89137,63.42133,0.0],[8.88111,63.39765,102.9006],[8.8589,63.40835,169.0975],[8.84262,63.42036,125.3071],[8.82342,63.42939,0.0],[8.79176,63.43122,0.0],[8.7864,63.42984,0.0],[8.79521,63.42419,2.3265],[8.82016,63.40507,244.9279],[8.83541,63.39621,130.6038],[8.85634,63.3875,376.9758],[8.89437,63.37773,334.319],[8.90863,63.36967,76.1482],[8.91499,63.35556,201.7156],[8.91174,63.33148,175.3804],[8.88523,63.27118,416.8889],[8.87696,63.23413,596.6436],[8.86899,63.21048,406.8758],[8.94313,63.21206,414.7183],[8.85092,63.20353,51.5175],[8.80993,63.19356,0.0],[8.80513,63.18893,0.0],[8.80792,63.18384,274.8612],[8.84859,63.16142,488.3405],[8.85866,63.13806,425.5174],[8.90104,63.12891,671.2569],[8.94791,63.13212,498.1807],[8.99928,63.14788,734.7048],[9.03679,63.15496,380.7874],[9.14511,63.1424,551.2988],[9.20562,63.1408,682.2189],[9.21802,63.14628,622.6967],[9.22055,63.15909,547.4644],[9.21539,63.17167,467.3187],[9.21399,63.1824,419.5529],[9.2204,63.19092,465.9584],[9.23792,63.19966,537.2408],[9.27905,63.21146,272.0],[9.32897,63.21066,331.823],[9.41512,63.20741,455.4644],[9.4671,63.19191,386.8751],[9.47377,63.17924,271.7825],[9.47609,63.1608,280.7605],[9.47749,63.11687,527.0257],[9.48028,63.10674,373.871],[9.48679,63.09475,273.815],[9.48648,63.07879,471.7215],[9.48307,63.06814,566.9327],[9.49005,63.05295,706.4819],[9.51955,63.04579,632.4756],[9.54126,63.03582,509.9203],[9.56518,63.02814,567.9363],[9.58069,63.02024,969.6899],[9.55604,63.00316,912.1844],[9.47144,62.9668,506.5669],[9.44974,62.95228,834.2714],[9.44163,62.93786,758.6887],[9.44493,62.92564,735.0583],[9.45113,62.91458,769.5853],[9.45268,62.89934,1018.0388],[9.45175,62.88727,953.2574],[9.4162,62.83317,828.0346],[9.36902,62.81932,901.2135],[9.30339,62.805,958.7919],[8.94837,62.74227,1072.7617],[8.93639,62.73581,913.9963],[8.93173,62.72956,764.9214],[8.94124,62.714,979.1182],[9.1681,62.58326,830.2332],[9.18314,62.57845,437.7459],[9.23063,62.57197,683.7081],[9.23838,62.56982,759.6502],[9.24489,62.56448,982.047],[9.24551,62.55675,1082.4067],[9.23931,62.54486,1240.7095],[9.22365,62.52874,1243.4193],[9.20903,62.50993,927.4852],[9.19756,62.48316,1653.499],[9.19368,62.45701,1691.8143],[9.17973,62.43521,1492.8727],[9.16686,62.41939,1502.782],[9.09064,62.38012,1891.6636],[9.24334,62.35056,1486.2834],[9.46106,62.30731,1375.3835],[9.51103,62.29103,1251.3632],[9.59728,62.27431,927.7347],[9.78305,62.28581,1108.6919],[9.82677,62.32126,1026.0966],[9.83344,62.3301,1021.0],[9.84837,62.34369,1087.4907],[9.85116,62.3518,1187.4832],[9.85535,62.35772,1231.6488],[9.86372,62.36074,1224.5874],[9.90299,62.35382,1021.0],[9.91741,62.35718,1032.5551],[9.93322,62.365,1127.156],[9.95234,62.38374,1332.1923],[9.97079,62.39666,1286.9907],[9.98537,62.40498,1206.8297],[10.0729,62.42487,987.6237],[10.08701,62.42836,1010.4993],[10.105,62.44265,969.2309],[10.08887,62.48456,1040.8599],[10.07523,62.51078,995.5715],[10.07663,62.54213,1038.4348],[10.09693,62.58579,928.696],[10.15683,62.65494,658.2726],[10.28566,62.70739,1050.1237],[10.58667,62.68832,974.0046],[10.67354,62.69599,1076.7269],[10.7046,62.6877,1051.7374],[10.71297,62.68098,1104.2692],[10.71591,62.67674,1113.719],[10.72212,62.67248,1093.5553],[10.73002,62.66891,1055.1843],[10.74263,62.66904,1118.1201],[10.75286,62.67034,1148.3334],[10.80563,62.69586,1021.8732],[10.89652,62.7078,900.0121],[11.12524,62.67982,1023.8591],[11.16886,62.66612,1016.7017],[11.17335,62.65158,971.3204],[11.1749,62.63933,915.0869],[11.18436,62.61894,937.1072],[11.1979,62.59964,873.3373],[11.21449,62.58455,860.928],[11.235,62.56931,748.2725],[11.4769,62.46115,795.493],[11.49287,62.44973,822.4258],[11.51602,62.42606,931.9414],[11.54129,62.40702,827.3467],[11.57307,62.3965,826.8128],[11.63968,62.39046,933.4287],[11.66666,62.38332,979.9865],[11.68604,62.37588,954.4415],[11.70361,62.37113,739.0256],[11.71926,62.36875,716.459],[11.79466,62.37909,814.1769],[11.82293,62.38591,851.1221],[12.01222,62.36609,754.3524],[12.17097,62.33297,752.2809],[12.27944,62.34421,759.411],[12.27952,62.34421,759.411],[12.09123,62.58631,1075.1969],[12.09009,62.60633,992.2504],[12.10312,62.63403,817.2762],[12.13867,62.68271,861.9843],[12.15407,62.71051,824.6791],[12.15624,62.73369,942.359],[12.09702,62.88655,1030.0192],[12.0933,62.90743,1016.627],[12.10436,62.92334,1056.2452],[12.2227,63.00148,1675.8815],[12.05983,63.20477,713.6879],[11.64247,63.19687,868.5765],[11.45907,63.33673,856.5323],[10.96298,63.34895,383.7833],[10.93254,63.35427,382.4919],[10.91533,63.36016,401.1374],[10.89714,63.37365,294.2553],[10.88443,63.3867,315.8997],[10.87588,63.44591,0.0],[10.84099,63.444,0.0],[10.82976,63.44058,1.3536],[10.81023,63.42121,21.8644],[10.79786,63.41739,0.0],[10.7837,63.42304,0.0],[10.7588,63.43867,0.0],[10.69597,63.44733,0.0],[10.69044,63.45234,0.0],[10.57691,63.43073,37.8424],[10.54615,63.43488,0.0],[10.51596,63.44709,0.0],[10.48194,63.45466,0.0],[10.44728,63.45677,13.7349],[10.41554,63.45234,0.0],[10.38689,63.44306,0.0],[10.37306,63.44172,0.0],[10.35467,63.44489,0.0],[10.31723,63.46369,0.0],[10.30047,63.46654,0.0],[10.15602,63.45234,0.0],[10.094,63.43867,0.0],[10.08367,63.43256,0.0],[10.06007,63.41498,0.0],[10.04957,63.41132,0.0],[10.04086,63.4064,0.0],[10.04225,63.39476,0.0],[10.04908,63.3819,0.0],[10.05641,63.37287,0.0],[10.0687,63.36555,0.0],[10.08399,63.36127,0.0],[10.24488,63.34406,33.6213],[10.26588,63.33194,10.626],[10.26808,63.32892,10.9217],[10.27272,63.32685,10.7027],[10.27735,63.3238,11.2961],[10.27955,63.31826,3.5426],[10.27833,63.3122,0.5],[10.27573,63.30948,9.2677],[10.27329,63.30781,8.6445],[10.27215,63.30488,40.2256],[10.27223,63.28168,8.5539],[10.26857,63.27302,9.6419],[10.25904,63.26728,41.0796],[10.25441,63.31444,185.4216],[10.2422,63.32632,9.8198],[10.21127,63.3288,0.0],[10.13893,63.32233,0.0],[10.09929,63.3249,118.3214],[10.04705,63.35228,0.0],[10.01344,63.36188,0.0],[9.97918,63.36347,0.0],[9.93133,63.34178,0.0],[9.89422,63.3312,0.0],[9.8567,63.32543,0.0],[9.83326,63.3288,166.1675],[9.92848,63.37718,217.5145],[9.94142,63.39448,234.3118],[9.96062,63.42772,120.4619],[9.94744,63.44953,74.7705],[9.89869,63.47736,0.0],[9.80592,63.51374,19.1236],[9.81381,63.53205,276.9073],[9.81072,63.54857,60.8292]]],
[[[8.96518,63.65624,0.0],[8.95167,63.65742,0.0],[8.91871,63.65086,0.0],[8.88526,63.64932,0.0],[8.86817,63.64619,0.0],[8.86069,63.64033,0.0],[8.85939,63.62816,0.0],[8.85475,63.61982,0.0],[8.84645,63.61591,21.3941],[8.83334,63.61677,48.4573],[8.82765,63.63959,13.5062],[8.78826,63.64004,0.0],[8.6211,63.60993,24.4621],[8.58253,63.61359,0.0],[8.56471,63.61188,0.0],[8.54526,63.60248,2.1485],[8.58465,63.5871,0.0],[8.68181,63.5788,45.7713],[8.72348,63.56778,48.6555],[8.70948,63.56363,0.0],[8.69109,63.56342,0.0],[8.61801,63.57075,0.0],[8.43539,63.5622,0.0],[8.41334,63.55781,0.0],[8.31723,63.51317,27.7552],[8.30095,63.50141,0.0],[8.28842,63.48672,0.0],[8.27784,63.46654,0.0],[8.28468,63.46654,18.4144],[8.2824,63.45506,0.0],[8.28826,63.44855,0.0],[8.29933,63.4455,26.3634],[8.31267,63.44489,0.0],[8.31853,63.44709,7.8707],[8.3213,63.45197,10.7936],[8.32488,63.45685,9.5752],[8.33302,63.45913,9.0],[8.33961,63.45816,32.2525],[8.34295,63.45588,13.594],[8.34449,63.45356,0.0],[8.34604,63.45234,6.4619],[8.39031,63.43382,8.7977],[8.40846,63.43122,0.0],[8.47706,63.43122,37.3532],[8.50359,63.43423,13.5],[8.57325,63.45913,67.8715],[8.66228,63.46833,0.0],[8.71803,63.48404,54.9695],[8.85857,63.48701,62.8054],[9.10678,63.53327,70.2122],[9.14186,63.55475,27.2275],[9.17604,63.5622,46.2539],[9.17604,63.56778,45.6274],[9.13868,63.56778,23.2917],[9.12672,63.56908,9.2354],[9.12428,63.57258,35.0711],[9.12469,63.57713,20.0295],[9.12135,63.58198,79.9403],[9.08009,63.60619,0.0],[9.04868,63.60798,0.0],[9.01515,63.59724,0.0],[8.98829,63.59276,0.0],[8.97438,63.62027,49.2993],[8.96062,63.62466,0.0],[8.95688,63.63044,82.7368],[8.95965,63.63434,88.3519],[8.96599,63.64004,71.2777],[8.97299,63.64435,59.6018],[8.97731,63.64411,40.5027],[8.96518,63.65624,0.0]]],
[[[9.11891,63.65176,7.9426],[9.1185,63.65534,48.235],[9.1076,63.65982,31.1983],[9.08473,63.66181,0.0],[9.05787,63.66108,17.3855],[9.04819,63.65917,11.0398],[9.04151,63.65461,5.4535],[9.04054,63.64924,0.0],[9.03826,63.64423,0.0],[9.03126,63.63809,37.3655],[9.03053,63.633,8.0557],[9.02687,63.63032,0.0],[9.01401,63.6267,0.0],[9.03012,63.61725,63.1692],[9.07635,63.61298,41.4277],[9.11052,63.62116,9.161],[9.13233,63.62865,0.0],[9.16212,63.63386,0.0],[9.17091,63.64142,20.9427],[9.167,63.6472,24.2267],[9.16,63.64777,0.0],[9.15659,63.64842,0.0],[9.15024,63.65095,36.7963],[9.14454,63.65241,0.0],[9.1233,63.64985,0.0],[9.11891,63.65176,7.9426]]],
[[[9.07228,63.68411,12.3685],[9.04575,63.68236,9.9505],[9.03631,63.67857,0.0],[9.03533,63.67182,0.0],[9.03679,63.66645,0.0],[9.04119,63.66633,3.4864],[9.10483,63.66523,9.9232],[9.11232,63.66946,7.5697],[9.11484,63.67516,4.6903],[9.11036,63.67739,0.0],[9.10694,63.67739,7.1974],[9.10369,63.67601,7.8179],[9.07228,63.68411,12.3685]]],
[[[9.42954,63.66523,3.1035],[9.43198,63.67052,0.0],[9.43303,63.67805,0.0],[9.42913,63.68098,0.0],[9.4227,63.68285,4.7623],[9.41806,63.687,0.0],[9.41293,63.69033,0.0],[9.40203,63.68382,0.0],[9.39503,63.68142,0.0],[9.39234,63.67609,0.0],[9.38836,63.67235,3.3054],[9.38128,63.66987,1.2366],[9.37241,63.66568,2.7232],[9.37452,63.65961,0.0],[9.37135,63.65705,9.7188],[9.36752,63.65306,2.3194],[9.37452,63.65339,0.0],[9.37973,63.65148,5.7091],[9.38054,63.64936,4.661],[9.38811,63.64594,0.0],[9.3969,63.64842,0.0],[9.40105,63.64671,0.0],[9.39926,63.64944,8.309],[9.39405,63.65213,14.1681],[9.39975,63.65933,0.0],[9.41106,63.65758,0.0],[9.41464,63.65115,14.1123],[9.42416,63.63992,0.0],[9.44386,63.63662,0.0],[9.45769,63.64842,47.9181],[9.43914,63.65213,0.0],[9.43336,63.65823,2.2814],[9.42954,63.66523,3.1035]]],
[[[8.71046,63.79702,1.2036],[8.70989,63.7991,2.044],[8.68165,63.79621,10.0657],[8.67579,63.7921,2.5561],[8.67311,63.79141,12.4067],[8.67172,63.79609,9.1713],[8.66668,63.79678,0.0],[8.66131,63.79568,1.7673],[8.65398,63.79043,0.0],[8.62582,63.78494,2.4012],[8.62013,63.78083,4.7319],[8.61508,63.77509,8.0162],[8.61476,63.77171,0.0],[8.65886,63.78107,0.0],[8.66741,63.77969,0.0],[8.67848,63.78026,20.2196],[8.71046,63.79702,1.2036]]],
[[[8.79689,63.805,0.0],[8.79982,63.80817,11.1436],[8.80209,63.81159,18.6061],[8.80543,63.81538,5.2196],[8.78736,63.81245,0.0],[8.7693,63.80549,0.0],[8.75245,63.80195,3.567],[8.73715,63.80915,0.0],[8.6823,63.7801,18.009],[8.67506,63.76756,25.7781],[8.6902,63.77424,14.2118],[8.70851,63.77924,20.4868],[8.72731,63.78002,19.6126],[8.74342,63.7744,9.9509],[8.51808,63.71979,0.0],[8.33155,63.70181,0.0],[8.27174,63.68504,0.0],[8.29314,63.67329,2.1042],[8.31349,63.66816,5.1202],[8.33522,63.66816,10.3694],[8.36036,63.67137,15.2223],[8.41432,63.68285,10.6626],[8.44166,63.68504,21.9524],[8.4559,63.67764,12.733],[8.47047,63.68448,16.4347],[8.52556,63.69184,36.8764],[8.4559,63.67137,0.0],[8.47584,63.66429,12.9879],[8.54526,63.67764,32.7681],[8.74342,63.68793,15.3542],[8.792,63.69807,36.9187],[8.82586,63.71979,23.2663],[8.82553,63.73408,32.4603],[8.82211,63.74274,20.7979],[8.81739,63.75019,39.3856],[8.81284,63.76073,13.3233],[8.81072,63.78164,11.7617],[8.80535,63.79096,7.4615],[8.79176,63.79491,4.5659],[8.79176,63.8017,0.0],[8.79689,63.805,0.0]]],
[[[9.42384,63.82282,0.0],[9.42766,63.8253,6.347],[9.41407,63.82718,0.0],[9.40846,63.82066,0.0],[9.40537,63.82091,8.7291],[9.40252,63.82001,0.0],[9.40089,63.81879,0.0],[9.39007,63.81835,0.0],[9.38494,63.81338,1.2818],[9.38868,63.81411,0.0],[9.39405,63.81476,0.4616],[9.39283,63.81224,0.0],[9.3825,63.798,0.0],[9.38705,63.78673,0.0],[9.39291,63.78913,0.0],[9.3978,63.78958,3.7009],[9.4039,63.78848,0.0],[9.40561,63.79531,11.8398],[9.40903,63.79694,2.3411],[9.41912,63.79605,4.0318],[9.42823,63.79885,6.2381],[9.43458,63.80602,8.7993],[9.44036,63.81647,9.4101],[9.438,63.82095,9.2199],[9.42799,63.82128,0.0],[9.42384,63.82046,0.0],[9.42384,63.82282,0.0]]],
[[[8.47592,63.85541,0.0],[8.47096,63.85615,0.0],[8.46876,63.8544,0.0],[8.46713,63.85179,0.0],[8.46437,63.85086,5.362],[8.46184,63.84992,2.6973],[8.45924,63.8485,0.0],[8.45948,63.84618,0.0],[8.45419,63.84671,29.6169],[8.44654,63.84715,0.0],[8.43914,63.84138,0.0],[8.44614,63.83881,5.1931],[8.4533,63.83735,0.0],[8.4568,63.83588,0.0],[8.46209,63.83836,4.4114],[8.4673,63.84097,0.0],[8.46974,63.84463,11.093],[8.47063,63.84715,7.3401],[8.4725,63.84561,4.7765],[8.47543,63.84427,0.0],[8.47755,63.84622,0.0],[8.47755,63.84805,2.4824],[8.48113,63.84585,0.0],[8.48146,63.84243,0.0],[8.48162,63.84064,0.0],[8.48211,63.8332,4.1999],[8.48707,63.83031,0.0],[8.48911,63.83369,4.9793],[8.48984,63.83836,6.3282],[8.48902,63.83991,2.0602],[8.49358,63.84276,0.0],[8.49448,63.84606,0.0],[8.49822,63.84744,0.0],[8.49814,63.85114,7.545],[8.4948,63.85183,0.0],[8.49366,63.84935,4.0387],[8.4913,63.84813,0.0],[8.48911,63.85017,2.4901],[8.48894,63.85415,5.041],[8.48479,63.85362,2.5958],[8.47592,63.85541,0.0]]],
[[[9.13608,63.99042,0.0],[9.13665,63.99388,0.0],[9.13299,63.9962,0.0],[9.1255,63.98949,0.0],[9.12078,63.99103,0.0],[9.11565,63.99042,0.0],[9.11378,63.98729,0.0],[9.10939,63.98461,0.2609],[9.10125,63.9831,0.0],[9.11866,63.97171,0.0],[9.12607,63.97728,0.0],[9.12493,63.98208,18.4739],[9.12672,63.98416,0.7509],[9.13624,63.9853,0.0],[9.14308,63.98668,0.0],[9.13909,63.98815,0.0],[9.13608,63.99042,0.0]]],
[[[9.93084,64.02753,0.0],[9.91969,64.02851,14.9428],[9.92018,64.03156,38.1794],[9.91749,64.03718,0.0],[9.90358,64.04548,8.5507],[9.88852,64.04906,4.6363],[9.87973,64.04352,0.0],[9.87525,64.03832,0.0],[9.85108,64.03823,0.7536],[9.84376,64.03319,0.9655],[9.84742,64.02631,51.5312],[9.85678,64.02338,8.4728],[9.86736,64.02359,0.0],[9.8755,64.02269,0.0],[9.88111,64.01996,0.0],[9.87379,64.01655,0.0],[9.85597,64.01301,0.0],[9.85385,64.00894,6.2823],[9.86752,64.0065,10.7194],[9.88087,64.00263,10.7856],[9.89226,63.99702,3.9023],[9.90821,63.9975,3.9852],[9.92848,64.00316,0.0],[9.94386,64.01146,23.9759],[9.93995,64.02212,18.4894],[9.93084,64.02753,0.0]]],
[[[10.01637,64.05858,92.4459],[10.01677,64.06517,19.4742],[9.98797,64.07933,9.248],[9.96852,64.0799,0.0],[9.952,64.07722,0.0],[9.93995,64.07237,1.3857],[9.93442,64.06741,0.9082],[9.93222,64.0644,0.0],[9.93198,64.06078,13.6249],[9.93995,64.05532,0.0],[9.94207,64.04987,13.6373],[9.94793,64.04499,0.0],[9.9629,64.04076,0.0],[10.00677,64.0397,0.0],[10.01637,64.05858,92.4459]]],
[[[9.39243,64.17227,0.0],[9.39015,64.17666,0.0],[9.38364,64.17849,0.0],[9.37281,64.17414,0.0],[9.38828,64.17044,0.0],[9.39243,64.17227,0.0]]],
[[[10.54412,64.42617,164.1194],[10.51157,64.43171,0.0],[10.49733,64.4291,0.0],[10.48308,64.42373,0.0],[10.47104,64.41572,1.3371],[10.46388,64.4051,3.6062],[10.55299,64.4051,155.3863],[10.56023,64.40278,19.149],[10.56422,64.39789,0.0],[10.56691,64.39301,0.0],[10.57032,64.39077,38.8551],[10.58139,64.39029,58.8099],[10.59132,64.38801,4.9487],[10.5984,64.383,0.0],[10.60108,64.37397,0.0],[10.60711,64.36555,0.0],[10.62086,64.36294,26.5378],[10.64894,64.36408,95.0226],[10.64894,64.35663,0.0],[10.61459,64.34642,30.3086],[10.59832,64.34577,121.5736],[10.56739,64.36392,233.7749],[10.54754,64.36888,45.5917],[10.50473,64.37031,0.0],[10.50473,64.36408,0.0],[10.53932,64.35326,248.4372],[10.55356,64.34345,105.4424],[10.55942,64.32933,117.627],[10.51734,64.35004,0.0],[10.49391,64.35643,0.0],[10.47071,64.35663,0.0],[10.47755,64.3498,0.0],[10.47096,64.35041,0.0],[10.45021,64.3498,12.7421],[10.45216,64.331,0.0],[10.44955,64.31281,0.0],[10.45769,64.30101,2.3367],[10.49122,64.30142,0.0],[10.49122,64.29523,0.0],[10.47633,64.29584,0.0],[10.46258,64.29413,46.793],[10.44939,64.29043,3.1388],[10.43629,64.28498,20.1508],[10.40748,64.28929,34.4492],[10.39137,64.28779,0.0],[10.39186,64.27778,0.0],[10.39731,64.26439,146.5587],[10.35157,64.27497,0.0],[10.32683,64.27412,0.0],[10.33082,64.26411,0.0],[10.33351,64.26044,0.0],[10.2837,64.25251,0.0],[10.2588,64.24559,54.1653],[10.24537,64.23379,0.0],[10.3235,64.22224,103.7233],[10.36541,64.20718,0.0],[10.37452,64.18537,0.0],[10.36508,64.18504,0.0],[10.32,64.2058,60.7631],[10.29713,64.20995,0.0],[10.25465,64.20551,0.0],[10.23113,64.2058,0.0],[10.23341,64.2014,0.0],[10.23439,64.20108,0.0],[10.23732,64.19896,0.0],[10.22218,64.19261,94.77],[10.20541,64.19404,25.8818],[10.18775,64.1979,0.0],[10.16969,64.19896,0.0],[10.17237,64.19595,0.0],[10.17449,64.19257,0.0],[10.17758,64.18903,0.0],[10.18336,64.18537,0.0],[10.17677,64.17495,0.0],[10.17791,64.16669,81.3839],[10.18523,64.16087,23.1384],[10.19703,64.15803,0.0],[10.15602,64.15803,0.0],[10.15602,64.15119,19.9547],[10.16098,64.14765,0.0],[10.16969,64.13691,217.7094],[10.1526,64.14077,18.0747],[10.1338,64.1385,0.0],[10.11736,64.13044,0.0],[10.10768,64.11709,0.0],[10.19142,64.11738,241.2289],[10.21754,64.12393,234.7877],[10.20883,64.10977,92.456],[10.19207,64.10147,0.0],[10.10792,64.08975,111.0304],[10.0984,64.09186,233.5468],[10.08432,64.10126,0.0],[10.03582,64.11546,0.0],[10.01368,64.1188,0.0],[9.99781,64.10956,0.0],[9.99578,64.09545,0.0],[10.00318,64.08198,0.0],[10.01482,64.0705,0.0],[10.02565,64.06245,28.6953],[10.01441,64.04922,48.3671],[10.01393,64.04426,0.0],[10.01824,64.0351,0.0],[9.99806,64.03628,0.0],[9.99122,64.0257,0.0],[9.98927,64.00951,0.0],[9.98414,63.99348,0.0],[9.97234,63.98383,0.0],[9.94483,63.97163,0.0],[9.93629,63.95942,0.0],[9.96306,63.95966,13.8651],[9.99301,63.96454,134.5995],[10.0586,63.9868,126.0257],[10.06446,63.98281,90.9969],[10.06959,63.9763,181.6329],[10.08033,63.97305,25.7325],[10.09213,63.97606,23.8229],[10.10222,63.98212,188.0016],[10.11305,63.98701,154.2692],[10.1281,63.98672,33.4841],[10.08725,63.9665,1.4526],[9.97267,63.94184,0.0],[9.94313,63.9184,0.0],[9.96192,63.91885,21.3209],[9.99391,63.92939,0.0],[10.03126,63.93427,32.7429],[10.06398,63.94359,24.3856],[10.09571,63.94868,21.0378],[10.12615,63.96206,49.6913],[10.14177,63.96556,31.8148],[10.15886,63.96369,114.3048],[10.17237,63.95722,11.2703],[10.19703,63.9383,0.0],[10.17368,63.93407,71.5148],[10.11598,63.94111,0.0],[10.06804,63.91767,0.0],[9.97047,63.9042,27.7313],[9.93686,63.8863,0.0],[9.92579,63.88369,21.2169],[9.90675,63.8841,96.7673],[9.90773,63.88642,44.1362],[9.91456,63.89151,34.732],[9.91236,63.90078,0.0],[9.8921,63.90253,0.0],[9.79225,63.88369,0.0],[9.81121,63.87474,10.7739],[9.83074,63.87059,0.0],[9.87428,63.86937,40.9751],[9.87428,63.86319,16.0249],[9.83123,63.86164,3.2318],[9.66277,63.81879,0.0],[9.54591,63.7744,0.0],[9.58131,63.7591,0.0],[9.77809,63.7744,51.3987],[9.77809,63.76756,3.1243],[9.71949,63.76288,0.0],[9.55274,63.72602,0.0],[9.55274,63.71979,4.3434],[9.56788,63.70677,0.0],[9.55128,63.68309,0.0],[9.54412,63.66559,0.0],[9.58676,63.67137,2.296],[9.6211,63.68504,8.8005],[9.62582,63.68586,9.9482],[9.63705,63.68431,12.9485],[9.6421,63.68504,13.489],[9.64283,63.6872,12.161],[9.64381,63.69164,21.3276],[9.64568,63.69636,4.2315],[9.64894,63.69929,3.8583],[9.72885,63.70209,15.2139],[9.77955,63.72321,108.69],[9.8576,63.73163,19.8921],[9.90659,63.75727,193.2061],[9.95582,63.7663,183.6981],[9.97389,63.76756,144.5478],[9.99187,63.77204,175.9136],[10.01197,63.7801,168.8726],[10.02955,63.78351,85.3192],[10.03932,63.7744,190.0658],[10.02801,63.77139,194.8863],[10.01759,63.76594,139.0445],[10.00961,63.75764,0.0],[10.00522,63.74653,0.0],[10.03028,63.74799,0.0],[10.07594,63.76581,16.2846],[10.10141,63.76756,237.157],[10.07097,63.74995,92.1244],[10.03631,63.73461,135.4309],[9.99985,63.72386,0.0],[9.92408,63.71548,0.0],[9.84344,63.69623,0.0],[9.79908,63.69184,0.0],[9.8034,63.68159,0.0],[9.80592,63.67764,0.0],[9.80006,63.67471,0.0],[9.79737,63.67178,0.0],[9.79558,63.66852,0.0],[9.79225,63.66454,0.0],[9.81715,63.65884,96.4843],[9.82643,63.65351,0.0],[9.83326,63.64411,0.0],[9.81446,63.63825,0.0],[9.8108,63.62714,25.5287],[9.81821,63.61408,0.0],[9.83326,63.60248,0.0],[9.84986,63.59736,260.6598],[9.88559,63.59504,300.6331],[9.90211,63.58942,0.0],[9.89845,63.58637,0.0],[9.88795,63.57518,0.0],[9.90398,63.55459,0.0],[9.90838,63.53242,0.0],[9.91822,63.51472,0.0],[9.9559,63.5065,162.744],[9.96274,63.50373,82.8877],[9.96925,63.50019,28.1029],[9.97389,63.49665,0.0],[9.98015,63.49335,0.0],[9.98569,63.49502,0.0],[9.99155,63.49828,12.3725],[9.99838,63.50007,14.9662],[10.04103,63.50165,152.6217],[10.08033,63.50751,263.1026],[10.16635,63.53693,352.8726],[10.19361,63.541,91.0658],[10.19792,63.54228,108.1377],[10.19781,63.54237,108.1377],[10.17641,63.55987,248.0874],[10.16845,63.57341,234.6857],[10.16334,63.58785,196.9345],[10.16551,63.59782,134.3235],[10.17254,63.60532,132.9732],[10.18106,63.6125,127.9179],[10.20137,63.63493,134.2448],[10.23972,63.65456,169.6283],[10.41552,63.71376,326.6369],[10.48223,63.73771,369.5823],[10.49665,63.74831,389.8299],[10.49836,63.75104,395.3997],[10.50022,63.75373,390.2991],[10.50254,63.76081,467.2102],[10.52554,63.80458,403.7318],[10.58109,63.85822,401.3427],[10.6416,63.89783,553.1254],[10.78247,63.95532,396.9171],[10.79834,63.9684,422.8847],[10.80128,63.98015,362.4114],[10.80082,63.98865,318.3898],[10.80733,63.99429,285.1675],[10.82299,64.00085,317.0215],[10.82764,64.00643,275.2873],[10.82624,64.01364,318.071],[10.81756,64.02263,293.5132],[10.81803,64.03433,305.2279],[10.82299,64.04149,341.8416],[10.87451,64.07469,459.1471],[10.91688,64.10642,528.4073],[10.87901,64.1274,517.8517],[10.84536,64.1289,525.7409],[10.81183,64.14355,344.506],[10.83276,64.19665,497.0475],[10.90898,64.2229,258.641],[10.96406,64.2937,233.769],[10.88598,64.30489,351.3454],[10.78966,64.33385,267.9557],[10.76092,64.34667,221.7699],[10.70894,64.38039,343.7521],[10.66145,64.39473,103.2267],[10.62553,64.40522,102.0625],[10.62522,64.40531,102.0625],[10.62827,64.39765,0.0],[10.59913,64.40209,69.0733],[10.54412,64.42617,164.1194]]]]}
,"properties": {"ISO3166-1-Alpha-3": "NOR","country": "Norway","fill": "#00F","name": "Sør-Trøndelag","area_km2": 18754.19,"hist_schema_id": "Elevation0-9000","hist_area_km2": {"0": 641.56,"25": 433.8,"50": 377.84,"75": 398.01,"100": 318.04,"125": 293.23,"150": 392.98,"175": 362.29,"200": 371.94,"225": 402.04,"250": 434.0,"275": 484.45,"300": 486.81,"325": 463.7,"350": 465.66,"375": 451.7,"400": 429.76,"425": 409.18,"450": 404.55,"475": 384.28,"500": 360.18,"525": 376.94,"550": 403.07,"575": 376.93,"600": 349.48,"625": 356.71,"650": 419.61,"675": 383.0,"700": 455.25,"725": 486.75,"750": 528.1,"775": 525.47,"800": 468.62,"825": 451.7,"850": 436.58,"875": 406.61,"900": 365.19,"925": 310.34,"950": 275.22,"975": 242.75,"1000": 218.57,"1025": 198.95,"1050": 186.32,"1075": 162.73,"1100": 140.89,"1125": 134.62,"1150": 119.99,"1175": 109.29,"1200": 103.26,"1225": 99.76,"1250": 97.04,"1275": 93.44,"1300": 91.97,"1325": 83.92,"1350": 78.09,"1375": 70.6,"1400": 57.98,"1425": 47.49,"1450": 45.18,"1475": 42.39,"1500": 35.54,"1525": 30.28,"1550": 26.62,"1575": 22.02,"1600": 17.4,"1625": 14.6,"1650": 11.21,"1675": 8.79,"1700": 5.28,"1725": 4.65,"1750": 3.89,"1775": 3.0,"1800": 1.86,"1825": 1.17,"1850": 0.71,"1875": 0.36}}}