{"type": "Feature","bbox": [4.8984,60.2604,5.1911,60.4557],"geometry": {"type": "MultiPolygon","coordinates": [[[[5.1542,60.2917,10.0458],[5.1547,60.2901,4.9794],[5.1604,60.2896,15.6408],[5.1661,60.2932,17.1442],[5.163,60.2943,61.9513],[5.162,60.2974,5.7415],[5.1563,60.3,0.0],[5.1536,60.2964,0.0],[5.1505,60.2953,0.0],[5.1542,60.2917,10.0458]]],
[[[4.9771,60.3063,33.7785],[4.9813,60.3042,0.0],[4.9896,60.3042,0.0],[4.9917,60.3063,0.0],[4.9849,60.312,0.0],[4.9792,60.3125,12.1509],[4.9755,60.3099,0.0],[4.9755,60.3068,32.0853],[4.9771,60.3063,33.7785]]],
[[[5.1646,60.3047,51.7743],[5.1667,60.3021,27.9787],[5.1807,60.3047,13.2971],[5.1818,60.312,28.5929],[5.187,60.313,0.0],[5.188,60.3161,0.0],[5.1911,60.3172,0.0],[5.1911,60.3203,7.008],[5.188,60.3214,0.0],[5.1859,60.3255,3.7619],[5.1849,60.3328,14.4971],[5.1776,60.3328,14.0829],[5.1734,60.3307,0.0],[5.1724,60.3276,4.2008],[5.1672,60.3266,5.9507],[5.1661,60.3234,41.8191],[5.1589,60.3224,0.0],[5.1589,60.3172,0.0],[5.1661,60.3141,48.1343],[5.1646,60.3047,51.7743]]],
[[[5.0848,60.2644,69.2969],[5.0828,60.2688,61.6486],[5.0917,60.2698,0.0],[5.0892,60.275,10.8903],[5.0839,60.2755,35.2436],[5.0849,60.2786,0.0],[5.0776,60.2797,29.9016],[5.0776,60.2828,0.0],[5.0833,60.2833,26.1972],[5.0932,60.2807,0.0],[5.1063,60.2729,0.0],[5.1104,60.2729,0.0],[5.1146,60.275,30.0011],[5.1229,60.275,0.0],[5.1271,60.2729,0.0],[5.1391,60.2776,0.0],[5.1391,60.2828,17.1782],[5.1354,60.2854,14.4309],[5.1375,60.2896,0.0],[5.1339,60.2922,12.4087],[5.1333,60.3,0.0],[5.1313,60.3042,25.9847],[5.1349,60.3068,0.0],[5.1359,60.3141,0.0],[5.1411,60.3161,0.0],[5.138,60.3172,14.5238],[5.137,60.3224,21.7708],[5.1339,60.3234,40.9947],[5.1328,60.3266,9.8516],[5.1255,60.3276,50.8981],[5.1276,60.3307,0.0],[5.1307,60.3318,31.9741],[5.1307,60.3349,32.4038],[5.1234,60.3359,0.0],[5.1151,60.3401,55.9559],[5.1146,60.3417,20.3752],[5.1172,60.3495,0.0],[5.1229,60.35,17.7274],[5.1286,60.3474,29.612],[5.1297,60.3443,23.781],[5.1328,60.3432,54.5175],[5.1318,60.338,0.0],[5.1375,60.3354,0.0],[5.1417,60.3354,9.4305],[5.1458,60.3333,24.5271],[5.1599,60.338,0.0],[5.1583,60.3417,0.0],[5.162,60.3443,0.0],[5.162,60.3516,0.0],[5.1547,60.3526,33.1128],[5.1557,60.3557,0.0],[5.1526,60.3578,0.0],[5.1599,60.3589,0.0],[5.1641,60.362,0.0],[5.1604,60.3646,30.2958],[5.1625,60.3688,0.0],[5.162,60.3724,0.0],[5.1589,60.3734,29.1647],[5.1578,60.3786,26.7949],[5.1547,60.3797,69.0791],[5.1563,60.3833,0.0],[5.1557,60.387,0.0],[5.1484,60.388,50.4217],[5.1375,60.3937,29.5639],[5.1333,60.3937,29.1355],[5.1292,60.3917,45.3692],[5.1208,60.3917,0.0],[5.1099,60.3974,31.4918],[5.1068,60.3974,47.9752],[5.1057,60.3943,39.0037],[5.1026,60.3932,29.3105],[5.1057,60.3901,39.9771],[5.1026,60.388,22.7951],[5.1063,60.3854,38.2174],[5.1036,60.3797,10.8445],[5.1005,60.3797,35.2067],[5.0979,60.3833,31.0518],[5.0896,60.3833,0.0],[5.0839,60.3807,0.0],[5.0833,60.3792,27.1698],[5.088,60.3755,0.0],[5.0953,60.3745,0.0],[5.1021,60.3708,3.3845],[5.1078,60.3714,0.0],[5.1089,60.3745,0.0],[5.112,60.3745,0.0],[5.1104,60.3688,0.0],[5.1141,60.3659,14.0885],[5.1141,60.3589,0.0],[5.1083,60.3583,16.4098],[5.1057,60.362,11.0295],[5.1,60.3625,21.8421],[5.0974,60.3589,0.0],[5.0896,60.3563,8.488],[5.0849,60.3599,0.0],[5.0776,60.3609,0.0],[5.0766,60.3641,0.0],[5.0651,60.3693,34.9726],[5.063,60.3734,28.7683],[5.0589,60.3755,18.4093],[5.0578,60.3849,12.4341],[5.0547,60.3859,48.4483],[5.0557,60.3891,0.0],[5.0526,60.3901,0.0],[5.05,60.3937,0.0],[5.0443,60.3922,0.0],[5.0432,60.3995,20.7241],[5.0354,60.4042,0.0],[5.0271,60.4042,25.5136],[5.0188,60.4083,0.0],[5.013,60.4089,11.0886],[5.012,60.412,5.4275],[5.0047,60.413,3.7333],[5.0036,60.4161,0.0],[5.0005,60.4172,12.7228],[5.0026,60.4245,27.6749],[5.0057,60.4255,11.2898],[5.0068,60.4286,28.2142],[5.012,60.4318,19.0038],[5.012,60.4349,0.0],[4.9964,60.4422,18.9298],[4.9953,60.4453,0.0],[4.9922,60.4464,23.0188],[4.9875,60.4521,31.4534],[4.9849,60.4484,39.4159],[4.9763,60.4462,48.6731],[4.9757999999999996,60.439,32.7276],[4.9646,60.4309,25.8901],[4.9641,60.4276,0.0],[4.9609,60.4266,5.6431],[4.9583,60.4188,17.221],[4.962,60.4161,35.3446],[4.963,60.4109,20.6774],[4.9661,60.4099,30.206],[4.9651,60.4047,0.0],[4.9724,60.4016,7.1549],[4.9693,60.3984,0.0],[4.9724,60.3974,19.137],[4.9734,60.3943,17.1674],[4.987,60.3911,0.0],[4.987,60.388,11.279],[4.9854,60.3875,16.7366],[4.9813,60.3896,0.0],[4.9672,60.3891,9.9542],[4.9651,60.3807,0.0],[4.9682,60.3786,0.0],[4.9693,60.3734,0.0],[4.975,60.3708,0.0],[4.9807,60.3703,0.0],[4.9797,60.3651,0.0],[4.9833,60.3625,31.6364],[4.9833,60.3542,16.6934],[4.9818,60.3505,0.0],[4.9849,60.3484,21.6995],[4.9792,60.3458,22.9059],[4.9734,60.3484,0.0],[4.9745,60.3557,0.0],[4.9646,60.3563,37.9833],[4.9563,60.3604,0.0],[4.9479,60.3604,0.0],[4.9318,60.3557,16.6043],[4.9313,60.3542,22.2951],[4.9318,60.3484,21.3988],[4.9474,60.3453,0.0],[4.9474,60.3422,30.8571],[4.9313,60.3417,25.605],[4.9297,60.3401,39.768],[4.9354,60.3375,0.0],[4.9495,60.3349,0.0],[4.9505,60.3276,26.7794],[4.9557,60.3266,0.0],[4.9568,60.3234,0.0],[4.9625,60.3208,9.8766],[4.9766,60.3214,15.596],[4.9797,60.3307,0.0],[4.9828,60.3318,22.1861],[4.9839,60.337,21.2189],[4.9859,60.3391,0.0],[4.9953,60.337,39.009],[4.9953,60.3339,30.9249],[4.988,60.3307,21.6179],[4.988,60.3255,8.2641],[4.9938,60.325,12.9112],[4.9979,60.3271,5.7503],[5.0036,60.3245,16.5031],[5.0068,60.3193,0.0],[5.0099,60.3182,13.6128],[5.0109,60.3151,0.0],[5.0141,60.3141,34.1792],[5.0172,60.3026,15.4898],[5.0271,60.3,0.0],[5.0354,60.3042,0.0],[5.0411,60.3016,0.0],[5.0417,60.3,4.6533],[5.0411,60.2943,5.1401],[5.0333,60.2917,12.5831],[5.0292,60.2917,31.115],[5.025,60.2938,0.0],[5.0153,60.2938,5.0156],[5.0196,60.2846,52.3896],[5.0107,60.2835,65.9152],[5.0128,60.2792,82.5307],[5.0216,60.2802,32.4663],[5.0259,60.2706,22.8659],[5.0316,60.2719,11.0],[5.0329,60.2795,32.8976],[5.0395,60.2764,36.6726],[5.0418,60.2707,32.077],[5.0348,60.2697,11.0],[5.0284,60.2667,33.804],[5.0365,60.2604,10.2232],[5.0422,60.2623,21.649],[5.0469,60.2615,2.5],[5.0496,60.2646,33.4467],[5.0561,60.2659,2.5],[5.0619,60.2715,37.6235],[5.0648,60.2683,65.4569],[5.0621,60.2618,53.2647],[5.0848,60.2644,69.2969]]],
[[[4.9,60.3292,4.5828],[4.8984,60.3276,8.7815],[4.9016,60.3276,19.6063],[4.9016,60.3286,14.0913],[4.9,60.3292,4.5828]]],
[[[4.9438,60.3708,32.7124],[4.9458,60.3688,6.2796],[4.9479,60.3708,8.8666],[4.9458,60.3729,18.8191],[4.9438,60.3708,32.7124]]],
[[[4.9526,60.4057,20.8981],[4.9526,60.4026,7.8875],[4.9557,60.4026,21.0215],[4.9557,60.4057,25.9171],[4.9526,60.4057,20.8981]]],
[[[4.9167,60.4083,0.0],[4.9208,60.4063,13.727],[4.925,60.4063,0.0],[4.9271,60.4083,16.5492],[4.9266,60.4099,19.2236],[4.9208,60.4125,10.7419],[4.9109,60.412,0.0],[4.9167,60.4083,0.0]]],
[[[5.0693,60.3911,7.7913],[5.0708,60.3896,7.393],[5.0766,60.3901,10.1169],[5.075,60.3917,23.266],[5.0693,60.3911,7.7913]]],
[[[5.0693,60.3974,21.7016],[5.0693,60.3943,16.9299],[5.0766,60.3943,36.0721],[5.0724,60.3974,15.5],[5.0693,60.3974,21.7016]]],
[[[4.9859,60.4557,35.3953],[4.9859,60.4547,39.1545],[4.9891,60.4547,10.2932],[4.9891,60.4557,11.4031],[4.9859,60.4557,35.3953]]],
[[[4.9042,60.4125,24.8073],[4.9026,60.412,27.1768],[4.9026,60.4109,20.0648],[4.9057,60.4109,14.8604],[4.9042,60.4125,24.8073]]],
[[[4.9313,60.4188,0.0],[4.9297,60.4172,27.2252],[4.9328,60.4172,7.6578],[4.9328,60.4182,5.0479],[4.9313,60.4188,0.0]]],
[[[4.9229,60.4208,5.9577],[4.9214,60.4193,0.0],[4.9286,60.4193,22.8825],[4.9271,60.4208,12.1638],[4.9229,60.4208,5.9577]]],
[[[4.9042,60.4396,0.0],[4.9083,60.4375,20.7705],[4.9182,60.438,13.8397],[4.9214,60.4432,13.8722],[4.9245,60.4443,3.492],[4.9245,60.4495,2.433],[4.9146,60.4542,41.2943],[4.9089,60.4536,36.4624],[4.9078,60.4422,5.5435],[4.9026,60.4411,18.0681],[4.9042,60.4396,0.0]]]]}
,"properties": {"GID_2": "NOR.7.10_1","GID_0": "NOR","country": "Norway","GID_1": "NOR.7_1","province": "Hordaland","NL_NAME_1": "NA","county": "Fjell","VARNAME_2": "NA","NL_NAME_2": "NA","TYPE_2": "Kommuner","ENGTYPE_2": "Municipality","CC_2": "NA","HASC_2": "NO.HO.FJ","name": "Fjell.county","area_km2": 131.6295,"hist_schema_id": "Elevation0-9000","hist_area_km2": {"0": 16.3095,"25": 39.5566,"50": 40.9657,"75": 17.0806,"100": 5.4977,"125": 2.5398,"150": 2.8133,"175": 2.2676,"200": 1.7321,"225": 0.84,"250": 0.7876,"275": 0.7561,"300": 0.4305,"325": 0.0525}}}