{"type":"Feature","properties":{"GID_2":"NOR.8.28_1","GID_0":"NOR","country":"Norway","GID_1":"NOR.8_1","province":"MøreogRomsdal","NL_NAME_1":"NA","county":"Stranda","VARNAME_2":"NA","NL_NAME_2":"NA","TYPE_2":"Kommuner","ENGTYPE_2":"Municipality","CC_2":"NA","HASC_2":"NO.MR.ST","name":"Stranda.county"},
"geometry":{"type": "MultiPolygon","coordinates": [[[[6.9479,62.1021,273.2188],[6.9521,62.1021,137.4161],[6.9536,62.1036,68.8496],[6.9464,62.1036,215.338],[6.9479,62.1021,273.2188]]],
[[[7.0458,62.2218,98.3294],[7.0472,62.225,279.3053],[7.0422,62.2245,0.0],[7.0453,62.2214,98.3294],[7.0401,62.2172,0.0],[7.0474,62.2161,367.5472],[7.0474,62.2109,517.5869],[7.038,62.212,0.0],[7.0333,62.1937,0.0],[7.0333,62.1875,0.0],[7.0297,62.1766,0.0],[7.0313,62.175,0.0],[7.0375,62.1771,0.0],[7.0443,62.1734,165.4083],[7.0516,62.1724,587.4095],[7.0495,62.1693,580.8945],[7.0422,62.1682,232.0238],[7.0422,62.1651,412.8509],[7.0453,62.1641,531.1024],[7.0432,62.1589,348.3747],[7.0297,62.1557,462.7552],[7.0255,62.1536,656.1872],[7.0229,62.15,851.8657],[7.0125,62.1521,191.4319],[6.9964,62.1474,0.0],[6.9953,62.1443,292.1999],[6.9901,62.1411,262.0974],[6.9891,62.1339,386.3294],[6.9797,62.1349,0.0],[6.9786,62.1276,239.3999],[6.9651,62.1245,0.0],[6.9651,62.1214,0.0],[6.9682,62.1193,153.3174],[6.963,62.1182,0.0],[6.9625,62.1146,56.3915],[6.963,62.113,0.0],[6.9729,62.1104,0.0],[6.9854,62.1104,0.0],[6.9953,62.1078,24.564],[7.0188,62.0958,0.0],[7.0313,62.0958,77.5156],[7.0354,62.0938,0.0],[7.0792,62.0938,0.0],[7.0818,62.0901,131.678],[7.0849,62.0891,231.3885],[7.0849,62.0859,849.8582],[7.0646,62.0854,181.6838],[7.0604,62.0833,328.5196],[7.0375,62.0833,261.3878],[7.0333,62.0812,448.7431],[7.0229,62.0812,382.1154],[7.0188,62.0833,109.5973],[6.9979,62.0854,372.1789],[6.9964,62.087,325.3281],[6.9995,62.0891,0.0],[6.9938,62.0896,43.2674],[6.9854,62.0938,86.3494],[6.9813,62.0938,285.9513],[6.9771,62.0917,555.0553],[6.9745,62.0953,428.9581],[6.9688,62.0958,410.667],[6.9672,62.0943,554.2656],[6.9703,62.0922,666.3895],[6.9583,62.0917,1102.6868],[6.9484,62.0943,1099.0651],[6.9411,62.0995,761.2156],[6.9375,62.1,674.6033],[6.9318,62.0974,807.4558],[6.9307,62.0943,884.7236],[6.9229,62.0938,724.1879],[6.9188,62.0917,809.5419],[6.9146,62.0917,706.2964],[6.9104,62.0938,173.7055],[6.8958,62.0854,275.3278],[6.8813,62.0875,9.1398],[6.8771,62.0833,0.0],[6.8714,62.0859,2.118],[6.8714,62.0891,0.0],[6.8734,62.0911,0.0],[6.8938,62.1,0.0],[6.9057,62.1005,0.0],[6.9068,62.1036,0.0],[6.9161,62.1089,0.0],[6.9172,62.112,0.0],[6.9229,62.1146,0.0],[6.9307,62.1151,0.0],[6.9318,62.1182,0.0],[6.937,62.1193,0.0],[6.938,62.1245,0.0],[6.9411,62.1255,0.0],[6.9438,62.1292,0.0],[6.9401,62.1318,0.0],[6.9401,62.137,0.0],[6.9453,62.138,0.0],[6.9464,62.1432,92.2118],[6.9557,62.1443,0.0],[6.9568,62.1474,0.0],[6.9703,62.1526,0.0],[6.9734,62.1599,0.0],[6.9807,62.1609,0.0],[6.9922,62.1682,0.0],[7.0161,62.1755,0.0],[7.0229,62.2042,0.0],[7.0224,62.2057,0.0],[7.0151,62.2068,0.0],[7.0161,62.212,0.0],[7.0125,62.2146,0.0],[7.0141,62.2224,0.0],[7.0109,62.2234,0.0],[7.0104,62.2292,0.0],[7.0141,62.2411,0.0],[7.0104,62.2438,0.0],[7.012,62.2516,0.0],[7.0089,62.2526,0.0],[7.0078,62.2578,0.0],[7.0042,62.2604,50.1443],[7.0047,62.262,22.1726],[7.0099,62.2641,0.0],[7.0026,62.2672,0.0],[7.0016,62.2703,0.0],[6.9984,62.2714,0.0],[7.0005,62.2766,100.6891],[7.0036,62.2776,0.0],[7.0036,62.2807,16.0397],[6.9958,62.2854,221.3558],[6.9813,62.2854,23.6031],[6.9729,62.2896,0.0],[6.9672,62.2901,33.9901],[6.9661,62.2932,0.0],[6.963,62.2943,12.3616],[6.9641,62.2974,0.0],[6.9609,62.2984,0.0],[6.9599,62.3036,0.0],[6.9464,62.3109,22.9754],[6.9453,62.3141,0.0],[6.938,62.3151,76.3713],[6.9245,62.3224,28.3766],[6.9172,62.3234,284.1918],[6.9167,62.3271,85.6005],[6.9188,62.3333,0.0],[6.9151,62.337,30.4873],[6.9203,62.338,0.0],[6.9203,62.3411,0.0],[6.9078,62.3474,37.1512],[6.9021,62.3479,361.4219],[6.8964,62.3505,303.6386],[6.8953,62.3536,270.1271],[6.8917,62.3563,241.3779],[6.8932,62.3599,0.0],[6.8859,62.363,134.8246],[6.8829,62.3684,415.7083],[6.8639,62.3666,665.4283],[6.862,62.371,605.6697],[6.843,62.3692,602.4496],[6.8449,62.3648,502.6327],[6.8354,62.3639,457.4006],[6.8374,62.3595,432.3364],[6.8279,62.3587,355.4631],[6.8318,62.3499,335.0],[6.8223,62.349,335.0],[6.8242,62.3446,365.3602],[6.8147,62.3437,398.7246],[6.8186,62.3349,464.3419],[6.8091,62.334,495.8359],[6.815,62.3208,738.3984],[6.8245,62.3217,783.0851],[6.8284,62.3129,1095.739],[6.8189,62.312,867.3965],[6.8208,62.3076,1070.7623],[6.8019,62.3058,995.6819],[6.8038,62.3014,798.1614],[6.7849,62.2997,882.5726],[6.7868,62.2953,690.8492],[6.7773,62.2944,687.7581],[6.7793,62.29,570.7161],[6.7698,62.2891,527.0425],[6.7776,62.2715,1012.3634],[6.7682,62.2706,1037.0797],[6.7701,62.2662,1143.2633],[6.7512,62.2644,1296.7629],[6.7531,62.26,1293.4432],[6.7437,62.2591,1336.1119],[6.7456,62.2547,1136.866],[6.7362,62.2538,1144.7692],[6.7401,62.245,1200.3011],[6.7495,62.2459,1206.7843],[6.7534,62.2371,1041.432],[6.7629,62.238,1093.1317],[6.7668,62.2293,623.032],[6.7573,62.2284,645.1419],[6.7729,62.1932,873.8807],[6.7824,62.1941,941.7125],[6.7862,62.1853,1096.9484],[6.7957,62.1862,1125.6575],[6.7996,62.1774,934.3747],[6.7901,62.1765,1053.6012],[6.794,62.1677,974.1944],[6.7846,62.1668,1122.0049],[6.7885,62.1581,909.3484],[6.779,62.1572,1046.3547],[6.781,62.1528,1021.9749],[6.7904,62.1537,799.9808],[6.7943,62.1449,1066.4141],[6.8037,62.1458,880.8375],[6.8056,62.1414,857.4788],[6.7868,62.1396,655.2437],[6.7887,62.1352,754.0573],[6.7604,62.1325,1060.936],[6.7585,62.1369,1059.7332],[6.7491,62.136,585.5942],[6.7471,62.1404,310.0294],[6.7377,62.1395,425.0652],[6.7358,62.1439,624.6868],[6.7263,62.143,1066.0273],[6.7283,62.1386,723.6218],[6.7188,62.1377,1298.3485],[6.7208,62.1333,902.2812],[6.7114,62.1324,1089.6034],[6.7133,62.128,1082.4501],[6.7039,62.1271,1012.2384],[6.7058,62.1227,1133.7142],[6.687,62.1209,1456.0178],[6.6968,62.0989,1521.9351],[6.7062,62.0998,1274.1189],[6.7101,62.0911,1442.4005],[6.6912,62.0892,1122.531],[6.6951,62.0805,1088.5905],[6.6857,62.0796,1100.0833],[6.6896,62.0708,769.9323],[6.6802,62.0699,1024.1113],[6.6841,62.0611,1206.0896],[6.6935,62.062,917.1499],[6.7013,62.0444,1034.7571],[6.7107,62.0453,1037.0933],[6.7165,62.0321,628.3373],[6.7259,62.033,495.346],[6.7337,62.0155,506.9153],[6.7431,62.0164,507.938],[6.7489,62.0032,1075.4045],[6.7582,62.0041,710.3062],[6.766,61.9865,899.272],[6.7754,61.9874,1072.2284],[6.7831,61.9698,983.0],[6.7924,61.9707,1440.5616],[6.7963,61.962,869.6727],[6.815,61.9637,883.931],[6.817,61.9593,787.1413],[6.8545,61.9629,1034.9229],[6.8526,61.9673,1156.119],[6.8713,61.9691,904.1212],[6.8694,61.9735,1048.199],[6.9351,61.9797,1181.1796],[6.9332,61.9841,1296.2118],[6.9425,61.985,1156.8467],[6.9445,61.9806,891.8562],[6.982,61.9841,1451.4891],[6.9839,61.9797,1559.6508],[7.0121,61.9824,1197.431],[7.0139,61.978,959.1041],[7.0609,61.9824,859.1899],[7.059,61.9868,974.9747],[7.0684,61.9877,1032.1846],[7.0665,61.9921,1233.1094],[7.0759,61.9929,1211.0773],[7.074,61.9973,1345.8486],[7.0834,61.9982,1407.1461],[7.0815,62.0026,1638.2032],[7.1003,62.0044,1658.8264],[7.0984,62.0088,1432.4437],[7.1548,62.014,1474.136],[7.1529,62.0184,1268.254],[7.1623,62.0193,1409.5079],[7.1642,62.0149,1346.6326],[7.2018,62.0184,1403.8831],[7.1963,62.0316,1617.4501],[7.2338,62.035,1471.4321],[7.2376,62.0262,1593.718],[7.247,62.0271,1384.5862],[7.2544,62.0095,1639.1108],[7.3202,62.0155,1359.7786],[7.3221,62.0111,1359.6687],[7.3409,62.0129,1181.3386],[7.3427,62.0085,1500.988],[7.3522,62.0093,1208.298],[7.3466,62.0225,1114.9695],[7.356,62.0234,1459.0435],[7.3505,62.0366,1127.5402],[7.3411,62.0357,1131.045],[7.3374,62.0445,1123.942],[7.3279,62.0437,1157.6775],[7.3261,62.0481,1124.0715],[7.3167,62.0472,1327.2815],[7.3148,62.0516,1402.0758],[7.3242,62.0525,1311.4808],[7.3224,62.0569,1408.8619],[7.3412,62.0586,1633.4429],[7.3394,62.063,1586.0436],[7.3582,62.0647,1386.665],[7.3378,62.1131,1154.4192],[7.3472,62.114,1479.1559],[7.3454,62.1184,1355.8436],[7.336,62.1175,1218.0148],[7.3322,62.1263,1319.6718],[7.3228,62.1255,1657.5321],[7.3116,62.1519,1275.7123],[7.2738,62.1484,1511.9685],[7.2682,62.1616,1449.2727],[7.2304,62.1582,1405.45],[7.2248,62.1714,1552.1124],[7.2154,62.1705,1635.9148],[7.2059,62.1696,1365.4222],[7.2116,62.1564,893.1201],[7.2021,62.1556,854.2059],[7.2059,62.1468,811.2913],[7.1964,62.1459,822.748],[7.1983,62.1415,762.9424],[7.1794,62.1398,677.7806],[7.1775,62.1442,746.324],[7.1681,62.1433,1020.7839],[7.1606,62.1609,911.3506],[7.1511,62.16,1458.9545],[7.1492,62.1644,1345.163],[7.1398,62.1635,1339.4567],[7.1379,62.1679,1425.2295],[7.1096,62.1653,1439.4858],[7.1077,62.1697,1325.7449],[7.0888,62.168,1326.9088],[7.0869,62.1724,1217.9349],[7.0774,62.1715,1422.4749],[7.0603,62.2111,804.8723],[7.0509,62.2102,721.0253],[7.0458,62.2218,98.3294]]],
[[[7.1625,62.3166,1227.1837],[7.1606,62.321,1136.3457],[7.1511,62.3201,1231.6112],[7.1492,62.3245,1084.7986],[7.1302,62.3227,682.2809],[7.1283,62.3271,682.9409],[7.1188,62.3263,649.016],[7.1169,62.3307,615.1176],[7.1074,62.3298,537.3689],[7.1093,62.3254,596.9309],[7.0998,62.3245,621.2975],[7.0904,62.3236,652.1869],[7.0884,62.328,565.097],[7.0789,62.3272,476.3383],[7.0751,62.336,410.0522],[7.0656,62.3351,516.4517],[7.0599,62.3483,866.6511],[7.0504,62.3474,1000.0138],[7.0446,62.3606,1075.6627],[7.0351,62.3597,978.9239],[7.037,62.3553,894.509],[7.018,62.3535,1202.8223],[7.02,62.3492,1061.5864],[6.9915,62.3465,802.7744],[6.9934,62.3421,925.7301],[6.9652,62.3395,308.5285],[6.9677,62.3351,553.7715],[6.9849,62.328,577.8867],[6.993,62.3184,459.7675],[7.0026,62.3132,323.7836],[7.0149,62.3118,213.3111],[7.024,62.3143,342.8588],[7.0471,62.3142,189.7778],[7.063,62.3165,307.1647],[7.0769,62.3119,306.7504],[7.095,62.3087,237.7828],[7.1073,62.3008,128.4556],[7.1492,62.3014,564.7684],[7.1473,62.306,758.2169],[7.1568,62.3069,978.4642],[7.153,62.3157,1056.7723],[7.1625,62.3166,1227.1837]]]]}}