{"type":"Feature","properties":{"GID_2":"NOR.19.5_1","GID_0":"NOR","country":"Norway","GID_1":"NOR.19_1","province":"Vestfold","NL_NAME_1":"NA","county":"Lardal","VARNAME_2":"NA","NL_NAME_2":"NA","TYPE_2":"Kommuner","ENGTYPE_2":"Municipality","CC_2":"NA","HASC_2":"NO.VF.LD","name":"Lardal.county"},
"geometry":{"type": "MultiPolygon","coordinates": [[[[9.7711,59.4102,439.9844],[9.7751,59.3969,463.7651],[9.7664,59.3962,473.1286],[9.7718,59.3785,451.1461],[9.7631,59.3778,463.4191],[9.7726,59.3468,582.5674],[9.7639,59.3461,541.6965],[9.7666,59.3372,507.1179],[9.7579,59.3365,552.5566],[9.7592,59.3321,564.8283],[9.7505,59.3314,563.075],[9.7546,59.3181,509.4641],[9.7633,59.3188,568.3134],[9.7646,59.3143,399.6473],[9.7733,59.315,395.4141],[9.776,59.3062,319.5968],[9.7847,59.3069,304.6507],[9.7874,59.298,257.5647],[9.7961,59.2987,271.4805],[9.7975,59.2942,249.8831],[9.8062,59.2949,265.7944],[9.8088,59.2861,206.3556],[9.8175,59.2868,254.4391],[9.8202,59.2779,218.7123],[9.8289,59.2786,324.8517],[9.8303,59.2741,245.6815],[9.839,59.2748,292.4227],[9.8416,59.266,210.5919],[9.8503,59.2666,178.3402],[9.853,59.2578,146.2064],[9.8704,59.2591,337.1788],[9.8691,59.2636,228.3849],[9.8777,59.2643,259.9919],[9.8764,59.2687,204.2694],[9.8851,59.2694,230.8577],[9.8824,59.2782,156.6763],[9.8911,59.2789,76.1507],[9.8898,59.2834,51.4232],[9.9072,59.2847,31.6349],[9.9059,59.2892,34.0697],[9.8972,59.2885,43.3103],[9.8958,59.2929,15.3213],[9.8871,59.2922,28.8965],[9.882,59.3094,48.4143],[9.8905,59.3107,23.6265],[9.8879,59.3195,61.9075],[9.8966,59.3202,18.1735],[9.8952,59.3246,63.6166],[9.9039,59.3253,59.5543],[9.9053,59.3209,128.9371],[9.914,59.3216,162.3554],[9.9153,59.3171,263.3837],[9.924,59.3178,320.2577],[9.9227,59.3223,249.4947],[9.9837,59.327,286.5843],[9.985,59.3226,344.8326],[9.9937,59.3232,352.7428],[9.995,59.3188,354.2075],[10.0124,59.3202,214.6912],[10.0085,59.3335,264.3839],[10.0172,59.3341,310.2982],[10.0146,59.343,386.2093],[10.0233,59.3437,333.644],[10.0206,59.3526,300.6459],[10.0294,59.3532,209.3913],[10.0281,59.3577,218.6458],[10.0368,59.3583,234.3144],[10.0341,59.3672,268.8962],[10.0429,59.3679,255.4504],[10.0389,59.3812,344.185],[10.0476,59.3819,298.595],[10.0437,59.3952,334.4528],[10.0524,59.3959,358.1991],[10.0485,59.4092,408.471],[10.0572,59.4098,384.5293],[10.0546,59.4187,325.7394],[10.0633,59.4194,374.0808],[10.0554,59.446,207.2757],[10.0642,59.4467,193.8691],[10.0615,59.4556,182.1173],[10.0528,59.4549,249.7904],[10.0488,59.4682,233.2505],[10.0051,59.4648,68.7368],[10.0064,59.4604,42.5929],[9.9976,59.4597,58.6072],[9.9963,59.4641,108.5989],[9.9526,59.4608,403.0887],[9.9512,59.4652,396.695],[9.9425,59.4645,372.1069],[9.9438,59.4601,349.0836],[9.9176,59.458,430.8068],[9.9189,59.4536,406.4034],[9.8665,59.4495,173.7466],[9.8651,59.4539,183.5413],[9.8564,59.4533,201.5345],[9.855,59.4577,189.3216],[9.8463,59.457,259.2123],[9.845,59.4614,225.3313],[9.8362,59.4608,251.4041],[9.8349,59.4652,243.845],[9.8261,59.4645,283.9956],[9.8248,59.4689,250.7991],[9.7898,59.4662,503.9544],[9.7911,59.4617,517.7929],[9.7562,59.459,583.6813],[9.7711,59.4102,439.9844]]]]}}