{"type":"Feature","properties":{"GID_2":"NOR.14.2_1","GID_0":"NOR","country":"Norway","GID_1":"NOR.14_1","province":"SognogFjordane","NL_NAME_1":"NA","county":"Askvoll","VARNAME_2":"NA","NL_NAME_2":"NA","TYPE_2":"Kommuner","ENGTYPE_2":"Municipality","CC_2":"NA","HASC_2":"NO.SF.AS","name":"Askvoll.county"},
"geometry":{"type": "MultiPolygon","coordinates": [[[[4.6411,61.2953,4.284],[4.6313,61.2979,5.6577],[4.6271,61.2938,4.7185],[4.6167,61.2958,3.4421],[4.6109,61.2922,0.0],[4.6182,61.2891,0.0],[4.6188,61.2854,4.8239],[4.6172,61.2818,0.0],[4.6229,61.2792,1.3491],[4.6292,61.2792,0.0],[4.6313,61.2813,3.8948],[4.6318,61.2891,0.0],[4.6375,61.2875,7.0949],[4.6453,61.2901,10.3228],[4.6422,61.2922,11.8495],[4.6411,61.2953,4.284]]],
[[[4.5958,61.2938,4.9363],[4.5943,61.2922,1.0001],[4.5974,61.2922,0.0],[4.5974,61.2932,0.7822],[4.5958,61.2938,4.9363]]],
[[[4.6833,61.2875,0.0],[4.687,61.288,7.3002],[4.6911,61.2911,0.0],[4.6891,61.2953,0.0],[4.6818,61.2984,0.0],[4.6807,61.3036,0.0],[4.6708,61.3042,9.1403],[4.663,61.2995,0.0],[4.663,61.2964,0.0],[4.6661,61.2953,2.9021],[4.6672,61.2901,0.0],[4.6833,61.2875,0.0]]],
[[[4.7307,61.3141,15.8411],[4.7167,61.3167,9.831],[4.7125,61.3146,0.0],[4.7047,61.3141,0.0],[4.7,61.3104,6.199],[4.7036,61.3078,0.0],[4.7036,61.3047,0.0],[4.6958,61.3042,21.3612],[4.6901,61.3016,34.3808],[4.6901,61.2964,0.0],[4.6932,61.2953,10.8262],[4.6943,61.2922,0.0],[4.7021,61.2875,1.8151],[4.7167,61.2875,6.2991],[4.7208,61.2896,3.1861],[4.725,61.2875,0.0],[4.7292,61.2896,0.0],[4.7333,61.2875,1.7201],[4.7417,61.2875,4.2941],[4.7458,61.2896,6.2617],[4.75,61.2896,9.0043],[4.7526,61.2859,5.9412],[4.7625,61.2854,5.5505],[4.7667,61.2833,0.0],[4.7786,61.288,6.7274],[4.7786,61.2911,9.9722],[4.7745,61.2932,11.9797],[4.7646,61.2958,15.1552],[4.7521,61.2958,14.6881],[4.738,61.3026,4.5167],[4.7375,61.3063,15.4529],[4.7391,61.3099,3.9506],[4.7307,61.3141,15.8411]]],
[[[4.875,61.2813,24.9065],[4.8729,61.2792,3.1271],[4.875,61.2771,14.7116],[4.8771,61.2792,8.5541],[4.875,61.2813,24.9065]]],
[[[4.9104,61.3042,14.0967],[4.9068,61.3026,13.64],[4.9161,61.3026,0.0],[4.9146,61.3042,19.8878],[4.9104,61.3042,14.0967]]],
[[[5.0109,61.3776,10.8149],[4.9958,61.3812,17.1164],[4.9932,61.3776,39.2462],[4.988,61.3766,0.0],[4.987,61.3714,32.0162],[4.9828,61.3693,11.6111],[4.9667,61.3688,0.0],[4.9583,61.3729,29.975],[4.9443,61.3734,4.1554],[4.9401,61.3755,13.2938],[4.9375,61.3792,16.5426],[4.9125,61.3792,0.0],[4.9109,61.3786,4.0022],[4.9104,61.375,3.1592],[4.913,61.3714,0.0],[4.9161,61.3703,0.0],[4.9161,61.3672,12.3159],[4.9089,61.3641,4.2702],[4.9078,61.3609,11.8499],[4.9026,61.3599,3.2125],[4.8932,61.3547,0.0],[4.8797,61.3536,0.0],[4.8792,61.3479,0.0],[4.8828,61.3453,19.2772],[4.8839,61.3422,0.0],[4.8938,61.3375,0.0],[4.9313,61.3333,9.428],[4.9453,61.3266,22.5292],[4.9464,61.3234,0.0],[4.9495,61.3214,0.0],[4.9474,61.3193,16.3257],[4.9417,61.3187,23.6367],[4.9401,61.3172,11.3289],[4.9474,61.3161,10.7118],[4.95,61.3125,6.4709],[4.9557,61.313,25.6444],[4.9625,61.3167,0.0],[4.9688,61.3167,0.0],[4.9771,61.3208,0.0],[4.9813,61.3208,0.0],[4.9854,61.3187,0.0],[4.9896,61.3208,1.2758],[4.9938,61.3187,0.0],[5.0021,61.3187,0.0],[5.0083,61.3208,13.2983],[5.0125,61.3187,0.0],[5.0146,61.3208,0.0],[5.0109,61.3234,0.0],[5.0125,61.325,0.0],[5.0333,61.325,0.0],[5.0391,61.3234,0.0],[5.0417,61.3271,0.0],[5.0411,61.3307,7.148],[5.0297,61.3318,3.7263],[5.0255,61.3339,0.0],[5.0245,61.337,0.0],[5.0214,61.338,0.0],[5.0208,61.3417,0.0],[5.0229,61.3458,0.0],[5.0193,61.3495,0.0],[5.0266,61.3505,0.0],[5.0286,61.3557,0.0],[5.0214,61.3609,76.1979],[5.0203,61.3661,20.86],[5.0172,61.3672,0.0],[5.0182,61.3724,0.0],[5.0109,61.3776,10.8149]]],
[[[4.8771,61.3688,0.0],[4.8734,61.3672,9.8899],[4.887,61.3672,14.0296],[4.8854,61.3688,0.0],[4.8771,61.3688,0.0]]],
[[[4.7569,61.3162,26.1543],[4.7583,61.3146,6.8459],[4.7813,61.3146,0.0],[4.7911,61.3193,31.705],[4.7932,61.3224,6.5252],[4.7875,61.325,7.3138],[4.7563,61.325,329.3303],[4.7547,61.3245,328.1416],[4.7542,61.3208,98.6346],[4.7578,61.3182,106.067],[4.7569,61.3162,26.1543]]],
[[[4.8318,61.3422,15.7909],[4.8375,61.3396,18.0259],[4.8516,61.3401,8.4537],[4.8557,61.3422,0.0],[4.8568,61.3453,3.3221],[4.862,61.3464,0.0],[4.862,61.3536,14.8239],[4.8589,61.3547,21.1746],[4.8578,61.3578,8.4797],[4.8521,61.3583,0.0],[4.8276,61.3516,3.7972],[4.8307,61.3484,19.1322],[4.8276,61.3474,2.8345],[4.8276,61.3443,8.2992],[4.8318,61.3422,15.7909]]],
[[[4.675,61.3521,0.0],[4.6714,61.3516,7.0099],[4.6714,61.3505,0.0],[4.6786,61.3505,0.0],[4.675,61.3521,0.0]]],
[[[4.9848,61.3817,6.9498],[4.975,61.3875,9.1649],[4.9651,61.387,20.1969],[4.9688,61.3833,0.0],[4.9729,61.3833,2.1983],[4.9771,61.3812,17.536],[4.9848,61.3817,6.9498]]],
[[[4.9146,61.3917,11.3342],[4.913,61.3901,28.1761],[4.9328,61.3901,0.0],[4.9271,61.3937,14.2885],[4.9146,61.3917,11.3342]]],
[[[5.4125,61.3854,39.1357],[5.4202,61.3854,0.0],[5.4176,61.3908,381.9959],[5.4268,61.3918,198.8029],[5.4206,61.4049,618.2579],[5.4297,61.4059,432.3961],[5.4214,61.4234,619.0481],[5.4306,61.4244,486.1946],[5.4285,61.4287,477.0],[5.4377,61.4297,477.0],[5.4398,61.4254,485.6827],[5.4673,61.4283,638.925],[5.4694,61.4239,730.8036],[5.4786,61.4249,777.2654],[5.4806,61.4205,938.8052],[5.5449,61.4274,993.0931],[5.547,61.423,1210.3242],[5.5653,61.425,1150.3308],[5.5643,61.4271,912.5306],[5.5521,61.4271,1163.5718],[5.5438,61.4313,712.6531],[5.5354,61.4313,663.2382],[5.5229,61.4354,617.9597],[5.5063,61.4354,683.2828],[5.5021,61.4375,206.7099],[5.4875,61.4375,392.6314],[5.4776,61.4401,115.6725],[5.4792,61.4417,37.7815],[5.4854,61.4417,20.6189],[5.4896,61.4396,47.6646],[5.4937,61.4396,32.9671],[5.4958,61.4417,18.2082],[5.4937,61.4437,0.0],[5.4771,61.4437,15.0747],[5.4729,61.4458,0.0],[5.4568,61.4464,36.5903],[5.4583,61.4479,0.0],[5.4661,61.4484,0.0],[5.4661,61.4557,0.0],[5.4563,61.4562,87.297],[5.4521,61.4583,40.0978],[5.438,61.4568,102.0124],[5.4339,61.4589,0.0],[5.4328,61.462,0.0],[5.4255,61.463,16.2631],[5.4245,61.4661,0.0],[5.4214,61.4672,43.3307],[5.4229,61.4729,17.9347],[5.4208,61.475,11.4715],[5.3771,61.475,272.8752],[5.3729,61.4771,25.1552],[5.3604,61.4771,42.2337],[5.3563,61.4792,0.0],[5.3521,61.4771,12.5339],[5.3375,61.4771,22.8966],[5.3359,61.4755,6.0127],[5.3458,61.4708,0.0],[5.3667,61.4667,0.0],[5.3708,61.4646,0.0],[5.3792,61.4646,14.7758],[5.3807,61.463,0.0],[5.3604,61.4625,11.6094],[5.3563,61.4583,154.5013],[5.3354,61.4583,244.2766],[5.3255,61.4609,118.5339],[5.3188,61.4646,0.0],[5.3062,61.4646,80.4066],[5.2938,61.4688,0.0],[5.2896,61.4688,26.7288],[5.2828,61.4724,0.0],[5.2755,61.4734,0.0],[5.2604,61.4813,19.7635],[5.2417,61.4813,7.0257],[5.2396,61.4792,6.6878],[5.2401,61.4755,14.129],[5.2516,61.4714,0.0],[5.2443,61.4703,5.4137],[5.2411,61.4651,5.4314],[5.2339,61.462,3.7501],[5.2375,61.4583,0.0],[5.2354,61.4562,0.0],[5.2208,61.4562,9.9869],[5.2167,61.4542,16.286],[5.2125,61.4562,5.7655],[5.2083,61.4562,0.0],[5.2042,61.4542,99.157],[5.2,61.4542,102.8619],[5.1958,61.4562,15.4252],[5.1729,61.4562,15.8588],[5.1646,61.4521,67.5586],[5.1583,61.4521,74.6994],[5.1458,61.4479,501.4175],[5.1375,61.4521,62.3232],[5.125,61.4521,66.1024],[5.1208,61.45,253.7738],[5.075,61.45,0.0],[5.0625,61.4437,11.9918],[5.0505,61.4432,0.0],[5.0495,61.4401,2.6546],[5.0438,61.4375,16.164],[5.0396,61.4375,0.0],[5.0354,61.4354,24.3627],[5.025,61.4354,0.0],[5.0167,61.4313,18.153],[5.0068,61.4307,5.0747],[4.9995,61.4255,11.1925],[4.9922,61.4245,0.0],[4.9911,61.4214,10.388],[4.9859,61.4203,88.3829],[4.9813,61.4167,17.8134],[4.9818,61.413,4.1642],[4.9943,61.4068,0.0],[5.0125,61.4042,0.0],[5.0167,61.4063,11.1214],[5.025,61.4063,0.0],[5.0438,61.4125,17.6797],[5.0479,61.4104,0.0],[5.0609,61.4161,0.0],[5.0682,61.4172,0.0],[5.0693,61.4203,0.0],[5.075,61.4229,24.0011],[5.0813,61.4208,0.0],[5.0896,61.425,9.3997],[5.1333,61.425,0.0],[5.1563,61.4313,12.8206],[5.162,61.4307,0.0],[5.162,61.4255,31.7583],[5.15,61.4271,0.0],[5.1474,61.4234,0.0],[5.1359,61.4224,0.0],[5.1328,61.4151,157.4703],[5.1146,61.4146,0.0],[5.1068,61.4099,4.6962],[5.1063,61.4021,11.6732],[5.1083,61.3979,0.0],[5.1083,61.3937,0.0],[5.1042,61.3896,0.0],[5.1063,61.3854,0.0],[5.1063,61.3812,0.0],[5.1042,61.3792,0.0],[5.0984,61.3818,19.7154],[5.0979,61.3875,3.8525],[5.0995,61.3911,0.0],[5.0964,61.3932,0.0],[5.0995,61.3953,0.0],[5.0964,61.3964,0.0],[5.0938,61.4,48.9562],[5.0854,61.4,149.1249],[5.0813,61.4021,0.0],[5.0542,61.4021,0.0],[5.0526,61.4016,0.0],[5.0516,61.3943,51.7299],[5.0339,61.3932,0.0],[5.0328,61.3839,0.0],[5.0276,61.3807,0.0],[5.0271,61.3729,0.0],[5.0276,61.3714,0.0],[5.0349,61.3682,38.426],[5.0333,61.3646,0.0],[5.0339,61.3609,0.0],[5.0453,61.3557,3.7425],[5.0464,61.3526,0.0],[5.0495,61.3516,3.7369],[5.0484,61.3484,0.0],[5.0542,61.3458,0.0],[5.0813,61.3458,12.1096],[5.0854,61.3438,0.0],[5.0953,61.3432,0.0],[5.0896,61.3396,0.0],[5.0792,61.3396,0.0],[5.0708,61.3354,9.6772],[5.0568,61.3349,22.2038],[5.0589,61.3318,0.0],[5.0661,61.3307,0.0],[5.0745,61.3266,3.2561],[5.0755,61.3234,0.0],[5.0854,61.3208,0.0],[5.0938,61.3208,0.0],[5.1125,61.3292,4.2844],[5.1167,61.3271,0.0],[5.1208,61.3271,0.0],[5.125,61.3292,19.6212],[5.1396,61.3292,0.0],[5.1479,61.3333,6.6313],[5.1724,61.3339,0.0],[5.1734,61.3411,5.9803],[5.1786,61.3422,0.0],[5.1792,61.3438,0.0],[5.1786,61.3495,0.0],[5.1755,61.3516,9.1976],[5.1828,61.3526,0.0],[5.1917,61.3583,0.0],[5.1958,61.3563,0.0],[5.2083,61.3542,0.0],[5.2229,61.3604,0.0],[5.2271,61.3604,0.0],[5.2313,61.3583,0.0],[5.2396,61.3583,0.0],[5.2438,61.3604,13.2053],[5.275,61.3604,0.0],[5.2833,61.3646,16.4713],[5.2979,61.3667,0.0],[5.3062,61.3708,0.0],[5.3688,61.3708,0.0],[5.3729,61.3729,0.0],[5.3896,61.3729,0.0],[5.3922,61.3766,34.7364],[5.3974,61.3776,0.0],[5.3984,61.3807,0.0],[5.4125,61.3854,39.1357]]],
[[[5.5479,61.4354,290.7014],[5.5508,61.4354,289.6194],[5.55,61.4371,274.3105],[5.5464,61.4367,312.3944],[5.5479,61.4354,290.7014]]],
[[[5.5158,61.4482,0.0],[5.5152,61.4495,26.9736],[5.5151,61.4495,26.9736],[5.5151,61.4484,0.0],[5.5158,61.4482,0.0]]],
[[[5.4854,61.4542,0.0],[5.4927,61.4562,0.0],[5.4916,61.4585,116.3452],[5.4825,61.4575,145.6656],[5.4804,61.4619,136.4814],[5.4687,61.4606,19.2054],[5.4693,61.4589,0.0],[5.475,61.4583,51.9518],[5.4854,61.4542,0.0]]],
[[[5.4608,61.4625,0.0],[5.4568,61.4708,125.2816],[5.4484,61.4703,65.9012],[5.4484,61.4651,10.0383],[5.4542,61.4625,0.0],[5.4608,61.4625,0.0]]],
[[[5.3495,61.4891,34.089],[5.3505,61.488,0.0],[5.3523,61.4875,0.0],[5.3514,61.4894,31.2029],[5.3495,61.4891,34.089]]]]}}