{"type": "Feature","bbox": [7.6901,63.101,7.8745,63.1375],"geometry": {"type": "MultiPolygon","coordinates": [[[[7.725,63.1021,38.134],[7.7438,63.1021,0.0],[7.7458,63.1042,5.5512],[7.7411,63.1078,20.9706],[7.7354,63.1083,0.0],[7.7234,63.1036,38.9781],[7.725,63.1021,38.134]]],
[[[7.842,63.1069,0.0],[7.8458,63.1083,12.4044],[7.8604,63.1083,0.0],[7.8682,63.1109,0.0],[7.8724,63.113,0.0],[7.8745,63.1182,0.0],[7.8672,63.1234,11.4649],[7.8682,63.1286,0.0],[7.8589,63.1297,18.2629],[7.85,63.1354,14.6929],[7.8438,63.1354,0.0],[7.8396,63.1375,17.3254],[7.8271,63.1375,0.0],[7.8255,63.137,0.0],[7.8266,63.1339,0.0],[7.825,63.1333,0.0],[7.8063,63.1333,0.0],[7.8036,63.1297,0.0],[7.7958,63.1271,0.0],[7.7839,63.1266,0.0],[7.7828,63.1234,0.0],[7.7771,63.1208,8.1526],[7.7729,63.1229,0.0],[7.7693,63.1224,0.0],[7.7682,63.1172,4.9124],[7.7667,63.1167,6.8787],[7.7589,63.1172,0.0],[7.7641,63.1193,0.0],[7.7646,63.1208,0.0],[7.7609,63.1245,3.7639],[7.7771,63.125,0.0],[7.7818,63.1286,11.2453],[7.7891,63.1297,0.0],[7.7911,63.1328,0.0],[7.7792,63.1312,5.7433],[7.775,63.1333,0.0],[7.7703,63.1297,0.0],[7.7604,63.1271,0.0],[7.7484,63.1276,33.1431],[7.7443,63.1297,4.0385],[7.7417,63.1333,9.6907],[7.7359,63.1328,5.073],[7.7349,63.1297,15.1003],[7.7313,63.1271,0.0],[7.7188,63.1312,6.0109],[7.7,63.1312,0.0],[7.6943,63.1276,0.0],[7.6964,63.1234,2.5041],[7.7021,63.1229,0.0],[7.7036,63.1214,0.0],[7.6901,63.1161,1.6486],[7.6958,63.1125,0.0],[7.7,63.1146,40.8003],[7.7042,63.1146,49.2521],[7.7083,63.1125,0.0],[7.7161,63.112,36.783],[7.7146,63.1083,11.8319],[7.7167,63.1063,12.1656],[7.7328,63.1089,0.0],[7.7339,63.112,1.3657],[7.7375,63.1146,0.0],[7.7432,63.1141,0.0],[7.7443,63.1089,0.0],[7.75,63.1063,5.6691],[7.7625,63.1063,0.0],[7.7667,63.1042,3.6034],[7.7729,63.1063,3.0536],[7.7771,63.1042,3.4697],[7.7958,63.1042,0.0],[7.8,63.1063,8.8093],[7.8057,63.101,13.975],[7.842,63.1069,0.0]]]]}
,"properties": {"GID_2": "NOR.8.14_1","GID_0": "NOR","country": "Norway","GID_1": "NOR.8_1","province": "MøreogRomsdal","NL_NAME_1": "NA","county": "Kristiansund","VARNAME_2": "NA","NL_NAME_2": "NA","TYPE_2": "Kommuner","ENGTYPE_2": "Municipality","CC_2": "NA","HASC_2": "NO.MR.KR","name": "Kristiansund.county","area_km2": 23.31426,"hist_schema_id": "Elevation0-9000","hist_area_km2": {"0": 5.19587,"25": 8.1481,"50": 7.32434,"75": 1.53387,"100": 0.33555,"125": 0.23009,"150": 0.28759,"175": 0.22049,"200": 0.03835}}}