{"type":"Feature","properties":{"GID_2":"NOR.10.20_1","GID_0":"NOR","country":"Norway","GID_1":"NOR.10_1","province":"Nordland","NL_NAME_1":"NA","county":"Leirfjord","VARNAME_2":"NA","NL_NAME_2":"NA","TYPE_2":"Kommuner","ENGTYPE_2":"Municipality","CC_2":"NA","HASC_2":"NO.NO.LE","name":"Leirfjord.county"},
"geometry":{"type": "MultiPolygon","coordinates": [[[[12.6977,65.9617,0.0],[12.7063,65.9646,37.786],[12.7161,65.9651,0.0],[12.7172,65.9682,0.0],[12.725,65.9708,54.065],[12.7375,65.9708,0.0],[12.7542,65.9771,39.3825],[12.7724,65.9766,0.0],[12.7708,65.975,1.0237],[12.7609,65.9745,0.0],[12.7589,65.9693,0.3337],[12.7625,65.9688,0.0],[12.7667,65.9729,11.6373],[12.7729,65.9708,0.0],[12.7896,65.9771,13.0897],[12.8083,65.9792,0.0],[12.8188,65.9833,0.0],[12.8313,65.9833,0.0],[12.8417,65.9875,6.9687],[12.8458,65.9833,0.0],[12.8625,65.9833,0.0],[12.8651,65.987,0.0],[12.8703,65.988,0.0],[12.875,65.9917,0.0],[12.8813,65.9917,0.0],[12.9146,66.0021,4.9549],[12.9229,66.0021,0.0],[12.9307,66.0047,0.0],[12.9307,66.0078,0.0],[12.9276,66.0099,0.0],[12.9333,66.0208,0.0],[12.9271,66.0229,7.6809],[12.9167,66.0229,20.9821],[12.9125,66.0208,8.2882],[12.8984,66.0193,0.0],[12.8984,66.0224,0.0],[12.9005,66.0245,0.0],[12.9057,66.0255,0.0],[12.9068,66.0286,0.0],[12.9182,66.0318,0.0],[12.9203,66.0339,0.0],[12.9229,66.0396,0.0],[12.9208,66.0417,0.0],[12.9167,66.0396,6.2846],[12.9068,66.0391,0.0],[12.9042,66.0354,81.847],[12.8854,66.0354,0.0],[12.8688,66.0292,13.3637],[12.8609,66.0286,18.4166],[12.8563,66.025,212.6562],[12.85,66.025,142.4019],[12.8396,66.0208,344.4734],[12.8333,66.0229,221.481],[12.8188,66.0188,368.4979],[12.8063,66.0188,74.1177],[12.8016,66.0151,440.0179],[12.7938,66.0125,548.5027],[12.7896,66.0146,393.7436],[12.7833,66.0125,501.078],[12.7792,66.0146,303.1802],[12.7676,66.015,193.0334],[12.7688,66.0108,367.5484],[12.7798,66.0113,494.6077],[12.7823,66.0023,455.6656],[12.7604,66.0013,461.8907],[12.7616,65.9969,291.2068],[12.7507,65.9964,683.8859],[12.7519,65.9919,538.5182],[12.73,65.9909,559.4985],[12.7313,65.9864,379.3591],[12.7203,65.9859,537.1172],[12.7216,65.9815,327.963],[12.6997,65.9805,636.1155],[12.701,65.976,538.5413],[12.69,65.9755,624.0302],[12.6913,65.971,494.8746],[12.6803,65.9705,264.7927],[12.6829,65.9616,165.1456],[12.6977,65.9617,0.0]]],
[[[12.6693,66.0463,0.0],[12.6771,66.0458,0.0],[12.6786,66.0474,11.7514],[12.6708,66.0479,0.0],[12.6693,66.0463,0.0]]],
[[[13.5031,66.2232,495.4075],[13.5016,66.2292,83.4222],[13.4813,66.2292,125.9786],[13.4771,66.2271,227.4923],[13.4708,66.2271,184.641],[13.4667,66.2292,64.7622],[13.4563,66.2292,11.1768],[13.45,66.225,188.6608],[13.4438,66.225,147.1056],[13.4396,66.2271,0.0],[13.4292,66.2271,0.0],[13.425,66.225,36.4462],[13.4167,66.225,0.0],[13.4125,66.2229,66.2032],[13.4,66.2229,0.0],[13.3896,66.2188,16.7539],[13.3833,66.2188,6.7645],[13.3792,66.2208,0.0],[13.3688,66.2208,68.7814],[13.3563,66.225,114.7014],[13.35,66.225,152.2506],[13.3458,66.2271,30.4183],[13.3396,66.2271,18.534],[13.3354,66.225,183.6744],[13.3313,66.2271,0.0],[13.3188,66.2271,0.0],[13.3146,66.2229,73.7852],[13.3021,66.2229,0.0],[13.2974,66.2193,69.2668],[13.2911,66.2172,105.0935],[13.2818,66.2161,6.3575],[13.2917,66.2125,227.9154],[13.2979,66.2146,197.9548],[13.2995,66.2141,273.9867],[13.2995,66.2109,541.7104],[13.2792,66.2083,314.9052],[13.2745,66.2047,561.3106],[13.2667,66.2021,618.4675],[13.2542,66.2021,257.0703],[13.2375,66.1958,234.8942],[13.2333,66.1979,0.0],[13.2297,66.1974,0.0],[13.2297,66.1943,0.0],[13.237,66.1911,0.0],[13.2349,66.188,14.5858],[13.213,66.1828,91.053],[13.2083,66.1771,269.7877],[13.2047,66.1776,179.9773],[13.2063,66.1813,0.0],[13.2042,66.1833,3.3897],[13.2,66.1813,24.3087],[13.1813,66.1813,0.0],[13.1646,66.175,32.1135],[13.1458,66.1729,0.0],[13.1417,66.1708,19.7064],[13.1313,66.1708,0.0],[13.1271,66.1687,25.7049],[13.1187,66.1687,0.0],[13.1083,66.1646,0.0],[13.1021,66.1646,0.0],[13.0943,66.162,0.0],[13.0911,66.1568,11.7202],[13.0797,66.1557,0.0],[13.0797,66.1526,0.0],[13.087,66.1516,0.0],[13.0896,66.1458,0.0],[13.0875,66.1438,0.0],[13.0771,66.1438,0.0],[13.0745,66.1474,0.0],[13.0672,66.1484,5.4138],[13.0724,66.1505,0.0],[13.075,66.1563,0.0],[13.0729,66.1583,0.0],[13.0667,66.1583,0.0],[13.0625,66.1563,19.0559],[13.0458,66.1563,0.0],[13.0396,66.1542,49.7447],[13.0354,66.1563,0.0],[13.0313,66.1542,22.4386],[13.0188,66.1542,0.0],[13.0146,66.1521,33.9529],[13.0062,66.1521,0.0],[13.0021,66.15,36.5344],[12.9901,66.1495,0.0],[12.9958,66.1458,53.7806],[13.0057,66.1453,106.0498],[13.0042,66.1438,171.401],[12.9771,66.1438,80.5456],[12.9729,66.1417,253.6427],[12.925,66.1417,0.0],[12.9214,66.1391,45.3595],[12.9245,66.137,257.744],[12.9229,66.1354,352.3465],[12.9104,66.1354,255.8967],[12.9063,66.1333,321.9502],[12.9,66.1333,243.2376],[12.8958,66.1354,124.9032],[12.8896,66.1354,45.2147],[12.8854,66.1333,142.5636],[12.8583,66.1312,65.6689],[12.8542,66.1292,141.5912],[12.8313,66.1292,0.0],[12.826599999999999,66.1255,20.901],[12.8214,66.1245,0.0],[12.825,66.1208,0.0],[12.8224,66.1172,4.8446],[12.8146,66.1167,0.0],[12.8042,66.1125,0.0],[12.7958,66.1125,0.0],[12.7854,66.1083,0.0],[12.7688,66.1062,0.0],[12.7484,66.0995,0.0],[12.7453,66.0943,32.9482],[12.7313,66.0938,0.0],[12.7266,66.0901,0.0],[12.7203,66.088,0.0],[12.7125,66.0875,0.0],[12.7047,66.0849,0.0],[12.701599999999999,66.0818,13.6872],[12.6964,66.0807,0.0],[12.6953,66.0776,3.7357],[12.6776,66.0724,0.0],[12.6745,66.0693,0.0],[12.6693,66.0682,0.0],[12.6724,66.0661,0.0],[12.6734,66.063,0.0],[12.6792,66.0604,0.0],[12.7266,66.0599,0.0],[12.7125,66.0542,0.0],[12.7063,66.0542,0.0],[12.7021,66.0521,0.0],[12.6896,66.0521,0.0],[12.6818,66.0495,0.0],[12.6833,66.0479,7.4461],[12.6938,66.0479,0.0],[12.6979,66.05,5.2582],[12.7063,66.05,0.0],[12.7208,66.0542,10.3508],[12.7333,66.0542,0.0],[12.7375,66.0563,8.5349],[12.7479,66.0563,0.0],[12.7495,66.0547,0.0],[12.7417,66.0521,5.2288],[12.7313,66.0521,0.0],[12.7208,66.0479,29.0536],[12.6854,66.0437,0.0],[12.6589,66.0339,0.0],[12.6646,66.0313,0.0],[12.6688,66.0333,7.4791],[12.6771,66.0333,0.0],[12.6875,66.0375,14.6582],[12.6938,66.0375,0.0],[12.6979,66.0396,10.8581],[12.7208,66.0396,0.0],[12.7271,66.0437,22.4257],[12.7313,66.0417,0.0],[12.7354,66.0437,0.0],[12.7542,66.0458,0.0],[12.7583,66.0479,13.7179],[12.7771,66.0479,0.0],[12.7813,66.05,0.0],[12.7938,66.05,0.0],[12.7979,66.0521,11.2027],[12.8083,66.0521,1.685],[12.8125,66.0542,19.5769],[12.8187,66.0521,0.0],[12.825,66.0521,0.0],[12.8292,66.0542,7.2189],[12.8333,66.0521,0.0],[12.85,66.0521,0.0],[12.8542,66.05,0.0],[12.8646,66.05,0.0],[12.8688,66.0479,0.0],[12.8729,66.05,0.0],[12.8896,66.05,0.0],[12.8938,66.0521,72.8846],[12.9063,66.0521,0.0],[12.9104,66.0542,0.0],[12.9188,66.0542,0.0],[12.9396,66.0604,0.0],[12.9583,66.0625,0.0],[12.9688,66.0667,15.7188],[12.9854,66.0667,0.0],[12.9958,66.0708,0.0],[13.0042,66.0708,0.0],[13.0083,66.0729,0.0],[13.0313,66.0729,0.0],[13.0354,66.075,0.0],[13.0417,66.075,0.0],[13.0432,66.0734,0.0],[13.0411,66.0714,4.1894],[13.0359,66.0703,0.0],[13.0349,66.0672,76.0259],[13.0271,66.0646,92.1096],[12.9917,66.0604,39.0834],[12.9813,66.0563,36.42],[12.9729,66.0563,0.0],[12.9651,66.0537,0.0],[12.9641,66.0505,33.4065],[12.9604,66.0479,96.5631],[12.9464,66.0474,0.0],[12.9443,66.0401,0.0],[12.951599999999999,66.0359,0.0],[12.9495,66.0339,39.134],[12.938,66.0307,0.0],[12.9411,66.0286,0.0],[12.9411,66.0255,15.3183],[12.9391,66.0234,0.0],[12.9339,66.0224,0.0],[12.9333,66.0208,0.0],[12.9417,66.0208,4.9184],[12.9474,66.0182,0.0],[12.9443,66.0109,0.0],[12.9479,66.0083,0.0],[12.9432,65.9984,86.3881],[12.9318,65.9953,15.0569],[12.9297,65.9932,0.0],[12.9391,65.9901,269.4754],[12.9354,65.9875,483.9913],[12.9125,65.9875,92.1719],[12.9029,65.9836,64.9068],[12.9042,65.9809,215.0332],[12.9085,65.9771,247.5628],[12.9395,65.9719,101.464],[12.9471,65.968,81.6171],[12.9578,65.9695,130.854],[12.9566,65.9739,317.9782],[12.9676,65.9744,252.9895],[12.9663,65.9789,460.9311],[12.9882,65.9799,437.5462],[12.987,65.9843,447.0283],[12.998,65.9848,501.7473],[12.9992,65.9804,510.3135],[13.0211,65.9813,638.7197],[13.0223,65.9768,506.7384],[13.0552,65.9783,609.0836],[13.054,65.9828,586.0346],[13.065,65.9832,601.282],[13.0638,65.9877,633.7387],[13.0857,65.9887,674.9394],[13.0845,65.9931,713.4153],[13.1064,65.9941,792.9138],[13.1052,65.9986,791.3206],[13.1271,65.9995,881.8929],[13.1259,66.004,887.7738],[13.1369,66.0044,872.3418],[13.1393,65.9955,850.838],[13.1503,65.996,840.044],[13.1527,65.987,732.6442],[13.1636,65.9875,596.7985],[13.1624,65.992,700.1456],[13.1844,65.9929,413.9879],[13.1832,65.9974,733.8053],[13.1941,65.9979,526.3562],[13.193,66.0023,643.1674],[13.2039,66.0028,419.7999],[13.201599999999999,66.0117,766.8606],[13.2125,66.0122,720.5768],[13.2078,66.0301,785.0375],[13.2188,66.0306,703.9208],[13.2176,66.035,617.59],[13.2396,66.036,586.0889],[13.2384,66.0404,634.3391],[13.2604,66.0414,653.1163],[13.2568,66.0548,700.5672],[13.2678,66.0552,674.7621],[13.2655,66.0642,788.4049],[13.2765,66.0646,737.1426],[13.2753,66.0691,772.0983],[13.2863,66.0696,728.9188],[13.2851,66.0741,733.3358],[13.2961,66.0745,705.8171],[13.295,66.079,715.6461],[13.306,66.0794,701.7891],[13.3048,66.0839,750.6768],[13.3158,66.0844,706.1711],[13.3147,66.0889,754.8837],[13.3257,66.0893,717.6674],[13.3245,66.0938,732.06],[13.3355,66.0942,700.8221],[13.3343,66.0987,740.1573],[13.3454,66.0992,767.8128],[13.343,66.1081,911.2251],[13.354,66.1086,859.5981],[13.3517,66.1175,881.3626],[13.3627,66.118,912.7104],[13.3581,66.1359,695.6779],[13.3691,66.1363,727.3819],[13.3656,66.1497,678.8724],[13.3767,66.1502,611.6876],[13.3755,66.1547,723.6708],[13.3866,66.1551,559.741],[13.3854,66.1596,637.9877],[13.3964,66.1601,511.8099],[13.3953,66.1645,608.5557],[13.4063,66.165,502.8142],[13.4052,66.1695,463.6709],[13.4162,66.1699,455.376],[13.4139,66.1789,352.2238],[13.425,66.1793,361.1072],[13.4238,66.1838,379.4089],[13.4349,66.1842,347.7538],[13.4337,66.1887,216.3083],[13.4448,66.1892,156.1709],[13.4436,66.1936,156.886],[13.4547,66.1941,71.0759],[13.4535,66.1986,122.9069],[13.4646,66.199,302.688],[13.4634,66.2035,232.4884],[13.4745,66.2039,355.2015],[13.4733,66.2084,383.0326],[13.4844,66.2089,445.821],[13.4821,66.2178,553.2229],[13.4932,66.2182,563.5401],[13.492,66.2227,481.1555],[13.5031,66.2232,495.4075]]],
[[[13.3276,66.2318,2.4842],[13.3438,66.2312,0.0],[13.3474,66.2349,0.0],[13.3396,66.2354,0.0],[13.3354,66.2333,15.5401],[13.3292,66.2333,0.0],[13.3276,66.2318,2.4842]]]]}}