{"type":"Feature","properties":{"GID_2":"NOR.2.15_1","GID_0":"NOR","country":"Norway","GID_1":"NOR.2_1","province":"Ãstfold","NL_NAME_1":"NA","county":"Rolvsoey","VARNAME_2":"NA","NL_NAME_2":"NA","TYPE_2":"Kommuner","ENGTYPE_2":"Municipality","CC_2":"NA","HASC_2":"NO.OF","name":"Rolvsoey.county"},
"geometry":{"type": "MultiPolygon","coordinates": [[[[11.0127,59.2532,16.0419],[11.0182,59.2536,0.0],[11.0147,59.2669,21.9021],[11.0234,59.2676,11.5205],[11.0222,59.272,5.8554],[11.0135,59.2714,12.0348],[11.0099,59.2847,1.8076],[11.0012,59.2841,28.7654],[10.9977,59.2975,0.0],[10.9715,59.2956,74.5715],[10.9667,59.3134,22.1184],[10.958,59.3128,63.9642],[10.9568,59.3173,19.4538],[10.9306,59.3154,22.2037],[10.9318,59.311,30.4187],[10.9144,59.3098,11.2],[10.9204,59.2875,53.93],[10.9291,59.2881,64.7771],[10.9327,59.2748,52.5313],[10.9239,59.2742,65.3675],[10.9251,59.2697,55.6366],[10.9339,59.2704,51.5522],[10.9351,59.2659,36.6566],[10.9438,59.2665,50.9492],[10.9426,59.271,62.4881],[10.9513,59.2716,75.5409],[10.9501,59.276,70.9913],[10.9588,59.2766,67.2718],[10.9612,59.2677,95.5105],[10.9525,59.2671,53.1395],[10.9549,59.2582,75.0529],[10.9462,59.2576,75.1705],[10.9485,59.2487,75.3191],[10.9398,59.2481,47.9103],[10.941,59.2437,51.8704],[10.9497,59.2443,66.9639],[10.9509,59.2398,67.0992],[10.977,59.2417,18.4508],[10.9782,59.2372,15.6671],[10.9956,59.2384,1.9697],[10.9945,59.2429,8.5537],[11.0032,59.2435,7.5143],[11.002,59.2479,15.708],[11.0107,59.2486,2.0439],[11.0095,59.253,19.4535],[11.0127,59.2532,16.0419]]],
[[[10.9216,59.2831,51.9047],[10.9204,59.2875,53.93],[10.9116,59.2869,64.0257],[10.9128,59.2825,55.72],[10.9216,59.2831,51.9047]]]]}}