{"type": "Feature","bbox": [23.2722,70.0988,24.9636,70.7083],"geometry": {"type": "MultiPolygon","coordinates": [[[[23.9345,70.1092,529.3615],[23.9476,70.109,557.473],[23.9459,70.1,656.7186],[23.9984,70.0988,623.0401],[23.9993,70.1033,611.7296],[24.0386,70.1025,503.6546],[24.0395,70.107,479.2056],[24.0788,70.1061,433.8445],[24.0797,70.1106,407.995],[24.1191,70.1098,388.933],[24.12,70.1143,379.7732],[24.1593,70.1134,335.7683],[24.1602,70.1179,328.799],[24.1865,70.1173,319.5141],[24.1874,70.1218,308.454],[24.2005,70.1215,284.4353],[24.2032,70.135,284.5692],[24.2164,70.1347,317.4394],[24.2182,70.1437,382.3146],[24.2313,70.1434,322.593],[24.234,70.1569,384.0052],[24.2472,70.1566,338.9727],[24.249,70.1656,475.7808],[24.2622,70.1653,458.353],[24.2649,70.1788,372.1065],[24.2781,70.1785,375.0577],[24.2799,70.1875,382.2512],[24.2931,70.1872,390.778],[24.2958,70.2007,370.9321],[24.309,70.2004,366.9637],[24.3109,70.2094,419.2248],[24.3241,70.2091,388.8819],[24.3269,70.2226,352.6212],[24.34,70.2223,355.1748],[24.3419,70.2313,408.1892],[24.3551,70.231,398.5412],[24.3579,70.2445,335.5648],[24.3711,70.2442,339.9196],[24.373,70.2532,371.0714],[24.3862,70.2529,359.8605],[24.3891,70.2664,326.3067],[24.4023,70.2661,331.2376],[24.4042,70.2751,340.8813],[24.4174,70.2748,329.3466],[24.4203,70.2883,406.1656],[24.4335,70.2879,393.467],[24.4354,70.2969,408.1957],[24.4486,70.2966,392.1657],[24.4515,70.3101,417.3073],[24.4648,70.3098,415.4894],[24.4667,70.3188,340.517],[24.48,70.3185,360.5114],[24.4838,70.3365,475.4988],[24.4971,70.3362,509.1484],[24.4981,70.3407,455.9453],[24.5113,70.3404,466.015],[24.5123,70.3449,413.8214],[24.5388,70.3442,399.8156],[24.5398,70.3487,336.2537],[24.5531,70.3484,317.6744],[24.5541,70.3529,320.9436],[24.5806,70.3523,299.5197],[24.5816,70.3568,297.4434],[24.5949,70.3564,281.1851],[24.5959,70.3609,279.1533],[24.6224,70.3603,389.5665],[24.6234,70.3648,292.4038],[24.6367,70.3645,412.269],[24.6377,70.369,306.0621],[24.651,70.3686,361.9364],[24.653,70.3776,266.543],[24.6663,70.3773,262.2413],[24.6683,70.3863,254.6904],[24.6816,70.386,254.7366],[24.6837,70.395,233.8229],[24.697,70.3946,218.1913],[24.699,70.4036,233.4466],[24.7123,70.4033,274.289],[24.7133,70.4078,330.6172],[24.7266,70.4075,336.7553],[24.7297,70.421,329.0311],[24.7164,70.4213,288.919],[24.7174,70.4258,256.796],[24.7041,70.4261,220.9215],[24.7051,70.4306,219.4791],[24.6918,70.4309,209.1671],[24.6928,70.4354,210.8058],[24.6795,70.4358,227.4439],[24.6805,70.4403,233.3338],[24.6672,70.4406,258.7536],[24.6682,70.4451,248.7713],[24.6815,70.4448,249.3098],[24.6887,70.4762,287.3335],[24.702,70.4759,294.8474],[24.7031,70.4804,305.0866],[24.7164,70.4801,297.8122],[24.7185,70.4891,287.1708],[24.7318,70.4887,287.4558],[24.7329,70.4932,298.1644],[24.7462,70.4929,296.0822],[24.7483,70.5019,298.0722],[24.7617,70.5016,278.0413],[24.7627,70.5061,249.2636],[24.7761,70.5057,241.7429],[24.778199999999998,70.5147,252.7271],[24.7915,70.5144,222.564],[24.7926,70.5189,243.9457],[24.806,70.5185,227.8864],[24.8081,70.5275,279.2932],[24.8214,70.5272,268.94],[24.8225,70.5317,235.9439],[24.8359,70.5314,221.4367],[24.838,70.5404,197.646],[24.8514,70.54,171.7442],[24.8524,70.5445,152.6365],[24.8658,70.5442,116.8388],[24.868,70.5532,80.8074],[24.8814,70.5528,103.1228],[24.8835,70.5618,169.181],[24.8969,70.5615,172.7339],[24.899,70.5705,255.4146],[24.9125,70.5701,205.8249],[24.9157,70.5836,271.733],[24.9291,70.5833,262.9948],[24.9313,70.5923,322.257],[24.9447,70.5919,277.5674],[24.9469,70.6009,395.4724],[24.9603,70.6006,321.9837],[24.9636,70.6141,537.3132],[24.9501,70.6144,510.0701],[24.9512,70.6189,525.582],[24.9243,70.6196,443.3644],[24.9254,70.6241,436.9124],[24.8985,70.6248,368.4943],[24.8996,70.6293,333.702],[24.8727,70.6299,257.4983],[24.8738,70.6344,242.394],[24.8335,70.6355,68.707],[24.8345,70.64,108.2219],[24.8076,70.6406,152.1506],[24.8087,70.6451,177.1502],[24.7818,70.6458,112.2536],[24.7828,70.6503,130.6185],[24.6886,70.6526,173.0426],[24.6875,70.6481,88.4274],[24.6811,70.6483,0.0],[24.6849,70.6443,68.3265],[24.6797,70.6412,0.0],[24.6776,70.638,0.0],[24.6953,70.6328,0.0],[24.6891,70.6276,0.0],[24.6771,70.6271,0.0],[24.6672,70.6245,0.0],[24.663,70.6224,0.0],[24.6661,70.6193,4.7903],[24.6625,70.6167,9.7815],[24.6542,70.6188,0.0],[24.6479,70.6146,3.6079],[24.6292,70.6146,0.0],[24.625,70.6125,10.0119],[24.6167,70.6125,16.2303],[24.5964,70.6234,17.542],[24.5932,70.6266,0.0],[24.5839,70.6276,0.0],[24.5651,70.638,11.5285],[24.5682,70.6432,0.0],[24.5646,70.6458,0.0],[24.5568,70.6464,25.8995],[24.5578,70.6495,0.0],[24.55,70.65,0.0],[24.5458,70.6521,0.0],[24.5333,70.6521,42.8889],[24.5318,70.6536,17.5407],[24.5349,70.6557,0.0],[24.5333,70.6563,0.0],[24.5208,70.6563,36.26],[24.5125,70.6604,11.3003],[24.5,70.6604,45.1373],[24.4917,70.6646,0.0],[24.4776,70.6651,21.5368],[24.4714,70.6693,13.4586],[24.4766,70.6766,0.0],[24.4693,70.6776,15.3145],[24.4583,70.6833,0.0],[24.45,70.6833,4.094],[24.4458,70.6813,0.0],[24.4063,70.6813,0.0],[24.4047,70.6818,0.0],[24.4057,70.6849,0.0],[24.4042,70.6854,0.0],[24.3833,70.6833,0.0],[24.3792,70.6854,5.5815],[24.3526,70.6859,0.0],[24.3547,70.6891,0.0],[24.3604,70.6896,0.0],[24.3661,70.6922,0.0],[24.3646,70.6937,10.6954],[24.3458,70.6917,0.0],[24.3443,70.6901,0.0],[24.3474,70.688,21.9406],[24.3292,70.6833,0.0],[24.3125,70.6896,0.0],[24.2943,70.6849,0.0],[24.2953,70.6818,0.0],[24.2938,70.6813,0.0],[24.2818,70.6807,0.0],[24.2745,70.6734,36.9616],[24.2714,70.6724,0.0],[24.2693,70.6693,0.0],[24.2807,70.6641,0.0],[24.2828,70.6609,0.0],[24.2807,70.6589,6.9215],[24.2687,70.6583,94.7797],[24.2625,70.6563,207.1054],[24.2583,70.6583,183.1197],[24.2521,70.6583,159.3755],[24.2458,70.6604,46.0951],[24.2422,70.6578,22.4832],[24.2453,70.6547,113.631],[24.2422,70.6536,62.3708],[24.2401,70.6505,10.0847],[24.2432,70.6484,72.367],[24.2297,70.637,16.5892],[24.2313,70.6354,0.0],[24.2391,70.6349,9.7323],[24.2339,70.6307,34.5542],[24.237,70.6286,68.5516],[24.2339,70.6245,16.6278],[24.2349,70.6214,48.5934],[24.2276,70.6141,0.0],[24.2328,70.6088,0.0],[24.2255,70.6078,0.0],[24.2271,70.6062,0.0],[24.2333,70.6062,0.0],[24.2391,70.6036,3.9951],[24.237,70.6005,0.0],[24.2188,70.6,4.9496],[24.2146,70.6021,0.0],[24.1984,70.6016,15.771],[24.2,70.6,0.0],[24.2078,70.5995,158.9023],[24.212,70.5964,377.6568],[24.2083,70.5958,353.4956],[24.2021,70.5979,98.8374],[24.2005,70.5964,141.927],[24.2036,70.5943,299.3548],[24.1813,70.5917,0.0],[24.1797,70.5901,0.0],[24.1828,70.588,107.667],[24.1693,70.587,19.8344],[24.1672,70.5839,0.0],[24.1703,70.5818,51.7564],[24.1672,70.5807,0.0],[24.1578,70.5714,0.0],[24.1484,70.5703,0.0],[24.1437,70.5667,7.5449],[24.1333,70.5667,0.0],[24.1286,70.563,22.7066],[24.1229,70.5625,0.0],[24.1172,70.5599,5.9023],[24.1141,70.5568,23.02],[24.1068,70.5557,0.0],[24.1026,70.5516,0.0],[24.1057,70.5484,22.9746],[24.1,70.5458,27.302],[24.0943,70.5453,17.0865],[24.0974,70.5422,128.6843],[24.0943,70.538,32.5222],[24.0979,70.5354,8.2187],[24.1146,70.5333,0.0],[24.1188,70.5313,8.6006],[24.1396,70.5333,13.8772],[24.1411,70.5328,18.8448],[24.1401,70.5297,0.0],[24.1542,70.525,0.0],[24.1792,70.525,3.5033],[24.1807,70.5245,0.0],[24.1797,70.5214,0.0],[24.1813,70.5208,0.0],[24.1875,70.5208,0.0],[24.1917,70.5188,0.0],[24.2042,70.5188,33.653],[24.2167,70.5146,0.0],[24.2292,70.5146,24.598],[24.2375,70.5104,0.0],[24.2557,70.5078,32.4046],[24.2526,70.5047,0.0],[24.2604,70.5042,10.4744],[24.262,70.5036,17.7064],[24.2609,70.5005,0.0],[24.2703,70.4995,24.6167],[24.2693,70.4964,0.0],[24.2714,70.4943,0.0],[24.2807,70.4932,30.6015],[24.2797,70.4901,0.0],[24.2891,70.4891,0.0],[24.3005,70.4818,0.0],[24.3083,70.4812,16.1266],[24.3141,70.4786,113.7287],[24.3089,70.4734,0.0],[24.3203,70.4672,25.6944],[24.3151,70.4641,11.0165],[24.3109,70.4589,0.0],[24.3182,70.4557,0.0],[24.3203,70.4526,0.0],[24.313,70.4516,0.0],[24.3099,70.4484,0.6311],[24.3063,70.4479,5.8717],[24.3021,70.45,0.0],[24.2958,70.45,17.9027],[24.2917,70.4521,0.0],[24.2771,70.4542,28.6978],[24.2714,70.4568,51.5196],[24.2724,70.4599,0.0],[24.2693,70.462,0.0],[24.2745,70.4651,0.0],[24.2786,70.4703,0.0],[24.2755,70.4714,0.0],[24.2766,70.4745,0.0],[24.2745,70.4766,0.0],[24.2687,70.4792,0.0],[24.25,70.4792,13.3618],[24.2438,70.4812,6.231],[24.2396,70.4792,61.3289],[24.225,70.4792,11.9777],[24.2234,70.4797,0.0],[24.2245,70.4828,0.0],[24.2224,70.4849,5.1521],[24.2146,70.4854,14.8622],[24.2104,70.4875,0.0],[24.2042,70.4854,27.6677],[24.1958,70.4854,10.4318],[24.1896,70.4875,0.0],[24.1833,70.4854,13.4002],[24.1792,70.4875,0.0],[24.1708,70.4875,0.0],[24.1646,70.4854,36.451],[24.1604,70.4875,0.0],[24.1437,70.4896,0.0],[24.1396,70.4917,0.0],[24.1083,70.4917,18.0635],[24.0958,70.4958,0.0],[24.0792,70.4979,31.482],[24.0708,70.5021,0.0],[24.063,70.5026,14.5878],[24.0568,70.5068,0.0],[24.0578,70.5099,0.0],[24.0562,70.5104,0.0],[24.0438,70.5104,43.6769],[24.0396,70.5125,0.0],[24.025,70.5125,0.0],[24.0208,70.5104,22.7442],[23.9979,70.5104,0.0],[23.9896,70.5042,28.2999],[23.9813,70.5042,0.0],[23.9729,70.5083,30.7141],[23.9667,70.5083,47.5282],[23.9604,70.5104,6.3122],[23.9562,70.5083,87.8373],[23.9458,70.5083,0.0],[23.9417,70.5062,95.3108],[23.925,70.5062,0.0],[23.9161,70.5005,45.7263],[23.9042,70.5,0.0],[23.9,70.4979,35.2469],[23.8917,70.5,0.0],[23.8875,70.4979,35.0024],[23.8708,70.4979,0.0],[23.8646,70.4938,61.6],[23.8542,70.4938,5.6667],[23.85,70.4917,61.7738],[23.8438,70.4917,0.0],[23.8391,70.488,48.8268],[23.8234,70.4849,0.0],[23.8203,70.4818,15.3331],[23.813,70.4807,15.3475],[23.8141,70.4776,51.7366],[23.8125,70.4771,45.4049],[23.7964,70.4786,0.0],[23.7859,70.4682,0.0],[23.787,70.4651,3.4139],[23.7734,70.4641,0.0],[23.7807,70.4589,22.5049],[23.7786,70.4568,0.0],[23.7729,70.4563,0.0],[23.7714,70.4547,0.0],[23.775,70.4521,0.0],[23.7828,70.4516,0.0],[23.787,70.4484,0.0],[23.7687,70.4479,0.0],[23.7604,70.4417,63.4181],[23.7542,70.4417,4.3133],[23.7479,70.4396,21.1689],[23.7417,70.4417,0.0],[23.7234,70.437,0.0],[23.7203,70.4339,11.2959],[23.713,70.4328,0.0],[23.7083,70.4292,89.1341],[23.6979,70.4292,0.0],[23.6938,70.4271,0.0],[23.6875,70.4271,0.0],[23.6807,70.4213,6.2367],[23.6688,70.4208,0.0],[23.6641,70.4172,10.449],[23.6568,70.4161,0.0],[23.6578,70.413,0.0],[23.6505,70.412,0.0],[23.6474,70.4089,4.795],[23.6375,70.4063,213.1236],[23.6271,70.4063,29.1465],[23.6203,70.4005,0.0],[23.6109,70.3995,0.0],[23.6063,70.3958,68.7576],[23.6021,70.3958,7.8318],[23.5979,70.3938,52.2068],[23.5859,70.3932,0.0],[23.5786,70.3859,0.0],[23.5755,70.3849,0.0],[23.5828,70.3797,133.1478],[23.5729,70.3771,130.169],[23.5646,70.3792,0.0],[23.5604,70.3771,8.8271],[23.5563,70.3771,0.0],[23.5516,70.3734,34.5675],[23.5458,70.3729,19.7655],[23.5401,70.3703,5.7486],[23.537,70.3672,90.4679],[23.5292,70.3657,0.0],[23.5429,70.3654,271.1569],[23.5421,70.3609,385.9934],[23.5687,70.3604,454.5947],[23.5679,70.3559,440.2012],[23.5812,70.3557,408.7213],[23.5805,70.3512,482.8912],[23.607,70.3507,524.7198],[23.6062,70.3462,514.636],[23.6328,70.3456,444.1375],[23.632,70.3411,504.9612],[23.6586,70.3406,456.0665],[23.6578,70.3361,431.4372],[23.671,70.3359,427.3018],[23.6702,70.3314,414.2271],[23.6968,70.3309,357.58],[23.696,70.3264,548.9374],[23.7225,70.3258,644.3917],[23.7193,70.3078,448.5376],[23.7325,70.3076,470.0275],[23.7261,70.2716,357.6232],[23.7393,70.2713,385.6696],[23.7361,70.2533,513.0696],[23.7493,70.253,588.1572],[23.7477,70.244,418.4619],[23.7609,70.2438,421.3806],[23.7585,70.2303,368.8381],[23.7717,70.23,418.1696],[23.7693,70.2165,560.6132],[23.7824,70.2162,517.8929],[23.7808,70.2072,499.3686],[23.794,70.207,501.6401],[23.7932,70.2025,536.6938],[23.8064,70.2022,527.6933],[23.8047,70.1932,493.6624],[23.8179,70.1929,483.2022],[23.8163,70.1839,315.2443],[23.8295,70.1837,314.7485],[23.8286,70.1792,339.9188],[23.8418,70.1789,336.0938],[23.8402,70.1699,458.1569],[23.8533,70.1696,503.88],[23.8517,70.1606,512.2466],[23.8648,70.1604,518.2335],[23.864,70.1559,485.189],[23.8772,70.1556,428.9457],[23.8755,70.1466,443.7317],[23.8886,70.1463,425.8303],[23.887,70.1373,479.5184],[23.9001,70.137,479.0515],[23.8984,70.1281,521.2522],[23.9116,70.1278,470.9627],[23.9107,70.1233,481.0469],[23.9239,70.123,469.9076],[23.9222,70.114,505.2741],[23.9353,70.1137,515.209],[23.9345,70.1092,529.3615]]],
[[[24.2542,70.4812,0.0],[24.2557,70.4828,0.0],[24.25,70.4854,6.7646],[24.2401,70.4849,0.0],[24.2417,70.4833,0.0],[24.2479,70.4833,0.0],[24.2542,70.4812,0.0]]],
[[[24.5042,70.6917,0.0],[24.5026,70.6901,0.0],[24.5141,70.6901,0.0],[24.5125,70.6917,0.0],[24.5042,70.6917,0.0]]],
[[[24.3526,70.6974,0.0],[24.3542,70.6958,0.0],[24.3578,70.6964,0.0],[24.3563,70.6979,0.0],[24.3526,70.6974,0.0]]],
[[[23.4144,70.3949,97.2005],[23.4277,70.3946,0.0],[23.4316,70.3962,46.7998],[23.4375,70.3917,0.0],[23.4438,70.3917,0.0],[23.4521,70.3875,0.0],[23.5104,70.3875,0.0],[23.5286,70.3922,0.0],[23.5255,70.3943,0.0],[23.5276,70.3974,0.0],[23.5333,70.4,0.0],[23.5391,70.4005,0.0],[23.5464,70.4078,0.0],[23.5724,70.413,0.0],[23.5797,70.4203,3.24],[23.587,70.4213,0.0],[23.5901,70.4245,5.783],[23.6042,70.425,0.0],[23.6104,70.4292,0.0],[23.6328,70.4339,0.0],[23.6411,70.4411,0.0],[23.638,70.4422,0.0],[23.6391,70.4453,0.0],[23.6318,70.4484,14.8148],[23.6328,70.4516,0.0],[23.6318,70.4537,0.0],[23.6349,70.4578,0.0],[23.6276,70.4609,25.2747],[23.6286,70.4682,0.0],[23.6214,70.4714,0.0],[23.6245,70.4755,0.0],[23.6234,70.4786,0.0],[23.6245,70.4807,0.0],[23.6214,70.4828,10.8132],[23.6292,70.4896,12.327],[23.6354,70.4875,0.0],[23.6437,70.4875,0.0],[23.6453,70.4891,0.0],[23.638,70.4901,14.6917],[23.6245,70.4974,0.0],[23.6167,70.4979,77.2891],[23.6137,70.4996,0.0],[23.5929,70.5,171.7893],[23.5921,70.4955,169.1166],[23.5654,70.496,277.8419],[23.5646,70.4915,274.8332],[23.5512,70.4917,278.7302],[23.5504,70.4872,351.1522],[23.5371,70.4875,345.6142],[23.5363,70.483,281.8939],[23.5229,70.4832,234.3241],[23.5221,70.4787,224.1693],[23.5088,70.479,200.7089],[23.508,70.4745,224.6328],[23.4947,70.4747,456.8427],[23.4939,70.4702,555.8428],[23.4805,70.4704,524.0122],[23.4798,70.4659,529.4822],[23.4664,70.4662,502.3992],[23.465699999999998,70.4617,451.9809],[23.4523,70.4619,371.9646],[23.4516,70.4574,408.4997],[23.4382,70.4577,710.2264],[23.4375,70.4532,687.2073],[23.4241,70.4534,602.0892],[23.4234,70.4489,471.6044],[23.3967,70.4494,432.4354],[23.3959,70.4449,482.5874],[23.3692,70.4453,613.0323],[23.3685,70.4408,625.3842],[23.3418,70.4413,698.4977],[23.3411,70.4368,710.9407],[23.3277,70.437,719.4712],[23.327,70.4325,694.4118],[23.3003,70.433,701.721],[23.2996,70.4285,691.2435],[23.273,70.429,924.1125],[23.2722,70.4244,942.079],[23.2856,70.4242,908.2141],[23.2849,70.4197,828.2237],[23.3248,70.419,706.5779],[23.3241,70.4145,800.2101],[23.3508,70.4141,725.5406],[23.35,70.4095,788.4829],[23.3634,70.4093,783.4673],[23.3626,70.4048,746.0409],[23.3893,70.4043,609.4762],[23.3885,70.3998,369.7235],[23.4019,70.3996,168.8522],[23.4011,70.3951,235.7522],[23.4144,70.3949,97.2005]]],
[[[24.0599,70.5214,0.0],[24.0589,70.5193,0.0],[24.0625,70.5188,0.0],[24.0661,70.5224,0.0],[24.0625,70.5229,0.0],[24.0599,70.5214,0.0]]],
[[[23.7271,70.5742,355.213],[23.7263,70.5697,310.0684],[23.6974,70.5703,10.3732],[23.6922,70.563,7.7237],[23.6979,70.5625,23.2647],[23.6995,70.5609,23.2194],[23.6938,70.5604,0.0],[23.6922,70.5589,0.0],[23.7062,70.5583,1.5255],[23.7203,70.5516,5.2578],[23.7172,70.5484,0.0],[23.7328,70.5411,7.2918],[23.7234,70.538,0.0],[23.7292,70.5354,0.0],[23.737,70.5349,35.2097],[23.7339,70.5297,0.0],[23.737,70.5276,6.4466],[23.7339,70.5255,24.8524],[23.7464,70.5193,0.0],[23.7557,70.5182,0.0],[23.763,70.513,0.0],[23.7708,70.5125,26.8453],[23.7792,70.5083,0.0],[23.8312,70.5083,0.0],[23.8354,70.5104,4.0846],[23.8438,70.5104,1.4907],[23.8583,70.5062,0.0],[23.8667,70.5083,0.0],[23.8708,70.5062,0.0],[23.8833,70.5062,0.0],[23.8875,70.5042,0.0],[23.8958,70.5042,0.0],[23.9,70.5062,0.0],[23.9104,70.5062,0.0],[23.9229,70.5104,0.0],[23.9479,70.5125,0.0],[23.9562,70.5167,25.3897],[23.9667,70.5167,0.0],[23.9932,70.5234,0.0],[23.9979,70.5271,11.1291],[24.0057,70.5276,0.0],[24.0078,70.5307,0.0],[24.0047,70.5328,0.0],[24.0078,70.537,0.0],[23.9943,70.5443,6.6036],[23.9984,70.5495,8.9429],[24.0146,70.5521,0.0],[24.0193,70.5557,26.5209],[24.0266,70.5568,0.0],[24.0339,70.562,0.0],[24.0411,70.563,0.0],[24.0443,70.5661,0.0],[24.0599,70.5693,0.0],[24.0672,70.5745,7.1067],[24.0911,70.5797,0.0],[24.0901,70.5828,29.9839],[24.0917,70.5833,24.804],[24.1021,70.5833,0.0],[24.112,70.5859,0.0],[24.1224,70.5943,0.0],[24.1193,70.5974,28.5381],[24.1349,70.6005,0.0],[24.1297,70.6057,0.0],[24.1318,70.6078,0.0],[24.1375,70.6083,0.0],[24.1391,70.6099,0.0],[24.1313,70.6104,26.819],[24.1245,70.6141,20.6178],[24.1188,70.6146,11.4648],[24.113,70.6172,0.0],[24.1146,70.6188,0.0],[24.125,70.6188,0.0],[24.1286,70.6214,0.0],[24.1271,70.6229,0.0],[24.1193,70.6234,26.085],[24.1224,70.6266,0.0],[24.1021,70.6271,7.5419],[24.0964,70.6297,3.1104],[24.0979,70.6312,0.0],[24.1036,70.6318,0.0],[24.112,70.638,0.0],[24.1089,70.6401,113.6998],[24.1099,70.6432,8.8378],[24.1042,70.6458,23.4437],[24.0792,70.6458,28.3754],[24.0729,70.6479,0.0],[24.0604,70.6438,103.4987],[24.0542,70.6458,3.0767],[24.0512,70.6458,0.0],[24.0509,70.6445,57.0635],[24.0374,70.6448,15.2211],[24.0366,70.6403,207.8978],[24.0231,70.6406,132.3406],[24.0222,70.6361,274.5484],[24.0087,70.6363,275.3501],[24.0079,70.6318,336.3709],[23.9944,70.6321,341.3601],[23.9935,70.6276,460.1422],[23.9801,70.6279,409.4889],[23.9792,70.6234,448.6367],[23.965699999999998,70.6237,480.6671],[23.9649,70.6192,413.4283],[23.9514,70.6194,497.6778],[23.9505,70.6149,454.1087],[23.9371,70.6152,523.46],[23.9362,70.6107,532.8873],[23.9228,70.611,553.0858],[23.9219,70.6065,453.8259],[23.9085,70.6068,477.7268],[23.9068,70.5978,424.3918],[23.8933,70.598,523.4059],[23.8925,70.5935,467.0787],[23.879,70.5938,535.7774],[23.8782,70.5893,531.2894],[23.8648,70.5896,545.8428],[23.8639,70.5851,608.7041],[23.8505,70.5853,600.5176],[23.8496,70.5808,590.9277],[23.8093,70.5816,537.7426],[23.8085,70.5771,483.474],[23.7682,70.5779,396.7988],[23.7674,70.5734,373.0436],[23.7271,70.5742,355.213]]],
[[[24.1688,70.6062,0.0],[24.1672,70.6047,0.0],[24.1724,70.6047,0.0],[24.1724,70.6057,0.0],[24.1688,70.6062,0.0]]],
[[[24.1849,70.612,0.0],[24.1875,70.6104,0.0],[24.1911,70.6109,0.0],[24.1875,70.6146,0.0],[24.1839,70.6141,0.0],[24.1849,70.612,0.0]]],
[[[24.1313,70.6167,0.0],[24.1297,70.6151,0.0],[24.1349,70.6151,0.0],[24.1349,70.6162,0.0],[24.1313,70.6167,0.0]]],
[[[24.0542,70.6479,0.0],[24.0579,70.6479,0.0],[24.0518,70.6488,5.8089],[24.0516,70.6479,0.0],[24.0542,70.6479,0.0]]],
[[[24.3943,70.7057,0.0],[24.3958,70.7042,0.0],[24.4057,70.7047,0.0],[24.4042,70.7063,0.0],[24.3943,70.7057,0.0]]],
[[[24.3651,70.7078,0.0],[24.3667,70.7063,0.0],[24.3703,70.7068,0.0],[24.3688,70.7083,0.0],[24.3651,70.7078,0.0]]]]}
,"properties": {"GID_2": "NOR.5.9_1","GID_0": "NOR","country": "Norway","GID_1": "NOR.5_1","province": "Finnmark","NL_NAME_1": "NA","county": "Kvalsund","VARNAME_2": "NA","NL_NAME_2": "NA","TYPE_2": "Kommuner","ENGTYPE_2": "Municipality","CC_2": "NA","HASC_2": "NO.FI.KV","name": "Kvalsund.county","area_km2": 1830.572,"hist_schema_id": "Elevation0-9000","hist_area_km2": {"0": 23.352,"25": 31.68,"50": 33.056,"75": 33.989,"100": 36.64,"125": 45.297,"150": 47.902,"175": 50.976,"200": 60.722,"225": 69.331,"250": 99.016,"275": 154.09,"300": 157.089,"325": 151.486,"350": 130.309,"375": 112.683,"400": 98.85,"425": 85.733,"450": 80.756,"475": 75.314,"500": 62.399,"525": 57.183,"550": 42.511,"575": 29.569,"600": 22.641,"625": 17.757,"650": 11.991,"675": 3.047,"700": 1.57,"725": 1.137,"750": 0.995,"775": 0.625,"800": 0.256,"825": 0.163,"850": 0.128,"875": 0.092,"900": 0.099,"925": 0.078,"950": 0.05}}}