{"type": "Feature","bbox": [14.5589,67.625,15.8969,68.0411],"geometry": {"type": "MultiPolygon","coordinates": [[[[14.7391,67.6266,0.0],[14.7354,67.6271,0.0],[14.7339,67.6255,0.0],[14.7375,67.625,0.0],[14.7391,67.6266,0.0]]],
[[[14.7151,67.6766,0.0],[14.7193,67.6734,27.4816],[14.7229,67.6729,2.7574],[14.7266,67.6755,5.5959],[14.7286,67.6807,10.4822],[14.725,67.6813,0.0],[14.7151,67.6766,0.0]]],
[[[14.7745,67.6828,121.817],[14.7708,67.6833,23.837],[14.7693,67.6818,31.0124],[14.7729,67.6813,128.788],[14.7745,67.6828,121.817]]],
[[[14.7516,67.7172,3.1726],[14.7516,67.7182,14.6385],[14.7484,67.7182,16.4012],[14.7484,67.7172,19.5534],[14.7516,67.7172,3.1726]]],
[[[14.7057,67.6703,11.4517],[14.7021,67.6708,10.2272],[14.7005,67.6693,11.9084],[14.7042,67.6687,0.5419],[14.7057,67.6703,11.4517]]],
[[[14.687,67.6745,12.5969],[14.6833,67.675,19.6509],[14.6818,67.6734,3.7273],[14.6854,67.6729,0.0],[14.687,67.6745,12.5969]]],
[[[14.6995,67.6766,1.11],[14.6958,67.6771,6.7302],[14.6943,67.6755,17.7641],[14.6979,67.675,0.0],[14.6995,67.6766,1.11]]],
[[[14.6208,67.7312,0.0],[14.6172,67.7307,0.0],[14.6172,67.7276,4.3117],[14.6203,67.7276,15.6436],[14.6224,67.7297,5.6781],[14.6208,67.7312,0.0]]],
[[[14.5849,67.7245,0.0],[14.5896,67.7229,0.0],[14.5943,67.7266,6.8744],[14.5995,67.7276,0.0],[14.6036,67.7338,0.0],[14.6036,67.737,4.8155],[14.5958,67.7375,0.0],[14.5911,67.7338,3.2369],[14.5797,67.7307,0.0],[14.5776,67.7286,0.0],[14.5776,67.7255,0.0],[14.5849,67.7245,0.0]]],
[[[14.588,67.7516,0.0],[14.5938,67.7479,0.0],[14.5979,67.7521,18.3644],[14.5958,67.7542,0.0],[14.588,67.7516,0.0]]],
[[[14.637,67.7536,9.6954],[14.6333,67.7542,0.0],[14.6318,67.7526,8.3412],[14.6354,67.7521,11.3331],[14.637,67.7536,9.6954]]],
[[[14.5641,67.787,9.987],[14.5604,67.7875,0.0],[14.5589,67.7859,0.0],[14.5625,67.7854,5.6547],[14.5641,67.787,9.987]]],
[[[14.7411,67.7276,0.0],[14.7411,67.7286,0.0],[14.738,67.7286,17.1764],[14.738,67.7276,15.1865],[14.7411,67.7276,0.0]]],
[[[14.7443,67.7307,0.0],[14.7458,67.7292,1.5588],[14.7542,67.7292,0.0],[14.7521,67.7312,3.3703],[14.7443,67.7307,0.0]]],
[[[14.7609,67.7745,6.8696],[14.7651,67.7714,13.3808],[14.7688,67.7708,0.0],[14.7729,67.7729,0.0],[14.7854,67.7729,0.0],[14.7953,67.7755,0.0],[14.7958,67.7771,5.633],[14.7953,67.7786,7.0316],[14.7896,67.7813,0.0],[14.7854,67.7792,2.2569],[14.7646,67.7771,0.0],[14.7609,67.7745,6.8696]]],
[[[14.7458,67.8167,0.0],[14.7422,67.8161,0.0],[14.7422,67.813,6.8883],[14.7474,67.813,0.0],[14.7474,67.8161,15.7503],[14.7458,67.8167,0.0]]],
[[[14.6953,67.7859,15.0223],[14.6953,67.787,9.9948],[14.6922,67.787,9.774],[14.6922,67.7859,13.5939],[14.6953,67.7859,15.0223]]],
[[[14.5703,67.7974,0.3805],[14.5667,67.7979,0.0],[14.5651,67.7963,1.8637],[14.5687,67.7958,4.6407],[14.5703,67.7974,0.3805]]],
[[[14.6151,67.8578,0.1944],[14.6125,67.8542,0.6209],[14.6146,67.8521,4.3084],[14.6203,67.8568,3.5371],[14.6188,67.8583,0.0],[14.6151,67.8578,0.1944]]],
[[[14.6375,67.8604,1.4356],[14.6333,67.8604,1.7145],[14.6318,67.8588,5.8996],[14.6432,67.8588,0.0],[14.6417,67.8604,0.0],[14.6375,67.8604,1.4356]]],
[[[14.7229,67.8271,0.0],[14.7438,67.8292,0.0],[14.7563,67.8333,0.0],[14.7708,67.8354,0.0],[14.7729,67.8375,0.0],[14.7708,67.8396,0.0],[14.7583,67.8396,0.0],[14.7479,67.8354,14.4207],[14.7292,67.8354,0.0],[14.7245,67.8318,1.2743],[14.7167,67.8292,17.6176],[14.7104,67.8313,0.0],[14.7063,67.8292,9.7778],[14.7021,67.8292,12.8861],[14.6995,67.8255,7.884],[14.6943,67.8245,17.4169],[14.6974,67.8214,1.8902],[14.6932,67.8151,0.0],[14.6833,67.8125,0.0],[14.6708,67.8125,0.0],[14.6672,67.8099,0.0],[14.6661,67.8068,35.2483],[14.6563,67.8063,68.0467],[14.6526,67.8026,16.5532],[14.6667,67.8021,0.0],[14.6729,67.8063,18.7966],[14.6854,67.8063,0.0],[14.6896,67.8042,0.0],[14.6938,67.8063,40.6512],[14.7036,67.8068,0.0],[14.7109,67.8161,0.2183],[14.7161,67.8172,0.0],[14.713,67.8193,8.8521],[14.713,67.8224,0.0],[14.7172,67.8266,9.6347],[14.7229,67.8271,0.0]]],
[[[14.7354,67.825,0.0],[14.737,67.8255,9.888],[14.737,67.8266,0.0],[14.7339,67.8266,12.1937],[14.7354,67.825,0.0]]],
[[[14.7688,67.8458,13.1053],[14.7625,67.8458,0.0],[14.7609,67.8443,6.9666],[14.7724,67.8443,0.0],[14.7688,67.8458,13.1053]]],
[[[14.8078,67.9089,0.0],[14.8047,67.9057,0.0],[14.8047,67.9026,6.72],[14.8125,67.9021,0.0],[14.8203,67.9047,0.0],[14.8234,67.9078,3.1167],[14.8286,67.9089,0.0],[14.8328,67.9141,0.0],[14.8229,67.9146,0.0],[14.8078,67.9089,0.0]]],
[[[14.6224,67.863,3.8114],[14.6224,67.8641,0.0],[14.6193,67.8641,0.0],[14.6193,67.863,1.8362],[14.6224,67.863,3.8114]]],
[[[14.6641,67.8662,0.0],[14.6604,67.8667,7.8111],[14.6589,67.8651,0.0],[14.6625,67.8646,6.2586],[14.6641,67.8662,0.0]]],
[[[14.9036,67.9141,0.0],[14.9,67.9146,0.0],[14.8984,67.913,0.0],[14.9021,67.9125,0.0],[14.9036,67.9141,0.0]]],
[[[14.9208,67.9229,12.5379],[14.9167,67.9229,3.1927],[14.9151,67.9213,3.8167],[14.925,67.9208,0.0],[14.9271,67.9229,0.0],[14.925,67.925,0.0],[14.9208,67.9229,12.5379]]],
[[[14.9104,67.9354,38.0693],[14.9068,67.9349,0.0],[14.9068,67.9318,26.8155],[14.9161,67.9318,0.0],[14.9161,67.9328,0.0],[14.9104,67.9354,38.0693]]],
[[[14.8672,67.9411,0.0],[14.8651,67.9391,5.1811],[14.8651,67.9359,22.1736],[14.8729,67.9354,2.6471],[14.8766,67.938,0.0],[14.8734,67.9401,2.342],[14.8724,67.9432,8.2771],[14.8693,67.9432,10.4281],[14.8672,67.9411,0.0]]],
[[[14.9057,67.9401,0.0],[14.9042,67.9417,0.0],[14.9005,67.9411,1.2236],[14.9021,67.9396,0.0],[14.9057,67.9401,0.0]]],
[[[14.8813,67.9437,0.0],[14.8797,67.9422,0.0],[14.8854,67.9396,0.0],[14.889099999999999,67.9401,0.0],[14.889099999999999,67.9432,0.0],[14.8813,67.9437,0.0]]],
[[[14.8771,67.9437,0.0],[14.8786,67.9453,0.0],[14.8755,67.9453,0.0],[14.8755,67.9443,1.1434],[14.8771,67.9437,0.0]]],
[[[14.8729,67.9458,14.737],[14.8745,67.9464,7.4968],[14.8745,67.9474,13.6547],[14.8714,67.9474,10.3749],[14.8729,67.9458,14.737]]],
[[[14.9151,67.9474,0.0],[14.9125,67.9437,0.0],[14.9146,67.9417,0.0],[14.9208,67.9417,3.3688],[14.9307,67.9464,0.0],[14.9276,67.9484,5.1818],[14.9286,67.9516,0.0],[14.9271,67.9521,0.0],[14.9172,67.9495,0.6741],[14.9151,67.9474,0.0]]],
[[[14.8828,67.9495,24.0147],[14.8792,67.95,0.0],[14.8776,67.9484,1.7729],[14.8813,67.9479,0.0],[14.8828,67.9495,24.0147]]],
[[[14.9974,67.638,28.0301],[14.9974,67.6391,25.0967],[14.9943,67.6391,18.7602],[14.9943,67.638,13.2466],[14.9974,67.638,28.0301]]],
[[[14.9854,67.6479,33.4776],[14.9818,67.6474,3.6606],[14.9818,67.6443,0.0],[14.9917,67.6458,0.0],[14.9938,67.6479,0.0],[14.9917,67.65,3.204],[14.9854,67.6479,33.4776]]],
[[[15.1188,67.6604,20.449],[15.1271,67.6604,0.0],[15.1292,67.6625,0.0],[15.1286,67.6641,0.0],[15.1229,67.6667,4.4568],[15.0896,67.6667,0.0],[15.0792,67.6625,31.3157],[15.0708,67.6646,0.0],[15.0667,67.6625,8.6423],[15.0583,67.6625,0.0],[15.0542,67.6604,14.6675],[15.038,67.6578,10.001],[15.0396,67.6563,4.5892],[15.0536,67.6557,10.262],[15.0516,67.6526,72.5907],[15.0375,67.6542,0.0],[15.0333,67.6521,0.0],[15.025,67.6521,0.0],[15.0214,67.6495,0.0],[15.0182,67.6443,58.4905],[15.013,67.6432,29.6176],[15.0104,67.6396,12.2108],[15.0125,67.6375,5.3428],[15.0292,67.6375,0.0],[15.0396,67.6417,21.7021],[15.0542,67.6417,0.0],[15.0604,67.6438,0.0],[15.0688,67.6396,0.4244],[15.0875,67.6458,31.1384],[15.1016,67.6464,0.0],[15.1068,67.6516,9.2011],[15.112,67.6526,0.0],[15.113,67.6557,12.3619],[15.1188,67.6604,20.449]]],
[[[15.013,67.6599,0.0],[15.0188,67.6563,3.2968],[15.0266,67.6568,0.0],[15.0208,67.6604,1.5959],[15.013,67.6599,0.0]]],
[[[14.9229,67.7438,4.0065],[14.9188,67.7438,0.0],[14.9172,67.7422,0.0],[14.9266,67.7422,50.9347],[14.9229,67.7438,4.0065]]],
[[[14.9354,67.7458,30.3374],[14.9313,67.7458,10.6934],[14.9297,67.7443,33.2395],[14.9391,67.7443,70.3356],[14.9354,67.7458,30.3374]]],
[[[14.9646,67.7708,0.0],[14.9609,67.7672,0.0],[14.9688,67.7667,0.0],[14.9786,67.7693,0.0],[14.9771,67.7708,0.0],[14.9646,67.7708,0.0]]],
[[[14.962,67.7714,19.6473],[14.962,67.7724,10.175],[14.9589,67.7724,0.0],[14.9589,67.7714,15.8412],[14.962,67.7714,19.6473]]],
[[[14.8484,67.6953,118.5262],[14.85,67.6937,129.4056],[14.8583,67.6937,378.6475],[14.8583,67.6958,360.2388],[14.8484,67.6953,118.5262]]],
[[[14.8943,67.6995,408.484],[14.8922,67.6953,456.665],[14.8938,67.6937,517.9868],[14.9016,67.6943,534.9202],[14.8984,67.6964,490.5702],[14.9,67.6979,492.4749],[14.9099,67.6984,460.3095],[14.9042,67.7021,416.1385],[14.8943,67.6995,408.484]]],
[[[14.8911,67.8422,89.1239],[14.8917,67.8438,0.0],[14.888,67.8432,0.0],[14.888,67.8422,61.5802],[14.8911,67.8422,89.1239]]],
[[[14.8627,67.9091,10.0237],[14.8609,67.9057,1.9341],[14.8625,67.9042,2.8568],[14.8813,67.9042,0.0],[14.8953,67.9089,0.0],[14.8974,67.912,0.6843],[14.8943,67.913,2.9853],[14.8932,67.9161,0.0],[14.889099999999999,67.9182,0.0],[14.8813,67.9187,0.0],[14.8766,67.9151,68.0588],[14.8651,67.912,35.1002],[14.8627,67.9091,10.0237]]],
[[[14.8443,67.9141,0.0],[14.8422,67.9109,11.7657],[14.8458,67.9104,0.0],[14.8495,67.913,4.7193],[14.8479,67.9146,0.0],[14.8443,67.9141,0.0]]],
[[[14.7667,67.9229,11.4694],[14.7651,67.9193,0.7635],[14.7688,67.9187,0.0],[14.7729,67.9208,9.4238],[14.7813,67.9208,0.0],[14.7891,67.9245,0.0],[14.7813,67.9271,0.0],[14.7771,67.925,5.4945],[14.7688,67.925,0.0],[14.7667,67.9229,11.4694]]],
[[[15.2255,67.6766,21.0593],[15.2313,67.6729,291.1556],[15.2411,67.6734,616.9601],[15.2354,67.6771,465.0993],[15.2255,67.6766,21.0593]]],
[[[15.2651,67.6787,302.2516],[15.2589,67.6755,416.7227],[15.2667,67.675,375.9687],[15.2703,67.6776,307.1278],[15.2688,67.6792,306.4475],[15.2651,67.6787,302.2516]]],
[[[15.6208,67.6896,0.0],[15.6146,67.6896,41.7236],[15.613,67.688,135.2285],[15.6224,67.688,22.9377],[15.6208,67.6896,0.0]]],
[[[15.6078,67.6901,84.2073],[15.6063,67.6917,18.9843],[15.6026,67.6911,122.2667],[15.6042,67.6896,140.7975],[15.6078,67.6901,84.2073]]],
[[[15.5651,67.6995,330.2528],[15.5589,67.6964,528.1281],[15.5724,67.6964,282.5595],[15.5703,67.6995,185.8835],[15.5651,67.6995,330.2528]]],
[[[15.6104,67.7521,378.0869],[15.6125,67.7542,293.6885],[15.6168,67.7542,226.5559],[15.6151,67.7589,106.9996],[15.6161,67.762,0.0],[15.6125,67.7625,0.0],[15.6083,67.7604,144.7136],[15.5917,67.7604,185.4377],[15.5771,67.7646,0.0],[15.5563,67.7646,101.1132],[15.5521,67.7667,41.7866],[15.5396,67.7667,76.0255],[15.5354,67.7688,0.0],[15.5292,67.7688,0.0],[15.525,67.7667,23.8364],[15.5208,67.7688,0.0],[15.5125,67.7688,0.0],[15.5021,67.7646,3.4758],[15.4875,67.7646,0.0],[15.4833,67.7625,17.3538],[15.475,67.7625,0.0],[15.4583,67.7562,84.8782],[15.4396,67.7562,0.0],[15.4354,67.7583,0.0],[15.4292,67.7583,0.0],[15.4229,67.7542,32.224],[15.413,67.7536,17.4574],[15.412,67.7505,39.3747],[15.4047,67.7495,0.0],[15.4042,67.7479,0.0],[15.4047,67.7464,0.0],[15.412,67.7453,8.0314],[15.4188,67.7417,0.0],[15.425,67.7417,78.9343],[15.4333,67.7375,0.0],[15.4411,67.737,39.8412],[15.4401,67.7338,0.0],[15.4526,67.7276,0.0],[15.4599,67.7266,40.0208],[15.4609,67.7234,0.0],[15.4641,67.7224,0.0],[15.463,67.7193,0.0],[15.4646,67.7188,0.0],[15.4708,67.7188,36.283],[15.475,67.7167,1.5176],[15.4979,67.7167,0.0],[15.5021,67.7188,62.3069],[15.5167,67.7188,0.0],[15.5208,67.7208,11.9798],[15.5479,67.7208,16.478],[15.5521,67.7188,0.0],[15.5688,67.7188,73.0285],[15.588,67.7089,0.0],[15.5958,67.7083,0.0],[15.6026,67.7047,0.0],[15.6099,67.7037,28.5965],[15.6182,67.6995,26.964],[15.6208,67.6958,0.0],[15.6313,67.6958,46.6221],[15.6438,67.6917,0.0],[15.65,67.6917,0.0],[15.6516,67.6911,0.0],[15.6505,67.688,0.0],[15.6521,67.6875,0.0],[15.6792,67.6875,181.8202],[15.6807,67.6859,289.2995],[15.6729,67.6854,242.131],[15.6604,67.6813,404.6709],[15.6521,67.6813,361.0708],[15.6479,67.6792,541.9061],[15.6146,67.6792,806.243],[15.6104,67.6813,688.6371],[15.6026,67.6818,752.1096],[15.6036,67.6849,607.1494],[15.6021,67.6854,634.0195],[15.5958,67.6854,615.0101],[15.5917,67.6875,638.3426],[15.575,67.6875,898.6714],[15.5708,67.6896,677.4086],[15.5604,67.6896,924.2004],[15.5563,67.6917,777.1664],[15.5458,67.6917,882.6617],[15.5443,67.6922,962.7631],[15.5453,67.6953,743.1835],[15.5396,67.6979,893.4647],[15.5333,67.6958,827.6463],[15.5271,67.6958,681.7427],[15.5229,67.6979,583.5693],[15.5151,67.6984,286.254],[15.5083,67.7021,83.3686],[15.5047,67.6984,0.0],[15.5161,67.6932,0.0],[15.5151,67.6901,0.0],[15.5229,67.6896,126.1519],[15.5328,67.6849,0.0],[15.5297,67.6797,68.2502],[15.5438,67.6792,116.0035],[15.5453,67.6787,144.023],[15.5443,67.6755,252.3903],[15.5479,67.675,289.1506],[15.5521,67.6771,138.6455],[15.5604,67.6729,338.3434],[15.5682,67.6724,169.597],[15.5724,67.6693,314.757],[15.5646,67.6687,611.3122],[15.5583,67.6708,450.1422],[15.5542,67.6687,701.8893],[15.5313,67.6687,761.554],[15.5271,67.6708,750.8256],[15.5146,67.6708,986.5546],[15.5026,67.6776,538.901],[15.5016,67.6807,343.8293],[15.4984,67.6818,353.2179],[15.5016,67.687,50.0314],[15.4938,67.6896,90.1425],[15.4922,67.688,178.6743],[15.4953,67.6859,268.3633],[15.4901,67.6859,463.4854],[15.4776,67.6922,249.3623],[15.4786,67.6953,70.269],[15.4771,67.6958,39.1926],[15.4604,67.6958,6.9391],[15.4479,67.7,4.6101],[15.4417,67.7,33.4922],[15.4354,67.7021,0.0],[15.4339,67.7005,11.9792],[15.4411,67.6974,93.9792],[15.4411,67.6943,275.7418],[15.4313,67.6917,566.8078],[15.4042,67.6937,451.2905],[15.4026,67.6953,229.3888],[15.4047,67.6995,85.7294],[15.412,67.7005,88.2886],[15.412,67.7037,9.0221],[15.4005,67.7089,13.4219],[15.4016,67.712,2.0044],[15.3807,67.7224,0.0],[15.3688,67.7229,28.1073],[15.3604,67.7271,0.0],[15.3542,67.7271,41.3797],[15.3526,67.7276,50.9577],[15.3536,67.7307,0.0],[15.3521,67.7312,0.0],[15.3417,67.7312,32.2315],[15.3271,67.7354,2.3843],[15.3208,67.7354,17.629],[15.3167,67.7375,8.4353],[15.3063,67.7375,0.0],[15.3021,67.7354,2.3794],[15.2922,67.7349,0.0],[15.2901,67.7318,0.8801],[15.2932,67.7297,16.0751],[15.288,67.7286,0.0],[15.2828,67.7214,4.5385],[15.2729,67.7208,0.0],[15.2682,67.7172,64.3515],[15.263,67.7161,14.7896],[15.2589,67.7099,0.0],[15.262,67.7068,38.8462],[15.25,67.7042,0.0],[15.2484,67.7026,10.7988],[15.2646,67.6979,0.0],[15.2979,67.6979,0.0],[15.3042,67.7,36.8794],[15.3104,67.6979,0.0],[15.3146,67.7,20.5031],[15.3208,67.7,20.5619],[15.337,67.6953,0.0],[15.3328,67.688,3.0952],[15.3292,67.6875,11.2014],[15.3229,67.6896,0.0],[15.3188,67.6875,0.6822],[15.3063,67.6875,22.5553],[15.3026,67.6849,122.7386],[15.3057,67.6818,302.1706],[15.3021,67.6792,547.0738],[15.2917,67.6792,718.7022],[15.2818,67.6839,160.82],[15.2818,67.687,75.6942],[15.2833,67.6875,59.979],[15.2995,67.688,17.8774],[15.2979,67.6896,0.2991],[15.2917,67.6896,4.4113],[15.2875,67.6917,0.0],[15.275,67.6917,0.0],[15.2646,67.6875,50.1683],[15.25,67.6875,0.0],[15.2479,67.6854,19.1022],[15.25,67.6833,64.6949],[15.2682,67.6828,106.0579],[15.2766,67.6787,337.8225],[15.2755,67.6755,303.0],[15.2849,67.6745,369.3789],[15.2839,67.6713,303.0],[15.2911,67.6682,320.2922],[15.2901,67.6651,303.0],[15.3057,67.6568,646.789],[15.275,67.6563,739.7215],[15.2708,67.6583,823.6246],[15.2547,67.6589,858.1965],[15.2563,67.6604,919.1193],[15.2703,67.6609,715.8973],[15.2766,67.6693,340.487],[15.2708,67.6729,402.2275],[15.2609,67.6724,563.1585],[15.2583,67.6687,712.223],[15.2505,67.6703,794.8371],[15.2526,67.6672,800.0565],[15.2557,67.6661,756.1902],[15.2542,67.6646,817.9917],[15.2313,67.6646,591.9593],[15.2297,67.6651,542.1406],[15.2307,67.6682,611.1827],[15.2266,67.6703,275.5806],[15.2188,67.6708,13.4285],[15.2141,67.6672,53.2295],[15.2063,67.6646,16.1785],[15.1979,67.6646,0.0],[15.1917,67.6604,9.0131],[15.1818,67.6599,0.0],[15.1859,67.6568,19.047],[15.1938,67.6563,104.9601],[15.1953,67.6547,183.4794],[15.1917,67.6521,292.8373],[15.1875,67.6542,149.2083],[15.1776,67.6536,0.0],[15.1755,67.6484,0.0],[15.1786,67.6464,0.0],[15.1717,67.6355,45.0017],[15.1791,67.6302,37.1842],[15.1789,67.6311,75.4865],[15.2024,67.6318,148.9438],[15.2015,67.6363,308.5433],[15.2485,67.6376,187.4224],[15.2476,67.6421,535.8115],[15.2593,67.6424,303.1944],[15.2584,67.6469,408.0478],[15.3172,67.6486,286.2112],[15.3181,67.6441,219.6817],[15.3298,67.6444,408.8102],[15.3307,67.6399,520.4607],[15.3424,67.6402,806.6829],[15.3433,67.6357,595.367],[15.3551,67.6361,606.707],[15.3542,67.6406,675.2926],[15.3659,67.6409,529.4369],[15.3642,67.6499,781.4696],[15.376,67.6502,593.4523],[15.3742,67.6591,1033.1268],[15.4095,67.6601,772.0513],[15.4104,67.6556,680.7576],[15.4221,67.6559,403.2357],[15.4238,67.647,657.0397],[15.4356,67.6473,551.8405],[15.4373,67.6383,584.3432],[15.4491,67.6386,647.9011],[15.4499,67.6341,484.4856],[15.4852,67.6351,393.958],[15.4843,67.6396,209.149],[15.5078,67.6402,169.5112],[15.507,67.6447,424.6938],[15.5187,67.645,377.2248],[15.5162,67.6584,754.5846],[15.5515,67.6594,489.4125],[15.5523,67.6549,476.739],[15.5641,67.6552,425.0681],[15.5658,67.6462,465.5685],[15.601,67.6471,359.4993],[15.6002,67.6516,362.0879],[15.612,67.6519,321.3367],[15.6111,67.6564,385.2752],[15.6229,67.6567,355.0799],[15.6221,67.6612,458.271],[15.728,67.6639,859.7318],[15.7272,67.6684,728.3151],[15.7154,67.6681,863.9368],[15.7097,67.6995,673.7331],[15.7215,67.6998,764.1224],[15.7207,67.7043,767.4766],[15.6382,67.7022,573.4964],[15.6374,67.7067,767.5573],[15.6256,67.7064,614.8607],[15.6239,67.7154,1037.7935],[15.6121,67.7151,746.403],[15.608,67.7375,788.9509],[15.6198,67.7379,693.4672],[15.6182,67.7464,533.5879],[15.6146,67.7458,653.4318],[15.6089,67.7484,578.3367],[15.6104,67.7521,378.0869]]],
[[[15.5505,67.7037,350.9898],[15.5563,67.6979,493.7336],[15.5609,67.7016,243.1091],[15.5661,67.7026,117.9256],[15.5646,67.7042,72.434],[15.5505,67.7037,350.9898]]],
[[[15.7369,67.9438,712.0311],[15.725,67.9435,725.4905],[15.7242,67.948,1015.6633],[15.7361,67.9483,898.2726],[15.7358,67.95,888.4532],[15.7125,67.95,1090.6572],[15.7068,67.9526,837.3286],[15.7078,67.9557,722.8055],[15.7063,67.9563,727.2822],[15.6958,67.9563,719.3334],[15.6813,67.9604,379.2798],[15.6583,67.9604,95.7146],[15.6542,67.9583,67.911],[15.6443,67.9578,19.9494],[15.6474,67.9547,0.0],[15.6438,67.9521,0.0],[15.6292,67.9521,0.0],[15.625,67.95,37.9513],[15.588,67.9495,0.0],[15.5839,67.9422,0.0],[15.587,67.9411,0.0],[15.5859,67.938,0.0],[15.5891,67.937,0.0],[15.5901,67.9339,2.5086],[15.5932,67.9318,88.3693],[15.5833,67.9271,11.9882],[15.5568,67.9276,0.0],[15.562,67.937,0.0],[15.5542,67.9375,11.0344],[15.55,67.9396,0.0],[15.5313,67.9375,234.7925],[15.5234,67.9349,372.9068],[15.5188,67.9313,364.2826],[15.5,67.9313,124.867],[15.4984,67.9318,77.0479],[15.4995,67.9349,39.1726],[15.4979,67.9354,39.1726],[15.4854,67.9354,0.0],[15.475,67.9313,4.9755],[15.4667,67.9333,0.0],[15.4625,67.9313,6.4645],[15.45,67.9313,0.0],[15.4464,67.9287,2.0079],[15.4521,67.925,0.0],[15.4583,67.925,16.2878],[15.4708,67.9208,136.3536],[15.4891,67.9203,122.133],[15.4932,67.9182,244.7458],[15.4943,67.9151,347.8171],[15.5016,67.912,583.826],[15.5,67.9104,569.963],[15.4859,67.913,575.7349],[15.475,67.9187,303.0007],[15.4625,67.9187,421.4283],[15.4583,67.9167,507.0764],[15.4484,67.9161,484.0065],[15.4484,67.913,567.0902],[15.451599999999999,67.9109,543.1616],[15.4417,67.9083,753.4909],[15.4354,67.9083,624.2593],[15.4208,67.9125,204.678],[15.4104,67.9083,346.4464],[15.4005,67.9078,345.6868],[15.4036,67.9057,403.8082],[15.4021,67.9042,536.3507],[15.3938,67.9042,573.5052],[15.3839,67.9068,265.1587],[15.3839,67.9099,68.8819],[15.3875,67.9125,39.4332],[15.4125,67.9125,102.8404],[15.4167,67.9146,54.5332],[15.4354,67.9146,194.7981],[15.4432,67.9172,310.7118],[15.4401,67.9193,176.8198],[15.4411,67.9224,37.4295],[15.4375,67.9229,17.7437],[15.4333,67.9208,75.2216],[15.4271,67.9229,0.0],[15.4229,67.9208,25.8089],[15.4146,67.9208,0.0],[15.4104,67.9187,10.718],[15.3979,67.9187,8.8413],[15.3938,67.9167,21.5278],[15.3854,67.9167,0.0],[15.3755,67.9141,0.0],[15.3745,67.9109,31.9392],[15.3672,67.9099,0.0],[15.3646,67.9063,124.5954],[15.3563,67.9063,50.3393],[15.3438,67.9021,63.5424],[15.3375,67.9021,9.4489],[15.3318,67.9057,9.6742],[15.3453,67.9109,0.0],[15.3484,67.9141,0.0],[15.3536,67.9151,0.0],[15.3557,67.9182,3.4322],[15.3229,67.9167,0.0],[15.3063,67.9104,0.0],[15.2943,67.9078,0.0],[15.2974,67.9047,0.0],[15.2911,67.9026,5.0689],[15.2854,67.9021,0.0],[15.275,67.8979,0.0],[15.2651,67.8974,0.0],[15.2667,67.8958,0.0],[15.2745,67.8953,-0.0203],[15.2708,67.8896,0.0],[15.2745,67.8859,5.9073],[15.2672,67.8849,0.0],[15.2661,67.8818,26.7997],[15.2464,67.8766,0.0],[15.2349,67.8693,24.9628],[15.2297,67.8682,15.8958],[15.2339,67.8651,97.9849],[15.2375,67.8646,110.3912],[15.2453,67.8672,57.3769],[15.25,67.8708,19.408],[15.2583,67.8667,154.833],[15.2708,67.8667,277.5056],[15.2849,67.862,437.7524],[15.2771,67.8583,509.7815],[15.2708,67.8604,490.439],[15.2667,67.8583,751.3945],[15.2542,67.8583,623.1323],[15.25,67.8604,520.5305],[15.2229,67.8646,0.0],[15.2042,67.8583,0.0],[15.1958,67.8583,0.0],[15.1911,67.8526,0.0],[15.1859,67.8526,0.0],[15.1964,67.8682,0.0627],[15.2063,67.8688,0.0],[15.2167,67.8729,0.0],[15.2224,67.8734,0.0],[15.2234,67.8766,9.1856],[15.2516,67.8839,0.0],[15.2536,67.8891,0.0],[15.2479,67.8917,4.8299],[15.2396,67.8917,2.2364],[15.2354,67.8896,2.6896],[15.2313,67.8917,0.0],[15.225,67.8917,0.0],[15.2188,67.8896,0.0],[15.2026,67.8943,0.0],[15.2063,67.8979,0.0],[15.2146,67.8979,0.0],[15.2286,67.9026,0.0],[15.2271,67.9042,0.0],[15.2146,67.9042,0.0],[15.2104,67.9021,0.0],[15.1979,67.9021,0.0],[15.1938,67.9,13.0985],[15.1792,67.9,0.0],[15.1776,67.8984,0.0],[15.1807,67.8964,0.4446],[15.1708,67.8958,0.0],[15.1667,67.8938,17.0141],[15.1333,67.8938,0.0],[15.1292,67.8958,0.0],[15.1214,67.8964,0.0],[15.1146,67.9,0.0],[15.1083,67.9,0.0],[15.1021,67.8979,75.3038],[15.0979,67.9,7.957],[15.0917,67.9,5.9983],[15.0901,67.9016,0.0],[15.0932,67.9057,2.3245],[15.0917,67.9063,31.2991],[15.0625,67.9063,70.2589],[15.0583,67.9042,246.893],[15.0208,67.9042,192.5276],[15.0167,67.9021,328.7394],[15.0104,67.9021,324.038],[15.0042,67.9042,114.2594],[14.9938,67.9,242.0127],[14.975,67.9,92.5333],[14.9688,67.8958,195.7485],[14.9625,67.8979,48.5686],[14.9583,67.8958,94.9357],[14.95,67.8958,7.8457],[14.9313,67.8896,55.9655],[14.9125,67.8896,0.0],[14.9083,67.8875,25.8117],[14.9,67.8875,0.0],[14.8958,67.8854,27.7323],[14.8771,67.8854,0.0],[14.8583,67.8792,8.7158],[14.85,67.8792,0.0],[14.8484,67.8776,0.0],[14.8625,67.8771,0.0],[14.8682,67.8734,0.0],[14.862,67.8651,10.8021],[14.8354,67.8625,0.0],[14.8318,67.8588,0.2531],[14.8396,67.8583,-0.0835],[14.8438,67.8562,0.0],[14.85,67.8562,0.0],[14.8563,67.8583,11.9869],[14.8604,67.8562,0.0],[14.8667,67.8583,9.0739],[14.8729,67.8562,0.0],[14.8771,67.8583,1.9966],[14.9,67.8583,0.0],[14.9042,67.8604,-0.5671],[14.9125,67.8604,1.8354],[14.9167,67.8583,0.0],[14.9208,67.8604,0.0],[14.925,67.8604,0.0],[14.9292,67.8625,9.0],[14.9375,67.8625,0.0],[14.9417,67.8646,13.5305],[14.975,67.8646,14.9615],[14.9812,67.8625,0.0],[14.9854,67.8646,7.7075],[14.9979,67.8646,0.0],[15.0021,67.8667,0.0],[15.0104,67.8667,0.0],[15.0146,67.8688,11.4232],[15.0458,67.8688,0.0],[15.0563,67.8729,0.0],[15.0875,67.8729,0.0],[15.0917,67.875,0.0],[15.0995,67.8745,0.0],[15.1078,67.8703,5.1326],[15.1083,67.8688,0.0],[15.1066,67.8668,0.0],[15.1005,67.8662,0.0],[15.1036,67.863,5.6219],[15.0984,67.862,0.0],[15.1016,67.8588,0.0],[15.0979,67.8542,0.0],[15.088,67.8547,0.2625],[15.0911,67.8599,5.8346],[15.0854,67.8625,5.3806],[15.0792,67.8604,15.79],[15.0729,67.8604,3.947],[15.0703,67.8641,8.5375],[15.0646,67.8667,0.0],[15.0521,67.8667,0.0],[15.0479,67.8646,5.8351],[15.0396,67.8646,0.0],[15.0354,67.8625,9.7007],[15.0214,67.862,0.0],[15.0193,67.8599,0.0],[15.0193,67.8568,41.3211],[15.0313,67.8562,129.1351],[15.0328,67.8547,178.9807],[15.0229,67.8542,222.7905],[15.0182,67.8505,293.3837],[15.013,67.8495,245.2914],[15.0161,67.8464,306.0015],[15.0125,67.8438,578.4061],[15.0063,67.8438,567.8168],[15.0021,67.8458,332.3267],[14.9839,67.8464,314.8954],[14.9859,67.8516,78.5718],[14.9875,67.8521,59.7145],[15.0063,67.85,116.7651],[15.0104,67.8521,104.4271],[15.0104,67.8542,43.2769],[14.9729,67.8542,0.0],[14.9688,67.8521,23.4449],[14.9438,67.8521,22.1417],[14.9375,67.8458,345.428],[14.9292,67.8458,318.2151],[14.925,67.8438,378.5904],[14.9,67.8438,73.2146],[14.8958,67.8417,127.8577],[14.8917,67.8417,68.6674],[14.8901,67.838,0.0],[14.8979,67.8375,18.6178],[14.8995,67.8359,17.8965],[14.8896,67.8313,5.1577],[14.8646,67.8313,162.4398],[14.8604,67.8292,335.4064],[14.8542,67.8292,502.0444],[14.8521,67.8313,285.9075],[14.8526,67.8328,253.2181],[14.8583,67.8333,219.4284],[14.8599,67.8349,241.1196],[14.8521,67.8354,325.0231],[14.8479,67.8375,283.9334],[14.8375,67.8375,508.2506],[14.8292,67.8417,418.5245],[14.8214,67.8422,372.3068],[14.8172,67.8443,119.8716],[14.8161,67.8474,0.0],[14.8083,67.8479,1.1046],[14.8068,67.8464,0.0],[14.8099,67.8443,-0.2047],[14.7984,67.8411,3.1828],[14.8057,67.8359,-0.0649],[14.7958,67.8333,0.1446],[14.7771,67.8333,0.0],[14.7604,67.8271,0.0],[14.7547,67.8266,0.0],[14.7578,67.8245,0.0],[14.7578,67.8214,53.8682],[14.7505,67.8203,9.3527],[14.7505,67.8172,0.0],[14.7745,67.8161,0.0],[14.7667,67.8125,0.0],[14.7526,67.812,0.0],[14.7599,67.8078,0.0],[14.7589,67.8047,3.9089],[14.762,67.8037,1.4641],[14.7609,67.7984,0.0],[14.7708,67.7937,0.0],[14.8,67.7937,0.0],[14.8042,67.7958,5.3197],[14.8104,67.7958,0.0],[14.8167,67.7937,0.0],[14.8182,67.7953,0.0],[14.8151,67.7974,0.0],[14.8229,67.8,0.0],[14.8292,67.8,0.0],[14.8307,67.7984,2.1974],[14.8286,67.7963,0.0],[14.8234,67.7943,0.0],[14.8292,67.7917,0.0],[14.837,67.7911,0.0],[14.8438,67.7875,0.0],[14.8516,67.787,0.0],[14.8479,67.7833,0.0],[14.8417,67.7854,0.0],[14.8339,67.7849,7.4554],[14.8318,67.7818,3.4676],[14.8349,67.7797,0.0],[14.8234,67.7786,0.0],[14.8193,67.7724,0.0],[14.8208,67.7708,0.0],[14.8396,67.7708,0.0],[14.85,67.775,18.3311],[14.8708,67.7771,0.0],[14.875,67.7792,24.0512],[14.8813,67.7771,7.0328],[14.8875,67.7771,1.1897],[14.8938,67.7792,3.8454],[14.8979,67.7771,0.0],[14.9021,67.7792,14.5994],[14.9104,67.7792,0.0],[14.9146,67.7813,16.6653],[14.9354,67.7813,0.0],[14.9458,67.7854,20.3148],[14.975,67.7854,0.0],[14.9792,67.7875,14.447],[15.0,67.7875,0.0],[15.0146,67.7917,0.3793],[15.0333,67.7917,0.0],[15.0349,67.7901,0.0],[15.0328,67.7859,29.064],[15.025,67.7833,68.1614],[15.0104,67.7833,0.0],[15.0026,67.7807,0.0],[14.9995,67.7776,0.0],[14.9943,67.7766,0.0],[14.9974,67.7734,0.426],[14.9943,67.7693,-0.094],[15.0083,67.7688,0.0],[15.0125,67.7708,6.3964],[15.025,67.7708,0.0],[15.0307,67.7682,-0.4446],[15.0193,67.7641,0.0],[15.0172,67.762,0.0],[15.0229,67.7583,0.5582],[15.0292,67.7583,-0.5314],[15.0354,67.7604,-1.0837],[15.0417,67.7583,0.0],[15.0458,67.7604,-0.491],[15.0542,67.7604,0.0],[15.0583,67.7625,3.4554],[15.1188,67.7625,0.0],[15.1203,67.762,0.0],[15.1203,67.7589,0.4477],[15.1068,67.7557,0.0],[15.1036,67.7526,13.4222],[15.0984,67.7516,9.4511],[15.0958,67.7479,163.3197],[15.0854,67.7521,0.0],[15.0792,67.75,38.7471],[15.0729,67.7521,0.0],[15.0688,67.75,5.041],[15.05,67.75,12.5099],[15.0458,67.7521,0.0],[15.0375,67.7458,0.0],[15.0313,67.7458,9.1482],[15.0271,67.7479,0.0],[15.0208,67.7458,14.204],[15.0109,67.7505,-0.2837],[15.012,67.7536,0.0],[15.0104,67.7542,0.0],[14.9979,67.75,0.1238],[14.9854,67.75,7.6168],[14.9792,67.7521,0.0],[14.9729,67.75,13.9358],[14.9688,67.7521,0.0],[14.9563,67.7479,29.3349],[14.9422,67.7474,4.5065],[14.9438,67.7458,49.3024],[14.9557,67.7453,154.7443],[14.9542,67.7438,185.4266],[14.9458,67.7438,119.3549],[14.9417,67.7417,256.1184],[14.9333,67.7417,218.9729],[14.9255,67.7391,187.6318],[14.9271,67.7375,276.8737],[14.9349,67.737,398.575],[14.9339,67.7338,458.5111],[14.9354,67.7333,491.8633],[14.9417,67.7354,410.2376],[14.9495,67.7349,430.5343],[14.9458,67.7312,635.6177],[14.9292,67.7312,690.001],[14.9146,67.7354,358.9367],[14.9083,67.7333,274.3822],[14.9068,67.7338,204.4469],[14.9078,67.737,90.7657],[14.9063,67.7375,37.2811],[14.8979,67.7375,6.901],[14.8938,67.7354,24.1705],[14.8896,67.7375,0.0],[14.8563,67.7375,8.1423],[14.8521,67.7396,0.0],[14.8333,67.7396,0.0],[14.8292,67.7354,119.8815],[14.8167,67.7354,14.0183],[14.8083,67.7396,0.0],[14.8021,67.7396,0.0],[14.7958,67.7417,-0.1747],[14.7755,67.7349,0.0],[14.7724,67.7318,11.5557],[14.7646,67.7292,0.0],[14.7542,67.7292,0.0],[14.7526,67.7255,0.0],[14.7646,67.725,0.0],[14.7688,67.7229,13.4947],[14.7771,67.7229,0.0],[14.7813,67.725,2.0413],[14.8057,67.7245,0.0],[14.8036,67.7193,0.0],[14.7964,67.7182,0.0],[14.7979,67.7167,0.0],[14.8104,67.7167,0.0],[14.8146,67.7188,19.9138],[14.8625,67.7188,0.0],[14.8667,67.7208,0.0],[14.8792,67.7208,0.0],[14.889099999999999,67.7182,0.0],[14.8901,67.7151,0.0],[14.8974,67.712,19.6506],[14.8958,67.7104,42.234],[14.8901,67.7099,0.0],[14.889099999999999,67.7068,17.0285],[14.8818,67.7057,2.0324],[14.8818,67.7026,51.7949],[14.8875,67.7042,29.9738],[14.9063,67.7042,385.4459],[14.9188,67.6979,519.5228],[14.9224,67.6984,603.2818],[14.925,67.7021,477.3306],[14.9286,67.7005,605.162],[14.9266,67.6964,844.9584],[14.9151,67.6953,635.2423],[14.913,67.6922,757.9448],[14.9161,67.6901,864.6411],[14.8943,67.6891,514.09],[14.8974,67.6859,633.1277],[14.8938,67.6833,695.9538],[14.8896,67.6854,651.1874],[14.8813,67.6854,745.4034],[14.8771,67.6833,725.0135],[14.863,67.6839,375.4557],[14.8646,67.6854,411.2726],[14.8745,67.6859,568.61],[14.8792,67.6896,491.9814],[14.889099999999999,67.6901,504.5524],[14.889099999999999,67.6932,530.7378],[14.8849,67.6953,472.4253],[14.8771,67.6958,648.5331],[14.8667,67.6917,648.7957],[14.8583,67.6937,378.6475],[14.8583,67.6917,457.32],[14.8521,67.6875,649.7095],[14.8479,67.6896,448.6788],[14.8292,67.6896,317.6434],[14.8276,67.688,455.1494],[14.8307,67.6859,439.363],[14.8292,67.6854,522.7148],[14.8042,67.6854,319.1447],[14.8016,67.6818,492.0454],[14.7917,67.6813,583.1631],[14.7875,67.6792,709.0118],[14.7521,67.6771,145.1623],[14.7479,67.6792,47.9513],[14.7417,67.6792,39.9497],[14.7359,67.6734,0.0],[14.7391,67.6724,0.0],[14.7417,67.6687,0.0],[14.7542,67.6687,0.0],[14.7583,67.6708,18.0926],[14.7625,67.6667,0.4373],[14.7807,67.6661,7.2701],[14.7792,67.6646,15.6718],[14.7734,67.6641,5.1266],[14.7724,67.6609,84.226],[14.7651,67.6599,17.2004],[14.7667,67.6583,7.8913],[14.7854,67.6604,0.0],[14.7896,67.6583,8.8785],[14.7958,67.6583,0.0],[14.8,67.6604,11.488],[14.8063,67.6604,0.0],[14.8104,67.6583,0.0],[14.8229,67.6583,22.4109],[14.8271,67.6563,0.0],[14.8542,67.6563,0.0],[14.8583,67.6583,18.2267],[14.8667,67.6583,8.0208],[14.8708,67.6563,0.0],[14.875,67.6583,3.9517],[14.8958,67.6583,0.0],[14.9,67.6604,0.0],[14.9063,67.6604,0.0],[14.9104,67.6583,0.0],[14.9167,67.6583,0.0],[14.9271,67.6625,4.9206],[14.9417,67.6625,0.0],[14.9495,67.6651,0.0],[14.9526,67.6703,15.7279],[14.9625,67.6708,0.0],[14.9812,67.6771,6.021],[15.0063,67.6771,0.0],[15.0167,67.6813,0.0],[15.025,67.6813,0.0],[15.0354,67.6854,2.3068],[15.0438,67.6854,0.0],[15.0479,67.6875,4.1526],[15.0625,67.6875,0.0],[15.0641,67.6891,0.0],[15.0609,67.6911,5.4356],[15.0724,67.6943,0.0],[15.0755,67.6974,7.2356],[15.0833,67.7,0.0],[15.0917,67.7,0.0],[15.0964,67.7037,0.0],[15.1104,67.7083,0.0],[15.1188,67.7083,3.2066],[15.1292,67.7125,22.1808],[15.1333,67.7125,0.0],[15.1411,67.7151,0.0],[15.1458,67.7188,0.0],[15.1536,67.7182,10.8766],[15.1526,67.7151,0.0],[15.1563,67.7146,0.0],[15.1703,67.7193,0.0],[15.1755,67.7245,0.0],[15.187,67.7276,0.0],[15.1901,67.7328,32.117],[15.2036,67.7359,0.0],[15.2057,67.7391,5.583],[15.2026,67.7412,0.0],[15.2078,67.7432,0.0],[15.2,67.7438,0.0],[15.1943,67.7464,0.0],[15.1984,67.7516,0.0],[15.2182,67.7568,0.0],[15.2208,67.7604,0.0],[15.2354,67.7604,0.0],[15.238,67.7641,9.0267],[15.2438,67.7646,0.8416],[15.2604,67.7708,0.0],[15.2646,67.7708,0.0],[15.2875,67.7792,30.4226],[15.2995,67.7818,0.0],[15.3047,67.7891,1.975],[15.3099,67.7901,0.0],[15.3146,67.7937,8.7568],[15.3208,67.7917,0.0],[15.3271,67.7917,0.0],[15.3521,67.8,0.0],[15.3604,67.8,0.0],[15.3646,67.8021,30.9281],[15.3729,67.8021,4.5403],[15.3807,67.8047,0.0],[15.3776,67.8068,2.895],[15.3797,67.812,0.0],[15.3922,67.8307,34.5101],[15.3979,67.8313,0.0],[15.3995,67.8328,0.0],[15.3938,67.8354,39.3441],[15.3797,67.8359,279.676],[15.3833,67.8417,0.0],[15.3797,67.8443,1.7993],[15.3807,67.8474,0.0],[15.3776,67.8484,23.4983],[15.3792,67.8521,0.0],[15.3755,67.8547,11.8749],[15.3766,67.8578,0.0],[15.3734,67.8588,8.2745],[15.3766,67.8662,0.0],[15.3734,67.8672,18.706],[15.3745,67.8703,0.0],[15.363,67.8755,6.1364],[15.3708,67.8792,11.8638],[15.387,67.8724,18.5726],[15.3859,67.8693,0.0],[15.3891,67.8682,31.2734],[15.388,67.8651,0.0],[15.3917,67.8625,33.6095],[15.388,67.8578,5.6386],[15.388,67.8547,0.0],[15.3953,67.8516,62.889],[15.3922,67.8464,0.0],[15.4005,67.8422,4.3751],[15.4104,67.8417,0.0],[15.413,67.8453,14.478],[15.4245,67.8464,5.0025],[15.4276,67.8495,18.1713],[15.4328,67.8505,0.0],[15.4349,67.8527,0.0],[15.4214,67.8568,40.6911],[15.4266,67.8651,0.0],[15.4234,67.8672,0.0],[15.425,67.8688,0.0],[15.4328,67.8682,10.5337],[15.4359,67.8609,0.0],[15.4391,67.8599,25.4574],[15.438,67.8568,0.0],[15.4536,67.8495,15.8748],[15.4479,67.8396,0.0],[15.4484,67.838,0.0],[15.4557,67.8349,101.6784],[15.4536,67.8318,201.0959],[15.4438,67.8313,20.8168],[15.4411,67.8276,171.398],[15.4313,67.825,104.2781],[15.4234,67.8255,0.0],[15.4245,67.8307,0.3508],[15.4188,67.8333,0.0],[15.413,67.8287,0.0],[15.413,67.8255,0.0],[15.4161,67.8234,13.0139],[15.413,67.8193,0.0],[15.4224,67.8182,8.6872],[15.4214,67.8151,0.0],[15.4339,67.8089,0.0],[15.4438,67.8083,0.0],[15.4479,67.8104,0.0],[15.4542,67.8104,0.0],[15.4557,67.8099,0.0],[15.4547,67.8068,0.0],[15.4646,67.8021,0.0],[15.4708,67.8021,4.1827],[15.475,67.8,0.0],[15.4854,67.8,0.0],[15.4896,67.7979,0.0],[15.5,67.7979,4.4738],[15.5026,67.7943,5.3013],[15.5083,67.7917,0.0],[15.5125,67.7917,16.5808],[15.5167,67.7896,0.0],[15.5292,67.7896,88.6952],[15.5333,67.7875,0.0],[15.5438,67.7875,34.0753],[15.5667,67.7813,0.0],[15.5771,67.7813,42.5849],[15.5833,67.7792,0.0],[15.5938,67.7833,29.795],[15.6063,67.7833,0.0],[15.613,67.7797,0.0],[15.6208,67.7792,40.102],[15.625,67.7771,8.3536],[15.6354,67.7771,98.5332],[15.65,67.7729,0.0],[15.6604,67.7729,0.0],[15.6755,67.7651,0.0],[15.6828,67.7641,0.0],[15.6938,67.7583,0.0],[15.712,67.7557,66.5456],[15.7271,67.7479,0.0],[15.7375,67.7479,4.5986],[15.7417,67.7458,0.0],[15.7583,67.7458,33.1354],[15.7625,67.7438,0.0],[15.7688,67.7458,13.0028],[15.787,67.737,0.0],[15.7859,67.7338,0.0],[15.7891,67.7328,0.0],[15.7833,67.7229,0.0],[15.787,67.7203,57.3807],[15.7839,67.7151,0.0],[15.7938,67.7104,0.0],[15.8,67.7104,0.0],[15.8146,67.7063,0.0],[15.8328,67.7068,0.0],[15.8049,67.7123,114.5933],[15.7961,67.7175,187.4878],[15.7906,67.726,107.118],[15.7968,67.74,306.3777],[15.7855,67.7474,245.2006],[15.7356,67.7534,238.1443],[15.7346,67.7588,549.03],[15.7228,67.7585,470.1156],[15.7212,67.7675,715.8949],[15.7094,67.7672,567.9586],[15.7085,67.7717,969.9917],[15.7204,67.772,837.6752],[15.7196,67.7765,973.3655],[15.7787,67.778,264.4959],[15.7795,67.7735,266.0758],[15.8031,67.774,337.3192],[15.8039,67.7696,360.3813],[15.8275,67.7701,461.0357],[15.8283,67.7656,373.4917],[15.8756,67.7668,792.6365],[15.8748,67.7713,989.4927],[15.863,67.771,836.2272],[15.8614,67.78,954.1263],[15.8969,67.7808,452.7291],[15.893,67.8033,675.7777],[15.8812,67.803,557.0761],[15.8804,67.8075,614.5246],[15.8686,67.8072,586.4258],[15.8662,67.8207,239.2708],[15.8544,67.8204,326.9908],[15.8536,67.8249,194.6139],[15.8417,67.8246,188.2211],[15.8409,67.8291,114.0738],[15.8291,67.8288,113.8126],[15.8283,67.8333,113.8381],[15.8046,67.8327,117.1712],[15.8038,67.8372,114.6093],[15.7801,67.8366,387.8814],[15.7793,67.8411,351.2029],[15.7437,67.8402,1071.3185],[15.7405,67.8582,685.9846],[15.7523,67.8585,839.9253],[15.7499,67.872,770.3437],[15.7381,67.8717,683.7491],[15.7364,67.8807,718.182],[15.7246,67.8804,460.8649],[15.7237,67.8849,722.3508],[15.7119,67.8846,471.0178],[15.7086,67.9025,708.9111],[15.7205,67.9028,541.4915],[15.7188,67.9118,253.0],[15.707,67.9115,253.0],[15.7053,67.9205,253.0],[15.741,67.9214,514.037],[15.7402,67.9259,723.3657],[15.7521,67.9262,924.6347],[15.7513,67.9307,888.088],[15.7632,67.931,733.0193],[15.7624,67.9354,733.7296],[15.7505,67.9352,719.6252],[15.7497,67.9396,816.8101],[15.7377,67.9394,530.98],[15.7369,67.9438,712.0311]]],
[[[15.0125,67.8542,52.0098],[15.0161,67.8557,30.4551],[15.0104,67.8562,5.0284],[15.0104,67.8542,43.2769],[15.0125,67.8542,52.0098]]],
[[[15.1833,67.9021,0.0],[15.1849,67.9036,3.2774],[15.1818,67.9036,2.6974],[15.1818,67.9026,0.0],[15.1833,67.9021,0.0]]],
[[[15.1203,67.9901,0.0],[15.1245,67.9974,0.0],[15.1146,68.0021,0.0],[15.1021,68.0021,2.2678],[15.0958,67.9979,7.134],[15.0917,68.0,0.9155],[15.0833,68.0,0.0],[15.0813,67.9979,8.0315],[15.0849,67.9943,0.6386],[15.0813,67.9896,0.0],[15.0849,67.9859,7.1431],[15.0818,67.9818,5.2977],[15.0891,67.9776,84.3611],[15.0813,67.9771,201.0491],[15.0771,67.9792,265.9807],[15.0604,67.9812,28.2099],[15.0568,67.9776,13.0066],[15.0641,67.9745,0.0],[15.0641,67.9714,0.0],[15.0583,67.9708,0.0],[15.0479,67.9667,0.0],[15.0208,67.9708,3.9275],[15.0167,67.9729,0.0],[15.0104,67.9729,0.0],[15.0042,67.9708,0.0],[14.9917,67.975,0.0],[14.9854,67.9729,23.2506],[14.9771,67.9729,3.1894],[14.9729,67.9708,26.2091],[14.9589,67.9703,0.0],[14.9547,67.9661,3.5447],[14.9547,67.963,1.0548],[14.9745,67.9641,0.0],[14.9745,67.9609,0.0],[14.9708,67.9563,0.0],[14.9745,67.9526,99.0355],[14.9646,67.95,293.6708],[14.9505,67.9495,0.0],[14.9484,67.9464,0.0],[14.9578,67.9453,44.536],[14.9568,67.9422,0.0],[14.9599,67.9401,0.0],[14.9563,67.9375,3.171],[14.9401,67.9349,0.0],[14.9349,67.9276,20.2243],[14.9297,67.9255,0.0],[14.9375,67.925,5.1546],[14.9432,67.9213,0.0],[14.9349,67.9172,0.0],[14.9276,67.9161,0.0],[14.9266,67.913,1.78],[14.9193,67.912,0.0],[14.9193,67.9089,4.4259],[14.9349,67.9109,0.0],[14.938,67.9141,2.6343],[14.9516,67.9193,0.0],[14.9547,67.9224,5.5751],[14.9646,67.925,0.5551],[14.9661,67.9245,0.0],[14.9651,67.9213,0.8312],[14.9682,67.9203,0.0],[14.9693,67.9172,0.0],[14.975,67.9146,0.0],[14.9792,67.9167,0.7628],[14.9875,67.9167,0.0],[14.9917,67.9187,0.0],[15.0063,67.9187,0.0],[15.0104,67.9208,1.2855],[15.0271,67.9187,0.0],[15.0286,67.9182,0.0],[15.0276,67.9151,0.0],[15.0313,67.9146,0.0],[15.0354,67.9167,0.0],[15.0771,67.9167,0.0],[15.0813,67.9187,0.0],[15.0875,67.9167,-0.0069],[15.1,67.9208,0.0],[15.1063,67.9208,10.3307],[15.1104,67.9187,0.0],[15.1208,67.9187,0.0],[15.1266,67.9161,0.0],[15.1214,67.9141,1.2122],[15.1229,67.9125,0.0],[15.1292,67.9125,0.0],[15.1375,67.9083,0.0],[15.1438,67.9104,0.0],[15.15,67.9083,0.0],[15.1542,67.9104,0.0],[15.1729,67.9104,0.0],[15.1833,67.9146,-0.026],[15.2021,67.9146,0.0],[15.2063,67.9167,1.28],[15.2313,67.9167,0.0],[15.2438,67.9208,2.1171],[15.2479,67.9167,14.1313],[15.2604,67.9167,0.0],[15.2646,67.9208,3.8107],[15.2688,67.9208,0.0],[15.2792,67.925,14.0292],[15.2875,67.925,0.0],[15.3063,67.9313,0.0],[15.3146,67.9313,6.4947],[15.3172,67.9349,0.0],[15.3245,67.9359,0.0],[15.313,67.9422,0.0],[15.312,67.9453,0.9663],[15.3,67.9458,19.9239],[15.2938,67.9479,0.0],[15.2833,67.9437,4.419],[15.2734,67.9432,0.0],[15.2714,67.9401,0.0],[15.2792,67.9375,2.367],[15.2917,67.9417,0.1181],[15.2974,67.938,0.0],[15.2896,67.9354,13.1],[15.2813,67.9354,11.5533],[15.2771,67.9333,28.6335],[15.2688,67.9333,0.0],[15.2646,67.9313,5.822],[15.2521,67.9313,0.0],[15.2505,67.9318,0.0],[15.2505,67.9349,0.0],[15.2547,67.9391,0.0],[15.2599,67.9401,0.0],[15.2568,67.9432,10.5043],[15.264099999999999,67.9474,0.0],[15.2563,67.9479,0.0],[15.2516,67.9443,0.0],[15.2417,67.9417,0.0],[15.2359,67.9443,0.0],[15.2432,67.9484,0.0],[15.2375,67.9521,0.0],[15.225,67.9521,0.0],[15.2208,67.95,60.9967],[15.1979,67.95,25.6781],[15.1854,67.9563,0.0],[15.1771,67.9563,10.212],[15.1755,67.9557,14.722],[15.1755,67.9526,1.122],[15.1786,67.9516,15.0591],[15.1776,67.9484,87.7276],[15.1807,67.9464,120.9588],[15.1771,67.9458,199.8077],[15.1729,67.9479,343.6579],[15.1609,67.9484,300.6697],[15.1568,67.9516,41.3673],[15.162,67.9537,8.0641],[15.1521,67.9563,0.0],[15.1292,67.9563,0.0],[15.1276,67.9578,0.0],[15.1375,67.9583,0.0],[15.139099999999999,67.9599,5.5161],[15.1193,67.9693,0.0128],[15.1182,67.9724,0.0],[15.1109,67.9734,35.6194],[15.0984,67.9797,0.0],[15.0979,67.9812,0.0],[15.1,67.9833,2.2942],[15.1099,67.9838,0.0],[15.113,67.987,2.0783],[15.1182,67.988,0.0],[15.1203,67.9901,0.0]]],
[[[15.1188,68.0083,5.3673],[15.1083,68.0083,6.0085],[15.1042,68.0125,4.6174],[15.0979,68.0125,0.0],[15.0917,68.0104,1.2267],[15.0875,68.0125,4.798],[15.075,68.0125,0.0],[15.0734,68.012,0.0],[15.0714,68.0068,0.0],[15.0854,68.0062,0.0],[15.0896,68.0083,0.8287],[15.1021,68.0083,0.0],[15.1063,68.0062,18.6603],[15.1266,68.0068,0.0],[15.125,68.0083,3.2178],[15.1188,68.0083,5.3673]]],
[[[15.5167,67.9375,21.4874],[15.5182,67.938,14.2136],[15.5182,67.9391,7.5813],[15.5151,67.9391,1.519],[15.5167,67.9375,21.4874]]],
[[[15.5266,67.9401,7.2946],[15.525,67.9417,0.0],[15.5214,67.9411,1.8115],[15.5229,67.9396,10.2672],[15.5266,67.9401,7.2946]]],
[[[15.7307,67.9568,558.141],[15.7343,67.9583,564.2686],[15.7336,67.9624,445.0235],[15.7271,67.9625,415.5281],[15.7229,67.9646,283.2429],[15.7151,67.9641,346.2466],[15.7193,67.9609,554.1375],[15.7266,67.9599,501.0241],[15.7276,67.9568,593.3126],[15.7307,67.9568,558.141]]],
[[[15.2399,68.0312,36.5949],[15.2297,68.0359,14.011],[15.2286,68.0391,0.0],[15.2214,68.0411,0.0],[15.2172,68.0359,0.0],[15.2224,68.0349,8.8027],[15.2214,68.0318,0.0],[15.2286,68.0286,159.2044],[15.2276,68.0255,31.0908],[15.2307,68.0245,168.0988],[15.2307,68.0214,312.2236],[15.2208,68.0208,522.6653],[15.2167,68.0188,488.2798],[15.2083,68.0188,210.5687],[15.2042,68.0208,45.1292],[15.1979,68.0167,23.0172],[15.1714,68.0162,0.0],[15.1693,68.013,0.3509],[15.1766,68.0099,0.0],[15.1766,68.0068,0.0],[15.1651,68.0078,0.0],[15.1682,68.0057,0.0],[15.1682,68.0026,1.4001999999999999],[15.1661,68.0005,0.0],[15.1609,67.9995,5.5971],[15.1589,67.9964,0.0],[15.1703,67.9912,2.3492],[15.1693,67.988,0.0],[15.1849,67.9807,0.0],[15.1833,67.9792,10.8705],[15.175,67.9792,11.5056],[15.1734,67.9776,0.0],[15.1828,67.9766,19.2128],[15.1797,67.9693,0.0],[15.1854,67.9667,0.0],[15.2042,67.9667,0.0],[15.2083,67.9688,0.0],[15.2375,67.9688,0.0],[15.2458,67.9646,0.0],[15.2521,67.9646,0.0],[15.2563,67.9667,0.0],[15.2646,67.9667,0.0],[15.2708,67.9688,8.3582],[15.275,67.9667,0.0],[15.2854,67.9667,0.0],[15.2938,67.9625,0.0],[15.3099,67.9651,0.0],[15.312,67.9693,0.0],[15.3104,67.9708,0.0],[15.3042,67.9688,0.0],[15.2964,67.9693,0.0],[15.3016,67.9714,0.0],[15.3036,67.9745,0.0],[15.3005,67.9755,0.0],[15.3016,67.9786,0.0],[15.2943,67.9818,13.77],[15.2932,67.9849,2.9438],[15.2901,67.9859,0.0],[15.2911,67.9891,0.0],[15.2786,67.9953,28.4091],[15.2693,67.9964,17.7203],[15.2703,67.9995,0.0],[15.2661,68.0016,0.0],[15.2526,68.0026,343.6022],[15.2599,68.0068,0.0],[15.2599,68.0099,0.0],[15.2542,68.0125,0.0],[15.2484,68.013,61.1847],[15.2474,68.0162,53.7529],[15.2443,68.0172,97.7114],[15.2474,68.0224,0.0],[15.2443,68.0234,89.7017],[15.2453,68.0286,0.0],[15.2399,68.0312,36.5949]]],
[[[15.1188,68.0208,3.9734],[15.1172,68.0193,1.7917],[15.1224,68.0193,6.0935],[15.1224,68.0203,8.6635],[15.1188,68.0208,3.9734]]],
[[[15.1813,68.0208,0.0],[15.1797,68.0193,0.0],[15.1849,68.0193,4.6785],[15.1849,68.0203,9.6253],[15.1813,68.0208,0.0]]]]}
,"properties": {"GID_2": "NOR.10.36_1","GID_0": "NOR","country": "Norway","GID_1": "NOR.10_1","province": "Nordland","NL_NAME_1": "NA","county": "Steigen","VARNAME_2": "NA","NL_NAME_2": "NA","TYPE_2": "Kommuner","ENGTYPE_2": "Municipality","CC_2": "NA","HASC_2": "NO.NO.ST","name": "Steigen.county","area_km2": 978.3773,"hist_schema_id": "Elevation0-9000","hist_area_km2": {"0": 110.2533,"25": 111.0348,"50": 72.9425,"75": 51.4166,"100": 38.1931,"125": 36.2358,"150": 30.4725,"175": 28.2891,"200": 28.3288,"225": 26.9288,"250": 30.403,"275": 26.3095,"300": 26.351,"325": 25.4228,"350": 24.1248,"375": 24.305,"400": 23.9494,"425": 22.346,"450": 21.372,"475": 21.4875,"500": 19.8211,"525": 17.2815,"550": 16.5721,"575": 15.1633,"600": 14.5259,"625": 14.2011,"650": 12.6316,"675": 11.8378,"700": 10.3888,"725": 8.9124,"750": 8.4644,"775": 6.9659,"800": 6.1052,"825": 5.5534,"850": 5.4726,"875": 4.8875,"900": 4.1586,"925": 2.9422,"950": 2.5733,"975": 1.9646,"1000": 1.6197,"1025": 1.2035,"1050": 1.1392,"1075": 1.0277,"1100": 0.7386,"1125": 0.5946,"1150": 0.4343,"1175": 0.3378,"1200": 0.2896,"1225": 0.145,"1250": 0.1128,"1275": 0.0644,"1300": 0.0645,"1325": 0.0161}}}