{"type":"Feature","properties":{"GID_2":"NOR.8.17_1","GID_0":"NOR","country":"Norway","GID_1":"NOR.8_1","province":"MøreogRomsdal","NL_NAME_1":"NA","county":"Nesset","VARNAME_2":"NA","NL_NAME_2":"NA","TYPE_2":"Kommuner","ENGTYPE_2":"Municipality","CC_2":"NA","HASC_2":"NO.MR.NE","name":"Nesset.county"},
"geometry":{"type": "MultiPolygon","coordinates": [[[[7.8208,62.8274,73.4785],[7.8015,62.8257,87.0474],[7.8051,62.8171,50.3204],[7.7955,62.8161,41.8057],[7.8083,62.7853,397.0884],[7.8181,62.7861,367.6281],[7.8199,62.7817,358.0863],[7.8102,62.7808,398.7888],[7.812,62.7765,341.8482],[7.7927,62.7748,316.7234],[7.7945,62.7705,440.1694],[7.7271,62.7645,492.6381],[7.7307,62.7557,570.1791],[7.7211,62.7549,712.1336],[7.7229,62.7505,669.6037],[7.7037,62.7488,791.7193],[7.7054,62.7444,751.1188],[7.6765,62.7419,495.2727],[7.6783,62.7375,563.2363],[7.6687,62.7366,519.5932],[7.6725,62.7279,289.2616],[7.6821,62.7287,227.935],[7.6839,62.7246,0.0],[7.6896,62.7271,55.5258],[7.7146,62.7292,0.0],[7.7271,62.7333,55.269],[7.7479,62.7333,0.0],[7.7505,62.737,0.0],[7.7625,62.7375,0.0],[7.7693,62.7411,0.0],[7.7854,62.7458,42.2746],[7.7917,62.7438,0.0],[7.8,62.7479,0.0],[7.8187,62.7479,0.0],[7.8229,62.75,0.0],[7.8292,62.75,0.0],[7.8359,62.7536,0.0],[7.8521,62.7583,27.7534],[7.8688,62.7604,0.0],[7.8729,62.7625,0.0],[7.8917,62.7625,0.0],[7.8958,62.7646,26.4823],[7.9104,62.7646,0.0],[7.9187,62.7687,13.0528],[7.9333,62.7687,0.0],[7.9375,62.7708,35.8135],[7.9417,62.7687,0.0],[7.9563,62.7687,12.7971],[7.9589,62.7651,0.0],[7.9646,62.7646,0.0],[7.9688,62.7667,0.0],[7.9833,62.7667,0.0],[7.9875,62.7687,15.0654],[8.0104,62.7687,0.0],[8.0146,62.7708,7.4125],[8.0437,62.7708,0.0],[8.0542,62.775,11.2585],[8.0641,62.7714,-0.017],[8.0578,62.7672,0.0],[8.05,62.7667,0.0],[8.0432,62.763,0.0],[8.0234,62.7578,12.9246],[8.0234,62.7505,61.7706],[8.0354,62.7438,0.0],[8.0474,62.7432,96.8877],[8.0521,62.7375,0.0],[8.0792,62.7375,4.9052],[8.0917,62.7333,0.0],[8.1042,62.7313,0.0],[8.1141,62.7266,105.4431],[8.1151,62.7214,75.6711],[8.1234,62.7172,36.7992],[8.1333,62.7146,67.2574],[8.1432,62.7141,304.7039],[8.138,62.712,114.4659],[8.138,62.7068,0.0],[8.1438,62.7042,86.91],[8.1495,62.7036,161.2183],[8.15,62.7021,200.9458],[8.1495,62.7005,107.8585],[8.1443,62.6995,18.4846],[8.1443,62.6943,0.0],[8.1474,62.6922,11.4909],[8.1453,62.6859,22.6325],[8.1417,62.6833,0.0],[8.1375,62.6833,4.7912],[8.1307,62.687,0.0],[8.1234,62.688,0.0],[8.1224,62.6911,0.0],[8.1161,62.6953,113.4656],[8.1104,62.6979,75.1933],[8.1047,62.6984,0.0],[8.0964,62.7026,127.6795],[8.0995,62.7057,0.0],[8.0938,62.7083,92.5489],[8.0813,62.7062,390.5836],[8.0703,62.712,155.7517],[8.063,62.713,262.9644],[8.0536,62.7182,23.8524],[8.0464,62.7193,133.7203],[8.038,62.7234,33.8486],[8.0354,62.7271,0.0],[8.0229,62.7292,145.8651],[8.0021,62.7354,360.0357],[7.9792,62.7375,650.0129],[7.975,62.7396,472.658],[7.9625,62.7396,336.2518],[7.9583,62.7438,21.6565],[7.9542,62.7396,246.3152],[7.9479,62.7396,194.3921],[7.9437,62.7417,37.4457],[7.9276,62.737,0.0],[7.9292,62.7354,0.0],[7.9349,62.7349,20.9129],[7.9375,62.7271,0.0],[7.9354,62.725,0.0],[7.9271,62.725,0.0],[7.9146,62.7313,0.0],[7.9,62.7313,63.979],[7.8958,62.7333,27.6808],[7.8917,62.7313,129.5011],[7.8792,62.7354,0.0],[7.8604,62.7354,0.0],[7.8562,62.7333,49.8712],[7.8417,62.7313,50.2901],[7.8354,62.7271,143.3726],[7.8313,62.7292,70.1963],[7.8229,62.7292,11.8918],[7.8187,62.7271,33.1333],[7.8109,62.7266,0.0],[7.8083,62.7229,182.7501],[7.7896,62.7229,63.2442],[7.7854,62.7208,81.1351],[7.7708,62.7208,0.0],[7.7667,62.7188,26.4189],[7.7589,62.7182,0.0],[7.7521,62.7146,33.0731],[7.7417,62.7146,0.0],[7.7386,62.7129,35.2012],[7.7413,62.7064,314.2275],[7.7509,62.7072,408.3155],[7.7565,62.694,766.9984],[7.7661,62.6948,631.6494],[7.7679,62.6904,798.1847],[7.7776,62.6913,759.7054],[7.7794,62.6869,798.2952],[7.7987,62.6885,851.4763],[7.8005,62.6841,848.241],[7.8197,62.6858,662.6457],[7.8216,62.681399999999996,803.5818],[7.8312,62.6822,705.18],[7.833,62.6778,874.5548],[7.8234,62.677,1063.2854],[7.8289,62.6637,726.2922],[7.8193,62.6629,844.4492],[7.8229,62.6541,893.8973],[7.8133,62.6533,639.1083],[7.8188,62.64,788.4688],[7.8092,62.6392,926.506],[7.811,62.6348,1097.9047],[7.8206,62.6356,1100.085],[7.8242,62.6268,1079.8446],[7.8339,62.6276,871.1314],[7.8375,62.6188,794.9052],[7.8471,62.6196,778.56],[7.8507,62.6108,940.2668],[7.87,62.6125,1158.843],[7.8663,62.6213,902.8176],[7.8952,62.6238,1202.9183],[7.897,62.6194,1221.4834],[7.9066,62.6202,1066.9307],[7.9102,62.6114,1321.718],[7.9582,62.6155,1372.6211],[7.96,62.611,1138.058],[7.9792,62.6127,841.8427],[7.9811,62.6083,793.6566],[8.0003,62.6099,1084.6115],[8.0021,62.6055,791.8402],[8.0213,62.6071,926.6912],[8.0231,62.6027,1205.9954],[8.0423,62.6043,1027.8269],[8.0494,62.5867,1060.1008],[8.059,62.5875,1327.4425],[8.0608,62.5831,1169.5667],[8.0704,62.5839,1332.8225],[8.0722,62.5795,1197.1425],[8.0626,62.5787,1100.3367],[8.0644,62.5743,1268.9341],[8.0548,62.5735,1319.891],[8.0566,62.5691,1415.7809],[8.047,62.5682,1610.9933],[8.0506,62.5594,1572.8018],[8.0602,62.5602,1575.5099],[8.0619,62.5558,1421.9203],[8.0715,62.5566,1553.2839],[8.0751,62.5478,1361.8243],[8.0847,62.5486,1493.9464],[8.09,62.5354,1377.0955],[8.0613,62.5329,941.2074],[8.0595,62.5374,927.684],[8.002,62.5325,1218.7634],[8.0055,62.5237,1115.2493],[8.0151,62.5245,1171.6863],[8.0205,62.5112,1327.3387],[8.0109,62.5104,1457.1089],[8.0127,62.506,1470.4781],[8.0031,62.5052,1566.5502],[8.0067,62.4964,1405.8291],[8.0163,62.4972,1459.1343],[8.0198,62.4884,1541.8324],[8.0103,62.4875,1597.3291],[8.0228,62.4567,1459.6404],[8.0514,62.4591,1035.5677],[8.0532,62.4547,1068.6193],[8.0819,62.4571,1073.2921],[8.0837,62.4527,1225.181],[8.1028,62.4543,992.2062],[8.1046,62.4499,1068.4161],[8.1141,62.4507,1096.1313],[8.1159,62.4463,1093.2083],[8.1255,62.4471,1056.1749],[8.1325,62.4295,1715.6229],[8.123,62.4287,1386.9309],[8.1247,62.4243,1590.2612],[8.1152,62.4234,1310.2769],[8.1205,62.4102,1396.5135],[8.13,62.411,1696.7456],[8.1406,62.3845,1595.1008],[8.1597,62.3861,1387.6392],[8.1614,62.3817,1386.2244],[8.171,62.3825,1503.7104],[8.1727,62.3781,1525.0071],[8.1823,62.3789,1625.3594],[8.1893,62.3613,1766.7924],[8.1797,62.3605,1527.413],[8.185,62.3472,1453.6176],[8.1945,62.348,1516.8619],[8.198,62.3392,1459.1954],[8.2361,62.3424,1125.2256],[8.2344,62.3468,1121.735],[8.3106,62.3532,1459.6459],[8.3089,62.3576,1340.1714],[8.4711,62.371,1301.8624],[8.4728,62.3666,1318.3887],[8.616,62.3783,853.0],[8.6177,62.3739,853.0],[8.6941,62.3801,1041.9742],[8.6958,62.3756,1055.3363],[8.7149,62.3772,1367.1698],[8.7132,62.3816,1347.1311],[8.7036,62.3808,1284.5286],[8.7003,62.3897,1093.1299],[8.6907,62.3889,1051.9818],[8.6874,62.3978,1114.7728],[8.6778,62.397,1139.832],[8.6761,62.4014,1201.0741],[8.6666,62.4006,1289.4954],[8.6649,62.405,1332.5942],[8.6553,62.4043,1174.5426],[8.6536,62.4087,1171.7238],[8.625,62.4064,875.0869],[8.6233,62.4108,863.1617],[8.6042,62.4092,889.0993],[8.6025,62.4137,864.4592],[8.5833,62.4121,990.2742],[8.5816,62.4165,931.2235],[8.5625,62.415,990.7679],[8.5608,62.4194,1039.5183],[8.5513,62.4186,1026.8418],[8.5496,62.423,1109.5527],[8.54,62.4223,1094.8098],[8.5366,62.4311,1211.9711],[8.527,62.4303,1205.496],[8.5253,62.4347,1286.9358],[8.5158,62.434,1239.4207],[8.5055,62.4605,1371.0319],[8.4959,62.4597,1336.7408],[8.4942,62.4641,1326.0968],[8.4846,62.4633,1279.6801],[8.4829,62.4677,1217.3412],[8.4734,62.4669,1266.3524],[8.4716,62.4714,1259.0931],[8.4621,62.4706,1197.4542],[8.4603,62.475,1230.5348],[8.4508,62.4742,1146.2247],[8.449,62.4786,1153.4481],[8.4395,62.4778,1118.0787],[8.4377,62.4823,1061.4609],[8.4282,62.4815,1160.3512],[8.4264,62.4859,1172.4314],[8.4169,62.4851,1309.3485],[8.4151,62.4895,1447.1368],[8.4056,62.4887,1523.349],[8.4038,62.4931,1429.014],[8.3943,62.4924,1497.8806],[8.3925,62.4968,1402.202],[8.3829,62.496,1369.8025],[8.3795,62.5048,1490.2175],[8.3603,62.5032,1380.2804],[8.3586,62.5076,1562.5856],[8.349,62.5069,1600.1686],[8.3455,62.5157,1133.3411],[8.3359,62.5149,1426.5022],[8.3342,62.5193,1556.052],[8.3246,62.5185,1579.3329],[8.3229,62.5229,1798.6489],[8.3133,62.5221,1701.6771],[8.3098,62.531,1502.5906],[8.3002,62.5302,1501.7854],[8.2984,62.5346,1661.9578],[8.2888,62.5338,1318.981],[8.2818,62.5515,1007.5537],[8.2914,62.5522,1033.4413],[8.2844,62.5699,1400.2333],[8.294,62.5707,1408.0403],[8.2923,62.5751,1439.5483],[8.2731,62.5735,1295.0295],[8.2713,62.5779,1187.0419],[8.2521,62.5763,1405.226],[8.2539,62.5719,1400.4664],[8.2443,62.5711,1322.6464],[8.246,62.5667,1538.4005],[8.2364,62.5659,1432.4716],[8.2347,62.5703,1194.1742],[8.2251,62.5695,1466.955],[8.2233,62.5739,1666.8097],[8.2137,62.5731,1538.674],[8.2102,62.582,1350.2501],[8.2198,62.5828,1696.3176],[8.2163,62.5916,1202.7614],[8.2259,62.5924,1349.5585],[8.2224,62.6012,1346.4336],[8.232,62.602,1411.1278],[8.2284,62.6109,1391.8956],[8.2381,62.6117,1291.1417],[8.2363,62.6161,1030.8521],[8.2459,62.6169,1208.2786],[8.2389,62.6345,1117.3888],[8.2485,62.6353,1067.6666],[8.245,62.6442,1307.1293],[8.2738,62.6466,1082.7959],[8.2703,62.6554,1030.0244],[8.2799,62.6562,1305.0317],[8.2764,62.665,1357.1895],[8.2861,62.6658,1393.1495],[8.2773,62.6879,1213.374],[8.2676,62.6871,1115.4045],[8.2641,62.6959,1087.1542],[8.2545,62.6951,918.9224],[8.2492,62.7084,1190.4485],[8.2395,62.7076,974.688],[8.2342,62.7208,1160.7046],[8.2246,62.72,1238.7701],[8.221,62.7288,1134.4564],[8.2114,62.728,1192.203],[8.206,62.7413,954.2961],[8.2157,62.7421,919.2827],[8.2139,62.7465,757.6274],[8.2236,62.7473,1023.5364],[8.2218,62.7517,761.2009],[8.2411,62.7533,867.2004],[8.2394,62.7577,737.2885],[8.2587,62.7593,745.3647],[8.2569,62.7637,765.1453],[8.2762,62.7653,588.6121],[8.2745,62.7697,716.1678],[8.2938,62.7713,754.1527],[8.2903,62.7802,155.5091],[8.2999,62.781,185.1453],[8.299,62.7833,7.0973],[8.2875,62.7833,18.3912],[8.2792,62.7792,0.0],[8.2729,62.7792,14.0206],[8.2688,62.7813,0.0],[8.2646,62.7792,24.5915],[8.2536,62.7849,0.0],[8.2396,62.7875,0.0],[8.2312,62.7917,0.0],[8.2229,62.7917,0.0],[8.213,62.7943,0.0],[8.2063,62.7979,0.0],[8.1958,62.7979,77.1758],[8.1776,62.8026,0.0],[8.1734,62.8047,0.0],[8.1745,62.8099,0.0],[8.1687,62.8125,0.0],[8.1604,62.8125,0.0],[8.1505,62.8151,61.1339],[8.1464,62.8172,0.0],[8.1453,62.8203,0.0],[8.1339,62.8255,0.0],[8.1349,62.8307,0.0],[8.1276,62.8359,0.0],[8.1244,62.8439,23.8345],[8.0858,62.8407,362.954],[8.0876,62.8363,367.2652],[8.0392,62.8323,556.8164],[8.0373,62.8367,522.042],[7.9889,62.8326,477.0391],[7.9502,62.8293,610.4418],[7.952,62.8249,578.8112],[7.894,62.82,402.3338],[7.8903,62.8288,557.3034],[7.8807,62.828,579.8958],[7.8788,62.8324,411.1496],[7.8692,62.8316,133.2971],[7.8673,62.836,112.0327],[7.8286,62.8327,96.0383],[7.8305,62.8282,99.2393],[7.8208,62.8274,73.4785]]]]}}