{"type": "Feature","bbox": [28.325,69.0168,30.9456,70.025],"geometry": {"type": "MultiPolygon","coordinates": [[[[28.9252,69.0579,164.6281],[28.9248,69.0567,166.2591],[28.9269,69.0574,158.6454],[28.9465,69.0499,106.355],[28.9941,69.0404,98.4264],[28.9929,69.0376,103.6632],[29.0083,69.0369,102.2825],[29.0294,69.0231,81.7842],[29.0352,69.0168,69.5],[29.1063,69.0364,75.8926],[29.1071,69.0383,71.4773],[29.1302,69.0489,77.1036],[29.1366,69.0485,76.7508],[29.1383,69.0526,71.5709],[29.1856,69.0734,76.5438],[29.1914,69.0776,69.0],[29.1992,69.0772,69.0],[29.2028,69.0859,69.0],[29.2322,69.1073,69.0],[29.2371,69.1071,69.0],[29.2389,69.1115,69.0],[29.2589,69.1198,77.9062],[29.2699,69.1524,58.0549],[29.2737,69.1553,53.6238],[29.2826,69.1548,66.7884],[29.2869,69.1651,51.0],[29.2966,69.1723,51.0],[29.3026,69.172,51.0],[29.3055,69.179,51.0],[29.3098,69.1821,59.0908],[29.312,69.2071,69.0167],[29.3273,69.2326,82.2856],[29.3273,69.2428,51.0],[29.3063,69.2438,51.0],[29.2947,69.2501,51.0],[29.3007,69.2588,51.0],[29.3061,69.2712,71.2221],[29.3035,69.2934,60.9472],[29.3149,69.3028,50.5],[29.3421,69.3104,50.5],[29.3615,69.3101,53.2947],[29.3626,69.3126,50.5],[29.3747,69.3139,57.1532],[29.3885,69.3132,66.5519],[29.3904,69.3177,50.5],[29.4531,69.3144,70.6292],[29.4547,69.318,50.5],[29.4869,69.3277,85.3652],[29.5009,69.3285,50.5],[29.5437,69.3163,50.5],[29.5428,69.3142,50.5],[29.5553,69.3136,50.5],[29.5573,69.318,50.0],[29.6166,69.334,50.0],[29.6357,69.3412,49.5],[29.6443,69.3407,54.9073],[29.6463,69.3452,49.5],[29.7185,69.3766,45.7517],[29.7806,69.3997,37.5948],[29.8018,69.4043,29.2429],[29.8304,69.4187,23.4153],[29.8623,69.4221,23.0883],[29.9011,69.4227,25.5649],[29.9243,69.4191,27.5095],[29.9232,69.4168,21.9438],[29.9861,69.4133,20.0],[29.9873,69.416,20.3676],[30.0172,69.4236,20.0],[30.0494,69.4367,20.0],[30.0756,69.453,20.0],[30.1099,69.4627,20.0],[30.1292,69.4743,30.7706],[30.1402,69.4901,34.3673],[30.1372,69.5067,28.3938],[30.1439,69.5141,29.6789],[30.1493,69.5138,29.6243],[30.1547,69.5252,33.0305],[30.1731,69.5315,20.0],[30.1919,69.5351,20.0],[30.1947,69.5468,20.0],[30.1928,69.5507,20.0],[30.1957,69.5568,71.9229],[30.1896,69.5571,20.0],[30.1868,69.5628,20.0],[30.1843,69.5785,20.0],[30.1722,69.5941,27.8782],[30.1575,69.6061,20.0],[30.1511,69.6187,20.0],[30.1522,69.6371,105.6105],[30.1431,69.6438,87.6959],[30.12,69.6439,75.7693],[30.1074,69.6419,86.1603],[30.1005,69.6556,74.9572],[30.1093,69.662,75.7107],[30.1151,69.6617,71.0938],[30.1166,69.6647,73.7911],[30.13,69.6654,-0.4873],[30.1313,69.6682,0.0],[30.1454,69.6715,84.1927],[30.195,69.6661,55.4993],[30.2182,69.6588,35.7111],[30.2169,69.656,57.8766],[30.2296,69.6553,77.4127],[30.3216,69.6296,181.9358],[30.3205,69.6274,196.1691],[30.3318,69.6267,175.8303],[30.3658,69.6171,158.4085],[30.3784,69.6123,155.8259],[30.3775,69.6104,160.2608],[30.3895,69.6081,148.7247],[30.3881,69.6053,168.924],[30.3982,69.6047,190.48],[30.4213,69.5932,287.6191],[30.4196,69.5898,288.9488],[30.4318,69.588,246.8872],[30.4301,69.5846,194.7599],[30.4423,69.5828,179.8275],[30.4406,69.5794,200.194],[30.4501,69.5789,166.0898],[30.4841,69.562,255.6624],[30.4826,69.5588,262.4745],[30.4946,69.5568,231.94],[30.4931,69.5536,222.831],[30.5024,69.5531,214.1084],[30.5275,69.5443,171.3342],[30.5266,69.5425,173.5231],[30.5772,69.5396,219.7002],[30.5783,69.5419,210.2119],[30.6162,69.5423,222.8249],[30.6694,69.5453,304.2415],[30.7141,69.5417,329.9802],[30.7342,69.5417,345.2587],[30.7354,69.544,350.2429],[30.7749,69.5417,305.1775],[30.8201,69.5417,237.2867],[30.8574,69.5525,240.3039],[30.9004,69.5616,207.4468],[30.9294,69.5723,143.4833],[30.9456,69.5862,100.9875],[30.9429,69.614,122.9396],[30.9454,69.6413,87.7528],[30.9331,69.6513,74.4927],[30.9353,69.6556,78.0305],[30.9259,69.6571,84.8842],[30.9239,69.6634,132.3693],[30.9313,69.6868,51.8515],[30.8978,69.6958,130.1792],[30.8815,69.7079,84.1764],[30.8785,69.717,21.1324],[30.8895,69.7314,10.0661],[30.8954,69.7311,25.1137],[30.8977,69.7355,131.0516],[30.8932,69.7358,50.1458],[30.8782,69.7487,17.2041],[30.879,69.7504,16.2534],[30.876,69.7505,6.9532],[30.869,69.7565,9.6007],[30.8708,69.76,41.0919],[30.8645,69.7604,6.3026],[30.8599,69.7643,15.4172],[30.8626,69.7696,12.4553],[30.8425,69.7917,0.0],[30.825,69.7917,0.0],[30.8203,69.788,0.0],[30.8167,69.7875,0.0],[30.8083,69.7917,0.0],[30.8005,69.7901,7.2092],[30.8016,69.7932,0.0],[30.7979,69.7937,0.0],[30.7891,69.788,0.0],[30.7771,69.7875,0.0],[30.7703,69.7839,25.1779],[30.763,69.7828,0.0],[30.7583,69.7792,38.0011],[30.7422,69.7766,7.6842],[30.7375,69.7729,213.8499],[30.725,69.7729,4.2308],[30.7151,69.7703,71.7612],[30.7109,69.7682,0.0],[30.7161,69.7641,0.0],[30.7146,69.7625,0.0],[30.7042,69.7604,158.2979],[30.6979,69.7625,19.4641],[30.6932,69.7589,186.5646],[30.6896,69.7583,247.3073],[30.688,69.7589,210.3327],[30.6891,69.762,22.9741],[30.6839,69.7662,2.8132],[30.6932,69.7672,0.0],[30.6953,69.7693,0.0],[30.6943,69.7724,0.0],[30.6953,69.7745,0.0],[30.6859,69.7818,11.3653],[30.688,69.7849,0.0],[30.6979,69.7875,1.8064],[30.7146,69.7875,0.0],[30.7328,69.7995,5.8083],[30.7188,69.8042,0.0],[30.7089,69.8037,0.0],[30.712,69.8005,19.2072],[30.7083,69.8,34.0584],[30.7042,69.8021,0.0],[30.6964,69.8026,16.8324],[30.6932,69.8057,16.1897],[30.6896,69.8063,0.0],[30.6849,69.8026,0.0],[30.6755,69.8016,10.0372],[30.6786,69.7984,0.0],[30.6693,69.7974,0.0],[30.6734,69.7943,0.0],[30.6792,69.7937,0.0],[30.6807,69.7922,0.0],[30.6646,69.7917,0.0],[30.6599,69.7953,0.0],[30.6526,69.7963,67.9844],[30.6484,69.7995,5.2355],[30.6563,69.8042,2.5306],[30.6729,69.8042,0.0],[30.6786,69.8068,0.0],[30.6807,69.8099,0.0],[30.6646,69.8104,34.9247],[30.6604,69.8083,34.9614],[30.65,69.8083,0.0],[30.6453,69.8047,57.4654],[30.6417,69.8042,96.9252],[30.6359,69.8068,38.6327],[30.6292,69.8125,0.0],[30.6167,69.8125,31.9293],[30.6125,69.8146,0.0],[30.5958,69.8146,9.9935],[30.5917,69.8167,27.3833],[30.5818,69.8161,0.0],[30.5896,69.8104,0.0],[30.6016,69.8099,28.1764],[30.6005,69.8068,0.0],[30.6016,69.8047,0.0],[30.5896,69.8021,104.326],[30.5786,69.8099,5.4452],[30.5667,69.8104,66.8217],[30.5625,69.8125,33.2962],[30.5479,69.8125,41.3753],[30.5417,69.8104,93.7327],[30.5375,69.8125,0.0],[30.5292,69.8125,0.0],[30.5229,69.8083,77.8405],[30.5083,69.8083,18.2581],[30.5068,69.8099,0.0],[30.5125,69.8104,0.0],[30.5266,69.8161,18.1504],[30.5208,69.8167,20.1188],[30.5141,69.8203,7.8367],[30.5042,69.8229,43.7705],[30.4896,69.8229,13.1603],[30.4797,69.8203,40.9793],[30.475,69.8167,72.5272],[30.4396,69.8167,0.0],[30.4354,69.8146,5.3807],[30.4276,69.8141,6.2308],[30.4307,69.8109,27.8763],[30.4245,69.8068,2.2502],[30.4172,69.8057,0.0],[30.4193,69.8026,5.871],[30.4224,69.8016,23.8576],[30.4193,69.7984,0.0],[30.4286,69.7932,7.152],[30.4255,69.7901,0.0],[30.4328,69.7891,0.0],[30.4255,69.7859,0.0],[30.4313,69.7833,0.0],[30.437,69.7828,0.0],[30.4391,69.7807,0.0],[30.4297,69.7724,0.0],[30.4307,69.7651,0.0],[30.4255,69.7609,0.0],[30.4328,69.7599,0.0],[30.4432,69.7536,0.0],[30.4401,69.7505,0.0],[30.4438,69.75,0.0],[30.45,69.7521,7.2654],[30.4641,69.7432,0.0],[30.462,69.7401,2.3641],[30.4542,69.7354,0.0],[30.4479,69.7375,0.0],[30.438,69.737,0.0],[30.4391,69.7297,1.9768],[30.4318,69.7245,0.0],[30.4349,69.7214,4.307],[30.4318,69.7193,0.0],[30.4349,69.7172,0.0],[30.4318,69.7151,0.0],[30.4375,69.7125,0.0],[30.4432,69.712,0.0],[30.4495,69.7078,30.731],[30.4479,69.7063,71.2377],[30.4401,69.7057,31.9226],[30.438,69.7037,12.0947],[30.4432,69.6984,0.0],[30.438,69.6953,0.0],[30.4411,69.6922,0.0],[30.438,69.6901,0.0],[30.4542,69.6875,16.1489],[30.4557,69.6859,4.4651],[30.4417,69.6771,0.0],[30.4375,69.6771,0.0],[30.4333,69.675,0.0],[30.4042,69.675,0.0],[30.4,69.6729,8.9044],[30.3896,69.6729,0.0],[30.3792,69.6667,0.0],[30.3693,69.6672,0.0],[30.3703,69.6703,0.0],[30.3688,69.6708,0.0],[30.3479,69.6708,11.8077],[30.3438,69.6729,0.0],[30.3333,69.6687,26.2947],[30.3214,69.6713,0.0],[30.3312,69.675,0.0],[30.3667,69.675,0.0],[30.3771,69.6813,44.5188],[30.3896,69.6833,0.0],[30.3937,69.6854,0.0],[30.4063,69.6854,0.0],[30.4109,69.6891,9.3513],[30.4167,69.6896,3.4464],[30.4224,69.6922,30.7917],[30.4172,69.6974,50.2342],[30.4224,69.7016,0.0],[30.4151,69.7026,47.496],[30.4161,69.7099,0.0],[30.413,69.7109,0.0],[30.4161,69.7141,0.0],[30.413,69.7161,88.7182],[30.4161,69.7172,40.8636],[30.4182,69.7203,0.0],[30.4089,69.7276,0.0],[30.413,69.7328,0.0],[30.4182,69.7359,0.0],[30.4109,69.7391,0.0],[30.4182,69.7443,0.0],[30.4172,69.7474,0.0],[30.4182,69.7495,0.0],[30.4109,69.7505,0.0],[30.4161,69.7557,0.0],[30.4068,69.7609,18.5447],[30.4161,69.7672,0.0],[30.413,69.7703,0.0],[30.4161,69.7714,0.0],[30.4182,69.7745,0.0],[30.4109,69.7755,0.0],[30.412,69.7786,0.0],[30.4099,69.7807,0.0],[30.4036,69.7849,0.0],[30.3964,69.7859,0.0],[30.3901,69.7901,0.0],[30.3911,69.7932,0.0],[30.3901,69.7953,0.0],[30.3953,69.7984,0.0],[30.3974,69.8016,0.0],[30.3917,69.8021,31.0057],[30.3859,69.8047,15.624],[30.3891,69.8078,0.0],[30.3859,69.8099,57.0749],[30.3891,69.8109,39.6273],[30.3911,69.8141,0.0],[30.3854,69.8146,15.918],[30.3797,69.8172,110.1588],[30.3891,69.8245,0.0],[30.3734,69.8339,59.6577],[30.3766,69.837,0.0],[30.3625,69.8458,19.4286],[30.3417,69.8458,0.0],[30.337,69.8422,8.0974],[30.3297,69.8411,0.0],[30.3229,69.8375,18.2913],[30.3193,69.838,7.1277],[30.3146,69.8417,11.0502],[30.3062,69.8417,4.9885],[30.2938,69.8375,150.0443],[30.2859,69.837,142.4917],[30.2813,69.8333,186.3452],[30.2714,69.8339,125.5282],[30.2724,69.837,10.8097],[30.2687,69.8396,79.0519],[30.2604,69.8396,28.0433],[30.2479,69.8354,35.1082],[30.2318,69.8359,13.5637],[30.238,69.8411,0.0],[30.2479,69.8438,118.4772],[30.2646,69.8438,0.0],[30.2687,69.8458,7.5735],[30.2766,69.8464,0.0],[30.2813,69.85,61.3964],[30.2938,69.85,0.0],[30.2979,69.8521,0.0],[30.3146,69.8521,0.0],[30.3193,69.8557,0.0],[30.325,69.8562,0.0],[30.3307,69.8588,0.0],[30.3391,69.8651,0.0],[30.325,69.8708,0.0],[30.3062,69.8708,0.0],[30.3,69.8688,43.7191],[30.2984,69.8703,0.0],[30.3005,69.8724,0.0],[30.3146,69.8729,0.0],[30.3161,69.8745,0.0],[30.3083,69.875,14.5347],[30.2958,69.8792,7.9136],[30.2625,69.8792,0.0],[30.2563,69.875,18.2031],[30.25,69.8771,0.0],[30.2292,69.8771,0.0],[30.225,69.875,0.0],[30.2182,69.8786,0.0],[30.2083,69.8812,0.0],[30.2,69.8812,0.0],[30.1958,69.8792,22.7958],[30.1813,69.8792,0.0],[30.1771,69.8812,0.0],[30.1688,69.8812,0.0],[30.1578,69.8734,15.6196],[30.1458,69.8729,0.0],[30.1401,69.8703,0.0],[30.1432,69.8672,0.0],[30.1401,69.8662,0.0],[30.138,69.863,0.0],[30.1437,69.8625,0.0],[30.1453,69.8609,39.8407],[30.137,69.8547,0.0],[30.1297,69.8536,0.0],[30.1307,69.8505,4.3931],[30.1297,69.8484,0.0],[30.137,69.8474,52.3075],[30.1349,69.8443,0.0],[30.1318,69.8432,0.0],[30.1349,69.8401,0.0],[30.1318,69.838,0.0],[30.1474,69.837,0.0],[30.1443,69.8339,0.0],[30.15,69.8333,0.0],[30.1557,69.8307,0.0],[30.1526,69.8276,0.0],[30.162,69.8266,4.7924],[30.1589,69.8234,0.0],[30.162,69.8214,0.0],[30.1589,69.8193,0.0],[30.162,69.8172,0.0],[30.1484,69.8078,0.0],[30.1557,69.8005,0.0],[30.1505,69.8005,0.0],[30.1458,69.8042,0.0],[30.1313,69.8042,0.0],[30.125,69.8,0.0],[30.1089,69.7974,0.0],[30.1141,69.7922,0.0],[30.0979,69.7896,0.0],[30.0964,69.788,0.0],[30.1021,69.7854,0.0],[30.1078,69.7849,0.0],[30.1068,69.7818,0.0],[30.1167,69.7792,0.0],[30.1229,69.7813,4.4439],[30.1458,69.7813,0.0],[30.15,69.7833,0.0],[30.175,69.7833,0.0],[30.1792,69.7813,0.0],[30.1917,69.7813,0.0],[30.1932,69.7797,0.0],[30.1901,69.7786,0.0],[30.188,69.7755,0.0],[30.1938,69.775,0.0],[30.1953,69.7734,0.0],[30.1917,69.7708,0.0],[30.1854,69.7729,0.0],[30.1771,69.7729,0.0],[30.1708,69.7688,0.0],[30.1542,69.7688,0.0],[30.1484,69.7662,0.0],[30.1516,69.763,3.2631],[30.1437,69.7625,2.8102],[30.1396,69.7604,130.9169],[30.1271,69.7604,47.1568],[30.1208,69.7625,0.0],[30.1167,69.7604,4.5328],[30.1021,69.7583,0.0],[30.0984,69.7557,7.3474],[30.0995,69.7526,0.0],[30.0943,69.7484,0.0],[30.1,69.7458,0.0],[30.1057,69.7453,38.8603],[30.1005,69.7401,0.0],[30.1099,69.7349,0.0],[30.1068,69.7318,0.0],[30.1146,69.7312,4.5528],[30.1193,69.7276,0.0],[30.1266,69.7266,-0.2795],[30.1234,69.7214,0.0],[30.1307,69.7203,27.2804],[30.1266,69.7172,0.0],[30.1125,69.7146,0.0],[30.1068,69.712,0.0],[30.1099,69.7089,-1.0],[30.1068,69.7078,0.0],[30.1047,69.7047,0.0],[30.1083,69.7021,0.0],[30.1161,69.7016,12.199],[30.113,69.6995,-0.288],[30.1161,69.6964,23.5898],[30.113,69.6943,0.0],[30.1161,69.6922,11.3182],[30.1125,69.6896,11.1203],[30.1026,69.6901,7.4157],[30.1036,69.6932,0.0],[30.0964,69.6984,27.3041],[30.1016,69.7037,0.0],[30.0953,69.7078,4.5592],[30.0859,69.7089,25.1132],[30.0891,69.712,0.0],[30.0828,69.7161,0.0],[30.0734,69.7172,80.6418],[30.0766,69.7193,0.0],[30.0734,69.7214,1.6017],[30.075,69.7229,0.0],[30.0812,69.7208,0.0],[30.0974,69.7214,0.0],[30.0953,69.7245,0.0],[30.0875,69.7292,2.052],[30.0375,69.7292,2.4002],[30.0286,69.7234,79.9678],[30.0125,69.7208,4.3699],[30.0063,69.7167,122.1628],[29.9958,69.7167,0.0],[29.9891,69.713,21.8578],[29.9708,69.7083,85.8488],[29.9583,69.7083,0.0],[29.9521,69.7042,15.852],[29.9422,69.7047,0.0],[29.9536,69.7089,0.0],[29.9568,69.712,0.0],[29.9661,69.713,0.0],[29.9708,69.7167,0.0],[29.9875,69.7167,0.0],[29.9964,69.7224,28.2989],[30.0161,69.7276,0.0],[30.0255,69.7349,20.0506],[30.0349,69.7359,0.0],[30.0401,69.7412,0.0],[30.0432,69.7422,0.0],[30.0453,69.7453,0.0],[30.0396,69.7458,28.0843],[30.038,69.7474,25.3931],[30.0453,69.7484,0.0],[30.0443,69.7516,0.0],[30.0563,69.7521,0.0],[30.0661,69.7547,0.0],[30.0651,69.7578,0.0],[30.0672,69.7599,0.0],[30.0745,69.7609,0.0],[30.0734,69.7641,0.0],[30.0755,69.7662,0.0],[30.0849,69.7672,0.0],[30.0745,69.7745,0.0],[30.0672,69.7755,0.0],[30.0682,69.7786,0.0],[30.0563,69.7792,37.6584],[30.0521,69.7813,0.0],[30.0354,69.7771,0.0],[30.0292,69.7813,0.0],[30.0146,69.7813,0.0],[30.0089,69.7776,0.0],[30.0203,69.7734,0.0],[30.0104,69.7708,69.3712],[30.0021,69.7708,0.0],[29.9958,69.7729,0.0],[29.9917,69.7708,0.0],[29.975,69.7708,0.0],[29.9708,69.7688,0.0],[29.9542,69.7688,0.0],[29.95,69.7667,0.0],[29.9458,69.7667,0.0],[29.9443,69.7651,0.0],[29.9464,69.763,0.0],[29.9542,69.7625,12.4506],[29.9557,69.7609,2.2699],[29.9417,69.7604,0.0],[29.9318,69.7578,0.0],[29.9271,69.7542,0.0],[29.9208,69.7562,0.0],[29.9109,69.7557,0.0],[29.9089,69.7536,0.0],[29.9099,69.7505,3.6588],[29.9078,69.7484,0.0],[29.9021,69.7458,0.0],[29.8964,69.7453,0.0],[29.8813,69.7354,0.0],[29.8776,69.7359,6.0845],[29.8807,69.738,0.0],[29.8792,69.7396,0.0],[29.8729,69.7396,0.0],[29.8688,69.7417,0.0],[29.8583,69.7417,0.0],[29.8458,69.7458,0.0],[29.7917,69.7458,0.0],[29.7875,69.7479,0.0],[29.7687,69.7479,0.0],[29.7625,69.7458,4.9128],[29.7563,69.7479,0.0],[29.7521,69.7458,0.0],[29.7271,69.7438,0.0],[29.7229,69.7417,8.2637],[29.7125,69.7417,0.0],[29.7083,69.7396,0.0],[29.7021,69.7417,0.0],[29.6938,69.7417,0.0],[29.6896,69.7396,38.8415],[29.6792,69.7396,0.0],[29.675,69.7375,15.5735],[29.6672,69.737,0.0],[29.662,69.7318,0.0],[29.6563,69.7292,30.274],[29.6505,69.7286,0.0],[29.6516,69.7255,34.5583],[29.6474,69.7214,44.8638],[29.6318,69.7161,0.0],[29.6349,69.7141,0.0],[29.6328,69.7109,0.0],[29.6234,69.7099,0.0],[29.6182,69.7047,0.0],[29.6104,69.7042,0.0],[29.5792,69.6958,0.0],[29.5729,69.6958,0.0],[29.5714,69.6964,0.0],[29.5724,69.7037,0.0],[29.5693,69.7057,0.0],[29.5849,69.7109,0.0],[29.5901,69.7161,0.0],[29.5995,69.7172,0.0],[29.5964,69.7193,0.0],[29.5984,69.7224,0.0],[29.6016,69.7234,0.0],[29.5984,69.7266,0.0],[29.6042,69.7292,0.0],[29.6099,69.7297,0.0],[29.6172,69.7349,4.0032],[29.6245,69.7359,0.0],[29.6234,69.7391,0.0],[29.6307,69.7453,0.0],[29.625,69.7458,23.4959],[29.6234,69.7474,18.6934],[29.65,69.7458,0.0],[29.6516,69.7474,0.0],[29.6484,69.7495,33.1042],[29.6578,69.7505,0.0],[29.6547,69.7526,25.9341],[29.6578,69.7547,0.0],[29.6563,69.7562,15.161],[29.6396,69.7562,0.0],[29.6354,69.7583,0.0],[29.6276,69.7589,0.0],[29.6255,69.7609,0.0],[29.6266,69.7641,0.0],[29.6255,69.7662,0.0],[29.6458,69.7667,5.226],[29.6521,69.7646,0.0],[29.6563,69.7667,0.0],[29.6667,69.7667,0.0],[29.6708,69.7688,0.0],[29.6771,69.7688,0.0],[29.687,69.7714,0.0],[29.6917,69.775,0.0],[29.6995,69.7755,0.0],[29.6964,69.7786,0.0],[29.7021,69.7792,0.0],[29.7036,69.7807,0.0],[29.6964,69.7818,0.0],[29.6974,69.7849,0.0],[29.6917,69.7854,0.0],[29.6901,69.787,0.0],[29.7021,69.7875,0.0],[29.7089,69.7911,0.0],[29.7161,69.7922,0.0],[29.713,69.7953,0.0],[29.7188,69.7979,0.0],[29.7245,69.7984,0.0],[29.7234,69.8016,0.0],[29.7276,69.8057,3.4956],[29.7333,69.8083,0.0],[29.7417,69.8083,0.0],[29.7453,69.8047,0.0],[29.738,69.8037,0.0],[29.7255,69.7953,0.0],[29.7307,69.7901,0.0],[29.7172,69.7807,0.0],[29.7203,69.7776,0.0],[29.7172,69.7755,0.0],[29.7203,69.7734,0.0],[29.6964,69.7578,0.0],[29.6943,69.7547,0.0],[29.7813,69.7542,0.0],[29.7854,69.7562,0.0],[29.7938,69.7562,0.0],[29.8,69.7542,0.0],[29.8042,69.7562,0.0],[29.8125,69.7562,0.0],[29.8167,69.7542,0.0],[29.8292,69.7542,0.0],[29.8333,69.7562,0.0],[29.8521,69.7562,0.0],[29.8557,69.7589,0.0],[29.8547,69.762,0.0],[29.8557,69.7641,0.0],[29.8464,69.7703,23.8897],[29.8604,69.7688,2.6249],[29.8646,69.7667,0.0],[29.8771,69.7667,0.0],[29.8917,69.7708,0.0],[29.9021,69.7708,0.0],[29.9068,69.7745,0.0],[29.9146,69.775,0.0],[29.9193,69.7786,0.0],[29.9292,69.7813,0.0],[29.9438,69.7833,0.0],[29.95,69.7875,0.0],[29.9562,69.7875,0.0],[29.9688,69.7917,0.0],[29.9771,69.7896,0.0],[29.9813,69.7917,0.0],[29.9917,69.7917,0.0],[30.0042,69.7958,0.0],[30.0187,69.7979,0.0],[30.0224,69.8005,0.0],[30.0214,69.8037,11.6835],[30.0313,69.8063,7.6466],[30.0438,69.8063,0.0],[30.0479,69.8083,0.0],[30.0646,69.8083,0.0],[30.0771,69.8125,15.6469],[30.0854,69.8104,0.0],[30.0953,69.8172,0.0],[30.0943,69.8245,0.0],[30.0953,69.8266,0.0],[30.0922,69.8287,0.0],[30.0953,69.8307,0.0],[30.088,69.8318,0.0],[30.0792,69.8375,0.0],[30.0708,69.8375,0.0],[30.0625,69.8333,0.0],[30.0458,69.8333,0.0],[30.0276,69.8287,0.0],[30.0234,69.8266,0.0],[30.0266,69.8234,0.0],[30.0208,69.8208,0.0],[30.0146,69.8229,0.0],[29.9979,69.8229,18.3663],[29.9938,69.825,0.0],[29.9875,69.8229,0.0],[29.975,69.8229,0.0],[29.9708,69.825,0.0],[29.9562,69.8271,0.0],[29.9547,69.8287,0.0],[29.9583,69.8313,0.0],[29.9667,69.8313,3.6307],[29.9708,69.8292,0.0],[30.0083,69.8292,0.0],[30.0125,69.8313,0.0],[30.0187,69.8313,0.0],[30.0203,69.8328,0.0],[30.0109,69.838,0.0],[30.0141,69.8411,0.0],[30.0109,69.8432,0.0],[30.0271,69.8458,0.0],[30.0286,69.8474,0.0],[30.0234,69.8505,0.0],[30.0245,69.8536,0.0],[30.0208,69.8562,0.0],[30.0125,69.8562,0.0],[30.0083,69.8542,0.0],[29.9922,69.8547,0.0],[29.9984,69.8599,0.0],[30.0057,69.8609,0.0],[30.0036,69.8641,0.0],[29.9964,69.8651,0.0],[30.0036,69.8724,0.0],[29.9979,69.875,0.0],[29.9922,69.8755,16.7924],[29.9859,69.8797,51.2457],[29.9891,69.8828,0.0],[29.9786,69.8891,0.0],[29.9609,69.8922,21.7899],[29.9521,69.8979,12.7573],[29.9479,69.8979,73.101],[29.9438,69.9,49.1435],[29.9333,69.9,14.0254],[29.9188,69.9042,3.3279],[29.9042,69.9,34.0717],[29.8833,69.9,0.0],[29.8786,69.9036,0.0],[29.8714,69.9047,6.0446],[29.8646,69.9083,0.0],[29.8479,69.9083,0.0],[29.8438,69.9104,0.9553],[29.8229,69.9104,13.7576],[29.8104,69.9063,18.6767],[29.7875,69.9063,17.4243],[29.7797,69.9016,9.3064],[29.7813,69.9,0.0],[29.787,69.8995,42.1083],[29.7818,69.8943,0.0],[29.7911,69.8932,31.6947],[29.788,69.8901,0.0],[29.7938,69.8875,0.0],[29.7995,69.887,6.6928],[29.7964,69.8818,0.0],[29.8036,69.8807,8.5755],[29.8005,69.8776,0.0],[29.8036,69.8755,0.0],[29.7922,69.8672,0.0],[29.7979,69.8646,0.0],[29.8036,69.8641,21.5816],[29.7984,69.8588,0.0],[29.8036,69.8557,0.0],[29.8026,69.8526,0.0],[29.8036,69.8505,0.0],[29.7995,69.8464,0.0],[29.7901,69.8453,0.0],[29.7932,69.8422,0.0],[29.7901,69.8401,0.0],[29.7995,69.8391,0.0],[29.7964,69.8359,0.0],[29.8042,69.8354,0.0],[29.8057,69.8339,9.3387],[29.8,69.8313,0.0],[29.7943,69.8307,0.0],[29.7995,69.8255,0.0],[29.7964,69.8245,0.0],[29.7911,69.8193,0.0],[29.7833,69.8187,0.0],[29.7792,69.8167,0.0],[29.7604,69.8167,0.0],[29.7521,69.8208,0.0],[29.7375,69.8229,0.0],[29.7359,69.8245,0.0],[29.7458,69.825,0.0],[29.7521,69.8229,0.0],[29.7563,69.825,0.0],[29.7667,69.825,0.0],[29.7734,69.8287,0.0],[29.7792,69.8292,0.0],[29.7849,69.8318,0.0],[29.7833,69.8333,0.0],[29.7755,69.8339,86.2625],[29.7786,69.837,0.0],[29.7693,69.838,0.0],[29.763,69.8422,0.0],[29.7661,69.8453,0.0],[29.763,69.8474,0.0],[29.7661,69.8495,0.0],[29.7484,69.8526,0.0],[29.75,69.8542,0.0],[29.7557,69.8547,0.0],[29.7641,69.8609,0.0],[29.762,69.8641,0.0],[29.7542,69.8646,0.0],[29.7526,69.8662,70.5152],[29.762,69.8714,0.0],[29.7589,69.8745,0.0],[29.7661,69.8797,0.0],[29.7651,69.8828,0.0],[29.7661,69.8849,0.0],[29.7542,69.8854,141.6094],[29.7417,69.8896,0.0],[29.7354,69.8896,125.0702],[29.7339,69.8912,126.641],[29.737,69.8932,0.0],[29.7276,69.8943,86.4516],[29.7354,69.9,0.0],[29.7391,69.8995,0.0],[29.738,69.8964,0.0],[29.7396,69.8958,6.7135],[29.7521,69.8958,17.6585],[29.7578,69.8995,0.0],[29.7417,69.9021,0.0],[29.7328,69.9078,15.7327],[29.7167,69.9104,50.7455],[29.7042,69.9146,0.0],[29.6979,69.9125,6.8741],[29.6859,69.912,0.0],[29.687,69.9089,29.2542],[29.6818,69.9057,0.0],[29.6849,69.9036,0.0],[29.6833,69.9021,0.0],[29.65,69.9021,74.5551],[29.6401,69.9047,0.0],[29.6411,69.9078,0.0],[29.6214,69.913,0.0],[29.6167,69.9167,0.0],[29.6089,69.9172,0.0],[29.612,69.9203,0.0],[29.6063,69.9229,0.0],[29.5943,69.9203,0.0],[29.5854,69.9146,0.0],[29.5771,69.9146,0.0],[29.5729,69.9167,7.9821],[29.5438,69.9167,13.7514],[29.5396,69.9187,5.7022],[29.5167,69.9167,0.0],[29.512,69.913,0.0],[29.5026,69.912,0.0],[29.4964,69.9078,0.0],[29.5016,69.9026,0.0],[29.488,69.9016,0.0],[29.4818,69.8974,0.0],[29.4849,69.8943,0.0],[29.4729,69.8938,0.0],[29.4609,69.887,0.0],[29.4589,69.8839,0.0],[29.462,69.8828,0.0],[29.4641,69.8797,52.6608],[29.4568,69.8786,0.0],[29.4495,69.8734,59.8047],[29.4438,69.8729,0.0],[29.438,69.8703,0.0],[29.4349,69.8672,0.0],[29.4167,69.8667,0.0],[29.4151,69.8662,0.0],[29.4161,69.863,0.0],[29.4141,69.8609,0.0],[29.4042,69.8583,65.4116],[29.3646,69.8625,0.0],[29.363,69.8641,0.0],[29.3661,69.8651,0.0],[29.3682,69.8682,0.0],[29.363,69.8714,0.0],[29.3646,69.8729,1.2085],[29.3708,69.8708,0.0],[29.3937,69.8708,0.0],[29.3979,69.8688,0.0],[29.4203,69.8693,0.0],[29.4224,69.8724,0.0],[29.4193,69.8745,0.0],[29.4224,69.8766,0.0],[29.4167,69.8792,0.0],[29.4109,69.8797,4.8641],[29.412,69.8828,0.0],[29.4109,69.8849,0.0],[29.4146,69.8875,0.0],[29.4224,69.888,0.0],[29.4276,69.8932,0.0],[29.4307,69.8943,0.0],[29.4276,69.8974,0.0],[29.4417,69.8958,0.3363],[29.4458,69.8938,0.0],[29.4474,69.8953,0.0],[29.4453,69.8974,0.0],[29.4396,69.8979,0.0],[29.438,69.8995,0.0],[29.4583,69.9,0.0],[29.4646,69.8979,0.0],[29.4745,69.9005,0.0],[29.4734,69.9036,0.0],[29.4755,69.9057,47.2855],[29.4849,69.9068,0.0],[29.4891,69.9109,0.0],[29.487,69.9141,0.0],[29.4839,69.9151,0.0],[29.4854,69.9167,0.0],[29.5104,69.9167,0.0],[29.512,69.9182,0.0],[29.5089,69.9193,0.0],[29.5104,69.9208,0.0],[29.5208,69.9208,0.0],[29.525,69.9229,0.0],[29.5354,69.9229,0.0],[29.5396,69.925,0.0],[29.5458,69.925,0.0],[29.5641,69.9297,0.0],[29.5708,69.9333,0.0],[29.5938,69.9375,0.0],[29.6,69.9417,0.0],[29.6271,69.9437,0.0],[29.6318,69.9474,0.0],[29.6411,69.9484,0.0],[29.6453,69.9526,0.0],[29.6443,69.9557,0.0],[29.6563,69.9563,0.0],[29.662,69.9589,0.0],[29.6589,69.9609,13.0557],[29.6609,69.9641,0.0],[29.675,69.9646,0.0],[29.6839,69.9703,0.0],[29.6911,69.9714,0.0],[29.6932,69.9734,0.0],[29.6922,69.9766,0.5865],[29.6932,69.9786,0.0],[29.6833,69.9792,0.0],[29.6708,69.975,1.9221],[29.6604,69.975,0.0],[29.6547,69.9724,0.0],[29.6599,69.9682,0.0],[29.6563,69.9667,0.0],[29.6464,69.9693,0.0],[29.6474,69.9724,0.0],[29.6422,69.9755,21.4166],[29.6453,69.9776,0.0],[29.6437,69.9792,0.0],[29.6208,69.975,0.0],[29.6141,69.9786,0.0],[29.6042,69.9812,0.0],[29.5812,69.9812,0.0],[29.5771,69.9833,0.0],[29.5583,69.9833,21.5022],[29.5568,69.9849,6.3137],[29.5599,69.987,0.0],[29.5583,69.9875,0.0],[29.5354,69.9875,0.0],[29.5313,69.9896,0.0],[29.5125,69.9896,0.0],[29.5078,69.9932,0.0],[29.4984,69.9943,0.0],[29.5036,69.9984,0.0],[29.5021,70.0,0.0],[29.4854,70.0,19.4229],[29.4792,70.0021,0.0],[29.475,70.0,26.9074],[29.4667,70.0,7.8929],[29.4625,70.0021,0.0],[29.4458,70.0021,0.0],[29.4375,70.0062,12.8277],[29.4313,70.0042,8.4111],[29.425,70.0042,17.2234],[29.4208,70.0062,6.7028],[29.4083,70.0062,10.9231],[29.4042,70.0083,0.0],[29.3958,70.0083,4.3435],[29.3896,70.0062,10.1723],[29.3854,70.0083,0.5476],[29.3813,70.0062,0.0],[29.3729,70.0062,31.9203],[29.3646,70.0104,12.4286],[29.3563,70.0083,38.9329],[29.3516,70.012,0.0],[29.3438,70.0125,31.719],[29.3375,70.0167,0.0],[29.3292,70.0146,2.8852],[29.3208,70.0188,0.0],[29.3083,70.0188,0.0],[29.3048,70.0169,0.0],[29.3174,70.0148,65.6346],[29.3129,70.0048,142.4673],[29.3259,70.0042,109.6342],[29.3219,69.9953,237.4707],[29.3349,69.9946,189.1347],[29.323,69.9679,427.278],[29.336,69.9672,406.7171],[29.334,69.9628,365.8394],[29.2952,69.9647,362.4136],[29.2932,69.9603,317.1947],[29.2545,69.9622,221.0066],[29.2525,69.9577,139.5598],[29.2137,69.9597,300.4904],[29.2118,69.9552,316.2658],[29.173,69.9571,327.9007],[29.1711,69.9527,302.4945],[29.1194,69.9552,335.1076],[29.1174,69.9508,318.4348],[29.0787,69.9527,362.9559],[29.0768,69.9482,353.1647],[29.038,69.9501,234.5477],[29.0361,69.9456,231.0602],[28.9973,69.9475,269.192],[28.9954,69.9431,277.3921],[28.9566,69.9449,283.4747],[28.9547,69.9405,307.4311],[28.916,69.9423,373.541],[28.9141,69.9379,365.6944],[28.8753,69.9397,345.2986],[28.8735,69.9353,360.5119],[28.8347,69.9371,317.2486],[28.8328,69.9327,290.0727],[28.7811,69.9351,291.2372],[28.7793,69.9307,295.0313],[28.7405,69.9325,349.1493],[28.7387,69.928,353.7451],[28.7258,69.9286,337.5579],[28.7239,69.9242,322.7503],[28.711,69.9248,312.9882],[28.7092,69.9203,305.9148],[28.6962,69.9209,317.0739],[28.6944,69.9165,307.1769],[28.6815,69.9171,355.2245],[28.6797,69.9126,361.2535],[28.6667,69.9132,338.5985],[28.6649,69.9087,343.256],[28.652,69.9093,333.1966],[28.6502,69.9049,355.2047],[28.6244,69.9061,394.7388],[28.6225,69.9016,371.1385],[28.6096,69.9022,324.2167],[28.6078,69.8978,285.1322],[28.5949,69.8984,283.468],[28.5931,69.8939,333.633],[28.5802,69.8945,355.7959],[28.5784,69.89,363.8527],[28.5655,69.8906,363.9465],[28.5637,69.8862,353.6375],[28.5508,69.8868,365.8872],[28.549,69.8823,385.3815],[28.5361,69.8829,405.3575],[28.5343,69.8784,373.0886],[28.5214,69.879,382.5415],[28.5196,69.8746,361.995],[28.5067,69.8751,355.8179],[28.5049,69.8707,371.7133],[28.492,69.8713,404.5138],[28.4902,69.8668,383.7426],[28.4773,69.8674,396.7821],[28.4756,69.8629,381.805],[28.4498,69.8641,364.6964],[28.448,69.8597,343.2653],[28.4222,69.8608,347.9219],[28.4205,69.8564,339.924],[28.3947,69.8575,298.5948],[28.3929,69.8531,290.6736],[28.3543,69.8548,342.2437],[28.3525,69.8503,331.0033],[28.3267,69.8515,360.8253],[28.325,69.847,353.8283],[28.3507,69.8459,298.2025],[28.349,69.8414,289.3904],[28.3619,69.8408,270.3907],[28.3601,69.8364,268.8002],[28.373,69.8358,268.7554],[28.3712,69.8313,268.5979],[28.3841,69.8307,268.7221],[28.3823,69.8263,268.4406],[28.3952,69.8257,276.7744],[28.3934,69.8212,278.4786],[28.4063,69.8206,317.0814],[28.4045,69.8162,318.8421],[28.4431,69.8144,270.4438],[28.4413,69.8099,274.9207],[28.4799,69.8082,288.3011],[28.4781,69.8037,282.6861],[28.5167,69.8019,353.8297],[28.5149,69.7975,336.4628],[28.5534,69.7957,310.9461],[28.5516,69.7912,303.7196],[28.5901,69.7894,309.947],[28.5883,69.785,328.4046],[28.6268,69.7832,295.8577],[28.625,69.7787,288.8331],[28.6635,69.7769,287.1084],[28.6617,69.7724,264.6797],[28.7002,69.7706,260.6772],[28.6984,69.7662,257.0717],[28.7368,69.7643,204.5],[28.735,69.7599,203.8952],[28.7735,69.758,190.1966],[28.7716,69.7536,189.7757],[28.8101,69.7517,199.5085],[28.8082,69.7473,203.8195],[28.8466,69.7454,173.7705],[28.8448,69.741,183.0922],[28.8832,69.7391,128.5],[28.8814,69.7347,128.5],[28.9069,69.7334,133.4241],[28.9051,69.729,129.5091],[28.9563,69.7265,84.8606],[28.9544,69.722,84.8049],[28.9928,69.7202,128.2551],[28.9909,69.7157,99.7284],[29.042,69.7132,71.0865],[29.0401,69.7087,68.2533],[29.0784,69.7068,90.9966],[29.0766,69.7024,91.1199],[29.1149,69.7005,92.1056],[29.113,69.696,127.3772],[29.1385,69.6947,114.0808],[29.1347,69.6858,88.9879],[29.1475,69.6852,81.4991],[29.1418,69.6718,90.9311],[29.1545,69.6712,89.2497],[29.1507,69.6623,108.9222],[29.1634,69.6616,139.8308],[29.1577,69.6483,128.0236],[29.1705,69.6476,139.8999],[29.1666,69.6387,194.0954],[29.1794,69.6381,178.0378],[29.1756,69.6292,196.991],[29.1883,69.6285,137.5683],[29.1845,69.6196,157.4032],[29.1972,69.619,137.9581],[29.1934,69.6101,107.6757],[29.2061,69.6094,118.7351],[29.2042,69.605,117.8486],[29.2169,69.6043,76.2015],[29.2131,69.5954,91.7382],[29.2258,69.5948,71.3867],[29.222,69.5859,94.4466],[29.2347,69.5852,94.8418],[29.2308,69.5763,118.9541],[29.2435,69.5756,96.0511],[29.2397,69.5667,101.9022],[29.2524,69.5661,103.3002],[29.2485,69.5572,155.2892],[29.2612,69.5565,148.3069],[29.2574,69.5476,132.786],[29.2701,69.547,133.8645],[29.2682,69.5425,130.8833],[29.2808,69.5419,135.2591],[29.277,69.533,142.5618],[29.2897,69.5323,157.6838],[29.2858,69.5234,182.5089],[29.2985,69.5228,163.3689],[29.2946,69.5139,174.0849],[29.3073,69.5132,173.9655],[29.3035,69.5043,182.5],[29.3161,69.5037,186.0596],[29.3123,69.4947,211.5724],[29.3249,69.4941,228.8407],[29.323,69.4896,234.5244],[29.3356,69.489,228.0],[29.326,69.4667,238.3904],[29.3134,69.4674,244.7587],[29.3076,69.454,209.3225],[29.295,69.4546,197.7884],[29.2893,69.4413,223.2232],[29.2766,69.4419,212.2567],[29.2709,69.4286,218.123],[29.2583,69.4292,220.5463],[29.2526,69.4158,185.3853],[29.24,69.4165,192.57],[29.2343,69.4031,212.2644],[29.2217,69.4038,207.7635],[29.216,69.3904,231.0375],[29.2034,69.391,223.7414],[29.2015,69.3866,217.3045],[29.189,69.3872,223.2208],[29.1852,69.3783,215.8866],[29.1726,69.3789,224.9304],[29.1688,69.37,213.5158],[29.1563,69.3707,231.3292],[29.1544,69.3662,217.746],[29.1418,69.3668,232.0425],[29.1381,69.3579,233.5316],[29.1255,69.3586,228.4832],[29.1218,69.3496,209.4987],[29.1092,69.3503,213.5591],[29.1055,69.3414,216.6325],[29.0929,69.342,224.2568],[29.091,69.3375,233.6244],[29.0785,69.3382,228.5276],[29.0747,69.3292,281.9482],[29.0622,69.3299,308.7889],[29.0585,69.321,313.7807],[29.0459,69.3216,314.1549],[29.0441,69.3171,235.345],[29.0315,69.3178,224.7544],[29.0278,69.3089,204.6882],[29.0153,69.3095,198.8139],[29.0116,69.3006,185.5],[28.9991,69.3012,191.1909],[28.9954,69.2923,188.3085],[28.9828,69.2929,177.2514],[28.981,69.2884,174.6638],[28.9685,69.2891,180.7087],[28.9648,69.2802,174.2293],[28.9523,69.2808,192.3084],[28.9486,69.2719,174.6302],[28.9361,69.2725,192.4212],[28.9343,69.268,191.5498],[28.9217,69.2686,191.1905],[28.9181,69.2597,189.431],[28.9056,69.2603,188.4901],[28.902,69.2514,191.5937],[28.8894,69.252,189.4898],[28.8858,69.2431,186.0933],[28.8733,69.2437,192.4472],[28.8715,69.2393,192.8627],[28.859,69.2399,202.3239],[28.8554,69.231,202.8143],[28.8429,69.2316,218.1207],[28.8249,69.187,199.1973],[28.8374,69.1864,192.6662],[28.8052,69.1061,163.6586],[28.8176,69.1055,153.4847],[28.8159,69.101,146.6269],[28.8283,69.1004,150.3684],[28.8247,69.0915,146.6364],[28.8372,69.0909,127.8572],[28.8354,69.0864,126.3235],[28.8478,69.0858,119.5533],[28.846,69.0814,126.6198],[28.8584,69.0807,137.2889],[28.8566,69.0763,167.4227],[28.8691,69.0757,153.937],[28.8673,69.0712,155.7412],[28.8921,69.07,135.621],[28.8903,69.0655,140.0966],[28.9151,69.0643,146.6254],[28.9133,69.0598,162.1378],[28.9257,69.0592,156.69],[28.9252,69.0579,164.6281]]],
[[[30.1151,69.8047,0.0],[30.1172,69.8026,0.0],[30.1208,69.8021,0.0],[30.1266,69.8047,0.0],[30.1286,69.8078,0.0],[30.125,69.8083,0.0],[30.1151,69.8047,0.0]]],
[[[30.0391,69.8849,2.5649],[30.0271,69.8875,0.0],[30.0172,69.8849,0.0],[30.0193,69.8818,0.0],[30.0224,69.8807,0.0],[30.0193,69.8776,0.0],[30.0286,69.8766,0.0],[30.0255,69.8734,0.0],[30.0349,69.8682,0.0],[30.0255,69.8609,0.0],[30.0349,69.8599,0.0],[30.037,69.8578,0.0],[30.0359,69.8547,0.0],[30.0479,69.8542,0.0],[30.0521,69.8521,0.0],[30.0604,69.8521,0.0],[30.0667,69.8542,0.0],[30.0729,69.8521,0.0],[30.0938,69.8583,0.0],[30.1016,69.8588,0.0],[30.0953,69.8641,0.0],[30.0812,69.8646,0.0],[30.0776,69.8672,0.0],[30.0797,69.8703,0.0],[30.0828,69.8714,0.0],[30.0797,69.8745,0.0],[30.0849,69.8776,0.0],[30.0839,69.8807,0.0],[30.087,69.8849,3.8811],[30.0792,69.8854,0.0],[30.0708,69.8812,3.6617],[30.0646,69.8833,0.0],[30.0583,69.8833,0.0],[30.0521,69.8812,0.0],[30.0391,69.8849,2.5649]]],
[[[29.4333,69.8833,0.0],[29.4318,69.8818,0.0],[29.4432,69.8818,0.0],[29.4417,69.8833,0.0],[29.4333,69.8833,0.0]]],
[[[30.4516,69.7432,0.0],[30.4417,69.7458,0.0],[30.4318,69.7453,0.0],[30.4359,69.7422,0.0],[30.4458,69.7396,0.0],[30.4495,69.7401,0.0],[30.4516,69.7432,0.0]]],
[[[30.4125,69.7896,0.0],[30.4109,69.788,0.0],[30.4161,69.788,0.0],[30.4161,69.7891,0.0],[30.4125,69.7896,0.0]]],
[[[30.7438,69.7896,8.5255],[30.7422,69.788,13.1687],[30.7474,69.788,10.2202],[30.7474,69.7891,0.0],[30.7438,69.7896,8.5255]]],
[[[30.7646,69.7896,0.0],[30.7682,69.7901,0.0],[30.7672,69.7932,0.0],[30.7682,69.7953,0.0],[30.7646,69.7958,0.0],[30.7547,69.7932,0.0],[30.7547,69.7922,0.0],[30.7646,69.7896,0.0]]],
[[[30.6339,69.813,0.0],[30.6437,69.8125,2.0951],[30.6453,69.8141,0.0],[30.6375,69.8167,0.0],[30.6339,69.813,0.0]]],
[[[29.6172,69.9245,0.0],[29.6188,69.9229,0.0],[29.6224,69.9234,2.938],[29.6208,69.925,0.0],[29.6172,69.9245,0.0]]],
[[[29.3214,70.0245,19.4899],[29.3229,70.0229,11.9737],[29.3266,70.0234,0.0],[29.325,70.025,42.531],[29.3214,70.0245,19.4899]]]]}
,"properties": {"GID_2": "NOR.5.16_1","GID_0": "NOR","country": "Norway","GID_1": "NOR.5_1","province": "Finnmark","NL_NAME_1": "NA","county": "Sør-Varanger","VARNAME_2": "NA","NL_NAME_2": "NA","TYPE_2": "Kommuner","ENGTYPE_2": "Municipality","CC_2": "NA","HASC_2": "NO.FI.SV","name": "Sør-Varanger.county","area_km2": 3988.508,"hist_schema_id": "Elevation0-9000","hist_area_km2": {"0": 114.721,"25": 193.191,"50": 306.388,"75": 412.545,"100": 434.616,"125": 452.716,"150": 405.09,"175": 380.926,"200": 312.505,"225": 273.646,"250": 224.083,"275": 182.708,"300": 128.475,"325": 79.049,"350": 52.455,"375": 25.283,"400": 7.112,"425": 2.046,"450": 0.691,"475": 0.262}}}