{"type": "Feature","bbox": [9.3292,59.4056,10.0488,59.7827],"geometry": {"type": "MultiPolygon","coordinates": [[[[9.3666,59.782,739.7399],[9.368,59.7776,746.9202],[9.3592,59.7769,722.5206],[9.3621,59.768,716.0513],[9.3532,59.7673,690.903],[9.3575,59.754,649.6666],[9.3487,59.7533,625.9192],[9.353,59.74,434.9119],[9.3442,59.7393,461.5396],[9.347,59.7304,427.9314],[9.3382,59.7297,455.5273],[9.3425,59.7164,540.6933],[9.3337,59.7157,599.8138],[9.338,59.7024,596.8683],[9.3292,59.7017,603.5449],[9.3306,59.6973,603.7888],[9.3482,59.6987,668.2783],[9.3496,59.6943,753.7675],[9.3672,59.6957,737.7411],[9.3687,59.6913,725.3502],[9.3774,59.692,741.9968],[9.3789,59.6876,717.0731],[9.3965,59.689,679.0143],[9.4021,59.6713,595.5701],[9.4109,59.672,544.433],[9.4236,59.6322,710.0084],[9.4324,59.6329,695.2169],[9.4437,59.5974,552.821],[9.4525,59.5981,517.9753],[9.4665,59.5538,691.7781],[9.4753,59.5546,675.6362],[9.4767,59.5501,674.533],[9.4854,59.5508,681.0972],[9.4868,59.5464,666.0443],[9.4956,59.5471,686.045],[9.497,59.5427,685.7038],[9.5057,59.5434,684.2042],[9.5085,59.5345,661.4658],[9.5173,59.5352,708.1837],[9.5187,59.5308,707.8338],[9.5099,59.5301,650.4861],[9.5113,59.5257,569.9652],[9.5026,59.525,522.7735],[9.5039,59.5205,503.713],[9.4952,59.5198,609.2292],[9.4966,59.5154,672.6207],[9.4878,59.5147,676.7745],[9.4892,59.5103,660.9597],[9.4805,59.5095,674.2981],[9.4819,59.5051,605.1071],[9.4731,59.5044,613.5007],[9.4759,59.4955,691.2092],[9.4672,59.4948,716.0459],[9.4714,59.4815,777.9924],[9.5413,59.4872,530.6703],[9.5427,59.4828,570.0423],[9.5602,59.4842,744.7332],[9.5616,59.4798,705.4652],[9.5703,59.4805,656.8607],[9.5759,59.4627,543.2985],[9.5846,59.4634,558.7701],[9.5887,59.4502,515.0305],[9.5975,59.4509,549.8266],[9.6002,59.442,542.5549],[9.609,59.4427,576.1485],[9.6117,59.4338,545.4927],[9.6205,59.4345,625.2169],[9.6232,59.4257,619.2715],[9.6319,59.4264,559.3823],[9.6347,59.4175,592.3878],[9.6434,59.4182,597.0057],[9.6462,59.4093,534.3114],[9.6549,59.41,499.6599],[9.6563,59.4056,472.7722],[9.665,59.4063,468.634],[9.6636,59.4107,488.0579],[9.716,59.4149,480.8722],[9.7174,59.4105,465.2798],[9.7523,59.4133,428.3837],[9.7536,59.4088,428.498],[9.7711,59.4102,439.9844],[9.7562,59.459,583.6813],[9.7911,59.4617,517.7929],[9.7898,59.4662,503.9544],[9.8248,59.4689,250.7991],[9.8261,59.4645,283.9956],[9.8349,59.4652,243.845],[9.8362,59.4608,251.4041],[9.845,59.4614,225.3313],[9.8463,59.457,259.2123],[9.855,59.4577,189.3216],[9.8564,59.4533,201.5345],[9.8651,59.4539,183.5413],[9.8665,59.4495,173.7466],[9.9189,59.4536,406.4034],[9.9176,59.458,430.8068],[9.9438,59.4601,349.0836],[9.9425,59.4645,372.1069],[9.9512,59.4652,396.695],[9.9526,59.4608,403.0887],[9.9963,59.4641,108.5989],[9.9976,59.4597,58.6072],[10.0064,59.4604,42.5929],[10.0051,59.4648,68.7368],[10.0488,59.4682,233.2505],[10.0422,59.4904,213.9894],[10.0334,59.4897,196.8537],[10.0308,59.4986,215.7362],[10.022,59.4979,177.7006],[10.0181,59.5112,392.1657],[10.0093,59.5105,359.4738],[10.0053,59.5238,488.7505],[9.9966,59.5232,499.997],[9.9939,59.532,454.7816],[9.9851,59.5314,519.1368],[9.9825,59.5402,454.9001],[9.9737,59.5396,547.9723],[9.971,59.5484,413.1696],[9.9623,59.5478,418.1033],[9.9609,59.5522,413.1585],[9.9522,59.5515,426.4116],[9.9508,59.5559,411.2473],[9.942,59.5553,421.2717],[9.938,59.5686,410.0403],[9.9293,59.5679,412.5536],[9.9239,59.5856,426.2503],[9.9151,59.5849,465.4282],[9.9138,59.5894,443.9738],[9.905,59.5887,465.8447],[9.9036,59.5931,439.0175],[9.8949,59.5925,497.752],[9.8935,59.5969,498.188],[9.8847,59.5962,504.3106],[9.882,59.6051,490.0005],[9.8733,59.6044,506.1455],[9.8706,59.6133,454.2985],[9.8618,59.6126,467.632],[9.8604,59.617,444.0361],[9.8516,59.6163,463.6226],[9.8489,59.6252,495.0272],[9.8401,59.6245,482.1384],[9.8374,59.6334,586.0419],[9.8286,59.6327,554.6537],[9.8273,59.6371,482.7092],[9.8185,59.6364,470.2253],[9.8158,59.6453,340.8387],[9.7982,59.6439,342.3419],[9.7968,59.6484,323.9382],[9.7792,59.647,346.0349],[9.7779,59.6514,355.2064],[9.7691,59.6507,385.5201],[9.7677,59.6552,364.9319],[9.7501,59.6538,192.8358],[9.7488,59.6582,142.293],[9.7312,59.6568,200.4493],[9.7298,59.6612,239.2006],[9.721,59.6605,252.8689],[9.7196,59.665,223.0654],[9.702,59.6636,222.8409],[9.6979,59.6769,240.9376],[9.6803,59.6755,265.53],[9.6789,59.6799,263.751],[9.6701,59.6792,349.3091],[9.6591,59.7147,534.7697],[9.6503,59.714,529.7648],[9.6461,59.7273,607.7264],[9.5933,59.7231,169.5],[9.5919,59.7275,174.5512],[9.5831,59.7268,212.8416],[9.5803,59.7357,222.0139],[9.4658,59.7265,510.5404],[9.4644,59.7309,522.3035],[9.4555,59.7302,493.0093],[9.4485,59.7523,668.7566],[9.4397,59.7516,671.9275],[9.4382,59.756,678.7936],[9.4294,59.7553,732.5995],[9.428,59.7598,764.8729],[9.4192,59.759,723.5767],[9.4149,59.7723,726.7122],[9.4061,59.7716,732.6835],[9.4047,59.776,728.374],[9.3871,59.7746,735.0388],[9.3856,59.779,742.749],[9.3768,59.7783,743.7072],[9.3754,59.7827,737.0059],[9.3666,59.782,739.7399]]]]}
,"properties": {"GID_2": "NOR.4.10_1","GID_0": "NOR","country": "Norway","GID_1": "NOR.4_1","province": "Buskerud","NL_NAME_1": "NA","county": "Kongsberg","VARNAME_2": "NA","NL_NAME_2": "NA","TYPE_2": "Kommuner","ENGTYPE_2": "Municipality","CC_2": "NA","HASC_2": "NO.BU.KO","name": "Kongsberg.county","area_km2": 779.4692,"hist_schema_id": "Elevation0-9000","hist_area_km2": {"50": 5.279,"75": 33.2949,"100": 17.0756,"125": 11.7261,"150": 16.5315,"175": 24.7151,"200": 17.8406,"225": 22.5112,"250": 21.0744,"275": 17.1298,"300": 19.295,"325": 25.1566,"350": 27.5575,"375": 31.0853,"400": 35.5295,"425": 44.7009,"450": 44.276,"475": 52.2317,"500": 58.3537,"525": 52.3555,"550": 37.5491,"575": 32.0271,"600": 27.3681,"625": 26.5492,"650": 21.1465,"675": 17.5407,"700": 14.7417,"725": 13.031,"750": 6.1099,"775": 3.0903,"800": 1.9198,"825": 0.483,"850": 0.1501,"875": 0.0428}}}