{"type": "Feature","bbox": [14.7273,66.9183,15.3724,67.2542],"geometry": {"type": "MultiPolygon","coordinates": [[[[15.0185,66.9269,685.8188],[15.0194,66.9224,591.4469],[15.0308,66.9228,611.7274],[15.0317,66.9183,609.075],[15.0545,66.919,568.0267],[15.0509,66.9369,558.9564],[15.0623,66.9373,462.4409],[15.0605,66.9462,523.3045],[15.1176,66.9479,555.9472],[15.1149,66.9614,776.2713],[15.1263,66.9617,698.6639],[15.1228,66.9797,698.8029],[15.1342,66.98,651.6769],[15.1324,66.989,682.5394],[15.1439,66.9893,643.199],[15.143,66.9938,662.2225],[15.1544,66.9941,637.6949],[15.1518,67.0076,505.786],[15.1632,67.0079,539.4243],[15.1597,67.0259,442.9193],[15.1712,67.0262,469.514],[15.1685,67.0397,468.0541],[15.18,67.04,516.9734],[15.1764,67.058,542.0088],[15.1879,67.0583,553.8132],[15.1844,67.0762,555.1322],[15.1959,67.0766,534.095],[15.195,67.0811,548.8076],[15.2065,67.0814,515.6796],[15.2047,67.0904,472.3682],[15.2162,67.0907,507.4109],[15.2144,67.0997,473.9344],[15.2259,67.1,467.3562],[15.2207,67.1269,542.5016],[15.2322,67.1272,526.6675],[15.2313,67.1317,433.4785],[15.2428,67.1321,380.4901],[15.2419,67.1366,370.594],[15.2534,67.1369,372.2424],[15.2526,67.1414,373.502],[15.264099999999999,67.1417,368.3324],[15.2632,67.1462,387.4836],[15.2747,67.1465,367.7484],[15.2738,67.151,397.0058],[15.2969,67.1516,389.8252],[15.296,67.1561,441.1695],[15.3075,67.1565,456.2976],[15.3067,67.1609,534.6894],[15.3182,67.1613,481.8332],[15.3173,67.1658,519.6462],[15.3288,67.1661,518.1717],[15.328,67.1706,549.3647],[15.351,67.1712,487.5312],[15.3502,67.1757,393.1377],[15.3617,67.176,289.6782],[15.3609,67.1805,237.506],[15.3724,67.1808,256.9169],[15.3711,67.1876,42.3814],[15.3604,67.1875,226.6359],[15.3542,67.1896,0.0],[15.35,67.1875,46.4964],[15.3417,67.1917,0.0],[15.3125,67.1917,46.4037],[15.3083,67.1896,93.0515],[15.2958,67.1896,120.2566],[15.2943,67.1911,86.2873],[15.2974,67.1953,0.0],[15.2932,67.1974,0.0],[15.2896,67.1979,14.6194],[15.2854,67.1958,152.3356],[15.2813,67.1979,53.3437],[15.2734,67.1984,10.9544],[15.2568,67.2068,39.3653],[15.2578,67.2099,0.0],[15.25,67.2104,125.5872],[15.2443,67.213,67.4917],[15.2453,67.2161,0.0],[15.2333,67.2167,45.5683],[15.225,67.2208,0.0],[15.2083,67.2208,0.0],[15.1984,67.2182,0.0],[15.1958,67.2146,35.7638],[15.1667,67.2146,0.0],[15.1479,67.2083,27.1659],[15.1339,67.2151,0.0],[15.1328,67.2182,0.0],[15.1297,67.2193,0.0],[15.1307,67.2224,0.0],[15.1276,67.2234,0.0],[15.1286,67.2266,0.0],[15.1245,67.2286,0.0],[15.1083,67.2312,83.8577],[15.1,67.2354,0.0],[15.0771,67.2354,86.2771],[15.0729,67.2375,0.0],[15.0625,67.2333,72.7814],[15.0563,67.2333,0.0],[15.0521,67.2354,0.0],[15.0125,67.2354,0.0],[15.0047,67.2328,0.0],[15.0026,67.2297,0.0],[15.0208,67.2292,0.0],[15.0224,67.2276,0.0],[15.0182,67.2214,0.0],[15.0104,67.2188,8.7601],[15.0021,67.2188,0.0],[14.9984,67.2161,0.0],[15.0,67.2146,0.0],[15.0078,67.2141,0.0],[15.0057,67.2109,44.1027],[14.9979,67.2083,9.5834],[14.9896,67.2083,0.0],[14.9792,67.2042,16.23],[14.9667,67.2042,0.0],[14.9651,67.2047,0.0],[14.9661,67.2099,7.5501],[14.9484,67.213,107.3983],[14.9495,67.2161,0.0],[14.9464,67.2172,34.0913],[14.9474,67.2203,0.0],[14.9443,67.2214,0.0],[14.9443,67.2245,0.0],[14.9521,67.225,5.4043],[14.9563,67.2229,0.0],[14.9646,67.2229,0.0],[14.9724,67.2255,0.0],[14.975,67.2292,43.5728],[14.9833,67.2292,0.0],[14.9938,67.2333,0.0],[14.9995,67.2338,0.0],[15.0005,67.237,0.0],[15.0057,67.238,0.0],[15.0078,67.2401,0.0],[15.0063,67.2417,0.0],[14.9839,67.2422,0.0],[14.9849,67.2474,0.0],[14.9792,67.25,0.0],[14.9667,67.25,0.0],[14.9641,67.2464,0.0],[14.9563,67.2438,0.0],[14.9479,67.2458,0.0],[14.9453,67.2422,0.0],[14.9292,67.2375,0.0],[14.9229,67.2396,0.0],[14.9203,67.2359,0.0],[14.9146,67.2354,0.0],[14.9042,67.2312,0.0],[14.8917,67.2312,0.0],[14.8875,67.2292,1.6667],[14.8583,67.2292,0.0],[14.8542,67.2271,58.559],[14.8464,67.2297,0.0],[14.8479,67.2333,0.0],[14.8458,67.2354,0.0],[14.8354,67.2354,17.9918],[14.8286,67.2391,0.0],[14.8188,67.2417,0.0],[14.8063,67.2417,0.0],[14.8021,67.2396,7.0003],[14.7937,67.2396,0.0],[14.7896,67.2375,24.4965],[14.7771,67.2375,0.0],[14.7484,67.2286,0.0],[14.7516,67.2266,0.0],[14.7495,67.2234,142.6477],[14.7401,67.2224,27.4507],[14.7359,67.2182,0.0],[14.7391,67.2161,157.4501],[14.7391,67.213,315.9279],[14.7273,67.2146,90.4486],[14.728,67.2113,296.3792],[14.7396,67.2117,391.6712],[14.7406,67.2072,333.0073],[14.7521,67.2076,406.2557],[14.7531,67.2031,445.7381],[14.7761,67.2038,360.1155],[14.7771,67.1993,189.7966],[14.8001,67.2001,63.7327],[14.7992,67.2045,162.6959],[14.8338,67.2056,98.0347],[14.8328,67.2101,154.7747],[14.8444,67.2105,116.5366],[14.879,67.2115,380.5644],[14.8809,67.2026,591.384],[14.8924,67.2029,566.6094],[14.8943,67.1939,374.0305],[14.8828,67.1936,577.3902],[14.8837,67.1891,390.5617],[14.8722,67.1888,645.7275],[14.8731,67.1843,421.8294],[14.8616,67.1839,678.8759],[14.8625,67.1794,500.97],[14.851,67.1791,694.5901],[14.852,67.1746,555.8964],[14.8289,67.1739,783.8023],[14.8299,67.1694,783.327],[14.8184,67.169,779.9223],[14.8193,67.1645,752.2404],[14.8078,67.1642,684.8922],[14.8097,67.1552,461.112],[14.7982,67.1549,393.9288],[14.7991,67.1504,332.6012],[14.7876,67.15,398.6764],[14.7896,67.141,440.0297],[14.8011,67.1414,394.707],[14.8087,67.1055,484.0938],[14.7972,67.1052,496.0114],[14.7982,67.1007,506.8108],[14.7867,67.1003,546.6916],[14.7876,67.0958,582.9531],[14.7761,67.0955,614.5856],[14.7771,67.091,669.17],[14.7656,67.0906,787.1559],[14.7666,67.0862,908.098],[14.7551,67.0858,964.4455],[14.7561,67.0813,780.1368],[14.7446,67.0809,877.3763],[14.7455,67.0765,775.6667],[14.757,67.0768,775.6409],[14.758,67.0723,841.9442],[14.7695,67.0727,781.5018],[14.7714,67.0637,791.0467],[14.7828,67.0641,1091.9795],[14.7838,67.0596,929.2606],[14.7953,67.06,950.2979],[14.7962,67.0555,828.6705],[14.8191,67.0562,874.499],[14.8201,67.0517,772.8226],[14.8315,67.0521,847.1075],[14.8325,67.0476,677.2322],[14.8554,67.0483,730.6323],[14.8563,67.0438,644.5582],[14.8678,67.0442,661.0452],[14.8687,67.0397,645.0886],[14.8917,67.0404,549.1024],[14.8926,67.0359,592.4608],[14.904,67.0363,600.1708],[14.905,67.0318,678.4299],[14.9164,67.0321,720.0073],[14.9174,67.0276,635.5081],[14.9288,67.028,599.1584],[14.9316,67.0145,554.0389],[14.943,67.0149,562.5629],[14.9458,67.0014,551.5089],[14.9572,67.0018,560.713],[14.96,66.9883,564.0836],[14.9714,66.9887,562.4564],[14.9733,66.9797,606.8987],[14.9847,66.9801,584.5672],[14.9874,66.9666,686.6392],[14.9989,66.9669,676.3611],[15.0007,66.958,674.9482],[15.0121,66.9583,590.587],[15.0185,66.9269,685.8188]]],
[[[14.9609,67.2151,10.509],[14.9646,67.2146,20.6649],[14.9661,67.2161,10.0094],[14.9625,67.2167,0.0],[14.9609,67.2151,10.509]]],
[[[14.9089,67.2422,0.0],[14.9229,67.2438,0.0],[14.937,67.2484,0.0],[14.9411,67.2536,0.0],[14.9271,67.2542,0.0],[14.9167,67.25,0.0],[14.9068,67.2495,0.0],[14.9047,67.2464,0.0],[14.9078,67.2453,-0.6278],[14.9089,67.2422,0.0]]]]}
,"properties": {"GID_2": "NOR.10.32_1","GID_0": "NOR","country": "Norway","GID_1": "NOR.10_1","province": "Nordland","NL_NAME_1": "NA","county": "Skjerstad","VARNAME_2": "NA","NL_NAME_2": "NA","TYPE_2": "Kommuner","ENGTYPE_2": "Municipality","CC_2": "NA","HASC_2": "NO.NO.SK","name": "Skjerstad.county","area_km2": 491.2724,"hist_schema_id": "Elevation0-9000","hist_area_km2": {"0": 23.6503,"25": 9.6717,"50": 9.203,"75": 7.1417,"100": 7.4564,"125": 7.8604,"150": 8.029,"175": 10.8532,"200": 12.0879,"225": 10.0043,"250": 11.7214,"275": 12.7778,"300": 15.9488,"325": 16.1486,"350": 16.8041,"375": 21.488,"400": 31.1777,"425": 24.5943,"450": 26.4174,"475": 29.5025,"500": 24.422,"525": 23.6129,"550": 25.0082,"575": 22.9669,"600": 22.3739,"625": 18.8725,"650": 12.9751,"675": 8.6806,"700": 5.8605,"725": 3.4539,"750": 2.1848,"775": 2.6571,"800": 1.2957,"825": 0.8921,"850": 0.7684,"875": 0.504,"900": 0.3717,"925": 0.2313,"950": 0.3469,"975": 0.3552,"1000": 0.2644,"1025": 0.1239,"1050": 0.1735,"1075": 0.1405,"1100": 0.1404,"1125": 0.0578}}}