{"type":"Feature","properties":{"GID_2":"NOR.4.11_1","GID_0":"NOR","country":"Norway","GID_1":"NOR.4_1","province":"Buskerud","NL_NAME_1":"NA","county":"Krødsherad","VARNAME_2":"NA","NL_NAME_2":"NA","TYPE_2":"Kommuner","ENGTYPE_2":"Municipality","CC_2":"NA","HASC_2":"NO.BU.KR","name":"Krødsherad.county"},
"geometry":{"type": "MultiPolygon","coordinates": [[[[9.4562,60.2937,1367.1608],[9.4605,60.2804,1321.8726],[9.4695,60.2811,1306.478],[9.4709,60.2767,1369.665],[9.4799,60.2774,1347.0792],[9.4899,60.2464,1129.1886],[9.4989,60.2471,1193.4729],[9.5089,60.2161,783.0168],[9.5,60.2154,766.2209],[9.5086,60.1888,753.6473],[9.4996,60.1881,742.6874],[9.5025,60.1793,554.2669],[9.4936,60.1785,620.3951],[9.4964,60.1697,514.196],[9.4875,60.169,527.305],[9.4889,60.1645,481.6738],[9.4978,60.1653,586.1346],[9.4993,60.1608,466.0659],[9.5082,60.1615,498.2315],[9.5096,60.1571,467.9124],[9.5185,60.1578,486.5619],[9.52,60.1534,436.639],[9.5289,60.1541,469.0773],[9.5317,60.1452,377.3874],[9.5407,60.1459,368.027],[9.5421,60.1415,337.6263],[9.551,60.1422,328.7939],[9.5524,60.1378,221.4589],[9.5613,60.1385,215.3347],[9.5628,60.1341,239.381],[9.5717,60.1348,296.8661],[9.5731,60.1303,372.311],[9.582,60.131,421.6833],[9.5834,60.1266,430.5532],[9.5923,60.1273,507.1066],[9.5938,60.1229,478.0536],[9.6116,60.1243,506.1696],[9.613,60.1199,509.7613],[9.6219,60.1206,523.1147],[9.6233,60.1161,522.063],[9.6322,60.1168,488.8409],[9.6336,60.1124,475.7066],[9.6426,60.1131,384.6432],[9.644,60.1087,404.4271],[9.6529,60.1094,358.1803],[9.6543,60.1049,313.9613],[9.6632,60.1056,282.1927],[9.6646,60.1012,287.8678],[9.6735,60.1019,288.7876],[9.6749,60.0975,270.0929],[9.6838,60.0982,283.2859],[9.6852,60.0937,322.7737],[9.703,60.0951,425.5543],[9.7044,60.0907,427.6248],[9.7133,60.0914,442.1386],[9.7147,60.087,449.9045],[9.7236,60.0877,395.2101],[9.725,60.0832,385.1312],[9.7339,60.0839,376.8096],[9.7353,60.0795,334.6233],[9.7442,60.0802,332.6974],[9.7456,60.0758,304.1335],[9.7545,60.0764,299.6828],[9.7559,60.072,294.548],[9.7648,60.0727,293.3228],[9.7634,60.0771,316.9346],[9.7813,60.0785,352.4506],[9.7799,60.083,354.1926],[9.7888,60.0836,296.3633],[9.7874,60.0881,267.9833],[9.7963,60.0888,203.5235],[9.7949,60.0932,179.0005],[9.8038,60.0939,182.0878],[9.8024,60.0983,169.6117],[9.8203,60.0997,223.2715],[9.8189,60.1041,286.6536],[9.8278,60.1048,228.4005],[9.8264,60.1093,253.8779],[9.8353,60.11,294.7378],[9.8339,60.1144,290.5676],[9.8429,60.1151,300.9771],[9.8415,60.1195,393.9502],[9.8593,60.1209,354.3409],[9.8579,60.1253,402.8803],[9.8669,60.126,388.7455],[9.8655,60.1304,435.0468],[9.8744,60.1311,441.7781],[9.8716,60.14,498.043],[9.8806,60.1407,432.3355],[9.8682,60.1806,421.2202],[9.8592,60.1799,386.1228],[9.8578,60.1843,378.1393],[9.8489,60.1836,375.769],[9.8475,60.1881,356.3209],[9.8386,60.1874,380.282],[9.8372,60.1918,365.8888],[9.8283,60.1911,342.1972],[9.8269,60.1956,274.2827],[9.8179,60.1949,249.0703],[9.8166,60.1993,230.7952],[9.7987,60.1979,220.7266],[9.7973,60.2024,212.8184],[9.7883,60.2017,203.3547],[9.7856,60.2105,188.0163],[9.7766,60.2099,248.4236],[9.7738,60.2187,247.1682],[9.7649,60.218,316.2287],[9.7607,60.2313,421.2036],[9.7517,60.2306,574.9318],[9.7433,60.2572,437.8002],[9.7613,60.2586,405.1908],[9.7585,60.2675,462.9403],[9.7674,60.2682,356.1558],[9.766,60.2726,321.9552],[9.7571,60.2719,438.8499],[9.7557,60.2764,410.5193],[9.7467,60.2757,511.1402],[9.7453,60.2801,464.0907],[9.7363,60.2794,640.9199],[9.7335,60.2883,425.6237],[9.7246,60.2876,673.1568],[9.7218,60.2964,529.1546],[9.7128,60.2957,689.4402],[9.71,60.3046,604.4304],[9.701,60.3039,721.8735],[9.6982,60.3128,564.5084],[9.6085,60.3058,657.1559],[9.61,60.3013,496.6855],[9.592,60.2999,565.2227],[9.5906,60.3044,631.2983],[9.5458,60.3008,666.0603],[9.5444,60.3053,692.4244],[9.4816,60.3003,1119.6643],[9.4831,60.2959,1148.5227],[9.4562,60.2937,1367.1608]]]]}}