{"type": "Feature","bbox": [6.0854,60.1817,6.5343,60.3708],"geometry": {"type": "MultiPolygon","coordinates": [[[[6.3911,60.3603,531.7559],[6.3902,60.3625,547.7913],[6.3755,60.3651,272.9085],[6.3828,60.3682,0.0],[6.3729,60.3708,0.0],[6.3505,60.3703,0.0],[6.3484,60.3609,0.0],[6.3557,60.3578,85.5587],[6.3547,60.3484,0.0],[6.3646,60.3479,0.0],[6.3745,60.3422,0.0],[6.3625,60.3375,36.5693],[6.35,60.3375,0.0],[6.3474,60.3411,11.9035],[6.3443,60.3411,0.0],[6.3401,60.3391,0.0],[6.3432,60.337,0.0],[6.3432,60.3318,42.1617],[6.3339,60.3307,0.0],[6.3375,60.3271,20.061],[6.337,60.3214,155.4949],[6.3292,60.3208,99.1248],[6.3167,60.3146,0.0],[6.3083,60.3146,0.0],[6.3,60.3104,24.1157],[6.2922,60.3099,0.0],[6.2911,60.3068,0.0],[6.2854,60.3042,24.4477],[6.2813,60.3063,0.0],[6.2729,60.3063,0.0],[6.2688,60.3021,128.2436],[6.2542,60.3021,62.3433],[6.2443,60.2995,60.1292],[6.2417,60.2958,73.6789],[6.2276,60.2953,33.2044],[6.2255,60.2922,17.4947],[6.2354,60.2917,22.9314],[6.2453,60.287,40.0435],[6.2422,60.2839,0.0],[6.2453,60.2828,0.0],[6.2443,60.2797,0.0],[6.2474,60.2776,0.0],[6.2417,60.275,15.9116],[6.2375,60.2771,0.0],[6.2318,60.2745,0.0],[6.2349,60.2724,35.6635],[6.2328,60.2609,0.0],[6.2167,60.2562,122.7012],[6.2125,60.2562,74.5605],[6.2083,60.2583,0.0],[6.2026,60.2578,0.0],[6.2026,60.2505,0.0],[6.2047,60.2484,0.0],[6.2104,60.2479,116.4185],[6.212,60.2464,182.7812],[6.2005,60.2453,0.0],[6.1995,60.2401,8.6115],[6.1901,60.2391,0.0],[6.1901,60.2339,0.0],[6.1932,60.2328,0.0],[6.1943,60.2297,0.0],[6.1974,60.2276,45.5999],[6.1922,60.2266,0.0],[6.1875,60.2229,0.0],[6.188,60.2214,30.1554],[6.1938,60.2188,180.4911],[6.1979,60.2208,142.7342],[6.2021,60.2208,205.8466],[6.2036,60.2193,304.8015],[6.1818,60.2099,467.7766],[6.1786,60.2026,804.4625],[6.1589,60.2047,379.2179],[6.1599,60.2078,435.139],[6.1568,60.2099,128.9361],[6.1592,60.2125,47.9662],[6.1542,60.2146,0.0],[6.1458,60.2146,274.5391],[6.1375,60.2188,96.5431],[6.1208,60.2188,0.0],[6.1151,60.2161,0.0],[6.1141,60.213,15.2857],[6.1109,60.212,9.7693],[6.1078,60.2047,0.0],[6.1047,60.2036,0.0],[6.1036,60.1984,48.0443],[6.0943,60.1974,0.0],[6.0859,60.1932,0.0],[6.0854,60.1912,11.4817],[6.0923,60.1915,64.0259],[6.094,60.1875,41.0921],[6.0964,60.1873,113.6913],[6.1385,60.1918,674.8429],[6.1404,60.1874,607.3815],[6.1492,60.1883,563.6735],[6.1511,60.1839,583.9948],[6.1688,60.1858,566.5675],[6.1669,60.1902,630.3951],[6.1846,60.1921,733.3517],[6.1828,60.1964,697.0175],[6.2093,60.1992,882.0],[6.2074,60.2036,1010.9259],[6.2163,60.2046,1036.6198],[6.2201,60.1958,940.7399],[6.2112,60.1949,882.0],[6.2168,60.1817,1003.631],[6.2434,60.1845,923.5],[6.2415,60.1889,1085.4911],[6.2504,60.1898,1127.0153],[6.2485,60.1942,1166.3373],[6.2662,60.196,1075.8585],[6.2643,60.2004,1107.0],[6.2732,60.2014,983.4741],[6.2713,60.2057,1098.3528],[6.2979,60.2085,1227.9259],[6.2998,60.2041,1172.5957],[6.3441,60.2088,1034.7379],[6.3459,60.2044,1039.0969],[6.3903,60.209,1058.4562],[6.3921,60.2046,1194.9191],[6.4453,60.2101,1530.1727],[6.4471,60.2057,1546.907],[6.4649,60.2075,1618.7761],[6.463,60.2119,1613.8756],[6.4719,60.2128,1623.7322],[6.4701,60.2172,1594.6266],[6.4789,60.2181,1614.3011],[6.4771,60.2225,1585.6226],[6.486,60.2234,1581.8062],[6.4823,60.2322,1079.8499],[6.4645,60.2304,1143.9431],[6.4627,60.2348,1173.7507],[6.4716,60.2357,1151.226],[6.455,60.2752,1390.2742],[6.4638,60.2761,1273.5698],[6.4546,60.2981,1169.1362],[6.4635,60.299,1290.9243],[6.4653,60.2946,1209.469],[6.4831,60.2964,1188.771],[6.485,60.292,1096.3196],[6.5116,60.2948,1160.4749],[6.508,60.3035,1032.6948],[6.5168,60.3044,1208.3873],[6.5132,60.3132,1155.7273],[6.5221,60.3141,1276.6],[6.5184,60.3229,822.7581],[6.5273,60.3238,795.0],[6.5254,60.3282,856.0215],[6.5343,60.3291,989.3831],[6.527,60.3467,1242.0255],[6.5181,60.3458,1163.7512],[6.5162,60.3502,1111.8597],[6.4984,60.3483,964.6422],[6.4966,60.3527,1007.9233],[6.4877,60.3518,937.5983],[6.4895,60.3474,950.9017],[6.4806,60.3465,931.1095],[6.4824,60.3421,865.3894],[6.4735,60.3412,930.9259],[6.4754,60.3368,898.749],[6.4576,60.335,864.9515],[6.4557,60.3394,834.2076],[6.4468,60.3385,837.6469],[6.445,60.3429,718.7924],[6.4361,60.3419,698.8759],[6.4324,60.3507,617.3928],[6.4235,60.3498,544.8496],[6.4198,60.3586,306.0],[6.4109,60.3577,324.5054],[6.409,60.3621,284.7298],[6.3911,60.3603,531.7559]]],
[[[6.2604,60.3063,0.0],[6.2625,60.3083,0.0],[6.2604,60.3104,0.0],[6.2583,60.3083,0.0],[6.2604,60.3063,0.0]]]]}
,"properties": {"GID_2": "NOR.7.13_1","GID_0": "NOR","country": "Norway","GID_1": "NOR.7_1","province": "Hordaland","NL_NAME_1": "NA","county": "Jondal","VARNAME_2": "NA","NL_NAME_2": "NA","TYPE_2": "Kommuner","ENGTYPE_2": "Municipality","CC_2": "NA","HASC_2": "NO.HO.JO","name": "Jondal.county","area_km2": 227.3944,"hist_schema_id": "Elevation0-9000","hist_area_km2": {"0": 2.5535,"25": 2.9538,"50": 2.3019,"75": 3.3837,"100": 2.9839,"125": 3.0999,"150": 3.1839,"175": 3.1103,"200": 2.8998,"225": 3.0048,"250": 2.9211,"275": 2.858,"300": 4.152,"325": 4.0677,"350": 4.078,"375": 3.5628,"400": 4.2036,"425": 3.6367,"450": 5.1922,"475": 4.9208,"500": 5.0045,"525": 4.7725,"550": 4.9084,"575": 4.3103,"600": 4.1003,"625": 3.9333,"650": 3.9333,"675": 4.0072,"700": 4.7092,"725": 3.3858,"750": 4.038,"775": 4.3846,"800": 6.0012,"825": 5.4667,"850": 5.004,"875": 5.4154,"900": 5.2685,"925": 4.8184,"950": 7.0058,"975": 5.4802,"1000": 4.912,"1025": 5.5318,"1050": 8.9234,"1075": 5.134,"1100": 5.0403,"1125": 4.7461,"1150": 3.4516,"1175": 3.1255,"1200": 3.4204,"1225": 2.5891,"1250": 1.9787,"1275": 1.4628,"1300": 1.5048,"1325": 1.4416,"1350": 1.8941,"1375": 1.452,"1400": 0.9892,"1425": 0.6948,"1450": 0.6001,"1475": 0.537,"1500": 0.4107,"1525": 0.4739,"1550": 0.5266,"1575": 0.653,"1600": 0.7689,"1625": 0.1159}}}