{"type": "Feature","bbox": [7.1461,58.4943,7.6628,58.8687],"geometry": {"type": "MultiPolygon","coordinates": [[[[7.1499,58.8276,881.5962],[7.1516,58.8232,885.566],[7.1601,58.824,847.8022],[7.1617,58.8196,848.6508],[7.1703,58.8205,867.6255],[7.1719,58.8161,853.109],[7.1634,58.8152,847.0],[7.1651,58.8108,900.4048],[7.1565,58.81,849.163],[7.1582,58.8056,863.4973],[7.1497,58.8047,849.7316],[7.1547,58.7915,899.8358],[7.1461,58.7906,918.2148],[7.1544,58.7686,872.6538],[7.1629,58.7695,917.9883],[7.1745,58.7387,854.1606],[7.183,58.7396,880.2398],[7.1847,58.7352,851.9191],[7.1932,58.736,905.7927],[7.1965,58.7272,922.7041],[7.188,58.7264,849.1791],[7.1913,58.7175,847.6351],[7.1828,58.7167,784.4094],[7.1861,58.7079,771.8704],[7.1776,58.707,801.3733],[7.1809,58.6982,762.9977],[7.1724,58.6974,819.8033],[7.1773,58.6842,827.0061],[7.1688,58.6833,917.4489],[7.1771,58.6613,840.858],[7.1856,58.6621,754.9824],[7.1905,58.6489,804.1687],[7.2075,58.6507,740.4725],[7.2091,58.6463,734.083],[7.2176,58.6471,831.6255],[7.2226,58.6339,788.272],[7.2141,58.6331,708.1493],[7.2157,58.6287,663.1018],[7.2242,58.6295,779.8323],[7.2257999999999996,58.6251,647.6719],[7.2428,58.6268,719.1239],[7.2526,58.6004,799.2377],[7.2611,58.6013,802.4417],[7.2709,58.5749,649.5453],[7.2624,58.574,714.6085],[7.2673,58.5608,634.9672],[7.2588,58.5599,788.8149],[7.2621,58.5511,633.7791],[7.2706,58.552,584.2004],[7.2722,58.5476,637.7885],[7.2807,58.5484,595.9724],[7.2823,58.544,638.6898],[7.2908,58.5449,691.6696],[7.2924,58.5405,653.8071],[7.3009,58.5413,665.7321],[7.3057,58.5281,595.1617],[7.3142,58.529,592.285],[7.3174,58.5202,547.5787],[7.3259,58.521,589.5093],[7.3275,58.5166,507.3875],[7.3529,58.5192,264.4713],[7.3545,58.5148,349.5497],[7.3799,58.5173,350.4836],[7.3815,58.5129,355.3727],[7.3899,58.5138,387.7522],[7.3932,58.505,371.6859],[7.4016,58.5058,359.5592],[7.4032,58.5014,466.0356],[7.4117,58.5023,392.6922],[7.4132999999999996,58.4979,384.9938],[7.4218,58.4987,201.544],[7.4234,58.4943,177.8258],[7.4572,58.4977,254.9822],[7.4556,58.5021,275.5694],[7.464,58.5029,286.8428],[7.4624,58.5073,336.9248],[7.4709,58.5082,365.0034],[7.4693,58.5126,364.6359],[7.5031,58.516,416.8579],[7.5047,58.5116,436.9131],[7.5217,58.5132,477.5729],[7.5137,58.5353,514.8411],[7.5221,58.5361,505.4739],[7.5205,58.5405,507.2891],[7.5375,58.5422,485.9065],[7.5359,58.5466,541.5389],[7.5528,58.5483,510.0263],[7.5512,58.5527,522.2355],[7.5682,58.5544,406.4326],[7.5666,58.5588,425.3795],[7.592,58.5613,352.6602],[7.5904,58.5657,422.0591],[7.5989,58.5665,411.3615],[7.5957,58.5753,486.082],[7.6042,58.5762,444.3334],[7.601,58.585,507.1358],[7.6095,58.5858,538.9445],[7.6031,58.6034,491.3069],[7.5946,58.6026,428.0361],[7.5915,58.6114,397.8011],[7.583,58.6106,366.6904],[7.5814,58.615,385.8001],[7.5729,58.6142,463.0663],[7.5713,58.6186,450.4667],[7.5628,58.6177,518.2839],[7.5612,58.6221,392.3783],[7.5527,58.6213,529.0333],[7.5511,58.6257,460.0394],[7.5426,58.6249,593.5581],[7.5378,58.6381,579.5403],[7.5463,58.6389,621.6237],[7.5431,58.6477,643.9827],[7.5516,58.6486,561.1511],[7.5468,58.6618,601.446],[7.5553,58.6626,592.5317],[7.5505,58.6758,613.9539],[7.559,58.6767,579.9248],[7.5542,58.6899,671.203],[7.5712,58.6916,674.9562],[7.5696,58.696,568.0995],[7.5781,58.6968,409.3527],[7.5765,58.7012,379.5836],[7.5936,58.7029,576.6392],[7.592,58.7073,672.8955],[7.609,58.709,563.2379],[7.6074,58.7134,569.798],[7.6159,58.7142,569.0831],[7.6143,58.7186,588.1835],[7.6313,58.7203,734.2048],[7.6297,58.7247,742.6773],[7.6382,58.7255,728.5967],[7.6366,58.7299,653.6354],[7.6537,58.7316,563.7784],[7.6489,58.7448,697.3108],[7.6574,58.7457,630.4691],[7.6542,58.7545,610.8561],[7.6628,58.7553,661.0095],[7.658,58.7685,815.8905],[7.6495,58.7677,834.533],[7.6431,58.7853,842.0262],[7.6345,58.7845,773.1435],[7.6282,58.8021,637.1063],[7.6196,58.8013,783.5883],[7.6148,58.8145,646.0201],[7.6063,58.8137,787.9039],[7.5999,58.8313,912.8644],[7.5913,58.8305,911.1636],[7.5849,58.8481,868.1032],[7.5764,58.8473,837.9066],[7.5715,58.8605,919.1616],[7.5544,58.8588,782.2281],[7.5528,58.8632,804.0782],[7.5357,58.8615,675.7952],[7.5341,58.8659,668.5958],[7.517,58.8643,669.5823],[7.5154,58.8687,632.1117],[7.43,58.8602,844.9475],[7.4283,58.8646,892.6758],[7.2917,58.851,832.9654],[7.2933,58.8466,828.549],[7.2336,58.8406,945.8475],[7.2319,58.845,915.5467],[7.1636,58.8381,901.8274],[7.1653,58.8337,909.9724],[7.1568,58.8328,957.9584],[7.1584,58.8284,859.1375],[7.1499,58.8276,881.5962]]]]}
,"properties": {"GID_2": "NOR.18.1_1","GID_0": "NOR","country": "Norway","GID_1": "NOR.18_1","province": "Vest-Agder","NL_NAME_1": "NA","county": "Åseral","VARNAME_2": "NA","NL_NAME_2": "NA","TYPE_2": "Kommuner","ENGTYPE_2": "Municipality","CC_2": "NA","HASC_2": "NO.VA.AS","name": "Åseral.county","area_km2": 844.3274,"hist_schema_id": "Elevation0-9000","hist_area_km2": {"175": 0.8308,"200": 1.0411,"225": 2.6462,"250": 8.0623,"275": 9.3691,"300": 5.9896,"325": 8.3104,"350": 15.2961,"375": 16.8299,"400": 16.7758,"425": 18.4923,"450": 18.8162,"475": 18.8123,"500": 33.476,"525": 29.6012,"550": 27.6852,"575": 27.1089,"600": 31.8216,"625": 39.717,"650": 34.4727,"675": 37.7775,"700": 35.7207,"725": 42.5725,"750": 52.5275,"775": 55.3292,"800": 57.8157,"825": 51.573,"850": 43.3507,"875": 32.2682,"900": 26.0247,"925": 19.4621,"950": 13.16,"975": 7.6901,"1000": 3.2304,"1025": 0.6704}}}