{"type":"Feature","properties":{"GID_2":"NOR.6.19_1","GID_0":"NOR","country":"Norway","GID_1":"NOR.6_1","province":"Hedmark","NL_NAME_1":"NA","county":"Tolga","VARNAME_2":"NA","NL_NAME_2":"NA","TYPE_2":"Kommuner","ENGTYPE_2":"Municipality","CC_2":"NA","HASC_2":"NO.HE.TO","name":"Tolga.county"},
"geometry":{"type": "MultiPolygon","coordinates": [[[[11.6923,62.1764,1042.5546],[11.6911,62.1809,1033.3649],[11.6816,62.1803,939.1906],[11.6791,62.1892,938.2935],[11.6696,62.1887,925.1214],[11.6683,62.1931,952.2292],[11.6588,62.1926,956.3674],[11.6575,62.197,980.1469],[11.648,62.1964,981.8283],[11.6468,62.2009,1013.9318],[11.6372,62.2003,994.5988],[11.6335,62.2137,1076.0923],[11.6239,62.2131,1028.3257],[11.6227,62.2176,1063.5204],[11.6131,62.217,1133.2457],[11.6119,62.2214,1233.7776],[11.6023,62.2209,1147.0403],[11.6011,62.2253,1211.6329],[11.582,62.2242,1046.7925],[11.5807,62.2286,1052.201],[11.5712,62.2281,1089.9387],[11.5699,62.2325,1138.9297],[11.5604,62.2319,1304.01],[11.5591,62.2364,1360.2981],[11.5495,62.2358,1552.0278],[11.5483,62.2403,1479.4481],[11.5387,62.2397,1310.076],[11.5375,62.2441,1294.7477],[11.5279,62.2436,1222.1779],[11.5216,62.2658,1182.9733],[11.5121,62.2652,1338.0636],[11.5058,62.2875,1256.804],[11.4866,62.2863,1071.1898],[11.4854,62.2908,1071.0961],[11.4758,62.2902,974.7398],[11.4745,62.2947,946.3313],[11.4553,62.2935,911.4714],[11.4541,62.298,912.3157],[11.4445,62.2974,929.5154],[11.4432,62.3018,924.5612],[11.4336,62.3012,932.0399],[11.4324,62.3057,928.8369],[11.4228,62.3051,925.0076],[11.4215,62.3096,960.6951],[11.4119,62.309,947.7479],[11.4107,62.3134,969.7843],[11.4011,62.3128,957.227],[11.3998,62.3173,1007.4127],[11.3902,62.3167,904.1296],[11.3889,62.3211,986.6624],[11.3793,62.3206,846.8934],[11.3781,62.325,879.0135],[11.3589,62.3238,805.3372],[11.3576,62.3283,810.0287],[11.3384,62.3271,830.9499],[11.3371,62.3316,831.5683],[11.3467,62.3321,811.3503],[11.3429,62.3455,887.4315],[11.3525,62.3461,874.5817],[11.3473,62.3639,972.0995],[11.3377,62.3633,999.431],[11.3313,62.3855,1128.7747],[11.3217,62.385,1082.3553],[11.3152,62.4072,1337.9877],[11.3056,62.4066,1228.9282],[11.3043,62.4111,1274.3431],[11.2947,62.4105,1269.3817],[11.2934,62.4149,1365.7461],[11.2838,62.4143,1273.954],[11.2825,62.4188,1285.2014],[11.2729,62.4182,1291.6553],[11.2716,62.4226,1372.9933],[11.2619,62.422,1269.9794],[11.2606,62.4265,1370.9816],[11.2125,62.4235,1079.1074],[11.2112,62.4279,1061.3242],[11.192,62.4267,945.4318],[11.1933,62.4223,933.6979],[11.1741,62.4211,835.5043],[11.1754,62.4166,830.0889],[11.1369,62.4142,753.6274],[11.1356,62.4187,785.6948],[11.1164,62.4175,700.4123],[11.1151,62.4219,675.6265],[11.1054,62.4213,665.2521],[11.1028,62.4302,579.2159],[11.1124,62.4308,605.5187],[11.1111,62.4353,601.9094],[11.1207,62.4359,611.1407],[11.1154,62.4537,659.3291],[11.1058,62.4531,721.8668],[11.1045,62.4575,838.9918],[11.0852,62.4563,779.7291],[11.0865,62.4518,716.9628],[11.0577,62.45,770.5654],[11.0563,62.4545,733.4663],[11.0467,62.4539,777.4885],[11.044,62.4628,743.985],[11.0344,62.4621,762.4993],[11.0331,62.4666,746.5101],[11.0234,62.466,776.76],[11.0207,62.4749,742.063],[11.0111,62.4743,759.5233],[11.0071,62.4876,726.9846],[10.9782,62.4858,745.1823],[10.9809,62.4769,738.5587],[10.9616,62.4756,742.3049],[10.9603,62.4801,801.5115],[10.9506,62.4795,872.2247],[10.9466,62.4928,945.1519],[10.9369,62.4922,1045.0298],[10.9342,62.5011,1052.4016],[10.9246,62.5005,1147.2883],[10.9219,62.5093,1176.5969],[10.9122,62.5087,1119.2426],[10.9109,62.5132,1136.7469],[10.9012,62.5126,1091.8444],[10.8985,62.5215,1109.8502],[10.8889,62.5208,1062.286],[10.8862,62.5297,1020.5906],[10.8765,62.5291,997.0328],[10.8711,62.5469,996.9099],[10.8614,62.5463,1039.3844],[10.86,62.5507,1026.1368],[10.8504,62.5501,1062.9783],[10.849,62.5545,1079.2174],[10.8394,62.5539,1075.5244],[10.8366,62.5628,1099.0101],[10.827,62.5622,1105.8774],[10.8256,62.5666,1059.1185],[10.8159,62.566,1106.0756],[10.8146,62.5704,1088.1292],[10.8049,62.5698,1148.6277],[10.8035,62.5742,1126.6503],[10.7842,62.573,1119.5232],[10.7828,62.5774,1133.3807],[10.7732,62.5768,1099.2091],[10.7718,62.5813,1143.0292],[10.7525,62.58,1132.801],[10.7511,62.5844,1156.1304],[10.7317,62.5832,1190.4634],[10.7304,62.5876,1158.7495],[10.7014,62.5857,1098.7762],[10.7,62.5902,1095.5509],[10.6807,62.5889,1056.9418],[10.6793,62.5933,1069.6943],[10.6696,62.5927,1066.7476],[10.671,62.5883,1052.3809],[10.6613,62.5876,1036.8717],[10.6641,62.5787,985.7665],[10.6545,62.5781,953.5103],[10.6573,62.5692,947.5862],[10.6476,62.5686,961.3839],[10.6518,62.5552,1113.4203],[10.6422,62.5546,1077.6736],[10.6464,62.5413,1083.8138],[10.6367,62.5406,1141.8995],[10.6381,62.5362,1148.0752],[10.6285,62.5356,1125.0698],[10.6299,62.5311,1134.5938],[10.5528,62.526,1126.4814],[10.5513,62.5304,1113.1538],[10.5224,62.5285,1054.8322],[10.5238,62.5241,1032.9816],[10.5142,62.5234,985.6967],[10.5156,62.519,943.2411],[10.4963,62.5177,890.6724],[10.4992,62.5088,918.8902],[10.4896,62.5081,924.7542],[10.4938,62.4948,1037.1222],[10.5034,62.4955,968.6266],[10.5049,62.491,994.3045],[10.5145,62.4917,958.2397],[10.5159,62.4872,969.6579],[10.5352,62.4885,895.7212],[10.5366,62.4841,943.7548],[10.5462,62.4847,828.2373],[10.549,62.4758,817.9577],[10.5586,62.4765,848.5296],[10.5615,62.4676,872.073],[10.5711,62.4682,896.126],[10.5753,62.4549,925.5011],[10.5849,62.4556,944.2432],[10.5877,62.4467,849.1279],[10.5973,62.4473,843.1247],[10.6015,62.434,827.3951],[10.6207,62.4353,852.5958],[10.6221,62.4308,831.3282],[10.6414,62.4321,841.8236],[10.6497,62.4054,758.6265],[10.6593,62.4061,803.3696],[10.6607,62.4016,722.754],[10.6703,62.4023,740.9518],[10.6731,62.3934,689.5011],[10.7019,62.3953,725.2314],[10.7005,62.3997,714.238],[10.7101,62.4004,699.4559],[10.7115,62.3959,727.2172],[10.7211,62.3966,712.1531],[10.7225,62.3921,721.1498],[10.7321,62.3927,748.8043],[10.7334,62.3883,788.8663],[10.7526,62.3896,866.0928],[10.754,62.3851,944.0994],[10.7636,62.3857,945.3163],[10.765,62.3813,961.4812],[10.7746,62.3819,1013.5595],[10.776,62.3775,985.6745],[10.7856,62.3781,1011.0505],[10.7869,62.3737,950.1846],[10.7965,62.3743,922.9238],[10.7979,62.3699,882.8715],[10.8075,62.3705,846.2403],[10.8088,62.366,839.2259],[10.8184,62.3667,795.3574],[10.8198,62.3622,751.4711],[10.8294,62.3628,726.0544],[10.8321,62.354,690.7268],[10.8417,62.3546,697.3916],[10.8431,62.3501,648.6261],[10.8527,62.3508,655.4816],[10.8554,62.3419,543.4293],[10.9033,62.345,495.0743],[10.902,62.3494,490.0215],[10.9115,62.35,506.9645],[10.9129,62.3456,535.7493],[10.9417,62.3474,577.7505],[10.943,62.343,591.0008],[10.9622,62.3442,704.7722],[10.9675,62.3264,760.3243],[10.9771,62.3271,936.1523],[10.9798,62.3182,895.1617],[10.9894,62.3188,1092.2072],[11.0213,62.2121,936.6078],[11.05,62.2139,716.5525],[11.0486,62.2183,823.6347],[11.0582,62.2189,802.881],[11.0595,62.2145,714.2092],[11.0691,62.2151,712.041],[11.0704,62.2107,871.6006],[11.0895,62.2119,729.5065],[11.0908,62.2074,817.6797],[11.1004,62.208,744.8066],[11.1017,62.2036,803.8257],[11.1112,62.2042,767.7873],[11.1125,62.1997,755.1794],[11.1221,62.2004,822.7887],[11.1234,62.1959,780.744],[11.1425,62.1971,874.6212],[11.1412,62.2016,886.2809],[11.1603,62.2028,896.1976],[11.1616,62.1983,932.1938],[11.1711,62.1989,918.2803],[11.1724,62.1945,946.1019],[11.182,62.1951,944.7787],[11.1807,62.1995,932.7025],[11.1998,62.2007,1002.0115],[11.2011,62.1963,1019.9111],[11.2201,62.1975,1143.3489],[11.2189,62.2019,1130.3086],[11.2284,62.2025,1148.7422],[11.2271,62.207,1085.2625],[11.2462,62.2082,1087.9697],[11.2475,62.2037,1168.95],[11.257,62.2043,1097.8132],[11.2596,62.1954,1189.8982],[11.2692,62.196,1159.8712],[11.2705,62.1916,1224.3236],[11.28,62.1921,1123.579],[11.2813,62.1877,1140.8202],[11.2908,62.1883,1124.0194],[11.2921,62.1838,1150.1777],[11.3017,62.1844,1152.897],[11.3042,62.1755,1168.2449],[11.3138,62.1761,1179.9984],[11.3151,62.1717,1135.1536],[11.3246,62.1723,1132.2084],[11.3259,62.1678,1070.3177],[11.3354,62.1684,1135.1779],[11.3367,62.164,1147.355],[11.3462,62.1645,1254.0029],[11.3488,62.1556,1246.3569],[11.4156,62.1598,849.7806],[11.4143,62.1642,858.892],[11.4715,62.1677,1114.0906],[11.4728,62.1633,1101.5768],[11.4823,62.1638,1066.8264],[11.4836,62.1594,1116.3312],[11.4931,62.16,1089.9014],[11.4956,62.1511,1200.6753],[11.5052,62.1516,1212.8164],[11.5064,62.1472,1278.2461],[11.6114,62.1535,709.0],[11.6126,62.1491,718.91],[11.6603,62.1519,723.8632],[11.6591,62.1564,738.9289],[11.6686,62.1569,750.4103],[11.6674,62.1614,763.9468],[11.6769,62.1619,785.61],[11.6757,62.1664,810.1007],[11.6852,62.167,839.5005],[11.684,62.1714,890.5947],[11.6936,62.172,903.4587],[11.6923,62.1764,1042.5546]]]]}}