{"type": "Feature","bbox": [9.5848,61.8877,10.3849,62.4213],"geometry": {"type": "MultiPolygon","coordinates": [[[[10.3387,62.2755,855.0382],[10.333,62.2933,880.0531],[10.3234,62.2926,885.4911],[10.322,62.2971,925.4819],[10.3125,62.2964,937.5812],[10.311,62.3009,958.0892],[10.2823,62.2989,1015.7822],[10.278,62.3122,995.8354],[10.2684,62.3115,1031.2627],[10.267,62.316,1024.4299],[10.2479,62.3147,1197.3085],[10.2464,62.3191,1276.8833],[10.2177,62.3171,1484.0348],[10.2119,62.3349,1358.5813],[10.2215,62.3355,1256.826],[10.2171,62.3488,1318.0245],[10.2267,62.3495,1235.1831],[10.2224,62.3628,1215.2477],[10.2319,62.3635,1282.799],[10.2261,62.3812,1016.1773],[10.2166,62.3806,1037.5024],[10.2151,62.385,1036.4583],[10.1959,62.3837,1146.7515],[10.1945,62.3881,1198.5956],[10.1657,62.3861,1334.7463],[10.1613,62.3994,1351.4227],[10.1517,62.3987,1356.4587],[10.1503,62.4032,1360.2744],[10.1023,62.3998,1413.5907],[10.0994,62.4087,1176.0717],[10.0898,62.408,1136.2228],[10.0854,62.4213,1032.0341],[10.047,62.4186,980.3463],[10.0485,62.4142,1000.2025],[10.0101,62.4115,1108.9108],[10.0116,62.407,1091.8514],[9.9828,62.405,1214.6775],[9.9843,62.4006,1205.0978],[9.9459,62.3978,1408.4348],[9.9549,62.3712,1237.88],[9.9453,62.3705,1203.2893],[9.9483,62.3617,1186.4948],[9.9387,62.361,1192.3014],[9.9402,62.3565,1189.0593],[9.9307,62.3559,1152.7721],[9.9322,62.3514,1233.5991],[9.9034,62.3494,1021.0],[9.9049,62.3449,1021.0],[9.8858,62.3435,1024.5358],[9.8843,62.348,1054.1018],[9.8747,62.3473,1063.6427],[9.8732,62.3517,1107.3945],[9.8541,62.3503,1169.1069],[9.8526,62.3548,1209.3434],[9.843,62.3541,1210.6736],[9.8415,62.3585,1269.9794],[9.8319,62.3578,1255.4475],[9.8335,62.3534,1199.4167],[9.8239,62.3527,1121.0249],[9.8299,62.335,1035.4351],[9.8204,62.3343,1081.5662],[9.8294,62.3077,1029.6389],[9.8198,62.307,1057.3529],[9.8214,62.3026,1049.9885],[9.8118,62.3019,1090.7592],[9.8133,62.2974,1089.0115],[9.8038,62.2967,1121.7715],[9.8053,62.2923,1118.7042],[9.7957,62.2916,1123.4125],[9.7972,62.2872,1102.3785],[9.7877,62.2865,1106.7224],[9.7892,62.282,1107.9229],[9.7701,62.2806,1135.2238],[9.7716,62.2762,1105.1974],[9.7525,62.2748,1089.7788],[9.754,62.2704,1093.0536],[9.7445,62.2697,1060.7974],[9.746,62.2653,1064.6713],[9.7269,62.2639,1053.1583],[9.7285,62.2594,1019.653],[9.7189,62.2587,996.6147],[9.7204,62.2543,982.6729],[9.7109,62.2536,946.1946],[9.7124,62.2492,946.6203],[9.7029,62.2485,913.4006],[9.7059,62.2396,910.2026],[9.6964,62.2389,871.3384],[9.6979,62.2345,869.3394],[9.6884,62.2338,903.7053],[9.6914,62.2249,946.8149],[9.6819,62.2242,1026.639],[9.6834,62.2198,1006.4771],[9.6739,62.2191,1035.3069],[9.677,62.2102,970.1918],[9.6674,62.2095,945.6357],[9.669,62.2051,868.289],[9.6594,62.2044,877.408],[9.661,62.1999,846.1669],[9.6514,62.1992,842.9187],[9.653,62.1948,851.8646],[9.6435,62.1941,865.4816],[9.6419,62.1985,839.3737],[9.6229,62.1971,847.0198],[9.6214,62.2015,897.4847],[9.6118,62.2008,874.201],[9.6134,62.1964,869.6365],[9.5848,62.1943,970.8273],[9.5925,62.1721,1393.9396],[9.602,62.1728,1314.0602],[9.6035,62.1684,1421.5295],[9.6131,62.1691,1357.2399],[9.6161,62.1602,1361.9231],[9.6256,62.161,1346.0608],[9.6287,62.1521,1345.2113],[9.6382,62.1528,1325.6885],[9.6397,62.1484,1318.2169],[9.6492,62.1491,1281.0182],[9.6522,62.1402,1452.249],[9.6712,62.1416,1281.5509],[9.6728,62.1372,1323.7843],[9.6823,62.1379,1309.9083],[9.6838,62.1334,1298.5834],[9.7028,62.1349,1234.1693],[9.7043,62.1304,1237.9811],[9.7233,62.1318,1216.2024],[9.7248,62.1274,1197.9913],[9.7343,62.1281,1164.0897],[9.7358,62.1237,1214.028],[9.7548,62.125,1223.5312],[9.7563,62.1206,1303.5951],[9.7658,62.1213,1228.9191],[9.7673,62.1169,1267.6085],[9.7768,62.1176,1174.2471],[9.7783,62.1131,1161.0975],[9.7878,62.1138,1083.1522],[9.7893,62.1094,1086.8484],[9.8083,62.1108,1068.0862],[9.8098,62.1064,1101.8875],[9.8193,62.107,1045.5558],[9.8207,62.1026,1046.7638],[9.8302,62.1033,1043.7224],[9.8317,62.0989,1086.7256],[9.8507,62.1003,1114.5542],[9.8537,62.0914,1119.5811],[9.8632,62.0921,1135.2117],[9.8662,62.0832,1043.8553],[9.8756,62.0839,1083.0776],[9.8771,62.0795,1048.6298],[9.8866,62.0802,1076.183],[9.8896,62.0713,1038.0397],[9.8991,62.072,1006.8734],[9.902,62.0631,868.1506],[9.9115,62.0638,848.0929],[9.9174,62.046,903.0106],[9.889,62.044,1213.6808],[9.8905,62.0396,1141.5122],[9.8621,62.0375,1172.9701],[9.865,62.0286,1030.0858],[9.8556,62.0279,998.062],[9.8615,62.0102,988.6058],[9.852,62.0095,1003.9298],[9.8535,62.0051,1019.4341],[9.863,62.0058,1014.0794],[9.8704,61.9836,1201.6869],[9.8609,61.9829,1261.1112],[9.8654,61.9696,1376.0376],[9.8559,61.9689,1422.3412],[9.8604,61.9556,1646.6139],[9.8509,61.9549,1546.3369],[9.8554,61.9416,1942.3544],[9.8459,61.9409,1672.4976],[9.8504,61.9276,1435.0742],[9.8409,61.9269,1481.8577],[9.8439,61.9181,1733.4438],[9.8345,61.9174,1838.6727],[9.8389,61.9041,1707.9546],[9.8766,61.9068,1503.3193],[9.8781,61.9024,1869.5822],[9.9064,61.9045,1343.3253],[9.9079,61.9,1350.5817],[9.9267,61.9014,1618.5961],[9.9282,61.897,1771.9861],[9.9471,61.8983,1691.1312],[9.9485,61.8939,1769.8528],[9.9674,61.8953,1636.0841],[9.9688,61.8908,1520.6862],[9.9877,61.8922,1492.1107],[9.9892,61.8877,1384.9647],[10.008,61.8891,970.6588],[10.0066,61.8935,987.6445],[10.016,61.8942,926.9589],[10.0102,61.912,862.999],[10.029,61.9133,805.698],[10.0276,61.9178,796.2287],[10.0559,61.9198,705.4548],[10.0588,61.9109,743.8235],[10.0682,61.9116,704.8476],[10.0697,61.9072,732.0681],[10.0791,61.9078,703.1776],[10.0806,61.9034,718.8919],[10.09,61.9041,703.0435],[10.0886,61.9085,702.2151],[10.098,61.9092,825.5885],[10.0965,61.9136,945.2388],[10.106,61.9143,963.516],[10.1045,61.9187,1029.0717],[10.114,61.9194,972.4023],[10.1125,61.9238,1026.3528],[10.122,61.9245,1124.0393],[10.1177,61.9378,1197.2531],[10.1271,61.9385,1200.5396],[10.1242,61.9474,1294.1606],[10.1431,61.9487,1432.061],[10.1446,61.9443,1550.3208],[10.154,61.9449,1575.5067],[10.1526,61.9494,1470.5465],[10.162,61.95,1625.2712],[10.1577,61.9634,1581.5895],[10.1483,61.9627,1608.6582],[10.1468,61.9671,1480.1708],[10.1374,61.9665,1569.9207],[10.1359,61.9709,1478.3297],[10.1265,61.9702,1501.9534],[10.1221,61.9835,1326.4979],[10.1316,61.9842,1432.5372],[10.1273,61.9975,1407.5776],[10.1367,61.9982,1378.5139],[10.1338,62.0071,1422.0637],[10.1433,62.0077,1463.9547],[10.1404,62.0166,1309.9694],[10.1499,62.0173,1122.7915],[10.147,62.0262,1016.859],[10.1565,62.0268,1000.8784],[10.1536,62.0357,978.898],[10.1631,62.0364,1010.4778],[10.1602,62.0452,1324.7048],[10.1697,62.0459,1287.6816],[10.1668,62.0548,1141.4812],[10.1763,62.0555,1166.5259],[10.1748,62.0599,1145.7417],[10.1843,62.0606,1085.5535],[10.1829,62.065,1034.705],[10.1924,62.0657,1040.8826],[10.1909,62.0701,1055.1896],[10.2004,62.0708,1141.1855],[10.199,62.0752,1179.2339],[10.2085,62.0759,1184.3364],[10.207,62.0803,1145.8901],[10.2165,62.081,1169.3676],[10.2151,62.0854,1214.3936],[10.2246,62.0861,1222.6869],[10.2231,62.0905,1129.3076],[10.2421,62.0919,1124.7456],[10.2407,62.0963,1086.7222],[10.2502,62.097,1048.4507],[10.2488,62.1014,925.9581],[10.2678,62.1027,926.2593],[10.2649,62.1116,920.6818],[10.2744,62.1123,925.6791],[10.273,62.1167,1024.708],[10.2825,62.1174,1008.2931],[10.2796,62.1262,1151.9543],[10.2891,62.1269,1097.3422],[10.2877,62.1313,1043.5016],[10.2972,62.132,1071.2759],[10.2958,62.1364,1003.683],[10.3053,62.1371,1087.7739],[10.3039,62.1415,1071.28],[10.3134,62.1422,1044.3727],[10.3105,62.1511,977.6944],[10.32,62.1517,927.5934],[10.3186,62.1562,909.9716],[10.3281,62.1568,940.3714],[10.3267,62.1613,885.5659],[10.3362,62.1619,922.2711],[10.3334,62.1708,918.8685],[10.3429,62.1715,1013.1027],[10.3415,62.1759,844.5571],[10.351,62.1766,819.0757],[10.3496,62.181,784.906],[10.3591,62.1817,824.42],[10.3577,62.1861,744.4465],[10.3767,62.1874,719.4878],[10.3753,62.1918,658.0305],[10.3849,62.1925,646.4642],[10.3763,62.2191,666.9623],[10.3668,62.2185,646.3888],[10.364,62.2274,689.6517],[10.3449,62.2261,764.7467],[10.3406,62.2394,791.9666],[10.3311,62.2387,798.1365],[10.3253,62.2565,827.4967],[10.3349,62.2571,816.007],[10.3335,62.2616,831.2175],[10.343,62.2622,838.5029],[10.3387,62.2755,855.0382]]]]}
,"properties": {"GID_2": "NOR.6.7_1","GID_0": "NOR","country": "Norway","GID_1": "NOR.6_1","province": "Hedmark","NL_NAME_1": "NA","county": "Folldal","VARNAME_2": "NA","NL_NAME_2": "NA","TYPE_2": "Kommuner","ENGTYPE_2": "Municipality","CC_2": "NA","HASC_2": "NO.HE.FO","name": "Folldal.county","area_km2": 1261.4387,"hist_schema_id": "Elevation0-9000","hist_area_km2": {"550": 0.1582,"575": 0.9394,"600": 1.2163,"625": 1.3053,"650": 6.6981,"675": 14.943,"700": 22.4268,"725": 24.474,"750": 27.1565,"775": 34.9519,"800": 33.4657,"825": 31.6627,"850": 35.3018,"875": 48.8225,"900": 46.6682,"925": 52.9022,"950": 54.1648,"975": 59.2896,"1000": 63.4077,"1025": 72.1275,"1050": 63.7659,"1075": 56.0504,"1100": 56.6519,"1125": 55.5377,"1150": 50.2266,"1175": 46.5374,"1200": 41.0776,"1225": 36.2573,"1250": 30.989,"1275": 25.9559,"1300": 22.5266,"1325": 20.6053,"1350": 18.399,"1375": 15.842,"1400": 14.1704,"1425": 12.533,"1450": 10.9938,"1475": 10.0066,"1500": 7.9492,"1525": 6.4313,"1550": 4.8186,"1575": 3.7797,"1600": 3.5352,"1625": 2.3567,"1650": 1.9549,"1675": 1.2968,"1700": 1.257,"1725": 1.2071,"1750": 1.0973,"1775": 0.9876,"1800": 0.7282,"1825": 0.7083,"1850": 0.5786,"1875": 0.3991,"1900": 0.3492,"1925": 0.3193,"1950": 0.3192,"1975": 0.3093,"2000": 0.2394,"2025": 0.1996,"2050": 0.1497,"2075": 0.0898,"2100": 0.0798,"2125": 0.0499,"2150": 0.0299,"2175": 0.01}}}