{"type": "Feature","bbox": [10.9793,60.7591,11.2784,61.2193],"geometry": {"type": "MultiPolygon","coordinates": [[[[11.0055,61.2187,906.8198],[11.008,61.2098,907.0215],[10.9988,61.2092,898.9235],[11.0306,61.0981,570.8204],[11.0398,61.0987,591.471],[11.0423,61.0898,620.6158],[11.0516,61.0904,624.1478],[11.0541,61.0815,629.209],[11.0633,61.0821,627.7469],[11.0658,61.0732,628.1215],[11.075,61.0738,630.6609],[11.0763,61.0694,632.4592],[11.0855,61.07,623.9474],[11.088,61.0611,627.0261],[11.0972,61.0617,628.7227],[11.101,61.0483,641.5366],[11.1102,61.0489,646.0555],[11.1202,61.0134,642.2222],[11.111,61.0128,637.3211],[11.1135,61.0039,645.2649],[11.1043,61.0033,637.8761],[11.1056,60.9988,635.0501],[11.0964,60.9982,635.9623],[11.0989,60.9893,638.0071],[11.0897,60.9887,628.0951],[11.091,60.9843,624.8016],[11.0818,60.9837,587.0702],[11.0868,60.9659,596.527],[11.0776,60.9653,611.9589],[11.0876,60.9297,565.2127],[11.0785,60.9291,569.7621],[11.0885,60.8935,472.4537],[11.0976,60.8941,445.2257],[11.0989,60.8897,429.1233],[11.108,60.8903,407.7894],[11.1142,60.868,285.1823],[11.1051,60.8674,310.1315],[11.1076,60.8585,242.2478],[11.0984,60.8579,242.0091],[11.0997,60.8535,211.4892],[11.0814,60.8523,198.1404],[11.0826,60.8478,177.083],[11.0735,60.8472,165.7151],[11.0785,60.8294,156.605],[11.0694,60.8288,177.6746],[11.0706,60.8244,198.0427],[11.0615,60.8238,215.1284],[11.0627,60.8193,229.2264],[11.0536,60.8187,228.5053],[11.0523,60.8232,268.9063],[11.0432,60.8226,268.8055],[11.042,60.827,269.6378],[11.0237,60.8258,220.8772],[11.0249,60.8213,195.1908],[10.9793,60.8183,119.5],[10.9818,60.8094,119.5],[10.9909,60.81,119.5],[10.9947,60.7967,119.5],[11.0038,60.7973,119.5],[11.0063,60.7884,119.5],[11.0155,60.789,119.5],[11.018,60.7801,119.5],[11.0271,60.7807,119.5],[11.0321,60.7629,119.5],[11.0412,60.7635,119.5],[11.0425,60.7591,119.5],[11.0516,60.7597,119.5],[11.0503,60.7641,119.5],[11.0594,60.7647,119.5],[11.0582,60.7692,119.5],[11.0673,60.7698,119.5],[11.0661,60.7742,119.5],[11.0843,60.7755,125.3732],[11.0831,60.7799,119.5],[11.0922,60.7805,119.5],[11.0909,60.785,119.5],[11.1092,60.7862,128.3878],[11.108,60.7906,120.033],[11.1262,60.7918,123.043],[11.1274,60.7874,141.9502],[11.1366,60.788,128.0205],[11.1378,60.7835,148.231],[11.1561,60.7847,128.468],[11.1585,60.7758,190.5731],[11.1677,60.7764,156.6962],[11.1701,60.7675,226.2778],[11.1792,60.7681,203.9958],[11.1805,60.7637,221.1926],[11.1987,60.7649,164.6358],[11.1975,60.7693,152.0564],[11.2157,60.7705,144.0301],[11.2145,60.775,154.6375],[11.2236,60.7756,155.5617],[11.2224,60.78,164.9892],[11.2315,60.7806,170.986],[11.2303,60.7851,186.1903],[11.2394,60.7856,173.295],[11.2321,60.8123,218.4472],[11.2412,60.8129,222.9061],[11.24,60.8174,224.3893],[11.2491,60.818,226.6422],[11.2479,60.8224,229.1839],[11.257,60.823,244.1781],[11.2558,60.8275,245.1552],[11.265,60.8281,243.3058],[11.2625,60.837,265.4097],[11.2717,60.8376,269.5878],[11.2692,60.8465,290.2689],[11.2784,60.847,285.0181],[11.2698,60.8782,364.8112],[11.2607,60.8776,368.4178],[11.2545,60.8998,501.1978],[11.2454,60.8992,509.9479],[11.2405,60.917,581.9208],[11.2313,60.9164,610.2473],[11.2264,60.9342,669.3444],[11.2172,60.9336,692.8706],[11.216,60.9381,719.4982],[11.2251,60.9387,681.3392],[11.219,60.9609,685.6797],[11.2282,60.9615,687.0291],[11.222,60.9838,678.071],[11.2312,60.9844,689.5166],[11.225,61.0066,681.4681],[11.2342,61.0072,678.5416],[11.228,61.0294,744.3437],[11.2372,61.03,748.9055],[11.2323,61.0478,694.0612],[11.2415,61.0484,676.3632],[11.239,61.0573,667.7054],[11.2298,61.0567,673.8259],[11.2286,61.0612,634.4531],[11.2194,61.0606,671.3856],[11.2181,61.065,636.4111],[11.2089,61.0644,666.0958],[11.2077,61.0689,628.9354],[11.1985,61.0683,643.0121],[11.1972,61.0727,612.9991],[11.188,61.0721,617.1768],[11.1868,61.0766,590.762],[11.1776,61.076,593.4086],[11.1763,61.0804,590.1447],[11.1671,61.0798,563.7443],[11.1659,61.0843,540.2927],[11.1566,61.0837,578.2595],[11.1554,61.0881,569.2991],[11.1462,61.0875,601.5228],[11.1412,61.1053,517.5842],[11.132,61.1047,543.2943],[11.1282,61.1181,611.6107],[11.119,61.1175,617.033],[11.1152,61.1308,689.291],[11.106,61.1302,692.5397],[11.1022,61.1435,749.2923],[11.093,61.1429,761.166],[11.0892,61.1563,792.192],[11.08,61.1557,804.3626],[11.0762,61.169,820.3499],[11.0669,61.1684,838.6705],[11.0644,61.1773,851.1337],[11.0552,61.1767,859.12],[11.0514,61.19,866.0535],[11.0421,61.1894,881.0272],[11.0383,61.2028,880.6396],[11.0291,61.2022,887.2288],[11.0265,61.211,878.1403],[11.0173,61.2104,893.0912],[11.0147,61.2193,880.8752],[11.0055,61.2187,906.8198]]]]}
,"properties": {"GID_2": "NOR.6.9_1","GID_0": "NOR","country": "Norway","GID_1": "NOR.6_1","province": "Hedmark","NL_NAME_1": "NA","county": "Hamar","VARNAME_2": "NA","NL_NAME_2": "NA","TYPE_2": "Kommuner","ENGTYPE_2": "Municipality","CC_2": "NA","HASC_2": "NO.HE.HA","name": "Hamar.county","area_km2": 350.519,"hist_schema_id": "Elevation0-9000","hist_area_km2": {"125": 24.551,"150": 17.2,"175": 16.0084,"200": 12.0648,"225": 14.3452,"250": 9.6285,"275": 7.5919,"300": 9.2625,"325": 8.3305,"350": 4.3345,"375": 3.3123,"400": 2.7342,"425": 2.7853,"450": 2.8973,"475": 3.8748,"500": 6.0053,"525": 7.1016,"550": 9.2497,"575": 17.2167,"600": 30.7019,"625": 34.7175,"650": 25.8111,"675": 23.0785,"700": 13.5482,"725": 9.9801,"750": 6.826,"775": 3.8436,"800": 3.2352,"825": 4.7671,"850": 5.9209,"875": 5.0996,"900": 4.372,"925": 0.1226}}}