{"type":"Feature","properties":{"GID_2":"NOR.4.12_1","GID_0":"NOR","country":"Norway","GID_1":"NOR.4_1","province":"Buskerud","NL_NAME_1":"NA","county":"Lier","VARNAME_2":"NA","NL_NAME_2":"NA","TYPE_2":"Kommuner","ENGTYPE_2":"Municipality","CC_2":"NA","HASC_2":"NO.BU.LI","name":"Lier.county"},
"geometry":{"type": "MultiPolygon","coordinates": [[[[10.3599,59.909,359.8668],[10.3586,59.9134,397.4829],[10.3675,59.9141,412.4837],[10.3662,59.9185,388.2317],[10.3751,59.9192,402.959],[10.3725,59.928,397.5266],[10.3636,59.9274,342.0223],[10.3597,59.9407,389.8115],[10.3508,59.9401,374.372],[10.3469,59.9534,347.4277],[10.338,59.9527,276.9896],[10.3367,59.9572,207.4932],[10.3278,59.9565,62.0],[10.3265,59.9609,75.5127],[10.3177,59.9603,62.0],[10.3163,59.9647,62.0],[10.2986,59.9634,62.0],[10.2959,59.9723,62.0],[10.1893,59.9644,575.3174],[10.1907,59.9599,543.0061],[10.1818,59.9593,567.472],[10.1844,59.9504,519.9935],[10.1756,59.9497,498.6514],[10.1769,59.9453,476.9969],[10.168,59.9446,534.1554],[10.1693,59.9402,430.5907],[10.1072,59.9355,497.4338],[10.1179,59.9,459.3408],[10.109,59.8993,484.8882],[10.1117,59.8905,466.4647],[10.094,59.8891,494.6507],[10.0953,59.8847,429.663],[10.0776,59.8834,404.9936],[10.0789,59.8789,379.9352],[10.0701,59.8782,360.0],[10.0714,59.8738,360.0],[10.0625,59.8731,361.0267],[10.0652,59.8643,360.0],[10.0564,59.8636,360.0],[10.0617,59.8458,414.925],[10.0706,59.8465,483.825],[10.0732,59.8376,520.0638],[10.0821,59.8383,568.2835],[10.0887,59.8161,442.2323],[10.0976,59.8168,428.0529],[10.0989,59.8124,439.8557],[10.1166,59.8137,507.0338],[10.1179,59.8093,508.7469],[10.1356,59.8106,515.6485],[10.1383,59.8017,544.1313],[10.1471,59.8024,538.2977],[10.1484,59.798,520.5713],[10.1573,59.7986,482.2086],[10.1599,59.7897,474.2041],[10.1776,59.7911,293.9976],[10.1789,59.7866,274.8891],[10.1877,59.7873,235.05],[10.189,59.7829,193.5376],[10.1979,59.7835,205.1046],[10.2031,59.7658,248.1092],[10.212,59.7664,194.9124],[10.2146,59.7576,241.091],[10.2234,59.7582,111.7732],[10.2247,59.7538,84.0444],[10.2336,59.7544,52.6465],[10.2349,59.75,34.0648],[10.2437,59.7507,13.8258],[10.245,59.7462,5.8177],[10.2475,59.7464,0.761],[10.2452,59.7451,0.0],[10.2525,59.7457,1.1043],[10.2569,59.7443,0.0],[10.2564,59.7493,1.5802],[10.2597,59.751,2.6521],[10.2658,59.7501,0.5101],[10.2658,59.7474,1.4014],[10.2681,59.7465,0.0],[10.2786,59.7482,0.8319],[10.2864,59.7468,0.2187],[10.2858,59.7385,0.0],[10.2908,59.736,0.9694],[10.2947,59.7382,0.0],[10.3009,59.7382,0.9407],[10.3019,59.7368,2.0998],[10.3003,59.7357,2.0998],[10.3003,59.7321,2.712],[10.3036,59.724,0.0],[10.3103,59.7249,3.7835],[10.3108,59.7226,2.4058],[10.3152,59.7207,3.7619],[10.3146,59.7242,15.1271],[10.3234,59.7249,56.5141],[10.3091,59.7737,241.4069],[10.318,59.7743,234.0689],[10.3167,59.7788,273.7156],[10.3255,59.7794,216.8164],[10.3229,59.7883,227.2577],[10.3317,59.789,272.3623],[10.3304,59.7934,279.9334],[10.3393,59.7941,290.7741],[10.3354,59.8074,200.997],[10.3442,59.808,193.8288],[10.3403,59.8214,216.7823],[10.3492,59.822,203.14],[10.3466,59.8309,250.1616],[10.3377,59.8302,252.6313],[10.3247,59.8746,310.3374],[10.3424,59.8759,294.9631],[10.3411,59.8804,298.0194],[10.35,59.881,329.4597],[10.3487,59.8855,388.3133],[10.3576,59.8861,368.1589],[10.3511,59.9083,354.6472],[10.3599,59.909,359.8668]]]]}}