{"type":"Feature","properties":{"GID_2":"NOR.7.20_1","GID_0":"NOR","country":"Norway","GID_1":"NOR.7_1","province":"Hordaland","NL_NAME_1":"NA","county":"Odda","VARNAME_2":"NA","NL_NAME_2":"NA","TYPE_2":"Kommuner","ENGTYPE_2":"Municipality","CC_2":"NA","HASC_2":"NO.HO.OD","name":"Odda.county"},
"geometry":{"type": "MultiPolygon","coordinates": [[[[6.5333,59.8437,1077.0345],[6.5351,59.8393,1036.813],[6.5526,59.8411,1035.8451],[6.5544,59.8367,1074.5446],[6.5632,59.8377,1180.0222],[6.565,59.8333,1178.5123],[6.5825,59.8351,1151.9026],[6.5843,59.8307,1151.6195],[6.6721,59.8397,1067.9969],[6.6756,59.8309,1109.3417],[6.6844,59.8318,1062.3064],[6.6915,59.8142,1028.6145],[6.6828,59.8133,1025.5],[6.6863,59.8046,1063.5603],[6.6776,59.8037,1025.5],[6.6794,59.7993,1041.5286],[6.6706,59.7984,1055.4882],[6.6849,59.7632,1061.9597],[6.6761,59.7623,951.5565],[6.6797,59.7535,996.6874],[6.6709,59.7526,931.8957],[6.6745,59.743899999999996,894.7279],[6.6658,59.743,871.1824],[6.6675,59.7386,932.1585],[6.6588,59.7377,948.7713],[6.6624,59.7289,923.66],[6.6536,59.728,887.534],[6.6554,59.7236,827.9359],[6.6466,59.7227,921.345],[6.652,59.7095,987.8223],[6.6607,59.7104,950.606],[6.6625,59.706,894.1492],[6.6713,59.7069,931.5715],[6.673,59.7025,991.809],[6.6818,59.7034,1064.6292],[6.6836,59.699,1027.0785],[6.6923,59.6999,1057.2734],[6.6941,59.6955,1050.0391],[6.7727,59.7036,932.3458],[6.771,59.708,1035.7458],[6.7884,59.7098,1101.0066],[6.7867,59.7142,1181.3632],[6.8042,59.7159,1167.313],[6.8024,59.7203,1106.3276],[6.8111,59.7212,1418.2744],[6.8094,59.7256,1348.3138],[6.8269,59.7274,1417.5483],[6.8251,59.7318,1419.8572],[6.8426,59.7336,1488.623],[6.8409,59.738,1435.9065],[6.9021,59.7442,1557.5599],[6.9004,59.7486,1556.6071],[6.9266,59.7512,1574.5775],[6.9249,59.7556,1559.7809],[6.9424,59.7574,1484.704],[6.9407,59.7618,1461.51],[6.9669,59.7644,1221.5565],[6.9652,59.7688,1200.2579],[6.9915,59.7714,1385.207],[6.9897,59.7758,1341.0375],[7.0423,59.7811,1356.0129],[7.0441,59.7767,1356.759],[7.0879,59.7811,1571.5004],[7.0967,59.7819,1567.1427],[7.095,59.7863,1610.4156],[7.1125,59.7881,1533.5585],[7.1108,59.7925,1466.0975],[7.1195,59.7933,1428.4507],[7.1178,59.7977,1438.5206],[7.1266,59.7986,1438.113],[7.1249,59.803,1290.3209],[7.1424,59.8047,1305.0299],[7.1407,59.8092,1253.7947],[7.1495,59.81,1204.7131],[7.146,59.8188,1030.0621],[7.1548,59.8197,1012.589],[7.1531,59.8241,967.1107],[7.1619,59.825,978.5002],[7.1567,59.8382,970.5154],[7.1479,59.8373,971.912],[7.1427,59.8505,1015.1988],[7.1515,59.8513,1053.4194],[7.1446,59.868899999999996,1546.2965],[7.1534,59.8698,1272.0498],[7.1482,59.883,1334.9254],[7.157,59.8839,1576.8693],[7.1536,59.8927,1582.9802],[7.1624,59.8936,1515.2903],[7.1606,59.8979,1515.0343],[7.1694,59.8988,1544.9137],[7.166,59.9076,1629.0607],[7.1748,59.9085,1284.9176],[7.1731,59.9129,1265.8916],[7.1819,59.9137,1261.3435],[7.1784,59.9226,1343.6201],[7.1872,59.9234,1380.9199],[7.1855,59.9278,1413.2462],[7.1943,59.9287,1384.4805],[7.1909,59.9375,1419.9634],[7.1997,59.9383,1450.6167],[7.1979,59.9427,1439.4653],[7.2068,59.9436,1355.9692],[7.205,59.948,1406.4087],[7.2138,59.9489,1238.9125],[7.2121,59.9533,1263.4611],[7.2209,59.9541,1248.0535],[7.2192,59.9585,1265.9541],[7.228,59.9594,1447.1465],[7.2263,59.9638,1451.1243],[7.244,59.9655,1346.3127],[7.2422,59.9699,1331.3873],[7.2511,59.9708,1337.9678],[7.2493,59.9752,1229.4788],[7.267,59.9769,1163.0645],[7.2653,59.9813,1161.6176],[7.2741,59.9822,1167.6733],[7.2724,59.9866,1171.02],[7.3165,59.9909,1258.5083],[7.3182,59.9865,1254.7765],[7.3359,59.9882,1264.3445],[7.3342,59.9926,1254.8672],[7.3607,59.9951,1299.3881],[7.359,59.9995,1294.0773],[7.3678,60.0004,1334.0015],[7.3661,60.0048,1295.597],[7.3572,60.0039,1270.3838],[7.3555,60.0084,1271.1963],[7.3467,60.0075,1270.954],[7.345,60.0119,1280.3125],[7.3362,60.011,1381.5033],[7.3344,60.0154,1327.6149],[7.2991,60.012,1255.2653],[7.3008,60.0076,1269.8534],[7.2655,60.0042,1277.9426],[7.2666,60.0013,1296.5994],[7.2575,60.0013,1361.048],[7.2567,60.0033,1355.6377],[7.239,60.0016,1355.5432],[7.2373,60.006,1330.1202],[7.2196,60.0043,1431.226],[7.2179,60.0087,1401.3265],[7.2002,60.0069,1377.4355],[7.1985,60.0113,1358.3634],[7.1897,60.0105,1432.5173],[7.1879,60.0149,1421.9563],[7.1703,60.0131,1523.5154],[7.1685,60.0176,1518.3127],[7.1509,60.0158,1391.0332],[7.1491,60.0202,1444.0675],[7.1315,60.0185,1554.3225],[7.1297,60.0229,1465.7991],[7.1209,60.022,1551.6527],[7.1192,60.0264,1485.7932],[7.1103,60.0255,1535.7666],[7.1068,60.0343,1399.3193],[7.0892,60.0326,1387.4989],[7.0839,60.0458,1333.3497],[7.0928,60.0467,1291.3177],[7.0805,60.0775,1335.9164],[7.0788,60.0819,1406.8295],[7.0699,60.081,1487.8107],[7.0629,60.0986,1412.8945],[7.0452,60.0968,1386.1122],[7.0435,60.1012,1459.6947],[7.0258,60.0995,1474.6624],[7.024,60.1039,1418.4015],[7.0063,60.1021,1502.6277],[7.0045,60.1065,1372.6169],[6.9868,60.1048,1313.4269],[6.9851,60.1092,1255.5],[6.9585,60.1065,1255.5],[6.9567,60.1109,1255.5],[6.9036,60.1056,1279.9851],[6.9001,60.1144,1364.5245],[6.8912,60.1135,1360.304],[6.8895,60.1179,1425.3506],[6.8806,60.117,1386.3997],[6.8788,60.1214,1485.0051],[6.87,60.1205,1485.5345],[6.8664,60.1293,1521.8875],[6.8575,60.1284,1555.0765],[6.8558,60.1328,1527.0781],[6.8469,60.132,1506.6577],[6.8451,60.1363,1409.756],[6.8363,60.1355,1363.8843],[6.8327,60.1442,1351.9863],[6.8238,60.1434,1325.4122],[6.822,60.1478,1330.4442],[6.8132,60.1469,1322.0073],[6.8114,60.1513,1271.6632],[6.8025,60.1504,1270.2786],[6.799,60.1592,1319.1097],[6.7901,60.1583,1342.249],[6.7883,60.1627,1352.8917],[6.7794,60.1618,1357.9121],[6.7776,60.1662,1356.4385],[6.7688,60.1653,1366.6766],[6.7652,60.1741,1399.9377],[6.7563,60.1732,1425.8534],[6.7545,60.1776,1440.29],[6.7456,60.1767,1399.0383],[6.7438,60.1811,1240.9861],[6.6907,60.1757,1097.0],[6.6889,60.1801,1097.0],[6.6445,60.1756,1368.634],[6.6002,60.171,801.0084],[6.6021,60.1667,726.5701],[6.5748,60.1639,0.0],[6.5729,60.1604,0.0],[6.5729,60.1542,19.7897],[6.5693,60.1401,0.0],[6.5766,60.137,259.7912],[6.5766,60.1339,492.9855],[6.5667,60.1333,282.6847],[6.5589,60.1286,127.8979],[6.5578,60.1255,111.5275],[6.5547,60.1245,0.0],[6.5578,60.1224,90.5371],[6.5563,60.1188,16.5391],[6.5568,60.1151,48.2578],[6.5625,60.1146,57.3645],[6.5667,60.1167,87.2052],[6.5708,60.1167,114.4307],[6.575,60.1146,191.3349],[6.5875,60.1188,235.9975],[6.5917,60.1167,393.1858],[6.6,60.1167,618.8326],[6.6016,60.1151,782.3961],[6.5958,60.1125,957.08989999999994],[6.5833,60.1125,649.5024],[6.5792,60.1104,837.7611],[6.5604,60.1104,367.6075],[6.5547,60.1078,0.0],[6.5536,60.1026,129.3216],[6.5437,60.0958,0.0],[6.5474,60.0932,13.5519],[6.5495,60.0891,34.7034],[6.5464,60.0859,0.0],[6.5495,60.0849,0.0],[6.5521,60.0771,0.0],[6.5516,60.0714,8.1458],[6.5458,60.0708,0.0],[6.5318,60.0776,0.0],[6.5297,60.0807,10.0526],[6.537,60.0859,1.7584],[6.5396,60.0917,0.0],[6.5313,60.0979,4.6987],[6.5339,60.1036,0.0],[6.5411,60.1089,0.0],[6.5391,60.112,0.0],[6.5359,60.113,168.6411],[6.5354,60.1188,37.6252],[6.538,60.1245,0.0],[6.5417,60.1271,0.0],[6.538,60.1307,169.2647],[6.5396,60.1333,0.0],[6.5401,60.1411,18.6687],[6.5422,60.1453,6.9521],[6.5453,60.1464,0.0],[6.5417,60.15,84.5684],[6.5443,60.1536,191.3106],[6.5474,60.1547,93.3333],[6.5443,60.1578,95.9437],[6.5474,60.1589,9.8017],[6.55,60.1646,0.0],[6.5495,60.1682,0.0],[6.5458,60.1708,55.0468],[6.5464,60.1724,60.2518],[6.5495,60.1729,0.0],[6.5497,60.175,0.0],[6.5346,60.1735,311.0154],[6.5327,60.1779,199.7688],[6.5239,60.177,405.7356],[6.5202,60.1857,797.0908],[6.5114,60.1848,761.7151],[6.5003,60.2112,1534.9528],[6.4915,60.2103,1567.7086],[6.4878,60.219,1600.1357],[6.4701,60.2172,1594.6266],[6.4719,60.2128,1623.7322],[6.463,60.2119,1613.8756],[6.4667,60.2031,1614.9449],[6.4579,60.2022,1585.7286],[6.4597,60.1978,1609.0294],[6.4508,60.1969,1593.5437],[6.4564,60.1837,1604.7628],[6.4652,60.1847,1588.9131],[6.4726,60.1671,1353.8856],[6.4814,60.168,1431.9629],[6.4833,60.1636,1377.2664],[6.4744,60.1627,1453.4209],[6.4781,60.1539,1485.3167],[6.4692,60.153,1482.2882],[6.4729,60.1442,1532.0015],[6.4641,60.1433,1512.5317],[6.4696,60.1302,1415.3445],[6.4607,60.1292,1336.3124],[6.4662,60.1161,1446.6296],[6.4485,60.1142,1233.8231],[6.4504,60.1099,1308.7803],[6.4327,60.108,1458.1948],[6.4345,60.1036,1494.0327],[6.4257,60.1027,1467.2278],[6.4275,60.0983,1493.3781],[6.4187,60.0974,1462.6108],[6.4205,60.093,1490.4424],[6.4117,60.0921,1498.5245],[6.4136,60.0877,1495.1847],[6.4047,60.0868,1450.6842],[6.4066,60.0824,1481.468],[6.3977,60.0815,1474.9016],[6.3996,60.0771,1500.2375],[6.3907,60.0762,1569.199],[6.3926,60.0718,1615.4116],[6.3838,60.0709,1605.4032],[6.3856,60.0665,1632.4158],[6.3768,60.0656,1595.3105],[6.3786,60.0612,1621.0822],[6.3698,60.0603,1593.7462],[6.3716,60.0559,1606.4032],[6.3628,60.055,1575.9779],[6.3665,60.0462,1590.0419],[6.3577,60.0453,1551.7751],[6.3595,60.0409,1571.6803],[6.3507,60.04,1547.2869],[6.3526,60.0356,1574.41],[6.3437,60.0346,1577.197],[6.3474,60.0259,1612.2775],[6.3386,60.0249,1615.0931],[6.3423,60.0162,1619.3054],[6.3335,60.0152,1624.621],[6.3372,60.0065,1587.248],[6.3284,60.0055,1594.2134],[6.3299,60.0019,1574.8254],[6.339,60.0021,1567.9364],[6.3409,59.9977,1551.0867],[6.3497,59.9986,1543.8755],[6.3515,59.9942,1533.4343],[6.3603,59.9951,1539.3191],[6.3622,59.9908,1530.6818],[6.371,59.9917,1557.9396],[6.3728,59.9873,1558.1196],[6.3904,59.9891,1580.2406],[6.3923,59.9847,1576.6595],[6.4011,59.9857,1535.9705],[6.4029,59.9813,1534.9944],[6.4117,59.9822,1451.167],[6.4135,59.9778,1362.4105],[6.4223,59.9787,1259.1406],[6.4242,59.9743,1191.1741],[6.433,59.9752,1127.9537],[6.4366,59.9665,1050.3175],[6.4454,59.9674,1168.5005],[6.4473,59.963,1085.5037],[6.4561,59.9639,1318.3121],[6.4579,59.9595,1312.5369],[6.4667,59.9604,1237.5215],[6.4703,59.9516,1182.285],[6.4791,59.9526,1116.5387],[6.4828,59.9438,1120.9701],[6.4916,59.9447,1099.5044],[6.497,59.9315,1017.2397],[6.5058,59.9324,1001.6379],[6.5131,59.9149,566.2632],[6.5043,59.914,541.2845],[6.5333,59.8437,1077.0345]]]]}}