{"type": "Feature","bbox": [10.2655,59.241,10.5308,59.355],"geometry": {"type": "MultiPolygon","coordinates": [[[[10.4764,59.2468,3.1654],[10.4736,59.2471,0.7217],[10.4714,59.2449,0.3001],[10.4747,59.241,0.0],[10.4775,59.2415,0.0],[10.4764,59.2468,3.1654]]],
[[[10.3961,59.3493,70.2784],[10.3437,59.3454,57.687],[10.3501,59.3232,42.3046],[10.3065,59.3199,74.2449],[10.3078,59.3155,112.487],[10.2991,59.3148,96.1761],[10.3003,59.3104,104.101],[10.2916,59.3097,121.6212],[10.2891,59.3186,114.2638],[10.2716,59.3173,90.0147],[10.2742,59.3084,122.2314],[10.2655,59.3078,92.6181],[10.2681,59.2989,36.7167],[10.2768,59.2995,69.0939],[10.278,59.2951,15.3607],[10.2693,59.2944,19.7179],[10.2745,59.2767,39.7678],[10.2832,59.2773,16.6708],[10.2845,59.2729,48.3725],[10.2932,59.2736,71.2753],[10.297,59.2602,41.5509],[10.3144,59.2615,44.3651],[10.3169,59.2527,18.5362],[10.3604,59.2559,42.2098],[10.3592,59.2604,40.2496],[10.3758,59.2615,4.1755],[10.3753,59.2661,18.8724],[10.3781,59.2663,0.0],[10.3781,59.2699,0.3588],[10.3736,59.2726,0.1808],[10.3786,59.2762,0.0],[10.3775,59.2782,0.7775],[10.3836,59.2768,0.0655],[10.3869,59.2738,0.8592],[10.3964,59.2762,0.0],[10.4025,59.2682,2.5981],[10.4101,59.2687,27.346],[10.4114,59.2643,5.6504],[10.4201,59.2649,7.3749],[10.4214,59.2605,3.2237],[10.4305,59.2611,0.0],[10.4314,59.2635,0.0],[10.4297,59.2696,0.0],[10.4314,59.2704,0.0],[10.4325,59.269,0.0],[10.4347,59.2704,0.0],[10.4375,59.269,0.4961],[10.4408,59.2696,1.2784],[10.4419,59.2682,1.0789],[10.4386,59.2676,0.02],[10.4397,59.2621,0.0],[10.4447,59.2604,0.3672],[10.4442,59.2565,4.9546],[10.4503,59.2535,2.1321],[10.4469,59.2487,1.1196],[10.4508,59.2465,0.0],[10.4542,59.2474,1.9686],[10.4597,59.2443,2.4344],[10.4692,59.2451,0.3001],[10.4692,59.2474,1.8737],[10.4736,59.2476,0.7217],[10.4781,59.2507,2.5122],[10.4792,59.2562,0.0],[10.4781,59.2593,1.6099],[10.4825,59.2601,0.0],[10.4831,59.2624,3.0947],[10.4864,59.2626,0.6197],[10.4853,59.264,1.5663],[10.4875,59.2651,0.0],[10.4903,59.2643,1.4036],[10.4908,59.2585,0.0],[10.5053,59.2551,0.0],[10.5019,59.2565,0.0],[10.5031,59.259,0.0],[10.4981,59.2646,0.0],[10.4947,59.2649,1.2741],[10.4925,59.2671,0.0],[10.4914,59.2701,2.3717],[10.4942,59.2721,0.0],[10.4925,59.2757,0.5531],[10.4958,59.2774,1.8522],[10.5008,59.2762,0.1847],[10.5031,59.2804,0.0],[10.5053,59.2813,0.0],[10.5058,59.2832,0.0],[10.4997,59.2837,0.8525],[10.4986,59.2885,2.1371],[10.5014,59.2915,1.4977],[10.5214,59.2938,9.7914],[10.5219,59.2974,9.2098],[10.5203,59.3004,0.9911],[10.5219,59.3051,7.5202],[10.5286,59.309,0.0],[10.5287,59.311,0.0],[10.5258,59.3126,7.52],[10.5308,59.3168,0.0],[10.5253,59.3171,1.0183],[10.5253,59.3201,0.0],[10.5203,59.3232,0.4179],[10.5131,59.3232,8.587],[10.5086,59.3254,9.3794],[10.4981,59.3226,0.7359],[10.4964,59.3296,0.9265],[10.4925,59.3315,0.97],[10.4914,59.3343,0.0],[10.4875,59.334,0.0],[10.4842,59.3371,11.6601],[10.4831,59.3424,0.0],[10.4764,59.3462,1.1194],[10.4509,59.3443,64.6115],[10.4522,59.3398,56.686],[10.4435,59.3392,64.7245],[10.4422,59.3436,79.9175],[10.4335,59.343,89.6154],[10.4322,59.3474,70.8782],[10.4235,59.3468,63.3131],[10.4222,59.3512,53.819],[10.4135,59.3506,70.287],[10.4122,59.355,53.8123],[10.3948,59.3537,87.9398],[10.3961,59.3493,70.2784]]]]}
,"properties": {"GID_2": "NOR.19.14_1","GID_0": "NOR","country": "Norway","GID_1": "NOR.19_1","province": "Vestfold","NL_NAME_1": "NA","county": "Tønsberg","VARNAME_2": "NA","NL_NAME_2": "NA","TYPE_2": "Kommuner","ENGTYPE_2": "Municipality","CC_2": "NA","HASC_2": "NO.VF.TO","name": "Tønsberg.county","area_km2": 113.01958,"hist_schema_id": "Elevation0-9000","hist_area_km2": {"0": 24.64437,"25": 44.9847,"50": 23.09518,"75": 14.25902,"100": 5.00837,"125": 0.99547,"150": 0.03246}}}