{"type": "Feature","bbox": [18.6464,69.8146,20.2953,70.3083],"geometry": {"type": "MultiPolygon","coordinates": [[[[19.3964,69.8172,21.6948],[19.4042,69.8146,0.0],[19.4141,69.8172,0.0],[19.4167,69.8208,0.0],[19.412,69.8245,29.086],[19.4042,69.825,0.0],[19.3964,69.8172,21.6948]]],
[[[19.4167,69.8313,26.1666],[19.413,69.8307,12.4297],[19.413,69.8297,0.0],[19.4182,69.8297,9.2598],[19.4167,69.8313,26.1666]]],
[[[19.3249,69.838,244.6662],[19.325,69.8335,55.139],[19.338,69.8336,77.3769],[19.3381,69.8291,73.5039],[19.3511,69.8291,86.0328],[19.3512,69.8268,4.1468],[19.3557,69.8276,0.0],[19.3578,69.8307,6.8754],[19.3547,69.8328,4.3081],[19.3568,69.8349,0.0],[19.3641,69.8359,0.0],[19.3661,69.838,0.0],[19.3682,69.8411,0.0],[19.3651,69.8432,2.225],[19.3693,69.8474,2.4969],[19.3766,69.8484,0.0],[19.3818,69.8557,0.0],[19.3891,69.8568,0.0],[19.3943,69.862,10.4581],[19.4078,69.863,0.0],[19.4182,69.8755,4.7038],[19.4151,69.8786,18.7013],[19.4224,69.8797,0.0],[19.4318,69.8891,0.0],[19.4391,69.8901,0.0],[19.4438,69.8938,6.3433],[19.4521,69.8938,0.0],[19.4703,69.8984,0.0],[19.4776,69.9057,2.7956],[19.4849,69.9068,0.0],[19.4891,69.913,0.0],[19.4859,69.9161,0.0],[19.4932,69.9234,0.0],[19.4901,69.9266,0.0],[19.4932,69.9307,0.0],[19.4734,69.9401,2.6589],[19.4766,69.9443,0.0],[19.4734,69.9464,2.3432],[19.4755,69.9495,0.0],[19.4792,69.95,3.8608],[19.4833,69.9479,0.0],[19.5042,69.9479,0.0],[19.5083,69.95,5.4515],[19.5167,69.95,0.0],[19.5208,69.9521,9.2606],[19.525,69.9521,0.0],[19.5292,69.9542,9.3956],[19.5458,69.9542,0.0],[19.55,69.9563,11.047],[19.5771,69.9563,0.0],[19.5812,69.9583,7.9194],[19.5979,69.9583,0.0],[19.6021,69.9604,3.0704],[19.6104,69.9583,0.0],[19.6203,69.9609,0.0],[19.6255,69.9661,11.1267],[19.6333,69.9688,0.6238],[19.6375,69.9688,0.0],[19.65,69.9729,0.0],[19.6604,69.9729,0.0],[19.6703,69.9755,0.0],[19.6724,69.9786,0.0],[19.6693,69.9807,0.0],[19.6724,69.9849,0.0],[19.6693,69.987,27.438],[19.6745,69.9922,2.2429],[19.6745,69.9953,10.1607],[19.6688,69.9979,108.039],[19.663,69.9984,109.2358],[19.6641,70.0016,0.0],[19.6557,70.0057,0.0],[19.6464,70.0068,12.124],[19.6474,70.0099,0.0],[19.6396,70.0104,9.1182],[19.6313,70.0146,8.191],[19.625,70.0146,75.5687],[19.6125,70.0208,0.0],[19.6042,70.0188,31.2506],[19.5938,70.0229,6.566],[19.5891,70.0193,7.2891],[19.5818,70.0182,0.0],[19.5786,70.0151,6.5857],[19.5714,70.0141,0.0],[19.5682,70.0109,2.6331],[19.5547,70.0078,0.0],[19.5526,70.0047,0.0],[19.5557,70.0036,0.0],[19.5547,70.0005,0.0],[19.5578,69.9995,0.0],[19.5547,69.9943,0.0],[19.5578,69.9922,0.0],[19.5521,69.9875,4.5924],[19.5479,69.9875,0.0],[19.5438,69.9854,5.7523],[19.5354,69.9854,0.0],[19.5339,69.9859,5.2269],[19.5349,69.9891,68.0746],[19.5318,69.9912,142.6971],[19.5339,69.9932,117.669],[19.5411,69.9943,0.0],[19.5474,70.0005,0.0],[19.5443,70.0026,0.0],[19.5453,70.0057,0.0],[19.5422,70.0068,0.0],[19.5453,70.012,0.0],[19.5359,70.013,63.4913],[19.5391,70.0182,0.0],[19.5359,70.0203,0.0],[19.5432,70.0276,0.0],[19.5396,70.0313,0.0],[19.5411,70.0349,5.2126],[19.538,70.0359,33.2119],[19.5411,70.0411,0.0],[19.5333,70.0417,19.2667],[19.5266,70.0453,13.0572],[19.5187,70.0458,27.6058],[19.5146,70.0479,6.9378],[19.4979,70.0479,39.1528],[19.4938,70.05,3.9446],[19.4792,70.05,0.0],[19.4745,70.0463,34.8359],[19.4708,70.0458,45.3405],[19.4625,70.05,0.0],[19.4562,70.05,36.7468],[19.45,70.0521,0.0],[19.4391,70.0422,13.1462],[19.4083,70.0396,0.0],[19.4068,70.038,0.0],[19.4099,70.0359,1.5438],[19.4078,70.0339,0.0],[19.3937,70.0313,10.3872],[19.3901,70.0286,0.0],[19.3974,70.0234,0.0],[19.3932,70.0172,2.1584],[19.3859,70.0162,0.0],[19.3776,70.0068,0.0],[19.3807,70.0057,1.4154],[19.3797,70.0026,0.0],[19.3828,70.0016,2.9173],[19.3818,69.9984,0.0],[19.3891,69.9953,0.4819],[19.388,69.9922,0.0],[19.3958,69.9917,0.0],[19.3974,69.9901,0.0],[19.3729,69.9896,0.0],[19.3687,69.9875,4.4716],[19.3646,69.9896,0.0],[19.3521,69.9896,124.0453],[19.3339,69.9984,43.1584],[19.3349,70.0016,0.0],[19.3276,70.0047,0.0],[19.3286,70.0078,0.0],[19.3203,70.012,10.452],[19.3167,70.0125,0.0],[19.3104,70.0104,133.7028],[19.3005,70.0151,0.0],[19.3036,70.0193,0.0],[19.3036,70.0224,19.3529],[19.2828,70.0328,4.2649],[19.2755,70.0339,0.0],[19.2755,70.037,0.0],[19.2776,70.0391,0.0],[19.2849,70.0401,0.0],[19.287,70.0422,0.0],[19.2839,70.0443,0.0],[19.2849,70.0474,0.0],[19.2818,70.0484,0.0],[19.2849,70.0537,0.0],[19.2818,70.0557,0.0],[19.2901,70.0641,0.0],[19.2974,70.0651,0.0],[19.2984,70.0682,0.0],[19.3057,70.0755,2.2383],[19.2984,70.0797,37.1669],[19.2995,70.0828,16.5063],[19.2958,70.0833,0.0],[19.2833,70.0792,57.7451],[19.2687,70.0792,0.0],[19.2641,70.0755,46.6957],[19.2458,70.0708,188.0489],[19.2292,70.0708,0.0],[19.2245,70.0672,0.0],[19.2172,70.0661,0.0],[19.2141,70.063,0.0],[19.2062,70.0625,0.0],[19.2047,70.063,0.0],[19.2057,70.0661,0.0],[19.2026,70.0682,0.0],[19.2078,70.0693,0.0],[19.2151,70.0766,0.0],[19.2224,70.0776,0.0],[19.2266,70.0828,0.0],[19.2234,70.0839,0.0],[19.2245,70.087,0.0],[19.2229,70.0875,0.0],[19.2042,70.0875,171.1015],[19.2,70.0896,0.0],[19.1917,70.0896,0.0],[19.1854,70.0875,157.6964],[19.1792,70.0896,0.0],[19.163,70.0849,16.2408],[19.1563,70.0792,8.6396],[19.1479,70.0792,0.0],[19.1437,70.0813,0.0],[19.1042,70.0813,0.0],[19.0943,70.0787,11.9283],[19.0891,70.0714,59.7642],[19.0818,70.0703,11.3152],[19.0776,70.0661,0.0],[19.0807,70.063,72.5916],[19.0625,70.0583,40.0144],[19.0484,70.0609,5.7556],[19.0536,70.0682,0.0],[19.0505,70.0693,4.9168],[19.0516,70.0724,13.3685],[19.0458,70.075,54.2798],[19.0339,70.0724,0.0],[19.0292,70.0687,53.4051],[19.0234,70.0682,0.0],[19.0292,70.0646,0.0],[19.037,70.0641,0.0],[19.037,70.0609,8.1247],[19.0313,70.0604,11.4106],[19.0297,70.0589,3.2541],[19.037,70.0547,0.0],[19.0313,70.0542,0.0],[19.0297,70.0526,0.0],[19.0547,70.0401,0.0],[19.0687,70.0396,29.4328],[19.0703,70.0391,16.2288],[19.0693,70.0359,0.0],[19.0771,70.0354,1.9556],[19.087,70.0307,0.0],[19.0839,70.0255,0.0],[19.087,70.0245,1.0204],[19.0859,70.0214,0.0],[19.0891,70.0193,0.0],[19.0604,70.0188,0.0],[19.0568,70.0162,0.0],[19.0682,70.0099,13.7115],[19.0667,70.0083,3.8883],[19.0583,70.0083,0.0],[19.0422,70.013,10.6757],[19.0474,70.0203,0.0],[19.0443,70.0214,0.0],[19.0453,70.0266,0.0],[19.0411,70.0286,7.0329],[19.0187,70.0313,19.289],[19.0172,70.0318,34.4745],[19.0182,70.0349,0.0],[19.0104,70.0354,35.1128],[19.0021,70.0396,0.0],[18.9938,70.0396,15.2319],[18.9755,70.0349,12.4129],[18.9672,70.0266,0.0],[18.9703,70.0234,33.5433],[18.9542,70.0188,0.0],[18.9443,70.0193,0.0],[18.9495,70.0266,0.0],[18.9354,70.0271,16.6106],[18.9313,70.0292,5.7755],[18.8688,70.0292,0.0],[18.8604,70.0229,99.4299],[18.8542,70.025,36.8576],[18.8458,70.025,0.0],[18.8359,70.0224,0.0],[18.8375,70.0208,0.0],[18.8453,70.0203,21.8228],[18.8391,70.013,0.0],[18.8292,70.0125,3.5794],[18.8245,70.0089,10.7611],[18.8172,70.0078,14.4109],[18.8076,69.9983,22.5004],[18.8136,69.9888,181.0286],[18.8885,69.9893,206.5318],[18.8888,69.9847,184.7416],[18.9018,69.9848,207.1766],[18.9025,69.9713,157.4914],[18.9156,69.9714,168.4391],[18.9154,69.9759,232.9572],[18.9415,69.976,165.3912],[18.9413,69.9805,231.4192],[18.9674,69.9807,274.5635],[18.9672,69.9852,366.531],[18.9803,69.9853,377.6101],[18.9805,69.9808,279.473],[18.9936,69.9808,270.679],[18.9938,69.9763,206.9397],[19.0068,69.9764,199.1867],[19.007,69.9719,194.995],[19.0201,69.9719,260.4931],[19.0203,69.9674,320.1538],[19.0334,69.9675,378.3839],[19.0352,69.9269,392.0946],[19.0222,69.9269,405.9128],[19.0232,69.9043,413.7344],[19.0753,69.9046,312.1173],[19.0751,69.9091,260.0266],[19.0881,69.9092,430.735],[19.0879,69.9137,363.9948],[19.101,69.9137,480.8894],[19.1012,69.9092,550.8604],[19.1142,69.9093,470.0158],[19.1144,69.9048,399.5878],[19.1274,69.9048,290.4367],[19.1287,69.8733,567.4096],[19.1417,69.8734,439.5961],[19.1421,69.8643,440.0115],[19.207,69.8646,638.9387],[19.2072,69.8601,713.4286],[19.2202,69.8602,489.2146],[19.2204,69.8557,614.0981],[19.2334,69.8557,665.4796],[19.2335,69.8512,951.399],[19.2465,69.8513,748.0544],[19.2464,69.8558,764.3553],[19.2593,69.8558,381.7198],[19.2592,69.8603,375.0853],[19.2722,69.8604,294.5034],[19.272,69.8649,460.8469],[19.285,69.8649,343.5672],[19.2849,69.8695,613.6718],[19.2979,69.8695,799.181],[19.298,69.865,672.9443],[19.311,69.865,535.1718],[19.3119,69.838,198.6679],[19.3249,69.838,244.6662]]],
[[[19.3703,70.0807,22.7711],[19.3625,70.0813,122.11],[19.3583,70.0833,28.9964],[19.3484,70.0807,0.0],[19.3516,70.0787,0.0],[19.3505,70.0755,0.0],[19.3536,70.0745,0.0],[19.3484,70.0682,0.0],[19.3516,70.0651,0.0],[19.3495,70.063,0.0],[19.3438,70.0625,0.0],[19.3422,70.0609,6.7528],[19.3479,70.0583,0.0],[19.3557,70.0578,18.9484],[19.3625,70.0542,0.0],[19.3771,70.0542,0.0],[19.3839,70.0599,0.0],[19.3911,70.0609,0.0],[19.3932,70.063,0.0],[19.3932,70.0661,0.0],[19.3818,70.0714,0.0],[19.3828,70.0745,4.314],[19.3797,70.0755,12.5985],[19.3807,70.0787,0.0],[19.3729,70.0792,53.1615],[19.3703,70.0807,22.7711]]],
[[[18.8068,70.0474,45.0216],[18.8075,70.0349,14.5037],[18.8042,70.0333,9.3504],[18.8182,70.0359,0.0],[18.825,70.0417,2.0244],[18.8438,70.0396,0.0],[18.8563,70.0437,1.9926],[18.8854,70.0437,0.0],[18.8896,70.0458,16.8871],[18.8958,70.0437,6.9486],[18.9146,70.0437,0.0],[18.9245,70.0463,0.0],[18.9276,70.0495,3.3538],[18.9349,70.0505,0.0],[18.938,70.0537,0.0],[18.9536,70.0568,0.0],[18.9536,70.0599,0.0],[18.9464,70.0641,3.0657],[18.9703,70.0693,0.0],[18.9755,70.0745,4.5298],[18.9828,70.0755,7.1726],[18.9854,70.0792,0.0],[18.9849,70.0807,0.0],[18.975,70.0833,1.3807],[18.9625,70.0833,36.3561],[18.9609,70.0839,31.986],[18.962,70.087,0.0],[18.9542,70.0875,22.9302],[18.9458,70.0917,20.3159],[18.9396,70.0917,34.5813],[18.9313,70.0958,0.0],[18.9276,70.0953,14.141],[18.9229,70.0917,0.0],[18.913,70.0922,0.0],[18.9089,70.0953,17.0889],[18.9161,70.0964,0.0],[18.913,70.0995,0.0],[18.9161,70.1057,0.0],[18.913,70.1068,10.3914],[18.9141,70.1099,0.0],[18.9083,70.1125,8.6233],[18.9047,70.112,20.8594],[18.9,70.1083,22.5093],[18.8839,70.1078,18.0067],[18.8745,70.0984,0.0],[18.8672,70.0974,0.0],[18.8578,70.0859,41.6639],[18.8479,70.0854,22.131],[18.8422,70.0891,0.0],[18.8464,70.0953,1.8098],[18.8599,70.1088,0.0],[18.8583,70.1104,0.0],[18.8505,70.1109,1.0501],[18.8516,70.1141,0.0],[18.8484,70.1151,0.0],[18.8521,70.1208,0.0],[18.8484,70.1234,0.0],[18.8495,70.1266,0.0],[18.8464,70.1286,0.0],[18.8521,70.1292,0.0],[18.8536,70.1307,0.0],[18.8208,70.1312,156.8569],[18.8167,70.1333,15.9434],[18.8104,70.1312,256.2752],[18.8042,70.1312,218.2915],[18.7979,70.1333,14.241],[18.7943,70.1307,0.0],[18.7974,70.1286,0.0],[18.7964,70.1255,0.0],[18.8036,70.1224,0.0],[18.7984,70.1151,0.0],[18.8078,70.1141,2.8895],[18.8057,70.1109,12.4529],[18.8,70.1104,17.0129],[18.7984,70.1088,0.0],[18.8016,70.1078,19.8716],[18.8026,70.1047,0.0],[18.812,70.1036,13.0884],[18.8109,70.1005,0.0],[18.8141,70.0995,0.0],[18.813,70.0964,0.0],[18.8161,70.0953,0.0],[18.8109,70.0891,0.0],[18.8141,70.0859,30.8896],[18.8083,70.0854,0.0],[18.8068,70.0839,0.0],[18.8229,70.0792,0.0],[18.8292,70.0813,0.0],[18.8328,70.0807,0.0],[18.8266,70.0734,18.4049],[18.813,70.0703,0.0],[18.8068,70.0641,0.0],[18.8141,70.0599,0.0],[18.8099,70.0547,0.0],[18.8063,70.0542,18.7088],[18.8005,70.0568,3.795],[18.8016,70.0599,0.0],[18.7943,70.063,0.0],[18.8016,70.0714,0.0],[18.7984,70.0745,0.0],[18.8021,70.0792,0.0],[18.7984,70.0828,13.5352],[18.8016,70.087,0.0],[18.7943,70.0901,23.4692],[18.7953,70.0932,0.0],[18.7839,70.0984,82.9308],[18.787,70.1036,0.0],[18.7771,70.1042,51.9092],[18.7708,70.1021,242.6644],[18.7693,70.1026,239.293],[18.7703,70.1057,34.3758],[18.7609,70.1068,132.9273],[18.762,70.1099,0.0],[18.7604,70.1104,39.7279],[18.7542,70.1083,206.6068],[18.7458,70.1083,240.2446],[18.7443,70.1099,232.3826],[18.7474,70.1141,0.0],[18.7458,70.1146,0.0],[18.7359,70.1141,129.523],[18.7391,70.112,195.6675],[18.7375,70.1104,318.1299],[18.7229,70.1104,466.3905],[18.7188,70.1125,512.9268],[18.7104,70.1125,183.8082],[18.7062,70.1104,289.4667],[18.6943,70.1099,0.0],[18.6984,70.1068,0.0],[18.7078,70.1036,220.8489],[18.7047,70.0984,0.0],[18.7203,70.0911,25.1493],[18.7188,70.0896,89.3823],[18.713,70.0891,64.8801],[18.7109,70.087,161.3413],[18.7182,70.0818,0.0],[18.7141,70.0755,0.0],[18.7068,70.0745,11.4477],[18.7036,70.0714,187.1712],[18.6854,70.0667,505.3185],[18.6744,70.0667,0.0],[18.6746,70.0645,0.0],[18.7008,70.0647,251.8014],[18.7011,70.0602,550.8033],[18.7142,70.0603,497.9058],[18.7145,70.0558,496.9641],[18.7407,70.056,518.0667],[18.741,70.0514,510.6312],[18.7803,70.0517,232.3674],[18.7806,70.0472,221.409],[18.8068,70.0474,45.0216]]],
[[[19.0021,70.1271,0.0],[18.9958,70.1271,10.8398],[18.9917,70.1292,0.0],[18.9646,70.1292,15.7817],[18.9547,70.1266,2.8574],[18.9526,70.1234,0.0],[18.9599,70.1203,0.4667],[18.9547,70.1182,0.0],[18.9578,70.1162,0.0],[18.9568,70.113,0.0],[18.9661,70.112,2.6163],[18.963,70.1068,0.0],[18.9786,70.0995,7.6742],[18.9776,70.0964,0.0],[18.9807,70.0953,0.0],[18.9771,70.0938,0.0],[18.9729,70.0958,2.2794],[18.9667,70.0958,50.9099],[18.9604,70.0979,15.8653],[18.9568,70.0943,0.0],[18.9625,70.0917,6.8233],[18.975,70.0917,0.0],[18.9766,70.0901,0.0],[18.9708,70.0896,0.0],[18.9693,70.088,0.0],[18.9771,70.0875,0.0],[18.9854,70.0833,0.0],[18.9938,70.0833,0.0],[19.0036,70.0859,0.0],[18.9943,70.0891,0.0],[18.9984,70.0932,0.0],[19.0057,70.0943,0.0],[19.0104,70.0979,0.0],[19.0187,70.0979,9.301],[19.0313,70.0917,0.0],[19.0349,70.0922,3.0667],[19.037,70.0943,0.0],[19.0318,70.0974,2.9469],[19.0391,70.0984,0.0],[19.0411,70.1016,0.0],[19.0229,70.1042,7.0216],[19.0172,70.1068,7.8533],[19.0245,70.1099,0.0],[19.0167,70.1104,0.0],[19.0151,70.112,6.2512],[19.0172,70.1141,0.0],[19.0229,70.1146,5.5467],[19.0245,70.1162,2.0042],[19.0146,70.1208,0.0],[19.0068,70.1214,0.0],[19.0026,70.1234,0.0],[19.0036,70.1266,0.0],[19.0021,70.1271,0.0]]],
[[[19.0438,70.1125,0.0],[19.0401,70.112,8.0305],[19.0401,70.1109,3.6646],[19.0453,70.1109,0.0],[19.0438,70.1125,0.0]]],
[[[18.7193,70.1151,413.3785],[18.7271,70.1125,282.9741],[18.7328,70.1182,3.2733],[18.7229,70.1188,35.9937],[18.7193,70.1151,413.3785]]],
[[[18.6464,70.1422,12.6852],[18.6542,70.1396,0.0],[18.662,70.1432,0.0],[18.6589,70.1443,3.2672],[18.6599,70.1474,0.0],[18.65,70.1479,14.1062],[18.6484,70.1474,14.1062],[18.6464,70.1422,12.6852]]],
[[[18.6979,70.1438,0.0],[18.6943,70.1422,0.0],[18.7042,70.1417,6.1247],[18.7078,70.1453,2.9553],[18.7042,70.1458,16.4246],[18.6979,70.1438,0.0]]],
[[[18.8965,70.1829,0.2216],[18.9016,70.188,0.0],[18.8984,70.1901,25.494],[18.8995,70.1932,0.0],[18.8979,70.1937,8.5785],[18.8917,70.1917,0.0],[18.8797,70.1911,0.0],[18.8828,70.1891,8.3077],[18.8812,70.1875,13.999],[18.8714,70.188,0.2137],[18.8724,70.1911,4.1407],[18.8708,70.1917,4.3739],[18.8646,70.1896,56.7265],[18.8563,70.1917,26.9974],[18.8521,70.1896,138.5124],[18.8354,70.1896,106.281],[18.8297,70.1849,115.5291],[18.8286,70.1818,123.8877],[18.8234,70.1766,0.0],[18.8266,70.1745,90.9311],[18.8245,70.1713,212.6435],[18.8146,70.1687,173.5815],[18.8042,70.1687,0.0],[18.8026,70.1672,0.0],[18.8057,70.1651,61.3362],[18.7958,70.1646,88.2711],[18.7917,70.1625,108.8626],[18.7833,70.1646,19.3768],[18.7776,70.1589,0.0],[18.7807,70.1578,0.0],[18.7797,70.1547,0.0],[18.7828,70.1536,32.0903],[18.7818,70.1505,0.0],[18.7875,70.1479,0.0],[18.8021,70.1479,0.0],[18.8083,70.15,65.924],[18.8125,70.1479,0.0],[18.8438,70.1479,0.0],[18.8479,70.1458,0.0],[18.8557,70.1453,0.0],[18.8625,70.1417,0.0],[18.8771,70.1417,0.0],[18.8849,70.1443,2.0752],[18.888,70.1474,4.7587],[18.8953,70.1484,0.0],[18.8922,70.1505,6.9233],[18.8932,70.1536,0.0],[18.8901,70.1547,11.0933],[18.8932,70.1599,0.0],[18.8901,70.162,0.0],[18.8932,70.1661,0.0],[18.8901,70.1672,0.0],[18.8911,70.1724,3.5416],[18.888,70.1745,0.0],[18.8953,70.1755,0.0],[18.8995,70.1797,0.0],[18.8965,70.1829,0.2216]]],
[[[19.0021,70.175,0.0],[19.0036,70.1734,0.0],[19.0,70.1729,0.0],[18.9901,70.1776,0.8394],[18.9932,70.1818,9.2413],[18.9901,70.1839,4.0486],[18.9911,70.187,0.0],[18.9813,70.1917,0.4586],[18.9667,70.1917,0.0],[18.9651,70.1901,0.0],[18.9682,70.1891,0.0],[18.9667,70.1875,0.0],[18.9484,70.187,0.0],[18.9521,70.1833,4.2435],[18.9484,70.1787,0.0],[18.9516,70.1766,15.316],[18.9505,70.1734,5.5499],[18.962,70.1682,16.6038],[18.9568,70.162,0.0],[18.9583,70.1604,0.0],[18.9729,70.1604,0.0],[18.9771,70.1625,16.4002],[18.9875,70.1625,0.0],[18.9938,70.1667,0.0],[19.0167,70.1687,0.0],[19.0214,70.1724,0.0],[19.0286,70.1734,0.0],[19.0255,70.1755,0.3412],[19.0266,70.1787,1.3784],[19.0208,70.1813,4.2941],[19.0005,70.1766,0.0],[19.0021,70.175,0.0]]],
[[[18.8755,70.1995,7.547],[18.8771,70.1979,0.0],[18.887,70.1984,0.0],[18.8854,70.2,7.713],[18.8755,70.1995,7.547]]],
[[[19.7009,69.8751,428.9538],[19.7399,69.8752,157.029],[19.7399,69.8706,100.2375],[19.7514,69.8708,0.0],[19.7484,69.8688,0.0],[19.7516,69.8693,0.0],[19.7557,69.8734,0.0],[19.7526,69.8766,9.6232],[19.7661,69.8901,0.0],[19.763,69.8932,18.3908],[19.7672,69.8974,12.5834],[19.7724,69.8984,0.0],[19.7708,69.9021,12.2575],[19.7724,69.9057,0.0],[19.7693,69.9078,11.6214],[19.7714,69.9099,29.8366],[19.7786,69.9109,0.0],[19.7755,69.9141,25.6987],[19.7797,69.9182,20.4172],[19.787,69.9193,0.0],[19.7839,69.9224,0.0],[19.788,69.9266,4.5569],[19.7953,69.9276,0.0],[19.8047,69.937,6.1312],[19.8182,69.9401,0.0],[19.8234,69.9453,2.5833],[19.8307,69.9464,0.0],[19.8354,69.95,3.975],[19.8495,69.9526,0.0],[19.8589,69.962,1.6128],[19.8703,69.963,0.0],[19.8828,69.9766,0.0],[19.8729,69.9812,0.0],[19.8651,69.9818,2.9518],[19.8526,69.988,14.7662],[19.8536,69.9912,0.0],[19.8443,69.9922,31.5967],[19.8453,69.9953,0.0],[19.8396,69.9979,34.3066],[19.8318,69.9984,32.2975],[19.825,70.0021,0.0],[19.8146,70.0021,13.0196],[19.8083,70.0042,0.0],[19.8021,70.0021,15.4072],[19.7979,70.0042,8.8019],[19.7854,70.0042,35.1203],[19.7813,70.0062,11.3134],[19.7729,70.0062,8.7323],[19.7682,70.0026,24.6427],[19.7609,70.0016,0.0],[19.7578,69.9984,26.5331],[19.7479,69.9979,0.0],[19.7411,69.9922,0.0],[19.7339,69.9912,0.0],[19.737,69.988,6.765],[19.7203,69.9714,0.0],[19.6943,69.9682,0.0],[19.6974,69.9661,4.8563],[19.6953,69.963,18.3224],[19.688,69.962,0.0],[19.6828,69.9568,7.6668],[19.6542,69.9521,0.0],[19.6516,69.9484,9.8355],[19.6443,69.9474,0.0],[19.6396,69.9437,17.1572],[19.6255,69.9411,0.0],[19.6208,69.9375,1.3628],[19.6104,69.9375,0.0],[19.6063,69.9354,0.0],[19.5917,69.9354,4.3171],[19.5734,69.9307,0.0],[19.5766,69.9276,135.4307],[19.5667,69.925,144.578],[19.5604,69.9271,2.9689],[19.5458,69.9271,0.0],[19.5411,69.9234,8.6311],[19.5313,69.9229,0.0],[19.5266,69.9193,31.672],[19.5193,69.9182,6.4209],[19.5141,69.913,8.3685],[19.5068,69.912,0.0],[19.4953,69.8984,51.8941],[19.4797,69.8953,0.0],[19.4828,69.8932,25.5858],[19.4807,69.8901,79.5602],[19.4672,69.8891,0.0],[19.4599,69.8818,0.0],[19.4547,69.8807,0.0],[19.4464,69.8714,0.0],[19.4481,69.8708,8.0759],[19.4605,69.8791,35.8027],[19.5447,69.8793,612.9492],[19.5448,69.8748,619.2589],[19.5578,69.8748,678.6437],[19.558,69.8658,812.8791],[19.623,69.8659,561.2238],[19.6225,69.893,702.999],[19.6355,69.893,716.6064],[19.6351,69.9201,209.5689],[19.6481,69.9201,281.6411],[19.6482,69.9156,276.5804],[19.6612,69.9156,297.8723],[19.6613,69.9111,250.1931],[19.6743,69.9111,256.7745],[19.6744,69.9066,213.7527],[19.6874,69.9066,278.3765],[19.6875,69.9021,223.0059],[19.7005,69.9021,363.7174],[19.7006,69.8931,139.7334],[19.6876,69.8931,153.7224],[19.6878,69.8796,133.2415],[19.7008,69.8796,280.1195],[19.7009,69.8751,428.9538]]],
[[[19.9229,70.0125,0.0],[19.913,70.013,9.0086],[19.8979,70.0208,21.8911],[19.8604,70.0208,7.6283],[19.8526,70.0141,0.0],[19.8557,70.012,0.0],[19.8547,70.0089,0.0],[19.8604,70.0062,0.0],[19.8667,70.0062,0.0],[19.875,70.0021,0.0],[19.8875,70.0021,2.3943],[19.8958,69.9979,0.0],[19.9021,69.9979,0.0],[19.9063,69.9958,0.0],[19.9167,69.9958,16.1714],[19.9208,69.9938,3.7507],[19.9354,69.9938,0.0],[19.95,69.9979,5.4532],[19.9542,69.9958,0.0],[19.9604,69.9958,0.0],[19.9667,69.9938,0.0],[19.9786,70.0047,0.0],[19.9729,70.0083,8.8862],[19.9583,70.0083,0.0],[19.9542,70.0062,44.2511],[19.9458,70.0062,46.0371],[19.9375,70.0104,5.6291],[19.9229,70.0125,0.0]]],
[[[20.163,70.1568,49.2805],[20.1688,70.1542,5.3604],[20.1724,70.1547,7.4584],[20.1651,70.1589,86.4387],[20.1661,70.162,35.7028],[20.1646,70.1625,18.7701],[20.1609,70.162,103.8495],[20.1589,70.1599,95.0938],[20.163,70.1568,49.2805]]],
[[[20.0063,70.1729,17.6241],[19.9943,70.1734,6.9558],[19.9953,70.1766,0.0],[19.9854,70.1813,12.3427],[19.9792,70.1792,34.6937],[19.9688,70.1792,0.0],[19.9641,70.1755,54.6542],[19.9568,70.1745,0.0],[19.9495,70.1672,33.7958],[19.9443,70.1661,10.4862],[19.9422,70.163,12.2773],[19.9479,70.1604,0.0],[19.9557,70.1599,0.0],[19.9625,70.1563,0.0],[19.9854,70.1563,0.0],[19.9896,70.1542,0.0],[20.0021,70.1542,0.0],[20.0063,70.1521,0.0],[20.0187,70.1521,0.0],[20.0354,70.1438,0.0],[20.0453,70.1443,0.0],[20.0526,70.1516,7.0013],[20.0599,70.1526,0.0],[20.0641,70.1568,0.0],[20.0516,70.1641,0.0],[20.0422,70.1651,45.275],[20.0432,70.1682,0.0],[20.0417,70.1687,0.0],[20.0292,70.1687,35.4712],[20.0146,70.1729,25.0738],[20.0063,70.1729,17.6241]]],
[[[19.187,70.112,0.0],[19.1833,70.1125,0.0],[19.1818,70.1109,0.0],[19.1854,70.1104,0.0],[19.187,70.112,0.0]]],
[[[19.4172,70.1609,336.9623],[19.4042,70.1646,222.4194],[19.3958,70.1625,190.9848],[19.3896,70.1646,0.0],[19.3859,70.162,0.0],[19.3849,70.1589,12.7804],[19.3714,70.1578,140.6375],[19.3682,70.1547,204.3761],[19.3609,70.1536,240.7825],[19.3589,70.1516,284.7168],[19.362,70.1484,416.5563],[19.3464,70.1453,190.7981],[19.338,70.137,14.0285],[19.3318,70.1276,19.2169],[19.3516,70.1182,0.0],[19.3505,70.1151,0.0],[19.3536,70.1141,0.0],[19.3526,70.1109,0.0],[19.3542,70.1104,0.0],[19.3625,70.1104,0.0],[19.3687,70.1125,4.2664],[19.3729,70.1104,0.0],[19.3917,70.1104,0.0],[19.3958,70.1083,0.0],[19.4078,70.1078,5.6293],[19.4068,70.1047,0.0],[19.4083,70.1042,0.0],[19.4224,70.1036,0.0],[19.4214,70.1005,0.0],[19.4229,70.1,0.0],[19.4479,70.1,6.7686],[19.4521,70.0979,0.0],[19.4646,70.0979,0.0],[19.4688,70.0958,0.0],[19.4875,70.0958,9.0511],[19.4917,70.0938,0.0],[19.5063,70.0938,0.0],[19.5187,70.0979,0.0],[19.5313,70.0979,0.0],[19.5354,70.0958,0.0],[19.5625,70.0958,0.0],[19.5724,70.0984,0.0],[19.5807,70.1068,0.0],[19.5776,70.1099,0.0],[19.5807,70.1141,0.0],[19.5714,70.1151,17.0686],[19.5604,70.1208,0.0],[19.5438,70.1229,154.0035],[19.5328,70.1286,0.0],[19.525,70.1292,5.344],[19.5208,70.1312,0.0],[19.5125,70.1312,206.0299],[19.5063,70.1292,381.2508],[19.5021,70.1312,379.1923],[19.4896,70.1312,347.145],[19.488,70.1328,285.9126],[19.5,70.1333,234.0457],[19.5016,70.1349,71.734],[19.4833,70.1375,160.1006],[19.475,70.1417,94.0316],[19.4688,70.1417,219.7434],[19.4672,70.1422,164.8521],[19.4682,70.1453,0.0],[19.4641,70.1474,20.062],[19.4547,70.1484,124.026],[19.4396,70.1563,118.171],[19.4333,70.1563,365.0939],[19.425,70.1604,302.5977],[19.4172,70.1609,336.9623]]],
[[[19.2182,70.2505,4.5522],[19.2167,70.2521,0.0],[19.2104,70.2521,3.3833],[19.2047,70.2547,9.19],[19.2057,70.2578,0.0],[19.2042,70.2583,0.7369],[19.1922,70.2557,6.3013],[19.1891,70.2526,3.9151],[19.1854,70.2521,3.9151],[19.1708,70.2583,8.9941],[19.1609,70.2557,0.0],[19.1547,70.2495,0.0],[19.1578,70.2464,0.0],[19.1505,70.2453,0.9003],[19.1484,70.2432,0.0],[19.1557,70.2391,0.0],[19.1542,70.2375,0.0],[19.1458,70.2375,133.1474],[19.1401,70.2401,167.1701],[19.1411,70.2432,9.2469],[19.1271,70.2458,0.0],[19.1234,70.2422,0.0],[19.1286,70.2412,36.3593],[19.1271,70.2396,0.0],[19.1063,70.2417,177.9447],[19.1021,70.2396,287.5188],[19.0917,70.2396,86.1445],[19.0818,70.237,0.0],[19.0943,70.2297,0.0],[19.1036,70.2286,31.3568],[19.1203,70.2203,0.6587],[19.1182,70.2172,3.458],[19.0964,70.212,1.7253],[19.0995,70.2099,108.2011],[19.0984,70.2068,0.0],[19.1417,70.2063,16.9191],[19.1458,70.2042,0.0],[19.1536,70.2037,0.0],[19.162,70.1995,0.0],[19.1542,70.1958,4.378],[19.1479,70.1979,-0.2018],[19.1271,70.1979,1.4487],[19.1229,70.1958,10.5954],[19.1063,70.1958,-0.025],[19.0964,70.1932,0.0],[19.0911,70.188,46.6045],[19.0839,70.187,0.0],[19.0911,70.1828,23.5275],[19.0901,70.1797,0.0],[19.0995,70.1766,0.0],[19.0984,70.1734,0.0],[19.1016,70.1724,0.0],[19.1005,70.1693,0.0],[19.1078,70.1661,2.768],[19.1057,70.163,0.0],[19.0984,70.162,0.0],[19.0922,70.1557,0.0],[19.0995,70.1505,0.0],[19.0958,70.15,10.2411],[19.0859,70.1547,0.0],[19.087,70.1578,0.0],[19.0839,70.1599,0.0],[19.087,70.1641,0.0],[19.0786,70.1682,0.0],[19.0708,70.1687,151.8056],[19.0667,70.1708,22.6546],[19.0604,70.1687,207.3952],[19.0438,70.1687,17.7945],[19.0396,70.1667,4.4867],[19.0292,70.1667,0.0],[19.0266,70.163,11.1568],[19.0167,70.1604,21.0535],[19.0083,70.1625,0.0],[19.0016,70.1568,0.9901],[18.9833,70.1563,0.0],[18.9797,70.1526,9.981],[18.9958,70.1479,0.0],[19.0083,70.1479,0.0],[19.0099,70.1474,53.6716],[19.0089,70.1443,0.0],[19.0104,70.1438,0.0],[19.0167,70.1438,11.5187],[19.0208,70.1417,0.0],[19.0333,70.1417,51.319],[19.0417,70.1375,0.0],[19.0479,70.1375,0.0],[19.0563,70.1333,0.0],[19.0625,70.1333,10.825],[19.0682,70.1307,62.0391],[19.0672,70.1276,0.0],[19.0797,70.1214,0.0],[19.0854,70.1188,0.0],[19.0932,70.1182,13.8889],[19.0922,70.1151,0.0],[19.1083,70.1104,0.0],[19.1354,70.1104,0.0],[19.1396,70.1125,28.5897],[19.1688,70.1125,0.0],[19.1792,70.1167,0.0],[19.1958,70.1167,0.0],[19.1974,70.1182,0.0],[19.1943,70.1203,0.0],[19.2026,70.1286,0.0137],[19.2286,70.1297,0.0],[19.2255,70.1328,43.6566],[19.2307,70.1349,0.0],[19.2276,70.137,2.7482],[19.2297,70.1391,0.0],[19.2354,70.1396,0.0],[19.237,70.1412,0.0],[19.2292,70.1417,34.7488],[19.2193,70.1464,2.8727],[19.2214,70.1495,4.1198],[19.2286,70.1505,0.0],[19.2214,70.1557,3.9657],[19.2286,70.1568,0.0],[19.238,70.1661,0.0],[19.2453,70.1672,0.0],[19.2484,70.1724,2.8781],[19.2557,70.1734,0.0],[19.262,70.1807,0.0],[19.2563,70.1833,13.1192],[19.2484,70.1839,10.7938],[19.2495,70.187,0.0],[19.2464,70.1891,2.4656],[19.2495,70.1932,0.0],[19.2422,70.1964,43.1265],[19.2474,70.2037,0.0],[19.2333,70.2104,10.967],[19.2297,70.2099,36.2406],[19.2328,70.2078,177.9601],[19.2313,70.2063,240.6823],[19.2229,70.2063,355.8286],[19.2172,70.2089,191.6087],[19.2188,70.2104,135.1716],[19.2245,70.2109,43.779],[19.2214,70.213,0.3342],[19.2234,70.2161,0.9329],[19.2349,70.2172,0.0953],[19.2432,70.2255,0.0],[19.2401,70.2286,99.1869],[19.2474,70.2297,0.0],[19.2417,70.2333,0.0],[19.2339,70.2338,45.1642],[19.2349,70.237,0.0],[19.2255,70.238,18.4389],[19.2266,70.2412,0.0],[19.2193,70.2443,13.2033],[19.2203,70.2474,0.0],[19.2172,70.2484,23.7507],[19.2182,70.2505,4.5522]]],
[[[19.5229,70.2542,1.4332],[19.5187,70.2542,0.0],[19.5172,70.2526,0.6334],[19.5286,70.2526,26.4441],[19.5271,70.2542,0.0],[19.5229,70.2542,1.4332]]],
[[[20.1641,70.1661,4.1019],[20.1604,70.1667,42.4659],[20.1589,70.1651,54.4013],[20.1625,70.1646,38.998],[20.1641,70.1661,4.1019]]],
[[[19.6453,70.2807,68.4929],[19.6375,70.2813,131.5806],[19.6292,70.2854,65.8689],[19.6255,70.2849,10.6004],[19.6208,70.2813,179.9949],[19.6021,70.2813,285.5317],[19.5958,70.2833,79.0338],[19.5891,70.2776,344.2988],[19.5755,70.2766,8.5534],[19.5786,70.2734,120.78],[19.5734,70.2672,17.4057],[19.5766,70.2651,160.2878],[19.5646,70.2646,0.0],[19.5604,70.2625,0.0],[19.5563,70.2625,0.0],[19.5526,70.2599,0.0],[19.5557,70.2568,0.0],[19.5422,70.2557,0.0],[19.5464,70.2526,0.0],[19.5542,70.2521,4.8662],[19.5641,70.2474,0.0],[19.563,70.2443,4.642],[19.5672,70.2422,0.0],[19.5766,70.2412,7.9387],[19.5688,70.2375,185.5805],[19.5604,70.2375,246.3438],[19.5495,70.2432,91.3506],[19.5401,70.2443,340.6136],[19.5292,70.25,223.8674],[19.5208,70.25,85.8373],[19.5146,70.2458,0.0],[19.4979,70.2458,6.2909],[19.4964,70.2443,0.0],[19.512,70.2432,1.8681],[19.5047,70.2338,0.0],[19.5125,70.2333,13.4523],[19.5141,70.2318,32.5893],[19.5068,70.2234,0.0],[19.5234,70.2151,0.0],[19.5375,70.2146,23.7169],[19.5521,70.2104,0.0],[19.5583,70.2104,0.0],[19.5625,70.2083,0.0],[19.5708,70.2104,7.6004],[19.5792,70.2063,0.0],[19.5932,70.2057,4.6548],[19.6099,70.1974,5.6373],[19.6089,70.1943,0.0],[19.6297,70.1839,0.0],[19.6391,70.1828,6.3095],[19.6516,70.1766,13.4659],[19.6505,70.1734,6.2564],[19.6578,70.1703,3.7471],[19.6568,70.1672,0.0],[19.6651,70.163,0.0],[19.6729,70.1625,13.4006],[19.6786,70.1599,34.715],[19.6745,70.1547,15.8538],[19.6646,70.1521,14.8205],[19.6542,70.1521,0.0],[19.6526,70.1505,2.7721],[19.6682,70.1432,1.5794],[19.6672,70.1401,0.0],[19.6766,70.1391,36.6838],[19.6755,70.1359,0.0],[19.6797,70.1339,0.0],[19.6995,70.1307,0.0],[19.6984,70.1276,0.0],[19.7016,70.1266,0.0],[19.7005,70.1234,0.0],[19.7036,70.1224,0.0],[19.7026,70.1193,0.0],[19.7141,70.1141,0.0],[19.713,70.1109,0.0],[19.7203,70.1078,22.6415],[19.7161,70.1026,0.0],[19.7083,70.1,26.6393],[19.6854,70.1,0.0],[19.6839,70.0984,5.7513],[19.6932,70.0974,107.4995],[19.6901,70.0922,0.0],[19.6979,70.0917,4.6457],[19.7036,70.0891,0.0],[19.7026,70.0859,0.0],[19.7057,70.0849,3.6367],[19.7047,70.0818,0.0],[19.712,70.0787,4.3184],[19.7068,70.0714,2.8328],[19.7125,70.0687,8.6524],[19.7203,70.0682,123.5642],[19.7193,70.0651,27.8007],[19.7318,70.0589,0.0],[19.7396,70.0583,7.8891],[19.7438,70.0563,5.0261],[19.7625,70.0563,13.7433],[19.7667,70.0542,0.0],[19.7896,70.0542,9.4047],[19.7938,70.0521,0.0],[19.8146,70.0542,16.2549],[19.8208,70.0521,0.0],[19.8271,70.0542,26.4281],[19.8333,70.0521,0.0],[19.8375,70.0542,2.6395],[19.8458,70.0542,1.5676],[19.8521,70.0521,0.0],[19.8563,70.0542,3.4666],[19.8708,70.05,2.805],[19.8875,70.0479,6.9477],[19.8917,70.0458,0.0],[19.8979,70.0479,3.1476],[19.9083,70.0479,0.0],[19.9125,70.05,4.9124],[19.9417,70.05,0.0],[19.9479,70.0521,6.7697],[19.9521,70.05,0.0],[19.9562,70.0521,4.627],[19.9729,70.0521,0.0],[19.9792,70.0563,88.0656],[19.9911,70.0568,0.0],[19.9964,70.062,0.0],[20.0036,70.063,0.0],[20.0057,70.0651,0.0],[20.0026,70.0672,15.4233],[20.0036,70.0703,25.6545],[19.988,70.0714,7.2197],[19.9896,70.0729,0.0],[19.9953,70.0734,0.0],[19.9995,70.0776,0.0],[20.0016,70.0797,0.0],[19.9984,70.0818,0.0],[20.0,70.0833,0.7459],[20.0271,70.0833,0.0],[20.0313,70.0854,0.0],[20.0417,70.0854,0.0],[20.0458,70.0875,13.3946],[20.0625,70.0875,0.0],[20.0667,70.0896,0.0],[20.0896,70.0896,0.0],[20.0911,70.0911,0.0],[20.088,70.0932,0.0],[20.0917,70.0958,0.0],[20.1063,70.0958,10.6822],[20.1104,70.0938,0.0],[20.1151,70.0974,10.365],[20.1224,70.0984,0.0],[20.1245,70.1005,5.9771],[20.1214,70.1026,3.5102],[20.1224,70.1057,0.0],[20.1208,70.1062,26.0169],[20.1146,70.1062,39.2918],[20.1083,70.1083,0.0],[20.1042,70.1062,9.9427],[20.0854,70.1062,58.5193],[20.0703,70.1141,17.1744],[20.0625,70.1146,6.5957],[20.0542,70.1188,0.0],[20.0396,70.1188,0.0],[20.0333,70.1167,34.8999],[20.025,70.1208,2.1223],[20.0187,70.1188,2.249],[20.0042,70.1188,10.3439],[19.9958,70.1229,3.8317],[19.9854,70.1229,1.0911],[19.9813,70.125,0.0],[19.9734,70.1255,0.0],[19.975,70.1271,0.0],[20.0021,70.1271,0.0],[20.0099,70.1349,0.0],[19.9943,70.1422,0.0],[19.9974,70.1474,1.3175],[19.9813,70.1521,0.0],[19.9589,70.1495,0.0],[19.9703,70.1432,0.0],[19.9667,70.1396,0.0],[19.9521,70.1396,0.0],[19.9479,70.1417,0.0],[19.9313,70.1438,6.5636],[19.9229,70.1479,2.636],[19.9151,70.1484,24.7582],[19.9182,70.1526,0.0],[19.9151,70.1547,2.0759],[19.9161,70.1578,0.0],[19.8979,70.1604,12.6544],[19.8937,70.1625,0.0],[19.8875,70.1625,8.5472],[19.8859,70.1641,15.7806],[19.8953,70.1734,0.0],[19.8922,70.1766,5.8705],[19.9125,70.175,0.0],[19.9188,70.1729,0.0],[19.9266,70.1807,0.0],[19.9141,70.187,0.0],[19.9047,70.188,6.312],[19.9078,70.1922,0.5104],[19.9063,70.1937,0.0],[19.8563,70.2,3.1672],[19.8479,70.2042,1.0309],[19.8401,70.2047,52.3757],[19.8411,70.2078,5.1288],[19.8396,70.2083,15.6896],[19.8359,70.2078,22.4823],[19.8214,70.1932,0.0],[19.8245,70.1911,4.4737],[19.8214,70.1859,0.0],[19.8245,70.1839,5.1527],[19.8172,70.1828,0.0],[19.8182,70.1755,0.0],[19.8161,70.1734,0.7579],[19.8089,70.1724,0.0],[19.8026,70.1661,3.6756],[19.8057,70.1641,5.7976],[19.8036,70.1609,1.0977],[19.7854,70.1563,0.0],[19.7589,70.1589,45.1779],[19.7599,70.162,0.0],[19.7568,70.1641,0.0],[19.7599,70.1682,0.0],[19.7526,70.1713,7.7077],[19.7536,70.1745,0.0],[19.7505,70.1755,2.207],[19.7516,70.1787,0.0],[19.7484,70.1797,27.9044],[19.7557,70.188,0.0],[19.7526,70.1901,0.0],[19.7536,70.1932,0.0],[19.7505,70.1943,7.0959],[19.7536,70.1995,0.0],[19.7505,70.2005,17.4244],[19.7516,70.2037,0.0],[19.7484,70.2047,11.5524],[19.7495,70.2078,0.0],[19.7339,70.2151,25.8459],[19.7349,70.2182,0.0],[19.7276,70.2224,1.0104],[19.7313,70.225,0.0],[19.7396,70.2229,0.0],[19.7438,70.225,0.6652],[19.7583,70.225,0.0],[19.7714,70.237,10.7044],[19.7786,70.238,0.0],[19.7807,70.2412,0.0],[19.7776,70.2422,10.2499],[19.7786,70.2453,0.0],[19.7755,70.2464,13.3085],[19.7786,70.2505,0.0],[19.7755,70.2526,24.7679],[19.7766,70.2557,0.0],[19.7667,70.2604,72.8383],[19.7396,70.2604,107.1379],[19.7214,70.2557,0.0],[19.7245,70.2536,0.0],[19.7224,70.2505,0.0],[19.7068,70.2474,0.0],[19.7068,70.2443,0.0],[19.7099,70.2432,0.0],[19.7089,70.2401,0.0],[19.7188,70.2354,0.0],[19.7307,70.2349,9.3813],[19.7318,70.2318,0.0],[19.7391,70.2286,7.8623],[19.7375,70.2271,0.0],[19.7292,70.2271,3.6911],[19.7146,70.2312,30.7312],[19.7021,70.2312,131.7219],[19.6938,70.2354,0.0],[19.6854,70.2354,0.1665],[19.6755,70.2328,0.0],[19.6786,70.2307,0.0],[19.6776,70.2276,0.0],[19.6807,70.2255,0.0],[19.6708,70.225,0.0],[19.6693,70.2266,0.0],[19.6724,70.2307,0.0],[19.663,70.2318,77.2617],[19.6646,70.2333,6.7253],[19.6703,70.2338,0.0],[19.6672,70.237,0.0],[19.6703,70.2412,0.0],[19.6672,70.2432,0.0],[19.6703,70.2474,0.0],[19.6672,70.2495,0.0],[19.6703,70.2536,0.0],[19.6646,70.2562,0.0],[19.6568,70.2568,178.4831],[19.6583,70.2583,60.0419],[19.6641,70.2589,0.0],[19.6661,70.262,0.0],[19.663,70.263,0.0],[19.662,70.2662,0.0],[19.6464,70.2734,3.9426],[19.6495,70.2786,0.0],[19.6453,70.2807,68.4929]]],
[[[19.6995,70.2599,1.5711],[19.6958,70.2604,2.1745],[19.6943,70.2589,-0.5],[19.6979,70.2583,3.7921],[19.6995,70.2599,1.5711]]],
[[[20.2047,70.3005,91.2903],[20.2021,70.3021,39.3529],[20.1943,70.3026,266.3951],[20.1953,70.3057,151.3882],[20.1896,70.3083,149.4461],[20.175,70.3083,138.0088],[20.1734,70.3068,184.7635],[20.1766,70.3057,202.3263],[20.1755,70.3026,173.9798],[20.1786,70.3005,288.6375],[20.1745,70.2963,286.3831],[20.1688,70.2958,47.9819],[20.1672,70.2943,68.7446],[20.1745,70.2911,314.8698],[20.1734,70.288,169.5105],[20.1828,70.287,164.6902],[20.1818,70.2839,8.0597],[20.1896,70.2833,225.9081],[20.1953,70.2807,338.0484],[20.188,70.2776,0.0],[20.1974,70.2766,296.7376],[20.1943,70.2724,75.0244],[20.1974,70.2693,147.3951],[20.1943,70.2651,4.4652],[20.1974,70.2641,109.6259],[20.1964,70.2609,0.0],[20.1995,70.2599,0.0],[20.1984,70.2568,0.0],[20.2016,70.2557,0.0],[20.1984,70.2505,0.0],[20.2016,70.2484,0.0],[20.1964,70.2422,0.0],[20.2036,70.2391,0.0],[20.1984,70.2318,0.0],[20.2057,70.2286,53.1183],[20.2047,70.2255,0.0],[20.2078,70.2245,36.3708],[20.2068,70.2214,0.0],[20.2151,70.2172,21.3809],[20.2203,70.2172,194.8779],[20.2276,70.2245,98.1408],[20.2349,70.2255,0.0],[20.2443,70.2349,2.9158],[20.2599,70.238,0.0],[20.2651,70.2432,4.8668],[20.2724,70.2443,0.0],[20.2771,70.2479,0.0],[20.2828,70.2484,0.0],[20.287,70.2526,0.0],[20.2839,70.2557,302.4603],[20.2911,70.2568,0.0],[20.2953,70.2609,0.0],[20.2896,70.2646,0.0],[20.2813,70.2646,0.0],[20.2766,70.2609,309.2193],[20.2714,70.2609,302.4409],[20.2724,70.2641,53.7075],[20.2682,70.2662,0.0],[20.2599,70.2703,0.0],[20.2521,70.2708,12.3946],[20.2422,70.2755,0.0],[20.2432,70.2786,0.0],[20.2318,70.2839,39.7747],[20.2328,70.287,0.0],[20.2271,70.2896,10.3279],[20.2193,70.2901,209.259],[20.2203,70.2932,95.7048],[20.2172,70.2943,193.4397],[20.2182,70.2974,37.8635],[20.2125,70.3,9.1659],[20.2047,70.3005,91.2903]]],
[[[19.7833,70.2917,23.0372],[19.7771,70.2917,69.3818],[19.7687,70.2958,0.0],[19.7609,70.2953,2.1286],[19.7693,70.2901,0.0],[19.7792,70.2875,0.0],[19.7828,70.288,1.4915],[19.7849,70.2901,0.0],[19.7833,70.2917,23.0372]]],
[[[19.163,70.263,0.0],[19.1667,70.2625,0.0],[19.1766,70.2662,0.0],[19.1667,70.2667,11.494],[19.163,70.263,0.0]]]]}
,"properties": {"GID_2": "NOR.17.10_1","GID_0": "NOR","country": "Norway","GID_1": "NOR.17_1","province": "Troms","NL_NAME_1": "NA","county": "Karlsøy","VARNAME_2": "NA","NL_NAME_2": "NA","TYPE_2": "Kommuner","ENGTYPE_2": "Municipality","CC_2": "NA","HASC_2": "NO.TR.KR","name": "Karlsøy.county","area_km2": 1035.1524,"hist_schema_id": "Elevation0-9000","hist_area_km2": {"0": 73.3073,"25": 86.8098,"50": 54.2428,"75": 53.9749,"100": 56.7248,"125": 54.2341,"150": 56.7138,"175": 52.7442,"200": 54.8452,"225": 53.3885,"250": 55.347,"275": 52.2254,"300": 46.4175,"325": 41.8384,"350": 33.7975,"375": 30.0709,"400": 25.6486,"425": 22.1253,"450": 19.0832,"475": 16.2096,"500": 14.6542,"525": 13.3848,"550": 12.5324,"575": 11.0509,"600": 8.3286,"625": 6.9129,"650": 6.0774,"675": 5.1842,"700": 4.0099,"725": 3.1363,"750": 2.4767,"775": 1.9096,"800": 1.3577,"825": 1.2566,"850": 0.9506,"875": 0.7633,"900": 0.4801,"925": 0.4068,"950": 0.3197,"975": 0.1672,"1000": 0.0362}}}