{"type":"Feature","properties":{"GID_2":"NOR.19.2_1","GID_0":"NOR","country":"Norway","GID_1":"NOR.19_1","province":"Vestfold","NL_NAME_1":"NA","county":"Borre","VARNAME_2":"NA","NL_NAME_2":"NA","TYPE_2":"Kommuner","ENGTYPE_2":"Municipality","CC_2":"NA","HASC_2":"NA","name":"Borre.county"},
"geometry":{"type": "MultiPolygon","coordinates": [[[[10.5175,59.3921,0.0],[10.5158,59.3921,0.0],[10.5153,59.3904,4.4398],[10.5186,59.3849,0.6833],[10.5131,59.3771,0.4036],[10.5186,59.3765,0.9135],[10.5208,59.3729,2.3505],[10.5358,59.3662,0.0],[10.5403,59.3715,0.0],[10.5386,59.3768,6.9595],[10.5392,59.3846,0.0],[10.5375,59.3868,0.0],[10.5342,59.3874,0.0],[10.5208,59.3862,1.6702],[10.5203,59.3921,0.0],[10.5175,59.3921,0.0]]],
[[[10.4597,59.3449,54.5396],[10.4764,59.3462,1.1194],[10.4725,59.3485,15.4283],[10.4731,59.3507,0.0],[10.4708,59.3496,6.7111],[10.4692,59.3513,0.0],[10.4669,59.3613,0.0],[10.4614,59.3707,15.7601],[10.4642,59.374,2.8927],[10.4664,59.3743,0.0],[10.4669,59.3765,0.0],[10.4725,59.3771,0.0],[10.4736,59.3804,2.1576],[10.4775,59.3812,0.0],[10.4797,59.3838,0.0],[10.4797,59.3913,0.0],[10.4825,59.3921,0.0],[10.4786,59.3924,1.388],[10.4769,59.3946,26.4809],[10.4775,59.396,14.1202],[10.4814,59.3963,0.0],[10.4858,59.4015,0.0],[10.4875,59.4093,0.7328],[10.4914,59.4138,3.0519],[10.4947,59.4126,0.0],[10.4947,59.4151,0.0],[10.4981,59.4151,0.0],[10.4986,59.419,1.4638],[10.4969,59.4204,20.3723],[10.4986,59.4207,-0.0682],[10.4958,59.4246,6.6032],[10.4964,59.4293,0.961],[10.4936,59.4321,3.9778],[10.4986,59.434,0.0],[10.4903,59.4346,1.3405],[10.4875,59.431,0.0],[10.4914,59.4304,2.2725],[10.4892,59.4285,6.9299],[10.4853,59.4287,5.3818],[10.4819,59.4313,1.7985],[10.4797,59.429,2.2852],[10.4869,59.4232,3.4306],[10.4758,59.4226,2.3873],[10.4564,59.4315,12.2391],[10.4553,59.4332,5.8148],[10.4586,59.4343,0.0],[10.4569,59.4385,0.0],[10.4519,59.4385,12.4101],[10.4419,59.4421,0.9025],[10.4414,59.4451,1.6666],[10.4481,59.4437,0.0],[10.4575,59.4443,5.3988],[10.4558,59.4418,1.7569],[10.4597,59.4393,2.5992],[10.4664,59.4393,1.8328],[10.4669,59.4421,4.0212],[10.4725,59.4418,0.0],[10.4753,59.4413,9.9209],[10.4753,59.4382,1.7549],[10.4781,59.4379,1.4666],[10.4831,59.4454,0.9508],[10.4831,59.451,0.0],[10.4708,59.4493,0.0],[10.4681,59.4476,0.0],[10.4681,59.4437,4.0212],[10.4664,59.4437,12.2185],[10.4658,59.4479,3.5364],[10.4558,59.4454,0.0],[10.4536,59.449,10.0075],[10.4486,59.4504,70.6094],[10.4481,59.4535,3.1],[10.4408,59.4535,3.2993],[10.4397,59.4515,0.0],[10.4319,59.4521,0.0],[10.4331,59.4493,3.6055],[10.4303,59.4479,5.8212],[10.4303,59.4449,7.8188],[10.4319,59.4429,19.9208],[10.4258,59.4413,1.7666],[10.4092,59.4465,2.1588],[10.4081,59.4504,0.0],[10.4008,59.4507,0.0],[10.3975,59.4501,0.0],[10.3908,59.4446,0.0],[10.3903,59.4388,14.3438],[10.3831,59.4388,3.4693],[10.3736,59.4474,5.2392],[10.3593,59.4463,62.4128],[10.3606,59.4419,64.8835],[10.3431,59.4406,94.1111],[10.3444,59.4361,101.7197],[10.3356,59.4355,115.4539],[10.3382,59.4266,90.4353],[10.3294,59.4259,100.7004],[10.3282,59.4304,100.3007],[10.3194,59.4297,106.1872],[10.3309,59.3898,88.3197],[10.3571,59.3917,72.408],[10.3559,59.3962,76.4196],[10.3733,59.3975,96.4591],[10.3772,59.3842,112.3247],[10.3684,59.3835,63.428],[10.371,59.3746,47.9532],[10.3797,59.3753,52.2281],[10.3835,59.362,59.8606],[10.3923,59.3626,71.7352],[10.3935,59.3582,98.5107],[10.3761,59.3569,44.1123],[10.3773,59.3524,24.7233],[10.3861,59.3531,90.8749],[10.3873,59.3486,81.1947],[10.3961,59.3493,70.2784],[10.3948,59.3537,87.9398],[10.4122,59.355,53.8123],[10.4135,59.3506,70.287],[10.4222,59.3512,53.819],[10.4235,59.3468,63.3131],[10.4322,59.3474,70.8782],[10.4335,59.343,89.6154],[10.4422,59.3436,79.9175],[10.4435,59.3392,64.7245],[10.4522,59.3398,56.686],[10.4509,59.3443,64.6115],[10.4597,59.3449,54.5396]]],
[[[10.4947,59.444,0.0],[10.4942,59.4451,0.0],[10.4875,59.4446,0.5109],[10.4864,59.4426,0.0],[10.4919,59.4407,0.7444],[10.4931,59.4385,0.0],[10.4992,59.4396,0.0],[10.4953,59.441,0.0],[10.4947,59.444,0.0]]]]}}