{"type":"Feature","properties":{"GID_2":"NOR.7.5_1","GID_0":"NOR","country":"Norway","GID_1":"NOR.7_1","province":"Hordaland","NL_NAME_1":"NA","county":"Bømlo","VARNAME_2":"NA","NL_NAME_2":"NA","TYPE_2":"Kommuner","ENGTYPE_2":"Municipality","CC_2":"NA","HASC_2":"NO.HO.BO","name":"Bømlo.county"},
"geometry":{"type": "MultiPolygon","coordinates": [[[[5.0947,59.5199,0.0],[5.0953,59.5224,0.0],[5.0897,59.5218,0.0],[5.0886,59.5176,0.0],[5.0925,59.5163,0.0],[5.0919,59.5176,0.0],[5.0947,59.5199,0.0]]],
[[[5.0953,59.6129,0.5101],[5.0919,59.614,0.0],[5.0886,59.6118,0.0],[5.0919,59.611,0.0],[5.0953,59.6129,0.5101]]],
[[[5.0914,59.6146,0.8439],[5.0919,59.6174,0.0],[5.0881,59.6157,0.0],[5.0897,59.6137,0.0],[5.0914,59.6146,0.8439]]],
[[[5.0908,59.6479,0.0],[5.0892,59.6518,0.5743],[5.0864,59.6518,0.0],[5.0864,59.6504,3.0146],[5.0842,59.6499,3.0146],[5.0853,59.6479,0.0],[5.0908,59.6479,0.0]]],
[[[5.0997,59.606,1.4344],[5.1007999999999996,59.6101,0.8732],[5.1025,59.611,0.0],[5.0986,59.6107,0.0],[5.0975,59.606,1.4344],[5.0997,59.606,1.4344]]],
[[[5.1031,59.6151,0.0],[5.1019,59.6165,2.6538],[5.0964,59.6168,1.8166],[5.0969,59.6146,0.177],[5.0997,59.6132,0.366],[5.1031,59.6151,0.0]]],
[[[5.1086,59.6137,0.0],[5.1086,59.6162,0.0],[5.1064,59.6168,3.9626],[5.1069,59.614,5.4809],[5.1086,59.6137,0.0]]],
[[[5.1042,59.6515,0.5532],[5.0975,59.6526,0.0],[5.0969,59.6493,0.0],[5.1014,59.6496,1.0567],[5.1042,59.6515,0.5532]]],
[[[5.1075,59.6551,1.0668],[5.1047,59.6563,0.0],[5.1036,59.6551,0.0],[5.1058,59.6532,0.5092],[5.1053,59.6499,0.0],[5.1125,59.6532,0.0],[5.1108,59.6557,0.0],[5.1075,59.6551,1.0668]]],
[[[5.0981,59.6943,0.9028],[5.0914,59.6954,4.0051],[5.0853,59.6932,1.5676],[5.0881,59.6904,0.0],[5.0997,59.6865,0.0],[5.1025,59.6882,0.0],[5.1003,59.6932,0.0],[5.0981,59.6943,0.9028]]],
[[[5.0997,59.7137,0.0],[5.1003,59.716,0.2541],[5.0897,59.7151,0.0],[5.0869,59.7121,0.0],[5.0919,59.7099,0.0],[5.0997,59.7137,0.0]]],
[[[5.1142,59.7532,0.0],[5.1119,59.7557,0.0],[5.1075,59.7546,0.0],[5.1097,59.7532,0.0],[5.1142,59.7532,0.0]]],
[[[5.0719,59.7749,0.0],[5.0725,59.7785,0.0],[5.0686,59.779,0.0],[5.0681,59.7765,1.6267],[5.0703,59.7743,0.0],[5.0719,59.7749,0.0]]],
[[[5.0936,59.7843,1.0938],[5.0942,59.7863,0.0],[5.0903,59.7851,3.498],[5.0908,59.7835,0.0],[5.0936,59.7843,1.0938]]],
[[[5.0942,59.7876,0.0],[5.0953,59.7907,0.0],[5.0925,59.791,2.1703],[5.0903,59.7893,0.0],[5.0825,59.7885,0.0],[5.0814,59.7863,0.0],[5.0908,59.7865,0.8364],[5.0942,59.7876,0.0]]],
[[[5.0786,59.7982,1.6707],[5.0758,59.7996,0.0],[5.0725,59.7965,0.6633],[5.0758,59.796,0.6641],[5.0786,59.7982,1.6707]]],
[[[5.0969,59.7985,0.0],[5.0919,59.7999,5.9564],[5.0925,59.7982,5.1041],[5.0892,59.7965,0.0],[5.0908,59.7943,1.2945],[5.0886,59.7926,0.0],[5.0925,59.7926,0.0],[5.0953,59.7957,0.0],[5.0942,59.7979,1.4292],[5.0969,59.7985,0.0]]],
[[[5.1119,59.801,8.6836],[5.1119,59.8026,5.888],[5.1086,59.8026,5.888],[5.1092,59.7999,0.0],[5.1119,59.801,8.6836]]],
[[[5.1053,59.8124,3.3135],[5.1014,59.8132,2.0806],[5.0997,59.8099,17.5167],[5.1092,59.8074,0.0],[5.1103,59.8101,0.0],[5.1053,59.8124,3.3135]]],
[[[5.1125,59.8182,0.0],[5.1108,59.8196,2.214],[5.1086,59.819,2.214],[5.1103,59.8163,0.0],[5.1136,59.8174,0.0],[5.1125,59.8182,0.0]]],
[[[5.0836,59.8012,0.0],[5.0847,59.8024,0.0],[5.0786,59.8007,0.0],[5.0814,59.799,0.0],[5.0836,59.8012,0.0]]],
[[[5.0736,59.804,0.0],[5.0753,59.8051,0.0],[5.0692,59.8046,1.0338],[5.0681,59.8032,0.205],[5.0708,59.8024,1.4388],[5.0736,59.804,0.0]]],
[[[5.0697,59.829,0.0],[5.0686,59.831,0.0],[5.0647,59.8307,0.0],[5.0664,59.8276,0.0],[5.0692,59.8271,5.2829],[5.0681,59.8262,0.0],[5.0736,59.8226,1.9845],[5.0675,59.8221,0.0],[5.0664,59.8257,2.4081],[5.0592,59.8276,2.4911],[5.0592,59.8254,0.0],[5.0636,59.824,2.6057],[5.0631,59.8221,4.3012],[5.0653,59.8204,3.6356],[5.0619,59.8193,0.6037],[5.0658,59.8185,0.0],[5.0692,59.8151,0.6936],[5.0636,59.8129,0.0],[5.0658,59.809,2.4668],[5.0592,59.8104,2.6314],[5.0575,59.806,1.512],[5.0631,59.8046,0.7485],[5.0614,59.8029,1.2654],[5.0636,59.8026,1.2654],[5.0669,59.8054,2.1943],[5.0664,59.809,2.4668],[5.0703,59.811,0.0],[5.0675,59.8135,3.0345],[5.0753,59.8132,4.9531],[5.0747,59.8146,0.0],[5.0769,59.8146,0.0],[5.0753,59.8126,4.9531],[5.0786,59.8107,2.9834],[5.0753,59.809,2.2009],[5.0797,59.8032,0.7568],[5.0847,59.8032,0.0],[5.0864,59.8074,20.6432],[5.0897,59.8096,14.5659],[5.0947,59.8093,8.735],[5.0958,59.8068,21.0019],[5.0908,59.8068,7.7154],[5.0869,59.804,3.4999],[5.0936,59.8018,0.0],[5.0919,59.8043,4.4677],[5.0969,59.804,13.685],[5.0969,59.8024,12.2206],[5.1007999999999996,59.7999,4.1436],[5.1003,59.7982,1.2988],[5.1042,59.7971,2.1872],[5.1025,59.7999,0.6221],[5.1053,59.8007,1.1753],[5.1053,59.8021,0.0],[5.1003,59.809,0.0],[5.0953,59.8115,1.7727],[5.0914,59.8104,0.0],[5.0919,59.814,0.0],[5.0886,59.8151,29.6282],[5.0842,59.8213,0.0],[5.0697,59.829,0.0]]],
[[[5.0592,59.8224,0.0],[5.0553,59.8235,0.0],[5.0586,59.8193,0.0],[5.0614,59.8196,0.6037],[5.0592,59.8224,0.0]]],
[[[5.1042,59.8193,11.4444],[5.0975,59.8196,0.7581],[5.1014,59.8174,0.0],[5.1053,59.8179,0.0],[5.1042,59.8193,11.4444]]],
[[[5.1164,59.8215,0.0],[5.1164,59.8229,4.3528],[5.1131,59.8232,3.3588],[5.1136,59.8213,5.7632],[5.1119,59.8199,2.214],[5.1142,59.8193,2.7438],[5.1164,59.8215,0.0]]],
[[[5.1019,59.8268,17.6099],[5.0931,59.8279,10.8141],[5.0903,59.826,0.4972],[5.0908,59.821,3.5827],[5.0892,59.819,0.0],[5.0953,59.8179,0.0],[5.0964,59.8199,0.7581],[5.0953,59.821,4.9437],[5.0986,59.8215,0.0],[5.0942,59.8229,14.8262],[5.0942,59.8257,9.0834],[5.1042,59.8221,5.4843],[5.1131,59.8238,0.0],[5.1019,59.8268,17.6099]]],
[[[5.0497,59.8262,1.2078],[5.0481,59.8279,2.0075],[5.0458,59.8276,0.0],[5.0469,59.8257,3.0818],[5.0519,59.8251,0.4497],[5.0497,59.8262,1.2078]]],
[[[5.0886,59.8288,1.092],[5.0908,59.8285,0.0],[5.0914,59.829,2.2507],[5.0864,59.8299,0.0],[5.0886,59.8288,1.092]]],
[[[5.0608,59.8329,2.7937],[5.0569,59.8343,0.0],[5.0581,59.8324,0.0],[5.0625,59.8315,0.0],[5.0608,59.8329,2.7937]]],
[[[5.0675,59.8349,4.643],[5.0653,59.8354,0.0],[5.0619,59.8351,0.0],[5.0708,59.8338,2.7841],[5.0675,59.8349,4.643]]],
[[[5.1186,59.8012,3.1743],[5.1153,59.8018,9.8874],[5.1125,59.7996,1.0329],[5.1158,59.7993,2.8465],[5.1186,59.8012,3.1743]]],
[[[5.1186,59.8274,4.7816],[5.1158,59.8276,0.0],[5.1142,59.8243,0.0],[5.1181,59.8246,0.0],[5.1197,59.8262,0.0],[5.1186,59.8274,4.7816]]],
[[[5.1281,59.8674,0.0],[5.1253,59.8682,2.3424],[5.1236,59.8671,0.0],[5.1297,59.8662,0.0],[5.1281,59.8674,0.0]]],
[[[5.0669,59.8415,0.0],[5.0619,59.8421,0.0],[5.0653,59.8396,0.0],[5.0675,59.8399,0.0],[5.0669,59.8415,0.0]]],
[[[5.0508,59.8465,0.0],[5.0519,59.8474,0.0],[5.0458,59.8474,0.0],[5.0481,59.8462,0.0],[5.0508,59.8465,0.0]]],
[[[5.0497,59.8599,0.0],[5.0514,59.8624,0.0],[5.0436,59.8621,0.0],[5.0458,59.8599,0.0],[5.0497,59.8599,0.0]]],
[[[5.1425,59.5199,1.2592],[5.1381,59.5204,0.5009],[5.1414,59.5176,1.0276],[5.1431,59.5179,1.0276],[5.1425,59.5199,1.2592]]],
[[[5.1458,59.5582,1.9408],[5.1414,59.5588,0.0],[5.1403,59.5574,1.9675],[5.1447,59.5554,0.0],[5.1469,59.5571,1.9408],[5.1458,59.5582,1.9408]]],
[[[5.1419,59.5779,0.0],[5.1386,59.579,0.0],[5.1369,59.5771,0.0],[5.1397,59.576,0.0],[5.1419,59.5779,0.0]]],
[[[5.1531,59.5976,0.0],[5.1453,59.599,0.0],[5.1425,59.596,7.9408],[5.1392,59.5962,0.0],[5.1392,59.5915,4.3836],[5.1347,59.5907,0.0],[5.1336,59.5882,4.3654],[5.1297,59.586,1.0908],[5.1319,59.5838,11.3992],[5.1386,59.5826,0.879],[5.1403,59.5793,3.5393],[5.1436,59.5793,1.578],[5.1453,59.5812,3.0888],[5.1408,59.5818,1.7711],[5.1403,59.5851,0.0789],[5.1375,59.5863,0.9055],[5.1386,59.5893,4.495],[5.1442,59.5901,0.5566],[5.1408,59.5865,0.0],[5.1492,59.5818,0.0],[5.1508,59.5846,6.9004],[5.1564,59.5843,0.9866],[5.1569,59.5865,1.8655],[5.1636,59.5893,4.1764],[5.1631,59.5918,7.1389],[5.1586,59.5924,1.6182],[5.1575,59.5951,27.3514],[5.1592,59.5954,5.1877],[5.1586,59.5976,1.9148],[5.1531,59.5976,0.0]]],
[[[5.1336,59.529,3.0939],[5.1319,59.5318,0.0],[5.1292,59.5315,4.2035],[5.1264,59.5268,0.0],[5.1319,59.5246,0.0],[5.1319,59.5279,6.9145],[5.1336,59.529,3.0939]]],
[[[5.1331,59.5793,0.0],[5.1314,59.5818,0.0],[5.1286,59.5801,0.0],[5.1297,59.5776,0.0],[5.1331,59.5793,0.0]]],
[[[5.1214,59.5876,0.0],[5.1236,59.5876,1.5017],[5.1236,59.5904,3.0334],[5.1197,59.5901,2.9775],[5.1214,59.5876,0.0]]],
[[[5.1247,59.5996,2.9373],[5.1225,59.6018,0.0],[5.1214,59.5982,0.0],[5.1269,59.5988,0.0],[5.1264,59.6001,0.6955],[5.1247,59.5996,2.9373]]],
[[[5.1119,59.5218,0.0],[5.1081,59.5215,2.1684],[5.1075,59.5182,0.7264],[5.1086,59.5182,0.0],[5.1119,59.5218,0.0]]],
[[[5.1131,59.5899,1.9529],[5.1119,59.5918,0.9342],[5.1092,59.5921,0.0],[5.1108,59.591,0.9342],[5.1097,59.5887,0.1379],[5.1108,59.5871,0.1379],[5.1136,59.5876,1.0179],[5.1131,59.5899,1.9529]]],
[[[5.1164,59.5971,11.2629],[5.1169,59.599,0.0],[5.1153,59.5999,6.8859],[5.1092,59.5976,1.7578],[5.1097,59.5935,0.0],[5.1125,59.5938,0.0],[5.1164,59.5971,11.2629]]],
[[[5.1086,59.6082,1.3458],[5.1081,59.6057,1.6874],[5.1103,59.6057,0.0],[5.1103,59.6085,1.3458],[5.1086,59.6082,1.3458]]],
[[[5.1169,59.6046,0.0],[5.1186,59.6043,0.0],[5.1169,59.606,0.0],[5.1131,59.6057,0.0],[5.1119,59.6032,0.0],[5.1136,59.6029,0.6022],[5.1169,59.6046,0.0]]],
[[[5.1297,59.6057,0.0],[5.1303,59.6076,0.0],[5.1219,59.6074,0.0],[5.1242,59.6032,0.0],[5.1286,59.6035,0.0],[5.1297,59.6057,0.0]]],
[[[5.1169,59.6068,0.0],[5.1164,59.6093,0.0],[5.1142,59.6079,0.0],[5.1147,59.6063,0.0],[5.1169,59.6068,0.0]]],
[[[5.1264,59.6096,1.2006],[5.1286,59.6096,0.5483],[5.1281,59.6126,4.8493],[5.1247,59.6113,0.0],[5.1264,59.6096,1.2006]]],
[[[5.1164,59.6115,2.8063],[5.1147,59.6137,0.0],[5.1192,59.6151,0.0],[5.1125,59.6137,0.8371],[5.1119,59.6104,0.0],[5.1181,59.6101,0.0],[5.1164,59.6115,2.8063]]],
[[[5.1214,59.6385,0.0],[5.1197,59.6407,0.0],[5.1119,59.6393,0.0],[5.1125,59.6374,0.0],[5.1158,59.636,0.0],[5.1214,59.6385,0.0]]],
[[[5.1219,59.6463,0.9465],[5.1192,59.6476,0.0],[5.1169,59.6465,4.1354],[5.1169,59.6449,0.0],[5.1208,59.6451,0.0],[5.1219,59.6463,0.9465]]],
[[[5.1169,59.6524,1.1226],[5.1186,59.6521,1.1226],[5.1186,59.6549,2.8062],[5.1136,59.6551,0.0],[5.1136,59.6532,0.0],[5.1169,59.6524,1.1226]]],
[[[5.1736,59.6058,4.1642],[5.1742,59.6068,0.0],[5.1719,59.6074,0.0],[5.1692,59.6043,0.0],[5.1719,59.604,2.3627],[5.1736,59.6058,4.1642]]],
[[[5.1486,59.6449,12.1032],[5.1447,59.6468,0.0],[5.1419,59.6446,7.2371],[5.1419,59.6418,2.1844],[5.1436,59.6413,2.1844],[5.1425,59.6393,1.8611],[5.1458,59.6368,0.0],[5.1442,59.6354,0.0],[5.1469,59.6329,0.0],[5.1464,59.6304,0.0],[5.1497,59.6296,0.0],[5.1581,59.6321,5.1793],[5.1575,59.6304,12.0173],[5.1497,59.6279,5.2146],[5.1503,59.6265,8.0633],[5.1481,59.6257,0.0],[5.1497,59.6235,5.3167],[5.1492,59.6213,0.0],[5.1514,59.6213,0.0],[5.1614,59.6268,1.8505],[5.1603,59.631,1.7149],[5.1614,59.6349,9.1594],[5.1558,59.6338,0.0],[5.1542,59.6349,0.0],[5.1531,59.6371,8.1279],[5.1547,59.639,0.0],[5.1486,59.6449,12.1032]]],
[[[5.1381,59.659,0.0],[5.1386,59.6599,0.0],[5.1358,59.6604,1.9124],[5.1319,59.6596,0.4946],[5.1364,59.6574,0.0],[5.1381,59.659,0.0]]],
[[[5.1331,59.6726,3.9406],[5.1275,59.6738,0.0],[5.1258,59.6715,0.0],[5.1314,59.6665,0.0],[5.1386,59.6685,0.0],[5.1358,59.6721,0.0],[5.1331,59.6726,3.9406]]],
[[[5.1175,59.6971,0.0],[5.1131,59.6976,0.0],[5.1064,59.694,0.1726],[5.1053,59.6899,1.4195],[5.1081,59.6888,4.0632],[5.1081,59.6857,0.4456],[5.1108,59.6843,0.0],[5.1192,59.6851,0.0],[5.1136,59.6888,6.4069],[5.1131,59.691,1.4433],[5.1175,59.6885,0.0],[5.1219,59.6893,6.8197],[5.1236,59.6874,2.0855],[5.1364,59.6904,0.0],[5.1331,59.6926,0.0],[5.1242,59.694,11.1857],[5.1242,59.6951,11.1857],[5.1175,59.6971,0.0]]],
[[[5.1192,59.7124,1.1945],[5.1197,59.714,0.0],[5.1175,59.7149,1.3537],[5.1131,59.711,0.4329],[5.1197,59.7082,0.0],[5.1264,59.709,3.2997],[5.1258,59.711,0.0],[5.1192,59.7124,1.1945]]],
[[[5.1275,59.7421,0.2421],[5.1286,59.7426,0.2421],[5.1281,59.7457,0.5104],[5.1253,59.744,0.5752],[5.1253,59.7426,0.2567],[5.1275,59.7421,0.2421]]],
[[[5.1203,59.7979,0.0],[5.1208,59.8004,1.908],[5.1158,59.7977,0.0],[5.1186,59.7971,0.8772],[5.1203,59.7979,0.0]]],
[[[5.1947,59.7501,6.5337],[5.1953,59.7524,0.3907],[5.1919,59.7529,0.0],[5.1914,59.7515,0.0],[5.1931,59.7507,1.5665],[5.1819,59.7476,0.7412],[5.1814,59.7443,0.0],[5.1864,59.7446,0.8674],[5.1908,59.749,0.9024],[5.1947,59.7482,0.0],[5.1947,59.7501,6.5337]]],
[[[5.1847,59.7515,2.1047],[5.1875,59.751,0.0],[5.1892,59.7532,0.0],[5.1869,59.7532,3.4193],[5.1847,59.7515,2.1047]]],
[[[5.1331,59.8229,6.0866],[5.1314,59.8243,2.9176],[5.1286,59.8221,0.0],[5.1314,59.8221,6.0866],[5.1331,59.8229,6.0866]]],
[[[5.1675,59.8404,13.8864],[5.1642,59.8421,0.0],[5.1642,59.8404,2.6658],[5.1681,59.8371,5.3055],[5.1725,59.8363,0.0],[5.1719,59.8385,9.8115],[5.1675,59.8404,13.8864]]],
[[[5.3075,59.6699,0.0],[5.3064,59.6721,2.5534],[5.3019,59.6715,1.4286],[5.3031,59.6693,0.6053],[5.3075,59.6699,0.0]]],
[[[5.3008,59.6799,0.0],[5.2975,59.6815,2.3957],[5.2936,59.6804,2.3752],[5.2969,59.6787,0.0],[5.3008,59.6799,0.0]]],
[[[5.2619,59.6876,6.4682],[5.2592,59.6888,0.0],[5.2586,59.6865,6.7063],[5.2619,59.684,0.0],[5.2619,59.6818,0.0],[5.2647,59.681,0.0],[5.2658,59.6843,0.0],[5.2631,59.6865,1.3436],[5.2647,59.6876,1.7413],[5.2619,59.6876,6.4682]]],
[[[5.3136,59.6999,2.6176],[5.3075,59.701,0.5515],[5.3114,59.6974,2.2434],[5.3269,59.6971,0.878],[5.3275,59.6949,0.4342],[5.3258,59.6937,0.0],[5.3292,59.694,0.0],[5.3286,59.6976,0.0],[5.3136,59.6999,2.6176]]],
[[[5.3219,59.7057,6.2149],[5.3158,59.7068,10.0304],[5.3125,59.706,0.9674],[5.3125,59.704,8.4388],[5.3142,59.7026,3.559],[5.3236,59.7024,0.0],[5.3242,59.7038,11.7366],[5.3275,59.704,0.0],[5.3219,59.7057,6.2149]]],
[[[5.2808,59.7051,0.0],[5.2808,59.7074,0.0],[5.2764,59.7082,0.0],[5.2775,59.7057,5.4847],[5.2808,59.7051,0.0]]],
[[[5.3731,59.7374,0.0],[5.3681,59.7385,15.0957],[5.3586,59.7329,4.1615],[5.3547,59.7349,0.0],[5.3519,59.7324,1.448],[5.3614,59.7279,0.0],[5.3669,59.7274,3.7926],[5.3681,59.7246,0.0],[5.3742,59.7201,0.0],[5.3808,59.7199,0.5317],[5.3825,59.7221,3.4152],[5.3864,59.7218,0.0],[5.3869,59.7229,0.0],[5.3847,59.7238,0.0],[5.3819,59.729,3.1279],[5.3775,59.7287,8.9494],[5.3753,59.7304,10.5764],[5.3758,59.7337,9.5111],[5.3731,59.7374,0.0]]],
[[[5.2647,59.736,4.3373],[5.2664,59.7371,0.0],[5.2619,59.7376,0.0],[5.2569,59.7337,4.1532],[5.2592,59.7324,22.4081],[5.2558,59.7299,0.0],[5.2564,59.7251,0.0],[5.2586,59.7232,0.0],[5.2642,59.7243,4.6979],[5.2636,59.7271,8.3135],[5.2675,59.7251,0.0],[5.2714,59.7279,0.0],[5.2653,59.7307,0.0],[5.2664,59.7326,4.9567],[5.2647,59.736,4.3373]]],
[[[5.1364,59.6951,0.0],[5.1292,59.6957,0.0],[5.1319,59.6932,0.0],[5.1358,59.6935,0.0],[5.1364,59.6951,0.0]]],
[[[5.1508,59.7124,0.0],[5.1492,59.714,0.0],[5.1442,59.7137,7.0347],[5.1408,59.7129,0.4028],[5.1408,59.7115,0.0],[5.1458,59.7093,2.667],[5.1453,59.7076,0.0],[5.1469,59.7062,0.0],[5.1458,59.7051,0.0],[5.1542,59.7046,0.0],[5.1564,59.7065,2.1889],[5.1564,59.7088,0.0],[5.1481,59.7096,2.3684],[5.1536,59.711,2.9572],[5.1508,59.7124,0.0]]],
[[[5.0903,59.8307,0.0],[5.0908,59.8293,2.2507],[5.0953,59.8288,0.0],[5.0936,59.8321,2.5592],[5.0903,59.8326,0.0],[5.0919,59.8338,0.0],[5.0914,59.8357,6.7549],[5.0947,59.8368,3.1489],[5.0964,59.8363,13.0749],[5.0953,59.8324,8.4494],[5.0969,59.8307,14.9928],[5.1092,59.8262,0.0],[5.1142,59.8271,23.3515],[5.1147,59.8304,0.0],[5.1186,59.8301,0.0],[5.1186,59.8288,0.0],[5.1214,59.8279,0.0],[5.1225,59.8301,4.7162],[5.1264,59.831,0.0],[5.1225,59.8276,0.0],[5.1225,59.8246,0.0],[5.1297,59.8251,2.9607],[5.1308,59.8276,9.3831],[5.1331,59.8282,0.0],[5.1314,59.8307,9.056],[5.1342,59.8288,0.0],[5.1375,59.829,5.8863],[5.1336,59.8279,0.0],[5.1336,59.8265,0.0],[5.1364,59.8262,0.0],[5.1364,59.8229,12.3174],[5.1258,59.819,0.0],[5.1264,59.8174,1.651],[5.1208,59.8185,11.2049],[5.1242,59.8204,0.0],[5.1231,59.8235,0.0],[5.1208,59.8218,0.0],[5.1214,59.8199,6.515],[5.1164,59.8182,0.0],[5.1175,59.8165,0.0],[5.1214,59.8171,11.2049],[5.1236,59.8157,1.265],[5.1208,59.8146,0.0],[5.1225,59.8118,0.0],[5.1275,59.8143,0.0],[5.1353,59.8129,15.5097],[5.1342,59.811,14.3627],[5.1292,59.8104,6.2794],[5.1331,59.8068,7.7756],[5.1247,59.8074,0.0],[5.1275,59.806,8.8604],[5.1253,59.8035,15.022],[5.1264,59.8004,8.3287],[5.1225,59.7996,1.908],[5.1258,59.7957,11.5921],[5.1186,59.7929,0.3126],[5.1175,59.7901,20.5098],[5.1108,59.7874,1.188],[5.1114,59.7851,6.8576],[5.1081,59.7843,1.9669],[5.1097,59.781,5.9136],[5.1053,59.7815,1.0075],[5.1042,59.7799,0.0],[5.1086,59.7785,5.3729],[5.1092,59.7801,0.0],[5.1125,59.7804,2.3745],[5.1158,59.7837,0.0],[5.1181,59.7835,2.353],[5.1186,59.7818,9.756],[5.1153,59.7821,0.0],[5.1131,59.7785,6.7579],[5.1053,59.7776,0.0],[5.1031,59.7746,0.0],[5.1081,59.7735,1.281],[5.1075,59.7704,11.1795],[5.1025,59.7699,2.0536],[5.1047,59.7693,1.1079],[5.1036,59.7674,0.0],[5.1114,59.7668,0.0],[5.1047,59.7649,1.5482],[5.1042,59.7618,0.0],[5.1086,59.7632,9.2623],[5.1075,59.7601,0.0],[5.1108,59.7599,1.8329],[5.1069,59.7571,0.7522],[5.1164,59.7588,2.0061],[5.1153,59.7624,4.3667],[5.1175,59.7626,2.4485],[5.1197,59.7626,12.2678],[5.1186,59.7576,0.0],[5.1197,59.7571,3.6038],[5.1253,59.7568,0.0],[5.1281,59.759,1.7765],[5.1303,59.7585,2.3528],[5.1281,59.7557,0.0],[5.1314,59.7518,6.1638],[5.1242,59.7487,0.5817],[5.1231,59.7465,0.0],[5.1286,59.746,0.5104],[5.1303,59.749,1.2634],[5.1353,59.7499,0.0],[5.1364,59.7524,2.4631],[5.1436,59.7526,1.856],[5.1403,59.7479,4.1913],[5.1336,59.7435,0.595],[5.1336,59.741,0.4565],[5.1347,59.739,0.393],[5.1369,59.7388,3.044],[5.1375,59.736,2.5525],[5.1236,59.7371,0.7634],[5.1247,59.7399,3.6586],[5.1236,59.7404,3.6586],[5.1175,59.7404,2.8279],[5.1136,59.7379,0.0],[5.1181,59.7354,1.9224],[5.1119,59.7337,0.0],[5.1136,59.7324,0.8988],[5.1131,59.7307,0.0],[5.1153,59.7332,0.1522],[5.1175,59.7329,3.5977],[5.1192,59.7318,6.4313],[5.1181,59.7296,0.2141],[5.1231,59.7299,2.3158],[5.1242,59.7243,0.0],[5.1275,59.7235,3.2707],[5.1214,59.7226,0.0],[5.1225,59.7215,0.0],[5.1308,59.7207,1.4234],[5.1297,59.7232,1.1582],[5.1314,59.7243,0.0],[5.1292,59.7251,2.6523],[5.1331,59.7268,0.7555],[5.1381,59.7254,0.0],[5.1431,59.7274,2.6414],[5.1442,59.7299,2.1702],[5.1386,59.7299,4.4645],[5.1408,59.7321,5.0844],[5.1447,59.7321,2.8327],[5.1431,59.7332,2.8327],[5.1442,59.7374,4.593],[5.1419,59.7415,0.0],[5.1436,59.744,3.9558],[5.1486,59.7463,1.0534],[5.1481,59.7479,1.7019],[5.1508,59.751,1.4485],[5.1475,59.7526,1.2772],[5.1486,59.754,0.9154],[5.1469,59.754,0.7726],[5.1458,59.7524,0.5088],[5.1419,59.7562,0.2874],[5.1353,59.756,1.6475],[5.1392,59.7574,3.6646],[5.1386,59.7596,2.4083],[5.1403,59.7607,2.9965],[5.1442,59.7613,0.0],[5.1469,59.7596,1.7743],[5.1497,59.7615,0.0],[5.1519,59.7679,1.1298],[5.1564,59.7693,1.2739],[5.1536,59.771,0.0],[5.1525,59.769,5.9218],[5.1508,59.7693,7.612],[5.1519,59.7738,6.2307],[5.1575,59.776,15.4296],[5.1631,59.7815,0.0],[5.1669,59.7807,19.2137],[5.1625,59.7799,7.9828],[5.1603,59.776,0.0],[5.1631,59.7757,0.0],[5.1614,59.7729,0.0],[5.1625,59.7715,5.8503],[5.1564,59.7685,0.0],[5.1575,59.7671,0.0],[5.1564,59.7657,0.0],[5.1592,59.7624,0.0],[5.1575,59.7596,0.0],[5.1608,59.7593,1.3691],[5.1642,59.7624,2.3582],[5.1658,59.7615,2.0497],[5.1653,59.7596,0.3383],[5.1675,59.7596,0.4028],[5.1708,59.7613,2.0408],[5.1686,59.7637,3.1465],[5.1742,59.7649,4.1101],[5.1714,59.7599,0.0],[5.1703,59.7524,2.015],[5.1742,59.749,7.8063],[5.1769,59.7487,0.0],[5.1792,59.751,2.1482],[5.1819,59.7504,0.0],[5.1825,59.7524,2.5724],[5.1869,59.7551,0.0],[5.1931,59.7538,0.7343],[5.1953,59.7551,0.0],[5.1942,59.7568,7.3851],[5.1969,59.7613,1.0699],[5.1997,59.7607,10.5282],[5.1981,59.7574,3.3392],[5.2008,59.7565,9.7016],[5.1986,59.7535,0.9053],[5.1986,59.7496,0.0],[5.2036,59.7507,5.3931],[5.2058,59.754,13.3966],[5.2147,59.759,11.6056],[5.2342,59.7588,25.6247],[5.2331,59.7554,0.0],[5.2353,59.7549,0.0],[5.2414,59.7576,1.602],[5.2453,59.7543,17.3624],[5.2364,59.7485,31.8955],[5.2353,59.7518,2.3061],[5.2325,59.7521,0.0],[5.2319,59.7543,0.0],[5.2253,59.7524,0.0],[5.2253,59.7546,1.0419],[5.2281,59.7551,3.3475],[5.2269,59.7576,2.8684],[5.2214,59.7574,0.0],[5.2181,59.7554,0.7551],[5.2197,59.7526,9.3875],[5.2169,59.7518,0.0],[5.2153,59.7482,6.4212],[5.2081,59.7465,0.0],[5.2119,59.7449,0.0],[5.2181,59.7476,1.0198],[5.2186,59.7493,8.8609],[5.2214,59.7493,1.6844],[5.2219,59.7476,16.1449],[5.2192,59.7457,0.0],[5.2219,59.7454,22.1186],[5.2208,59.7435,0.0],[5.2225,59.7421,8.6892],[5.2203,59.7412,1.1034],[5.2247,59.7388,13.5877],[5.2214,59.7371,0.0],[5.2108,59.7376,3.2427],[5.2064,59.7424,1.5994],[5.1992,59.7415,5.6965],[5.1986,59.7401,0.0],[5.2008,59.7393,0.0],[5.2014,59.7365,10.5883],[5.1975,59.7346,0.0],[5.2003,59.7335,25.4939],[5.1864,59.7329,1.4439],[5.1819,59.7299,0.0],[5.1814,59.7257,0.0],[5.1836,59.724,2.9622],[5.1769,59.7246,4.503],[5.1725,59.7232,4.9601],[5.1736,59.7212,2.4345],[5.1725,59.7199,13.8432],[5.1675,59.7174,1.4267],[5.1719,59.7157,0.6153],[5.1647,59.7143,6.4118],[5.1675,59.711,20.2765],[5.1647,59.7107,3.9182],[5.1647,59.7088,14.6328],[5.1625,59.7074,5.2629],[5.1631,59.7032,0.0],[5.1664,59.7012,1.9541],[5.1769,59.7001,13.6792],[5.1714,59.6993,0.0],[5.1703,59.6965,10.2778],[5.1631,59.6957,0.0],[5.1664,59.6932,25.0465],[5.1625,59.6926,0.7684],[5.1619,59.6871,7.9998],[5.1558,59.6851,1.451],[5.1558,59.6801,9.3808],[5.1536,59.6796,0.0],[5.1542,59.6771,7.1867],[5.1514,59.6754,0.0],[5.1514,59.6735,0.0],[5.1536,59.6724,7.0691],[5.1531,59.6676,0.0],[5.1586,59.6671,11.7007],[5.1625,59.6712,0.0],[5.1686,59.6724,1.6866],[5.1647,59.6685,35.4799],[5.1603,59.6668,5.2824],[5.1608,59.6643,2.6728],[5.1558,59.6615,0.0],[5.1564,59.6565,7.236],[5.1514,59.656,0.0],[5.1508,59.6526,0.0],[5.1531,59.6499,0.0],[5.1586,59.6482,0.3212],[5.1575,59.6465,0.0],[5.1614,59.6454,0.0],[5.1603,59.6429,2.9183],[5.1636,59.6418,3.5332],[5.1625,59.6368,2.9636],[5.1658,59.6326,5.5034],[5.1669,59.6263,1.2622],[5.1697,59.626,1.2622],[5.1703,59.6276,5.4601],[5.1731,59.6282,0.1699],[5.1725,59.6307,2.0581],[5.1747,59.6318,0.0],[5.1842,59.629,2.5904],[5.1825,59.6249,16.7503],[5.1708,59.621,1.2401],[5.1681,59.6171,3.336],[5.1642,59.6151,7.311],[5.1669,59.6101,0.0],[5.1725,59.611,6.3842],[5.1719,59.6085,0.0],[5.1764,59.6074,0.0],[5.1819,59.6082,0.4702],[5.1825,59.6118,0.0],[5.1858,59.6124,2.4743],[5.1836,59.6115,0.0],[5.1853,59.6101,3.9899],[5.1831,59.609,0.0],[5.1842,59.6051,22.6534],[5.1797,59.6037,0.0],[5.1797,59.6015,5.7594],[5.1719,59.5985,0.0],[5.1703,59.5932,0.0],[5.1742,59.5935,1.1977],[5.1769,59.591,0.7524],[5.1869,59.5954,0.0],[5.1947,59.5951,0.0],[5.1886,59.5915,9.7062],[5.1775,59.589,1.0627],[5.1792,59.5863,1.2107],[5.1775,59.5849,0.6861],[5.1825,59.5846,23.4423],[5.1758,59.5815,0.0],[5.1819,59.579,0.0],[5.1797,59.5768,0.0],[5.1831,59.574,6.4915],[5.2047,59.5762,2.9604],[5.2225,59.5843,0.0],[5.2253,59.5865,0.0],[5.2257999999999996,59.589,0.0],[5.2242,59.5899,0.0],[5.2257999999999996,59.5901,0.0],[5.2257999999999996,59.5921,11.2405],[5.2336,59.5951,0.0],[5.2408,59.5951,0.0],[5.2497,59.6021,7.9572],[5.2486,59.606,1.9978],[5.2497,59.6068,1.9978],[5.2475,59.6082,0.0],[5.2514,59.6107,0.0],[5.2458,59.6126,0.8336],[5.2408,59.6118,0.0],[5.2347,59.6079,2.0134],[5.2292,59.6074,1.7656],[5.2286,59.6054,17.166],[5.2181,59.604,4.468],[5.2275,59.6074,17.282],[5.2331,59.6118,1.1222],[5.2347,59.6099,0.0],[5.2358,59.6115,4.9402],[5.2447,59.614,0.0],[5.2464,59.6157,0.0],[5.2458,59.6176,3.5809],[5.2497,59.6185,1.6533],[5.2486,59.6201,13.5825],[5.2458,59.6199,5.8795],[5.2353,59.6132,10.2093],[5.2331,59.614,0.9672],[5.2342,59.616,0.0],[5.2281,59.6157,1.4421],[5.2297,59.6196,19.9509],[5.2369,59.6179,0.0],[5.2431,59.6235,3.9408],[5.2492,59.6254,0.0],[5.2481,59.626,0.0],[5.2486,59.6293,4.1752],[5.2425,59.6343,0.0],[5.2447,59.6368,0.0],[5.2369,59.639,4.3308],[5.2386,59.6418,6.6969],[5.2303,59.6432,13.9324],[5.2269,59.6463,19.1734],[5.2325,59.6482,0.0],[5.2325,59.6507,0.0],[5.2297,59.6512,23.1972],[5.2331,59.6535,0.0],[5.2308,59.6576,9.1516],[5.2358,59.6563,0.0],[5.2436,59.6568,0.0],[5.2447,59.659,4.5742],[5.2508,59.6593,3.8643],[5.2536,59.6629,2.433],[5.2586,59.6624,0.0],[5.2647,59.6654,0.0],[5.2636,59.6693,12.9911],[5.2675,59.6732,0.0],[5.2636,59.6768,8.3729],[5.2569,59.6779,0.0],[5.2608,59.681,0.0],[5.2553,59.686,2.9895],[5.2558,59.6882,5.887],[5.2514,59.6913,21.1676],[5.2547,59.6929,0.0],[5.2458,59.694,13.6845],[5.2464,59.6951,2.982],[5.2442,59.6965,0.0],[5.2486,59.7021,31.7086],[5.2503,59.7021,31.7086],[5.2503,59.7001,0.0],[5.2558,59.7004,0.0],[5.2569,59.6971,3.7063],[5.2558,59.696,1.7635],[5.2581,59.6949,0.0],[5.2647,59.696,12.9377],[5.2686,59.7001,2.1772],[5.2664,59.7046,7.271],[5.2719,59.7057,0.0],[5.2697,59.7085,15.5992],[5.2708,59.7104,5.3337],[5.2675,59.7118,9.7774],[5.2692,59.7188,3.5665],[5.2786,59.7232,0.0],[5.2786,59.7251,9.7042],[5.2592,59.7199,28.9105],[5.2581,59.7165,12.1881],[5.2542,59.7143,0.0],[5.2519,59.7101,0.0],[5.2536,59.7074,6.1484],[5.2492,59.7068,22.3607],[5.2492,59.7096,12.5454],[5.2464,59.711,0.0],[5.2486,59.7132,0.0],[5.2464,59.7137,0.0],[5.2447,59.7171,0.6924],[5.2508,59.7221,0.0],[5.2442,59.7226,0.0],[5.2442,59.7262,0.0],[5.2469,59.7274,21.719],[5.2458,59.7257,0.0],[5.2492,59.7235,0.0],[5.2519,59.7235,0.0],[5.2547,59.7257,0.0],[5.2497,59.7293,10.1091],[5.2503,59.7321,0.0],[5.2464,59.7321,0.0],[5.2481,59.7304,10.1091],[5.2469,59.7287,21.719],[5.2442,59.7296,0.0],[5.2447,59.7368,0.0],[5.2414,59.7412,6.7207],[5.2431,59.7432,0.0],[5.2425,59.746,2.887],[5.2475,59.7435,0.0],[5.2475,59.7451,0.0],[5.2519,59.746,6.9991],[5.2525,59.7424,2.3984],[5.2575,59.7424,3.1595],[5.2614,59.7438,11.5384],[5.2642,59.7482,12.099],[5.2675,59.749,15.7153],[5.2669,59.7446,4.423],[5.2703,59.7432,16.4792],[5.2686,59.739,0.0],[5.2719,59.736,21.1373],[5.2719,59.7329,7.1003],[5.2747,59.7304,0.0],[5.2736,59.7293,0.0],[5.2781,59.7285,13.2644],[5.2775,59.7268,0.0],[5.2803,59.726,2.7266],[5.2903,59.7293,0.0],[5.2931,59.7318,0.0],[5.2953,59.7262,3.3664],[5.2997,59.7251,0.0],[5.3169,59.726,0.0],[5.3158,59.7299,2.0856],[5.3097,59.7335,4.8677],[5.3053,59.7337,1.8812],[5.3036,59.731,1.8276],[5.3014,59.7321,8.2396],[5.3047,59.7365,0.0],[5.3086,59.7382,1.4268],[5.3108,59.7426,8.7218],[5.3169,59.7443,17.4307],[5.3136,59.7426,0.0],[5.3136,59.7393,0.0],[5.3186,59.7385,0.0],[5.3242,59.7349,0.0],[5.3236,59.7326,1.2404],[5.3269,59.7313,2.3425],[5.3242,59.7296,0.0],[5.3242,59.7274,0.0],[5.3297,59.7246,17.4083],[5.3269,59.7215,13.1964],[5.3297,59.7165,4.8311],[5.3403,59.7126,4.2373],[5.3369,59.7099,6.4167],[5.3386,59.7082,1.1706],[5.3375,59.7043,6.6377],[5.3297,59.7046,7.1174],[5.3275,59.7026,1.2481],[5.3314,59.6985,0.0],[5.3414,59.696,4.5752],[5.3419,59.6946,15.6732],[5.3353,59.6932,7.444],[5.3342,59.6913,1.5551],[5.3292,59.6924,0.0],[5.3197,59.6896,7.1869],[5.3175,59.6913,2.2138],[5.3169,59.694,0.0],[5.2975,59.6982,0.0],[5.2947,59.6963,9.8693],[5.2947,59.6937,14.812],[5.2925,59.6913,5.0046],[5.2964,59.6862,2.3379],[5.2919,59.6851,6.888],[5.2931,59.6826,1.1892],[5.3092,59.6885,3.1655],[5.3153,59.6874,2.7227],[5.3125,59.6846,3.274],[5.3153,59.6807,6.991],[5.3108,59.6793,1.2053],[5.3108,59.6776,9.7045],[5.3008,59.6774,0.0],[5.2981,59.6754,2.6062],[5.2997,59.6735,0.0],[5.3136,59.6729,0.0],[5.3507999999999996,59.6807,2.813],[5.3614,59.6865,0.5116],[5.3603,59.6885,1.3136],[5.3636,59.689,0.0],[5.3642,59.6907,1.011],[5.3719,59.6907,0.0],[5.3725,59.6921,0.0],[5.3692,59.6949,9.1345],[5.3864,59.6943,0.0],[5.3897,59.6974,7.3982],[5.3881,59.6999,0.5387],[5.3908,59.7004,0.0],[5.3886,59.7032,1.3196],[5.3953,59.7018,0.0],[5.3942,59.7038,3.7496],[5.3958,59.7046,0.0],[5.3903,59.7057,1.8257],[5.3953,59.7079,0.0],[5.3953,59.7118,3.1346],[5.3881,59.7096,4.2437],[5.3875,59.7107,3.2914],[5.3903,59.7124,0.0],[5.3853,59.7118,5.794],[5.3864,59.7079,15.0413],[5.3842,59.7074,2.6458],[5.3775,59.7132,0.0],[5.3753,59.7129,0.0],[5.3769,59.7101,1.3807],[5.3747,59.7099,8.0445],[5.3664,59.7151,1.6689],[5.3647,59.7143,1.6689],[5.3669,59.7124,1.4632],[5.3664,59.7107,3.1826],[5.3608,59.711,3.5324],[5.3558,59.7146,12.0432],[5.3542,59.7204,5.2021],[5.3497,59.724,0.0],[5.3503,59.7262,0.0],[5.3464,59.7265,2.5242],[5.3486,59.7279,2.0023],[5.3486,59.7321,0.0],[5.3469,59.7337,18.4769],[5.3497,59.7349,0.0],[5.3481,59.7357,0.0],[5.3481,59.7385,0.0],[5.3436,59.7404,23.0561],[5.3419,59.7424,0.0],[5.3425,59.7443,0.0],[5.3386,59.7454,23.3698],[5.3425,59.7474,0.0],[5.3381,59.7482,5.8253],[5.3442,59.7493,7.5893],[5.3436,59.7513,5.7866],[5.3486,59.7526,5.8998],[5.3486,59.7554,13.0193],[5.3381,59.759,2.2646],[5.3414,59.7607,0.0],[5.3325,59.7651,34.3391],[5.3208,59.7693,6.3182],[5.3186,59.774,13.8102],[5.3219,59.7765,0.0],[5.3186,59.7776,8.5411],[5.3203,59.781,0.0],[5.3186,59.7818,26.8679],[5.3164,59.7876,0.0],[5.3064,59.7965,0.0],[5.3042,59.8012,0.0],[5.2964,59.8046,12.4567],[5.2925,59.8099,1.8887],[5.2881,59.8118,17.7936],[5.2792,59.8107,3.1085],[5.2803,59.8074,10.4571],[5.2786,59.8051,0.0],[5.2786,59.8001,7.1028],[5.2714,59.8026,3.3956],[5.2692,59.7993,10.1159],[5.2636,59.799,0.0],[5.2625,59.7971,5.8221],[5.2642,59.7954,7.1588],[5.2631,59.7949,7.1588],[5.2614,59.7949,9.7369],[5.2614,59.7979,5.8221],[5.2497,59.8021,2.5087],[5.2525,59.804,2.286],[5.2558,59.8037,0.0],[5.2558,59.8074,0.0],[5.2514,59.8107,3.557],[5.2586,59.8085,1.7822],[5.2592,59.8065,0.0],[5.2647,59.8093,5.7049],[5.2731,59.8079,0.0],[5.2736,59.8096,2.5955],[5.2708,59.8115,2.3894],[5.2764,59.8115,3.6201],[5.2769,59.8179,4.001],[5.2608,59.8218,0.0],[5.2564,59.8207,4.2523],[5.2536,59.824,3.3195],[5.2619,59.8226,4.2759],[5.2625,59.8243,4.9924],[5.2497,59.8262,29.9889],[5.2436,59.8307,10.216],[5.2381,59.8296,0.0],[5.2431,59.8282,17.5755],[5.2414,59.8268,0.0],[5.2419,59.8249,6.5273],[5.2375,59.8262,13.9071],[5.2381,59.829,0.0],[5.2364,59.8307,0.0],[5.2392,59.8326,5.256],[5.2353,59.8363,6.6648],[5.2425,59.8346,20.0605],[5.2425,59.8324,8.8366],[5.2514,59.8324,12.1826],[5.2558,59.8301,0.0],[5.2553,59.8346,2.0551],[5.2581,59.8368,0.0],[5.2575,59.839,3.4215],[5.2614,59.839,3.2057],[5.2614,59.8401,3.2057],[5.2558,59.8462,4.5832],[5.2497,59.846,16.6236],[5.2508,59.8485,0.0],[5.2492,59.849,2.1764],[5.2492,59.8515,0.0],[5.2469,59.8515,0.0],[5.2475,59.8493,2.1764],[5.2442,59.849,0.0],[5.2436,59.851,7.1438],[5.2397,59.8521,20.0985],[5.2386,59.8549,4.1437],[5.2419,59.8557,2.2105],[5.2358,59.8593,6.3582],[5.2369,59.8613,0.0],[5.2303,59.861,2.3488],[5.2303,59.8635,2.4946],[5.2242,59.8632,10.6399],[5.2247,59.8654,0.0],[5.2214,59.8688,0.0],[5.2181,59.8685,0.0],[5.2203,59.8665,11.1678],[5.2197,59.8632,5.365],[5.2086,59.866,0.8672],[5.2053,59.8632,0.0],[5.2092,59.8604,3.6277],[5.2136,59.8621,12.475],[5.2197,59.8601,15.1451],[5.2225,59.8621,16.359],[5.2286,59.8576,0.0],[5.2331,59.8593,6.9294],[5.2386,59.8565,1.7816],[5.2386,59.8551,4.1437],[5.2353,59.8554,8.9276],[5.2353,59.8535,31.8629],[5.2303,59.8557,0.0],[5.2319,59.8524,13.8897],[5.2347,59.851,16.5337],[5.2342,59.8496,15.2392],[5.2281,59.8515,6.9907],[5.2253,59.8479,15.2626],[5.2203,59.8476,4.059],[5.2225,59.8454,0.0],[5.2308,59.8449,0.0],[5.2303,59.8418,0.0],[5.2319,59.8404,12.6151],[5.2292,59.8393,15.9507],[5.2219,59.841,0.0],[5.2219,59.8438,0.0],[5.2186,59.8451,37.3028],[5.2158,59.8493,1.0572],[5.2247,59.8504,1.5609],[5.2242,59.8587,0.0],[5.2097,59.8593,3.6277],[5.2142,59.8546,0.0],[5.2119,59.8537,10.0307],[5.2114,59.8557,14.4873],[5.2075,59.8571,3.5245],[5.1953,59.8682,8.2075],[5.1886,59.8693,28.5264],[5.1886,59.8718,14.201599999999999],[5.1736,59.8801,17.8201],[5.1669,59.8807,0.0],[5.1681,59.879,2.3485],[5.1658,59.8774,2.324],[5.1692,59.8746,6.2609],[5.1786,59.8751,0.0],[5.1803,59.874,0.0],[5.1797,59.871,4.1356],[5.1653,59.8751,25.4656],[5.1614,59.8732,11.2499],[5.1564,59.8765,4.8031],[5.1542,59.8763,4.8031],[5.1536,59.8737,3.9381],[5.1503,59.8718,8.1108],[5.1481,59.8721,6.8477],[5.1475,59.8743,2.3622],[5.1425,59.8737,9.1308],[5.1431,59.8715,2.2601],[5.1486,59.869,5.4502],[5.1531,59.869,2.354],[5.1569,59.8649,0.0],[5.1564,59.8624,0.0],[5.1592,59.8604,9.5073],[5.1569,59.8593,0.0],[5.1569,59.8571,0.0],[5.1631,59.8488,4.4933],[5.1725,59.8446,6.3792],[5.1786,59.8393,0.0],[5.1908,59.8354,0.0],[5.1969,59.8351,0.0],[5.2025,59.8312,9.1709],[5.2036,59.8299,3.7418],[5.1997,59.8299,1.3824],[5.2031,59.8276,1.514],[5.2008,59.8238,0.0],[5.2036,59.8213,0.0],[5.2036,59.8193,1.3319],[5.2014,59.8187,4.4791],[5.1953,59.8229,4.085],[5.1914,59.8232,23.8551],[5.1914,59.8246,11.3032],[5.1847,59.8293,0.0],[5.1853,59.831,0.0],[5.1803,59.8332,0.0],[5.1786,59.8324,0.0],[5.1792,59.8307,0.0],[5.1769,59.8307,0.0],[5.1764,59.8332,0.0],[5.1714,59.8326,23.6003],[5.1669,59.8349,17.7974],[5.1647,59.8379,0.0],[5.1569,59.8326,0.0],[5.1597,59.8293,0.0],[5.1597,59.8268,0.0],[5.1553,59.8268,8.4544],[5.1525,59.8301,0.0],[5.1492,59.8307,18.5639],[5.1492,59.8326,4.4564],[5.1458,59.8332,4.4828],[5.1486,59.8382,10.6337],[5.1503,59.8387,0.0],[5.1519,59.8371,20.3743],[5.1492,59.8365,0.0],[5.1508,59.8343,0.0],[5.1481,59.8338,2.0852],[5.1531,59.8326,0.0],[5.1547,59.834,0.0],[5.1536,59.8357,3.1836],[5.1564,59.8354,0.0],[5.1592,59.8379,6.6825],[5.1564,59.841,4.4965],[5.1603,59.8407,0.0],[5.1592,59.8424,17.6453],[5.1608,59.8446,0.0],[5.1569,59.8488,7.7699],[5.1525,59.8501,5.8761],[5.1514,59.8537,14.7402],[5.1469,59.8543,29.8112],[5.1464,59.856,14.4646],[5.1481,59.8576,0.0],[5.1275,59.8651,20.7665],[5.1047,59.871,2.5059],[5.0992,59.8707,0.0],[5.0981,59.869,1.8899],[5.0997,59.8682,2.7958],[5.0953,59.8649,25.6029],[5.0869,59.8624,11.5755],[5.0858,59.864,2.4918],[5.0881,59.8657,0.0],[5.0842,59.8654,2.4918],[5.0842,59.8679,0.0],[5.0869,59.8699,11.8859],[5.0786,59.874,0.0],[5.0758,59.8737,4.559],[5.0742,59.8704,0.0],[5.0764,59.8696,0.0],[5.0764,59.8676,1.3837],[5.0742,59.8665,6.4545],[5.0736,59.8632,0.0],[5.0769,59.8615,0.0],[5.0736,59.8613,0.0],[5.0825,59.8587,31.874],[5.0819,59.8568,29.049],[5.0769,59.8568,14.8015],[5.0725,59.8599,0.0],[5.0736,59.8568,14.8015],[5.0725,59.8554,0.0],[5.0786,59.8524,3.9775],[5.0814,59.8535,0.0],[5.0853,59.8504,10.7855],[5.0781,59.8496,6.884],[5.0758,59.8518,11.2292],[5.0653,59.8546,5.164],[5.0603,59.8546,7.0477],[5.0569,59.8515,0.0],[5.0603,59.8515,3.2118],[5.0603,59.8476,0.9667],[5.0647,59.846,0.2896],[5.0636,59.8443,0.0],[5.0681,59.8446,2.9284],[5.0692,59.8432,0.0],[5.0731,59.8446,0.0],[5.0742,59.8485,0.0],[5.0769,59.8485,0.0],[5.0775,59.8474,11.1422],[5.0736,59.8426,6.7399],[5.0803,59.8404,2.388],[5.0808,59.8368,16.3577],[5.0769,59.8371,0.0],[5.0775,59.836,2.5156],[5.0869,59.834,5.358],[5.0903,59.8307,0.0]]],
[[[5.1642,59.7482,0.0],[5.1608,59.7496,1.358],[5.1597,59.7468,0.3884],[5.1608,59.7454,11.9982],[5.1581,59.7454,13.8173],[5.1569,59.7476,1.5231],[5.1536,59.7487,4.5442],[5.1481,59.7432,2.2154],[5.1486,59.7401,0.0],[5.1514,59.7396,0.0],[5.1525,59.7376,2.185],[5.1503,59.7368,4.0762],[5.1508,59.7354,0.0],[5.1531,59.7351,0.0],[5.1531,59.7374,2.185],[5.1575,59.7385,0.0],[5.1581,59.7354,0.0],[5.1536,59.7349,0.0],[5.1514,59.7318,0.0],[5.1569,59.7329,4.2488],[5.1569,59.7343,3.9829],[5.1631,59.7365,0.0],[5.1669,59.7404,0.0],[5.1669,59.7429,0.0],[5.1647,59.7451,0.8043],[5.1669,59.7454,0.0],[5.1669,59.7471,0.9759],[5.1642,59.7482,0.0]]],
[[[5.3125,59.8001,5.4055],[5.3097,59.8021,0.0],[5.3064,59.7993,16.4259],[5.3092,59.7979,0.0],[5.3147,59.7982,0.0],[5.3125,59.8001,5.4055]]],
[[[5.2992,59.8143,2.1617],[5.2975,59.8171,0.0],[5.2936,59.8165,2.2037],[5.2975,59.8138,0.0],[5.2992,59.8143,2.1617]]],
[[[5.2864,59.8196,10.9011],[5.2842,59.8207,0.0],[5.2825,59.8179,1.089],[5.2897,59.8163,0.0],[5.2897,59.8176,0.0],[5.2864,59.8196,10.9011]]],
[[[5.2697,59.8218,0.0],[5.2664,59.8227,6.0387],[5.2653,59.8224,6.0387],[5.2675,59.8207,12.4987],[5.2697,59.8218,0.0]]],
[[[5.2669,59.8276,12.453],[5.2692,59.8271,11.3179],[5.2742,59.821,0.0],[5.2786,59.8215,2.569],[5.2775,59.8243,0.0],[5.2731,59.8271,0.0],[5.2747,59.8296,7.979],[5.2731,59.831,2.2538],[5.2697,59.8315,11.5918],[5.2653,59.8299,2.0883],[5.2669,59.8276,12.453]]],
[[[5.2653,59.8251,0.0],[5.2692,59.8246,0.0],[5.2692,59.8265,3.2543],[5.2631,59.8274,0.0],[5.2653,59.8251,0.0]]],
[[[5.2536,59.8299,1.0668],[5.2514,59.8307,0.0],[5.2481,59.8307,0.0],[5.2519,59.829,2.0702],[5.2536,59.8299,1.0668]]],
[[[5.2603,59.8335,0.0],[5.2625,59.8338,7.9371],[5.2625,59.8357,5.6178],[5.2592,59.836,5.6178],[5.2603,59.8335,0.0]]],
[[[5.2742,59.8365,4.8369],[5.2675,59.8374,4.1389],[5.2658,59.8368,0.0],[5.2658,59.8349,0.0],[5.2731,59.8338,0.0],[5.2742,59.8365,4.8369]]],
[[[5.2653,59.8371,0.0],[5.2647,59.8393,0.0],[5.2619,59.8387,0.0],[5.2631,59.8357,0.0],[5.2653,59.8371,0.0]]],
[[[5.2103,59.8707,2.3768],[5.2053,59.8715,8.8078],[5.2042,59.8699,0.0],[5.2081,59.8688,13.1943],[5.2097,59.8665,5.3389],[5.2131,59.8668,0.0],[5.2103,59.8707,2.3768]]],
[[[5.2164,59.8688,4.021],[5.2147,59.8713,1.4623],[5.2119,59.8707,1.4623],[5.2136,59.8685,0.0],[5.2164,59.8688,4.021]]],
[[[5.2169,59.8757,7.9321],[5.2131,59.8771,0.0],[5.2114,59.8751,0.0],[5.2175,59.8746,0.0],[5.2169,59.8757,7.9321]]]]}}