{"type":"Feature","properties":{"GID_2":"NOR.10.44_1","GID_0":"NOR","country":"Norway","GID_1":"NOR.10_1","province":"Nordland","NL_NAME_1":"NA","county":"Vestvågøy","VARNAME_2":"NA","NL_NAME_2":"NA","TYPE_2":"Kommuner","ENGTYPE_2":"Municipality","CC_2":"NA","HASC_2":"NO.NO.VV","name":"Vestvågøy.county"},
"geometry":{"type": "MultiPolygon","coordinates": [[[[13.5396,68.05,24.9413],[13.538,68.0484,7.3383],[13.5474,68.0484,0.0],[13.5458,68.05,14.0811],[13.5396,68.05,24.9413]]],
[[[13.5354,68.0521,0.0],[13.5339,68.0516,0.0],[13.5339,68.0505,4.4607],[13.537,68.0505,3.3325],[13.5354,68.0521,0.0]]],
[[[13.6474,68.0755,0.0],[13.6464,68.0734,0.0],[13.6479,68.0729,0.0],[13.6563,68.0729,4.6355],[13.6578,68.0734,14.7586],[13.6599,68.0787,15.2737],[13.6563,68.0792,4.5159],[13.6474,68.0755,0.0]]],
[[[13.588,68.2391,0.0],[13.5896,68.2375,8.5483],[13.5932,68.238,4.4152],[13.5917,68.2396,0.0],[13.588,68.2391,0.0]]],
[[[13.8078,68.3047,0.0],[13.8068,68.3026,2.8456],[13.8083,68.3021,2.8456],[13.812,68.3026,0.0],[13.8125,68.3042,0.0],[13.8104,68.3063,0.0],[13.8078,68.3047,0.0]]],
[[[13.8188,68.3125,0.0],[13.8172,68.312,0.0],[13.8172,68.3089,2.8048],[13.825,68.3083,0.0],[13.8292,68.3125,0.0],[13.8271,68.3146,0.0],[13.8229,68.3125,0.8817],[13.8188,68.3125,0.0]]],
[[[13.7979,68.3167,0.0],[13.7964,68.313,0.0],[13.8042,68.3125,0.0],[13.8104,68.3187,2.7405],[13.8083,68.3208,0.0],[13.8021,68.3208,0.0],[13.7979,68.3167,0.0]]],
[[[13.6307,68.3005,0.0],[13.6297,68.2984,18.1634],[13.6313,68.2979,35.4332],[13.6349,68.2984,23.6613],[13.6354,68.3,16.1402],[13.6333,68.3021,0.0],[13.6307,68.3005,0.0]]],
[[[13.7828,68.3016,0.0],[13.775,68.3021,0.0],[13.7708,68.3042,0.0],[13.7443,68.3037,0.0],[13.7458,68.3021,0.0],[13.7536,68.3016,0.0],[13.7604,68.2979,0.0],[13.7792,68.2979,0.0],[13.7828,68.3016,0.0]]],
[[[13.8104,68.3292,0.0],[13.8021,68.3292,0.0],[13.7979,68.3313,0.0],[13.7854,68.3313,0.0],[13.7693,68.3255,0.7391],[13.7813,68.3208,0.0],[13.7979,68.3208,0.0],[13.8141,68.3255,0.0],[13.8161,68.3276,5.4402],[13.8146,68.3292,0.0],[13.8104,68.3292,0.0]]],
[[[14.0292,68.15,0.0],[14.0276,68.1484,0.0],[14.0328,68.1484,0.0],[14.0328,68.1495,0.0],[14.0292,68.15,0.0]]],
[[[14.0349,68.1526,0.0],[14.0339,68.1505,0.0],[14.0375,68.15,0.0],[14.0411,68.1536,0.0],[14.0354,68.1563,0.0],[14.0318,68.1557,0.0],[14.0349,68.1526,0.0]]],
[[[14.0438,68.1563,0.0],[14.0422,68.1547,0.0],[14.0474,68.1547,0.0],[14.0474,68.1557,0.0],[14.0438,68.1563,0.0]]],
[[[14.0021,68.1854,0.0],[13.9958,68.1854,0.0],[13.9854,68.1896,0.0],[13.9839,68.1891,0.0],[13.9813,68.1833,0.0],[13.9849,68.1807,0.0],[13.9839,68.1776,0.0],[13.9875,68.1771,1.1539],[13.9922,68.1828,0.0],[14.0036,68.1839,0.0],[14.0021,68.1854,0.0]]],
[[[13.8021,68.1021,11.9727],[13.7984,68.1005,0.0],[13.8078,68.1005,3.8735],[13.8063,68.1021,8.2058],[13.8021,68.1021,11.9727]]],
[[[13.8354,68.1042,0.0],[13.8318,68.1026,0.0],[13.8432,68.1026,0.0],[13.8417,68.1042,0.0],[13.8354,68.1042,0.0]]],
[[[13.8901,68.1724,4.9608],[13.8953,68.1734,0.0],[13.8974,68.1766,0.0],[13.8896,68.1792,0.0],[13.8771,68.175,0.0],[13.8755,68.1755,0.9822],[13.8766,68.1787,0.0],[13.8688,68.1792,0.0],[13.8625,68.1729,0.0],[13.8646,68.1708,1.4563],[13.8875,68.1708,0.0],[13.8901,68.1724,4.9608]]],
[[[14.1311,68.2852,0.7977],[14.1311,68.2875,0.0],[14.1255,68.288,0.0],[14.1229,68.2917,0.0],[14.1193,68.2891,0.0],[14.1224,68.287,0.0],[14.1209,68.2854,0.0],[14.1146,68.2854,0.0],[14.1104,68.2875,0.0],[14.0917,68.2875,6.5953],[14.0875,68.2896,0.0],[14.0833,68.2875,0.0],[14.075,68.2875,0.0],[14.0734,68.2859,0.0],[14.076599999999999,68.2839,0.0],[14.0708,68.2833,0.0],[14.0542,68.2771,0.0],[14.0458,68.2792,0.0],[14.038,68.2766,0.0],[14.0339,68.2693,0.0],[14.0432,68.2682,0.0],[14.0396,68.2646,0.0],[14.0333,68.2646,1.7126],[14.0271,68.2667,0.0],[14.0229,68.2646,-0.3735],[14.0104,68.2646,0.0],[14.0063,68.2625,8.1328],[13.9979,68.2625,0.0],[13.9922,68.2651,0.0],[13.9932,68.2682,0.0],[13.9776,68.2693,0.0],[13.9813,68.2729,0.0],[13.9911,68.2734,0.0],[13.9938,68.2771,0.0],[14.0146,68.2771,0.0],[14.0188,68.2792,0.0],[14.025,68.2771,1.9307],[14.0328,68.2776,0.0],[14.0297,68.2797,0.0],[14.0307,68.2849,0.0],[14.0146,68.2875,0.5741],[14.0125,68.2896,0.0],[14.0146,68.2937,0.0],[14.0109,68.2974,0.0],[14.0151,68.3016,0.0],[14.0203,68.3026,0.0],[14.0224,68.3078,0.0],[14.0193,68.3099,0.0],[14.0224,68.3161,0.0],[14.0193,68.3172,0.0],[14.0182,68.3203,0.0],[13.9984,68.3297,0.0],[13.9995,68.3328,0.0],[13.9943,68.3339,0.0],[13.9974,68.3391,0.0],[13.9943,68.3401,0.0],[13.9932,68.3432,0.0],[13.9891,68.3453,0.0],[13.9708,68.3458,0.2269],[13.9667,68.3479,0.0],[13.9604,68.3458,0.0],[13.9542,68.3458,4.1952],[13.9479,68.3479,0.0],[13.9375,68.3438,12.0787],[13.9063,68.3438,3.5561],[13.9021,68.3417,0.0],[13.8938,68.3417,0.0],[13.8896,68.3438,0.0],[13.8833,68.3438,0.0],[13.8818,68.3422,0.0],[13.8849,68.3401,0.0],[13.8813,68.3375,0.0],[13.8609,68.337,0.0],[13.8589,68.3339,0.0],[13.8641,68.3328,4.588],[13.863,68.3297,0.0],[13.8724,68.3307,2.5188],[13.8714,68.3255,0.2837],[13.8745,68.3234,0.0],[13.8693,68.3224,0.0],[13.8661,68.3172,0.0],[13.8589,68.3161,0.0],[13.8557,68.3089,0.0],[13.85,68.3083,0.0],[13.8396,68.3042,0.0],[13.8333,68.3063,0.0],[13.8255,68.3057,2.1074],[13.8234,68.3026,0.0],[13.826599999999999,68.3016,0.3865],[13.8276,68.2984,0.0],[13.8349,68.2974,0.0],[13.8349,68.2943,0.0],[13.8328,68.2922,0.4165],[13.825,68.2917,0.0],[13.8208,68.2937,0.0],[13.8125,68.2937,0.0],[13.8099,68.2901,0.0],[13.8047,68.2891,0.0],[13.8,68.2854,0.0],[13.7922,68.2859,0.0],[13.7932,68.2911,0.0],[13.7917,68.2917,0.0],[13.7854,68.2917,5.573],[13.7813,68.2937,0.0],[13.7688,68.2937,0.0],[13.7646,68.2958,0.0],[13.7505,68.2953,0.0],[13.7536,68.2922,0.0],[13.7422,68.2911,0.0],[13.7453,68.2891,0.0],[13.7438,68.2875,0.0],[13.7375,68.2875,0.0],[13.7313,68.2896,0.0],[13.7271,68.2875,0.0],[13.7245,68.2911,0.0],[13.7172,68.2943,1.4229],[13.7182,68.2995,0.0],[13.7083,68.3042,0.0],[13.7005,68.3047,0.0],[13.6896,68.3104,0.0],[13.6771,68.3104,0.0],[13.6734,68.3078,8.9694],[13.6766,68.3047,362.2057],[13.6625,68.3042,240.446],[13.6609,68.3057,62.0267],[13.6682,68.3068,65.0714],[13.6682,68.3099,0.0],[13.6542,68.3104,1.4332],[13.6464,68.3078,0.0],[13.638,68.3026,2.4486],[13.65,68.3021,5.5],[13.6542,68.3,5.5],[13.662,68.2995,5.5],[13.663,68.2963,5.5],[13.6745,68.2901,186.8197],[13.6708,68.2896,164.2555],[13.6667,68.2917,22.6884],[13.662,68.288,480.282],[13.6542,68.2875,580.0844],[13.6526,68.288,456.1877],[13.6526,68.2911,277.3763],[13.6578,68.2932,142.151],[13.6188,68.2979,0.0],[13.5964,68.2911,0.0],[13.5979,68.2896,0.0],[13.6057,68.2891,44.7597],[13.6036,68.2839,408.7644],[13.6021,68.2833,431.2664],[13.5729,68.2854,131.1151],[13.5688,68.2833,54.1684],[13.5646,68.2833,0.0],[13.563,68.2818,4.6205],[13.5703,68.2786,0.0],[13.5714,68.2755,0.0],[13.5786,68.2714,0.0],[13.576599999999999,68.2693,0.0],[13.5625,68.2646,8.9518],[13.5401,68.2641,0.0],[13.5354,68.2542,248.8689],[13.5391,68.2505,488.3256],[13.5188,68.2521,31.3936],[13.5151,68.2495,15.0195],[13.5151,68.2464,10.1202],[13.5563,68.2458,0.0],[13.5646,68.2417,0.0],[13.5724,68.2422,0.0],[13.5771,68.2458,0.0],[13.5833,68.2458,0.0],[13.5875,68.2438,0.0],[13.6042,68.2438,0.0],[13.6188,68.2375,0.0],[13.6229,68.2396,12.5642],[13.6313,68.2375,0.0],[13.6354,68.2396,5.2832],[13.6396,68.2375,0.0],[13.6458,68.2375,0.0],[13.6484,68.2338,0.0],[13.6542,68.2333,26.2399],[13.6557,68.2318,155.7861],[13.6479,68.2292,369.5764],[13.6417,68.2292,358.3694],[13.6271,68.2354,0.0],[13.6229,68.2333,0.0],[13.613,68.2328,0.0],[13.6099,68.2297,82.1597],[13.6021,68.2271,516.8686],[13.5875,68.2271,395.1544],[13.5813,68.2208,696.5284],[13.5625,68.2208,737.7351],[13.5583,68.2229,400.1756],[13.5458,68.2229,326.2064],[13.5396,68.2208,216.3382],[13.5354,68.2229,56.9518],[13.5229,68.2229,0.0],[13.5203,68.2193,0.0],[13.5068,68.2161,0.0],[13.5026,68.2089,24.2742],[13.5078,68.2068,123.8777],[13.4839,68.2058,74.0392],[13.4797,68.1995,6.663],[13.4797,68.1964,30.1402],[13.4854,68.1979,0.0],[13.5271,68.1979,0.0],[13.5286,68.1974,0.0],[13.5276,68.1943,0.0],[13.5354,68.1937,0.0],[13.5375,68.1917,0.0],[13.5354,68.1896,0.0],[13.5255,68.1891,0.0],[13.5188,68.1833,0.0],[13.4896,68.1833,24.5478],[13.488,68.1818,0.0],[13.4911,68.1797,143.1286],[13.4833,68.1771,58.7943],[13.4672,68.1766,53.4814],[13.4688,68.175,0.0],[13.4854,68.175,0.0],[13.4896,68.1729,6.1705],[13.5021,68.1729,0.0],[13.512,68.1703,0.0],[13.513,68.1672,0.0],[13.5172,68.1651,31.2308],[13.5266,68.1641,108.4769],[13.525,68.1625,269.9187],[13.4938,68.1625,46.4523],[13.4901,68.1599,0.0],[13.4891,68.1568,0.0],[13.4818,68.1557,0.0],[13.4807,68.1526,1.5372],[13.4755,68.1516,24.3606],[13.4734,68.1484,0.0],[13.4917,68.1458,0.0],[13.4958,68.1479,4.8606],[13.5104,68.1479,0.0],[13.513,68.1516,0.0],[13.5292,68.1542,0.0],[13.5307,68.1526,0.0],[13.5255,68.1516,0.0],[13.5234,68.1495,0.0],[13.5234,68.1464,0.0],[13.5354,68.1458,0.0],[13.5375,68.1438,0.0],[13.5354,68.1417,2.1656],[13.5146,68.1396,0.0],[13.5083,68.1354,12.6059],[13.4938,68.1354,0.0],[13.4891,68.1297,0.0],[13.4755,68.1245,0.0],[13.4792,68.1208,0.0],[13.475,68.1146,0.0],[13.4786,68.1109,0.0],[13.4745,68.1026,0.0],[13.4703,68.0984,9.0843],[13.4651,68.0974,0.0],[13.4609,68.0911,0.0],[13.4609,68.088,0.0],[13.4641,68.0859,13.2459],[13.4609,68.0797,0.0],[13.4703,68.0787,0.0],[13.4745,68.0766,0.0],[13.4734,68.0734,0.0],[13.4828,68.0703,0.0],[13.4818,68.0672,0.0],[13.4896,68.0667,0.0],[13.4953,68.0641,19.8916],[13.4938,68.0625,73.8488],[13.4839,68.062,0.0],[13.4938,68.0563,0.0],[13.5078,68.0568,0.0],[13.5125,68.0625,0.0],[13.5271,68.0625,0.0],[13.5313,68.0646,14.1113],[13.5375,68.0625,5.9392],[13.5453,68.063,7.3967],[13.5474,68.0661,2.5396],[13.5422,68.0672,0.0],[13.538,68.0703,0.0],[13.5542,68.0708,0.0],[13.562,68.0734,0.0],[13.5641,68.0755,0.0],[13.5641,68.0787,2.4652],[13.5568,68.0818,0.0],[13.5583,68.0833,0.6376],[13.5667,68.0833,0.0],[13.5792,68.0792,0.0],[13.5828,68.0797,0.0],[13.5849,68.0828,0.0],[13.5818,68.0839,12.3223],[13.5828,68.0891,0.0],[13.5797,68.0911,0.0],[13.5849,68.0922,7.2631],[13.587,68.0943,0.0],[13.5776,68.0984,4.2951],[13.5792,68.1,0.0],[13.5849,68.1005,0.0],[13.5818,68.1026,11.292],[13.5807,68.1057,0.0],[13.5609,68.1068,0.0],[13.5661,68.1088,0.0],[13.5693,68.1141,0.0],[13.576599999999999,68.1151,5.594],[13.5771,68.1167,3.7485],[13.576599999999999,68.1182,4.141],[13.5667,68.1208,0.0],[13.5526,68.1214,0.0],[13.5547,68.1266,0.0],[13.5708,68.1271,0.0],[13.575,68.1292,4.7921],[13.5813,68.1271,0.0],[13.5911,68.1297,0.0],[13.5938,68.1333,0.0],[13.6016,68.1328,0.0],[13.6026,68.1297,0.0],[13.6057,68.1286,0.0],[13.6042,68.125,0.0],[13.6062,68.1229,0.0],[13.6141,68.1234,0.0],[13.6188,68.1292,0.0],[13.6328,68.1286,0.0],[13.6313,68.1271,0.0],[13.6214,68.1266,0.0],[13.6266,68.1234,0.0],[13.6193,68.1224,0.0],[13.6193,68.1193,1.919],[13.6271,68.1188,0.0],[13.6333,68.1208,0.6777],[13.6349,68.1203,0.0],[13.6339,68.1172,0.0],[13.638,68.1151,0.0],[13.6474,68.1141,0.0],[13.6458,68.1125,0.0],[13.6313,68.1125,0.0],[13.6214,68.1078,0.0],[13.6266,68.1057,18.0605],[13.6255,68.1026,0.0],[13.6286,68.1016,0.0],[13.6271,68.0979,3.2559],[13.6292,68.0958,21.2739],[13.6354,68.0958,0.0],[13.6396,68.0979,7.1375],[13.6536,68.0974,0.0],[13.6536,68.0943,0.0],[13.6516,68.0922,15.9373],[13.6401,68.0911,0.0],[13.6359,68.0839,10.2712],[13.6458,68.0833,0.0],[13.65,68.0854,24.3419],[13.6625,68.0854,0.0],[13.675,68.0896,61.4948],[13.6792,68.0875,0.0],[13.6875,68.0875,0.0],[13.6917,68.0896,0.0],[13.6979,68.0896,0.0],[13.6995,68.0891,28.886],[13.6984,68.0839,0.0],[13.701599999999999,68.0828,46.4739],[13.7005,68.0797,6.005],[13.7021,68.0792,0.0],[13.7104,68.0792,0.0],[13.7182,68.0818,0.0],[13.7214,68.087,89.9562],[13.7328,68.088,0.0],[13.7297,68.0901,0.0],[13.7307,68.0932,0.0],[13.7276,68.0943,14.7116],[13.7276,68.0974,0.0],[13.7375,68.0979,0.0],[13.7411,68.1016,24.4669],[13.7266,68.1078,13.1164],[13.7193,68.1088,0.0],[13.7203,68.1141,0.0],[13.7167,68.1167,0.0],[13.7188,68.1188,5.2163],[13.7396,68.1188,0.0],[13.7422,68.1224,4.3164],[13.7495,68.1234,3.36],[13.7495,68.1266,0.0],[13.7464,68.1276,6.016],[13.7474,68.1307,0.0],[13.7438,68.1333,0.0],[13.7464,68.1391,1.2063],[13.7479,68.1396,7.3979],[13.7682,68.1307,0.0],[13.763,68.1276,0.0],[13.7661,68.1266,4.3964],[13.7672,68.1234,1.8293],[13.7854,68.1146,0.0],[13.7917,68.1167,0.0],[13.7958,68.1146,0.0],[13.8042,68.1146,6.5219],[13.8208,68.1208,0.0],[13.8292,68.1208,0.0],[13.8333,68.1229,0.0],[13.8417,68.1229,0.0],[13.8563,68.1188,0.0],[13.8641,68.1214,3.5793],[13.8609,68.1234,0.0],[13.8625,68.1271,0.0],[13.8589,68.1297,0.0],[13.8599,68.1328,0.0],[13.8568,68.1349,0.0],[13.8667,68.1354,0.0],[13.8682,68.137,0.0],[13.85,68.1375,2.7476],[13.8443,68.1432,0.0],[13.8479,68.1458,0.0],[13.8703,68.1484,0.0],[13.8667,68.1521,0.0],[13.8682,68.1557,0.0],[13.8542,68.1563,0.0],[13.85,68.1583,0.0],[13.8333,68.1563,3.4893],[13.8292,68.1583,0.0],[13.8167,68.1583,0.0],[13.8109,68.1609,0.0],[13.812,68.1641,0.0],[13.8089,68.1661,0.0],[13.8229,68.1667,0.0],[13.8271,68.1646,0.0],[13.8313,68.1667,0.0],[13.8474,68.1672,0.0],[13.8547,68.1766,0.0],[13.8724,68.1818,0.0],[13.8745,68.1839,0.0],[13.8672,68.188,0.0],[13.8672,68.1911,0.0],[13.8729,68.1917,0.0],[13.8833,68.1958,0.0],[13.887,68.1953,0.0],[13.8859,68.1922,0.0],[13.889099999999999,68.1911,0.0],[13.888,68.1859,0.0],[13.8911,68.1849,1.2138],[13.8901,68.1818,0.0],[13.8917,68.1813,0.0],[13.9167,68.1813,0.0],[13.9271,68.1854,28.1935],[13.9328,68.1859,0.0],[13.9339,68.1891,0.0],[13.9375,68.1896,0.0],[13.9458,68.1854,0.0],[13.9641,68.1849,0.0],[13.9625,68.1833,0.0],[13.9526,68.1828,0.0],[13.9625,68.1771,0.0],[13.9661,68.1776,0.0],[13.9703,68.1839,0.0],[13.9703,68.187,0.0],[13.9672,68.1891,0.3182],[13.9693,68.1911,0.0],[13.9745,68.1922,0.0],[13.9776,68.1974,0.0],[13.9813,68.2,0.0],[13.9891,68.1974,0.0],[13.987,68.1943,0.0],[13.9818,68.1922,0.0],[13.9896,68.1917,0.0],[13.9943,68.1953,0.0],[13.9979,68.1958,2.9495],[14.0089,68.1901,0.0],[14.0182,68.1891,4.7691],[14.0172,68.1859,0.0],[14.0188,68.1854,3.8331],[14.0328,68.1859,0.0],[14.0313,68.1875,0.0],[14.0234,68.188,3.9032],[14.0255,68.1932,10.378],[14.0271,68.1937,0.0],[14.0375,68.1896,0.8584],[14.0563,68.1917,5.6799],[14.0578,68.1911,0.0],[14.0568,68.188,6.8107],[14.062,68.188,0.0],[14.0641,68.1911,0.0],[14.0609,68.1922,1.346],[14.062,68.1974,0.0],[14.0583,68.2,0.0],[14.063,68.2078,0.0],[14.0729,68.2083,0.0],[14.0807,68.2109,0.0],[14.0776,68.2141,0.0],[14.0896,68.2208,0.0],[14.1036,68.2203,0.0],[14.1005,68.213,0.0],[14.1063,68.2104,0.0],[14.1161,68.213,0.0],[14.1193,68.2182,1.8161],[14.1266,68.2193,0.0],[14.1229,68.2229,8.7851],[14.1271,68.2292,0.0],[14.1234,68.2328,0.0],[14.1297,68.2412,0.0],[14.1349,68.2422,0.0],[14.1396,68.2458,1.7776],[14.1479,68.2458,0.0],[14.1557,68.2484,0.0],[14.1568,68.2516,0.0],[14.1641,68.2526,0.0],[14.1724,68.2568,0.0],[14.1693,68.2589,0.0],[14.1682,68.262,0.0],[14.1589,68.263,24.3401],[14.1599,68.2662,0.0],[14.1557,68.2682,0.0],[14.1422,68.2693,211.3823],[14.1474,68.2724,0.0],[14.1401,68.2755,0.0],[14.1396,68.2771,0.0],[14.1401,68.2786,0.0],[14.1452,68.2792,8.5676],[14.1401,68.2821,8.6353],[14.1322,68.2807,0.0],[14.1311,68.2852,0.7977]]],
[[[14.163,68.2672,0.0],[14.1661,68.267,0.0],[14.1585,68.2714,0.0],[14.1589,68.2693,0.0],[14.163,68.2672,0.0]]],
[[[13.9021,68.3458,0.0],[13.9005,68.3453,0.0],[13.9005,68.3443,0.0],[13.9036,68.3443,1.8212],[13.9021,68.3458,0.0]]]]}}