{"type":"Feature","properties":{"GID_2":"NOR.13.8_1","GID_0":"NOR","country":"Norway","GID_1":"NOR.13_1","province":"Rogaland","NL_NAME_1":"NA","county":"Haugesund","VARNAME_2":"NA","NL_NAME_2":"NA","TYPE_2":"Kommuner","ENGTYPE_2":"Municipality","CC_2":"NA","HASC_2":"NO.RO.HG","name":"Haugesund.county"},
"geometry":{"type": "MultiPolygon","coordinates": [[[[5.1025,59.4121,0.0],[5.0992,59.4126,0.0],[5.0986,59.4115,0.0],[5.1036,59.4093,0.0],[5.1025,59.4121,0.0]]],
[[[5.1214,59.4199,2.9904],[5.1125,59.4204,1.081],[5.1064,59.4174,0.0],[5.1058,59.4157,0.0],[5.1097,59.4101,0.0],[5.1119,59.4099,0.0],[5.1164,59.4126,5.728],[5.1164,59.4154,4.856],[5.1214,59.4199,2.9904]]],
[[[5.0647,59.4374,0.0],[5.0608,59.4379,0.0],[5.0603,59.4351,0.0],[5.0658,59.434,0.0],[5.0675,59.4351,0.0],[5.0647,59.4374,0.0]]],
[[[5.0831,59.4496,0.0],[5.0764,59.4499,0.0],[5.0803,59.4482,0.739],[5.0808,59.446,0.0],[5.0747,59.444,0.0],[5.0747,59.4415,3.0181],[5.0708,59.4393,0.0],[5.0708,59.4374,1.191],[5.0786,59.4338,2.4033],[5.0775,59.4315,0.0],[5.0792,59.4293,0.0],[5.0903,59.4299,1.2177],[5.0897,59.4257,0.0],[5.0931,59.4254,0.0],[5.0947,59.4271,0.0],[5.0925,59.4296,0.7643],[5.0936,59.4338,5.8249],[5.1042,59.4324,0.5677],[5.1114,59.4374,8.8318],[5.1131,59.4374,0.0],[5.1147,59.4324,3.2466],[5.1225,59.4313,0.4699],[5.1258,59.4329,0.0],[5.1253,59.4354,0.0],[5.1186,59.4385,1.5148],[5.1136,59.4379,0.0],[5.1125,59.4407,0.0],[5.0981,59.4443,2.047],[5.0936,59.4476,0.0],[5.0831,59.4496,0.0]]],
[[[5.0692,59.4401,0.0],[5.0669,59.4415,0.0],[5.0625,59.4393,0.1211],[5.0675,59.4376,0.0],[5.0692,59.4401,0.0]]],
[[[5.0714,59.4529,0.0],[5.0631,59.4535,0.0],[5.0664,59.451,0.0],[5.0631,59.4507,0.0],[5.0631,59.4496,0.0],[5.0692,59.4488,0.0],[5.0692,59.4504,0.0],[5.0719,59.4512,0.0],[5.0714,59.4529,0.0]]],
[[[5.1442,59.4218,9.1015],[5.1381,59.4224,0.0],[5.1297,59.4199,0.0],[5.1403,59.4176,0.0],[5.1453,59.4193,9.5566],[5.1442,59.4218,9.1015]]],
[[[5.1281,59.4251,0.0],[5.1297,59.4271,0.0],[5.1208,59.4243,0.0],[5.1253,59.4238,1.7996],[5.1281,59.4251,0.0]]],
[[[5.2497,59.5047,18.0525],[5.2435,59.5052,0.0],[5.2397,59.5074,0.0],[5.2369,59.5065,4.151],[5.2364,59.5082,0.0],[5.2319,59.506,2.9909],[5.2286,59.5082,0.0],[5.2281,59.506,0.0],[5.2314,59.5048,7.0314],[5.2253,59.5046,0.0],[5.2242,59.5035,5.8602],[5.2253,59.5029,5.8602],[5.2214,59.5004,0.0],[5.2225,59.4968,0.0],[5.2257999999999996,59.4957,8.3529],[5.2219,59.4932,3.3555],[5.2236,59.489,12.9822],[5.2231,59.486,0.0],[5.2269,59.4832,0.0],[5.2242,59.4818,2.3836],[5.2236,59.4793,6.6056],[5.2331,59.4768,0.0],[5.2381,59.4771,7.1123],[5.2381,59.4754,0.0],[5.2397,59.4754,0.0],[5.2369,59.4743,0.0],[5.2364,59.4757,0.0],[5.2331,59.4754,0.5213],[5.2364,59.4738,0.0],[5.2353,59.4718,17.038],[5.2269,59.4729,0.0],[5.2292,59.4712,0.0],[5.2281,59.4688,0.1653],[5.2425,59.4701,2.9743],[5.2486,59.4688,11.4675],[5.2386,59.4676,0.0],[5.2336,59.4651,0.0],[5.2353,59.4646,0.8462],[5.2341,59.4638,0.8462],[5.2347,59.4599,10.6898],[5.2331,59.4588,0.0],[5.2336,59.4557,0.0],[5.2392,59.454,2.4609],[5.2392,59.4518,0.0],[5.2369,59.4501,0.0],[5.2425,59.4471,3.6883],[5.2408,59.4437,5.4722],[5.2353,59.4401,0.0],[5.2375,59.4374,1.4195],[5.2358,59.4351,0.0],[5.2386,59.4324,0.0],[5.2486,59.4321,6.995],[5.2569,59.4257,8.0956],[5.2569,59.4243,5.4676],[5.2525,59.4232,1.076],[5.2458,59.4232,0.0],[5.2453,59.4212,0.0],[5.2481,59.4201,0.0],[5.2481,59.4185,2.5944],[5.2447,59.4196,2.029],[5.2431,59.4232,0.0],[5.2381,59.4249,0.2079],[5.2375,59.4265,0.0],[5.2358,59.4251,0.0],[5.2364,59.4226,1.7842],[5.2403,59.4215,0.9665],[5.2397,59.4168,0.0],[5.2414,59.4149,0.0],[5.2531,59.4121,0.2514],[5.2531,59.414,0.0],[5.2486,59.4176,2.5944],[5.2497,59.4185,2.5944],[5.2553,59.4129,0.2222],[5.2608,59.4138,3.3638],[5.2603,59.4115,2.058],[5.2547,59.4121,0.2222],[5.2631,59.4071,-0.7989],[5.2753,59.4057,4.8997],[5.2814,59.3988,10.1272],[5.2808,59.396,0.0],[5.2836,59.3957,4.4609],[5.288,59.3904,0.0],[5.2975,59.3868,0.0],[5.2981,59.3831,1.832],[5.3182,59.3856,36.9773],[5.3162,59.3899,40.0329],[5.3421,59.3929,39.5],[5.3402,59.3973,57.4579],[5.3697,59.4005,2.2146],[5.3681,59.4029,4.3855],[5.3681,59.4082,0.0],[5.3706,59.411,0.0],[5.3612,59.4318,180.2341],[5.3525,59.4308,199.0994],[5.3487,59.4396,172.3122],[5.3573,59.4406,93.737],[5.3554,59.4449,52.9333],[5.3727,59.4469,30.2292],[5.3707,59.4513,39.1308],[5.388,59.4533,19.3217],[5.3861,59.4576,11.5],[5.3947,59.4586,29.5875],[5.3928,59.463,43.0991],[5.4014,59.464,45.2181],[5.3976,59.4727,16.5442],[5.4062,59.4737,40.0386],[5.4024,59.4824,11.5],[5.411,59.4834,35.726],[5.4071,59.4922,35.938],[5.3898,59.4902,42.3264],[5.3879,59.4946,28.7747],[5.3793,59.4936,51.8759],[5.3773,59.498,28.7964],[5.3687,59.497,12.7257],[5.3706,59.4926,29.8003],[5.3187,59.4867,53.2327],[5.3168,59.4911,55.8468],[5.2995,59.4891,7.094],[5.2975,59.4935,0.0],[5.2889,59.4925,6.8076],[5.2869,59.4968,24.1274],[5.2783,59.4958,19.8383],[5.2763,59.5002,7.5162],[5.2677,59.4992,6.2568],[5.2657,59.5036,4.5],[5.2571,59.5026,17.4784],[5.2561,59.5044,18.5528],[5.2497,59.5047,18.0525]]],
[[[5.1942,59.5104,9.6041],[5.1892,59.511,2.3789],[5.1897,59.5071,1.3407],[5.1947,59.5065,0.0],[5.1958,59.5085,1.3584],[5.1942,59.5104,9.6041]]],
[[[5.1842,59.5124,0.0],[5.1808,59.5126,0.0],[5.1792,59.5113,0.0],[5.1853,59.5113,0.0],[5.1842,59.5124,0.0]]]]}}