{"type": "Feature","bbox": [7.0596,58.6478,8.0157,59.0956],"geometry": {"type": "MultiPolygon","coordinates": [[[[8.0064,58.957,717.5217],[8.0048,58.9614,693.1975],[7.9962,58.9606,777.1243],[7.9947,58.965,725.9797],[7.9861,58.9642,763.2136],[7.9845,58.9686,715.7617],[7.976,58.9678,753.6924],[7.9728,58.9766,755.0724],[7.9642,58.9758,789.0355],[7.9611,58.9847,753.5032],[7.9525,58.9838,751.4357],[7.9494,58.9927,729.2495],[7.9408,58.9919,762.0428],[7.9329,59.0139,889.7465],[7.9158,59.0123,756.7867],[7.9126,59.0211,731.9633],[7.904,59.0203,720.8729],[7.8993,59.0335,722.7771],[7.8907,59.0327,719.6962],[7.8859,59.0459,760.3741],[7.8773,59.0451,719.7731],[7.8726,59.0583,810.2548],[7.864,59.0575,793.6059],[7.8592,59.0708,805.3766],[7.8506,59.0699,816.8891],[7.8459,59.0832,816.1445],[7.8373,59.0824,791.5498],[7.8325,59.0956,919.0933],[7.8153,59.0939,909.1578],[7.8169,59.0895,901.3459],[7.8083,59.0887,963.164],[7.8099,59.0843,920.6188],[7.8013,59.0835,918.8752],[7.8028,59.0791,897.777],[7.7942,59.0782,887.7744],[7.7958,59.0738,858.1515],[7.7786,59.0722,826.2034],[7.7802,59.0678,756.6594],[7.7716,59.067,825.5783],[7.7732,59.0625,793.2505],[7.756,59.0609,823.7745],[7.7576,59.0565,826.6684],[7.6201,59.0432,796.6967],[7.6185,59.0476,771.335],[7.6099,59.0468,817.12],[7.6115,59.0424,809.397],[7.6029,59.0415,770.7266],[7.6061,59.0327,803.1726],[7.5975,59.0319,773.9022],[7.5991,59.0275,757.1779],[7.5906,59.0267,668.3101],[7.5922,59.0222,684.509],[7.5836,59.0214,688.3196],[7.5852,59.017,673.091],[7.5595,59.0145,372.4039],[7.5546,59.0277,230.2137],[7.5632,59.0285,277.2958],[7.5616,59.033,293.6454],[7.4929,59.0262,817.0488],[7.4945,59.0218,849.7772],[7.4601,59.0184,977.4326],[7.4618,59.014,897.3425],[7.436,59.0115,897.0214],[7.4377,59.0071,913.7263],[7.3948,59.0029,898.6164],[7.3931,59.0073,913.9042],[7.3417,59.0022,983.3182],[7.34,59.0066,1004.41],[7.3143,59.004,1050.479],[7.3159,58.9996,1063.7467],[7.3074,58.9987,1053.8915],[7.309,58.9943,1040.3615],[7.2919,58.9926,1059.6481],[7.2935,58.9882,1043.5242],[7.285,58.9874,1047.8593],[7.2866,58.983,1048.9308],[7.278,58.9821,1042.7375],[7.2797,58.9777,1080.2877],[7.2626,58.976,932.7025],[7.2642,58.9716,931.8221],[7.2556,58.9707,906.6556],[7.2573,58.9663,972.2048],[7.2402,58.9646,972.3887],[7.2418,58.9602,965.7869],[7.2247,58.9585,942.0865],[7.2264,58.9541,869.48],[7.1836,58.9498,853.0514],[7.1819,58.9542,841.8419],[7.1733,58.9533,862.8141],[7.1717,58.9577,827.2395],[7.1631,58.9569,813.6953],[7.1614,58.9613,836.3198],[7.1529,58.9604,840.7235],[7.1579,58.9472,815.6732],[7.1664,58.948,801.6273],[7.1748,58.926,905.0349],[7.1662,58.9252,889.7323],[7.1679,58.9208,864.1932],[7.1593,58.9199,771.2136],[7.161,58.9155,773.7949],[7.1524,58.9146,818.0732],[7.1558,58.9058,784.3718],[7.1472,58.905,812.3335],[7.1489,58.9006,778.3455],[7.1403,58.8997,801.4114],[7.142,58.8953,819.8152],[7.1335,58.8944,804.0664],[7.1351,58.89,772.7742],[7.0753,58.884,764.3192],[7.077,58.8796,719.845],[7.0685,58.8787,709.4035],[7.0718,58.8699,717.7818],[7.0804,58.8708,770.0631],[7.082,58.8664,713.1754],[7.0991,58.8681,730.6125],[7.1008,58.8637,714.3748],[7.0922,58.8628,707.0],[7.0939,58.8584,709.9886],[7.0854,58.8576,707.0],[7.087,58.8532,707.0],[7.0785,58.8523,707.0],[7.0802,58.8479,707.0],[7.0717,58.847,707.0],[7.0733,58.8426,707.0],[7.0648,58.8418,747.2085],[7.0681,58.833,777.0528],[7.0596,58.8321,707.0],[7.0613,58.8277,741.4049],[7.0869,58.8303,833.1812],[7.0885,58.8259,820.027],[7.1226,58.8294,940.523],[7.1243,58.825,912.2263],[7.1584,58.8284,859.1375],[7.1568,58.8328,957.9584],[7.1653,58.8337,909.9724],[7.1636,58.8381,901.8274],[7.2319,58.845,915.5467],[7.2336,58.8406,945.8475],[7.2933,58.8466,828.549],[7.2917,58.851,832.9654],[7.4283,58.8646,892.6758],[7.43,58.8602,844.9475],[7.5154,58.8687,632.1117],[7.517,58.8643,669.5823],[7.5341,58.8659,668.5958],[7.5357,58.8615,675.7952],[7.5528,58.8632,804.0782],[7.5544,58.8588,782.2281],[7.5715,58.8605,919.1616],[7.5764,58.8473,837.9066],[7.5849,58.8481,868.1032],[7.5913,58.8305,911.1636],[7.5999,58.8313,912.8644],[7.6063,58.8137,787.9039],[7.6148,58.8145,646.0201],[7.6196,58.8013,783.5883],[7.6282,58.8021,637.1063],[7.6345,58.7845,773.1435],[7.6431,58.7853,842.0262],[7.6495,58.7677,834.533],[7.658,58.7685,815.8905],[7.6628,58.7553,661.0095],[7.6542,58.7545,610.8561],[7.6574,58.7457,630.4691],[7.6489,58.7448,697.3108],[7.6537,58.7316,563.7784],[7.6707,58.7333,562.8164],[7.6739,58.7245,562.306],[7.6824,58.7253,562.303],[7.6856,58.7165,563.6617],[7.6941,58.7173,571.5355],[7.6989,58.7041,621.0562],[7.7074,58.7049,654.3831],[7.7105,58.6961,661.7114],[7.719,58.6969,658.7426],[7.7222,58.6881,630.5538],[7.7307,58.6889,618.9346],[7.7323,58.6845,611.9387],[7.7408,58.6853,632.5236],[7.744,58.6765,607.4611],[7.761,58.6782,515.4437],[7.7625,58.6738,535.9727],[7.8051,58.6779,200.0],[7.8145,58.6514,219.3695],[7.823,58.6522,280.9382],[7.8245,58.6478,319.1577],[7.8841,58.6535,580.8182],[7.8825,58.658,594.5125],[7.891,58.6588,561.9257],[7.8894,58.6632,574.5214],[7.898,58.664,575.5115],[7.8964,58.6684,615.8998],[7.9134,58.67,489.0633],[7.9119,58.6745,528.6997],[7.9459,58.6777,572.4157],[7.9443,58.6821,555.1235],[7.9614,58.6837,627.7931],[7.9598,58.6882,617.7065],[7.9683,58.689,627.9988],[7.9668,58.6934,616.0383],[7.9838,58.695,510.691],[7.9823,58.6994,527.8649],[7.9908,58.7002,405.6648],[7.9799,58.7311,479.1401],[7.9885,58.7319,465.5426],[7.9854,58.7407,465.9094],[7.9939,58.7415,476.4943],[7.9768,58.7901,667.6954],[7.9854,58.7909,694.7047],[7.9807,58.8041,667.243],[7.9892,58.8049,679.8046],[7.9877,58.8093,738.5314],[7.9962,58.8102,754.6491],[7.9947,58.8146,752.6544],[8.0032,58.8154,730.9182],[8.0017,58.8198,738.5869],[8.0102,58.8206,698.4617],[8.0071,58.8294,655.9103],[8.0157,58.8302,658.5503],[7.9986,58.8788,651.7222],[8.0071,58.8796,667.3903],[8.0009,58.8972,628.3015],[7.9924,58.8964,710.7993],[7.9892,58.9052,710.8868],[7.9807,58.9044,814.6036],[7.9744,58.9221,558.0588],[7.983,58.9229,488.5879],[7.9814,58.9273,493.0193],[7.99,58.9281,542.2785],[7.9885,58.9325,550.5956],[7.997,58.9333,656.8911],[7.9955,58.9377,658.3973],[8.004,58.9386,700.3402],[7.9994,58.9518,692.4266],[8.0079,58.9526,706.8426],[8.0064,58.957,717.5217]]]]}
,"properties": {"GID_2": "NOR.3.4_1","GID_0": "NOR","country": "Norway","GID_1": "NOR.3_1","province": "Aust-Agder","NL_NAME_1": "NA","county": "Bygland","VARNAME_2": "NA","NL_NAME_2": "NA","TYPE_2": "Kommuner","ENGTYPE_2": "Municipality","CC_2": "NA","HASC_2": "NO.AA.BG","name": "Bygland.county","area_km2": 1309.323,"hist_schema_id": "Elevation0-9000","hist_area_km2": {"200": 55.43,"225": 18.401,"250": 10.531,"275": 8.414,"300": 7.868,"325": 8.033,"350": 7.734,"375": 7.945,"400": 8.483,"425": 11.564,"450": 14.341,"475": 18.671,"500": 19.372,"525": 26.574,"550": 35.041,"575": 53.117,"600": 65.011,"625": 60.436,"650": 66.627,"675": 70.116,"700": 73.512,"725": 77.251,"750": 69.895,"775": 59.093,"800": 55.765,"825": 57.515,"850": 51.846,"875": 70.616,"900": 66.249,"925": 55.992,"950": 36.362,"975": 21.65,"1000": 14.403,"1025": 9.741,"1050": 6.984,"1075": 5.245,"1100": 2.426,"1125": 0.863,"1150": 0.208}}}