{"type":"Feature","properties":{"GID_2":"NOR.19.3_1","GID_0":"NOR","country":"Norway","GID_1":"NOR.19_1","province":"Vestfold","NL_NAME_1":"NA","county":"Hof","VARNAME_2":"NA","NL_NAME_2":"NA","TYPE_2":"Kommuner","ENGTYPE_2":"Municipality","CC_2":"NA","HASC_2":"NO.VF.HF","name":"Hof.county"},
"geometry":{"type": "MultiPolygon","coordinates": [[[[10.0106,59.6559,356.4354],[10.0018,59.6552,282.1304],[10.0031,59.6508,247.8989],[9.9768,59.6487,83.9383],[9.9808,59.6354,18.0],[9.972,59.6347,18.0],[9.9773,59.617,18.0],[9.9685,59.6163,47.5414],[9.9699,59.6119,84.6082],[9.9611,59.6112,291.2114],[9.9624,59.6068,319.6478],[9.9536,59.6061,462.2304],[9.955,59.6017,469.7415],[9.9374,59.6003,411.0],[9.9388,59.5959,411.0],[9.93,59.5952,413.8666],[9.9313,59.5907,446.5731],[9.9225,59.5901,421.4988],[9.9293,59.5679,412.5536],[9.938,59.5686,410.0403],[9.942,59.5553,421.2717],[9.9508,59.5559,411.2473],[9.9522,59.5515,426.4116],[9.9609,59.5522,413.1585],[9.9623,59.5478,418.1033],[9.971,59.5484,413.1696],[9.9737,59.5396,547.9723],[9.9825,59.5402,454.9001],[9.9851,59.5314,519.1368],[9.9939,59.532,454.7816],[9.9966,59.5232,499.997],[10.0053,59.5238,488.7505],[10.0093,59.5105,359.4738],[10.0181,59.5112,392.1657],[10.022,59.4979,177.7006],[10.0308,59.4986,215.7362],[10.0334,59.4897,196.8537],[10.0422,59.4904,213.9894],[10.0528,59.4549,249.7904],[10.0615,59.4556,182.1173],[10.0628,59.4511,200.6457],[10.0891,59.4531,104.8895],[10.0917,59.4443,119.4035],[10.1354,59.4476,221.2779],[10.1223,59.492,170.4483],[10.1311,59.4926,165.9032],[10.1298,59.4971,187.4415],[10.1473,59.4984,182.7652],[10.1421,59.5162,35.0],[10.1508,59.5168,35.0],[10.1443,59.539,104.7606],[10.1355,59.5383,215.8004],[10.1329,59.5472,106.9286],[10.1241,59.5466,64.3744],[10.1188,59.5643,41.7541],[10.1276,59.565,103.0175],[10.1263,59.5694,178.3455],[10.1351,59.5701,225.0028],[10.1325,59.579,257.7943],[10.1237,59.5783,135.6685],[10.1197,59.5916,287.0443],[10.1109,59.5909,265.2837],[10.1083,59.5998,289.7659],[10.0995,59.5991,233.9482],[10.0969,59.608,285.8685],[10.0881,59.6073,286.9233],[10.0868,59.6118,337.2837],[10.0692,59.6104,263.8368],[10.0679,59.6149,429.6066],[10.0591,59.6142,356.1237],[10.0578,59.6186,442.8229],[10.049,59.618,300.53],[10.0476,59.6224,405.2458],[10.0388,59.6217,401.4854],[10.0322,59.6439,489.5837],[10.0234,59.6432,479.981],[10.0207,59.6521,461.1956],[10.0119,59.6514,333.0067],[10.0106,59.6559,356.4354]]]]}}