{"type":"Feature","properties":{"GID_2":"NOR.5.2_1","GID_0":"NOR","country":"Norway","GID_1":"NOR.5_1","province":"Finnmark","NL_NAME_1":"NA","county":"Båtsfjord","VARNAME_2":"NA","NL_NAME_2":"NA","TYPE_2":"Kommuner","ENGTYPE_2":"Municipality","CC_2":"NA","HASC_2":"NO.FI.BA","name":"Båtsfjord.county"},
"geometry":{"type": "MultiPolygon","coordinates": [[[[29.7655,70.7292,6.087],[29.7557,70.7283,29.6692],[29.7501,70.7168,226.6354],[29.7367,70.7175,228.0377],[29.7346,70.7131,271.188],[29.7212,70.7137,252.6336],[29.7169,70.7048,324.6354],[29.7035,70.7055,304.1764],[29.7014,70.7011,334.563],[29.688,70.7017,274.71],[29.6838,70.6928,351.4275],[29.6704,70.6935,368.3156],[29.6661,70.6846,359.8647],[29.6528,70.6853,392.3341],[29.6485,70.6764,400.3305],[29.6351,70.677,417.3457],[29.6309,70.6681,377.6196],[29.6175,70.6688,393.8264],[29.6154,70.6643,372.4161],[29.6021,70.665,417.8619],[29.5979,70.6561,370.2312],[29.5845,70.6568,406.1198],[29.5803,70.6479,375.2741],[29.5669,70.6485,412.2122],[29.5627,70.6396,378.7365],[29.5494,70.6403,410.4995],[29.541,70.6225,340.824],[29.5277,70.6231,362.6416],[29.5131,70.5919,439.2408],[29.4998,70.5926,413.6902],[29.4956,70.5837,426.394],[29.4823,70.5843,426.2584],[29.4802,70.5799,435.244],[29.4669,70.5805,432.7664],[29.4648,70.5761,431.2608],[29.4515,70.5767,438.3339],[29.4495,70.5723,441.0065],[29.4362,70.5729,420.4649],[29.4341,70.5685,415.726],[29.4208,70.5691,438.025],[29.4167,70.5602,426.8471],[29.4034,70.5609,448.3951],[29.4013,70.5564,426.8942],[29.388,70.5571,441.1962],[29.386,70.5526,447.5212],[29.3727,70.5533,443.0515],[29.3706,70.5488,431.3663],[29.3574,70.5495,433.6111],[29.3553,70.545,441.8114],[29.342,70.5457,475.3555],[29.3379,70.5368,417.3068],[29.3247,70.5374,432.1312],[29.3206,70.5285,324.4464],[29.3073,70.5291,320.5688],[29.3032,70.5202,344.2186],[29.29,70.5209,363.6241],[29.2879,70.5164,367.7223],[29.2747,70.5171,373.8455],[29.2706,70.5081,363.7426],[29.2574,70.5088,356.1565],[29.2533,70.4999,325.2027],[29.2401,70.5005,302.7491],[29.236,70.4916,287.2847],[29.2228,70.4922,339.743],[29.2208,70.487799999999993,353.3629],[29.234,70.4871,242.8651],[29.228,70.4738,221.9151],[29.2412,70.4731,248.5871],[29.2392,70.4687,221.8849],[29.2525,70.468,379.7143],[29.2505,70.4636,327.9604],[29.2637,70.4629,407.766],[29.2617,70.4585,378.8616],[29.2749,70.4578,417.6771],[29.2729,70.4533,384.8466],[29.3126,70.4514,313.9815],[29.3106,70.4469,417.2919],[29.3502,70.445,317.3938],[29.3482,70.4405,257.3996],[29.3879,70.4386,416.1982],[29.3858,70.4341,392.8742],[29.4123,70.4328,473.7033],[29.4102,70.4283,425.8182],[29.4366,70.427,444.3388],[29.4346,70.4226,375.8337],[29.461,70.4213,439.2524],[29.4589,70.4168,414.0661],[29.4721,70.4161,410.9323],[29.4701,70.4117,411.0583],[29.4965,70.4104,471.6558],[29.4944,70.4059,540.4881],[29.5076,70.4052,503.7275],[29.5056,70.4008,533.9536],[29.5187,70.4001,547.6583],[29.5167,70.3957,509.1945],[29.5299,70.395,526.1758],[29.5278,70.3905,498.1286],[29.541,70.3899,527.6177],[29.5389,70.3854,533.0543],[29.5521,70.3848,542.9846],[29.55,70.3803,568.8904],[29.5632,70.3796,571.7344],[29.5611,70.3752,573.6273],[29.5875,70.3739,569.8267],[29.5854,70.3694,561.58],[29.6381,70.3667,563.3413],[29.636,70.3623,566.1312],[29.6623,70.3609,595.5164],[29.6602,70.3565,547.7773],[29.6471,70.3571,612.5363],[29.645,70.3527,546.0903],[29.6318,70.3534,575.6481],[29.6277,70.3444,506.9441],[29.6145,70.3451,539.122],[29.6124,70.3407,531.0651],[29.5993,70.3413,558.5455],[29.5972,70.3369,538.636],[29.6104,70.3362,538.466],[29.6083,70.3318,568.3813],[29.6608,70.3291,517.5425],[29.6629,70.3335,577.7158],[29.6761,70.3328,562.388],[29.674,70.3284,510.4747],[29.8447,70.3195,426.0951],[29.8468,70.324,487.8731],[29.86,70.3233,527.4115],[29.8579,70.3189,419.1149],[29.9235,70.3154,475.4596],[29.9213,70.311,377.6401],[30.0263,70.3054,448.9121],[30.0241,70.301,441.3669],[30.0634,70.2989,466.2083],[30.0613,70.2944,453.8104],[30.0875,70.293,439.8702],[30.0897,70.2975,367.5069],[30.1028,70.2968,293.9702],[30.1049,70.3012,185.0461],[30.1181,70.3005,137.7059],[30.1202,70.3049,117.2408],[30.1333,70.3042,134.0103],[30.1377,70.3131,197.7746],[30.1508,70.3124,193.3075],[30.153,70.3169,217.3297],[30.1661,70.3162,241.7973],[30.1683,70.3206,248.8213],[30.1814,70.3199,253.0101],[30.1858,70.3288,327.7307],[30.199,70.3281,333.5806],[30.2012,70.3325,353.0625],[30.2143,70.3318,349.4996],[30.2165,70.3363,317.3561],[30.2296,70.3356,269.846],[30.234,70.3445,257.3221],[30.2472,70.3438,247.1758],[30.2494,70.3482,242.4192],[30.2625,70.3475,237.2682],[30.2647,70.3519,245.942],[30.2779,70.3512,246.508],[30.2823,70.3601,219.2088],[30.2954,70.3594,213.7205],[30.2977,70.3638,228.8],[30.3108,70.3631,239.8107],[30.313,70.3676,242.685],[30.3262,70.3668,240.7957],[30.3307,70.3757,279.0659],[30.3438,70.375,323.0899],[30.346,70.3795,350.7029],[30.3592,70.3787,354.013],[30.3614,70.3832,395.3654],[30.3746,70.3825,385.4293],[30.3768,70.3869,396.493],[30.39,70.3862,390.0252],[30.3922,70.3906,385.4464],[30.4054,70.3899,374.2902],[30.4076,70.3943,382.1292],[30.4208,70.3936,376.8839],[30.4231,70.3981,358.1363],[30.4362,70.3973,333.3366],[30.4385,70.4018,318.4886],[30.4516,70.4011,297.4483],[30.4539,70.4055,300.0059],[30.4671,70.4048,284.8241],[30.4693,70.4092,301.6894],[30.4825,70.4085,277.6614],[30.4848,70.4129,296.9265],[30.4979,70.4122,262.4211],[30.5002,70.4166,242.2127],[30.5134,70.4159,223.116],[30.5156,70.4204,215.7808],[30.5288,70.4196,204.9722],[30.5311,70.4241,199.2066],[30.5574,70.4226,179.375],[30.5597,70.427,215.1737],[30.5729,70.4263,258.9783],[30.5752,70.4307,267.3907],[30.5884,70.43,284.2193],[30.590699999999998,70.4345,263.9502],[30.6038,70.4337,250.6854],[30.6061,70.4382,239.5497],[30.6193,70.4374,223.3562],[30.6216,70.4419,236.8166],[30.6348,70.4411,235.2995],[30.6371,70.4456,237.4916],[30.6503,70.4448,254.3379],[30.6526,70.4493,237.0215],[30.6658,70.4485,250.3733],[30.6681,70.453,223.0565],[30.6813,70.4522,226.9698],[30.6836,70.4567,218.2924],[30.6968,70.4559,208.0012],[30.6991,70.4604,175.8148],[30.7255,70.4589,84.4798],[30.7278,70.4633,70.1796],[30.7317,70.4631,28.683],[30.7342,70.4664,20.8084],[30.7276,70.4672,11.5595],[30.7208,70.4708,12.6105],[30.7104,70.4708,104.4566],[30.6911,70.4786,14.8076],[30.6839,70.4797,115.8061],[30.6797,70.4818,88.8284],[30.6828,70.4838,3.7432],[30.6812,70.4854,6.4512],[30.6688,70.4854,134.8149],[30.6625,70.4896,7.9063],[30.65,70.4896,34.7305],[30.6375,70.4938,0.0],[30.6313,70.4938,0.0],[30.6208,70.5,0.0],[30.6125,70.5,14.4006],[30.6063,70.4979,133.3616],[30.6047,70.4995,83.5065],[30.6078,70.5005,12.4084],[30.6063,70.5021,1.3865],[30.6,70.5,85.0416],[30.5917,70.5,106.6766],[30.5859,70.5026,20.0453],[30.5891,70.5057,0.0],[30.5859,70.5068,0.0],[30.5839,70.5099,0.0],[30.5901,70.5141,11.1374],[30.5974,70.5151,1.5463],[30.5964,70.5182,0.0],[30.5984,70.5203,5.9848],[30.6125,70.5208,0.0],[30.6182,70.5234,0.0],[30.6151,70.5266,9.0948],[30.6182,70.5286,0.2725],[30.6089,70.5349,9.9211],[30.6151,70.5391,0.0],[30.6245,70.5401,7.4476],[30.6307,70.5443,2.3427],[30.6292,70.5458,0.0],[30.6208,70.5437,67.3034],[30.6063,70.5479,51.2502],[30.5979,70.5479,30.7578],[30.588,70.5453,5.9499],[30.5891,70.5422,-0.087],[30.5875,70.5417,2.2826],[30.5771,70.5417,0.3756],[30.5688,70.5375,101.4611],[30.5604,70.5375,109.917],[30.5542,70.5417,0.3646],[30.5458,70.5417,0.4433],[30.5396,70.5396,8.5359],[30.5312,70.5437,0.0],[30.5229,70.5417,11.7951],[30.5187,70.5437,9.8857],[30.5083,70.5437,24.7634],[30.5042,70.5458,7.0294],[30.4833,70.5437,13.2019],[30.4688,70.5479,4.0866],[30.4417,70.55,34.6157],[30.4375,70.5521,13.9159],[30.4339,70.5516,14.0871],[30.4292,70.5479,168.5335],[30.4229,70.55,61.0601],[30.4083,70.55,1.1171],[30.4021,70.5479,3.4679],[30.3958,70.55,0.0],[30.3891,70.5463,75.8802],[30.3792,70.5437,119.1046],[30.3646,70.5437,92.8834],[30.3583,70.5458,67.4265],[30.3479,70.5396,223.5225],[30.3417,70.5417,183.697],[30.3333,70.5417,216.1892],[30.325,70.5375,292.2258],[30.3146,70.5375,285.4915],[30.3062,70.5333,297.5132],[30.2979,70.5354,278.1021],[30.2917,70.5313,120.121],[30.2792,70.5313,185.6931],[30.2667,70.5271,294.4141],[30.2104,70.5229,267.8486],[30.2005,70.5203,258.0065],[30.1938,70.5167,250.9696],[30.1771,70.5167,79.4623],[30.1729,70.5146,50.8371],[30.1583,70.5125,0.0],[30.1375,70.5042,7.5824],[30.1229,70.5083,0.0],[30.1151,70.5089,15.9509],[30.1203,70.5141,0.0],[30.1104,70.5167,7.6546],[30.1042,70.5146,122.0527],[30.0958,70.5146,160.2786],[30.0729,70.5208,0.0],[30.0604,70.5208,30.6205],[30.0562,70.5229,7.0325],[30.0396,70.5229,21.4951],[30.0339,70.5255,0.0],[30.037,70.5286,0.0],[30.0276,70.5297,23.5515],[30.0203,70.5349,0.0],[30.0047,70.5359,12.9794],[30.0026,70.5391,8.7849],[30.025,70.5396,0.0],[30.0359,70.5318,0.0],[30.05,70.5313,62.4932],[30.0542,70.5292,0.0],[30.0604,70.5313,5.6586],[30.0854,70.5313,0.0],[30.0896,70.5333,7.3221],[30.0979,70.5333,6.1938],[30.1021,70.5313,0.0],[30.1104,70.5333,11.4735],[30.1146,70.5313,27.2141],[30.1479,70.5313,0.0],[30.1495,70.5328,0.0],[30.1417,70.5333,65.6848],[30.1375,70.5354,69.9194],[30.125,70.5354,68.9923],[30.1208,70.5375,33.1859],[30.1042,70.5375,38.7464],[30.1,70.5396,0.0],[30.0938,70.5396,9.482],[30.0859,70.5443,0.0],[30.0839,70.5474,0.0],[30.0875,70.55,0.0],[30.0938,70.5479,0.0],[30.1021,70.5479,0.0],[30.1083,70.55,7.1753],[30.1125,70.5479,0.0],[30.1396,70.5479,0.0],[30.1458,70.55,4.9327],[30.15,70.5479,0.0],[30.1583,70.5479,0.0],[30.1646,70.55,5.0179],[30.1708,70.5479,0.0],[30.175,70.55,0.0],[30.1938,70.55,0.0],[30.1953,70.5516,0.0],[30.1922,70.5536,27.5405],[30.1938,70.5542,55.4543],[30.2,70.5521,0.0],[30.2146,70.5521,0.0],[30.2224,70.5568,0.0],[30.2203,70.5599,3.9823],[30.2151,70.563,0.0],[30.2167,70.5646,3.2541],[30.2224,70.5651,0.0],[30.2214,70.5682,0.0],[30.2313,70.5708,0.0],[30.2396,70.5708,3.1795],[30.2458,70.5687,0.0],[30.25,70.5708,0.0],[30.2625,70.5708,0.0],[30.2667,70.5729,2.8199],[30.2771,70.5729,0.0],[30.2813,70.575,5.1729],[30.2891,70.5755,0.0],[30.2984,70.5828,0.0],[30.3062,70.5833,0.0],[30.3151,70.5891,0.0],[30.3224,70.5901,0.0],[30.3203,70.5932,109.0015],[30.3172,70.5943,114.1256],[30.3224,70.5984,1.4746],[30.3214,70.6016,9.1631],[30.3297,70.6078,6.8921],[30.3391,70.6088,0.0],[30.3375,70.6104,0.0],[30.325,70.6104,75.7929],[30.3234,70.612,80.7365],[30.3266,70.6141,15.0621],[30.3104,70.6167,5.0898],[30.3021,70.6208,0.0],[30.2901,70.6214,13.5112],[30.2911,70.6245,0.0],[30.2891,70.6266,0.0],[30.2609,70.6318,12.4726],[30.2641,70.6339,0.0],[30.2625,70.6354,0.0],[30.2484,70.6359,29.7643],[30.2516,70.6391,6.8209],[30.2458,70.6417,0.0],[30.2229,70.6438,0.0],[30.2188,70.6417,29.5115],[30.2104,70.6417,36.7376],[30.2042,70.6438,7.4342],[30.1979,70.6417,187.5033],[30.1896,70.6458,28.5967],[30.1833,70.6438,258.7844],[30.1771,70.6458,155.972],[30.1625,70.6458,210.0196],[30.1583,70.6438,220.8542],[30.1437,70.6438,143.8781],[30.1396,70.6458,92.0378],[30.1333,70.6438,227.7305],[30.0984,70.6443,166.5921],[30.1,70.6458,91.7391],[30.112,70.6464,96.4031],[30.1109,70.6536,2.8395],[30.1125,70.6542,10.9569],[30.1208,70.6542,0.0],[30.1271,70.6521,0.0],[30.1318,70.6557,0.0],[30.1396,70.6563,0.0],[30.1437,70.6583,0.0],[30.1667,70.6583,0.0],[30.1708,70.6604,0.0],[30.1786,70.6609,0.0],[30.1833,70.6646,38.8274],[30.1958,70.6646,0.0],[30.1995,70.6672,0.0],[30.1984,70.6703,16.7859],[30.2036,70.6745,15.1938],[30.1958,70.675,85.5018],[30.1917,70.6771,9.0496],[30.1833,70.675,190.2606],[30.1818,70.6766,163.272],[30.1849,70.6776,21.069],[30.187,70.6807,1.9145],[30.175,70.6813,162.293],[30.1521,70.6875,7.3875],[30.1458,70.6875,11.6125],[30.1396,70.6917,0.0],[30.1271,70.6917,54.3607],[30.1229,70.6937,37.4826],[30.1146,70.6937,79.5854],[30.1083,70.6917,168.6372],[30.1068,70.6932,65.5397],[30.1099,70.6953,8.9348],[30.1016,70.6995,0.0],[30.0943,70.7005,0.0],[30.0953,70.7037,0.0],[30.0854,70.7063,0.0],[30.0667,70.7063,6.4291],[30.0604,70.7083,0.0],[30.0542,70.7063,41.0741],[30.05,70.7083,4.799],[30.0354,70.7083,10.2558],[30.0313,70.7063,13.767],[30.0167,70.7063,91.1775],[30.0104,70.7083,21.8411],[29.9875,70.7021,179.5604],[29.9792,70.7042,114.5506],[29.9708,70.7,204.7773],[29.9672,70.7005,198.485],[29.9625,70.7042,11.5882],[29.9479,70.7042,54.7299],[29.9401,70.6995,0.0],[29.9474,70.6964,158.441],[29.9391,70.6901,118.457],[29.9312,70.6896,46.6728],[29.925,70.6854,96.1455],[29.9089,70.6828,103.8268],[29.8974,70.6755,178.3475],[29.8917,70.675,6.3172],[29.8859,70.6724,130.556],[29.8875,70.6708,180.6327],[29.8953,70.6703,209.838],[29.8911,70.6672,259.2508],[29.875,70.6646,153.0076],[29.8708,70.6625,164.7411],[29.8589,70.662,0.0],[29.8609,70.6589,0.0],[29.8687,70.6583,231.707],[29.8703,70.6568,300.5505],[29.8625,70.6521,243.8741],[29.8542,70.6542,12.93],[29.8526,70.6526,37.2337],[29.8557,70.6505,170.1276],[29.8479,70.65,17.9339],[29.8432,70.6464,100.3743],[29.8339,70.6453,0.0],[29.837,70.6422,111.934],[29.8292,70.6375,126.6508],[29.8167,70.6375,3.774],[29.8104,70.6333,53.581],[29.7979,70.6333,0.0],[29.7938,70.6312,15.1617],[29.7833,70.6312,0.0],[29.7792,70.6292,41.2377],[29.7479,70.6292,0.0],[29.7354,70.625,10.738],[29.7276,70.6245,0.0],[29.7188,70.6188,56.5114],[29.6901,70.6193,0.0],[29.6917,70.6208,0.0],[29.6995,70.6214,0.0],[29.7016,70.6234,0.0],[29.6984,70.6255,0.0],[29.7,70.6271,0.9733],[29.7062,70.625,0.0],[29.7182,70.6255,0.0],[29.7214,70.6286,0.0],[29.7286,70.6297,0.0],[29.7266,70.6328,5.2607],[29.7234,70.6339,0.0],[29.7276,70.637,0.0],[29.7313,70.6375,0.0],[29.7375,70.6354,0.0],[29.7589,70.6495,6.618],[29.7813,70.6521,0.0],[29.7891,70.6568,0.0],[29.7875,70.6583,0.0],[29.7797,70.6589,0.0],[29.7776,70.662,0.0],[29.7859,70.6682,11.9083],[29.7953,70.6693,0.0],[29.7922,70.6713,27.993],[29.7953,70.6745,0.0],[29.7922,70.6766,6.012],[29.8057,70.6859,0.0],[29.8047,70.6891,0.0],[29.8057,70.6911,0.0],[29.7984,70.6964,15.5732],[29.7995,70.7037,0.0],[29.7984,70.7057,0.0],[29.8036,70.7099,0.0],[29.7943,70.7109,31.7714],[29.8036,70.7141,0.0],[29.7943,70.7151,27.8709],[29.7953,70.7182,8.6609],[29.7943,70.7203,25.2206],[29.7995,70.7245,8.4458],[29.7917,70.725,154.251],[29.7875,70.7271,50.8743],[29.7771,70.7271,39.7361],[29.7729,70.7292,0.0],[29.7655,70.7292,6.087]]]]}}