{"type": "Feature","bbox": [8.7414,63.1167,9.4364,63.4667],"geometry": {"type": "MultiPolygon","coordinates": [[[[8.8437,63.2077,397.7608],[8.8398,63.2021,106.1857],[8.8833,63.2021,0.0],[8.8896,63.2042,63.1343],[8.8938,63.2021,0.0],[8.8979,63.2021,0.0],[8.9021,63.2042,0.0],[8.9083,63.2042,0.0],[8.9125,63.2021,0.0],[8.9167,63.2042,0.0],[8.9313,63.2042,0.0],[8.9354,63.2021,0.0],[8.9396,63.2042,0.0],[8.95,63.2042,0.0],[8.9542,63.2062,0.0],[8.9583,63.2042,0.0],[8.9729,63.2083,35.0515],[8.9786,63.2057,0.0],[8.9792,63.2042,0.0],[8.9771,63.2021,0.0],[8.9667,63.2021,0.0],[8.9625,63.2,25.771],[8.9479,63.2,0.0],[8.9438,63.1979,38.4682],[8.9229,63.1979,0.0],[8.9187,63.1958,36.1173],[8.9146,63.1958,46.5254],[8.9104,63.1979,0.0],[8.9042,63.1958,51.3885],[8.9,63.1979,0.0],[8.8958,63.1979,0.0],[8.8917,63.1958,34.5219],[8.8771,63.1958,0.0],[8.8729,63.1937,8.8996],[8.8667,63.1937,0.0],[8.8625,63.1958,0.0],[8.8354,63.1958,36.904],[8.8313,63.1937,92.6885],[8.8234,63.1932,0.0],[8.8208,63.1896,17.3016],[8.8167,63.1917,0.0],[8.8104,63.1917,0.0],[8.8078,63.188,24.4377],[8.8,63.1854,187.8299],[8.7917,63.1896,0.0],[8.7875,63.1896,0.0],[8.7833,63.1875,0.0],[8.7651,63.1849,0.0],[8.7644,63.1829,157.2728],[8.7742,63.1836,96.1469],[8.7777,63.1748,430.3362],[8.7875,63.1756,408.82],[8.7909,63.1667,662.312],[8.8007,63.1675,575.1609],[8.8042,63.1586,741.7662],[8.814,63.1594,741.7011],[8.8174,63.1506,757.3831],[8.8272,63.1513,765.3082],[8.8289,63.1469,818.5108],[8.8191,63.1461,879.9588],[8.8208,63.1417,561.0131],[8.811,63.1409,613.8715],[8.8145,63.1321,576.4293],[8.8047,63.1313,811.3635],[8.8064,63.1269,813.1883],[8.826,63.1284,738.4839],[8.8277,63.124,821.3692],[8.8473,63.1255,552.7853],[8.8507,63.1167,693.9153],[8.8801,63.119,429.5002],[8.8784,63.1234,393.5771],[8.8882,63.1242,418.8434],[8.8899,63.1197,404.1452],[8.9095,63.1212,619.7658],[8.9112,63.1168,645.2246],[8.9308,63.1183,528.2016],[8.9291,63.1228,544.6198],[8.9487,63.1243,454.3689],[8.947,63.1287,474.2525],[8.9666,63.1302,524.36],[8.9649,63.1346,556.3974],[8.9747,63.1354,526.2994],[8.973,63.1398,539.7609],[8.9926,63.1413,722.0033],[8.9909,63.1457,724.7652],[9.0105,63.1472,692.6146],[9.0122,63.1428,729.8536],[9.0416,63.145,700.1713],[9.0433,63.1406,651.685],[9.0531,63.1414,613.5889],[9.0548,63.1369,555.339],[9.0744,63.1384,247.0422],[9.0761,63.134,300.5233],[9.0859,63.1347,308.9071],[9.0876,63.1303,325.7051],[9.1072,63.1318,655.4813],[9.1088,63.1274,678.4032],[9.1383,63.1296,693.6315],[9.1399,63.1252,728.0051],[9.1791,63.1281,744.9398],[9.1775,63.1326,835.0982],[9.1873,63.1333,860.9586],[9.1856,63.1377,817.8446],[9.1954,63.1385,897.5298],[9.1921,63.1473,872.3366],[9.1823,63.1466,886.9011],[9.179,63.1554,651.739],[9.1692,63.1547,709.6646],[9.1642,63.168,721.6154],[9.1544,63.1672,907.3035],[9.1511,63.1761,863.4683],[9.1412,63.1754,997.7289],[9.1396,63.1798,911.6976],[9.169,63.182,687.8085],[9.1674,63.1864,610.662],[9.187,63.1879,532.7723],[9.1854,63.1923,546.5092],[9.205,63.1938,657.2749],[9.2034,63.1982,719.5638],[9.2132,63.199,692.5673],[9.2116,63.2034,660.8343],[9.2312,63.2049,607.9663],[9.2296,63.2093,534.02],[9.2394,63.21,494.9996],[9.241,63.2056,578.3093],[9.2607,63.2071,406.5193],[9.2624,63.2026,424.2418],[9.2722,63.2034,323.3461],[9.2738,63.1989,323.5917],[9.2935,63.2004,316.777],[9.2952,63.196,312.6638],[9.3148,63.1974,377.0054],[9.3132,63.2019,292.425],[9.3328,63.2033,296.3568],[9.3312,63.2077,282.3286],[9.341,63.2085,279.7427],[9.3394,63.2129,293.0772],[9.3591,63.2144,277.3514],[9.3525,63.2321,395.4346],[9.3624,63.2328,477.1114],[9.3591,63.2416,446.9032],[9.3493,63.2409,414.395],[9.3394,63.2675,370.6401],[9.3493,63.2682,388.8705],[9.3476,63.2726,440.7015],[9.4364,63.2792,618.9453],[9.4331,63.288,545.2188],[9.4035,63.2859,460.6292],[9.4019,63.2903,536.5585],[9.392,63.2896,564.5964],[9.3888,63.2984,532.5757],[9.3789,63.2977,629.6756],[9.3773,63.3021,643.7197],[9.2885,63.2956,671.1411],[9.2868,63.3,652.0717],[9.2769,63.2993,669.6481],[9.2753,63.3037,600.1434],[9.2654,63.303,623.3694],[9.2638,63.3074,502.9149],[9.2539,63.3067,352.1503],[9.2522,63.3111,354.7948],[9.2424,63.3104,329.066],[9.2407,63.3148,340.7228],[9.2308,63.3141,282.4045],[9.2275,63.3229,302.6579],[9.2176,63.3222,101.0189],[9.216,63.3266,203.5857],[9.2061,63.3259,218.5122],[9.2019,63.337,15.268],[9.1995,63.3339,0.0],[9.1922,63.3328,38.8425],[9.1891,63.3276,124.0148],[9.1755,63.3245,0.0],[9.1724,63.3214,57.6818],[9.1625,63.3187,106.8313],[9.1521,63.3187,21.9281],[9.1479,63.3208,0.0],[9.1391,63.3151,0.0],[9.1234,63.3099,0.0],[9.1266,63.3078,0.0],[9.1276,63.3047,0.0],[9.1307,63.3036,2.9313],[9.1286,63.3005,0.0],[9.1151,63.2953,0.0],[9.1078,63.2901,10.4626],[9.1,63.2875,0.0],[9.0943,63.288,0.0],[9.0932,63.2911,0.0],[9.0901,63.2922,0.0],[9.0911,63.2974,0.0],[9.088,63.2984,11.7082],[9.0932,63.3005,0.0],[9.0938,63.3021,0.0],[9.0953,63.3099,0.0],[9.0922,63.312,0.0],[9.1078,63.3214,0.0],[9.1109,63.3266,0.0],[9.1161,63.3297,0.0],[9.1172,63.3328,0.0],[9.1292,63.3375,0.0],[9.137,63.338,0.0],[9.137,63.3432,0.0],[9.1255,63.3443,2.5839],[9.1245,63.3474,16.8571],[9.1214,63.3484,0.0],[9.1234,63.3536,2.8876],[9.1286,63.3547,0.0],[9.1375,63.3604,0.0],[9.1521,63.3625,0.0],[9.1667,63.3688,23.1355],[9.1745,63.3693,0.0],[9.1766,63.3766,0.0],[9.1505,63.3776,0.0],[9.1495,63.3807,0.0],[9.1464,63.3828,0.0],[9.1516,63.3859,0.0],[9.1505,63.3911,46.6828],[9.1542,63.3937,0.0],[9.1516,63.3995,130.7897],[9.1443,63.4005,216.8801],[9.1432,63.4057,74.8845],[9.1359,63.4068,87.2655],[9.1411,63.4099,0.0],[9.138,63.4109,0.0],[9.137,63.4141,152.7433],[9.1328,63.4161,217.4862],[9.1229,63.4188,229.5965],[9.1146,63.4188,118.9867],[9.1104,63.4208,0.0],[9.1042,63.4188,32.9593],[9.0984,63.4224,0.0],[9.1063,63.4229,0.0],[9.1078,63.4245,45.9126],[9.0979,63.425,17.5967],[9.088,63.4276,25.3729],[9.088,63.4328,106.6684],[9.0932,63.4339,0.0],[9.0932,63.4391,38.4522],[9.0833,63.4396,15.1442],[9.0792,63.4417,0.0],[9.0604,63.4417,71.5245],[9.0521,63.4458,17.9469],[9.0479,63.4437,113.0948],[9.0375,63.4437,104.8473],[9.0333,63.4458,13.1695],[9.0292,63.4458,0.0],[9.0271,63.4479,0.0],[9.0292,63.4521,0.0],[9.0286,63.4557,0.0],[9.0214,63.4589,42.6776],[9.0224,63.462,0.0],[9.0208,63.4625,0.0],[9.0005,63.462,22.8802],[8.9979,63.4583,13.0797],[9.0021,63.4542,12.9933],[8.9995,63.4505,14.8385],[8.9964,63.4495,10.0935],[8.9995,63.4464,0.0],[8.9901,63.4464,0.0],[8.9891,63.4495,0.0],[8.9854,63.4521,0.0],[8.9776,63.4516,47.0708],[8.9755,63.4474,41.4634],[8.9828,63.4432,0.0],[8.9839,63.438,26.7765],[8.9974,63.4307,7.6605],[8.9974,63.4255,49.7769],[8.988,63.4245,12.7028],[8.988,63.4214,26.5966],[8.9958,63.4167,15.7628],[9.0104,63.4167,0.0],[9.0161,63.413,0.0],[8.9979,63.4063,0.0],[8.9667,63.4063,0.0],[8.9641,63.4099,0.0],[8.9557,63.4141,85.9658],[8.9417,63.4167,19.8124],[8.9359,63.4193,8.7284],[8.9349,63.4224,34.5326],[8.9292,63.4229,44.2755],[8.9245,63.4193,72.6065],[8.9151,63.4182,0.0],[8.9224,63.4141,0.0],[8.9224,63.4109,26.2606],[8.9208,63.4104,27.6845],[8.9151,63.4109,0.0],[8.9083,63.4146,0.0],[8.9005,63.4141,0.0],[8.9078,63.4099,23.5902],[8.9063,63.4083,12.8755],[8.9021,63.4083,0.0],[8.8964,63.4109,26.5524],[8.8938,63.4146,0.0],[8.8875,63.4146,0.0],[8.8818,63.412,1.6688],[8.8849,63.4099,0.0],[8.888,63.4047,0.0],[8.8974,63.4036,52.8103],[8.9036,63.3995,6.3724],[8.9063,63.3896,3.1277],[8.9042,63.3875,0.0],[8.8984,63.388,6.7771],[8.8859,63.3943,0.0],[8.887,63.3995,0.0],[8.8714,63.4068,14.5016],[8.8766,63.4109,0.0],[8.8792,63.4188,8.7929],[8.8786,63.4203,0.0],[8.8714,63.4234,14.1932],[8.8724,63.4286,0.0],[8.8708,63.4292,0.0],[8.8604,63.4292,0.0],[8.8458,63.425,23.9305],[8.8417,63.4271,0.0],[8.8318,63.4276,10.981],[8.8208,63.4333,0.0],[8.8146,63.4333,0.0],[8.8104,63.4313,0.0],[8.8063,63.4333,0.0],[8.8026,63.4307,8.7289],[8.8016,63.4276,0.0],[8.7958,63.425,0.0],[8.7896,63.425,0.0],[8.7854,63.4271,4.4635],[8.7667,63.4271,0.0],[8.7625,63.425,12.7535],[8.7505,63.4245,0.0],[8.7485,63.4231,16.0121],[8.7514,63.4233,18.475],[8.7532,63.4189,60.8456],[8.7631,63.4197,45.2796],[8.7665,63.4108,73.7107],[8.7764,63.4116,83.0171],[8.7782,63.4072,83.4571],[8.7881,63.408,149.6266],[8.795,63.3903,91.2736],[8.7851,63.3895,139.2344],[8.7868,63.3851,398.7165],[8.7967,63.3858,323.4594],[8.8002,63.377,491.0961],[8.8101,63.3778,383.4612],[8.8118,63.3733,347.637],[8.8217,63.3741,198.7657],[8.8234,63.3697,296.5636],[8.8629,63.3727,382.7755],[8.8681,63.3595,354.7867],[8.878,63.3602,392.0587],[8.8848,63.3425,232.1937],[8.8651,63.341,251.0307],[8.8668,63.3366,243.1937],[8.857,63.3358,275.0153],[8.8621,63.3226,460.7206],[8.8522,63.3218,510.3142],[8.8574,63.3085,455.6073],[8.8475,63.3078,208.6056],[8.8544,63.2901,422.5677],[8.8446,63.2893,477.526],[8.848,63.2805,382.6831],[8.8382,63.2797,435.8932],[8.8416,63.2709,498.9467],[8.8317,63.2701,488.7749],[8.8352,63.2613,475.3774],[8.8253,63.2605,526.8913],[8.8288,63.2517,727.188],[8.8189,63.2509,686.3315],[8.8241,63.2376,697.4312],[8.8339,63.2384,683.4254],[8.8356,63.234,407.1753],[8.8455,63.2347,444.8105],[8.8506,63.2215,607.5958],[8.8408,63.2207,566.1212],[8.8442,63.2119,467.2725],[8.8344,63.2111,402.4103],[8.8359,63.2071,345.7732],[8.8437,63.2077,397.7608]]],
[[[9.1771,63.3604,0.0],[9.1792,63.3583,0.0],[9.1813,63.3604,6.3744],[9.1792,63.3625,0.0],[9.1771,63.3604,0.0]]],
[[[9.1583,63.3896,0.0],[9.1589,63.388,0.0],[9.1646,63.3875,0.0],[9.1667,63.3896,22.4914],[9.1641,63.3932,0.0],[9.1604,63.3937,0.0],[9.1589,63.3932,0.0],[9.1583,63.3896,0.0]]],
[[[8.7414,63.4228,0.0],[8.7415,63.4226,0.0],[8.7458,63.4229,22.0787],[8.7417,63.4229,0.0],[8.7414,63.4228,0.0]]],
[[[8.9,63.4479,17.6371],[8.888,63.4495,0.0],[8.887,63.4443,14.6033],[8.8818,63.4411,0.0],[8.8797,63.438,0.0],[8.8958,63.4396,24.0957],[8.9,63.4375,0.0],[8.9078,63.437,16.1206],[8.9146,63.4333,0.0],[8.9266,63.4359,54.3624],[8.925,63.4375,10.2255],[8.9187,63.4375,7.651],[8.913,63.4401,35.5549],[8.9141,63.4453,51.3493],[8.9099,63.4474,14.8983],[8.9,63.4479,17.6371]]],
[[[8.8276,63.4495,0.0],[8.8292,63.4479,0.0],[8.8307,63.4484,0.0],[8.8292,63.45,0.0],[8.8276,63.4495,0.0]]],
[[[9.0438,63.4625,47.078],[9.038,63.463,0.0],[9.0354,63.4667,17.9855],[9.0297,63.4661,83.0581],[9.0276,63.4641,0.0],[9.0401,63.4568,0.0],[9.05,63.4542,24.1938],[9.0563,63.4542,0.0],[9.062,63.4568,65.5583],[9.05,63.4646,0.0],[9.0438,63.4625,47.078]]]]}
,"properties": {"GID_2": "NOR.15.5_1","GID_0": "NOR","country": "Norway","GID_1": "NOR.15_1","province": "Sør-Trøndelag","NL_NAME_1": "NA","county": "Hemne","VARNAME_2": "NA","NL_NAME_2": "NA","TYPE_2": "Kommuner","ENGTYPE_2": "Municipality","CC_2": "NA","HASC_2": "NO.ST.HE","name": "Hemne.county","area_km2": 659.1141,"hist_schema_id": "Elevation0-9000","hist_area_km2": {"0": 18.8828,"25": 21.1094,"50": 27.7172,"75": 29.1351,"100": 25.1281,"125": 22.4011,"150": 19.6565,"175": 21.7552,"200": 22.6055,"225": 27.1127,"250": 27.8946,"275": 35.1987,"300": 32.2085,"325": 33.4743,"350": 29.6293,"375": 32.1745,"400": 31.2839,"425": 25.2288,"450": 21.9378,"475": 21.3835,"500": 19.3268,"525": 17.3997,"550": 15.613,"575": 14.1646,"600": 12.7441,"625": 10.9079,"650": 10.1421,"675": 8.5481,"700": 6.3794,"725": 4.5721,"750": 3.7607,"775": 3.2726,"800": 2.0961,"825": 1.5893,"850": 0.7756,"875": 0.6702,"900": 0.4595,"925": 0.1627,"950": 0.1722,"975": 0.2583,"1000": 0.1435,"1025": 0.0383}}}