{"type": "Feature","bbox": [10.50482943476112,63.2242297316663,11.080311303303517,63.290756024398036],"geometry": {"type": "Polygon","coordinates": [[[11.04292705915779,63.290756024398036,327.8969],[11.010547005173322,63.286340562491063,374.335],[10.950496723238473,63.267206894227513,365.781],[10.91340684321986,63.265440709464713,360.6009],[10.566057173204484,63.287518018999606,302.4179],[10.5298503855673,63.28192510058409,399.9687],[10.50482943476112,63.267206894227513,383.528],[10.67614935675175,63.274860361532944,156.5],[10.719126519312965,63.271622356134486,156.5],[10.908991381312887,63.236593025005817,156.5],[10.929596870212123,63.229233921827529,156.5],[10.949024902602787,63.2242297316663,156.5],[11.009075184537664,63.232471927225959,156.5],[11.021438477877183,63.23688738913296,156.5],[11.0279144886741,63.247190133582563,177.1405],[11.032624314708187,63.258964698667825,156.5],[11.039983417886475,63.267206894227513,156.5],[11.052641075353137,63.268973078990285,156.5],[11.069714194726771,63.269267443117428,156.5],[11.080311303303517,63.271916720261629,192.1973],[11.073835292506629,63.281042008202689,160.6492],[11.04292705915779,63.290756024398036,327.8969]]]}
,"properties": {"featurecla": "Lake","scalerank": 9,"name": "null560","name_abb": null,"name_alt": null,"note": "_untitled_180","delta": null,"dam_name": null,"year": -99,"admin": null,"min_zoom": 7.0,"min_label": 8.0,"area_km2": 66.17362,"hist_schema_id": "Elevation0-9000","hist_area_km2": {"150": 32.67197,"175": 4.02546,"200": 3.24277,"225": 3.42378,"250": 3.68097,"275": 3.28997,"300": 3.69017,"325": 3.66146,"350": 2.97488,"375": 2.12641,"400": 1.60214,"425": 0.85839,"450": 0.41015,"475": 0.44833,"500": 0.06676}}}