{"type":"Feature","properties":{"ISO3166-1-Alpha-3":"NOR","country":"Norway","fill":"#FF0","id":"913","name":"Hordaland"},
"geometry":{"type": "MultiPolygon","coordinates": [[[[5.48732,59.59858,40.9087],[5.48276,59.61005,36.2198],[5.48048,59.62132,49.2413],[5.48536,59.63198,110.5358],[5.49806,59.65058,248.8387],[5.50457,59.67182,246.3616],[5.50554,59.69269,403.0568],[5.50213,59.71015,72.1761],[5.49871,59.71442,21.3881],[5.49301,59.71833,0.0],[5.4817,59.72382,0.0],[5.48414,59.72773,0.0],[5.48911,59.7381,0.0],[5.43719,59.7082,0.0],[5.41163,59.6892,0.0],[5.39967,59.66983,0.0],[5.40162,59.66079,0.0],[5.41782,59.64936,0.0],[5.42701,59.63569,0.0],[5.42807,59.62499,0.0],[5.41578,59.61127,44.0217],[5.41334,59.59467,52.4071],[5.40162,59.60554,152.6002],[5.39357,59.63801,42.9143],[5.386,59.64936,0.0],[5.36752,59.65266,0.0],[5.34425,59.64765,0.0],[5.3213,59.63825,0.0],[5.30405,59.62824,0.0],[5.29038,59.6009,0.0],[5.2378,59.55964,0.0],[5.2225,59.5517,0.0],[5.20167,59.54629,0.0],[5.20167,59.5395,0.0],[5.24269,59.53205,30.701],[5.24269,59.52582,35.0043],[5.21339,59.52668,0.0],[5.19972,59.5246,0.0],[5.188,59.51838,0.0],[5.1823,59.51122,2.4239],[5.18279,59.50674,0.0],[5.18588,59.50288,0.0],[5.188,59.49787,0.0],[5.18998,59.48016,0.0],[5.19026,59.48019,0.0],[5.22028,59.48345,0.0],[5.27661,59.49394,23.1887],[5.31283,59.50092,10.0225],[5.34306,59.51265,54.7325],[5.35102,59.51316,41.766],[5.37939,59.51213,12.1448],[5.40789,59.51623,50.0986],[5.40773,59.5218,48.9351],[5.41179,59.53465,34.7599],[5.41676,59.54291,24.8421],[5.42368,59.54637,57.3766],[5.43279,59.54719,46.0857],[5.45086,59.54629,10.632],[5.45314,59.54804,18.1402],[5.45786,59.55671,63.6431],[5.46168,59.55996,51.2399],[5.48552,59.56977,89.5659],[5.4878,59.57502,45.7883],[5.48911,59.58731,92.764],[5.48732,59.59858,40.9087]]],
[[[5.59132,59.81717,30.8183],[5.59783,59.82425,11.1194],[5.59962,59.82982,7.6463],[5.59824,59.83491,0.0],[5.59913,59.83987,19.0122],[5.61394,59.84955,2.1853],[5.61581,59.85309,15.7475],[5.60019,59.86742,121.7133],[5.58912,59.87295,172.3324],[5.55454,59.86294,0.0],[5.55234,59.85643,0.0],[5.55413,59.85301,0.0],[5.55649,59.85086,0.0],[5.55698,59.84577,0.0],[5.55844,59.84191,0.0],[5.5652,59.83983,0.0],[5.56707,59.83686,0.0],[5.5656,59.83251,0.0],[5.56601,59.82848,0.0],[5.56943,59.82514,0.0],[5.57,59.82193,0.0],[5.57228,59.81802,0.0],[5.58074,59.8142,0.0],[5.59132,59.81717,30.8183]]],
[[[5.21339,59.82966,35.2114],[5.20411,59.83047,9.1709],[5.19418,59.83369,0.0],[5.1683,59.85,55.6322],[5.15968,59.85993,9.5073],[5.15398,59.87466,21.6256],[5.12818,59.87499,6.49],[5.11622,59.87324,21.02],[5.10483,59.86848,18.8502],[5.13893,59.84081,30.9475],[5.14649,59.82746,2.2588],[5.13657,59.831,41.6741],[5.12843,59.83161,13.043],[5.12224,59.82819,0.0],[5.11842,59.82001,4.4706],[5.11411,59.82201,5.7632],[5.10304,59.82534,23.827],[5.09864,59.82746,0.7331],[5.09742,59.80931,17.5167],[5.08741,59.80093,0.0],[5.07618,59.79462,0.0],[5.07065,59.78278,0.0],[5.07618,59.7663,0.0],[5.08953,59.76227,0.0],[5.10524,59.76756,3.8287],[5.11842,59.77904,15.9498],[5.12485,59.76187,17.3284],[5.14487,59.75755,0.0],[5.188,59.75861,7.6419],[5.15545,59.73509,3.9829],[5.13136,59.71198,0.0],[5.11671,59.6857,5.0412],[5.11166,59.65241,2.6991],[5.11541,59.63605,0.0],[5.12428,59.62141,0.0],[5.13559,59.60944,0.0],[5.14649,59.6009,0.0],[5.1526,59.59463,30.1666],[5.15284,59.59162,12.9232],[5.15512,59.5917,0.436],[5.17709,59.59748,10.6323],[5.1858,59.60163,10.5721],[5.19386,59.60725,38.8918],[5.20167,59.61457,80.3538],[5.19418,59.62141,28.9705],[5.20151,59.63312,20.7238],[5.19752,59.64081,62.6931],[5.19044,59.64728,45.8951],[5.188,59.6555,38.6221],[5.19166,59.66348,67.8865],[5.20851,59.68285,84.9891],[5.19288,59.67585,40.7466],[5.17482,59.66193,55.2573],[5.16017,59.65522,39.4046],[5.15398,59.66983,15.2708],[5.16017,59.68244,24.8335],[5.188,59.70262,32.3066],[5.19418,59.71385,73.7787],[5.19288,59.72321,47.9731],[5.19044,59.72993,82.9892],[5.18995,59.7364,0.0],[5.19418,59.74494,0.0],[5.20069,59.74946,1.2418],[5.21079,59.75324,0.0],[5.22047,59.75544,9.3333],[5.2256,59.75519,1.0419],[5.24122,59.7425,8.3073],[5.26059,59.73387,37.9032],[5.27345,59.73501,17.4564],[5.27003,59.75178,57.2581],[5.28932,59.74982,279.7428],[5.29786,59.73627,77.7023],[5.30242,59.71845,0.0],[5.31031,59.70331,0.0],[5.28102,59.69135,0.0],[5.27003,59.68968,0.0],[5.27003,59.68285,0.0],[5.29078,59.68354,0.0],[5.30974,59.69013,20.3074],[5.34498,59.71015,18.2891],[5.33424,59.72142,43.1779],[5.31764,59.75226,75.6677],[5.30714,59.75861,192.1318],[5.29322,59.76447,51.1269],[5.27955,59.77798,48.3174],[5.25978,59.80268,0.0],[5.24985,59.80573,40.5644],[5.23764,59.80549,47.9105],[5.22722,59.80732,32.5164],[5.22283,59.8166,55.7848],[5.22023,59.82661,49.2632],[5.21339,59.82966,35.2114]]],
[[[5.49781,59.80341,37.0804],[5.49252,59.82372,124.2046],[5.4909,59.85196,306.5045],[5.48911,59.86103,388.4853],[5.46803,59.88207,482.7401],[5.44606,59.91132,574.1619],[5.42066,59.93838,270.8224],[5.38819,59.95775,35.2232],[5.34498,59.96406,57.6149],[5.33766,59.97199,0.0],[5.32618,59.97651,12.4921],[5.31398,59.97822,0.0],[5.30405,59.97769,0.0],[5.29493,59.97382,0.0],[5.28289,59.96662,0.0],[5.2754,59.95966,0.0],[5.28028,59.95661,0.0],[5.29754,59.951,0.0],[5.28761,59.93781,65.4701],[5.25017,59.90941,32.4485],[5.25799,59.90339,0.0],[5.26197,59.89509,4.4198],[5.26157,59.88516,0.0],[5.25636,59.87466,47.0781],[5.27312,59.86164,41.4855],[5.28484,59.84821,0.0],[5.30405,59.81318,0.0],[5.31039,59.79499,0.0],[5.3143,59.78946,0.0],[5.32455,59.78278,0.0],[5.33627,59.77904,0.0],[5.35231,59.77766,0.0],[5.36638,59.78046,1.4602],[5.37241,59.78962,71.0918],[5.37794,59.79291,95.822],[5.39015,59.79206,183.1308],[5.40187,59.7873,51.3373],[5.4065,59.77904,17.2989],[5.39959,59.77123,26.6147],[5.38592,59.77204,16.0688],[5.37037,59.77464,42.6081],[5.35816,59.7722,0.0],[5.36329,59.76406,0.0],[5.38966,59.75861,0.0],[5.42189,59.75898,41.2512],[5.4817,59.78791,39.2732],[5.49781,59.80341,37.0804]]],
[[[5.19483,60.01439,19.6385],[5.18751,60.01663,0.0],[5.17799,60.01708,0.0],[5.17677,60.01541,0.0],[5.17189,60.01439,4.4531],[5.16586,60.01504,0.0],[5.15496,60.0102,0.0],[5.13437,60.00723,9.9154],[5.13136,60.00617,13.4096],[5.12623,60.003,8.798],[5.10637,59.99754,44.2646],[5.0975,59.99185,0.0],[5.09995,59.98469,0.0],[5.12241,59.968,0.0],[5.14121,59.96593,0.0],[5.15056,59.9667,0.0],[5.15203,59.96931,4.3255],[5.20175,59.9761,0.0],[5.21201,59.98163,0.0],[5.21656,59.98725,24.4953],[5.21437,59.99152,35.6724],[5.20932,59.99645,9.9285],[5.20346,60.00654,12.4323],[5.19483,60.01439,19.6385]]],
[[[5.66041,60.06647,0.0],[5.65675,60.07884,0.0],[5.64698,60.08015,0.0],[5.61915,60.07392,0.0],[5.61061,60.07343,0.0],[5.60792,60.07172,0.0],[5.60646,60.06855,10.7833],[5.60206,60.0633,0.0],[5.59457,60.05996,10.175],[5.58872,60.06171,51.3402],[5.58334,60.06501,0.0],[5.57789,60.06647,31.2927],[5.51295,60.06025,0.0],[5.5088,60.05899,0.0],[5.49659,60.05248,0.0],[5.49252,60.04971,50.3983],[5.48414,60.04637,145.4311],[5.47584,60.04881,0.0],[5.46827,60.05244,0.0],[5.46168,60.0528,0.0],[5.45289,60.048,0.0],[5.4441,60.041,0.0],[5.43971,60.03242,27.8763],[5.44435,60.02241,0.0],[5.45362,60.00959,0.0],[5.44939,60.00503,0.0],[5.37525,60.00251,30.5013],[5.36183,59.99535,31.5977],[5.37241,59.97769,0.0],[5.38893,59.96629,0.0],[5.41017,59.95767,0.0],[5.43279,59.95234,0.0],[5.45427,59.951,0.0],[5.45688,59.95454,81.3827],[5.46648,59.96084,246.2124],[5.47682,59.96296,66.0588],[5.4817,59.9538,81.6199],[5.48911,59.91559,0.0],[5.50807,59.89912,41.6462],[5.52809,59.90176,0.0],[5.57154,59.92304,290.743],[5.59156,59.9228,198.4048],[5.62241,59.9112,0.0],[5.6399,59.91559,108.7676],[5.62208,59.93854,2.5228],[5.60613,59.95051,305.7293],[5.60524,59.96223,163.6073],[5.65284,60.00092,626.3753],[5.66041,60.01691,641.3802],[5.66041,60.06647,0.0]]],
[[[5.25953,60.07559,30.1206],[5.25221,60.08503,0.0],[5.24977,60.08942,0.0],[5.25367,60.08979,0.0],[5.24781,60.09854,33.8814],[5.22983,60.11221,9.3451],[5.22202,60.11713,0.0],[5.21754,60.11848,25.5911],[5.20533,60.11738,42.6861],[5.20493,60.10708,0.0],[5.21534,60.08881,0.0],[5.21827,60.08796,18.8731],[5.2212,60.08552,0.0],[5.22299,60.0788,0.0],[5.22877,60.06733,0.0],[5.24138,60.05537,0.0],[5.24659,60.05146,0.0],[5.24195,60.05134,50.0067],[5.24041,60.04947,6.2927],[5.24244,60.0467,0.0],[5.23976,60.04393,48.6962],[5.2317,60.04051,0.0],[5.22389,60.0423,22.0988],[5.21957,60.05101,0.0],[5.21697,60.06143,45.4229],[5.21111,60.07123,13.0859],[5.20729,60.07954,19.6548],[5.2068,60.08674,31.7535],[5.20362,60.08828,0.0],[5.19711,60.08198,0.0],[5.17986,60.06818,28.896],[5.17254,60.0541,0.0],[5.17172,60.04947,0.0],[5.17384,60.04613,0.0],[5.19793,60.03388,0.0],[5.20069,60.02936,0.0],[5.19939,60.02383,2.8365],[5.20427,60.01606,6.8988],[5.21827,60.00849,0.0],[5.23097,60.00617,0.0],[5.24008,60.0065,0.0],[5.24545,60.0043,0.0],[5.2461,59.99844,0.868],[5.25367,59.99311,5.0242],[5.26881,59.99486,9.851],[5.2776,60.00361,32.3433],[5.27931,60.01252,0.0],[5.29705,60.02753,61.4666],[5.29859,60.03783,62.9441],[5.29908,60.04633,28.0763],[5.30006,60.05077,53.9399],[5.29835,60.05972,22.9962],[5.28972,60.07429,57.6092],[5.27931,60.08124,15.1388],[5.27272,60.08373,0.0],[5.26588,60.08267,0.0],[5.26246,60.07538,0.0],[5.25953,60.07559,30.1206]]],
[[[5.08798,60.14171,15.267],[5.07195,60.14216,0.0],[5.06642,60.13984,0.0],[5.06186,60.14033,0.0],[5.049,60.13866,0.0],[5.04038,60.13491,0.0],[5.03753,60.12779,0.0],[5.04249,60.12568,0.0],[5.0394,60.1212,0.0],[5.0385,60.11669,0.0],[5.04396,60.11506,0.0],[5.05055,60.11433,0.0],[5.06048,60.114,0.0],[5.06682,60.11168,0.0],[5.06739,60.11237,0.0],[5.06691,60.11359,0.0],[5.06902,60.11457,0.0],[5.06935,60.11795,0.0],[5.06463,60.11477,0.0],[5.06113,60.11921,7.3823],[5.05657,60.12226,3.6318],[5.05999,60.12189,0.0],[5.06145,60.12458,11.8134],[5.06479,60.12568,2.2963],[5.06935,60.12352,0.0],[5.07333,60.12295,0.0],[5.07716,60.12381,5.2777],[5.08676,60.12775,8.5228],[5.09034,60.1354,25.7918],[5.08798,60.14171,15.267]]],
[[[5.34864,60.16486,110.6197],[5.34099,60.17048,55.273],[5.32757,60.17654,0.0],[5.32293,60.17219,0.0],[5.31788,60.17137,15.1572],[5.31389,60.16934,53.6883],[5.31275,60.16873,21.2043],[5.30828,60.16319,0.0],[5.30405,60.16014,0.0],[5.30079,60.16177,0.0],[5.29973,60.16376,0.0],[5.29623,60.16067,0.0],[5.29233,60.15567,0.0],[5.28305,60.15412,0.0],[5.28557,60.15143,0.0],[5.2859,60.1494,0.0],[5.2881,60.14476,0.0],[5.29046,60.14802,0.0],[5.29274,60.15013,0.0],[5.29737,60.15131,0.0],[5.30209,60.15168,0.0],[5.30266,60.15355,0.0],[5.30738,60.14924,0.0],[5.313,60.14602,0.0],[5.32293,60.14256,0.0],[5.33033,60.13886,0.0],[5.33904,60.14338,0.0],[5.34636,60.15554,113.6649],[5.34864,60.16486,110.6197]]],
[[[5.09376,60.32022,121.0],[5.07065,60.3476,55.728],[5.00221,60.39997,17.1032],[4.98194,60.43659,40.6594],[4.97682,60.44123,44.0258],[4.96827,60.44379,6.7649],[4.9489,60.43915,0.0],[4.94459,60.43024,0.0],[4.9546,60.40595,25.9171],[4.95965,60.39777,0.0],[4.96852,60.39216,0.0],[4.97193,60.38398,37.1682],[4.96079,60.36811,0.0],[4.9651,60.35944,0.0],[4.97096,60.33283,12.7173],[4.97828,60.32709,17.0393],[4.99366,60.32233,0.0],[5.00668,60.31322,0.0],[5.02019,60.30768,22.4486],[5.03663,60.31346,36.9153],[5.02296,60.2862,35.8366],[5.00758,60.2956,16.8171],[4.99244,60.29702,0.0],[4.94142,60.29125,0.0],[4.9358,60.28555,0.0],[4.93849,60.27505,0.0],[4.94793,60.25886,0.0],[4.96461,60.24323,0.0],[4.99301,60.22529,12.9915],[5.01743,60.22077,26.216],[5.02296,60.24518,44.5771],[5.03582,60.23794,23.1985],[5.04664,60.22451,38.8123],[5.05437,60.20848,0.0],[5.05714,60.19367,22.0],[5.0656,60.19123,27.0684],[5.08432,60.18895,2.8671],[5.1032,60.19074,30.1953],[5.11166,60.20051,85.0439],[5.11069,60.21532,159.2182],[5.10825,60.2294,193.2372],[5.10426,60.24169,108.5102],[5.09864,60.25141,42.8924],[5.08619,60.26154,50.9568],[5.05844,60.27521,0.0],[5.0503,60.2862,0.0],[5.08286,60.28555,47.456],[5.09767,60.29816,104.0631],[5.09376,60.32022,121.0]]],
[[[5.02638,60.52289,21.7546],[4.98194,60.55305,23.8603],[4.97576,60.55394,24.0467],[4.97088,60.5541,18.5424],[4.96079,60.55988,0.0],[4.97779,60.52432,0.0],[4.99057,60.50617,0.0],[5.00587,60.49844,0.0],[5.0184,60.50064,0.0],[5.03159,60.50458,6.0343],[5.04396,60.50642,20.0107],[5.05372,60.50214,25.0],[5.05812,60.49201,14.1409],[5.05909,60.48249,0.0],[5.06332,60.47679,39.0925],[5.07814,60.47797,0.0],[5.07814,60.47114,18.3193],[5.0735,60.4704,12.7753],[5.07065,60.46918,0.0],[5.06446,60.46491,11.0955],[5.07895,60.45555,0.0],[5.13282,60.44379,19.4931],[5.11931,60.43537,0.0],[5.11573,60.42805,0.0],[5.11842,60.41307,9.153],[5.12501,60.40241,0.0],[5.1399,60.40184,0.0],[5.19239,60.41877,82.0541],[5.20436,60.43183,158.7461],[5.20476,60.44916,90.311],[5.19418,60.47114,56.1133],[5.15016,60.50137,0.0],[5.02638,60.52289,21.7546]]],
[[[4.88087,60.56106,0.0],[4.879,60.55919,9.9539],[4.87631,60.5587,12.9615],[4.87257,60.5598,19.3745],[4.84417,60.54275,11.4547],[4.84164,60.54015,7.8812],[4.84881,60.5386,0.0],[4.84962,60.53661,0.0],[4.85328,60.53404,0.0],[4.85288,60.53172,0.0],[4.84881,60.53242,0.0],[4.84791,60.5301,0.0],[4.85182,60.52912,7.1855],[4.85475,60.52745,0.0],[4.85499,60.52216,0.0],[4.8576,60.51699,8.9969],[4.86891,60.51439,0.0],[4.87167,60.50987,15.6695],[4.87737,60.50711,0.0],[4.87192,60.50589,-0.01],[4.87241,60.50328,0.0],[4.87648,60.49767,0.0],[4.88054,60.49645,2.8135],[4.88738,60.49616,0.0],[4.89096,60.49702,6.5179],[4.8908,60.50401,0.0],[4.89161,60.50873,16.6165],[4.89283,60.5102,10.0469],[4.90341,60.5041,0.0],[4.91505,60.49307,4.6821],[4.92229,60.49445,2.5327],[4.92709,60.49864,16.0953],[4.92718,60.50288,23.285],[4.92408,60.50674,0.0],[4.9201,60.50991,12.8807],[4.9179,60.51256,12.5047],[4.91505,60.51394,0.0],[4.91269,60.51614,17.1357],[4.90927,60.51817,12.2995],[4.90512,60.51883,0.0],[4.90528,60.51952,0.0],[4.91017,60.52265,15.7196],[4.91114,60.5281,20.483],[4.89609,60.53848,0.0],[4.88364,60.55199,2.0102],[4.88087,60.56106,0.0]]],
[[[4.82732,60.63142,0.0],[4.8309,60.63557,26.301],[4.83033,60.64004,21.4719],[4.82537,60.64362,12.9316],[4.8239,60.64655,1.0],[4.82399,60.65152,7.4847],[4.82057,60.65644,20.3894],[4.81007,60.66128,0.0],[4.80144,60.66718,28.2183],[4.79127,60.66608,0.0],[4.78614,60.65607,3.7944],[4.78614,60.64842,7.7767],[4.78761,60.64423,0.0],[4.78842,60.63813,0.0],[4.79103,60.63052,2.9081],[4.79363,60.61787,2.0167],[4.79493,60.61542,0.1902],[4.792,60.61457,0.0],[4.78875,60.61396,2.3694],[4.78541,60.61579,11.0473],[4.78598,60.6118,13.1689],[4.79078,60.60029,8.5237],[4.78891,60.59748,4.7508],[4.77947,60.59854,8.3784],[4.78289,60.59276,10.7843],[4.80177,60.5871,0.0],[4.82097,60.58442,0.0],[4.83676,60.58674,16.8584],[4.84392,60.58975,8.1712],[4.84083,60.60676,14.2187],[4.84474,60.6114,0.0],[4.85182,60.6142,2.3528],[4.85157,60.62108,22.5762],[4.84588,60.62812,7.8185],[4.8379,60.63052,0.0],[4.82944,60.62971,0.0],[4.82732,60.63142,0.0]]],
[[[5.67595,60.47289,0.0],[5.68141,60.48168,81.2581],[5.67416,60.5292,647.0813],[5.674,60.54682,485.0246],[5.6858,60.59593,760.8428],[5.68767,60.61172,681.2186],[5.68767,60.67658,260.7893],[5.6657,60.68879,232.798],[5.63608,60.69261,146.0723],[5.60841,60.68842,4.4408],[5.59156,60.67658,0.0],[5.58872,60.66547,84.5372],[5.58774,60.64252,0.0],[5.58155,60.63223,0.0],[5.56967,60.62507,0.0],[5.54322,60.61742,0.0],[5.52198,60.60615,36.6562],[5.47543,60.59406,0.0],[5.43434,60.57783,0.0],[5.42359,60.57075,0.0],[5.41481,60.562,0.0],[5.40903,60.55801,17.1612],[5.386,60.55305,0.0],[5.33872,60.55207,0.0],[5.32399,60.54682,0.0],[5.39283,60.51211,0.0],[5.43556,60.47651,0.0],[5.44435,60.47114,0.0],[5.45916,60.46646,0.0],[5.48601,60.44428,0.0],[5.50213,60.43696,0.0],[5.52906,60.43504,0.0],[5.6089,60.44379,31.4026],[5.61183,60.44807,55.3887],[5.61671,60.45746,170.3322],[5.62452,60.46686,261.6211],[5.63649,60.47114,412.8005],[5.66293,60.47004,0.0],[5.67595,60.47289,0.0]]],
[[[4.69044,60.78909,0.96],[4.68556,60.78689,0.0],[4.68841,60.78189,0.0],[4.69264,60.78172,0.0],[4.69109,60.7803,0.0],[4.69077,60.77945,11.5257],[4.69557,60.7755,13.5362],[4.69776,60.77294,3.7893],[4.69711,60.76415,4.247],[4.70745,60.75711,4.2801],[4.70932,60.75393,0.0],[4.70558,60.75393,7.3727],[4.70208,60.75629,0.0],[4.70208,60.75491,0.0],[4.70094,60.75218,0.0],[4.7024,60.75015,0.0],[4.70932,60.75153,0.0],[4.7304,60.75015,0.0],[4.73422,60.75137,0.0],[4.74309,60.75605,0.0],[4.74602,60.7626,12.811],[4.74041,60.76988,0.0],[4.73829,60.77306,0.0],[4.7409,60.77656,5.3231],[4.73723,60.77847,6.2305],[4.73146,60.78201,7.4902],[4.72576,60.78124,0.0],[4.72438,60.77945,9.5264],[4.72299,60.78124,0.0],[4.7186,60.78437,1.1667],[4.71428,60.7871,0.0],[4.71233,60.78482,0.0],[4.71127,60.78034,2.2395],[4.70867,60.78095,0.0],[4.70712,60.7838,0.0],[4.70558,60.78457,0.0],[4.70712,60.78571,0.0],[4.70712,60.78685,0.0],[4.69899,60.78604,0.0],[4.69044,60.78909,0.96]]],
[[[6.12452,60.97674,843.1884],[6.12203,60.98827,593.8719],[6.11707,60.99214,612.605],[6.10839,60.99679,909.4606],[6.08343,61.00628,958.8992],[6.07563,61.01028,1064.3619],[6.06865,61.01493,1159.0385],[6.06323,61.01989,1184.952],[6.05672,61.0247,1203.0133],[6.04865,61.0287,1283.9307],[6.03842,61.03147,1224.5939],[6.02664,61.03317,1133.5409],[6.01341,61.03312,1087.3236],[6.00178,61.03162,1049.4474],[5.86417,60.97548,558.1821],[5.79554,60.99178,836.8182],[5.77802,60.99287,936.8724],[5.75741,60.98909,687.6675],[5.7327,60.9769,774.8632],[5.70511,60.977,605.2938],[5.63002,60.99085,698.5673],[5.5724,60.97437,836.5995],[5.52853,60.95721,597.8895],[5.50398,60.95044,594.1966],[5.4258,60.93747,616.7338],[5.35986,60.93664,102.5],[5.3026,60.95367,540.0717],[5.28131,60.95589,534.8295],[5.26891,60.95545,521.8717],[5.20142,60.93757,544.8177],[5.1637,60.92398,179.5273],[5.14075,60.88556,257.4104],[5.11248,60.84709,11.5],[5.10489,60.83732,16.6121],[5.10478,60.83719,16.6121],[5.11354,60.8378,35.5635],[5.13282,60.83487,0.0],[5.11842,60.82738,0.0],[5.13103,60.81208,0.0],[5.14926,60.81493,0.0],[5.1644,60.83088,22.8681],[5.16765,60.85468,103.909],[5.18784,60.8277,17.121],[5.23976,60.81712,0.0],[5.29322,60.82274,94.8925],[5.31772,60.84443,101.8804],[5.32667,60.86815,493.2458],[5.3484,60.87783,383.1187],[5.39967,60.88203,128.1609],[5.47169,60.90746,118.8897],[5.49586,60.90998,282.1586],[5.47088,60.89614,147.733],[5.47967,60.88459,0.0],[5.50685,60.87718,0.0],[5.53688,60.8758,239.5576],[5.51075,60.86628,0.0],[5.49692,60.86294,35.5447],[5.4817,60.86156,513.5574],[5.46485,60.86359,659.6691],[5.44801,60.86762,114.8506],[5.43084,60.86933,0.0],[5.35646,60.85285,0.0],[5.33815,60.83983,38.3877],[5.35182,60.81314,151.0183],[5.32944,60.80606,0.0],[5.28435,60.79955,0.0],[5.26319,60.79267,0.0],[5.23927,60.77973,0.0],[5.23585,60.77619,0.0],[5.23894,60.76386,0.0],[5.24676,60.76081,0.0],[5.2566,60.76032,0.0],[5.28419,60.74775,0.0],[5.30983,60.7447,0.0],[5.35499,60.74482,31.0555],[5.36256,60.74164,35.4794],[5.36549,60.7342,0.0],[5.36769,60.72533,0.0],[5.37241,60.71817,0.0],[5.38152,60.71288,0.0],[5.41334,60.70392,0.0],[5.41041,60.68867,65.8479],[5.41969,60.68049,252.2278],[5.43092,60.67377,432.9529],[5.43385,60.66291,188.5516],[5.42628,60.66283,93.1498],[5.39389,60.68073,43.5125],[5.37924,60.68403,0.0],[5.37086,60.67438,30.7487],[5.39047,60.65961,157.0175],[5.41814,60.64313,332.4725],[5.43385,60.62873,133.2009],[5.41228,60.63312,112.7509],[5.3733,60.65436,0.0],[5.35182,60.66291,35.3393],[5.35304,60.65306,40.8696],[5.35694,60.64545,77.0288],[5.36345,60.63963,55.6756],[5.37241,60.63565,101.0622],[5.34799,60.64045,46.0911],[5.32618,60.65546,99.2906],[5.31031,60.67601,303.4342],[5.30405,60.6977,62.3119],[5.30421,60.71198,68.6734],[5.28012,60.72183,41.8566],[5.17677,60.74164,56.0877],[5.14894,60.75064,128.4405],[5.10914,60.77375,7.3934],[5.05641,60.779,33.2457],[5.01043,60.80183,42.8587],[4.98146,60.80878,10.5692],[4.95167,60.80874,10.4563],[4.92677,60.80012,0.0],[4.95777,60.79393,29.3038],[4.98512,60.77985,26.996],[5.03297,60.74169,0.0],[5.06137,60.7309,0.0],[5.09498,60.72923,21.8507],[5.12582,60.72443,2.9842],[5.14649,60.70392,27.296],[5.10141,60.71149,0.0],[5.08497,60.71137,0.0],[5.16179,60.66999,44.4285],[5.22828,60.62132,211.5364],[5.22283,60.61514,195.0217],[5.15691,60.64899,58.5784],[5.12322,60.66022,39.6015],[5.08497,60.66291,36.645],[5.09767,60.64912,50.549],[5.16017,60.61514,84.0714],[5.18898,60.59394,59.3464],[5.22283,60.57416,38.2907],[5.2505,60.56342,67.056],[5.27475,60.55923,76.0342],[5.30006,60.56078,157.7816],[5.37241,60.58039,0.0],[5.44313,60.61469,198.3656],[5.50457,60.6271,0.0],[5.52662,60.62873,126.7144],[5.5359,60.63955,160.883],[5.5232,60.68692,763.295],[5.53346,60.6977,531.0914],[5.57781,60.69587,0.0],[5.59156,60.6977,0.0],[5.60092,60.70222,15.2686],[5.61988,60.7154,0.0],[5.62965,60.71817,116.1402],[5.64763,60.72712,9.1016],[5.66131,60.74482,250.3911],[5.67563,60.75776,329.791],[5.6951599999999996,60.75235,0.0],[5.68523,60.7436,0.0],[5.6714,60.72712,0.0],[5.66179,60.71109,0.0],[5.66383,60.70392,0.0],[5.70851,60.70258,167.2579],[5.7282,60.70645,436.8092],[5.74977,60.71817,355.853],[5.73862,60.70515,357.409],[5.72584,60.68602,0.0],[5.72316,60.66763,288.4672],[5.74293,60.65668,199.5951],[5.72153,60.63939,70.8887],[5.71062,60.60309,418.6901],[5.7072,60.56281,107.6284],[5.70826,60.53319,0.0],[5.71412,60.49901,0.0],[5.71404,60.48428,0.0],[5.70826,60.47114,0.0],[5.6906,60.46223,0.0],[5.66651,60.45637,228.932],[5.64967,60.44782,544.1682],[5.65358,60.43081,386.0956],[5.61769,60.41718,530.2532],[5.57325,60.41494,431.3602],[5.52784,60.4206,11.6473],[5.47625,60.43504,183.4602],[5.44874,60.44628,66.2255],[5.39731,60.48151,217.672],[5.386,60.48542,58.6626],[5.36524,60.4951,88.9573],[5.33627,60.51431,40.3345],[5.30584,60.52827,0.0],[5.28028,60.52237,0.0],[5.23829,60.4892,0.0],[5.23707,60.47378,0.0],[5.26319,60.45063,0.0],[5.2588,60.44672,0.0],[5.25017,60.43081,0.0],[5.28321,60.40103,0.0],[5.29786,60.39598,0.0],[5.26564,60.38703,29.8937],[5.17774,60.38858,0.0],[5.14649,60.36811,50.7236],[5.14096,60.35139,66.9232],[5.14723,60.34374,46.5623],[5.15838,60.3417,0.0],[5.19874,60.33836,56.7182],[5.21176,60.33299,46.8653],[5.22828,60.32095,5.0157],[5.19752,60.32282,0.0],[5.18133,60.32209,17.9136],[5.17066,60.31721,70.6262],[5.16554,60.30793,43.3282],[5.16163,60.29499,45.1571],[5.16236,60.28364,0.0],[5.17066,60.27871,0.0],[5.27654,60.26496,0.0],[5.31031,60.26569,14.9842],[5.29713,60.24921,0.0],[5.22283,60.21109,0.0],[5.25082,60.20746,0.0],[5.32081,60.22175,0.0],[5.35182,60.21723,0.0],[5.35182,60.21109,0.0],[5.32488,60.20527,0.0],[5.313,60.19961,0.0],[5.30405,60.19062,0.0],[5.3201599999999996,60.18195,0.0],[5.37241,60.17011,13.2519],[5.37241,60.16267,0.0],[5.3659,60.16144,39.2242],[5.35182,60.15583,114.9757],[5.38673,60.14472,0.0],[5.40984,60.13133,0.0],[5.41725,60.13874,19.1145],[5.42189,60.15204,35.076],[5.42701,60.16267,12.9788],[5.43849,60.17211,137.7539],[5.47486,60.1872,21.794],[5.51645,60.21328,59.0],[5.52662,60.21723,67.0467],[5.53004,60.22972,391.123],[5.56821,60.28189,466.6884],[5.57789,60.28954,355.3571],[5.58416,60.31029,419.899],[5.59889,60.33344,328.1651],[5.61704,60.35432,377.248],[5.63307,60.36811,326.3695],[5.63429,60.36245,49.3155],[5.63852,60.35334,44.5815],[5.6399,60.3476,12.7781],[5.64959,60.35749,0.0],[5.66049,60.36644,54.8635],[5.67319,60.37299,103.1394],[5.68824,60.37556,135.4662],[5.69581,60.3806,130.7802],[5.71811,60.38935,6.7953],[5.73658,60.39204,0.0],[5.73243,60.37897,0.0],[5.719,60.37043,0.0],[5.68377,60.36221,0.0],[5.66725,60.35505,160.6599],[5.66033,60.34789,66.2386],[5.65301,60.3369,0.0],[5.64747,60.32648,0.0],[5.64617,60.32095,0.0],[5.63746,60.31367,0.0],[5.61118,60.28441,0.0],[5.60572,60.27558,0.0],[5.59978,60.26948,0.0],[5.58692,60.26463,0.0],[5.57496,60.25593,0.0],[5.57154,60.23835,0.0],[5.58758,60.24689,0.0],[5.60076,60.26089,51.8726],[5.61476,60.27216,0.0],[5.63307,60.27253,0.0],[5.63819,60.26411,20.3026],[5.62729,60.25263,0.0],[5.5984,60.23216,0.0],[5.62452,60.23697,8.1308],[5.70826,60.23835,0.0],[5.70826,60.23216,0.0],[5.67018,60.227,149.6655],[5.60027,60.206,0.0],[5.56414,60.20425,0.0],[5.56414,60.19676,0.0],[5.57814,60.18797,0.0],[5.57407,60.17674,0.0],[5.56007,60.16694,0.0],[5.54371,60.16267,0.0],[5.55405,60.15054,0.0],[5.57276,60.1413,0.0],[5.59303,60.13858,0.0],[5.61704,60.14997,15.6842],[5.63746,60.14765,0.0],[5.64617,60.1496,4.5797],[5.65073,60.1562,47.5866],[5.65162,60.17145,129.8143],[5.65358,60.17634,216.8813],[5.68116,60.19062,335.7963],[5.71876,60.20246,304.5403],[5.75807,60.21003,249.5977],[5.7907,60.21109,535.3436],[5.7907,60.20425,371.9892],[5.72478,60.18659,169.4412],[5.70826,60.17634,0.0],[5.70558,60.16031,0.0],[5.72918,60.13239,0.0],[5.7256,60.11823,0.0],[5.70826,60.10977,0.0],[5.70021,60.10391,0.0],[5.70997,60.09805,0.0],[5.71461,60.09097,0.0],[5.7212,60.08389,0.0],[5.73243,60.08076,0.0],[5.74244,60.08283,0.0],[5.74724,60.08755,34.4328],[5.75066,60.09223,204.3905],[5.7566,60.09439,371.3304],[5.79754,60.09439,56.9237],[5.79054,60.07661,0.0],[5.77573,60.0655,49.7108],[5.75652,60.06037,0.0],[5.73552,60.06025,242.9573],[5.69947,60.06664,0.0],[5.68865,60.06086,247.2324],[5.68141,60.03974,121.5786],[5.68832,60.0362,311.3091],[5.69483,60.03067,257.4474],[5.69947,60.02363,121.1208],[5.70143,60.01553,22.4877],[5.70607,60.00886,0.0],[5.73927,59.99445,0.0],[5.75603,59.99067,0.0],[5.77166,60.0235,130.4338],[5.7907,60.01927,216.4725],[5.78663,60.01191,104.1474],[5.78386,60.00495,151.584],[5.82455,60.0078,38.8955],[5.85597,60.02375,9.0],[5.87338,60.05093,303.6755],[5.87273,60.08755,172.0253],[5.85279,60.13711,320.2091],[5.85157,60.1496,379.4413],[5.86052,60.16307,601.0261],[5.87387,60.16323,534.5338],[5.88998,60.15982,261.7037],[5.90675,60.16267,0.0],[5.91472,60.16885,320.3782],[5.93409,60.19062,376.4786],[5.96892,60.21723,34.58],[5.97836,60.2333,302.6533],[5.98561,60.25056,276.5544],[5.99643,60.26496,198.7179],[6.01661,60.27253,76.887],[6.03712,60.2696,23.8677],[6.08383,60.25068,0.0],[6.10532,60.24518,0.0],[6.12477,60.24673,0.0],[6.1399,60.25434,23.1522],[6.1517,60.26765,50.2999],[6.16066,60.2862,141.7905],[6.15358,60.29096,97.8966],[6.14845,60.29613,77.4242],[6.14031,60.30663,214.7575],[6.15105,60.32103,241.9782],[6.1797,60.33991,178.8951],[6.18865,60.35505,0.0],[6.13429,60.36188,272.3538],[6.11899,60.36811,6.256],[6.13307,60.37328,0.0],[6.16529,60.3736,136.9465],[6.19215,60.38345,52.1208],[6.22543,60.37397,0.0],[6.23943,60.37897,39.2352],[6.24098,60.38788,262.0777],[6.23227,60.39517,73.5187],[6.21176,60.40595,125.9715],[6.19215,60.43256,708.7501],[6.18483,60.44038,885.0389],[6.17921,60.44929,1125.3943],[6.17563,60.46162,1123.0929],[6.1775,60.47101,889.1785],[6.18865,60.47114,777.7967],[6.19532,60.4643,735.0845],[6.20834,60.43081,699.7548],[6.22527,60.4123,118.2957],[6.24635,60.3981,357.1869],[6.27076,60.38963,51.1807],[6.29721,60.38858,0.0],[6.31967,60.39647,0.0],[6.37086,60.42463,588.746],[6.39723,60.43081,207.3834],[6.4275,60.43391,47.7371],[6.48292,60.4475,467.7793],[6.51352,60.45063,0.0],[6.56186,60.46296,459.4627],[6.64772,60.51301,608.7299],[6.69508,60.51895,131.5629],[6.67359,60.50056,140.2757],[6.60231,60.46524,152.566],[6.59205,60.44379,0.0],[6.60564,60.43374,0.0],[6.63006,60.43106,0.0],[6.6561,60.43301,0.0],[6.67457,60.43696,284.6563],[6.73609,60.47114,442.9518],[6.77231,60.48534,944.4828],[6.83969,60.49608,472.6759],[6.85597,60.50324,989.2705],[6.88746,60.53319,646.916],[6.91342,60.55296,0.0],[6.95021,60.5749,66.4574],[6.98805,60.58954,675.7271],[7.01726,60.58784,247.5098],[6.96266,60.53937,0.0],[6.95338,60.53718,0.0],[6.94215,60.53661,0.0],[6.93247,60.53319,0.0],[6.92848,60.52237,0.0],[6.92514,60.51789,0.0],[6.91749,60.51459,0.0],[6.90821,60.5126,190.1628],[6.90056,60.51211,519.0688],[6.90056,60.50585,166.0555],[7.10597,60.50585,1054.3284],[7.07879,60.4794,0.0],[7.03248,60.47785,0.0],[6.94215,60.49225,0.0],[6.80258,60.47281,0.0],[6.78338,60.46686,0.0],[6.76393,60.45746,0.0],[6.7483,60.44636,0.0],[6.71559,60.40965,0.0],[6.70143,60.3994,0.0],[6.6714,60.39053,0.0],[6.65406,60.38239,0.0],[6.63038,60.35749,0.0],[6.59636,60.29487,92.9408],[6.57154,60.27253,217.4798],[6.58107,60.24848,0.0],[6.5818,60.23823,0.0],[6.57838,60.22468,0.0],[6.54819,60.18277,131.4633],[6.52914,60.16389,350.6912],[6.52418,60.1352,429.9339],[6.52377,60.08076,113.7558],[6.51694,60.08076,286.6682],[6.5101,60.11009,880.6203],[6.5101,60.13532,848.9274],[6.51271,60.1529,1074.1226],[6.52174,60.18586,797.0908],[6.53053,60.26227,1189.4437],[6.53696,60.27228,1189.1558],[6.56764,60.29389,707.9184],[6.57838,60.30663,895.3633],[6.57179,60.33076,1372.2682],[6.59197,60.36367,1027.7965],[6.64039,60.41649,134.5014],[6.57423,60.43195,169.3226],[6.53793,60.43415,0.0],[6.5027,60.43081,0.0],[6.47869,60.42011,0.0],[6.44166,60.38886,0.0],[6.41765,60.38239,0.0],[6.38356,60.37702,0.0],[6.35182,60.36811,13.1941],[6.34596,60.36376,0.0],[6.34099,60.35895,0.0],[6.33815,60.35541,0.0],[6.33872,60.35505,0.0],[6.33546,60.35008,0.0],[6.33579,60.34569,0.0],[6.33334,60.3426,0.0],[6.32163,60.34138,0.0],[6.30942,60.33784,0.0],[6.28785,60.32022,0.0],[6.27735,60.31346,0.0],[6.25847,60.30809,0.0],[6.20167,60.29979,0.0],[6.21339,60.28628,0.0],[6.20916,60.2768,0.0],[6.18116,60.25886,0.0],[6.16651,60.24213,0.0],[6.15577,60.22671,0.0],[6.14234,60.21548,199.4351],[6.07496,60.19839,0.0],[6.08432,60.16861,0.0],[6.10776,60.1341,0.0],[6.10532,60.10737,0.0],[6.12989,60.10871,0.0],[6.16684,60.11506,177.2664],[6.20053,60.12543,559.8606],[6.21518,60.13874,622.4438],[6.22071,60.14614,519.8083],[6.23341,60.15473,458.5817],[6.24741,60.16132,715.926],[6.25685,60.16267,686.5765],[6.26295,60.15192,0.0],[6.26173,60.13776,0.0],[6.26645,60.12763,0.0],[6.29103,60.1291,0.0],[6.29103,60.12165,92.5481],[6.09799,60.09186,0.0],[6.01002,60.05744,0.0],[5.94776,59.9975,0.0],[5.97804,59.98481,0.0],[5.9826,59.98111,0.0],[5.98113,59.97476,0.0],[5.97722,59.96654,0.0],[5.97153,59.95954,0.0],[5.9651,59.95661,0.0],[5.85963,59.951,0.0],[5.81886,59.94448,51.2834],[5.77223,59.93073,0.0],[5.74024,59.9099,0.0],[5.74293,59.88207,0.0],[5.69654,59.86225,0.0],[5.67042,59.8559,0.0],[5.64617,59.85419,0.0],[5.65984,59.83999,0.0],[5.68141,59.8415,60.7718],[5.70444,59.85114,71.5887],[5.72185,59.86103,0.0],[5.70753,59.83812,1.5548],[5.7151,59.83173,0.0],[5.73552,59.8288,0.9698],[5.75961,59.8166,0.0],[5.79038,59.78925,1.2437],[5.80909,59.77823,100.6143],[5.83172,59.7722,20.0502],[5.85288,59.77424,0.0],[5.88502,59.78132,221.5604],[5.9144,59.79145,0.0],[5.92726,59.80268,313.514],[5.92856,59.82258,258.3945],[5.93426,59.8415,462.1179],[5.94679,59.85554,833.3331],[5.96892,59.86103,250.6672],[5.95916,59.85053,241.214],[5.95753,59.84125,330.989],[5.96144,59.8166,19.8571],[5.95582,59.80634,0.0],[5.9441,59.80134,0.0],[5.93442,59.79462,10.9691],[5.93409,59.77904,0.0],[5.94532,59.76594,0.0],[5.96388,59.75996,0.0],[6.00229,59.75861,59.7583],[6.02052,59.76016,306.5726],[6.03712,59.7648,271.6349],[6.12192,59.80475,724.3333],[6.24431,59.84357,409.435],[6.31153,59.85419,393.1229],[6.29176,59.84032,0.0],[6.21518,59.82746,49.2775],[6.21095,59.82445,16.9845],[6.19825,59.80948,0.0],[6.19174,59.80598,0.0],[6.17742,59.80561,0.0],[6.17091,59.80268,0.0],[6.16228,59.79686,0.0],[6.0381,59.74518,0.0],[5.98585,59.73574,0.0],[5.93409,59.74494,15.0565],[5.92758,59.7495,0.0],[5.92075,59.75617,0.0],[5.91261,59.76219,0.0],[5.90309,59.7648,0.0],[5.89405,59.76179,0.0],[5.89308,59.75446,0.0],[5.89308,59.74567,0.0],[5.88624,59.7381,0.0],[5.87477,59.7353,0.0],[5.81422,59.72907,0.0],[5.80747,59.72362,0.0],[5.80348,59.71674,0.0],[5.79754,59.71015,0.0],[5.75563,59.6883,0.0],[5.7461,59.67552,17.2343],[5.76344,59.66234,0.0],[5.78858,59.66014,0.0],[5.87941,59.67666,452.2965],[5.87941,59.6555,0.0],[5.82016,59.65884,263.2865],[5.78907,59.65644,0.0],[5.76686,59.64558,47.0302],[5.76417,59.6385,370.7584],[5.76531,59.62043,364.8537],[5.76344,59.61457,212.222],[5.75441,59.60985,167.9807],[5.74301,59.60786,203.5962],[5.71559,59.60773,343.177],[5.72706,59.62739,547.138],[5.73097,59.64765,361.5772],[5.72193,59.66348,0.0],[5.69459,59.66983,0.0],[5.62623,59.66983,127.4252],[5.60857,59.67202,170.379],[5.58058,59.67902,0.0],[5.56414,59.67666,0.0],[5.5503,59.66401,0.0],[5.53403,59.64057,0.0],[5.52361,59.61791,0.0],[5.52662,59.60773,0.0],[5.54005,59.59829,0.0],[5.53736,59.57685,0.0],[5.52874,59.55793,0.0],[5.52873,59.55791,0.0],[5.5954,59.5621,374.4944],[5.65731,59.5783,413.2177],[5.73767,59.58773,117.4588],[5.83885,59.58657,417.3641],[5.88277,59.59716,378.871],[5.91182,59.60939,514.3201],[5.94422,59.61675,620.2687],[5.9529,59.61553,625.5093],[5.97713,59.60768,597.2223],[5.98628,59.60778,561.9456],[6.01341,59.61553,629.3163],[6.17061,59.61579,700.5854],[6.18162,59.62318,776.2085],[6.18193,59.65491,798.1154],[6.20709,59.68426,937.0447],[6.24508,59.72039,1098.6188],[6.26048,59.74312,1216.9856],[6.27412,59.76901,932.8218],[6.28528,59.78074,733.636],[6.29551,59.78728,910.0887],[6.30301,59.78777,837.1456],[6.31231,59.78736,818.1725],[6.32145,59.79023,861.7281],[6.34052,59.80219,1058.6404],[6.40801,59.82017,1072.0823],[6.43194,59.83325,1155.5139],[6.48284,59.84999,819.8318],[6.52863,59.85857,1112.8781],[6.55808,59.85955,1089.5707],[6.59549,59.85733,1002.6583],[6.62526,59.85878,1154.9532],[6.64981,59.85443,1090.8086],[6.66856,59.8458,1187.281],[6.67957,59.83206,1068.83],[6.68562,59.8147,1025.5],[6.68639,59.79702,1106.2343],[6.68159,59.78183,1011.4496],[6.67275,59.76798,1045.327],[6.66143,59.75392,888.5869],[6.65399,59.74173,818.5],[6.65399,59.72912,896.9824],[6.66283,59.72225,1018.484],[6.67477,59.71741,1089.5143],[6.70288,59.71258,999.0569],[6.77734,59.72886,1054.0583],[6.97552,59.79247,1308.5623],[7.00374,59.79759,1196.9443],[7.09205,59.79408,1310.3372],[7.149,59.83123,1007.9922],[7.15412,59.83697,979.9974],[7.16001,59.84482,979.5696],[7.15846,59.8595,1184.072],[7.15985,59.87573,1281.9434],[7.1583,59.90327,1574.5004],[7.16311,59.91273,1359.8699],[7.17536,59.92621,1453.1765],[7.22207,59.96621,1396.0967],[7.2416,59.97949,1171.8464],[7.26197,59.98941,1225.8409],[7.34837,60.01112,1274.1321],[7.3909,60.02703,1276.303],[7.42676,60.05582,1223.1581],[7.46784,60.1137,1392.0328],[7.48231,60.12997,1348.5751],[7.5543,60.18935,1270.7223],[7.61264,60.27418,1217.6921],[7.65765,60.31792,1323.9141],[7.66649,60.33136,1332.5879],[7.66943,60.34761,1193.7159],[7.66261,60.4129,1171.0846],[7.66556,60.43492,1268.2926],[7.67889,60.51109,1396.2017],[7.67641,60.52395,1369.3986],[7.66866,60.54736,1166.9055],[7.61512,60.61759,1602.1975],[7.60644,60.63565,1560.1577],[7.58903,60.66038,1497.244],[7.56655,60.67312,1633.9222],[7.47792,60.70234,1429.5],[6.98389,60.7489,1339.2094],[6.97692,60.77345,1212.3862],[6.97361,60.78094,1066.1936],[6.96741,60.78864,995.3418],[6.95888,60.79376,1066.6691],[6.94198,60.79799,1013.3201],[6.86767,60.7981,1083.7899],[6.86127,60.79996,1123.3044],[6.86065,60.8058,1285.2731],[6.86767,60.82295,1216.5924],[6.87,60.83189,1261.1165],[6.86984,60.83947,1118.7941],[6.86442,60.84502,1160.9335],[6.84933,60.84967,1405.394],[6.75083,60.8597,241.8199],[6.7345,60.86373,803.9645],[6.72272,60.86884,431.8427],[6.7173,60.87481,525.8193],[6.71823,60.88145,523.6922],[6.73032,60.89008,706.8253],[6.74443,60.89721,759.2424],[6.81677,60.92579,1343.4889],[6.82437,60.93253,1107.6027],[6.81817,60.93799,1397.0054],[6.81057,60.94259,1312.4503],[6.74365,60.94155,807.2778],[6.73156,60.95824,912.5214],[6.6959,60.96806,1131.4106],[6.67818,60.97594,1001.0849],[6.66748,60.97597,1110.6453],[6.65353,60.97176,1259.0426],[6.64547,60.96677,1220.7242],[6.63224,60.95447,1053.3103],[6.61968,60.94623,1165.8602],[6.57994,60.92827,1140.7823],[6.55669,60.92303,1144.1539],[6.53281,60.92179,1172.2893],[6.50408,60.92832,1047.678],[6.49447,60.93411,1022.7613],[6.49245,60.94036,1023.4867],[6.5016,60.95013,1033.925],[6.50299,60.9537,1071.2928],[6.50175,60.95651,1057.6335],[6.49927,60.95861,1048.4581],[6.4909,60.95959,1067.0236],[6.34021,60.93331,954.2167],[6.30425,60.92047,998.9958],[6.28497,60.91822,906.235],[6.26993,60.91778,937.7572],[6.19779,60.93385,916.8556],[6.1365,60.95018,992.9264],[6.12855,60.95457,1100.2888],[6.12452,60.97674,843.1884]]]]}}