{"type":"Feature","properties":{"GID_2":"NOR.6.15_1","GID_0":"NOR","country":"Norway","GID_1":"NOR.6_1","province":"Hedmark","NL_NAME_1":"NA","county":"Ringsaker","VARNAME_2":"NA","NL_NAME_2":"NA","TYPE_2":"Kommuner","ENGTYPE_2":"Municipality","CC_2":"NA","HASC_2":"NO.HE.RI","name":"Ringsaker.county"},
"geometry":{"type": "MultiPolygon","coordinates": [[[[10.9675,61.2524,930.2036],[10.9582,61.2518,1020.3759],[10.9557,61.2607,1048.4309],[10.9464,61.2601,1031.8124],[10.9438,61.269,1057.0499],[10.9346,61.2684,1046.5739],[10.932,61.2773,1067.7562],[10.9227,61.2767,1051.4862],[10.9202,61.2856,1043.6793],[10.9109,61.2849,1036.33],[10.9083,61.2938,1024.1432],[10.899,61.2932,1025.8888],[10.8977,61.2977,1014.5888],[10.8885,61.297,1038.9568],[10.8898,61.2926,1030.2439],[10.8805,61.292,1055.4016],[10.8818,61.2875,984.1938],[10.8725,61.2869,963.9453],[10.8738,61.2825,933.8203],[10.8646,61.2818,919.71],[10.8659,61.2774,912.559],[10.8566,61.2768,914.6354],[10.8579,61.2723,928.9869],[10.8486,61.2717,899.9037],[10.8499,61.2673,934.8553],[10.8314,61.266,824.2714],[10.8327,61.2616,807.294],[10.8142,61.2603,739.3884],[10.8155,61.2559,723.1204],[10.797,61.2546,700.6597],[10.7983,61.2502,710.4728],[10.7706,61.2483,827.2145],[10.7719,61.243899999999996,833.4424],[10.7534,61.2426,824.2634],[10.7547,61.2382,846.9212],[10.7362,61.2369,914.2875],[10.7375,61.2325,901.3999],[10.7283,61.2318,886.4796],[10.7322,61.2185,899.4336],[10.723,61.2179,915.9441],[10.7269,61.2046,909.5153],[10.7177,61.2039,905.9415],[10.719,61.1995,921.759],[10.7097,61.1988,893.1024],[10.7111,61.1944,882.6881],[10.7018,61.1938,885.8187],[10.7031,61.1893,884.8],[10.6939,61.1887,887.5878],[10.6952,61.1843,887.7412],[10.6768,61.183,921.9955],[10.6794,61.1741,964.3903],[10.6702,61.1735,1000.723],[10.6715,61.169,978.4615],[10.6623,61.1684,971.5224],[10.6636,61.164,943.3241],[10.6544,61.1633,909.9504],[10.657,61.1544,880.9655],[10.6478,61.1538,827.4991],[10.6491,61.1494,793.9391],[10.6399,61.1487,717.6292],[10.6412,61.1443,697.4116],[10.632,61.1436,679.0658],[10.6347,61.1348,651.4462],[10.6254,61.1341,627.2047],[10.6268,61.1297,550.1968],[10.6175,61.129,520.1104],[10.6189,61.1246,530.347],[10.6097,61.124,550.6279],[10.6123,61.1151,515.338],[10.6031,61.1144,515.3386],[10.6044,61.11,563.4905],[10.5952,61.1094,612.0118],[10.5965,61.1049,690.9155],[10.5873,61.1043,692.6256],[10.59,61.0954,574.2825],[10.5808,61.0948,566.3882],[10.5821,61.0903,534.9327],[10.5729,61.0897,513.0655],[10.5743,61.0852,522.2067],[10.5559,61.084,502.9891],[10.5572,61.0795,457.4653],[10.548,61.0789,443.9406],[10.5493,61.0744,471.5583],[10.5401,61.0738,405.2868],[10.5415,61.0693,427.4127],[10.5323,61.0687,369.5261],[10.5336,61.0643,372.8555],[10.4417,61.0578,119.5],[10.4471,61.04,119.5],[10.4562,61.0407,119.5],[10.4603,61.0274,119.5],[10.4695,61.028,119.5],[10.4721,61.0191,119.5],[10.4813,61.0198,119.5],[10.484,61.0109,119.5],[10.5024,61.0122,119.5],[10.5037,61.0077,119.5],[10.5129,61.0084,119.5],[10.5142,61.004,119.5],[10.5326,61.0052,119.5],[10.5339,61.0008,119.5],[10.5431,61.0014,119.5],[10.5444,60.997,119.5],[10.5536,60.9976,119.5],[10.5549,60.9932,119.5],[10.5641,60.9938,119.5],[10.5654,60.9894,119.5],[10.5746,60.99,119.5],[10.5759,60.9856,119.5],[10.5851,60.9862,119.5],[10.5864,60.9818,119.5],[10.5956,60.9824,119.5],[10.5969,60.978,119.5],[10.6061,60.9786,119.5],[10.6087,60.9697,119.5],[10.6179,60.9704,119.5],[10.6205,60.9615,126.8317],[10.6297,60.9621,119.5],[10.6323,60.9532,119.5],[10.6415,60.9539,119.5],[10.6441,60.945,119.5],[10.6533,60.9456,119.5],[10.6572,60.9323,119.5],[10.6664,60.9329,119.5],[10.6742,60.9063,119.5],[10.6834,60.9069,119.5],[10.6899,60.8847,119.5],[10.699,60.8853,119.5],[10.7029,60.872,119.5],[10.7121,60.8726,119.5],[10.7173,60.8549,119.5],[10.7081,60.8542,119.5],[10.7107,60.8453,119.5],[10.701599999999999,60.8447,119.5],[10.7042,60.8358,119.5],[10.6951,60.8352,119.5],[10.6977,60.8263,119.5],[10.6885,60.8257,119.5],[10.6924,60.8123,119.5],[10.701599999999999,60.813,119.5],[10.7055,60.7996,119.5],[10.7146,60.8003,119.5],[10.7172,60.7914,119.5],[10.7263,60.792,119.5],[10.7289,60.7831,119.5],[10.738,60.7838,119.5],[10.7406,60.7749,119.5],[10.7497,60.7755,119.5],[10.751,60.7711,119.5],[10.7601,60.7717,119.5],[10.7614,60.7672,119.5],[10.7796,60.7685,119.5],[10.7809,60.764,119.5],[10.79,60.7647,119.5],[10.7913,60.7602,119.5],[10.8095,60.7615,119.5],[10.8108,60.757,119.5],[10.8199,60.7577,119.5],[10.8212,60.7532,119.5],[10.8394,60.7545,119.5],[10.8407,60.75,119.5],[10.8498,60.7506,119.5],[10.8511,60.7462,119.5],[10.8602,60.7468,119.5],[10.8615,60.7424,119.5],[10.8706,60.743,119.5],[10.8718,60.7385,119.5],[10.881,60.7392,119.5],[10.8822,60.7347,119.5],[10.8913,60.7353,119.5],[10.8926,60.7309,119.5],[10.9017,60.7315,119.5],[10.903,60.7271,119.5],[10.9121,60.7277,119.5],[10.9133,60.7232,119.5],[10.9224,60.7238,119.5],[10.9237,60.7194,119.5],[10.9419,60.7206,119.5],[10.9432,60.7162,119.5],[10.9523,60.7168,119.5],[10.9535,60.7123,119.5],[10.9626,60.713,119.5],[10.9639,60.7085,119.5],[10.973,60.7091,119.5],[10.9743,60.7047,119.5],[10.9834,60.7053,119.5],[10.9846,60.7008,119.5],[10.9937,60.7015,119.5],[10.9962,60.6926,119.5],[11.0053,60.6932,119.5],[11.0066,60.6887,119.5],[11.0157,60.6893,119.5],[11.0169,60.6849,119.5],[11.026,60.6855,119.5],[11.0273,60.6811,119.5],[11.0454,60.6823,119.5],[11.0417,60.6956,119.5],[11.0508,60.6962,119.5],[11.0471,60.7096,119.5],[11.0562,60.7102,119.5],[11.0412,60.7635,119.5],[11.0321,60.7629,119.5],[11.0271,60.7807,119.5],[11.018,60.7801,119.5],[11.0155,60.789,119.5],[11.0063,60.7884,119.5],[11.0038,60.7973,119.5],[10.9947,60.7967,119.5],[10.9909,60.81,119.5],[10.9818,60.8094,119.5],[10.9793,60.8183,119.5],[11.0249,60.8213,195.1908],[11.0237,60.8258,220.8772],[11.042,60.827,269.6378],[11.0432,60.8226,268.8055],[11.0523,60.8232,268.9063],[11.0536,60.8187,228.5053],[11.0627,60.8193,229.2264],[11.0615,60.8238,215.1284],[11.0706,60.8244,198.0427],[11.0694,60.8288,177.6746],[11.0785,60.8294,156.605],[11.0735,60.8472,165.7151],[11.0826,60.8478,177.083],[11.0814,60.8523,198.1404],[11.0997,60.8535,211.4892],[11.0984,60.8579,242.0091],[11.1076,60.8585,242.2478],[11.1051,60.8674,310.1315],[11.1142,60.868,285.1823],[11.108,60.8903,407.7894],[11.0989,60.8897,429.1233],[11.0976,60.8941,445.2257],[11.0885,60.8935,472.4537],[11.0785,60.9291,569.7621],[11.0876,60.9297,565.2127],[11.0776,60.9653,611.9589],[11.0868,60.9659,596.527],[11.0818,60.9837,587.0702],[11.091,60.9843,624.8016],[11.0897,60.9887,628.0951],[11.0989,60.9893,638.0071],[11.0964,60.9982,635.9623],[11.1056,60.9988,635.0501],[11.1043,61.0033,637.8761],[11.1135,61.0039,645.2649],[11.111,61.0128,637.3211],[11.1202,61.0134,642.2222],[11.1102,61.0489,646.0555],[11.101,61.0483,641.5366],[11.0972,61.0617,628.7227],[11.088,61.0611,627.0261],[11.0855,61.07,623.9474],[11.0763,61.0694,632.4592],[11.075,61.0738,630.6609],[11.0658,61.0732,628.1215],[11.0633,61.0821,627.7469],[11.0541,61.0815,629.209],[11.0516,61.0904,624.1478],[11.0423,61.0898,620.6158],[11.0398,61.0987,591.471],[11.0306,61.0981,570.8204],[10.9988,61.2092,898.9235],[11.008,61.2098,907.0215],[11.0029,61.2276,892.2392],[10.9937,61.227,892.5729],[10.9911,61.2359,905.342],[10.9819,61.2353,925.5656],[10.9793,61.2442,930.0402],[10.9701,61.2436,936.5118],[10.9675,61.2524,930.2036]]]]}}