{"type":"Feature","properties":{"GID_2":"NOR.17.19_1","GID_0":"NOR","country":"Norway","GID_1":"NOR.17_1","province":"Troms","NL_NAME_1":"NA","county":"Skånland","VARNAME_2":"NA","NL_NAME_2":"NA","TYPE_2":"Kommuner","ENGTYPE_2":"Municipality","CC_2":"NA","HASC_2":"NO.TR.SL","name":"Skånland.county"},
"geometry":{"type": "MultiPolygon","coordinates": [[[[17.3027,68.566,448.1727],[17.364,68.5669,388.9053],[17.3634,68.5714,356.0922],[17.3879,68.5718,262.5164],[17.3874,68.5763,266.9691],[17.4242,68.5768,317.7407],[17.4237,68.5813,335.5378],[17.4604,68.5818,307.4],[17.4599,68.5863,327.6327],[17.4967,68.5869,411.1581],[17.4962,68.5914,401.812],[17.533,68.5919,682.3407],[17.5325,68.5964,698.3913],[17.557,68.5967,988.6111],[17.5566,68.6012,873.149],[17.532,68.6009,746.2509],[17.5315,68.6054,693.5654],[17.507,68.605,544.4246],[17.5065,68.6095,515.8451],[17.4942,68.6094,524.1115],[17.4937,68.6139,676.9918],[17.4815,68.6137,627.9664],[17.4795,68.6317,880.7482],[17.4549,68.6313,876.5319],[17.4544,68.6358,1058.3083],[17.3684,68.6346,922.1138],[17.3679,68.6391,832.2661],[17.3556,68.6389,816.5538],[17.3551,68.6434,786.9553],[17.3428,68.6432,681.0455],[17.3423,68.6477,622.3855],[17.3177,68.6473,618.4981],[17.3161,68.6608,610.3677],[17.3284,68.661,610.4883],[17.3273,68.67,968.4504],[17.2781,68.6693,606.0762],[17.2776,68.6738,884.9973],[17.2161,68.6728,472.2921],[17.2144,68.6863,886.1413],[17.2021,68.6861,739.7757],[17.2015,68.6906,933.5026],[17.1769,68.6902,805.5073],[17.175,68.7063,966.9111],[17.1563,68.7063,772.1838],[17.1437,68.7125,312.3175],[17.1375,68.7104,461.0397],[17.1313,68.7104,395.2854],[17.1271,68.7146,15.0385],[17.113,68.7141,0.0],[17.1068,68.7057,0.0],[17.1099,68.7026,0.0],[17.1047,68.6943,0.0],[17.1078,68.6922,56.2195],[17.1057,68.6901,82.526],[17.1005,68.6891,0.0],[17.0964,68.6839,0.0],[17.1057,68.6828,0.0],[17.1141,68.6776,0.0],[17.1104,68.675,14.9394],[17.0958,68.675,0.0],[17.0917,68.6729,79.8351],[17.0854,68.6729,27.3811],[17.0729,68.6792,4.3758],[17.0589,68.6797,9.4232],[17.062,68.6849,0.0],[17.0542,68.6854,6.9515],[17.0484,68.688,5.9583],[17.0495,68.6911,0.0],[17.0464,68.6922,0.0],[17.0474,68.6953,0.0],[17.0438,68.6979,0.0],[17.0495,68.7047,0.0],[17.0495,68.7078,0.0],[17.0464,68.7089,9.2437],[17.0474,68.712,0.0],[17.0391,68.7161,16.3993],[17.0354,68.7167,0.0],[17.0276,68.7141,30.1364],[17.0245,68.7109,262.9795],[17.0167,68.7083,456.3927],[17.0063,68.7083,519.6343],[17.0021,68.7063,607.1894],[16.9979,68.7083,446.6831],[16.9917,68.7063,499.6763],[16.9714,68.7068,211.5871],[16.9875,68.7125,51.8619],[16.9974,68.713,39.2803],[16.9958,68.7146,3.4608],[16.9896,68.7146,8.4848],[16.9854,68.7167,0.0],[16.9813,68.7146,0.0],[16.9667,68.7146,0.0],[16.9625,68.7125,0.0],[16.9583,68.7125,0.0],[16.9547,68.7099,0.0],[16.9536,68.7068,0.0],[16.9234,68.6995,0.0],[16.9224,68.6964,0.0],[16.9161,68.6901,4.5554],[16.9047,68.6891,0.0],[16.9,68.6833,0.0],[16.8896,68.6833,0.0],[16.8854,68.6813,0.0],[16.8667,68.6813,3.6747],[16.8651,68.6818,14.7422],[16.8661,68.6849,0.0],[16.8583,68.6854,14.7821],[16.8542,68.6875,0.0],[16.8354,68.6875,0.0],[16.8312,68.6854,5.7717],[16.8083,68.6854,4.2172],[16.8021,68.6875,0.0],[16.7922,68.6849,0.0],[16.7911,68.6818,0.0],[16.7875,68.6792,3.4184],[16.7542,68.6771,0.0],[16.7354,68.6708,14.8224],[16.7271,68.6708,0.0],[16.7172,68.6682,0.0],[16.7146,68.6646,0.0],[16.7182,68.6609,2.2348],[16.713,68.6557,0.0],[16.7167,68.6521,0.0],[16.7125,68.6479,26.1504],[16.7042,68.6479,94.9894],[16.6917,68.6521,0.0],[16.6833,68.6521,0.0],[16.6771,68.65,48.0975],[16.6729,68.6521,0.0],[16.6604,68.6479,78.3731],[16.6396,68.6479,0.0],[16.6292,68.6438,0.0],[16.613,68.6432,0.0],[16.6104,68.6396,3.9486],[16.6141,68.6359,16.6544],[16.6083,68.6354,0.0],[16.5979,68.6312,15.7217],[16.5859,68.6307,0.0],[16.5891,68.6276,11.3313],[16.5839,68.6266,0.0],[16.5786,68.6214,0.0],[16.5734,68.6203,0.0],[16.5766,68.6172,1.835],[16.5693,68.6162,0.0],[16.5609,68.6036,0.0],[16.5641,68.6005,7.9118],[16.5589,68.5995,0.0],[16.562,68.5974,9.3448],[16.5609,68.5943,0.0],[16.5641,68.5932,0.0],[16.563,68.5901,0.0],[16.5703,68.587,3.9709],[16.5651,68.5839,0.0],[16.5682,68.5828,5.8619],[16.5672,68.5797,0.0],[16.5714,68.5776,0.0],[16.5807,68.5766,0.0],[16.5917,68.5708,0.0],[16.6021,68.5708,0.0],[16.6104,68.5667,0.0],[16.6167,68.5667,3.3168],[16.6182,68.5661,4.222],[16.6172,68.563,0.0],[16.6188,68.5625,0.0],[16.625,68.5625,3.592],[16.6313,68.5604,0.0],[16.6359,68.5661,0.0],[16.6437,68.5687,0.0],[16.6474,68.5682,0.0],[16.6464,68.5651,0.0],[16.6495,68.563,0.0],[16.6234,68.5557,0.0],[16.6266,68.5537,2.9441],[16.6214,68.5474,0.0],[16.6245,68.5453,0.0],[16.6245,68.5422,0.0],[16.6167,68.5354,0.0],[16.5896,68.5375,0.0],[16.5755,68.5443,0.0],[16.5697,68.5442,44.5245],[16.5704,68.5397,138.0908],[16.5582,68.5395,385.5662],[16.5615,68.517,278.1013],[16.5738,68.5172,194.4626],[16.5758,68.5037,393.3114],[16.6246,68.5047,210.0363],[16.6253,68.5002,189.9572],[16.6619,68.5009,2.5966],[16.6612,68.5054,2.3807],[16.6979,68.5061,46.1958],[16.6972,68.5106,36.0788],[16.7216,68.511,65.7384],[16.7203,68.52,66.258],[16.7326,68.5202,25.1666],[16.7319,68.5247,36.8706],[16.7441,68.525,26.9059],[16.7428,68.534,41.3105],[16.7673,68.5344,37.3492],[16.7667,68.5389,39.7127],[16.7789,68.5391,99.4549],[16.7783,68.5436,160.678],[16.7905,68.5438,333.3732],[16.7899,68.5483,360.3473],[16.8021,68.5486,334.0333],[16.8015,68.5531,338.8228],[16.8137,68.5533,459.036],[16.8131,68.5578,359.8063],[16.8253,68.558,482.6207],[16.8247,68.5625,381.3124],[16.8369,68.5627,500.3931],[16.8363,68.5672,510.8457],[16.8485,68.5674,645.4336],[16.8479,68.5719,586.1176],[16.9336,68.5735,663.9412],[16.9342,68.569,765.3979],[17.0077,68.5702,562.1671],[17.0083,68.5657,589.1082],[17.0818,68.567,533.0698],[17.0823,68.5625,543.8302],[17.1558,68.5637,465.7624],[17.1564,68.5592,478.5788],[17.291,68.5613,401.2706],[17.2905,68.5658,418.7111],[17.3027,68.566,448.1727]]],
[[[17.1988,68.7131,417.8108],[17.1956,68.7131,400.6281],[17.1942,68.713,389.942],[17.1988,68.7125,440.1415],[17.1988,68.7131,417.8108]]],
[[[17.0005,68.7151,7.4506],[17.0042,68.7146,6.5309],[17.0057,68.7161,0.0],[17.0021,68.7167,0.0],[17.0005,68.7151,7.4506]]],
[[[17.1862,68.7146,352.3474],[17.1859,68.7174,221.2193],[17.1776,68.7161,276.7126],[17.1792,68.7146,353.161],[17.1862,68.7146,352.3474]]]]}}