{"type":"Feature","properties":{"GID_2":"NOR.1.20_1","GID_0":"NOR","country":"Norway","GID_1":"NOR.1_1","province":"Akershus","NL_NAME_1":"NA","county":"Ullensaker","VARNAME_2":"NA","NL_NAME_2":"NA","TYPE_2":"Kommuner","ENGTYPE_2":"Municipality","CC_2":"NA","HASC_2":"NO.AK.UL","name":"Ullensaker.county"},
"geometry":{"type": "MultiPolygon","coordinates": [[[[11.1375,60.2491,211.8595],[11.1387,60.2446,211.3339],[11.1207,60.2434,206.6959],[11.1219,60.239,204.1061],[11.104,60.2378,209.6308],[11.1052,60.2333,208.6957],[11.0962,60.2327,209.578],[11.0999,60.2194,206.3187],[11.0909,60.2188,205.3924],[11.0921,60.2143,204.9088],[11.0742,60.2131,203.2533],[11.0754,60.2087,202.1434],[11.0664,60.2081,200.5111],[11.0677,60.2036,200.265],[11.0497,60.2024,187.7474],[11.051,60.198,158.7509],[11.042,60.1974,158.6103],[11.0457,60.184,170.7613],[11.0725,60.1858,199.2618],[11.075,60.1769,197.6163],[11.0839,60.1776,199.8404],[11.0851,60.1731,176.407],[11.0672,60.1719,177.2175],[11.0685,60.1674,151.1817],[11.0595,60.1668,139.3961],[11.0632,60.1535,157.6181],[11.0721,60.1541,129.5547],[11.0806,60.123,110.977],[11.0896,60.1236,160.6342],[11.0908,60.1191,128.2574],[11.0997,60.1197,157.8362],[11.1009,60.1153,112.6384],[11.1099,60.1159,130.9086],[11.1111,60.1114,114.9519],[11.12,60.112,141.5165],[11.1212,60.1076,157.2957],[11.1123,60.107,126.3811],[11.1135,60.1025,134.8014],[11.1045,60.1019,128.3177],[11.1082,60.0886,115.465],[11.0992,60.088,142.0001],[11.1041,60.0702,133.9172],[11.0951,60.0696,123.8079],[11.0988,60.0563,130.8414],[11.1255,60.0581,159.3617],[11.1267,60.0536,155.7336],[11.1535,60.0554,164.321],[11.1523,60.0599,160.0502],[11.188,60.0623,129.6819],[11.1892,60.0578,149.0321],[11.2071,60.059,125.3913],[11.2083,60.0546,132.9703],[11.2261,60.0558,112.065],[11.2237,60.0646,126.8345],[11.2327,60.0652,128.9873],[11.2315,60.0697,116.1702],[11.2404,60.0703,119.7402],[11.2392,60.0747,129.4479],[11.2481,60.0753,120.5187],[11.2469,60.0798,136.3061],[11.2559,60.0804,121.8784],[11.2583,60.0715,137.2765],[11.2672,60.0721,152.2707],[11.2684,60.0676,179.1605],[11.2773,60.0682,204.5569],[11.2797,60.0593,204.5545],[11.2886,60.0599,206.7283],[11.2874,60.0643,193.3341],[11.2963,60.0649,198.1604],[11.2952,60.0694,172.5204],[11.313,60.0706,182.3648],[11.3118,60.075,213.9587],[11.3208,60.0756,268.3316],[11.3161,60.0934,220.7649],[11.3071,60.0928,208.1521],[11.3036,60.1062,166.1228],[11.3304,60.1079,226.5133],[11.3269,60.1213,204.3874],[11.3358,60.1219,209.0006],[11.3346,60.1263,168.0038],[11.3167,60.1251,163.5882],[11.3155,60.1296,158.6908],[11.3066,60.129,166.7142],[11.3054,60.1334,163.6633],[11.3144,60.134,159.1361],[11.312,60.1429,169.0469],[11.321,60.1435,162.0928],[11.315,60.1658,185.5432],[11.324,60.1664,173.2747],[11.3235,60.1682,183.3656],[11.3228,60.1708,177.7053],[11.3139,60.1702,185.1251],[11.3127,60.1747,181.1475],[11.3037,60.1741,169.5469],[11.3025,60.1785,166.9251],[11.2936,60.1779,177.7469],[11.29,60.1913,175.1511],[11.3169,60.193,255.0896],[11.3181,60.1886,225.5347],[11.327,60.1892,205.7756],[11.3199,60.2159,203.3652],[11.302,60.2147,227.0231],[11.3008,60.2192,230.569],[11.2829,60.218,218.6634],[11.2841,60.2135,192.4308],[11.2751,60.2129,200.8013],[11.2727,60.2218,203.5355],[11.2637,60.2212,226.1591],[11.2625,60.2257,243.0745],[11.2536,60.2251,270.4982],[11.2524,60.2295,287.8416],[11.2255,60.2278,205.8632],[11.2243,60.2322,201.1306],[11.2153,60.2316,204.4506],[11.2129,60.2405,198.8204],[11.177,60.2381,173.0557],[11.1758,60.2426,189.1618],[11.1848,60.2432,171.9591],[11.1811,60.2565,213.7264],[11.1632,60.2553,209.9665],[11.1644,60.2509,202.0694],[11.1375,60.2491,211.8595]]]]}}