{"type": "Feature","bbox": [24.1778,68.8817,26.2476,69.8998],"geometry": {"type": "MultiPolygon","coordinates": [[[[25.7427,69.144,159.3099],[25.7439,69.1485,189.9325],[25.7314,69.1489,179.1407],[25.7348,69.1624,184.1672],[25.7223,69.1628,160.7684],[25.7246,69.1717,175.4949],[25.7121,69.1721,189.5591],[25.7156,69.1856,173.7536],[25.703,69.186,180.1361],[25.7053,69.195,197.4037],[25.6928,69.1954,158.4866],[25.6951,69.2043,153.7408],[25.7077,69.2039,179.5436],[25.7135,69.2264,151.2738],[25.7009,69.2268,175.2148],[25.7091,69.2582,208.4874],[25.7217,69.2578,146.4454],[25.7228,69.2623,168.9158],[25.7354,69.2619,160.0409],[25.7366,69.2663,195.5118],[25.724,69.2668,173.8373],[25.7263,69.2757,151.9475],[25.7389,69.2753,148.7311],[25.7413,69.2843,150.2233],[25.7539,69.2839,247.8148],[25.7551,69.2884,180.0845],[25.7425,69.2888,160.4183],[25.7436,69.2933,151.5169],[25.731,69.2937,175.0793],[25.7322,69.2982,153.4204],[25.7448,69.2978,164.374],[25.7472,69.3067,146.9546],[25.7346,69.3071,231.7484],[25.7381,69.3206,227.5153],[25.7507,69.3202,150.5421],[25.7519,69.3247,149.6613],[25.7645,69.3243,202.0281],[25.7681,69.3377,171.4514],[25.7554,69.3381,161.7787],[25.7566,69.3426,161.9376],[25.7819,69.3418,165.6904],[25.7854,69.3553,141.853],[25.7981,69.3549,162.3938],[25.7993,69.3594,154.6743],[25.8246,69.3586,193.622],[25.8258,69.363,257.6172],[25.8131,69.3634,162.9382],[25.8179,69.3814,197.1929],[25.8306,69.381,131.4083],[25.8342,69.3944,141.4966],[25.8468,69.3941,125.7365],[25.848,69.3985,133.2546],[25.8354,69.3989,128.2983],[25.8378,69.4079,152.1546],[25.8251,69.4083,130.7012],[25.8239,69.4038,123.5799],[25.8112,69.4042,127.0192],[25.8136,69.4132,125.7345],[25.8263,69.4128,124.1782],[25.8275,69.4173,155.3392],[25.7894,69.4185,148.8858],[25.7906,69.423,159.447],[25.8033,69.4226,124.7878],[25.8045,69.4271,124.6975],[25.8172,69.4267,136.8672],[25.8184,69.4311,137.844],[25.8057,69.4315,121.4888],[25.8069,69.436,121.4139],[25.8196,69.4356,143.4357],[25.8244,69.4536,121.2744],[25.8371,69.4532,193.0961],[25.8419,69.4711,121.1114],[25.8546,69.4707,128.6813],[25.8558,69.4752,125.5162],[25.8686,69.4748,140.8877],[25.871,69.4838,157.549],[25.8583,69.4842,120.0139],[25.8595,69.4887,156.5131],[25.8468,69.4891,119.4586],[25.8492,69.498,119.2986],[25.8504,69.5025,120.8223],[25.8631,69.5021,133.9947],[25.868,69.5201,141.8141],[25.8807,69.5197,123.9292],[25.8831,69.5286,151.6447],[25.8704,69.529,119.456],[25.8716,69.5335,128.7081],[25.8589,69.5339,119.7787],[25.8601,69.5384,144.6173],[25.8473,69.5388,119.4825],[25.8498,69.5478,161.4707],[25.837,69.5482,119.5826],[25.8382,69.5527,119.7363],[25.8765,69.5515,131.6617],[25.8777,69.556,118.6718],[25.8905,69.5555,119.3979],[25.8917,69.56,118.3671],[25.9044,69.5596,137.6784],[25.9057,69.5641,118.3777],[25.9184,69.5637,258.8811],[25.9197,69.5682,117.9692],[25.9324,69.5678,218.8146],[25.9349,69.5767,120.014],[25.9477,69.5763,120.0382],[25.9538,69.5988,143.9533],[25.9666,69.5983,116.2197],[25.9691,69.6073,131.4489],[25.9819,69.6069,127.3213],[25.9832,69.6114,123.84],[25.9704,69.6118,164.3277],[25.9716,69.6163,115.6732],[25.9588,69.6167,168.8087],[25.965,69.6391,126.2471],[25.9522,69.6395,141.6803],[25.9547,69.6485,123.1001],[25.9419,69.6489,117.4857],[25.9431,69.6534,125.0457],[25.9175,69.6542,117.246],[25.9187,69.6587,145.5722],[25.8931,69.6596,115.3912],[25.8968,69.673,170.024],[25.9096,69.6726,116.4947],[25.9108,69.6771,112.9074],[25.9237,69.6767,113.0052],[25.9249,69.6812,112.2739],[25.9377,69.6807,116.669],[25.9402,69.6897,113.8599],[25.9531,69.6893,139.8748],[25.9568,69.7028,113.7986],[25.9696,69.7023,128.5379],[25.9709,69.7068,111.638],[25.9837,69.7064,168.5457],[25.9862,69.7154,112.4467],[25.9991,69.715,139.1752],[26.0016,69.724,155.0075],[26.0145,69.7235,111.4751],[26.0132,69.719,111.4002],[26.026,69.7186,132.044],[26.0273,69.7231,113.0138],[26.0659,69.7218,111.0063],[26.0672,69.7263,110.9411],[26.08,69.7259,113.9905],[26.0813,69.7304,111.9187],[26.1199,69.7291,152.3182],[26.1224,69.7381,111.1868],[26.1353,69.7377,110.5717],[26.1366,69.7421,116.7177],[26.1494,69.7417,148.0069],[26.1533,69.7552,109.8729],[26.1662,69.7547,127.6222],[26.1675,69.7592,114.1563],[26.1804,69.7588,108.9687],[26.1855,69.7767,157.4318],[26.1984,69.7763,108.7575],[26.1997,69.7808,171.4581],[26.2126,69.7804,108.0109],[26.2139,69.7848,136.0514],[26.2268,69.7844,111.784],[26.2294,69.7934,107.165],[26.2423,69.7929,118.5702],[26.2476,69.8109,114.2085],[26.0927,69.816,527.2669],[26.0952,69.825,467.008],[26.0823,69.8254,454.2527],[26.0849,69.8344,514.283],[26.072,69.8348,496.5294],[26.0745,69.8438,520.8184],[26.0616,69.8442,504.486],[26.0603,69.8397,478.1362],[26.0215,69.841,468.6152],[26.0203,69.8365,459.7599],[26.0073,69.8369,469.8607],[26.0086,69.8414,487.8635],[25.9569,69.8431,595.9697],[25.9556,69.8386,538.7418],[25.9168,69.8399,451.972],[25.9181,69.8443,486.3955],[25.9051,69.8447,439.1745],[25.9076,69.8537,455.5501],[25.8947,69.8541,465.5334],[25.8959,69.8586,539.8912],[25.8183,69.8611,708.382],[25.8171,69.8566,666.3931],[25.778199999999998,69.8578,596.4066],[25.7807,69.8668,575.5611],[25.7936,69.8664,589.5756],[25.7961,69.8754,560.1481],[25.809,69.8749,606.53],[25.8127,69.8884,589.2375],[25.7868,69.8892,608.8143],[25.788,69.8937,633.5148],[25.7621,69.8945,645.0798],[25.7633,69.899,715.3712],[25.7373,69.8998,644.3957],[25.7349,69.8908,574.8009],[25.722,69.8912,546.673],[25.7183,69.8778,528.0293],[25.7054,69.8782,568.7189],[25.703,69.8692,464.0926],[25.69,69.8696,484.5333],[25.6876,69.8606,474.2522],[25.6747,69.861,465.4186],[25.6723,69.852,408.15],[25.6593,69.8524,407.7562],[25.657,69.8434,430.8799],[25.644,69.8438,392.3344],[25.6404,69.8304,438.1307],[25.6275,69.8308,408.4993],[25.6252,69.8218,456.9993],[25.6122,69.8222,408.9755],[25.6099,69.8132,370.3406],[25.5969,69.8136,362.0044],[25.5946,69.8046,370.6936],[25.5817,69.805,353.2423],[25.5793,69.796,361.5049],[25.5664,69.7964,371.9239],[25.5629,69.7829,376.6943],[25.55,69.7833,404.3727],[25.5477,69.7743,333.399],[25.5348,69.7747,355.8908],[25.5325,69.7658,347.3158],[25.5196,69.7661,367.5376],[25.5173,69.7572,371.7863],[25.5044,69.7575,382.0133],[25.5032,69.7531,402.1236],[25.4903,69.7534,399.8795],[25.4892,69.7489,388.0114],[25.4505,69.7501,344.3374],[25.4494,69.7456,336.6257],[25.4107,69.7467,334.1635],[25.4096,69.7422,317.9952],[25.371,69.7434,232.3755],[25.3698,69.7389,250.1497],[25.3312,69.74,318.2848],[25.3301,69.7355,332.4379],[25.2914,69.7366,302.2511],[25.2903,69.7321,299.7949],[25.2517,69.7332,337.1528],[25.2506,69.7287,328.0997],[25.2249,69.7295,284.9931],[25.226,69.734,280.2526],[25.1229,69.7369,306.0514],[25.124,69.7413,303.0515],[25.0338,69.7438,258.9486],[25.0348,69.7483,245.5928],[24.9962,69.7494,329.9225],[24.9972,69.7539,305.0284],[24.9585,69.7549,345.2596],[24.9596,69.7594,354.9872],[24.9209,69.7604,357.5319],[24.9219,69.7649,347.9781],[24.8961,69.7656,355.4889],[24.8971,69.7701,332.1122],[24.8584,69.7711,310.4633],[24.8595,69.7756,287.0306],[24.8207,69.7766,384.9474],[24.8217,69.7811,398.8344],[24.7959,69.7818,405.8452],[24.7969,69.7863,391.0736],[24.7582,69.7873,422.3099],[24.7592,69.7918,372.2841],[24.7204,69.7928,431.1795],[24.7214,69.7973,404.1122],[24.6956,69.7979,414.0725],[24.6965,69.8024,438.0316],[24.6578,69.8034,466.9776],[24.6587,69.8079,480.3347],[24.6199,69.8089,574.8273],[24.6209,69.8134,603.439],[24.595,69.814,769.2773],[24.596,69.8185,861.0386],[24.5572,69.8195,831.6754],[24.5562,69.815,915.484],[24.465699999999998,69.8172,532.8322],[24.4647,69.8127,520.6822],[24.3871,69.8145,460.2077],[24.3862,69.81,461.7019],[24.2956,69.8121,412.6629],[24.2947,69.8076,417.074],[24.2171,69.8094,367.624],[24.2091,69.769,404.7843],[24.1962,69.7692,413.0713],[24.1778,69.6748,389.8435],[24.1906,69.6745,389.3558],[24.1898,69.67,389.641],[24.2026,69.6697,389.356],[24.2009,69.6607,389.5576],[24.2137,69.6604,389.5435],[24.2128,69.6559,389.5509],[24.2257,69.6556,389.3448],[24.2248,69.6511,389.6258],[24.2376,69.6509,389.4753],[24.2368,69.6464,389.4397],[24.2496,69.6461,389.5594],[24.2487,69.6416,389.4403],[24.2616,69.6413,390.2183],[24.2598,69.6323,389.6269],[24.2726,69.632,389.5619],[24.2699,69.6185,391.621],[24.2828,69.6182,403.2155],[24.2801,69.6047,390.8292],[24.2929,69.6044,384.5721],[24.292,69.5999,384.6799],[24.3433,69.5987,382.3844],[24.3396,69.5807,400.6419],[24.3524,69.5804,392.0399],[24.3506,69.5714,385.1192],[24.3762,69.5708,381.7787],[24.3753,69.5663,381.695],[24.4137,69.5654,376.2052],[24.4109,69.5519,383.4715],[24.3982,69.5522,367.7565],[24.3963,69.5432,369.3675],[24.3836,69.5435,386.6147],[24.3817,69.5345,386.8051],[24.369,69.5349,377.9641],[24.3644,69.5124,356.2333],[24.3517,69.5127,402.0366],[24.349,69.4992,347.0939],[24.3362,69.4995,365.5788],[24.3344,69.4905,356.1628],[24.3217,69.4908,361.433],[24.3199,69.4818,338.8048],[24.3072,69.4821,360.3361],[24.3045,69.4686,336.6849],[24.2917,69.4689,362.6757],[24.2891,69.4554,331.3812],[24.2764,69.4557,346.6178],[24.2755,69.4512,345.8495],[24.2882,69.4509,336.1968],[24.2856,69.4375,337.1208],[24.2983,69.4372,320.196],[24.2956,69.4237,317.6525],[24.2829,69.424,332.1743],[24.2811,69.415,306.9414],[24.2684,69.4153,339.0384],[24.2649,69.3973,305.5179],[24.2522,69.3976,305.9352],[24.2513,69.3931,309.6124],[24.2133,69.394,349.5382],[24.2098,69.376,320.6766],[24.1971,69.3763,321.9597],[24.1954,69.3673,342.0628],[24.2208,69.3667,347.5369],[24.2199,69.3622,354.6264],[24.2579,69.3613,388.5352],[24.257,69.3568,398.0508],[24.2697,69.3565,381.0492],[24.2688,69.352,384.2738],[24.2815,69.3517,405.3186],[24.2806,69.3472,416.8109],[24.2933,69.3469,389.9079],[24.2915,69.338,378.4165],[24.3042,69.3377,374.9416],[24.3006,69.3197,418.7813],[24.3133,69.3194,394.4947],[24.3098,69.3014,402.6969],[24.3224,69.3011,400.8559],[24.3197,69.2876,385.8005],[24.3324,69.2873,386.8907],[24.3297,69.2738,388.862],[24.3423,69.2735,390.1039],[24.3397,69.26,410.7976],[24.3523,69.2597,400.7448],[24.3496,69.2462,451.6359],[24.3622,69.2459,445.5767],[24.3596,69.2325,466.4719],[24.3721,69.2322,463.0391],[24.3713,69.2277,441.1248],[24.3839,69.2274,415.6448],[24.383,69.2229,437.7056],[24.3955,69.2226,424.7428],[24.3947,69.2181,436.9915],[24.4072,69.2178,433.4114],[24.4063,69.2133,432.8773],[24.4315,69.2126,424.2305],[24.4306,69.2081,421.1792],[24.4432,69.2078,436.1294],[24.4423,69.2033,411.3193],[24.4549,69.203,388.7945],[24.454,69.1985,365.2571],[24.4665,69.1982,355.027],[24.4656,69.1937,348.2359],[24.4908,69.1931,350.1453],[24.4899,69.1886,334.9711],[24.5024,69.1883,335.1557],[24.5015,69.1838,331.8068],[24.5141,69.1835,357.029],[24.5132,69.179,360.7305],[24.5257,69.1787,377.7586],[24.5248,69.1742,355.413],[24.5499,69.1736,333.9712],[24.549,69.1691,328.6787],[24.5616,69.1688,323.9994],[24.5606,69.1643,322.8655],[24.5732,69.1639,337.0544],[24.5723,69.1594,298.309],[24.5974,69.1588,286.9096],[24.5964,69.1543,314.645],[24.609,69.154,319.8503],[24.608,69.1495,309.8904],[24.6206,69.1492,301.3488],[24.6197,69.1447,298.8113],[24.6322,69.1444,330.2464],[24.6313,69.1399,361.3129],[24.6563,69.1392,437.268],[24.6535,69.1257,364.6633],[24.666,69.1254,360.4016],[24.6623,69.1075,343.4137],[24.6748,69.1071,320.7489],[24.6719,69.0937,316.8246],[24.6845,69.0933,330.3423],[24.6816,69.0798,328.3818],[24.6941,69.0795,322.134],[24.6903,69.0616,346.3472],[24.7028,69.0612,336.4316],[24.7,69.0477,343.8755],[24.7124,69.0474,305.0312],[24.7086,69.0294,317.063],[24.7211,69.0291,317.1403],[24.7192,69.0201,378.7339],[24.7442,69.0195,359.0359],[24.7432,69.015,387.4878],[24.7557,69.0147,378.8064],[24.7547,69.0102,393.8493],[24.7796,69.0095,411.5602],[24.7787,69.005,414.4825],[24.8036,69.0043,441.7564],[24.8026,68.9999,422.2504],[24.8151,68.9995,420.0601],[24.8141,68.995,412.7161],[24.839,68.9944,400.1206],[24.8381,68.9899,401.9857],[24.863,68.9892,393.5749],[24.862,68.9847,397.5308],[24.8744,68.9844,392.0949],[24.8735,68.9799,389.8344],[24.8984,68.9792,375.508],[24.8974,68.9747,385.5924],[24.9098,68.9744,384.338],[24.9088,68.9699,392.4272],[24.9337,68.9692,353.1586],[24.9327,68.9647,353.6917],[24.9576,68.964,338.0414],[24.9566,68.9595,334.2556],[24.969,68.9592,333.7497],[24.968,68.9547,331.4174],[24.9929,68.954,319.5208],[24.9919,68.9495,315.1122],[25.0168,68.9488,297.756],[25.0158,68.9443,308.175],[25.028199999999998,68.944,321.2583],[25.0272,68.9395,313.9113],[25.0396,68.9391,325.0425],[25.0325,68.9077,372.4024],[25.0449,68.9073,357.0013],[25.0439,68.9028,342.3181],[25.0563,68.9025,373.1858],[25.0553,68.898,350.982],[25.0801,68.8973,353.0559],[25.0791,68.8928,326.4452],[25.1163,68.8917,303.8183],[25.1173,68.8962,324.0545],[25.1421,68.8955,317.9217],[25.1411,68.891,289.4744],[25.1782,68.89,307.658],[25.1772,68.8855,272.5323],[25.2268,68.884,247.5031],[25.2278,68.8885,274.5312],[25.3145,68.8859,229.8623],[25.3156,68.8904,261.7093],[25.3776,68.8886,236.6669],[25.3765,68.8841,228.3589],[25.4013,68.8833,232.7767],[25.4034,68.8923,225.7076],[25.4282,68.8916,222.902],[25.4293,68.896,222.7803],[25.4541,68.8953,242.5143],[25.4552,68.8998,215.4478],[25.4676,68.8994,242.3469],[25.4687,68.9039,222.0478],[25.4935,68.9031,209.1664],[25.4924,68.8986,216.9883],[25.5171,68.8979,223.0579],[25.516,68.8934,210.9041],[25.5284,68.893,210.4679],[25.5273,68.8885,209.1135],[25.5769,68.887,209.7184],[25.5758,68.8825,205.7517],[25.6005,68.8817,216.0861],[25.6028,68.8907,207.9731],[25.6275,68.8899,201.8505],[25.6309,68.9034,207.0822],[25.6433,68.903,192.8075],[25.6444,68.9074,207.1132],[25.6568,68.9071,195.1259],[25.6614,68.925,197.1217],[25.6738,68.9246,226.4614],[25.6772,68.9381,197.0167],[25.6896,68.9377,223.7609],[25.6942,68.9556,201.231],[25.7066,68.9552,205.1954],[25.7147,68.9866,196.3374],[25.7271,68.9862,199.8044],[25.7294,68.9952,194.1308],[25.7419,68.9948,197.2626],[25.743,68.9993,188.4403],[25.7554,68.9989,203.3115],[25.7566,69.0034,178.0923],[25.7691,69.003,197.6033],[25.776,69.0299,192.4039],[25.7511,69.0307,177.232],[25.7534,69.0396,180.8872],[25.741,69.04,212.3135],[25.7421,69.0445,189.6293],[25.7546,69.0441,190.3125],[25.7581,69.0576,195.3513],[25.7456,69.058,196.8877],[25.7479,69.067,192.8281],[25.7355,69.0674,172.0246],[25.7378,69.0763,193.1016],[25.7253,69.0767,173.5493],[25.7334,69.1081,196.343],[25.7209,69.1085,164.7894],[25.7232,69.1175,178.2347],[25.7244,69.122,184.2329],[25.7369,69.1216,181.2594],[25.7427,69.144,159.3099]]]]}
,"properties": {"GID_2": "NOR.5.7_1","GID_0": "NOR","country": "Norway","GID_1": "NOR.5_1","province": "Finnmark","NL_NAME_1": "NA","county": "Karasjok","VARNAME_2": "NA","NL_NAME_2": "NA","TYPE_2": "Kommuner","ENGTYPE_2": "Municipality","CC_2": "NA","HASC_2": "NO.FI.KS","name": "Karasjok.county","area_km2": 5428.651,"hist_schema_id": "Elevation0-9000","hist_area_km2": {"100": 5.178,"125": 49.111,"150": 49.044,"175": 68.498,"200": 97.642,"225": 168.66,"250": 292.466,"275": 514.109,"300": 663.552,"325": 736.215,"350": 679.636,"375": 572.521,"400": 534.626,"425": 369.872,"450": 265.619,"475": 157.065,"500": 90.508,"525": 45.252,"550": 29.614,"575": 18.891,"600": 9.835,"625": 4.441,"650": 2.134,"675": 1.543,"700": 0.717,"725": 0.468,"750": 0.256,"775": 0.146,"800": 0.168,"825": 0.124,"850": 0.117,"875": 0.088,"900": 0.146,"925": 0.139,"950": 0.132,"975": 0.066,"1000": 0.051}}}