{"type": "Feature","bbox": [8.2151,62.7243,9.3293,63.1354],"geometry": {"type": "MultiPolygon","coordinates": [[[[8.2257,63.0412,0.0],[8.2214,63.0391,0.0],[8.2203,63.0359,0.0],[8.2151,63.0349,0.0],[8.2182,63.0328,36.2526],[8.2193,63.0297,0.0],[8.2234,63.0276,0.0],[8.2417,63.0229,0.0],[8.25,63.0229,0.0],[8.2708,63.0146,0.0],[8.2896,63.0125,32.422],[8.3021,63.0083,0.0],[8.3167,63.0083,0.0],[8.3313,63.0146,0.0],[8.3354,63.0125,0.0],[8.338,63.0161,0.0],[8.35,63.0208,5.4352],[8.3542,63.0187,0.0],[8.3646,63.0187,0.0],[8.3687,63.0208,25.8095],[8.3786,63.0161,0.0],[8.3813,63.0125,0.0],[8.3854,63.0125,0.0],[8.3896,63.0146,9.2822],[8.4333,63.0146,0.0],[8.4375,63.0167,39.4651],[8.4563,63.0167,0.0],[8.4708,63.0208,0.0],[8.4911,63.0203,0.0],[8.4875,63.0167,0.0],[8.4833,63.0167,0.0],[8.4792,63.0146,0.0],[8.4687,63.0146,0.0],[8.4583,63.0104,12.1708],[8.4479,63.0104,0.0],[8.4438,63.0083,20.566],[8.4063,63.0083,33.9574],[8.4021,63.0104,0.0],[8.3979,63.0083,36.3848],[8.3938,63.0083,47.628],[8.3896,63.0104,0.0],[8.3667,63.0104,0.0],[8.3625,63.0083,8.5619],[8.3417,63.0083,0.0],[8.3396,63.0062,0.0],[8.3432,63.0026,104.3778],[8.3339,63.0016,0.0],[8.3234,62.9953,61.2587],[8.3234,62.9922,0.0],[8.3276,62.9901,0.0],[8.3375,62.9896,64.4308],[8.3516,62.9828,53.593],[8.3505,62.9797,0.0],[8.3661,62.9724,131.9874],[8.3687,62.9688,10.0217],[8.3833,62.9688,0.0],[8.3875,62.9708,41.3444],[8.3917,62.9688,0.0],[8.4063,62.975,19.3845],[8.4167,62.975,0.0],[8.4234,62.9786,0.0],[8.437,62.9818,0.0],[8.45,62.9875,0.0],[8.4604,62.9875,0.0],[8.4703,62.9849,0.0],[8.4708,62.9813,0.0],[8.4667,62.9708,22.9754],[8.4687,62.9688,0.0],[8.4833,62.9729,62.5008],[8.4901,62.9693,0.0],[8.5,62.9667,0.0],[8.5042,62.9688,10.136],[8.5104,62.9688,17.3032],[8.5146,62.9667,0.0],[8.5172,62.9703,0.0],[8.525,62.9729,0.0],[8.5313,62.9729,0.0],[8.5458,62.9792,0.0],[8.5542,62.9792,0.0],[8.575,62.9875,29.4088],[8.5792,62.9854,0.0],[8.5937,62.9896,50.9878],[8.6125,62.9896,0.0],[8.625,62.9854,0.0],[8.6313,62.9854,0.0],[8.6354,62.9896,0.0],[8.6516,62.9891,0.0],[8.6464,62.987,0.0],[8.6458,62.9854,0.0],[8.6495,62.9818,0.0],[8.6443,62.9807,0.0],[8.6438,62.9792,0.0],[8.6516,62.9734,0.0],[8.6438,62.9708,0.0],[8.6104,62.9688,0.0],[8.6021,62.9646,38.7452],[8.5958,62.9646,22.0414],[8.5917,62.9667,0.0],[8.5875,62.9646,9.6215],[8.5833,62.9667,0.0],[8.5729,62.9625,22.0909],[8.5625,62.9625,0.0],[8.5542,62.9583,102.5323],[8.5437,62.9583,28.2068],[8.5396,62.9562,115.0078],[8.5063,62.9562,0.0],[8.5021,62.9583,0.0],[8.4896,62.9583,0.0],[8.4854,62.9604,0.0],[8.4792,62.9604,0.0],[8.4734,62.9578,31.482],[8.4724,62.9547,180.52],[8.4604,62.9542,0.0],[8.4526,62.9516,149.5952],[8.45,62.9479,333.6979],[8.4375,62.9521,0.0],[8.4312,62.9521,0.0],[8.4255,62.9495,159.5191],[8.4229,62.9458,0.0],[8.4234,62.9422,0.0],[8.4266,62.9411,0.0],[8.4255,62.938,0.0],[8.4286,62.937,0.0],[8.4297,62.9339,0.0],[8.4354,62.9313,0.0],[8.4411,62.9307,8.8922],[8.4578,62.9224,0.0],[8.4563,62.9167,0.0],[8.4599,62.9141,24.9338],[8.4589,62.9089,0.0],[8.4661,62.9078,30.5291],[8.4672,62.9047,0.0],[8.4745,62.9036,0.0],[8.4812,62.9,0.0],[8.4896,62.9,0.0],[8.4937,62.8979,0.0],[8.5063,62.8958,20.598],[8.5089,62.8922,0.0],[8.5161,62.8911,19.3878],[8.5188,62.8875,0.0],[8.5375,62.8875,0.0],[8.5432,62.8849,0.0],[8.538,62.8818,99.0952],[8.5437,62.8792,0.0],[8.5542,62.8812,0.0],[8.5583,62.8792,0.0],[8.5708,62.8833,21.0935],[8.5813,62.8833,0.0],[8.5854,62.8854,0.0],[8.6042,62.8833,12.1512],[8.6141,62.8786,0.0],[8.613,62.8734,0.0],[8.6286,62.8661,0.0],[8.6313,62.8604,50.133],[8.6255,62.8557,0.0],[8.6234,62.8484,0.0],[8.6328,62.8474,0.0],[8.6318,62.8443,0.0],[8.6349,62.8422,94.172],[8.6318,62.8401,0.0],[8.6563,62.8396,89.8475],[8.6625,62.8354,0.0],[8.6771,62.8354,41.715],[8.6896,62.8312,0.0],[8.6995,62.8307,151.6641],[8.6995,62.8255,5.3876],[8.6958,62.8208,0.0],[8.6917,62.8208,0.0],[8.6849,62.8245,0.0],[8.675,62.8271,0.0],[8.6646,62.8271,12.688],[8.6604,62.8292,0.0],[8.6563,62.8292,19.5551],[8.6542,62.8271,78.2489],[8.6547,62.8255,124.2469],[8.662,62.8245,129.1669],[8.6604,62.8229,271.2994],[8.6542,62.8229,342.571],[8.6479,62.8271,86.7168],[8.6375,62.8271,158.611],[8.6307,62.8307,259.2033],[8.6234,62.8318,356.3929],[8.6245,62.837,28.2867],[8.613,62.8422,28.1034],[8.6141,62.8474,0.0],[8.6068,62.8484,0.0],[8.6026,62.8505,0.0],[8.6016,62.8536,0.0],[8.5943,62.8547,0.0],[8.5953,62.8599,0.0],[8.5922,62.8609,0.0],[8.5911,62.8661,0.0],[8.5813,62.8667,43.7951],[8.579,62.8655,91.4195],[8.5931,62.8549,16.0842],[8.5907,62.8547,42.81],[8.5924,62.8503,129.2466],[8.5827,62.8495,249.8272],[8.5845,62.8451,383.3251],[8.5748,62.8443,532.372],[8.5765,62.8399,723.2788],[8.5668,62.8391,870.1362],[8.5702,62.8303,988.2614],[8.5606,62.8295,1005.0033],[8.564,62.8207,873.541],[8.5737,62.8215,903.5222],[8.5772,62.8126,754.4367],[8.5868,62.8134,820.8629],[8.5886,62.809,857.501],[8.5982,62.8098,1005.9601],[8.6034,62.7965,1010.9959],[8.5937,62.7957,826.9532],[8.5989,62.7825,781.8362],[8.6086,62.7832,1033.6801],[8.6103,62.7788,991.5789],[8.62,62.7796,1181.764],[8.6217,62.7752,1300.2219],[8.6314,62.776,1108.9565],[8.6331,62.7715,1245.2291],[8.6428,62.7723,1243.3],[8.6445,62.7679,1315.4546],[8.6638,62.7694,837.1289],[8.6655,62.765,966.034],[8.6752,62.7658,881.8503],[8.6769,62.7614,848.7501],[8.6963,62.7629,781.4695],[8.698,62.7585,756.7249],[8.7173,62.76,840.368],[8.719,62.7556,746.3582],[8.7287,62.7564,685.3948],[8.7304,62.752,726.8864],[8.74,62.7527,888.0563],[8.7417,62.7483,1014.0229],[8.7611,62.7498,1479.73],[8.7628,62.7454,1472.1074],[8.7725,62.7462,1161.5055],[8.7741,62.7418,1271.0295],[8.7935,62.7433,1270.0892],[8.7952,62.7389,1217.1864],[8.8242,62.7411,1159.6534],[8.8259,62.7367,1277.0924],[8.8452,62.7382,1476.9728],[8.8469,62.7338,1386.0046],[8.8662,62.7353,1150.4736],[8.8679,62.7309,1154.6318],[8.8776,62.7317,1251.1539],[8.8792,62.7273,1405.9965],[8.8986,62.7288,939.8407],[8.9002,62.7243,1187.3928],[8.9389,62.7274,760.0652],[8.9373,62.7318,796.6245],[8.9566,62.7333,884.6785],[8.9549,62.7377,997.9489],[8.9839,62.74,1337.5417],[8.9823,62.7444,1437.1323],[9.0404,62.7489,1098.0029],[9.0387,62.7533,922.7263],[9.0871,62.757,856.3578],[9.0855,62.7615,867.121],[9.1436,62.7659,797.5535],[9.1419,62.7703,792.0663],[9.2001,62.7748,1256.802],[9.1984,62.7792,1218.4299],[9.2566,62.7836,1122.7589],[9.255,62.788,1192.583],[9.3035,62.7917,914.5925],[9.3018,62.7961,859.9412],[9.3212,62.7976,1232.958],[9.3196,62.802,1165.6483],[9.3293,62.8027,1169.7495],[9.318,62.8337,773.8673],[9.3277,62.8344,711.9675],[9.318,62.861,1280.5336],[9.3278,62.8617,1541.2717],[9.3262,62.8662,1498.2972],[9.3164,62.8654,1242.0336],[9.3148,62.8699,1128.0986],[9.3051,62.8691,1026.6241],[9.3035,62.8736,938.441],[9.2937,62.8728,930.6301],[9.2872,62.8905,804.5707],[9.297,62.8913,800.4987],[9.2954,62.8957,829.7706],[9.3051,62.8964,885.0934],[9.3018,62.9053,936.9564],[9.2921,62.9045,841.9133],[9.284,62.9267,1016.3068],[9.2742,62.926,945.0628],[9.2726,62.9304,854.0],[9.2434,62.9282,922.3541],[9.2418,62.9326,924.6993],[9.1833,62.9282,837.0542],[9.1817,62.9326,758.3432],[9.1719,62.9319,791.5236],[9.1703,62.9363,765.0741],[9.1605,62.9356,839.131],[9.1589,62.94,733.0792],[9.1491,62.9393,683.2602],[9.1425,62.957,661.69],[9.1523,62.9577,787.6779],[9.1473,62.971,816.509],[9.1571,62.9717,892.0802],[9.1522,62.985,484.3352],[9.1619,62.9858,652.5109],[9.1487,63.0212,362.1133],[9.1389,63.0204,365.3279],[9.1373,63.0248,459.8737],[9.1275,63.0241,443.4492],[9.1258,63.0285,354.5133],[9.0965,63.0263,48.9797],[9.0949,63.0307,139.5279],[9.1046,63.0315,49.7905],[9.103,63.0359,83.1709],[9.1128,63.0366,60.3539],[9.1111,63.0411,112.6726],[9.1013,63.0403,239.8962],[9.0847,63.0846,571.9288],[9.0749,63.0838,566.1866],[9.0732,63.0883,546.3985],[9.034,63.0853,488.5955],[9.0357,63.0809,528.5035],[9.0162,63.0794,477.3955],[9.0178,63.0749,474.8441],[8.9787,63.0719,463.5207],[8.977,63.0764,492.3459],[8.9672,63.0756,475.6833],[8.9605,63.0933,422.7007],[8.9703,63.0941,432.9684],[8.9686,63.0985,430.5678],[8.9784,63.0992,446.2692],[8.9767,63.1037,392.151],[8.9865,63.1044,466.1639],[8.9747,63.1354,526.2994],[8.9649,63.1346,556.3974],[8.9666,63.1302,524.36],[8.947,63.1287,474.2525],[8.9487,63.1243,454.3689],[8.9291,63.1228,544.6198],[8.9308,63.1183,528.2016],[8.9112,63.1168,645.2246],[8.9095,63.1212,619.7658],[8.8899,63.1197,404.1452],[8.8882,63.1242,418.8434],[8.8784,63.1234,393.5771],[8.8801,63.119,429.5002],[8.8507,63.1167,693.9153],[8.8473,63.1255,552.7853],[8.8277,63.124,821.3692],[8.826,63.1284,738.4839],[8.7966,63.1262,777.7249],[8.7983,63.1217,801.5853],[8.7885,63.121,753.8169],[8.7902,63.1166,744.6696],[8.7804,63.1158,759.8774],[8.7821,63.1114,748.4216],[8.7723,63.1106,816.7429],[8.7741,63.1062,816.9266],[8.7643,63.1054,749.7825],[8.766,63.101,771.9108],[8.7268,63.0979,540.3886],[8.7286,63.0935,615.9417],[8.709,63.092,449.528],[8.7107,63.0875,517.273],[8.7009,63.0868,523.0672],[8.7027,63.0824,430.5],[8.6929,63.0816,486.1351],[8.6946,63.0772,449.9319],[8.6751,63.0756,261.0216],[8.6768,63.0712,323.487],[8.6182,63.0666,549.1991],[8.6164,63.071,620.598],[8.5969,63.0694,498.8375],[8.5986,63.065,524.4761],[8.5693,63.0627,628.2305],[8.571,63.0583,531.0926],[8.532,63.0551,545.9954],[8.5337,63.0507,454.1343],[8.4947,63.0476,824.6799],[8.4912,63.056399999999996,483.6032],[8.4814,63.0556,387.2946],[8.4779,63.0645,293.6306],[8.4681,63.0637,325.9221],[8.4646,63.0725,658.6426],[8.4353,63.0702,538.3442],[8.4423,63.0525,266.7842],[8.4228,63.0509,249.0752],[8.4246,63.0465,420.6868],[8.4051,63.0449,435.7178],[8.3997,63.0582,527.0982],[8.3802,63.0566,572.8624],[8.382,63.0522,609.0562],[8.3625,63.0506,495.7579],[8.3642,63.0462,486.611],[8.3447,63.0446,259.4265],[8.3465,63.0402,333.969],[8.3172,63.0378,426.077],[8.3155,63.0422,525.5203],[8.2862,63.0398,502.6865],[8.288,63.0354,741.1831],[8.2685,63.0338,512.4525],[8.2703,63.0294,696.5521],[8.2558,63.0282,465.3803],[8.2455,63.0317,204.5379],[8.2308,63.0335,294.5871],[8.2257,63.0412,0.0]]]]}
,"properties": {"GID_2": "NOR.8.31_1","GID_0": "NOR","country": "Norway","GID_1": "NOR.8_1","province": "MøreogRomsdal","NL_NAME_1": "NA","county": "Surnadal","VARNAME_2": "NA","NL_NAME_2": "NA","TYPE_2": "Kommuner","ENGTYPE_2": "Municipality","CC_2": "NA","HASC_2": "NO.MR.SR","name": "Surnadal.county","area_km2": 1364.855,"hist_schema_id": "Elevation0-9000","hist_area_km2": {"0": 33.118,"25": 23.442,"50": 22.906,"75": 17.618,"100": 19.235,"125": 19.168,"150": 19.965,"175": 19.345,"200": 21.537,"225": 24.002,"250": 24.038,"275": 27.582,"300": 32.028,"325": 37.114,"350": 48.254,"375": 42.687,"400": 43.116,"425": 47.757,"450": 42.232,"475": 55.593,"500": 45.159,"525": 38.178,"550": 34.572,"575": 36.099,"600": 32.255,"625": 30.636,"650": 28.03,"675": 28.075,"700": 26.465,"725": 30.441,"750": 30.779,"775": 30.842,"800": 29.135,"825": 27.726,"850": 26.36,"875": 26.296,"900": 26.609,"925": 26.739,"950": 23.249,"975": 19.95,"1000": 17.223,"1025": 15.773,"1050": 14.913,"1075": 14.404,"1100": 12.194,"1125": 10.684,"1150": 9.776,"1175": 8.563,"1200": 7.74,"1225": 7.042,"1250": 5.629,"1275": 5.096,"1300": 4.244,"1325": 3.13,"1350": 2.529,"1375": 1.715,"1400": 1.551,"1425": 1.473,"1450": 1.076,"1475": 0.824,"1500": 0.339,"1525": 0.232,"1550": 0.145,"1575": 0.077,"1600": 0.097,"1625": 0.029,"1650": 0.029}}}