{"type":"Feature","properties":{"GID_2":"NOR.17.16_1","GID_0":"NOR","country":"Norway","GID_1":"NOR.17_1","province":"Troms","NL_NAME_1":"NA","county":"Målselv","VARNAME_2":"NA","NL_NAME_2":"NA","TYPE_2":"Kommuner","ENGTYPE_2":"Municipality","CC_2":"NA","HASC_2":"NO.TR.MA","name":"Målselv.county"},
"geometry":{"type": "MultiPolygon","coordinates": [[[[18.7157,69.2688,0.0],[18.7109,69.2641,0.0],[18.7141,69.2609,29.483],[18.7099,69.2547,0.0],[18.7,69.2542,0.0],[18.6984,69.2547,0.0],[18.6995,69.2578,0.0],[18.6922,69.2609,0.0],[18.6979,69.2688,0.0],[18.6943,69.2714,23.81],[18.6953,69.2745,0.0],[18.6859,69.2755,17.25],[18.6812,69.2792,6.9992],[18.6729,69.2792,26.6242],[18.6688,69.2771,166.3089],[18.6542,69.2771,389.9932],[18.6526,69.2776,389.9932],[18.6536,69.2807,216.2051],[18.6521,69.2813,184.4935],[18.6417,69.2813,498.5171],[18.6349,69.2849,456.0211],[18.6271,69.2854,564.5451],[18.6187,69.2896,379.932],[18.6005,69.2922,411.4633],[18.6026,69.2953,298.4539],[18.6083,69.2958,178.8344],[18.6099,69.2974,66.8554],[18.6005,69.2984,284.2508],[18.6016,69.3016,105.0999],[18.5943,69.3047,131.9077],[18.5953,69.3078,19.9661],[18.5786,69.3161,0.0],[18.5708,69.3167,25.7316],[18.5651,69.3193,19.338],[18.5672,69.3224,8.1225],[18.5745,69.3234,0.0],[18.5776,69.3266,0.0],[18.5828,69.3276,0.0],[18.5911,69.337,0.0],[18.588,69.338,0.0],[18.5891,69.3432,0.0],[18.5818,69.3443,13.4834],[18.5828,69.3474,0.0],[18.5797,69.3484,13.4483],[18.5786,69.3516,0.0],[18.5714,69.3526,8.6324],[18.5703,69.3557,0.0],[18.5646,69.3583,0.0],[18.5401,69.3516,0.0],[18.5339,69.3453,0.0],[18.537,69.3432,0.0],[18.5359,69.3401,0.0],[18.5391,69.338,0.0],[18.5307,69.3339,0.0],[18.5234,69.3328,0.0],[18.5432,69.3224,0.0],[18.5359,69.3193,0.0],[18.5391,69.3182,0.0],[18.538,69.3151,0.0],[18.5411,69.3141,0.0],[18.538,69.3089,0.0],[18.5453,69.3047,6.7301],[18.5432,69.3026,0.0],[18.538,69.3016,0.0],[18.5359,69.2984,0.0],[18.5432,69.2943,0.0],[18.5276,69.2766,0.0],[18.5307,69.2734,0.0],[18.5234,69.2724,0.0],[18.5266,69.2693,0.7667],[18.513,69.2662,0.6332],[18.5161,69.263,0.0],[18.513,69.2589,0.0],[18.5161,69.2568,0.0],[18.5141,69.2526,4.338],[18.5068,69.2516,0.0],[18.5099,69.2484,2.9227],[18.5057,69.2443,0.0],[18.5005,69.2443,0.0],[18.5036,69.2495,0.0],[18.4964,69.2536,0.0],[18.5036,69.2609,0.0],[18.5,69.2646,6.5905],[18.5078,69.2745,0.0],[18.4964,69.2797,0.0],[18.4974,69.2828,0.0],[18.4943,69.2839,0.0],[18.4953,69.287,0.0],[18.4922,69.288,0.0],[18.4943,69.2932,0.0],[18.4995,69.2995,0.0],[18.4964,69.3014,0.0],[18.4547,69.3009,1093.9069],[18.4544,69.3054,980.1622],[18.4417,69.3053,915.0582],[18.442,69.3008,951.0959],[18.4294,69.3006,906.1353],[18.4297,69.2961,826.301],[18.417,69.296,699.3645],[18.4174,69.2915,662.9025],[18.3921,69.2913,240.2614],[18.3924,69.2868,343.2905],[18.3797,69.2867,271.9726],[18.3801,69.2822,280.4076],[18.3674,69.2821,257.1418],[18.3677,69.2776,257.8243],[18.3551,69.2774,262.4857],[18.3554,69.2729,263.563],[18.3301,69.2727,437.1893],[18.3305,69.2682,489.0043],[18.3178,69.2681,581.3454],[18.3182,69.2636,631.1237],[18.3055,69.2635,800.5836],[18.3059,69.259,862.86],[18.2806,69.2587,615.8197],[18.281,69.2542,621.5107],[18.2683,69.2541,511.2446],[18.2687,69.2496,535.1279],[18.2561,69.2495,403.6483],[18.2564,69.245,440.0157],[18.2438,69.2448,418.201],[18.2459,69.2178,23.1235],[18.3342,69.2187,139.0788],[18.3369,69.1826,330.6791],[18.3244,69.1825,258.2544],[18.3247,69.178,271.3352],[18.2869,69.1776,244.9174],[18.2866,69.1822,249.6717],[18.2362,69.1817,331.1152],[18.2358,69.1862,339.7126],[18.1981,69.1858,439.2577],[18.1984,69.1813,478.8754],[18.1858,69.1812,503.6295],[18.1866,69.1722,427.4091],[18.2117,69.1724,378.1091],[18.2121,69.1679,380.7],[18.2247,69.168,340.2312],[18.2251,69.1635,318.4605],[18.2376,69.1637,375.0584],[18.238,69.1591,453.2443],[18.2632,69.1594,443.7509],[18.2635,69.1549,465.1804],[18.2761,69.155,444.5416],[18.2764,69.1505,439.2477],[18.3016,69.1507,456.7824],[18.3019,69.1462,433.8578],[18.3145,69.1464,457.4914],[18.3148,69.1419,438.5219],[18.3274,69.142,478.8565],[18.3278,69.1375,460.5724],[18.3529,69.1377,395.2706],[18.3532,69.1332,398.6219],[18.4412,69.134,383.5648],[18.4418,69.125,445.1082],[18.4293,69.1249,437.5193],[18.4299,69.1158,362.5312],[18.4173,69.1157,321.9181],[18.418,69.1067,283.4218],[18.4054,69.1066,287.6596],[18.4058,69.1021,302.0481],[18.4183,69.1022,286.8529],[18.4196,69.0842,303.664],[18.4321,69.0843,303.6803],[18.4334,69.0663,157.9323],[18.4584,69.0665,163.3784],[18.4588,69.062,192.5326],[18.4713,69.0621,157.0528],[18.4716,69.0576,166.1151],[18.4591,69.0575,188.2973],[18.4594,69.053,248.3793],[18.3843,69.0523,365.7105],[18.3846,69.0478,433.0769],[18.3721,69.0477,419.1352],[18.3727,69.0387,304.5263],[18.4228,69.0392,359.313],[18.4231,69.0347,348.9654],[18.4606,69.035,340.8322],[18.4609,69.0305,331.3001],[18.486,69.0307,224.6678],[18.4863,69.0262,205.4195],[18.4988,69.0263,80.9312],[18.4991,69.0218,56.0],[18.5116,69.0219,76.7879],[18.5113,69.0264,56.0],[18.5238,69.0265,60.9203],[18.5223,69.049,75.1082],[18.5598,69.0493,66.5728],[18.5601,69.0448,56.0],[18.5852,69.045,116.9798],[18.5917,68.9414,785.0229],[18.5793,68.9413,994.6685],[18.5804,68.9233,996.2261],[18.5928,68.9234,1085.7554],[18.594,68.9054,1313.3834],[18.6064,68.9055,1239.9111],[18.607,68.8965,1206.8844],[18.6194,68.8966,1046.9839],[18.6197,68.8921,1212.116],[18.6445,68.8923,934.5128],[18.6443,68.8968,1231.4115],[18.6567,68.8969,836.3336],[18.6564,68.9014,1231.8552],[18.6813,68.9016,635.0078],[18.6816,68.8971,528.1],[18.694,68.8971,683.4391],[18.6943,68.8926,889.2362],[18.7067,68.8927,1103.4286],[18.7072,68.8837,987.3314],[18.6948,68.8836,1160.8833],[18.6953,68.8746,1097.5197],[18.7077,68.8747,946.7519],[18.7083,68.8657,960.2722],[18.7207,68.8658,1097.3022],[18.7212,68.8568,1177.9977],[18.7336,68.8569,1190.3778],[18.7341,68.8479,1001.0524],[18.7589,68.848,1237.0287],[18.7592,68.8435,799.1862],[18.8212,68.844,925.6542],[18.8214,68.8395,1259.1213],[18.8586,68.8397,1295.7231],[18.8593,68.8262,1433.6472],[18.8717,68.8263,1359.8734],[18.872,68.8218,1177.1025],[18.8596,68.8217,1371.166],[18.8598,68.8172,1087.4615],[18.8474,68.8171,1214.8231],[18.8476,68.8126,1071.588],[18.8352,68.8125,1131.2427],[18.8355,68.808,1069.6514],[18.8479,68.8081,999.4713],[18.8481,68.8036,909.4306],[18.8605,68.8037,828.8418],[18.8607,68.7992,809.9462],[18.8855,68.7993,893.179],[18.8852,68.8038,1154.7233],[18.91,68.804,1409.8137],[18.9102,68.7995,1248.4921],[18.9226,68.7996,1320.1531],[18.9228,68.7951,1083.2803],[18.9847,68.7954,1213.9952],[18.9849,68.7909,925.9344],[18.9973,68.791,997.3359],[18.9979,68.7775,919.952],[19.0103,68.7775,1004.1752],[19.0109,68.764,973.9156],[19.0232,68.7641,1134.7496],[19.0236,68.7551,1134.4518],[19.1348,68.7557,1283.7662],[19.1347,68.7602,1162.1245],[19.147,68.7602,1332.1328],[19.1468,68.7647,1217.8169],[19.1592,68.7648,1302.2993],[19.1589,68.7738,1516.6797],[19.1712,68.7739,1499.307],[19.1711,68.7784,1541.1324],[19.1834,68.7784,1524.0244],[19.1838,68.7694,1126.6198],[19.1961,68.7695,1197.8463],[19.1965,68.7605,1087.6691],[19.2088,68.7605,1137.1918],[19.2091,68.7515,983.4783],[19.2215,68.7516,971.5359],[19.2218,68.7426,1001.9359],[19.2342,68.7426,1105.9102],[19.2345,68.7336,1031.4625],[19.2468,68.7337,1110.2753],[19.247,68.7291,1289.9756],[19.2593,68.7292,985.1401],[19.2594,68.7247,1119.246],[19.2718,68.7247,1271.1685],[19.2719,68.7202,1276.2123],[19.2843,68.7203,1330.4719],[19.2846,68.7113,1297.9109],[19.2969,68.7113,884.8091],[19.297,68.7068,1198.8276],[19.3094,68.7069,1247.3285],[19.3095,68.7024,1274.1742],[19.3218,68.7024,1219.3616],[19.322,68.6979,1240.9137],[19.3343,68.698,1256.9769],[19.3344,68.6935,1361.4309],[19.3467,68.6935,1339.885],[19.3469,68.689,1372.962],[19.3592,68.689,1321.89],[19.3593,68.6845,1060.7999],[19.3716,68.6846,1297.1937],[19.3718,68.6801,1214.3921],[19.3841,68.6801,1247.3477],[19.3842,68.6756,1133.8959],[19.3965,68.6757,1125.0439],[19.3966,68.6712,805.0266],[19.409,68.6712,792.0946],[19.4091,68.6667,776.3687],[19.4214,68.6667,776.0009],[19.4215,68.6622,902.828],[19.4338,68.6623,879.3544],[19.4339,68.6578,1014.5543],[19.4462,68.6578,999.8867],[19.4463,68.6533,1079.2622],[19.4586,68.6533,1095.0931],[19.4587,68.6488,1205.7659],[19.471,68.6489,1105.3724],[19.4713,68.6399,1176.7539],[19.4836,68.6399,1152.3546],[19.4837,68.6354,1035.7742],[19.4959,68.6354,997.8585],[19.496,68.6309,931.7382],[19.5083,68.631,937.9254],[19.5084,68.6265,894.7534],[19.5207,68.6265,911.129],[19.5208,68.622,938.3975],[19.5331,68.622,940.1323],[19.5332,68.6175,993.7956],[19.5455,68.6176,1020.5192],[19.5456,68.613,1056.8336],[19.5579,68.6131,1136.5184],[19.5579,68.6086,1126.7102],[19.5702,68.6086,1171.3563],[19.5703,68.6041,1153.5239],[19.5826,68.6041,1294.9305],[19.5827,68.5996,1251.197],[19.5949,68.5997,1533.8727],[19.595,68.5951,1505.0098],[19.6073,68.5952,1357.7006],[19.6074,68.5907,1303.6582],[19.6196,68.5907,1210.4563],[19.6197,68.5862,1107.4091],[19.6442,68.5863,1288.318],[19.6443,68.5817,1162.6942],[19.6566,68.5818,1113.8772],[19.6567,68.5773,1043.4352],[19.6812,68.5773,1010.0725],[19.6812,68.5728,943.2803],[19.6935,68.5728,932.5904],[19.6936,68.5683,913.7833],[19.7058,68.5683,867.0947],[19.7059,68.5638,926.0446],[19.7794,68.5639,729.7995],[19.7794,68.5594,721.4705],[19.902,68.5596,616.1144],[19.902,68.5551,603.0919],[19.9387,68.5551,766.2709],[19.9387,68.5596,791.5649],[19.951,68.5596,682.3017],[19.951,68.5641,668.5353],[19.9632,68.5641,667.675],[19.9632,68.5686,758.7585],[19.9877,68.5686,837.1193],[19.9877,68.5731,905.6902],[20.0,68.5731,896.3051],[20.0,68.5776,903.1868],[20.0123,68.5776,871.0675],[20.0123,68.5821,864.357],[20.0368,68.5821,680.8524],[20.0368,68.5866,635.8884],[20.0491,68.5866,644.353],[20.0491,68.5911,625.5637],[20.0613,68.5911,617.9406],[20.0614,68.5956,618.8838],[20.0736,68.5956,638.8561],[20.0737,68.6046,689.6793],[20.0859,68.6046,832.0155],[20.086,68.6091,813.1365],[20.0982,68.6091,889.0359],[20.0983,68.6181,846.5703],[20.1106,68.6181,886.0102],[20.1106,68.6226,882.7762],[20.1229,68.6226,900.1654],[20.1229,68.6271,915.1101],[20.1352,68.6271,929.3962],[20.1352,68.6361,959.0891],[20.1475,68.6361,960.7917],[20.1476,68.6406,978.4919],[20.1599,68.6406,961.1317],[20.1599,68.6451,959.2974],[20.1722,68.6451,880.7292],[20.1723,68.6541,754.8882],[20.1846,68.6541,744.3942],[20.1846,68.6586,740.8051],[20.1969,68.6586,721.3514],[20.1969,68.6631,721.4189],[20.2092,68.6631,720.6384],[20.2094,68.6766,821.7294],[20.2217,68.6766,889.3542],[20.2218,68.6901,906.1177],[20.2341,68.69,927.1595],[20.2343,68.7036,880.6709],[20.2466,68.7035,863.0663],[20.2468,68.7171,886.4799],[20.2591,68.717,871.2873],[20.2593,68.7306,894.6901],[20.2716,68.7305,893.439],[20.2718,68.744,946.8168],[20.2841,68.744,916.9343],[20.2842,68.753,876.5052],[20.2966,68.753,817.6611],[20.2968,68.7665,848.4106],[20.3091,68.7665,840.2804],[20.3093,68.78,799.2543],[20.3217,68.78,850.6851],[20.3219,68.7935,692.6208],[20.3343,68.7935,678.744],[20.3349,68.8385,717.5836],[20.3225,68.8386,736.0735],[20.3232,68.8836,728.2898],[20.3107,68.8836,691.1209],[20.3114,68.9287,615.316],[20.2989,68.9287,621.2537],[20.299,68.9332,652.1098],[20.2865,68.9332,659.5249],[20.2866,68.9377,706.6631],[20.2741,68.9378,713.0699],[20.2742,68.9423,828.1207],[20.2617,68.9423,872.8442],[20.2618,68.9468,945.6375],[20.2493,68.9468,983.2623],[20.2494,68.9558,1225.6899],[20.2369,68.9558,1431.9188],[20.237,68.9603,1230.954],[20.2245,68.9604,1367.0002],[20.2245,68.9649,1345.6783],[20.2121,68.9649,1064.8599],[20.2122,68.9739,930.6676],[20.1997,68.9739,1089.5886],[20.1997,68.9784,1097.3329],[20.1872,68.9784,1243.1202],[20.1873,68.9874,1134.4728],[20.1748,68.9874,1183.7516],[20.1749,68.9919,1002.106],[20.1624,68.992,972.2777],[20.1624,68.9965,1254.8721],[20.1499,68.9965,1369.6718],[20.15,69.0055,1189.3668],[20.1375,69.0055,1438.2377],[20.1375,69.01,1482.3573],[20.125,69.01,1478.6136],[20.125,69.019,1162.2659],[20.1125,69.019,934.8751],[20.1126,69.0235,896.1522],[20.1001,69.0235,868.8806],[20.1001,69.028,838.9707],[20.0876,69.028,857.5359],[20.0876,69.0371,882.5502],[20.0751,69.0371,914.1181],[20.0751,69.0416,997.7775],[20.0626,69.0416,1102.8463],[20.0626,69.0461,1287.5547],[20.0501,69.0461,1252.8521],[20.0501,69.0506,895.4092],[20.0376,69.0506,895.5283],[20.0376,69.0551,905.6782],[20.0251,69.0551,917.954],[20.0251,69.0596,1241.2759],[20.0,69.0596,1113.8608],[20.0,69.0641,1016.9051],[19.9875,69.0641,1076.6855],[19.9875,69.0686,937.7493],[19.9749,69.0686,1210.2782],[19.9749,69.0731,999.2599],[19.9373,69.0731,1097.4747],[19.9373,69.0686,1015.5104],[19.9123,69.0686,1168.9656],[19.9123,69.0641,951.4874],[19.8872,69.0641,1233.3237],[19.8873,69.0596,1190.2631],[19.8246,69.0595,1125.6846],[19.8246,69.055,1223.3744],[19.8121,69.055,976.9224],[19.8122,69.046,930.0886],[19.7997,69.046,789.0151],[19.7998,69.037,1063.7433],[19.7872,69.0369,1144.47],[19.7873,69.0324,1264.4301],[19.7748,69.0324,1250.0121],[19.7747,69.0414,879.9729],[19.7622,69.0414,964.5533],[19.7621,69.0459,1140.2032],[19.7496,69.0459,1340.1414],[19.7495,69.0504,1292.1307],[19.6243,69.0502,1295.6971],[19.6244,69.0457,1504.9291],[19.5994,69.0456,1062.2917],[19.5868,69.0456,1102.356],[19.5868,69.0501,771.1852],[19.5492,69.05,863.826],[19.5493,69.0455,951.6958],[19.4742,69.0453,275.6696],[19.4741,69.0498,202.4112],[19.4615,69.0498,191.2177],[19.4614,69.0543,166.971],[19.4489,69.0543,156.9506],[19.449,69.0498,166.8512],[19.4365,69.0497,200.3722],[19.4366,69.0452,191.7279],[19.4241,69.0452,235.3739],[19.4242,69.0407,233.0275],[19.4117,69.0406,321.0709],[19.4118,69.0361,270.9142],[19.3993,69.0361,311.48],[19.3989,69.0496,432.5336],[19.3864,69.0495,441.1349],[19.3862,69.0586,558.5237],[19.3361,69.0584,119.3034],[19.3365,69.0449,86.1077],[19.349,69.0449,96.8923],[19.3492,69.0359,87.0984],[19.3117,69.0358,78.0881],[19.3116,69.0403,81.4255],[19.299,69.0402,102.5464],[19.2989,69.0447,106.1562],[19.2739,69.0446,250.693],[19.2737,69.0491,230.8162],[19.2612,69.0491,256.9767],[19.261,69.0536,238.5133],[19.2485,69.0535,256.1988],[19.2484,69.058,298.0188],[19.2358,69.058,313.55],[19.2357,69.0625,327.1168],[19.2232,69.0624,326.3489],[19.223,69.0669,320.1322],[19.2105,69.0669,331.0329],[19.2103,69.0714,278.863],[19.1978,69.0713,305.6944],[19.1976,69.0758,262.4582],[19.1725,69.0757,287.8918],[19.1724,69.0802,257.8611],[19.1598,69.0802,280.2027],[19.1597,69.0847,243.3454],[19.1471,69.0846,268.717],[19.147,69.0891,214.2079],[19.1344,69.0891,214.3599],[19.1342,69.0936,214.3515],[19.1217,69.0935,214.4117],[19.1215,69.098,214.1731],[19.109,69.098,214.1673],[19.1088,69.1025,214.2068],[19.0962,69.1024,214.0199],[19.0961,69.1069,214.036],[19.0709,69.1068,214.0021],[19.0708,69.1113,214.0919],[19.0582,69.1112,214.0033],[19.058,69.1157,214.1457],[19.0454,69.1157,214.1546],[19.0453,69.1202,214.2552],[19.0327,69.1201,214.2637],[19.0323,69.1291,214.2441],[19.0197,69.129,214.3054],[19.0191,69.1425,233.3708],[18.9814,69.1423,295.3667],[18.9812,69.1468,307.6361],[18.9686,69.1468,319.4504],[18.9684,69.1513,283.8553],[18.9559,69.1512,267.0901],[18.9556,69.1557,289.8192],[18.9431,69.1556,320.0918],[18.9428,69.1601,339.1881],[18.9303,69.1601,368.6735],[18.93,69.1646,476.6265],[18.9175,69.1645,453.1082],[18.9172,69.169,544.6901],[18.9046,69.1689,569.1705],[18.9044,69.1734,625.9828],[18.8918,69.1734,657.6246],[18.8916,69.1779,692.2833],[18.879,69.1778,645.4194],[18.8788,69.1823,609.9658],[18.8662,69.1822,558.5891],[18.866,69.1867,735.2653],[18.8534,69.1866,771.3155],[18.8529,69.1956,740.7722],[18.8403,69.1956,671.0587],[18.8401,69.2001,563.7137],[18.8275,69.2,608.3671],[18.8272,69.2045,532.1711],[18.8146,69.2044,510.8093],[18.8144,69.2089,484.3852],[18.8018,69.2088,450.7477],[18.8015,69.2133,568.4922],[18.7889,69.2133,520.3486],[18.7887,69.2178,709.548],[18.776,69.2177,726.4597],[18.7758,69.2222,1058.0979],[18.7632,69.2221,1135.454],[18.7629,69.2266,1317.2653],[18.7503,69.2265,1183.5424],[18.75,69.231,862.0007],[18.7374,69.2309,1025.4725],[18.7356,69.2625,241.0024],[18.723,69.2624,177.535],[18.7227,69.2669,75.4169],[18.7168,69.2668,14.5397],[18.7157,69.2688,0.0]]]]}}