{"type": "Feature","bbox": [23.9005,69.7287,26.1585,70.7545],"geometry": {"type": "MultiPolygon","coordinates": [[[[24.9604,70.1167,0.0],[24.9682,70.1172,0.0],[24.9703,70.1203,0.0],[24.9667,70.1208,0.0],[24.9604,70.1188,0.0],[24.9562,70.1208,0.0],[24.9526,70.1203,0.0],[24.9568,70.1172,0.0],[24.9604,70.1167,0.0]]],
[[[24.9432,70.1328,0.0],[24.9396,70.1333,0.0],[24.938,70.1318,0.0],[24.9417,70.1312,0.0],[24.9432,70.1328,0.0]]],
[[[24.9891,70.1453,0.0],[24.9854,70.1458,0.0],[24.9839,70.1443,0.0],[24.9875,70.1438,0.0],[24.9891,70.1453,0.0]]],
[[[24.9516,70.1391,0.0],[24.9542,70.1375,0.0],[24.9578,70.138,0.0],[24.9547,70.1412,0.0],[24.9568,70.1432,0.0],[24.9641,70.1443,0.0],[24.9661,70.1464,0.0],[24.9651,70.1495,0.0],[24.9682,70.1536,0.0],[24.9568,70.1536,0.0],[24.9599,70.1505,0.0],[24.9542,70.15,0.0],[24.9484,70.1474,0.0],[24.9401,70.138,0.0],[24.9516,70.1391,0.0]]],
[[[25.125,70.1,0.0],[25.1214,70.0964,0.0],[25.1266,70.0964,0.0],[25.1328,70.1005,0.0],[25.137,70.1057,0.0],[25.1318,70.1057,0.0],[25.125,70.1,0.0]]],
[[[25.0958,70.1438,0.0],[25.0859,70.1484,16.0546],[25.0911,70.1526,0.0],[25.0896,70.1542,0.0],[25.075,70.1542,7.5036],[25.0693,70.1495,33.56],[25.0708,70.1479,16.0355],[25.0766,70.1474,0.0],[25.0755,70.1443,0.0],[25.0854,70.1396,7.3442],[25.0932,70.1401,0.0],[25.0974,70.1422,0.0],[25.0958,70.1438,0.0]]],
[[[25.0797,70.1682,3.2672],[25.0833,70.1646,1.8725],[25.0917,70.1646,0.0],[25.1042,70.1687,24.7772],[25.1104,70.1687,0.9886],[25.112,70.1703,0.0],[25.1089,70.1713,-1.0709],[25.1099,70.1745,-0.2635],[25.1047,70.1776,13.6577],[25.1057,70.1807,1.6706],[25.1021,70.1813,12.3299],[25.0891,70.1713,29.2137],[25.0818,70.1703,5.8589],[25.0797,70.1682,3.2672]]],
[[[25.062,70.1745,0.0],[25.0583,70.175,0.0],[25.0568,70.1734,0.0],[25.0604,70.1729,0.0],[25.062,70.1745,0.0]]],
[[[24.9922,70.1609,4.9498],[24.9932,70.1589,17.9325],[24.9922,70.1568,13.3212],[24.9938,70.1563,13.3212],[24.9974,70.1568,15.7478],[24.9995,70.1589,6.3344],[24.9958,70.1625,0.0],[24.9922,70.1609,4.9498]]],
[[[25.0146,70.1708,0.0],[25.0109,70.1672,0.0],[25.0146,70.1667,0.0],[25.0182,70.1693,0.0],[25.0146,70.1708,0.0]]],
[[[24.9813,70.175,0.0],[24.9771,70.175,0.0],[24.9755,70.1734,0.0],[24.987,70.1734,0.0],[24.9854,70.175,21.1447],[24.9813,70.175,0.0]]],
[[[24.9641,70.2057,0.0],[24.9604,70.2063,0.0],[24.9589,70.2047,0.0],[24.9625,70.2042,0.0],[24.9641,70.2057,0.0]]],
[[[25.0292,70.1813,0.0],[25.0276,70.1797,0.0],[25.0313,70.1771,0.0],[25.0349,70.1776,0.0],[25.037,70.1797,0.0],[25.0354,70.1813,0.0],[25.0292,70.1813,0.0]]],
[[[25.1078,70.187,0.0],[25.1042,70.1875,0.0],[25.1026,70.1859,0.0],[25.1063,70.1854,0.0],[25.1078,70.187,0.0]]],
[[[25.1125,70.1958,0.0],[25.1089,70.1922,0.0],[25.1141,70.1922,0.0],[25.1224,70.1995,0.0],[25.1172,70.1995,0.0],[25.1125,70.1958,0.0]]],
[[[25.0641,70.2182,0.0965],[25.0604,70.2188,0.0],[25.0589,70.2172,1.1452],[25.0625,70.2167,0.0],[25.0641,70.2182,0.0965]]],
[[[25.0053,70.2104,10.9681],[24.9979,70.2104,46.8527],[24.9917,70.2125,14.2808],[24.9839,70.2047,0.0],[25.0,70.2042,24.1251],[25.0016,70.2057,0.0],[24.9984,70.2078,57.9717],[25.012,70.2089,13.1448],[25.0104,70.2104,25.0794],[25.0053,70.2104,10.9681]]],
[[[25.0245,70.2161,0.0],[25.0214,70.2161,0.0],[25.0214,70.2151,0.0],[25.0245,70.2151,0.0],[25.0245,70.2161,0.0]]],
[[[25.0146,70.225,0.0],[25.0203,70.2255,0.0],[25.0266,70.2328,8.7611],[25.0104,70.2333,32.6946],[24.9979,70.2292,0.0],[24.9797,70.2286,0.0],[24.9651,70.2161,0.0],[24.9682,70.213,0.0],[24.9651,70.2109,0.0],[24.9688,70.2104,0.0],[24.9745,70.213,0.0],[24.9828,70.2214,0.0],[24.9818,70.2245,0.0],[24.9833,70.225,0.0],[24.9938,70.2271,0.0],[24.9953,70.2266,28.5967],[24.9943,70.2234,3.2679],[24.9958,70.2229,11.3589],[25.0104,70.2229,0.0],[25.0146,70.225,0.0]]],
[[[24.2077,69.8277,418.972],[24.205,69.8142,410.6692],[24.218,69.8139,370.0167],[24.2171,69.8094,367.624],[24.2947,69.8076,417.074],[24.2956,69.8121,412.6629],[24.3862,69.81,461.7019],[24.3871,69.8145,460.2077],[24.4647,69.8127,520.6822],[24.465699999999998,69.8172,532.8322],[24.5562,69.815,915.484],[24.5572,69.8195,831.6754],[24.596,69.8185,861.0386],[24.595,69.814,769.2773],[24.6209,69.8134,603.439],[24.6199,69.8089,574.8273],[24.6587,69.8079,480.3347],[24.6578,69.8034,466.9776],[24.6965,69.8024,438.0316],[24.6956,69.7979,414.0725],[24.7214,69.7973,404.1122],[24.7204,69.7928,431.1795],[24.7592,69.7918,372.2841],[24.7582,69.7873,422.3099],[24.7969,69.7863,391.0736],[24.7959,69.7818,405.8452],[24.8217,69.7811,398.8344],[24.8207,69.7766,384.9474],[24.8595,69.7756,287.0306],[24.8584,69.7711,310.4633],[24.8971,69.7701,332.1122],[24.8961,69.7656,355.4889],[24.9219,69.7649,347.9781],[24.9209,69.7604,357.5319],[24.9596,69.7594,354.9872],[24.9585,69.7549,345.2596],[24.9972,69.7539,305.0284],[24.9962,69.7494,329.9225],[25.0348,69.7483,245.5928],[25.0338,69.7438,258.9486],[25.124,69.7413,303.0515],[25.1229,69.7369,306.0514],[25.226,69.734,280.2526],[25.2249,69.7295,284.9931],[25.2506,69.7287,328.0997],[25.2517,69.7332,337.1528],[25.2903,69.7321,299.7949],[25.2914,69.7366,302.2511],[25.3301,69.7355,332.4379],[25.3312,69.74,318.2848],[25.3698,69.7389,250.1497],[25.371,69.7434,232.3755],[25.4096,69.7422,317.9952],[25.4107,69.7467,334.1635],[25.4494,69.7456,336.6257],[25.4505,69.7501,344.3374],[25.4892,69.7489,388.0114],[25.4903,69.7534,399.8795],[25.5032,69.7531,402.1236],[25.5044,69.7575,382.0133],[25.5173,69.7572,371.7863],[25.5196,69.7661,367.5376],[25.5325,69.7658,347.3158],[25.5348,69.7747,355.8908],[25.5477,69.7743,333.399],[25.55,69.7833,404.3727],[25.5629,69.7829,376.6943],[25.5664,69.7964,371.9239],[25.5793,69.796,361.5049],[25.5817,69.805,353.2423],[25.5946,69.8046,370.6936],[25.5969,69.8136,362.0044],[25.6099,69.8132,370.3406],[25.6122,69.8222,408.9755],[25.6252,69.8218,456.9993],[25.6275,69.8308,408.4993],[25.6404,69.8304,438.1307],[25.644,69.8438,392.3344],[25.657,69.8434,430.8799],[25.6593,69.8524,407.7562],[25.6723,69.852,408.15],[25.6747,69.861,465.4186],[25.6876,69.8606,474.2522],[25.69,69.8696,484.5333],[25.703,69.8692,464.0926],[25.7054,69.8782,568.7189],[25.7183,69.8778,528.0293],[25.722,69.8912,546.673],[25.7349,69.8908,574.8009],[25.7373,69.8998,644.3957],[25.7503,69.8994,683.5602],[25.7527,69.9084,698.5178],[25.7657,69.908,741.5428],[25.7682,69.917,622.7474],[25.7811,69.9166,609.3602],[25.7836,69.9255,564.4713],[25.7966,69.9251,581.515],[25.799,69.9341,612.9113],[25.812,69.9337,649.3677],[25.8157,69.9472,749.5963],[25.8287,69.9468,854.7097],[25.8299,69.9512,948.0714],[25.8429,69.9508,958.1647],[25.8442,69.9553,859.2003],[25.8572,69.9549,885.2499],[25.8584,69.9594,792.4126],[25.8714,69.959,831.9036],[25.8727,69.9635,765.6782],[25.8857,69.9631,725.0193],[25.8869,69.9676,770.7201],[25.9129,69.9667,837.2195],[25.9142,69.9712,941.9654],[25.9532,69.97,909.1874],[25.9684,70.0238,634.4719],[25.9554,70.0242,637.2799],[25.9566,70.0287,613.8726],[25.9436,70.0292,602.7484],[25.9461,70.0381,563.5745],[25.9331,70.0385,562.4065],[25.9356,70.0475,586.9094],[25.9225,70.0479,601.3428],[25.9251,70.0569,644.352],[25.912,70.0573,649.2072],[25.9208,70.0887,680.2668],[25.9078,70.0891,660.3505],[25.9103,70.0981,662.5063],[25.9234,70.0977,646.2021],[25.9272,70.1112,612.5225],[25.9403,70.1108,619.5029],[25.9441,70.1242,587.0942],[25.9572,70.1238,602.783],[25.961,70.1373,652.9024],[25.9741,70.1368,656.3942],[25.978,70.1503,661.3548],[25.9911,70.1499,664.9765],[25.9924,70.1544,662.5477],[25.9792,70.1548,655.0144],[25.9844,70.1728,611.9905],[25.9975,70.1723,597.0703],[26.0065,70.2038,581.5624],[26.0197,70.2033,597.2139],[26.021,70.2078,515.2745],[26.0341,70.2074,516.6632],[26.0367,70.2164,489.0627],[26.0499,70.216,538.5142],[26.0538,70.2294,562.7916],[26.0406,70.2298,562.5305],[26.0419,70.2343,551.6259],[26.0287,70.2347,404.2368],[26.0313,70.2437,353.0074],[26.0182,70.2441,309.5671],[26.0195,70.2486,293.6638],[26.0326,70.2482,296.4312],[26.0365,70.2617,345.449],[26.0233,70.2621,364.9402],[26.0259,70.2711,443.0168],[26.0127,70.2715,523.2916],[26.014,70.276,520.1032],[26.0008,70.2764,500.6259],[26.0099,70.3078,380.3907],[25.9967,70.3082,413.5574],[26.0058,70.3396,199.6664],[25.9926,70.3401,218.6322],[26.0003,70.367,241.0486],[26.0136,70.3666,274.4592],[26.0149,70.3711,245.0626],[26.028199999999998,70.3706,244.8717],[26.0295,70.3751,226.986],[26.0427,70.3747,150.0183],[26.0453,70.3837,149.0727],[26.0586,70.3833,149.9602],[26.0599,70.3877,201.2284],[26.0732,70.3873,182.2839],[26.0785,70.4053,293.9023],[26.0917,70.4048,335.9706],[26.0984,70.4273,289.3967],[26.1117,70.4269,307.9853],[26.1411,70.5256,407.6351],[26.1544,70.5252,417.2238],[26.1585,70.5386,428.8287],[26.1451,70.5391,437.5415],[26.1518,70.5615,351.6284],[26.1384,70.5619,320.0016],[26.1452,70.5844,87.2146],[26.1318,70.5848,47.5],[26.1372,70.6027,211.7862],[26.1238,70.6032,216.9611],[26.1305,70.6256,57.467],[26.1171,70.626,77.5204],[26.1238,70.6485,369.0276],[26.1104,70.6489,377.9191],[26.1131,70.6579,427.7949],[26.0862,70.6587,339.2992],[26.0875,70.6632,316.6605],[26.0182,70.6654,31.4561],[26.0172,70.663,14.7925],[26.0203,70.6609,43.1608],[26.0182,70.6589,31.0935],[26.0089,70.6578,0.0],[26.0036,70.6526,0.0],[26.0005,70.6516,0.0],[26.0036,70.6484,28.1197],[25.9911,70.638,172.6318],[25.9854,70.6354,151.2309],[25.9797,70.6349,43.0117],[25.9714,70.6286,0.0],[25.9745,70.6266,86.5798],[25.9734,70.6234,0.0],[25.9786,70.6203,104.6986],[25.9776,70.613,0.0],[25.987,70.612,5.7833],[25.9766,70.6026,7.4932],[25.9688,70.6021,3.0631],[25.9646,70.6,7.0565],[25.9542,70.6,0.0],[25.9495,70.5964,7.7921],[25.9422,70.5953,4.2551],[25.9349,70.5901,14.3307],[25.9292,70.5896,6.4382],[25.9234,70.587,0.0],[25.9266,70.5839,11.4545],[25.9193,70.5828,4.5496],[25.9224,70.5807,30.0776],[25.9208,70.5792,56.7496],[25.9146,70.5792,12.419],[25.9104,70.5771,18.0132],[25.9,70.5771,0.0],[25.8896,70.5708,14.8976],[25.875,70.5708,11.6472],[25.8688,70.5729,2.0263],[25.8641,70.5693,19.4958],[25.8484,70.5661,1.3095],[25.8349,70.5568,31.0752],[25.8276,70.5557,3.7047],[25.8307,70.5526,36.8321],[25.8109,70.5474,0.0],[25.8068,70.5432,1.5383],[25.8078,70.5401,11.7029],[25.8057,70.538,10.9474],[25.8021,70.5375,12.584],[25.7958,70.5396,0.0],[25.787,70.5339,11.7988],[25.7797,70.5328,0.0],[25.7828,70.5297,3.4982],[25.7755,70.5286,2.9959],[25.7693,70.5245,2.5868],[25.7724,70.5214,35.606],[25.7526,70.5203,5.1459],[25.7536,70.5172,11.0058],[25.7464,70.5162,1.292],[25.7495,70.513,5.4721],[25.7453,70.5109,10.3739],[25.7188,70.5042,11.2905],[25.7062,70.5042,1.7031],[25.7,70.5,21.3655],[25.6755,70.4953,5.2344],[25.6786,70.4922,25.2027],[25.6766,70.4901,37.5843],[25.6693,70.4891,16.4086],[25.6703,70.4859,26.7473],[25.663,70.4807,1.55],[25.6661,70.4776,24.0434],[25.662,70.4734,27.7959],[25.6589,70.4724,12.0744],[25.6536,70.4672,34.7261],[25.6479,70.4667,4.079],[25.6422,70.4641,0.0],[25.6349,70.4568,32.9977],[25.6193,70.4557,7.7803],[25.613,70.4495,5.8419],[25.6151,70.4464,7.6919],[25.6182,70.4453,7.0229],[25.6141,70.4401,0.0074],[25.6109,70.4391,0.0],[25.6057,70.4339,3.8936],[25.5979,70.4333,7.9855],[25.5932,70.4297,20.5716],[25.5859,70.4287,0.0],[25.5776,70.4224,0.0],[25.5807,70.4203,12.7838],[25.5797,70.4172,34.1443],[25.5807,70.4151,36.881],[25.5688,70.4146,0.0],[25.5563,70.4104,11.5065],[25.5458,70.4104,10.2168],[25.538,70.4057,8.3856],[25.5396,70.4042,0.0],[25.5474,70.4036,0.0],[25.5464,70.4005,0.0],[25.5516,70.3974,4.1019],[25.5474,70.3922,11.759],[25.5411,70.388,4.4912],[25.5313,70.3875,0.0],[25.5271,70.3896,0.0],[25.5208,70.3896,7.8537],[25.5172,70.3922,0.0],[25.5182,70.3953,4.818],[25.512,70.3995,4.7359],[25.5021,70.4,6.1548],[25.4943,70.3953,5.7986],[25.4974,70.3932,31.7255],[25.4964,70.3901,9.1883],[25.4974,70.388,15.6656],[25.4922,70.3828,0.0],[25.4932,70.3797,0.0712],[25.4776,70.3766,8.827],[25.4729,70.3729,25.98],[25.4651,70.3724,0.0],[25.4682,70.3703,15.2939],[25.4651,70.3662,0.0],[25.4661,70.363,26.2172],[25.4562,70.3625,35.0926],[25.4516,70.3662,4.5477],[25.4479,70.3667,9.8849],[25.4411,70.363,51.2533],[25.4339,70.362,0.0],[25.437,70.3599,28.6002],[25.4359,70.3568,0.0],[25.437,70.3547,0.0],[25.4297,70.3536,0.0],[25.4276,70.3505,0.0],[25.437,70.3495,64.6555],[25.4339,70.3464,0.0],[25.4411,70.3422,58.9362],[25.4312,70.3396,58.4385],[25.4188,70.3396,23.1682],[25.4146,70.3375,49.9851],[25.4026,70.337,17.3006],[25.4057,70.3339,39.5664],[25.4036,70.3318,24.5034],[25.3964,70.3307,14.894],[25.3974,70.3276,11.4074],[25.3964,70.3255,-0.4653],[25.4063,70.3208,0.0],[25.4167,70.3208,0.0],[25.4208,70.3187,0.0],[25.4375,70.3167,13.0998],[25.4422,70.313,0.0],[25.45,70.3125,0.0],[25.4542,70.3104,0.0],[25.4667,70.3104,6.1897],[25.4708,70.3083,2.5761],[25.4792,70.3083,0.0],[25.4833,70.3104,0.0],[25.5161,70.3099,0.0971],[25.5203,70.3078,0.5434],[25.5182,70.3047,0.2305],[25.5125,70.3042,6.3745],[25.5068,70.3016,2.8474],[25.5047,70.2984,0.0249],[25.5078,70.2963,10.2551],[25.5021,70.2958,3.7034],[25.4964,70.2932,0.0],[25.4901,70.287,0.0],[25.5,70.2833,0.0],[25.5063,70.2833,-0.3398],[25.5078,70.2818,4.0916],[25.5042,70.2792,13.5848],[25.488,70.2766,0.0],[25.4911,70.2734,24.0666],[25.487,70.2693,33.408],[25.4797,70.2682,4.6464],[25.4729,70.2646,22.9081],[25.4625,70.2646,3.2893],[25.4578,70.2609,68.3457],[25.4417,70.2583,-0.2563],[25.4354,70.2542,34.7177],[25.4312,70.2542,30.2302],[25.4271,70.2521,39.8584],[25.4151,70.2516,1.5066],[25.4182,70.2484,54.5479],[25.4089,70.2474,29.434],[25.4068,70.2443,16.2023],[25.4099,70.2422,13.7956],[25.4026,70.237,2.1074],[25.4099,70.2328,5.1719],[25.4068,70.2297,0.9589],[25.4099,70.2286,17.1733],[25.4089,70.2255,57.6653],[25.412,70.2234,85.3877],[25.4026,70.2224,-1.0],[25.4057,70.2203,82.5514],[25.4036,70.2172,86.6714],[25.3964,70.2161,64.3377],[25.387,70.2089,91.8735],[25.3714,70.2057,1.4134],[25.3641,70.2005,11.1109],[25.3568,70.1995,0.68],[25.3536,70.1964,5.0003],[25.3479,70.1958,0.1668],[25.3422,70.1932,12.1267],[25.3354,70.1875,116.2593],[25.3271,70.1896,-0.6015],[25.3224,70.1859,6.1077],[25.3187,70.1854,5.1658],[25.3104,70.1896,5.0162],[25.2943,70.1891,14.2109],[25.288,70.1828,3.7754],[25.2891,70.1797,8.5938],[25.288,70.1776,-0.3464],[25.2911,70.1755,17.6986],[25.2839,70.1703,19.5028],[25.287,70.1682,23.6937],[25.2859,70.1651,0.0],[25.287,70.163,18.755],[25.2734,70.1516,0.0],[25.2766,70.1484,78.6504],[25.2682,70.1422,77.5409],[25.2583,70.1396,63.4003],[25.2479,70.1396,10.2736],[25.2443,70.137,5.2773],[25.2464,70.1339,0.9052],[25.2542,70.1333,4.4809],[25.2557,70.1318,1.9156],[25.2484,70.1266,0.0],[25.2516,70.1234,59.228],[25.2474,70.1193,43.2692],[25.2411,70.1151,38.9936],[25.2339,70.1141,5.6758],[25.2297,70.1099,0.0],[25.2307,70.1068,0.0],[25.2297,70.1047,0.0],[25.237,70.1005,43.629],[25.2224,70.0901,3.2734],[25.2125,70.0875,8.9429],[25.2021,70.0875,0.3993],[25.1979,70.0854,12.1911],[25.1859,70.0849,1.9443],[25.1828,70.0818,6.6513],[25.1755,70.0807,2.9626],[25.1682,70.0755,-0.863],[25.1609,70.0745,0.09],[25.1547,70.0682,0.6418],[25.1557,70.0651,2.5455],[25.1542,70.0646,2.5455],[25.1354,70.0646,0.0],[25.1208,70.0687,4.2469],[25.1083,70.0687,26.3386],[25.1042,70.0708,9.6029],[25.1,70.0708,41.764],[25.0859,70.0776,20.8663],[25.0891,70.0807,0.0],[25.0755,70.088,33.5613],[25.0766,70.0911,18.8769],[25.0714,70.0943,0.0],[25.0724,70.0974,0.0],[25.0693,70.0995,51.6117],[25.0766,70.1057,3.5327],[25.0708,70.1083,8.3464],[25.063,70.1088,0.0],[25.0641,70.112,0.0],[25.063,70.1141,0.0],[25.0667,70.1167,0.0],[25.0812,70.1167,8.0406],[25.0854,70.1146,6.0298],[25.1063,70.1146,18.2583],[25.1109,70.1182,33.6335],[25.1182,70.1193,0.0],[25.1151,70.1214,52.1305],[25.1167,70.1229,17.0433],[25.1229,70.1208,0.0],[25.1328,70.1214,10.6834],[25.1297,70.1234,12.6742],[25.1312,70.125,5.3972],[25.1437,70.1208,0.0],[25.1495,70.1255,4.1486],[25.1484,70.1286,6.9469],[25.1495,70.1307,-0.313],[25.1417,70.1312,29.8901],[25.1349,70.1349,0.0],[25.1229,70.1375,14.3938],[25.113,70.1349,12.5028],[25.1036,70.1276,16.4433],[25.0964,70.1266,3.4487],[25.0917,70.1229,12.5774],[25.0839,70.1224,0.0],[25.0792,70.1188,20.9747],[25.0729,70.1208,3.4438],[25.0625,70.1208,0.0],[25.0568,70.1234,20.3783],[25.0599,70.1276,0.0],[25.0589,70.1307,0.0],[25.0599,70.1328,0.0],[25.0568,70.1349,2.5034],[25.0641,70.1359,3.2765],[25.0703,70.1412,0.0],[25.0646,70.1438,41.0796],[25.0484,70.1422,0.0],[25.0495,70.1495,0.0],[25.0479,70.15,0.0],[25.0354,70.15,5.934],[25.0292,70.1521,2.2422],[25.0193,70.1495,2.6316],[25.0026,70.1349,16.5471],[25.0036,70.1318,12.6375],[24.9995,70.1276,12.9844],[24.9922,70.1266,4.622],[24.9839,70.1203,8.5529],[24.9854,70.1188,34.7831],[24.9932,70.1182,19.6097],[24.988,70.113,14.9371],[24.9911,70.112,34.6992],[24.9901,70.1088,17.5827],[24.9932,70.1068,43.8713],[24.987,70.1026,9.0285],[24.9797,70.1016,0.0],[24.9854,70.0979,0.0],[24.9932,70.0974,37.231],[24.9901,70.0953,10.8458],[24.9917,70.0938,0.0],[24.9979,70.0938,2.0538],[25.0021,70.0917,0.0],[25.0146,70.0917,21.8281],[25.0271,70.0875,0.0],[25.0349,70.087,4.6209],[25.0339,70.0839,0.0],[25.0349,70.0818,0.0],[25.0276,70.0745,0.0],[25.0286,70.0714,2.3276],[25.0255,70.0682,0.0],[25.0307,70.063,1.6399],[25.025,70.0583,4.1322],[25.0208,70.0583,2.0151],[25.0167,70.0563,1.6212],[25.0063,70.0563,0.0],[25.0021,70.0542,0.0],[24.9938,70.0542,1.9526],[24.9859,70.0589,0.0],[24.9974,70.0703,0.0],[24.9849,70.0766,0.0],[24.9688,70.0792,1.3422],[24.9646,70.0813,0.0],[24.9562,70.0813,0.7645],[24.95,70.0792,1.9213],[24.9458,70.0813,1.1936],[24.9313,70.0813,1.42],[24.9271,70.0792,0.0],[24.9208,70.0792,1.8281],[24.9151,70.0818,3.7743],[24.9161,70.0849,0.0],[24.9109,70.088,46.113],[24.912,70.0911,26.2703],[24.9089,70.0932,30.9131],[24.912,70.0964,23.2998],[24.9109,70.0995,28.7748],[24.9182,70.1005,0.0],[24.9151,70.1036,17.767],[24.9224,70.1047,0.0],[24.9193,70.1068,0.5715],[24.9224,70.1099,0.0],[24.9193,70.112,4.7765],[24.9224,70.1151,0.6639],[24.9214,70.1182,0.0],[24.9224,70.1203,0.0],[24.9151,70.1234,41.3401],[24.9182,70.1266,0.0],[24.9151,70.1276,60.3549],[24.9161,70.1307,39.509],[24.913,70.1318,85.9175],[24.9203,70.1349,0.0],[24.9068,70.1422,19.0404],[24.912,70.1474,1.2991],[24.9042,70.1479,4.3143],[24.9026,70.1495,4.4293],[24.9063,70.1521,0.0],[24.9224,70.1547,0.0],[24.9266,70.1589,0.0],[24.9234,70.162,1.714],[24.9297,70.1661,0.0],[24.9599,70.1713,0.0],[24.9557,70.1745,18.8506],[24.9484,70.1755,22.0437],[24.9495,70.1787,15.5066],[24.9417,70.1792,12.6877],[24.9276,70.1839,0.9821],[24.9286,70.187,1.2793],[24.9255,70.1891,2.1749],[24.9307,70.1932,0.0],[24.925,70.1958,0.5691],[24.9188,70.1958,1.5546],[24.9172,70.1974,3.8944],[24.9255,70.2037,0.0],[24.9375,70.2042,0.0],[24.9411,70.2068,0.0],[24.938,70.2089,9.5377],[24.9411,70.212,0.0],[24.938,70.2141,7.1166],[24.9411,70.2172,0.0],[24.9401,70.2203,0.0],[24.9474,70.2286,0.0],[24.9417,70.2292,0.0],[24.9401,70.2307,0.0],[24.9708,70.2375,0.0],[24.9792,70.2417,11.072],[24.9896,70.2417,0.0],[24.9943,70.2453,10.7127],[25.0042,70.2479,8.7182],[25.0146,70.2479,0.0],[25.0245,70.2505,0.0],[25.0349,70.2589,0.6011],[25.0339,70.262,5.7166],[25.0354,70.2625,14.8902],[25.0417,70.2604,0.0],[25.0745,70.2609,-0.0823],[25.0786,70.263,0.0],[25.0755,70.2662,16.1007],[25.0979,70.2708,0.0],[25.1047,70.2745,0.0],[25.112,70.2755,0.0],[25.1161,70.2797,0.0],[25.113,70.2828,17.2579],[25.1161,70.2849,0.0],[25.1083,70.2854,13.4811],[25.1068,70.287,15.8612],[25.1141,70.288,0.0],[25.1188,70.2917,-0.2375],[25.1292,70.2875,19.542],[25.1437,70.2875,0.0],[25.15,70.2896,5.0887],[25.1563,70.2875,0.0],[25.1661,70.2901,0.0],[25.1724,70.2943,8.594],[25.1745,70.2974,0.0],[25.1714,70.2995,0.0],[25.1734,70.3016,15.16],[25.1792,70.3021,0.0],[25.1807,70.3037,0.0],[25.1672,70.312,27.6526],[25.1729,70.3146,3.2377],[25.1786,70.3151,0.0],[25.1828,70.3203,0.0],[25.1667,70.3292,2.5311],[25.1563,70.3292,37.7497],[25.15,70.3313,43.9168],[25.1458,70.3292,96.2797],[25.1292,70.3292,41.8324],[25.1063,70.3229,34.897],[25.0958,70.3229,0.0],[25.0917,70.3208,0.0],[25.0875,70.3208,0.0],[25.0828,70.3172,7.7195],[25.075,70.3167,0.0],[25.0708,70.3146,3.2738],[25.0646,70.3146,7.363],[25.0547,70.3193,0.0],[25.0563,70.3208,0.3061],[25.0703,70.3234,0.0],[25.0786,70.3297,0.0],[25.0734,70.3349,13.0385],[25.0786,70.3401,4.0828],[25.0776,70.3432,19.0925],[25.0797,70.3453,9.9694],[25.0953,70.3484,0.0],[25.1026,70.3536,0.0],[25.1099,70.3547,-0.5],[25.1141,70.3599,-0.1701],[25.1042,70.3604,-0.2904],[25.1,70.3583,5.7914],[25.0958,70.3583,3.8256],[25.0896,70.3542,27.9602],[25.0734,70.3516,0.0],[25.0688,70.3479,20.7356],[25.0625,70.35,0.5114],[25.0521,70.35,1.1973],[25.0464,70.3536,-0.3575],[25.0505,70.3578,-0.7252],[25.0604,70.3604,0.0],[25.0667,70.3604,0.0],[25.0708,70.3625,-0.1369],[25.0891,70.363,0.0],[25.0953,70.3693,0.0],[25.0943,70.3724,0.0],[25.0984,70.3766,7.3377],[25.1042,70.3771,0.0],[25.1099,70.3797,0.0],[25.1068,70.3828,4.3772],[25.1141,70.3839,0.0],[25.1297,70.3974,32.5827],[25.1391,70.3984,0.0],[25.1458,70.4042,18.6773],[25.1563,70.4042,0.0],[25.1604,70.4063,11.9728],[25.1729,70.4063,0.0],[25.1792,70.4083,13.7378],[25.1828,70.4057,0.0],[25.1818,70.4026,2.291],[25.1849,70.4005,0.0],[25.1755,70.3932,9.0679],[25.1771,70.3917,14.5766],[25.1917,70.3917,0.0],[25.1958,70.3938,10.326],[25.2042,70.3938,-0.046],[25.213,70.388,12.1682],[25.2229,70.3875,0.0],[25.2276,70.3912,7.6787],[25.237,70.3922,4.1632],[25.2411,70.3964,15.4181],[25.238,70.3995,3.0095],[25.2453,70.4047,2.1991],[25.2391,70.4099,6.0492],[25.225,70.4104,13.7707],[25.2208,70.4125,2.1342],[25.1958,70.4125,21.3285],[25.1917,70.4146,0.0],[25.1833,70.4125,22.4419],[25.1734,70.4151,28.0505],[25.1651,70.4203,3.4965],[25.1734,70.4266,7.294],[25.1891,70.4297,0.0],[25.1938,70.4333,13.0129],[25.2016,70.4339,0.0],[25.2089,70.4411,4.3207],[25.2182,70.4422,0.3372],[25.2203,70.4453,0.0],[25.2172,70.4474,4.9405],[25.2234,70.4516,0.0],[25.2307,70.4526,0.0],[25.2349,70.4568,0.0],[25.2339,70.4599,-0.2986],[25.2521,70.4604,0.0],[25.2568,70.4641,0.4829],[25.2724,70.4672,4.8898],[25.2708,70.4688,0.0],[25.25,70.4688,0.1101],[25.2458,70.4667,3.9585],[25.2313,70.4667,2.6167],[25.2276,70.4693,-0.3207],[25.2286,70.4724,0.4461],[25.2255,70.4734,6.8317],[25.2266,70.4766,11.3607],[25.2167,70.4792,16.7686],[25.2021,70.4792,18.0645],[25.1979,70.4771,83.1731],[25.175,70.4771,1.8643],[25.1708,70.475,46.335],[25.1333,70.475,0.0],[25.1292,70.4729,36.8338],[25.1208,70.4729,19.7063],[25.1146,70.475,0.0],[25.1104,70.4729,17.2608],[25.1,70.4729,5.1462],[25.0958,70.4708,28.9684],[25.0771,70.4729,1.0698],[25.0693,70.4786,0.0],[25.0714,70.4807,3.8889],[25.0771,70.4812,0.0],[25.0786,70.4828,10.1135],[25.0724,70.487,0.0],[25.063,70.488,-0.0787],[25.0651,70.4912,-0.1429],[25.0745,70.4922,4.179],[25.0766,70.4943,0.3841],[25.0734,70.4964,1.6229],[25.075,70.4979,0.2175],[25.0833,70.4979,-0.1153],[25.0875,70.4958,0.0],[25.1,70.4958,5.8023],[25.1146,70.4917,0.0],[25.1208,70.4938,4.6236],[25.1292,70.4938,30.018],[25.1333,70.4917,0.0],[25.1771,70.4917,0.0],[25.1813,70.4938,36.9624],[25.1875,70.4938,0.0],[25.1917,70.4958,18.3432],[25.2021,70.4958,0.0],[25.2203,70.5005,0.0],[25.2391,70.5151,3.4783],[25.2359,70.5182,45.5026],[25.2391,70.5203,16.6426],[25.2229,70.525,8.2905],[25.2021,70.525,8.7455],[25.1979,70.5229,132.3897],[25.1875,70.5229,122.3046],[25.1813,70.5188,355.19],[25.1563,70.5188,86.7416],[25.1521,70.5167,265.2056],[25.1354,70.5167,105.7467],[25.1312,70.5146,230.7237],[25.0854,70.5146,1.3201],[25.0797,70.5182,-0.4069],[25.0875,70.5229,0.0],[25.1057,70.5234,1.9313],[25.1042,70.525,4.7581],[25.0964,70.5255,2.6204],[25.0943,70.5276,0.0],[25.0979,70.5313,2.9775],[25.1083,70.5313,0.0],[25.1146,70.5354,0.0],[25.1333,70.5354,0.0],[25.1432,70.538,0.0],[25.1479,70.5417,0.0],[25.1599,70.5422,0.0],[25.1589,70.5453,0.0],[25.1745,70.5484,0.0],[25.1792,70.5521,14.0289],[25.187,70.5526,0.0],[25.1901,70.5557,0.0],[25.1974,70.5568,0.0],[25.2021,70.5604,36.8511],[25.2208,70.5604,0.0],[25.2391,70.5651,0.0],[25.2359,70.5672,15.1287],[25.2411,70.5714,16.694],[25.238,70.5745,12.789],[25.2453,70.5755,0.0],[25.2443,70.5787,4.6499],[25.2495,70.5839,7.0356],[25.2484,70.587,7.6372],[25.2505,70.5891,0.0],[25.2604,70.5917,5.5796],[25.2687,70.5896,0.0],[25.2729,70.5917,10.3785],[25.2833,70.5917,0.0],[25.2875,70.5938,0.0],[25.2938,70.5938,0.0],[25.2984,70.5974,17.5559],[25.3057,70.5984,0.0],[25.313,70.6036,16.0546],[25.3203,70.6047,0.0],[25.3255,70.6099,185.2076],[25.3349,70.6109,0.0],[25.3484,70.6224,47.4116],[25.3557,70.6234,0.0],[25.3578,70.6255,18.437],[25.3563,70.6271,61.3212],[25.3479,70.6271,0.0],[25.3417,70.625,75.7905],[25.338,70.6286,0.0],[25.3646,70.6354,0.0],[25.3708,70.6354,0.0],[25.3745,70.638,33.5253],[25.3651,70.6453,0.0],[25.3771,70.6458,0.0],[25.3813,70.6479,35.736],[25.3917,70.6479,0.0],[25.3984,70.6516,21.9859],[25.4057,70.6526,0.0],[25.4099,70.6578,0.0],[25.3964,70.6651,29.379],[25.3943,70.6682,0.0],[25.3964,70.6703,0.0],[25.4125,70.6687,0.0],[25.4167,70.6708,16.049],[25.425,70.6708,3.5945],[25.4292,70.6687,0.0],[25.4375,70.6687,0.0],[25.4417,70.6708,8.7415],[25.4583,70.6708,0.0],[25.4625,70.6729,0.0],[25.4688,70.6729,0.0],[25.4734,70.6766,0.0],[25.4807,70.6776,0.0],[25.5005,70.6932,2.4332],[25.5125,70.6937,0.0],[25.5182,70.6964,0.0],[25.5203,70.6995,0.0],[25.5172,70.7016,2.8919],[25.5234,70.7057,0.0],[25.5396,70.7063,23.8019],[25.5458,70.7042,0.0],[25.5494,70.7067,23.8641],[25.5432,70.7068,47.5795],[25.5444,70.7113,111.7876],[25.5309,70.7117,130.1616],[25.5321,70.7162,154.7645],[25.5186,70.7166,121.2717],[25.5199,70.7211,101.0119],[25.5064,70.7215,89.1185],[25.5076,70.726,121.6804],[25.4806,70.7267,140.6397],[25.4818,70.7312,144.1685],[25.4413,70.7324,131.8067],[25.4425,70.7369,155.0286],[25.402,70.738,147.4761],[25.403199999999998,70.7425,141.9266],[25.3761,70.7433,183.3559],[25.3773,70.7478,212.4543],[25.3368,70.7489,267.7212],[25.338,70.7534,290.1929],[25.2974,70.7545,284.3088],[25.2951,70.7455,289.1238],[25.2815,70.7459,279.8557],[25.2804,70.7414,304.298],[25.2669,70.7418,280.1318],[25.2645,70.7328,307.4189],[25.251,70.7331,281.3969],[25.2499,70.7286,309.9978],[25.2364,70.729,300.9275],[25.234,70.72,302.2093],[25.2205,70.7204,371.9856],[25.2194,70.7159,333.9252],[25.2059,70.7162,350.8211],[25.2036,70.7073,370.6834],[25.1901,70.7076,409.6513],[25.189,70.7031,441.1824],[25.1755,70.7035,405.2358],[25.1732,70.6945,406.2518],[25.1597,70.6949,405.7617],[25.1586,70.6904,401.5505],[25.1451,70.6907,380.7252],[25.1428,70.6817,389.3063],[25.1293,70.6821,380.619],[25.1282,70.6776,390.626],[25.1147,70.678,376.6299],[25.1125,70.669,416.0446],[25.099,70.6693,406.7991],[25.0979,70.6648,391.8105],[25.0844,70.6652,438.4445],[25.0822,70.6562,403.4393],[25.0687,70.6565,471.2718],[25.0676,70.6521,423.4909],[25.0541,70.6524,467.7566],[25.0519,70.6434,391.2225],[25.0385,70.6438,508.1334],[25.0374,70.6393,461.5956],[25.0239,70.6396,499.1891],[25.0217,70.6306,506.6065],[25.0083,70.631,498.7201],[25.0072,70.6265,542.0627],[24.9937,70.6268,520.5334],[24.9915,70.6179,503.576],[24.9781,70.6182,601.4746],[24.977,70.6137,465.9579],[24.9636,70.6141,537.3132],[24.9603,70.6006,321.9837],[24.9469,70.6009,395.4724],[24.9447,70.5919,277.5674],[24.9313,70.5923,322.257],[24.9291,70.5833,262.9948],[24.9157,70.5836,271.733],[24.9125,70.5701,205.8249],[24.899,70.5705,255.4146],[24.8969,70.5615,172.7339],[24.8835,70.5618,169.181],[24.8814,70.5528,103.1228],[24.868,70.5532,80.8074],[24.8658,70.5442,116.8388],[24.8524,70.5445,152.6365],[24.8514,70.54,171.7442],[24.838,70.5404,197.646],[24.8359,70.5314,221.4367],[24.8225,70.5317,235.9439],[24.8214,70.5272,268.94],[24.8081,70.5275,279.2932],[24.806,70.5185,227.8864],[24.7926,70.5189,243.9457],[24.7915,70.5144,222.564],[24.778199999999998,70.5147,252.7271],[24.7761,70.5057,241.7429],[24.7627,70.5061,249.2636],[24.7617,70.5016,278.0413],[24.7483,70.5019,298.0722],[24.7462,70.4929,296.0822],[24.7329,70.4932,298.1644],[24.7318,70.4887,287.4558],[24.7185,70.4891,287.1708],[24.7164,70.4801,297.8122],[24.7031,70.4804,305.0866],[24.702,70.4759,294.8474],[24.6887,70.4762,287.3335],[24.6815,70.4448,249.3098],[24.6682,70.4451,248.7713],[24.6672,70.4406,258.7536],[24.6805,70.4403,233.3338],[24.6795,70.4358,227.4439],[24.6928,70.4354,210.8058],[24.6918,70.4309,209.1671],[24.7051,70.4306,219.4791],[24.7041,70.4261,220.9215],[24.7174,70.4258,256.796],[24.7164,70.4213,288.919],[24.7297,70.421,329.0311],[24.7266,70.4075,336.7553],[24.7133,70.4078,330.6172],[24.7123,70.4033,274.289],[24.699,70.4036,233.4466],[24.697,70.3946,218.1913],[24.6837,70.395,233.8229],[24.6816,70.386,254.7366],[24.6683,70.3863,254.6904],[24.6663,70.3773,262.2413],[24.653,70.3776,266.543],[24.651,70.3686,361.9364],[24.6377,70.369,306.0621],[24.6367,70.3645,412.269],[24.6234,70.3648,292.4038],[24.6224,70.3603,389.5665],[24.5959,70.3609,279.1533],[24.5949,70.3564,281.1851],[24.5816,70.3568,297.4434],[24.5806,70.3523,299.5197],[24.5541,70.3529,320.9436],[24.5531,70.3484,317.6744],[24.5398,70.3487,336.2537],[24.5388,70.3442,399.8156],[24.5123,70.3449,413.8214],[24.5113,70.3404,466.015],[24.4981,70.3407,455.9453],[24.4971,70.3362,509.1484],[24.4838,70.3365,475.4988],[24.48,70.3185,360.5114],[24.4667,70.3188,340.517],[24.4648,70.3098,415.4894],[24.4515,70.3101,417.3073],[24.4486,70.2966,392.1657],[24.4354,70.2969,408.1957],[24.4335,70.2879,393.467],[24.4203,70.2883,406.1656],[24.4174,70.2748,329.3466],[24.4042,70.2751,340.8813],[24.4023,70.2661,331.2376],[24.3891,70.2664,326.3067],[24.3862,70.2529,359.8605],[24.373,70.2532,371.0714],[24.3711,70.2442,339.9196],[24.3579,70.2445,335.5648],[24.3551,70.231,398.5412],[24.3419,70.2313,408.1892],[24.34,70.2223,355.1748],[24.3269,70.2226,352.6212],[24.3241,70.2091,388.8819],[24.3109,70.2094,419.2248],[24.309,70.2004,366.9637],[24.2958,70.2007,370.9321],[24.2931,70.1872,390.778],[24.2799,70.1875,382.2512],[24.2781,70.1785,375.0577],[24.2649,70.1788,372.1065],[24.2622,70.1653,458.353],[24.249,70.1656,475.7808],[24.2472,70.1566,338.9727],[24.234,70.1569,384.0052],[24.2313,70.1434,322.593],[24.2182,70.1437,382.3146],[24.2164,70.1347,317.4394],[24.2032,70.135,284.5692],[24.2005,70.1215,284.4353],[24.1874,70.1218,308.454],[24.1865,70.1173,319.5141],[24.1602,70.1179,328.799],[24.1593,70.1134,335.7683],[24.12,70.1143,379.7732],[24.1191,70.1098,388.933],[24.0797,70.1106,407.995],[24.0788,70.1061,433.8445],[24.0395,70.107,479.2056],[24.0386,70.1025,503.6546],[23.9993,70.1033,611.7296],[23.9984,70.0988,623.0401],[23.959,70.0997,684.5277],[23.9531,70.0682,557.3745],[23.94,70.0685,607.9943],[23.9358,70.046,584.0704],[23.9227,70.0462,615.5967],[23.9169,70.0147,666.1798],[23.9038,70.015,647.8412],[23.9005,69.997,635.6337],[23.9397,69.9962,561.2665],[23.9388,69.9917,539.4736],[23.991,69.9906,516.2324],[23.9902,69.9861,540.9625],[24.0293,69.9852,452.1829],[24.0285,69.9808,453.6086],[24.0676,69.9799,509.5652],[24.0685,69.9844,532.7934],[24.1076,69.9835,478.5436],[24.105,69.97,436.0765],[24.118,69.9698,416.9746],[24.1154,69.9563,419.8905],[24.1285,69.956,391.4286],[24.125,69.938,363.2838],[24.138,69.9377,372.4608],[24.1353,69.9242,399.9472],[24.1484,69.9239,434.7279],[24.1448,69.9059,385.7617],[24.1578,69.9056,407.9265],[24.1552,69.8921,384.3112],[24.1682,69.8918,384.904],[24.1647,69.8739,398.796],[24.1776,69.8736,403.9521],[24.175,69.8601,420.0161],[24.188,69.8598,417.1835],[24.1853,69.8463,443.0452],[24.1983,69.846,440.5508],[24.1947,69.828,445.0658],[24.2077,69.8277,418.972]]],
[[[25.0792,70.2229,11.5341],[25.0932,70.2255,0.0],[25.0995,70.2297,0.0],[25.1036,70.2349,-0.0954],[25.0938,70.2354,21.3731],[25.0807,70.2255,59.3422],[25.0771,70.225,45.3958],[25.0708,70.2271,8.351],[25.0672,70.2245,9.8589],[25.0729,70.2208,0.0],[25.0792,70.2229,11.5341]]],
[[[25.1255,70.241,7.8002],[25.1276,70.238,4.5451],[25.1312,70.2375,3.9144],[25.137,70.2401,7.071],[25.1411,70.2453,0.0],[25.1312,70.2458,15.9688],[25.1255,70.241,7.8002]]],
[[[25.0276,70.2422,0.0],[25.0333,70.2396,0.0],[25.037,70.2401,0.0],[25.0313,70.2438,0.0],[25.0276,70.2422,0.0]]],
[[[25.1214,70.3536,0.3027],[25.125,70.35,1.3174],[25.137,70.3526,0.0],[25.1333,70.3562,19.235],[25.125,70.3562,1.5635],[25.1214,70.3536,0.3027]]],
[[[25.1521,70.0958,0.0],[25.1484,70.0932,0.0],[25.1484,70.0922,0.0],[25.1557,70.0943,0.0],[25.1521,70.0958,0.0]]],
[[[25.187,70.1005,0.0],[25.1839,70.0964,0.0],[25.1891,70.0964,0.0],[25.1932,70.1016,0.0],[25.1896,70.1021,0.0],[25.187,70.1005,0.0]]],
[[[25.1724,70.1495,21.7161],[25.1693,70.1464,0.6961],[25.1729,70.1458,22.1891],[25.1786,70.1484,0.0],[25.1745,70.1516,2.9125],[25.1693,70.1516,24.9942],[25.1724,70.1495,21.7161]]],
[[[25.187,70.162,16.0113],[25.1833,70.1625,32.7026],[25.1818,70.1609,17.8488],[25.1854,70.1604,18.9953],[25.187,70.162,16.0113]]],
[[[25.1776,70.1932,7.0171],[25.1813,70.1896,17.4284],[25.1958,70.1896,0.0],[25.2016,70.1922,0.0],[25.1958,70.1958,27.553],[25.1875,70.1958,0.0],[25.1776,70.1932,7.0171]]],
[[[25.2016,70.2099,0.0],[25.1979,70.2104,0.0],[25.1964,70.2089,0.0],[25.2,70.2083,0.0],[25.2016,70.2099,0.0]]],
[[[25.187,70.2224,17.978],[25.1729,70.225,7.782],[25.1651,70.2172,16.7673],[25.175,70.2167,0.0],[25.1797,70.2203,11.7953],[25.1854,70.2208,0.0],[25.187,70.2224,17.978]]],
[[[25.1859,70.2255,23.7316],[25.1917,70.2229,25.0643],[25.1953,70.2234,29.8979],[25.1896,70.2271,17.3928],[25.1859,70.2255,23.7316]]],
[[[25.325,70.2875,7.1393],[25.3146,70.2875,34.5702],[25.3063,70.2917,9.6134],[25.2917,70.2917,27.1897],[25.2818,70.2891,32.7354],[25.2776,70.2849,14.9096],[25.2786,70.2818,43.1179],[25.2766,70.2797,56.876],[25.2609,70.2766,0.9861],[25.2526,70.2703,6.6323],[25.2557,70.2682,6.4448],[25.2547,70.2651,22.5512],[25.2557,70.263,18.2292],[25.2526,70.2589,17.3374],[25.2578,70.2557,88.6369],[25.2536,70.2505,68.9553],[25.2417,70.25,56.2263],[25.2339,70.2443,20.2941],[25.2396,70.2417,0.0],[25.2542,70.2417,0.0],[25.2641,70.2443,0.0],[25.2687,70.2479,0.0],[25.275,70.2479,0.0],[25.3099,70.2568,0.0],[25.3089,70.2599,51.0841],[25.3104,70.2604,17.0326],[25.3208,70.2604,0.0],[25.3307,70.263,0.0],[25.3349,70.2672,2.9942],[25.3339,70.2703,9.7273],[25.3453,70.2807,0.0],[25.338,70.2839,0.0],[25.3349,70.287,9.9538],[25.325,70.2875,7.1393]]],
[[[25.4016,70.2714,17.32],[25.4,70.2729,15.5096],[25.3896,70.275,0.6338],[25.3849,70.2714,46.7272],[25.3755,70.2703,2.303],[25.3734,70.2672,1.8417],[25.3896,70.2667,0.0],[25.3995,70.2693,0.3336],[25.4016,70.2714,17.32]]],
[[[25.4391,70.2724,0.0],[25.4354,70.2729,0.0],[25.4339,70.2714,0.0],[25.4375,70.2708,0.0],[25.4391,70.2724,0.0]]],
[[[25.4391,70.2911,14.1024],[25.4354,70.2917,0.8774],[25.4339,70.2901,0.0],[25.4375,70.2896,6.7588],[25.4391,70.2911,14.1024]]],
[[[25.4474,70.2932,3.7105],[25.4438,70.2937,12.1029],[25.4422,70.2922,26.3579],[25.4458,70.2917,2.0917],[25.4474,70.2932,3.7105]]],
[[[25.3729,70.2937,25.1723],[25.3688,70.2937,4.0051],[25.3672,70.2922,0.0],[25.3896,70.2917,0.0],[25.3932,70.2953,24.9858],[25.3771,70.2958,0.0],[25.3729,70.2937,25.1723]]],
[[[25.3307,70.3037,15.2865],[25.3271,70.3042,5.2593],[25.3255,70.3026,4.8629],[25.3292,70.3021,7.5481],[25.3307,70.3037,15.2865]]],
[[[25.2813,70.3979,0.0],[25.2776,70.3943,0.0],[25.2813,70.3938,0.0],[25.2849,70.3964,0.0],[25.2813,70.3979,0.0]]],
[[[25.2016,70.2276,12.0635],[25.1984,70.2255,23.3659],[25.2036,70.2255,0.0],[25.2078,70.2286,11.4465],[25.2042,70.2292,-0.1791],[25.2016,70.2276,12.0635]]],
[[[25.1859,70.3057,3.0634],[25.1896,70.3021,8.5698],[25.2042,70.3021,1.7442],[25.2099,70.3047,0.0],[25.212,70.3078,0.0],[25.2042,70.3104,19.2054],[25.1859,70.3057,3.0634]]],
[[[25.2771,70.3229,27.6259],[25.2734,70.3214,0.0],[25.2833,70.3208,0.0],[25.287,70.3245,7.8445],[25.2849,70.3266,13.6156],[25.2813,70.3271,6.2445],[25.2797,70.3266,12.918],[25.2807,70.3234,28.0811],[25.2771,70.3229,27.6259]]],
[[[25.2703,70.4797,15.9369],[25.2693,70.4776,8.6499],[25.2708,70.4771,8.6499],[25.2807,70.4776,0.0568],[25.2828,70.4797,0.0],[25.2797,70.4818,7.0042],[25.2818,70.4849,0.0],[25.2932,70.4891,0.0],[25.2833,70.4896,4.862],[25.2786,70.4859,13.3264],[25.2693,70.4849,0.0],[25.2724,70.4828,9.4598],[25.2703,70.4797,15.9369]]],
[[[25.3396,70.4979,0.6275],[25.3333,70.4979,14.0054],[25.3271,70.5,0.0],[25.3229,70.4979,11.9461],[25.3187,70.4979,0.0],[25.3172,70.4964,0.0],[25.3203,70.4943,3.4643],[25.3172,70.4922,0.8812],[25.3333,70.4917,0.0],[25.3411,70.4964,1.9235],[25.3396,70.4979,0.6275]]],
[[[25.8833,70.6896,0.0],[25.8651,70.7005,0.8541],[25.8682,70.7057,0.0],[25.8651,70.7078,9.9713],[25.8682,70.7099,4.903],[25.8625,70.7125,2.703],[25.8589,70.712,6.0525],[25.8542,70.7083,14.7],[25.8354,70.7083,6.4745],[25.8229,70.7042,7.2759],[25.8188,70.7042,0.0],[25.8104,70.7,9.0911],[25.7964,70.6974,21.2031],[25.7917,70.6937,28.4901],[25.7714,70.6932,0.0],[25.7729,70.6917,0.0],[25.7807,70.6911,11.0886],[25.7797,70.688,4.603],[25.7807,70.6859,7.1257],[25.7755,70.6797,1.4953],[25.7813,70.6792,19.829],[25.7828,70.6776,17.0389],[25.7755,70.6766,0.0],[25.7786,70.6734,2.4587],[25.7755,70.6713,0.0],[25.7813,70.6687,0.0],[25.7875,70.6687,0.0],[25.8021,70.6646,0.3915],[25.8167,70.6646,0.0],[25.8208,70.6667,3.4091],[25.8292,70.6667,1.3575],[25.8354,70.6646,0.0],[25.8401,70.6682,0.0],[25.8458,70.6687,0.0],[25.8516,70.6713,0.0],[25.8547,70.6745,2.1729],[25.8745,70.6797,0.0],[25.8714,70.6828,4.1646],[25.8771,70.6833,1.0291],[25.8828,70.6859,0.0],[25.8849,70.688,0.0],[25.8833,70.6896,0.0]]]]}
,"properties": {"GID_2": "NOR.5.15_1","GID_0": "NOR","country": "Norway","GID_1": "NOR.5_1","province": "Finnmark","NL_NAME_1": "NA","county": "Porsanger","VARNAME_2": "Porsáŋgu","NL_NAME_2": "NA","TYPE_2": "Kommuner","ENGTYPE_2": "Municipality","CC_2": "NA","HASC_2": "NO.FI.PO","name": "Porsanger.county","area_km2": 4857.203,"hist_schema_id": "Elevation0-9000","hist_area_km2": {"0": 65.27,"25": 106.031,"50": 127.294,"75": 150.948,"100": 147.835,"125": 156.551,"150": 168.799,"175": 174.651,"200": 168.946,"225": 178.754,"250": 171.48,"275": 195.22,"300": 242.359,"325": 284.258,"350": 275.719,"375": 272.8,"400": 223.535,"425": 191.058,"450": 169.992,"475": 157.563,"500": 167.176,"525": 175.947,"550": 171.98,"575": 157.362,"600": 124.049,"625": 87.783,"650": 65.182,"675": 51.954,"700": 45.296,"725": 36.831,"750": 29.816,"775": 24.493,"800": 19.65,"825": 17.107,"850": 14.275,"875": 10.306,"900": 7.734,"925": 6.288,"950": 4.87,"975": 3.664,"1000": 2.68,"1025": 1.929,"1050": 0.801,"1075": 0.488,"1100": 0.35,"1125": 0.131}}}