{"type":"Feature","properties":{"GID_2":"NOR.4.7_1","GID_0":"NOR","country":"Norway","GID_1":"NOR.4_1","province":"Buskerud","NL_NAME_1":"NA","county":"Hol","VARNAME_2":"NA","NL_NAME_2":"NA","TYPE_2":"Kommuner","ENGTYPE_2":"Municipality","CC_2":"NA","HASC_2":"NO.BU.HL","name":"Hol.county"},
"geometry":{"type": "MultiPolygon","coordinates": [[[[7.7842,60.8658,1487.0436],[7.7752,60.865,1490.7],[7.7769,60.8606,1516.7988],[7.7678,60.8598,1525.3331],[7.7695,60.8554,1614.3491],[7.7604,60.8545,1572.2849],[7.7638,60.8457,1544.1686],[7.7548,60.8449,1521.1344],[7.7565,60.8405,1508.6387],[7.7474,60.8397,1515.9635],[7.7525,60.8264,1435.0],[7.7435,60.8256,1435.0],[7.7469,60.8168,1435.0],[7.7378,60.816,1435.0],[7.7429,60.8027,1435.0],[7.7339,60.8019,1435.0],[7.7373,60.7931,1435.0],[7.7282,60.7923,1456.6664],[7.7351,60.7746,1483.079],[7.726,60.7738,1490.6422],[7.7294,60.765,1569.8333],[7.7204,60.7642,1595.5507],[7.7238,60.7554,1542.2],[7.7148,60.7545,1447.5],[7.7165,60.7501,1526.7046],[7.7074,60.7493,1600.2273],[7.7091,60.7449,1633.5582],[7.7001,60.744,1687.0663],[7.7018,60.7396,1714.6208],[7.6656,60.7363,1478.083],[7.6639,60.7407,1518.7615],[7.6458,60.739,1385.8065],[7.6441,60.7434,1466.9589],[7.626,60.7418,1387.1559],[7.6243,60.7462,1426.515],[7.6153,60.7453,1489.6],[7.617,60.7409,1356.7549],[7.608,60.7401,1321.6725],[7.6097,60.7357,1320.5972],[7.5916,60.734,1240.608],[7.5933,60.7296,1290.7377],[7.5843,60.7288,1198.5574],[7.586,60.7244,1181.1859],[7.5679,60.7227,1209.026],[7.5697,60.7183,1195.549],[7.5516,60.7166,1375.2882],[7.5533,60.7122,1411.9103],[7.5443,60.7113,1426.856],[7.546,60.7069,1497.4958],[7.528,60.7052,1483.9707],[7.5297,60.7008,1468.6459],[7.5207,60.7,1455.5503],[7.5224,60.6956,1564.4353],[7.5044,60.6939,1523.2133],[7.5061,60.6895,1582.8888],[7.488,60.6878,1661.813],[7.4898,60.6834,1712.9835],[7.4808,60.6826,1697.2628],[7.4825,60.6782,1694.3761],[7.4645,60.6765,1717.6821],[7.4662,60.6721,1632.2948],[7.4752,60.6729,1526.0665],[7.4769,60.6685,1404.6436],[7.495,60.6702,1357.8978],[7.4967,60.6658,1363.8157],[7.5147,60.6675,1342.2239],[7.5165,60.6631,1535.1589],[7.5255,60.6639,1515.5385],[7.5272,60.6595,1615.5547],[7.5453,60.6612,1620.1499],[7.547,60.6568,1694.7434],[7.556,60.6576,1647.5039],[7.5577,60.6532,1536.8336],[7.5667,60.6541,1503.0734],[7.5685,60.6497,1685.4962],[7.5775,60.6505,1542.9188],[7.5792,60.6461,1451.2014],[7.5882,60.6469,1449.0862],[7.5899,60.6425,1449.0752],[7.6079,60.6442,1707.5229],[7.6097,60.6398,1594.3862],[7.6187,60.6406,1529.8092],[7.6204,60.6362,1660.5814],[7.6294,60.6371,1649.455],[7.6345,60.6239,1764.7322],[7.6255,60.623,1790.9789],[7.6307,60.6098,1482.4823],[7.6217,60.609,1441.9681],[7.6251,60.6002,1311.9886],[7.6161,60.5993,1437.3682],[7.6315,60.5597,1334.8826],[7.6404,60.5605,1403.9711],[7.6439,60.5517,1216.519],[7.6529,60.5525,1186.0177],[7.6563,60.5437,1427.6086],[7.6652,60.5445,1249.9299],[7.6669,60.5401,1434.5663],[7.6759,60.541,1223.6292],[7.6776,60.5366,1367.4491],[7.6866,60.5374,1253.9863],[7.6883,60.533,1408.1155],[7.6973,60.5338,1370.6895],[7.699,60.5294,1431.0234],[7.708,60.5302,1383.1079],[7.7131,60.517,1433.3831],[7.7041,60.5162,1391.3319],[7.7092,60.503,1234.1895],[7.7002,60.5021,1241.658],[7.707,60.4845,1304.2527],[7.698,60.4837,1291.4487],[7.7031,60.4705,1181.0114],[7.6941,60.4696,1175.8555],[7.6992,60.4564,1176.5741],[7.6902,60.4556,1179.8347],[7.6953,60.4424,1248.7203],[7.6863,60.4415,1323.6554],[7.6931,60.4239,1286.6582],[7.6841,60.4231,1231.3595],[7.6909,60.4054,1146.5544],[7.6998,60.4063,1127.4794],[7.7032,60.3974,1127.4684],[7.7122,60.3983,1127.3011],[7.7138,60.3939,1127.9615],[7.7228,60.3947,1127.2822],[7.7262,60.3859,1127.538],[7.7351,60.3867,1127.4572],[7.7368,60.3823,1127.4908],[7.7457,60.3831,1130.2893],[7.7474,60.3787,1127.5623],[7.7564,60.3796,1127.3608],[7.758,60.3752,1127.4595],[7.767,60.376,1127.4285],[7.7687,60.3716,1127.2954],[7.8313,60.3773,1159.0724],[7.8296,60.3818,1115.2561],[7.9012,60.3883,1234.3898],[7.8995,60.3927,1224.1841],[7.9622,60.3984,1220.0264],[7.9638,60.394,1261.8333],[7.9728,60.3948,1203.5956],[7.9744,60.3904,1251.2108],[7.9923,60.3921,1191.4496],[7.994,60.3877,1199.2129],[8.0029,60.3885,1185.249],[8.0046,60.3841,1220.4108],[8.0225,60.3857,1166.3872],[8.0241,60.3813,1179.7982],[8.042,60.3829,1203.4462],[8.0437,60.3785,1271.4073],[8.0526,60.3793,1362.4907],[8.0543,60.3749,1325.3732],[8.0453,60.3741,1292.8344],[8.0486,60.3652,1210.5829],[8.0396,60.3644,1258.4138],[8.0413,60.36,1247.4664],[8.0323,60.3592,1271.4271],[8.0356,60.3504,1189.2762],[8.0446,60.3512,1254.9348],[8.0462,60.3468,1100.5093],[8.0641,60.3484,1055.1064],[8.0624,60.3528,1069.821],[8.0714,60.3536,1036.5839],[8.0698,60.358,1046.8008],[8.0966,60.3604,1022.2173],[8.095,60.3649,1023.3039],[8.1129,60.3665,1001.6476],[8.1145,60.3621,983.2427],[8.1234,60.3629,970.9558],[8.1251,60.3584,997.41],[8.1161,60.3576,1029.9562],[8.1177,60.3532,1011.0506],[8.1088,60.3524,1046.1172],[8.1104,60.348,1022.4099],[8.1283,60.3496,1078.0577],[8.1299,60.3452,1112.3536],[8.1389,60.346,1141.5421],[8.1405,60.3416,1152.5071],[8.1673,60.344,1182.7286],[8.1657,60.3484,1219.8284],[8.2104,60.3524,1130.072],[8.2088,60.3568,1132.3535],[8.2267,60.3584,1180.264],[8.2283,60.354,1174.7041],[8.2999,60.3604,1187.8079],[8.2967,60.3692,1212.7065],[8.3863,60.3771,1051.7627],[8.3847,60.3815,998.2847],[8.4295,60.3854,1113.1639],[8.4279,60.3898,1012.0845],[8.4548,60.3922,1015.7047],[8.4532,60.3966,946.5057],[8.4801,60.3989,1000.2245],[8.4785,60.4033,929.045],[8.5054,60.4057,906.8677],[8.507,60.4013,1016.0372],[8.5339,60.4036,911.4475],[8.5355,60.3992,931.0066],[8.5534,60.4007,930.8408],[8.5518,60.4051,905.4366],[8.5698,60.4067,967.7659],[8.5666,60.4155,823.1675],[8.5756,60.4163,854.0195],[8.5725,60.4251,785.5826],[8.5814,60.4259,785.7797],[8.5799,60.4303,798.0272],[8.6068,60.4327,752.475],[8.6052,60.4371,766.5674],[8.6232,60.4386,747.5],[8.6216,60.443,747.5],[8.6127,60.4423,747.5],[8.6111,60.4467,747.5],[8.6021,60.4459,747.5],[8.6005,60.4503,747.5],[8.5916,60.4496,747.5],[8.59,60.454,747.5],[8.581,60.4532,763.8876],[8.5779,60.462,747.5],[8.5689,60.4613,747.5],[8.5673,60.4657,747.5],[8.5583,60.4649,747.5],[8.5552,60.4737,747.5],[8.5462,60.473,747.5],[8.5446,60.4774,747.5],[8.4997,60.4735,790.3466],[8.4981,60.4779,747.5],[8.4801,60.4764,779.0494],[8.4785,60.4808,949.4587],[8.4695,60.48,901.8386],[8.4679,60.4844,1050.6168],[8.405,60.4789,1086.3616],[8.4066,60.4745,1060.0769],[8.3887,60.473,1105.2347],[8.3903,60.4685,1043.8331],[8.3813,60.4678,1048.4623],[8.3781,60.4766,1092.1727],[8.3691,60.4758,1086.5227],[8.3627,60.4935,1020.4918],[8.3537,60.4927,1082.8385],[8.3457,60.5148,1045.7056],[8.3547,60.5155,1060.4539],[8.3498,60.5288,1081.8865],[8.3588,60.5296,1105.0586],[8.3556,60.5384,1066.3235],[8.3646,60.5392,1065.1703],[8.3662,60.5348,1067.7764],[8.4022,60.5379,1073.9265],[8.4006,60.5423,1075.6339],[8.4096,60.5431,1098.1803],[8.408,60.5475,1097.1967],[8.4171,60.5483,1120.718],[8.4155,60.5527,1095.4338],[8.4064,60.552,1103.5594],[8.4048,60.556399999999996,1055.6566],[8.3958,60.5556,1064.1454],[8.3942,60.56,1001.8672],[8.3852,60.5592,1047.571],[8.382,60.5681,852.3702],[8.391,60.5688,684.6384],[8.3894,60.5733,551.5756],[8.3984,60.574,499.5077],[8.3968,60.5785,450.1998],[8.4058,60.5792,478.4348],[8.4026,60.5881,764.1602],[8.4117,60.5889,835.0441],[8.4068,60.6021,1033.5186],[8.4159,60.6029,1032.6952],[8.4095,60.6206,1124.3357],[8.4004,60.6198,1104.3165],[8.3988,60.6242,1028.0787],[8.3898,60.6234,1046.7925],[8.3882,60.6278,961.3792],[8.3792,60.627,979.6241],[8.3759,60.6359,951.4075],[8.3669,60.6351,937.1698],[8.3637,60.6439,1067.2758],[8.3547,60.6431,1043.3463],[8.3514,60.652,1009.2629],[8.3424,60.6512,1030.1766],[8.3408,60.6556,981.7188],[8.3318,60.6548,1012.9199],[8.3301,60.6592,983.4421],[8.3121,60.6576,1037.0505],[8.3105,60.662,1010.792],[8.2833,60.6597,1047.368],[8.2817,60.6641,988.049],[8.2637,60.6625,1010.8779],[8.2506,60.6978,1019.5],[8.2416,60.697,1019.5],[8.2399,60.7014,1019.5],[8.2038,60.6982,1070.2094],[8.2021,60.7027,1084.209],[8.1931,60.7019,1109.6696],[8.1915,60.7063,1076.1294],[8.1643,60.7039,1089.3713],[8.161,60.7127,1094.2289],[8.152,60.7119,1093.2543],[8.1487,60.7207,1098.0243],[8.1397,60.7199,1094.8833],[8.1413,60.7155,1085.0614],[8.1232,60.7139,1084.5488],[8.1183,60.7271,1088.9374],[8.1092,60.7263,1088.4805],[8.1043,60.7396,1088.7075],[8.0862,60.738,1087.8086],[8.0845,60.7424,1087.7979],[8.0664,60.7408,1090.0969],[8.0631,60.7496,1087.3499],[8.0721,60.7504,1097.3036],[8.0688,60.7592,1088.6847],[8.0507,60.7576,1088.5635],[8.049,60.762,1087.4999],[8.04,60.7612,1094.3604],[8.0383,60.7656,1089.8696],[8.0202,60.764,1118.4935],[8.0135,60.7816,1099.9556],[8.0045,60.7808,1091.0331],[7.9995,60.7941,1086.7645],[7.9904,60.7932,1086.5991],[7.987,60.8021,1086.8134],[7.9689,60.8004,1087.4717],[7.9672,60.8048,1088.9738],[7.9491,60.8032,1097.4113],[7.9474,60.8076,1087.858],[7.9384,60.8068,1088.476],[7.935,60.8156,1169.6268],[7.9259,60.8148,1170.3041],[7.9209,60.828,1178.1122],[7.9299,60.8289,1232.6997],[7.9266,60.8377,1230.6742],[7.9175,60.8369,1173.5],[7.9158,60.8413,1173.5],[7.8977,60.8396,1418.3773],[7.8994,60.8352,1445.2078],[7.8903,60.8344,1465.858],[7.892,60.83,1597.1006],[7.8829,60.8292,1591.024],[7.8812,60.8336,1602.0531],[7.8721,60.8328,1609.8362],[7.8704,60.8372,1565.2379],[7.8614,60.8363,1602.9816],[7.858,60.8452,1715.915],[7.8489,60.8443,1667.3075],[7.8472,60.8488,1589.1675],[7.8381,60.8479,1646.9612],[7.8364,60.8523,1518.6454],[7.8274,60.8515,1573.3506],[7.8257,60.8559,1618.5956],[7.8166,60.8551,1602.37],[7.8149,60.8595,1537.3767],[7.8058,60.8587,1553.9153],[7.8041,60.8631,1489.863],[7.795,60.8623,1486.8964],[7.7933,60.8667,1491.8013],[7.7842,60.8658,1487.0436]]]]}}