{"type": "Feature","bbox": [6.7382,60.4744,7.699,60.7441],"geometry": {"type": "MultiPolygon","coordinates": [[[[7.6973,60.5338,1370.6895],[7.6883,60.533,1408.1155],[7.69,60.5286,1395.7639],[7.699,60.5294,1431.0234],[7.6973,60.5338,1370.6895]]],
[[[7.4752,60.6729,1526.0665],[7.4572,60.6712,1556.6377],[7.4554,60.6756,1702.1389],[7.4284,60.6731,1580.1135],[7.4266,60.6775,1499.6808],[7.4086,60.6758,1519.6633],[7.4069,60.6802,1482.8527],[7.3798,60.6776,1452.5001],[7.3781,60.682,1483.2072],[7.36,60.6803,1486.1095],[7.3583,60.6847,1493.1198],[7.3312,60.6821,1549.5775],[7.3277,60.6909,1469.007],[7.3187,60.6901,1559.5164],[7.3169,60.6945,1492.0911],[7.2899,60.6919,1536.2698],[7.2881,60.6963,1420.6733],[7.2701,60.6946,1415.6725],[7.2683,60.699,1348.2573],[7.2412,60.6964,1356.8761],[7.2395,60.7008,1329.4772],[7.2124,60.6982,1088.9431],[7.2106,60.7026,960.4016],[7.1746,60.6991,1494.4795],[7.1763,60.6947,1532.2477],[7.1403,60.6913,1572.8885],[7.1385,60.6957,1607.4233],[7.1205,60.6939,1587.6802],[7.1187,60.6983,1253.6951],[7.1097,60.6974,1461.1104],[7.1061,60.7062,1412.5079],[7.0971,60.7054,1372.1696],[7.0935,60.7142,1465.0001],[7.0213,60.7072,1270.6802],[7.0195,60.7116,1176.5145],[7.0105,60.7107,1050.9508],[7.0087,60.7151,917.6036],[6.9907,60.7133,820.7507],[6.978,60.7441,1373.5929],[6.96,60.7423,1334.9825],[6.9672,60.7248,1277.493],[6.9582,60.7239,1326.7637],[6.9618,60.7151,1180.1611],[6.9528,60.7142,1209.3608],[6.9582,60.701,758.8166],[6.9312,60.6984,728.8086],[6.933,60.694,995.2782],[6.924,60.6931,1151.6829],[6.9276,60.6843,1197.2314],[6.9186,60.6834,1257.2634],[6.9204,60.679,1334.7244],[6.9114,60.6781,1306.6324],[6.9096,60.6825,1235.9243],[6.9006,60.6816,1140.2596],[6.8988,60.686,1097.5963],[6.8808,60.6843,694.192],[6.8826,60.6799,745.2921],[6.8376,60.6754,820.3289],[6.8412,60.6666,842.2119],[6.8502,60.6675,866.574],[6.8575,60.6499,1229.4835],[6.8485,60.649,1220.3074],[6.8503,60.6446,1250.8756],[6.8413,60.6438,1235.036],[6.845,60.635,1368.9987],[6.836,60.6341,1368.9038],[6.8414,60.6209,1391.0179],[6.8325,60.62,1152.0934],[6.8343,60.6156,1262.201],[6.8163,60.6138,820.5062],[6.8199,60.605,627.4111],[6.8289,60.6059,855.6483],[6.8308,60.6015,850.9438],[6.8397,60.6024,1028.8849],[6.8416,60.598,500.9763],[6.8146,60.5954,350.0709],[6.8183,60.5866,446.0688],[6.8272,60.5875,828.2445],[6.8309,60.5787,917.4845],[6.8219,60.5778,885.26],[6.8255,60.569,1015.6953],[6.8166,60.5681,992.0101],[6.8202,60.5593,779.4054],[6.8112,60.5584,774.3401],[6.8167,60.5452,583.1522],[6.8077,60.5443,545.0383],[6.8132,60.5312,637.5042],[6.8042,60.5303,611.446],[6.8078,60.5215,808.9901],[6.7989,60.5206,838.4315],[6.8025,60.5118,937.5979],[6.7846,60.51,696.5706],[6.7864,60.5056,693.2558],[6.7775,60.5047,613.222],[6.7793,60.5003,675.4417],[6.7614,60.4985,773.9514],[6.7632,60.4942,863.1198],[6.7453,60.4924,1010.5694],[6.7471,60.488,1104.0996],[6.7382,60.4871,1064.3699],[6.74,60.4827,1102.5802],[6.7489,60.4836,1023.5656],[6.752,60.4885,1103.3652],[6.774,60.4907,950.3003],[6.7776,60.4819,693.5493],[6.7866,60.4828,561.682],[6.79,60.4744,33.789],[6.8229,60.4813,0.0],[6.8255,60.4849,43.8152],[6.8313,60.4854,0.0],[6.8417,60.4896,93.4012],[6.8458,60.4875,0.0],[6.8542,60.4875,0.0],[6.8583,60.4896,3.2936],[6.8625,60.4875,0.0],[6.8708,60.4875,0.0],[6.8771,60.4833,0.0],[6.8813,60.4854,0.0],[6.8891,60.4859,0.0],[6.8932,60.488,0.0],[6.8964,60.4974,51.4477],[6.9036,60.4984,0.0],[6.9068,60.5057,0.0],[6.9099,60.5068,0.0],[6.9109,60.512,0.0],[6.913,60.5141,0.0],[6.9203,60.5151,0.0],[6.9203,60.5182,0.0],[6.9172,60.5193,0.0],[6.9188,60.5229,0.0],[6.9182,60.5266,0.0],[6.9151,60.5276,0.0],[6.9151,60.5307,0.0],[6.9208,60.5292,0.0],[6.9307,60.5297,0.0],[6.937,60.5339,0.0],[6.938,60.537,0.0],[6.9516,60.5443,0.0],[6.9547,60.5495,0.0],[6.9604,60.55,0.0],[6.9703,60.5547,0.0],[6.9734,60.5578,0.0],[6.9807,60.5609,0.0],[6.9818,60.5661,0.0],[6.987,60.5672,0.0],[6.9911,60.5693,0.0],[6.9922,60.5724,99.2775],[6.9995,60.5734,0.0],[7.0083,60.5792,0.0],[7.0141,60.5786,0.0],[7.0141,60.5734,100.6524],[7.0047,60.5724,0.0],[7.0036,60.5672,27.43],[6.9943,60.562,0.0],[6.9932,60.5568,0.0],[6.988,60.5557,0.0],[6.987,60.5526,32.3467],[6.9797,60.5495,0.0],[6.9766,60.5443,61.4999],[6.9693,60.5432,0.0],[6.9651,60.5411,0.0],[6.9641,60.538,0.0],[6.9589,60.537,0.0],[6.9578,60.5297,150.8613],[6.9484,60.5266,0.0],[6.9479,60.5208,0.0],[6.9453,60.5172,0.0],[6.938,60.5161,0.0],[6.937,60.5109,0.0],[6.9318,60.5099,0.0],[6.9307,60.5068,0.0],[6.925,60.5042,0.0],[6.9193,60.5036,0.0],[6.9172,60.5016,0.0],[6.9161,60.4964,86.0718],[6.913,60.4953,0.0],[6.9161,60.4932,21.9736],[6.9151,60.4901,0.0],[6.925,60.4896,0.0],[6.9292,60.4875,0.0],[6.9333,60.4896,0.0],[6.9411,60.4901,0.0],[6.9435,60.4937,0.0],[6.9261,60.49,0.0],[6.9229,60.4917,0.0],[6.9316,60.4926,219.1401],[6.9298,60.497,329.9466],[6.9387,60.4979,432.8962],[6.9369,60.5023,265.6036],[6.9459,60.5031,421.793],[6.9441,60.5075,295.342],[6.962,60.5093,604.6691],[6.9602,60.5137,440.6567],[6.9871,60.5163,746.9039],[6.9853,60.5207,824.1323],[7.0122,60.5234,1155.2225],[7.0104,60.5278,1095.6642],[7.0553,60.5321,1264.077],[7.0571,60.5278,1540.5753],[7.1826,60.5399,1214.0082],[7.1844,60.5355,1249.6072],[7.2024,60.5373,1255.5605],[7.2006,60.5417,1246.4741],[7.2185,60.5434,1187.0509],[7.2133,60.5566,1170.5997],[7.2222,60.5575,1175.6243],[7.2152,60.5751,1223.8584],[7.2242,60.5759,1288.3391],[7.2224,60.5803,1238.2061],[7.2314,60.5812,1218.0],[7.2296,60.5856,1264.4976],[7.2925,60.5916,1288.2366],[7.2943,60.5872,1301.1566],[7.3123,60.5889,1394.7341],[7.314,60.5845,1380.1533],[7.323,60.5854,1396.0364],[7.3248,60.581,1410.1869],[7.3338,60.5819,1411.0405],[7.3355,60.5775,1483.6293],[7.3445,60.5783,1431.2632],[7.3462,60.5739,1443.6403],[7.3552,60.5748,1412.9324],[7.357,60.5704,1503.4119],[7.375,60.5721,1560.5139],[7.3767,60.5677,1641.8831],[7.3857,60.5685,1634.8278],[7.3874,60.5641,1724.8331],[7.3964,60.565,1742.3237],[7.3982,60.5606,1788.4688],[7.4071,60.5614,1780.8582],[7.4089,60.557,1803.1119],[7.4179,60.5579,1756.4308],[7.4196,60.5535,1785.7346],[7.4376,60.5552,1695.0808],[7.4393,60.5508,1810.6539],[7.4573,60.5525,1815.8156],[7.459,60.5481,1818.0908],[7.4859,60.5506,1642.5524],[7.4877,60.5462,1669.3501],[7.5146,60.5487,1509.1229],[7.5163,60.5443,1520.7317],[7.5433,60.5469,1387.0096],[7.545,60.5425,1452.2726],[7.572,60.545,1401.5358],[7.5737,60.5406,1384.601],[7.5917,60.5423,1396.4537],[7.5934,60.5378,1463.2089],[7.6203,60.5404,1372.5255],[7.622,60.536,1415.796],[7.64,60.5376,1480.15],[7.6417,60.5332,1503.8252],[7.6597,60.5349,1443.0792],[7.6614,60.5305,1447.7159],[7.6883,60.533,1408.1155],[7.6866,60.5374,1253.9863],[7.6776,60.5366,1367.4491],[7.6759,60.541,1223.6292],[7.6669,60.5401,1434.5663],[7.6652,60.5445,1249.9299],[7.6563,60.5437,1427.6086],[7.6529,60.5525,1186.0177],[7.6439,60.5517,1216.519],[7.6404,60.5605,1403.9711],[7.6315,60.5597,1334.8826],[7.6161,60.5993,1437.3682],[7.6251,60.6002,1311.9886],[7.6217,60.609,1441.9681],[7.6307,60.6098,1482.4823],[7.6255,60.623,1790.9789],[7.6345,60.6239,1764.7322],[7.6294,60.6371,1649.455],[7.6204,60.6362,1660.5814],[7.6187,60.6406,1529.8092],[7.6097,60.6398,1594.3862],[7.6079,60.6442,1707.5229],[7.5899,60.6425,1449.0752],[7.5882,60.6469,1449.0862],[7.5792,60.6461,1451.2014],[7.5775,60.6505,1542.9188],[7.5685,60.6497,1685.4962],[7.5667,60.6541,1503.0734],[7.5577,60.6532,1536.8336],[7.556,60.6576,1647.5039],[7.547,60.6568,1694.7434],[7.5453,60.6612,1620.1499],[7.5272,60.6595,1615.5547],[7.5255,60.6639,1515.5385],[7.5165,60.6631,1535.1589],[7.5147,60.6675,1342.2239],[7.4967,60.6658,1363.8157],[7.495,60.6702,1357.8978],[7.4769,60.6685,1404.6436],[7.4752,60.6729,1526.0665]]]]}
,"properties": {"GID_2": "NOR.7.32_1","GID_0": "NOR","country": "Norway","GID_1": "NOR.7_1","province": "Hordaland","NL_NAME_1": "NA","county": "Ulvik","VARNAME_2": "NA","NL_NAME_2": "NA","TYPE_2": "Kommuner","ENGTYPE_2": "Municipality","CC_2": "NA","HASC_2": "NO.HO.UV","name": "Ulvik.county","area_km2": 717.0583,"hist_schema_id": "Elevation0-9000","hist_area_km2": {"0": 10.1344,"25": 2.6582,"50": 2.4812,"75": 2.4914,"100": 2.5744,"125": 2.5851,"150": 2.5644,"175": 3.0961,"200": 2.8355,"225": 2.4601,"250": 3.5331,"275": 2.866,"300": 3.137,"325": 3.9798,"350": 4.657,"375": 5.6865,"400": 3.9482,"425": 3.9586,"450": 4.4585,"475": 3.2823,"500": 3.449,"525": 3.7824,"550": 4.011,"575": 3.7095,"600": 3.9908,"625": 4.5953,"650": 4.6894,"675": 4.711,"700": 4.4193,"725": 5.9923,"750": 7.2039,"775": 6.4537,"800": 6.0265,"825": 5.6725,"850": 6.3805,"875": 6.4231,"900": 5.871,"925": 6.0796,"950": 6.827,"975": 7.9146,"1000": 7.1886,"1025": 8.9991,"1050": 10.172,"1075": 11.1919,"1100": 13.4766,"1125": 13.7696,"1150": 26.0908,"1175": 23.0652,"1200": 33.5871,"1225": 31.3572,"1250": 32.3294,"1275": 30.6423,"1300": 34.0681,"1325": 32.5574,"1350": 27.0482,"1375": 26.2408,"1400": 26.3356,"1425": 27.311,"1450": 24.4487,"1475": 19.3815,"1500": 17.2157,"1525": 13.2759,"1550": 11.02,"1575": 9.3779,"1600": 6.1883,"1625": 5.2222,"1650": 3.9125,"1675": 2.6642,"1700": 2.7898,"1725": 1.4268,"1750": 1.1037,"1775": 1.2184,"1800": 0.6459,"1825": 0.1459}}}