{"type": "Feature","bbox": [5.3438,62.1304,5.7881,62.2798],"geometry": {"type": "MultiPolygon","coordinates": [[[[5.6077,62.1553,647.7811],[5.6171,62.1563,484.3898],[5.6159,62.1588,285.6694],[5.5917,62.1583,507.4405],[5.5875,62.1604,278.5873],[5.5792,62.1604,377.0033],[5.5776,62.162,180.3444],[5.5807,62.1641,24.5196],[5.5708,62.1667,0.0],[5.5609,62.1672,8.313],[5.5474,62.1745,0.0],[5.5417,62.175,19.6657],[5.5318,62.1797,4.259],[5.5307,62.1828,0.0],[5.5234,62.1839,0.0],[5.5224,62.187,0.0],[5.5141,62.1911,0.0],[5.5,62.1937,3.7845],[5.4917,62.1979,14.4124],[5.4875,62.1979,30.1046],[5.4729,62.1917,6.7132],[5.4609,62.1911,0.3571],[5.4568,62.1891,0.0],[5.4557,62.1859,2.4884],[5.4495,62.1818,0.0],[5.4359,62.1766,0.0],[5.4354,62.1667,0.0],[5.4391,62.1641,14.9991],[5.437,62.1568,0.0],[5.4276,62.1536,-0.1143],[5.4266,62.1484,10.9109],[5.4172,62.1453,0.0],[5.4167,62.1422,0.0],[5.4177,62.1401,0.0],[5.4271,62.141,112.1432],[5.4292,62.1367,211.1236],[5.448,62.1386,241.3007],[5.4501,62.1343,210.7875],[5.4595,62.1353,277.9031],[5.4616,62.1309,289.6029],[5.4992,62.1348,539.9619],[5.5013,62.1304,467.0],[5.5389,62.1344,416.7558],[5.5368,62.1387,415.8246],[5.5555,62.1407,372.5],[5.5649,62.1417,406.6473],[5.5671,62.1373,400.5203],[5.5952,62.1402,568.0113],[5.5889,62.1534,470.6389],[5.6077,62.1553,647.7811]]],
[[[5.612,62.162,145.7527],[5.6152,62.1602,252.6313],[5.6244,62.1616,78.2827],[5.621,62.1688,0.0],[5.6089,62.1641,2.5646],[5.612,62.162,145.7527]]],
[[[5.487,62.2161,19.4482],[5.4896,62.2146,0.0],[5.4932,62.2151,0.0],[5.4891,62.2182,0.0],[5.4839,62.2182,1.1706],[5.487,62.2161,19.4482]]],
[[[5.5495,62.2783,0.249],[5.5495,62.2797,0.0301],[5.5479,62.2771,0.0],[5.5484,62.2693,0.0],[5.5651,62.2609,0.0],[5.5724,62.2599,0.4575],[5.5766,62.2568,0.0],[5.5729,62.2542,0.0],[5.5604,62.2583,0.0],[5.5479,62.2583,20.3294],[5.5417,62.2542,299.0325],[5.5375,62.2562,211.5465],[5.5333,62.2562,45.2821],[5.5318,62.2557,10.8485],[5.5297,62.2484,0.0],[5.5396,62.2438,0.0],[5.5458,62.2438,18.4872],[5.55,62.2417,0.0],[5.5625,62.2396,21.4037],[5.5693,62.2359,0.0],[5.5875,62.2313,0.0],[5.5958,62.2313,0.0],[5.6,62.2333,0.0],[5.6068,62.2297,0.0],[5.6146,62.2292,0.0],[5.6161,62.2276,0.0],[5.6042,62.2271,0.0],[5.6,62.2292,0.0],[5.5958,62.2292,0.0],[5.5854,62.225,0.0],[5.5729,62.225,12.6208],[5.563,62.2276,9.0837],[5.5563,62.2313,0.0],[5.5375,62.2313,41.1704],[5.5318,62.2286,7.2574],[5.5318,62.2255,6.2453],[5.5536,62.2141,2.4835],[5.5547,62.2109,0.0],[5.5661,62.2099,22.3389],[5.5672,62.2068,3.7042],[5.5703,62.2057,0.0],[5.5755,62.1984,10.0783],[5.5979,62.1875,0.0],[5.6146,62.1875,0.0],[5.6188,62.1896,15.3094],[5.6417,62.1896,0.0],[5.6646,62.1958,20.1608],[5.6792,62.1958,0.0],[5.6833,62.1937,0.0],[5.6917,62.1979,0.0],[5.6979,62.1979,0.0],[5.7021,62.2,35.4091],[5.7167,62.2,0.0],[5.7208,62.2021,0.0],[5.7479,62.2021,0.0],[5.7521,62.2042,0.0],[5.7563,62.2021,0.0],[5.7646,62.2021,0.0],[5.7688,62.2042,0.0],[5.7766,62.2047,0.0],[5.7776,62.2078,0.0],[5.7881,62.2115,0.0],[5.7864,62.2151,79.8815],[5.7676,62.2132,362.2032],[5.7655,62.2175,325.6641],[5.7561,62.2166,368.0252],[5.754,62.2209,304.8362],[5.7446,62.22,291.1488],[5.7362,62.2375,242.6906],[5.7267,62.2365,442.1199],[5.7183,62.254,431.7446],[5.7089,62.2531,544.9728],[5.7068,62.2574,549.59],[5.6974,62.2565,529.0],[5.6952,62.2608,570.8296],[5.6764,62.2589,544.5388],[5.6743,62.2633,570.1161],[5.6554,62.2613,331.4056],[5.6533,62.2657,308.2289],[5.6344,62.2638,353.8318],[5.6323,62.2681,220.1313],[5.6229,62.2672,230.4517],[5.6207,62.2715,226.7661],[5.6019,62.2696,310.9728],[5.5998,62.274,377.606],[5.5809,62.272,270.2376],[5.5788,62.2764,217.0962],[5.5693,62.2754,186.1915],[5.5672,62.2798,237.6945],[5.5495,62.2783,0.249]]],
[[[5.3919,62.2208,24.9031],[5.3854,62.2229,0.0],[5.3792,62.2229,3.1527],[5.3734,62.2203,0.0],[5.3708,62.2167,29.3786],[5.3521,62.2188,27.8133],[5.3438,62.2104,19.351],[5.3443,62.2089,0.6509],[5.3542,62.2083,0.7003],[5.3625,62.2042,0.0],[5.3729,62.2042,4.8204],[5.3854,62.2,0.0],[5.3896,62.2,3.9739],[5.4021,62.1937,0.0],[5.4224,62.1943,0.0],[5.4224,62.2036,0.0],[5.4193,62.2047,0.0],[5.4161,62.2099,13.1746],[5.4089,62.213,38.6045],[5.4078,62.2161,1.3835],[5.4021,62.2167,23.0482],[5.3919,62.2208,24.9031]]],
[[[5.4745,62.2109,0.0],[5.4786,62.213,0.0],[5.4813,62.2229,0.6247],[5.4807,62.2266,0.0],[5.4734,62.2266,1.0061],[5.4708,62.2229,0.0],[5.4604,62.2229,0.0],[5.4526,62.2182,0.0],[5.4583,62.2125,3.7039],[5.4625,62.2125,1.6585],[5.4667,62.2104,0.0965],[5.4745,62.2109,0.0]]],
[[[5.3526,62.2344,32.6741],[5.3542,62.2333,49.9429],[5.362,62.2339,59.63],[5.3604,62.2354,104.5809],[5.3526,62.2344,32.6741]]],
[[[5.4625,62.2646,30.5797],[5.4583,62.2646,0.0],[5.4542,62.2667,0.0],[5.4188,62.2667,0.0],[5.4026,62.2599,58.8089],[5.4021,62.2583,192.6729],[5.4057,62.2557,7.3216],[5.4068,62.2526,47.604],[5.4099,62.2516,40.578],[5.4089,62.2464,0.0],[5.412,62.2453,17.4253],[5.4146,62.2417,0.0],[5.4333,62.2417,0.0],[5.4349,62.2411,0.0],[5.4339,62.238,0.0],[5.4354,62.2375,0.0],[5.4417,62.2375,0.0],[5.4458,62.2396,0.0],[5.45,62.2375,0.0],[5.4583,62.2375,0.0],[5.4625,62.2354,0.0],[5.4667,62.2375,0.0],[5.4729,62.2375,1.2938],[5.4771,62.2354,0.0],[5.4911,62.2359,0.2998],[5.4937,62.2417,0.0],[5.4932,62.2453,0.0],[5.4875,62.2479,0.0],[5.4818,62.2484,0.0],[5.4813,62.25,0.0],[5.487,62.2547,0.0],[5.487,62.2599,0.0],[5.4771,62.2646,0.0],[5.4625,62.2646,30.5797]]]]}
,"properties": {"GID_2": "NOR.8.23_1","GID_0": "NOR","country": "Norway","GID_1": "NOR.8_1","province": "MøreogRomsdal","NL_NAME_1": "NA","county": "Sande","VARNAME_2": "NA","NL_NAME_2": "NA","TYPE_2": "Kommuner","ENGTYPE_2": "Municipality","CC_2": "NA","HASC_2": "NO.MR.SA","name": "Sande.county","area_km2": 141.5804,"hist_schema_id": "Elevation0-9000","hist_area_km2": {"0": 16.1267,"25": 9.5254,"50": 6.2953,"75": 6.0981,"100": 7.0473,"125": 5.6246,"150": 5.5065,"175": 7.0866,"200": 8.8388,"225": 7.404,"250": 6.6335,"275": 6.159,"300": 5.6651,"325": 5.1302,"350": 6.1293,"375": 6.2581,"400": 5.8645,"425": 5.0948,"450": 4.4222,"475": 3.4524,"500": 2.5911,"525": 1.8492,"550": 1.2261,"575": 0.5829,"600": 0.4151,"625": 0.2864,"650": 0.1782,"675": 0.0792,"700": 0.0099}}}