{"type":"Feature","properties":{"GID_2":"NOR.7.31_1","GID_0":"NOR","country":"Norway","GID_1":"NOR.7_1","province":"Hordaland","NL_NAME_1":"NA","county":"Ullensvang","VARNAME_2":"NA","NL_NAME_2":"NA","TYPE_2":"Kommuner","ENGTYPE_2":"Municipality","CC_2":"NA","HASC_2":"NO.HO.UL","name":"Ullensvang.county"},
"geometry":{"type": "MultiPolygon","coordinates": [[[[7.4953,60.098,1429.442],[7.4947,60.0993,1414.0504],[7.4859,60.0985,1401.5961],[7.4842,60.1029,1377.0813],[7.4753,60.1021,1361.476],[7.4736,60.1065,1343.493],[7.4559,60.1048,1360.8093],[7.4542,60.1092,1309.6555],[7.4453,60.1083,1321.7771],[7.4436,60.1127,1328.7671],[7.4347,60.1119,1265.6768],[7.433,60.1163,1307.6174],[7.4242,60.1154,1292.2089],[7.4225,60.1198,1325.9734],[7.4047,60.1181,1404.975],[7.403,60.1225,1362.0518],[7.3942,60.1217,1339.4359],[7.3924,60.1261,1357.3583],[7.3658,60.1235,1326.5182],[7.3641,60.1279,1333.9559],[7.3287,60.1245,1376.9449],[7.327,60.1289,1346.1228],[7.3004,60.1264,1336.7574],[7.2986,60.1308,1337.2496],[7.2632,60.1273,1322.0067],[7.2614,60.1317,1326.0931],[7.2348,60.1291,1349.8344],[7.2331,60.1335,1360.9984],[7.2065,60.1309,1324.1918],[7.2048,60.1353,1310.2871],[7.2136,60.1362,1372.7617],[7.2119,60.1406,1328.8071],[7.2208,60.1415,1339.5924],[7.219,60.1459,1327.4559],[7.2279,60.1467,1339.4194],[7.2262,60.1511,1352.4399],[7.235,60.152,1339.821],[7.2177,60.196,1144.6355],[7.2088,60.1951,1173.0763],[7.2071,60.1995,1135.5037],[7.1893,60.1978,1340.4172],[7.1876,60.2022,1303.7268],[7.1787,60.2013,1374.0608],[7.1734,60.2145,1198.3115],[7.1645,60.2137,1326.8416],[7.1576,60.2313,1096.6467],[7.1664,60.2321,1097.0702],[7.1647,60.2365,1057.1735],[7.1736,60.2374,1058.8813],[7.1648,60.2594,995.1511],[7.1915,60.262,1175.2137],[7.1933,60.2576,1330.4844],[7.22,60.2602,1419.108],[7.2182,60.2646,1324.2473],[7.236,60.2663,1372.3247],[7.2308,60.2795,1458.0465],[7.2219,60.2787,1483.2682],[7.2202,60.2831,1354.9718],[7.1934,60.2805,1143.0081],[7.1917,60.2849,1089.6799],[7.165,60.2823,1055.2875],[7.1632,60.2867,986.7321],[7.1543,60.2858,989.3437],[7.1526,60.2902,1037.8579],[7.1437,60.2893,1109.7435],[7.1419,60.2937,1132.4366],[7.133,60.2929,1179.9417],[7.1295,60.3017,1142.5204],[7.1206,60.3008,1148.1675],[7.1135,60.3184,1030.5261],[7.1046,60.3175,1099.4304],[7.0976,60.3351,1071.9161],[7.1065,60.336,1031.5016],[7.103,60.3448,1109.0682],[7.1119,60.3457,1107.348],[7.1101,60.3501,1114.6833],[7.1012,60.3492,1105.2158],[7.0994,60.3536,1085.2196],[7.0816,60.3518,1173.095],[7.0834,60.3474,1196.9985],[7.0477,60.3439,1199.2981],[7.0459,60.3483,1152.3822],[7.0281,60.3466,1233.3123],[7.0263,60.351,1166.9464],[6.9995,60.3484,1262.4977],[6.9978,60.3528,1282.4927],[6.9799,60.351,1229.7939],[6.9764,60.3598,1365.7675],[6.9853,60.3607,1313.9752],[6.9799,60.3739,1337.7012],[7.0156,60.3774,1092.9541],[7.0103,60.3906,1335.0624],[7.0192,60.3914,1344.9921],[7.0157,60.4002,1232.0544],[7.0246,60.4011,1348.0326],[7.021,60.4099,1174.1726],[7.0121,60.409,1147.1744],[7.0085,60.4178,1247.3215],[6.9996,60.417,1219.0841],[6.9978,60.4214,1174.5371],[6.9085,60.4125,1284.2306],[6.9067,60.4169,1179.6079],[6.8977,60.416,1224.3212],[6.8887,60.438,1263.2126],[6.8798,60.4371,1305.5664],[6.8744,60.4503,1008.2717],[6.8476,60.4477,873.4865],[6.8458,60.4521,977.8255],[6.8368,60.4512,744.7693],[6.8314,60.4644,186.8465],[6.8404,60.4652,155.6013],[6.8376,60.472,113.7609],[6.8214,60.4661,58.5131],[6.8161,60.4589,86.3106],[6.8109,60.4557,91.4831],[6.8099,60.4526,39.744],[6.7938,60.4458,64.5635],[6.788,60.4474,0.0],[6.787,60.4443,5.4822],[6.7776,60.4411,5.7974],[6.7891,60.4349,426.7752],[6.787,60.4276,1125.8556],[6.7813,60.4292,852.5431],[6.7646,60.4292,335.7927],[6.7578,60.4328,91.4376],[6.7547,60.4328,27.0099],[6.7536,60.4297,36.6875],[6.75,60.4271,26.1477],[6.7536,60.4245,114.3687],[6.7516,60.4172,278.3917],[6.7443,60.4161,89.7549],[6.7411,60.4068,224.4276],[6.7339,60.4057,35.5761],[6.7318,60.4036,184.65],[6.7349,60.4016,334.3644],[6.7359,60.3984,629.1744],[6.7417,60.3979,434.9003],[6.7474,60.3953,618.5222],[6.7474,60.3922,888.6956],[6.7438,60.3917,1058.8588],[6.7391,60.3953,826.642],[6.7292,60.3979,613.9818],[6.7193,60.3974,231.0142],[6.7167,60.3896,61.1826],[6.7203,60.387,58.5399],[6.7229,60.3792,0.0],[6.7224,60.3776,1.7247],[6.7167,60.375,5.8665],[6.7109,60.3755,10.0447],[6.6917,60.3854,63.0599],[6.6818,60.3807,0.0],[6.6807,60.3755,33.6179],[6.6755,60.3724,0.0],[6.6786,60.3693,67.6128],[6.6735,60.3662,0.0],[6.6724,60.363,57.113],[6.6693,60.362,0.0],[6.6682,60.3568,37.7976],[6.663,60.3536,16.151],[6.662,60.3464,73.2722],[6.6568,60.3453,0.0],[6.6557,60.338,12.408],[6.6505,60.3349,0.0],[6.6583,60.3271,14.6483],[6.6557,60.3214,14.6122],[6.6526,60.3203,13.2418],[6.6495,60.3089,47.0727],[6.6401,60.3036,0.0],[6.6401,60.2984,0.0],[6.6432,60.2964,100.5181],[6.638,60.2953,0.0],[6.637,60.2859,345.5074],[6.6313,60.2875,180.7519],[6.6193,60.2828,0.0],[6.6167,60.2708,0.0],[6.6245,60.2651,13.0589],[6.6229,60.2625,0.0],[6.6224,60.2547,55.6959],[6.6172,60.2536,51.848],[6.6167,60.25,37.3163],[6.6208,60.2458,71.6644],[6.6193,60.2401,16.3322],[6.6266,60.2411,172.6395],[6.6266,60.2359,202.5076],[6.6193,60.2349,46.09],[6.613,60.2307,43.5171],[6.612,60.2255,135.3437],[6.6026,60.2245,12.5603],[6.6021,60.2188,0.0],[6.6057,60.2151,104.9816],[6.6036,60.2109,50.326],[6.6005,60.2099,0.0],[6.5974,60.2005,18.4885],[6.5943,60.1995,42.2407],[6.5911,60.1901,115.0524],[6.5875,60.1875,0.0],[6.5922,60.1839,117.4433],[6.5979,60.1854,167.9433],[6.6026,60.1818,465.9743],[6.6083,60.1813,562.4347],[6.6099,60.1797,769.8511],[6.6,60.1771,698.1135],[6.5792,60.1771,67.7941],[6.5708,60.1688,0.0],[6.5745,60.1661,43.3703],[6.5748,60.1639,0.0],[6.6021,60.1667,726.5701],[6.6002,60.171,801.0084],[6.6445,60.1756,1368.634],[6.6889,60.1801,1097.0],[6.6907,60.1757,1097.0],[6.7438,60.1811,1240.9861],[6.7456,60.1767,1399.0383],[6.7545,60.1776,1440.29],[6.7563,60.1732,1425.8534],[6.7652,60.1741,1399.9377],[6.7688,60.1653,1366.6766],[6.7776,60.1662,1356.4385],[6.7794,60.1618,1357.9121],[6.7883,60.1627,1352.8917],[6.7901,60.1583,1342.249],[6.799,60.1592,1319.1097],[6.8025,60.1504,1270.2786],[6.8114,60.1513,1271.6632],[6.8132,60.1469,1322.0073],[6.822,60.1478,1330.4442],[6.8238,60.1434,1325.4122],[6.8327,60.1442,1351.9863],[6.8363,60.1355,1363.8843],[6.8451,60.1363,1409.756],[6.8469,60.132,1506.6577],[6.8558,60.1328,1527.0781],[6.8575,60.1284,1555.0765],[6.8664,60.1293,1521.8875],[6.87,60.1205,1485.5345],[6.8788,60.1214,1485.0051],[6.8806,60.117,1386.3997],[6.8895,60.1179,1425.3506],[6.8912,60.1135,1360.304],[6.9001,60.1144,1364.5245],[6.9036,60.1056,1279.9851],[6.9567,60.1109,1255.5],[6.9585,60.1065,1255.5],[6.9851,60.1092,1255.5],[6.9868,60.1048,1313.4269],[7.0045,60.1065,1372.6169],[7.0063,60.1021,1502.6277],[7.024,60.1039,1418.4015],[7.0258,60.0995,1474.6624],[7.0435,60.1012,1459.6947],[7.0452,60.0968,1386.1122],[7.0629,60.0986,1412.8945],[7.0699,60.081,1487.8107],[7.0788,60.0819,1406.8295],[7.0805,60.0775,1335.9164],[7.0928,60.0467,1291.3177],[7.0839,60.0458,1333.3497],[7.0892,60.0326,1387.4989],[7.1068,60.0343,1399.3193],[7.1103,60.0255,1535.7666],[7.1192,60.0264,1485.7932],[7.1209,60.022,1551.6527],[7.1297,60.0229,1465.7991],[7.1315,60.0185,1554.3225],[7.1491,60.0202,1444.0675],[7.1509,60.0158,1391.0332],[7.1685,60.0176,1518.3127],[7.1703,60.0131,1523.5154],[7.1879,60.0149,1421.9563],[7.1897,60.0105,1432.5173],[7.1985,60.0113,1358.3634],[7.2002,60.0069,1377.4355],[7.2179,60.0087,1401.3265],[7.2196,60.0043,1431.226],[7.2373,60.006,1330.1202],[7.239,60.0016,1355.5432],[7.2567,60.0033,1355.6377],[7.2575,60.0013,1361.048],[7.2666,60.0013,1296.5994],[7.2655,60.0042,1277.9426],[7.3008,60.0076,1269.8534],[7.2991,60.012,1255.2653],[7.3344,60.0154,1327.6149],[7.3362,60.011,1381.5033],[7.345,60.0119,1280.3125],[7.3467,60.0075,1270.954],[7.3555,60.0084,1271.1963],[7.3572,60.0039,1270.3838],[7.3661,60.0048,1295.597],[7.3678,60.0004,1334.0015],[7.3855,60.0021,1351.0171],[7.3837,60.0065,1376.2897],[7.4103,60.0091,1339.4365],[7.4086,60.0135,1294.9614],[7.4351,60.016,1322.1125],[7.4334,60.0204,1344.2699],[7.4422,60.0213,1301.9276],[7.4405,60.0257,1256.215],[7.4494,60.0265,1183.9976],[7.446,60.0353,1101.8461],[7.4548,60.0362,1103.2168],[7.4514,60.045,1142.5007],[7.4603,60.0458,1158.927],[7.4569,60.0546,1232.1702],[7.4657,60.0555,1193.4169],[7.464,60.0599,1117.0811],[7.4729,60.0607,1111.5],[7.4695,60.0695,1141.8483],[7.4783,60.0704,1176.1066],[7.4749,60.0792,1291.812],[7.4838,60.08,1305.9489],[7.4804,60.0889,1298.438],[7.4893,60.0897,1312.0103],[7.4876,60.0941,1367.5161],[7.4964,60.0949,1321.158],[7.4953,60.098,1429.442]]],
[[[6.4771,60.2225,1585.6226],[6.4789,60.2181,1614.3011],[6.4878,60.219,1600.1357],[6.4915,60.2103,1567.7086],[6.5003,60.2112,1534.9528],[6.5114,60.1848,761.7151],[6.5202,60.1857,797.0908],[6.5239,60.177,405.7356],[6.5327,60.1779,199.7688],[6.5346,60.1735,311.0154],[6.5497,60.175,0.0],[6.5495,60.1729,0.0],[6.5516,60.1734,0.0],[6.5547,60.1911,32.899],[6.5599,60.1943,0.0],[6.5609,60.1995,11.5674],[6.5641,60.2005,6.6283],[6.5667,60.2062,0.0],[6.5672,60.2141,105.3353],[6.5729,60.2188,11.394],[6.5724,60.2224,30.0499],[6.5651,60.2234,316.5573],[6.5667,60.2271,118.5256],[6.563,60.2297,305.5127],[6.562,60.2328,229.1289],[6.5563,60.2333,318.6312],[6.5547,60.2349,307.7759],[6.5641,60.2359,13.4182],[6.5651,60.2391,0.0],[6.5682,60.2401,0.0],[6.5714,60.2495,0.0],[6.5745,60.2505,0.0],[6.5714,60.2526,38.1488],[6.5714,60.2557,86.5351],[6.5766,60.2568,0.0],[6.5776,60.2641,0.0],[6.5807,60.2651,0.0],[6.5797,60.2703,0.0],[6.5974,60.2797,0.0],[6.5995,60.2891,0.0],[6.5964,60.2911,37.2269],[6.5995,60.2922,10.9878],[6.6005,60.2974,23.085],[6.6057,60.2984,0.0],[6.6068,60.3016,8.4834],[6.6099,60.3026,0.0],[6.6125,60.3083,0.0],[6.612,60.312,0.0],[6.6083,60.3146,150.4771],[6.6104,60.3187,0.0],[6.6068,60.3214,24.8993],[6.6068,60.3266,0.0],[6.612,60.3297,0.0],[6.613,60.3328,0.0],[6.6188,60.3354,0.0],[6.6245,60.3359,0.0],[6.6266,60.338,0.0],[6.6276,60.3432,0.0],[6.6313,60.3458,0.0],[6.6286,60.3536,0.0],[6.6255,60.3557,0.0],[6.6349,60.3609,0.0],[6.6359,60.3641,0.0],[6.6391,60.3651,0.0],[6.6422,60.3724,31.6818],[6.6453,60.3734,0.0],[6.6474,60.3776,0.0],[6.6484,60.387,0.0],[6.6536,60.3901,0.0],[6.6547,60.3932,0.0],[6.662,60.3964,0.0],[6.6651,60.4016,0.0],[6.6682,60.4026,0.0],[6.6682,60.4057,50.3629],[6.662,60.4099,0.0],[6.6547,60.4109,141.2805],[6.6453,60.4161,75.8559],[6.6396,60.4167,134.5014],[6.6328,60.4203,26.6264],[6.6193,60.4234,19.1144],[6.6167,60.4271,0.0],[6.6,60.4271,133.8],[6.5813,60.4354,64.833],[6.5625,60.4354,22.3962],[6.5568,60.4328,9.8389],[6.5557,60.4276,76.9526],[6.55,60.425,50.0686],[6.5422,60.4245,4.5107],[6.537,60.4172,38.3722],[6.5276,60.4161,0.0],[6.5266,60.413,64.4393],[6.5193,60.4099,68.2677],[6.5182,60.4068,216.5022],[6.513,60.4057,82.3673],[6.5099,60.388,308.7027],[6.5068,60.387,136.5452],[6.5078,60.3839,151.1655],[6.4938,60.3812,124.1579],[6.4854,60.3771,231.8118],[6.4667,60.3771,0.0],[6.4568,60.3745,7.9875],[6.45,60.3708,154.021],[6.4458,60.3729,24.1434],[6.4417,60.3708,79.8017],[6.4375,60.3729,0.0],[6.4333,60.3688,102.1273],[6.4208,60.3708,0.0],[6.4167,60.3688,0.0],[6.4063,60.3688,0.0],[6.4021,60.3667,69.9384],[6.3922,60.3661,155.3607],[6.3953,60.363,386.3153],[6.3902,60.3625,547.7913],[6.3912,60.3602,531.7559],[6.409,60.3621,284.7298],[6.4109,60.3577,324.5054],[6.4198,60.3586,306.0],[6.4235,60.3498,544.8496],[6.4324,60.3507,617.3928],[6.4361,60.3419,698.8759],[6.445,60.3429,718.7924],[6.4468,60.3385,837.6469],[6.4557,60.3394,834.2076],[6.4576,60.335,864.9515],[6.4754,60.3368,898.749],[6.4735,60.3412,930.9259],[6.4824,60.3421,865.3894],[6.4806,60.3465,931.1095],[6.4895,60.3474,950.9017],[6.4877,60.3518,937.5983],[6.4966,60.3527,1007.9233],[6.4984,60.3483,964.6422],[6.5162,60.3502,1111.8597],[6.5181,60.3458,1163.7512],[6.527,60.3467,1242.0255],[6.5343,60.3291,989.3831],[6.5254,60.3282,856.0215],[6.5273,60.3238,795.0],[6.5184,60.3229,822.7581],[6.5221,60.3141,1276.6],[6.5132,60.3132,1155.7273],[6.5168,60.3044,1208.3873],[6.508,60.3035,1032.6948],[6.5116,60.2948,1160.4749],[6.485,60.292,1096.3196],[6.4831,60.2964,1188.771],[6.4653,60.2946,1209.469],[6.4635,60.299,1290.9243],[6.4546,60.2981,1169.1362],[6.4638,60.2761,1273.5698],[6.455,60.2752,1390.2742],[6.4716,60.2357,1151.226],[6.4627,60.2348,1173.7507],[6.4645,60.2304,1143.9431],[6.4823,60.2322,1079.8499],[6.486,60.2234,1581.8062],[6.4771,60.2225,1585.6226]]],
[[[6.3984,60.3734,0.0],[6.4,60.3729,0.0],[6.4016,60.3745,0.0],[6.3984,60.3745,0.0],[6.3984,60.3734,0.0]]],
[[[6.6458,60.4675,233.718],[6.6432,60.4651,397.3151],[6.6333,60.4646,143.971],[6.6297,60.462,0.0],[6.6328,60.4599,26.8808],[6.6333,60.4521,143.1245],[6.6359,60.4484,25.9668],[6.65,60.4479,16.3104],[6.6599,60.4453,41.5091],[6.6641,60.4432,116.278],[6.663,60.438,0.0],[6.6771,60.4313,75.3449],[6.6938,60.4313,37.378],[6.7016,60.4359,22.3749],[6.6984,60.438,125.9099],[6.6984,60.4453,409.6729],[6.7042,60.4458,272.3706],[6.7125,60.4417,0.0],[6.7167,60.4437,0.0],[6.7208,60.4437,0.0],[6.7286,60.4484,0.0],[6.7297,60.4516,92.1345],[6.7438,60.4521,0.0],[6.7516,60.4547,0.0],[6.7526,60.4578,36.2328],[6.7557,60.4589,9.2493],[6.7589,60.4682,0.0],[6.763,60.4703,0.0],[6.775,60.4708,0.0],[6.7792,60.4729,12.5707],[6.7875,60.4729,0.0],[6.79,60.4744,33.789],[6.7866,60.4828,561.682],[6.7776,60.4819,693.5493],[6.774,60.4907,950.3003],[6.752,60.4885,1103.3652],[6.7489,60.4836,1023.5656],[6.731,60.4818,1114.3621],[6.7329,60.4774,923.4179],[6.7239,60.4765,1014.8897],[6.7257,60.4721,836.2044],[6.7168,60.4712,909.4031],[6.7186,60.4668,717.9244],[6.665,60.4614,895.3683],[6.6632,60.4658,647.5806],[6.6542,60.4649,607.9936],[6.6523,60.4696,197.6425],[6.6458,60.4675,233.718]]]]}}