{"type":"Feature","properties":{"GID_2":"NOR.13.24_1","GID_0":"NOR","country":"Norway","GID_1":"NOR.13_1","province":"Rogaland","NL_NAME_1":"NA","county":"Tysvær","VARNAME_2":"NA","NL_NAME_2":"NA","TYPE_2":"Kommuner","ENGTYPE_2":"Municipality","CC_2":"NA","HASC_2":"NO.RO.TY","name":"Tysvær.county"},
"geometry":{"type": "MultiPolygon","coordinates": [[[[5.5542,59.2363,3.7378],[5.5542,59.2374,3.4327],[5.5514,59.2374,1.1184],[5.5486,59.2357,0.9515],[5.5481,59.2335,0.0],[5.5503,59.2318,0.0],[5.5564,59.2332,0.81],[5.5542,59.2343,4.8553],[5.5542,59.2363,3.7378]]],
[[[5.5569,59.2399,0.4473],[5.5542,59.2404,0.2581],[5.5514,59.2385,1.1184],[5.5536,59.2382,3.4327],[5.5569,59.2399,0.4473]]],
[[[5.5542,59.2415,0.8472],[5.5525,59.2424,0.0],[5.5486,59.2399,0.0],[5.5514,59.2396,0.0],[5.5542,59.2415,0.8472]]],
[[[5.5669,59.2476,4.5128],[5.5586,59.2474,0.0],[5.5564,59.2457,0.0],[5.5631,59.2432,0.0],[5.5669,59.2476,4.5128]]],
[[[5.5469,59.2632,0.0],[5.5481,59.264,0.0],[5.5386,59.2635,3.5541],[5.5342,59.261,0.0],[5.5369,59.2604,1.3123],[5.5347,59.2574,0.0],[5.5275,59.2562,0.5061],[5.5236,59.2532,0.0],[5.5275,59.2507,1.4588],[5.5308,59.2546,0.9008],[5.5386,59.2568,0.0],[5.5414,59.2607,3.6758],[5.5469,59.2632,0.0]]],
[[[5.4531,59.2871,5.4547],[5.4536,59.2888,0.0],[5.4492,59.289,0.0],[5.4453,59.2865,2.4742],[5.4403,59.2865,8.4972],[5.4386,59.2851,0.0],[5.4392,59.2824,0.0],[5.4375,59.2785,0.0],[5.4431,59.2804,0.0],[5.4475,59.2782,0.5797],[5.4469,59.2804,1.0098],[5.4442,59.2818,0.0],[5.4486,59.2849,1.0711],[5.4492,59.2871,8.7754],[5.4531,59.2871,5.4547]]],
[[[5.4392,59.291,1.5162],[5.4386,59.2918,1.5162],[5.4342,59.2921,0.0],[5.4347,59.2907,0.0],[5.4392,59.291,1.5162]]],
[[[5.4608,59.2993,0.0],[5.4586,59.3015,0.0],[5.4575,59.2985,1.0161],[5.4597,59.2974,1.0161],[5.4619,59.2982,0.9312],[5.4608,59.2993,0.0]]],
[[[5.5775,59.2526,7.906],[5.5731,59.2529,3.6086],[5.5714,59.2504,0.0],[5.5736,59.2504,0.0],[5.5775,59.2526,7.906]]],
[[[5.6292,59.2754,0.0],[5.6236,59.276,0.0],[5.6258,59.2738,0.8771],[5.6253,59.2713,0.0],[5.6303,59.2724,0.0],[5.6281,59.274,0.0],[5.6292,59.2754,0.0]]],
[[[5.6647,59.2849,0.0],[5.6647,59.2863,1.8759],[5.6614,59.2863,5.3587],[5.6575,59.2837,12.4985],[5.6608,59.2824,3.681],[5.6647,59.2849,0.0]]],
[[[5.6019,59.3168,0.0],[5.6014,59.3193,1.4264],[5.5981,59.319,0.0],[5.5986,59.3174,0.0],[5.6019,59.3168,0.0]]],
[[[5.6653,59.264,0.0],[5.6619,59.2646,3.1051],[5.6586,59.2624,0.0],[5.6631,59.2618,0.0],[5.6653,59.264,0.0]]],
[[[5.7058,59.2821,0.0],[5.7031,59.2826,0.0],[5.7008,59.2796,0.0],[5.7047,59.2799,0.0],[5.7058,59.2821,0.0]]],
[[[5.6975,59.2871,0.0],[5.6947,59.2876,0.0],[5.6942,59.2849,0.0],[5.6958,59.2818,0.0],[5.7014,59.2835,0.0],[5.6975,59.2871,0.0]]],
[[[5.7042,59.2888,0.0],[5.7025,59.2896,0.0],[5.7014,59.2885,0.7677],[5.7058,59.2865,0.0],[5.7042,59.2888,0.0]]],
[[[5.6814,59.3318,2.9001],[5.6764,59.3324,0.0],[5.6764,59.331,6.3564],[5.6792,59.3293,0.0],[5.6836,59.3307,0.0],[5.6814,59.3318,2.9001]]],
[[[5.8586,59.3368,10.5768],[5.8536,59.3363,0.0],[5.8625,59.3343,0.0],[5.8675,59.3349,2.5358],[5.8664,59.3363,3.0348],[5.8636,59.3349,2.5358],[5.8586,59.3368,10.5768]]],
[[[5.6297,59.3226,0.0],[5.6236,59.3232,3.5352],[5.6219,59.3187,0.0],[5.6297,59.3193,0.0],[5.6319,59.3215,0.0],[5.6297,59.3226,0.0]]],
[[[5.6314,59.3735,2.3459],[5.6281,59.3743,2.0247],[5.6242,59.3713,0.0],[5.6269,59.3707,1.3056],[5.6286,59.3679,0.0],[5.6358,59.3685,3.9378],[5.6353,59.3649,3.1141],[5.6314,59.3654,13.4873],[5.6286,59.3638,6.248],[5.6269,59.3654,24.0883],[5.6219,59.364,0.0],[5.6225,59.3585,0.0],[5.6264,59.3571,4.7841],[5.6342,59.3507,0.0],[5.6303,59.3493,0.0],[5.6264,59.3509,13.2244],[5.6253,59.3537,0.0],[5.6208,59.3529,3.6027],[5.6192,59.3504,14.8208],[5.6203,59.3429,7.9057],[5.6192,59.3413,2.0992],[5.6236,59.339,2.097],[5.6369,59.3401,0.0],[5.6408,59.3373,1.2171],[5.6453,59.3376,0.7831],[5.6514,59.3451,2.7012],[5.6508,59.3474,14.2712],[5.6575,59.3499,5.5396],[5.6553,59.3518,16.1962],[5.6569,59.3529,4.8012],[5.6564,59.3554,8.447],[5.6525,59.3549,10.5717],[5.6481,59.3582,34.7607],[5.6464,59.3643,41.0883],[5.6475,59.3665,0.0],[5.6403,59.3724,0.0],[5.6336,59.3704,1.3756],[5.6331,59.3715,5.933],[5.6358,59.3732,0.0],[5.6314,59.3735,2.3459]]],
[[[5.4504,59.4971,37.8092],[5.4071,59.4922,35.938],[5.411,59.4834,35.726],[5.4024,59.4824,11.5],[5.4062,59.4737,40.0386],[5.3976,59.4727,16.5442],[5.4014,59.464,45.2181],[5.3928,59.463,43.0991],[5.3947,59.4586,29.5875],[5.3861,59.4576,11.5],[5.388,59.4533,19.3217],[5.3707,59.4513,39.1308],[5.3727,59.4469,30.2292],[5.3554,59.4449,52.9333],[5.3573,59.4406,93.737],[5.3487,59.4396,172.3122],[5.3525,59.4308,199.0994],[5.3612,59.4318,180.2341],[5.3706,59.411,0.0],[5.3797,59.4204,8.2232],[5.3825,59.4207,0.0],[5.3808,59.414,0.0],[5.3831,59.4121,13.7254],[5.3825,59.4051,1.1661],[5.3847,59.4038,20.972],[5.3847,59.4018,0.0],[5.3875,59.4012,6.4955],[5.3864,59.399,13.6493],[5.3914,59.3949,0.0],[5.3903,59.3924,3.087],[5.3942,59.3901,0.0],[5.3942,59.3874,0.0],[5.4058,59.384,3.9967],[5.4058,59.3829,1.1392],[5.3964,59.3838,2.3502],[5.3931,59.3857,0.2703],[5.3936,59.3876,0.0],[5.3908,59.3882,1.1203],[5.3903,59.3857,2.1338],[5.3936,59.3826,1.9932],[5.3914,59.3804,14.3023],[5.3881,59.3801,1.6177],[5.3881,59.3776,4.901],[5.3842,59.3776,8.6514],[5.3847,59.3757,6.5794],[5.3814,59.3729,0.0],[5.3831,59.3676,8.3994],[5.3814,59.366,0.0],[5.3869,59.3613,10.8027],[5.3864,59.3585,0.0],[5.3903,59.3582,3.805],[5.3897,59.3554,3.7014],[5.3869,59.3546,3.7014],[5.3903,59.3521,10.1221],[5.3897,59.3499,0.0],[5.3942,59.3471,2.7483],[5.3925,59.3451,1.5961],[5.3947,59.341,0.0],[5.4081,59.3399,4.5786],[5.4014,59.3382,24.1438],[5.3942,59.3404,1.7059],[5.3914,59.3385,0.0],[5.3919,59.3368,3.3442],[5.3892,59.3357,0.0],[5.3931,59.3329,3.8609],[5.3931,59.3296,4.3717],[5.3881,59.3251,0.0],[5.3919,59.3215,0.0],[5.3975,59.3243,10.7533],[5.3975,59.3204,4.8231],[5.3942,59.3193,0.0],[5.3908,59.3129,0.0],[5.3931,59.3093,2.2099],[5.3981,59.3071,8.7409],[5.4008,59.3001,0.0],[5.4064,59.2996,2.3072],[5.4086,59.2962,0.0],[5.4169,59.2938,3.2232],[5.4181,59.2899,0.8067],[5.4247,59.2915,0.0],[5.4258,59.2954,0.0],[5.4292,59.2951,0.0],[5.4308,59.2921,2.232],[5.4264,59.2912,1.5283],[5.4247,59.2876,0.0],[5.4258,59.2846,1.6355],[5.4292,59.2832,0.8156],[5.4269,59.2818,0.0],[5.4275,59.2801,0.0],[5.4308,59.281,1.8723],[5.4347,59.2849,0.0],[5.4342,59.2868,0.0],[5.4314,59.2874,14.2889],[5.4331,59.2882,3.2619],[5.4314,59.2924,2.232],[5.4331,59.2935,0.0],[5.4386,59.2949,0.0],[5.4386,59.2926,0.0],[5.4525,59.2929,0.0],[5.4575,59.2946,0.0],[5.4547,59.301,0.0],[5.4569,59.3051,0.0],[5.4547,59.3057,0.0],[5.4536,59.3082,12.2198],[5.4553,59.3104,0.0],[5.4531,59.3146,4.0919],[5.4547,59.3146,7.8819],[5.4614,59.3126,1.2298],[5.4614,59.3112,0.0],[5.4653,59.3099,2.4979],[5.4664,59.3071,14.6368],[5.4653,59.3026,2.0106],[5.4664,59.3015,26.1884],[5.4642,59.2988,0.0],[5.468,59.296,2.0818],[5.4692,59.2918,16.6633],[5.4658,59.2879,0.0],[5.4664,59.2832,6.4834],[5.4719,59.2776,0.0],[5.4831,59.2751,0.0],[5.4836,59.2726,0.0],[5.4875,59.2726,3.5291],[5.4864,59.271,0.0],[5.4881,59.2699,0.0],[5.4942,59.2707,1.1333],[5.4964,59.2696,0.0],[5.4997,59.2724,0.0],[5.5114,59.2693,0.0],[5.5197,59.2693,2.0582],[5.5253,59.2707,0.8111],[5.5281,59.2749,0.0],[5.5386,59.274,0.0],[5.5419,59.276,2.9756],[5.5464,59.2754,1.0974],[5.5447,59.2721,2.0916],[5.5486,59.2707,2.5853],[5.5586,59.2749,1.1136],[5.5775,59.2949,27.2933],[5.5886,59.3013,2.8139],[5.597,59.3151,0.0],[5.5964,59.3199,0.0],[5.6014,59.321,1.4696],[5.5997,59.3235,3.9533],[5.6136,59.3285,0.0],[5.6153,59.3424,0.0],[5.6136,59.3454,5.9338],[5.6158,59.3462,0.0],[5.6164,59.3485,7.0411],[5.6136,59.3518,3.5064],[5.6175,59.3537,0.0],[5.6158,59.3551,15.9788],[5.6169,59.3571,0.0],[5.6136,59.3579,2.4338],[5.6142,59.3607,0.0],[5.6114,59.361,6.13],[5.6103,59.364,3.3861],[5.6125,59.3643,0.0],[5.6142,59.3671,0.0],[5.6131,59.369,0.0],[5.6192,59.3701,0.0],[5.6192,59.3721,0.0],[5.6169,59.3729,0.0],[5.6175,59.3754,3.2092],[5.6114,59.3749,8.0122],[5.6097,59.3788,6.9048],[5.6247,59.3843,8.1823],[5.6219,59.399,3.9297],[5.6142,59.404,9.3581],[5.6136,59.4059,2.1976],[5.6014,59.4068,1.1378],[5.5936,59.4049,6.1323],[5.5875,59.4057,5.9089],[5.5864,59.4079,0.0],[5.5836,59.4071,0.0],[5.5825,59.4099,0.0],[5.5869,59.4099,0.0],[5.5931,59.4138,7.4424],[5.5975,59.4121,0.0],[5.5986,59.4138,9.3098],[5.6014,59.4138,3.7026],[5.6058,59.4118,0.0],[5.6114,59.4118,0.0],[5.6153,59.4082,0.0],[5.6197,59.4068,0.0],[5.6186,59.4126,9.8444],[5.6164,59.4151,13.076599999999999],[5.6181,59.4157,3.8366],[5.6175,59.4179,1.8128],[5.6208,59.4212,0.0],[5.6192,59.4251,0.0],[5.6231,59.4274,0.0],[5.6253,59.4265,5.015],[5.6236,59.4232,0.0],[5.6258,59.4215,0.0],[5.6253,59.4132,0.0],[5.6303,59.4035,0.0],[5.6347,59.4024,0.7189],[5.6336,59.3982,17.4007],[5.6292,59.396,20.2477],[5.6292,59.394,9.6597],[5.6314,59.3932,13.5045],[5.6303,59.3918,0.0],[5.6342,59.3904,4.7898],[5.6319,59.389,4.7898],[5.6319,59.3871,5.7324],[5.6353,59.3818,0.0],[5.6403,59.3804,9.1193],[5.6408,59.3757,0.0],[5.6469,59.3718,0.0],[5.6492,59.3674,0.0],[5.6542,59.364,29.5776],[5.6536,59.3604,0.0],[5.6592,59.3551,0.0],[5.6586,59.3529,0.0],[5.6614,59.3521,4.7446],[5.6575,59.3435,0.0],[5.6603,59.3401,0.0],[5.6703,59.3385,0.0],[5.6769,59.3354,7.0676],[5.6769,59.3335,0.0],[5.6853,59.3315,0.6607],[5.6875,59.329,21.75],[5.6875,59.3276,11.0499],[5.6819,59.324,0.0],[5.6758,59.3243,0.8169],[5.6736,59.3224,1.5494],[5.6625,59.3232,6.4732],[5.6553,59.3218,11.5348],[5.6486,59.3243,5.6539],[5.6497,59.326,0.0],[5.6458,59.3243,0.0],[5.6436,59.3163,21.0797],[5.6486,59.3138,2.6434],[5.6469,59.3115,0.0],[5.6481,59.3049,9.0015],[5.6419,59.3035,11.6534],[5.6408,59.3007,2.7322],[5.6414,59.2985,0.0],[5.6503,59.2946,8.2297],[5.6425,59.2929,1.3641],[5.6436,59.2907,4.8172],[5.6386,59.2857,0.0],[5.6469,59.2876,0.0],[5.6503,59.2868,6.3034],[5.6503,59.2849,16.3172],[5.6392,59.2824,0.0],[5.6381,59.281,0.0],[5.6397,59.2796,11.9122],[5.6364,59.2765,0.0],[5.6364,59.274,0.0],[5.6275,59.2704,2.9662],[5.6275,59.2679,0.6034],[5.6303,59.2676,0.0],[5.6303,59.2704,0.0],[5.6319,59.2707,7.6878],[5.6336,59.2685,0.0],[5.6375,59.2676,8.1705],[5.6381,59.2643,1.5258],[5.6436,59.2643,16.2861],[5.6464,59.2601,0.0],[5.6653,59.2682,0.0],[5.6664,59.2682,23.5146],[5.6669,59.2618,0.0],[5.6731,59.2629,0.1126],[5.6758,59.2657,0.871],[5.6725,59.2676,0.0],[5.6753,59.2701,0.0],[5.6742,59.2729,15.059],[5.6792,59.2746,1.2659],[5.6764,59.2765,0.34],[5.6781,59.2782,1.4107],[5.6764,59.2807,0.0],[5.6775,59.2835,0.0],[5.6714,59.2837,5.1745],[5.6669,59.2754,35.6527],[5.6625,59.2757,0.0],[5.6586,59.2729,3.5995],[5.6597,59.2793,8.4409],[5.6625,59.2813,0.0],[5.6575,59.2813,17.99],[5.6587,59.2821,0.0],[5.6564,59.2829,12.4985],[5.6558,59.286,5.0909],[5.6625,59.2888,2.1991],[5.6692,59.2949,7.4552],[5.6792,59.2974,2.7422],[5.6842,59.3026,9.7872],[5.6897,59.2993,2.4994],[5.6997,59.3026,4.4871],[5.6914,59.2985,0.0],[5.6931,59.2968,0.0],[5.7053,59.2979,0.0],[5.7092,59.3013,7.8679],[5.7092,59.3029,14.7643],[5.7119,59.304,0.0],[5.7119,59.3054,0.0],[5.7092,59.3065,7.6951],[5.7275,59.3146,9.7784],[5.7303,59.3174,0.0],[5.7303,59.3215,2.0163],[5.7369,59.3221,0.0],[5.7425,59.3276,0.6645],[5.7492,59.3282,1.485],[5.7453,59.3318,1.3909],[5.7392,59.3326,12.2754],[5.7414,59.3354,1.9322],[5.7431,59.3429,1.647],[5.7542,59.336,0.0],[5.7531,59.3318,0.0],[5.7575,59.329,10.8483],[5.7636,59.3301,0.0],[5.7653,59.3335,0.0],[5.7736,59.3351,0.0],[5.7769,59.3324,0.0],[5.7853,59.3312,0.0],[5.7847,59.3274,0.0],[5.7908,59.324,7.6399],[5.7942,59.3282,0.0],[5.7992,59.3282,1.0035],[5.8036,59.3326,4.0731],[5.8031,59.3357,10.3095],[5.8047,59.3379,0.0],[5.7986,59.3451,2.2616],[5.8036,59.3479,2.7762],[5.8131,59.3462,1.084],[5.8164,59.334,27.0966],[5.8264,59.3296,1.8072],[5.8258,59.3329,1.8155],[5.8314,59.3382,6.9122],[5.8408,59.3396,0.2782],[5.8431,59.3424,6.6729],[5.8464,59.3429,2.7466],[5.8492,59.3424,14.1585],[5.8503,59.3404,0.0],[5.8536,59.3404,0.0],[5.8531,59.3435,0.0],[5.8558,59.3446,1.1698],[5.8631,59.3449,0.0],[5.8625,59.3426,0.8046],[5.8658,59.3418,0.0],[5.8742,59.3435,3.5803],[5.8753,59.3418,11.5555],[5.8736,59.3401,0.0],[5.8753,59.3393,8.4365],[5.8747,59.3371,1.4435],[5.8764,59.3371,0.0],[5.887,59.3459,0.0],[5.8869,59.349,0.9887],[5.8919,59.3501,0.0],[5.8914,59.3532,1.5389],[5.8936,59.361,3.4755],[5.8897,59.3643,17.1283],[5.8925,59.3676,4.7132],[5.8958,59.3679,0.9386],[5.8936,59.3729,10.5033],[5.8975,59.374,0.0],[5.8969,59.3815,0.0],[5.8919,59.3824,111.1147],[5.8931,59.3846,4.0699],[5.8831,59.3907,0.0],[5.8675,59.394,57.4304],[5.8647,59.3993,0.0],[5.8614,59.4001,51.3294],[5.8597,59.4038,0.0],[5.8619,59.4051,0.0],[5.8569,59.406,81.2795],[5.8575,59.4076,0.0],[5.8508,59.4149,65.0794],[5.8508,59.4182,16.7692],[5.8464,59.4201,128.5595],[5.8453,59.4265,4.8152],[5.8475,59.4287,0.0],[5.8436,59.4368,5.529],[5.8214,59.4338,0.0],[5.8164,59.4313,59.6693],[5.8097,59.4321,0.0],[5.7975,59.429,0.0],[5.7942,59.4265,109.67529999999999],[5.7753,59.4251,21.4082],[5.7742,59.4235,33.7883],[5.7625,59.4193,0.0],[5.7603,59.4154,32.4385],[5.7553,59.4151,19.5688],[5.7525,59.4171,0.0],[5.7447,59.4154,27.6126],[5.7258,59.4065,65.3715],[5.7114,59.406,0.0],[5.7136,59.4035,45.0499],[5.7047,59.4026,0.0],[5.7019,59.3996,23.6803],[5.6897,59.399,0.0],[5.6881,59.3974,4.6133],[5.6803,59.3979,0.0],[5.6792,59.396,6.7563],[5.6747,59.3949,10.5744],[5.6747,59.3932,50.5312],[5.6708,59.3932,3.5291],[5.6742,59.3982,8.3927],[5.6775,59.399,0.0],[5.6797,59.4018,2.3262],[5.6842,59.4024,0.7998],[5.6836,59.4038,14.7106],[5.6864,59.404,0.0],[5.6864,59.4054,0.0],[5.7031,59.4074,0.0],[5.7136,59.4143,5.6559],[5.7236,59.4149,0.0],[5.7258,59.4182,0.0],[5.7258,59.4188,30.8698],[5.7123,59.4163,102.8693],[5.7048,59.4338,365.3187],[5.7134,59.4348,419.2045],[5.7115,59.4392,276.8842],[5.7029,59.4382,322.6172],[5.6972,59.4514,347.3516],[5.6886,59.4504,284.2768],[5.6848,59.4591,221.8373],[5.6242,59.4524,60.1941],[5.609,59.4874,0.0],[5.6004,59.4864,0.0],[5.5985,59.4908,0.0],[5.5898,59.4898,0.0],[5.5812,59.4889,0.0],[5.585,59.4801,0.0],[5.5763,59.4791,0.0],[5.5801,59.4704,50.7463],[5.5715,59.4694,38.1899],[5.5734,59.465,93.4829],[5.5647,59.4641,23.4285],[5.5686,59.4553,37.5696],[5.5513,59.4534,0.0],[5.5532,59.449,0.0],[5.5445,59.448,0.0],[5.5464,59.4436,30.8323],[5.5205,59.4407,0.0],[5.5167,59.4495,27.1334],[5.508,59.4485,0.0],[5.4946,59.4791,169.3211],[5.5033,59.4801,121.5814],[5.4975,59.4932,124.9406],[5.4889,59.4922,136.161],[5.4869,59.4966,145.1813],[5.4783,59.4956,51.9626],[5.4764,59.5,46.6909],[5.4662,59.4989,3.643],[5.4658,59.4999,3.643],[5.4653,59.4985,0.0],[5.4686,59.4943,15.901],[5.4686,59.4901,3.2928],[5.4636,59.4915,0.0],[5.4631,59.4857,4.6746],[5.4597,59.4832,16.3771],[5.4553,59.4874,4.407],[5.4614,59.491,5.2875],[5.4597,59.4929,33.0594],[5.4597,59.4968,17.422],[5.4586,59.498,5.1749],[5.4504,59.4971,37.8092]]],
[[[5.6269,59.3849,3.1418],[5.6247,59.3843,8.1823],[5.6253,59.3821,2.7533],[5.6314,59.3812,0.0],[5.6308,59.384,2.4074],[5.6269,59.3849,3.1418]]]]}}