{"type":"Feature","properties":{"GID_2":"NOR.4.17_1","GID_0":"NOR","country":"Norway","GID_1":"NOR.4_1","province":"Buskerud","NL_NAME_1":"NA","county":"ØvreEiker","VARNAME_2":"NA","NL_NAME_2":"NA","TYPE_2":"Kommuner","ENGTYPE_2":"Municipality","CC_2":"NA","HASC_2":"NO.BU.OE","name":"Øvre_Eiker.county"},
"geometry":{"type": "MultiPolygon","coordinates": [[[[9.6461,59.7273,607.7264],[9.6503,59.714,529.7648],[9.6591,59.7147,534.7697],[9.6701,59.6792,349.3091],[9.6789,59.6799,263.751],[9.6803,59.6755,265.53],[9.6979,59.6769,240.9376],[9.702,59.6636,222.8409],[9.7196,59.665,223.0654],[9.721,59.6605,252.8689],[9.7298,59.6612,239.2006],[9.7312,59.6568,200.4493],[9.7488,59.6582,142.293],[9.7501,59.6538,192.8358],[9.7677,59.6552,364.9319],[9.7691,59.6507,385.5201],[9.7779,59.6514,355.2064],[9.7792,59.647,346.0349],[9.7968,59.6484,323.9382],[9.7982,59.6439,342.3419],[9.8158,59.6453,340.8387],[9.8185,59.6364,470.2253],[9.8273,59.6371,482.7092],[9.8286,59.6327,554.6537],[9.8374,59.6334,586.0419],[9.8401,59.6245,482.1384],[9.8489,59.6252,495.0272],[9.8516,59.6163,463.6226],[9.8604,59.617,444.0361],[9.8618,59.6126,467.632],[9.8706,59.6133,454.2985],[9.8733,59.6044,506.1455],[9.882,59.6051,490.0005],[9.8847,59.5962,504.3106],[9.8935,59.5969,498.188],[9.8949,59.5925,497.752],[9.9036,59.5931,439.0175],[9.905,59.5887,465.8447],[9.9138,59.5894,443.9738],[9.9151,59.5849,465.4282],[9.9239,59.5856,426.2503],[9.9225,59.5901,421.4988],[9.9313,59.5907,446.5731],[9.93,59.5952,413.8666],[9.9388,59.5959,411.0],[9.9374,59.6003,411.0],[9.955,59.6017,469.7415],[9.9536,59.6061,462.2304],[9.9624,59.6068,319.6478],[9.9611,59.6112,291.2114],[9.9699,59.6119,84.6082],[9.9685,59.6163,47.5414],[9.9773,59.617,18.0],[9.972,59.6347,18.0],[9.9808,59.6354,18.0],[9.9768,59.6487,83.9383],[9.9855,59.6494,82.9167],[9.9829,59.6583,232.9134],[9.9917,59.659,296.2455],[9.989,59.6678,490.1598],[9.9978,59.6685,332.3307],[9.9911,59.6907,512.6791],[9.9823,59.69,563.3456],[9.9743,59.7166,345.9974],[9.9654,59.7159,363.7886],[9.9628,59.7248,280.7463],[9.9716,59.7255,254.8441],[9.9662,59.7432,73.5161],[9.9648,59.7477,51.7229],[9.956,59.747,76.9539],[9.9506,59.7647,3.5527],[9.9595,59.7654,0.0],[9.9568,59.7743,138.662],[9.9656,59.775,165.8771],[9.9629,59.7838,310.2798],[9.9717,59.7845,342.2336],[9.9704,59.7889,420.0733],[9.9792,59.7896,377.921],[9.9765,59.7985,335.3236],[9.9854,59.7992,398.1945],[9.9827,59.808,423.5104],[9.9915,59.8087,505.1054],[9.9888,59.8176,519.4608],[9.9977,59.8183,510.3961],[9.995,59.8271,501.1049],[10.0038,59.8278,533.778],[10.0025,59.8323,514.7273],[10.0202,59.8336,472.9232],[10.0188,59.838,449.4075],[10.0277,59.8387,535.5582],[10.0263,59.8432,467.4845],[10.0352,59.8438,512.5315],[10.0338,59.8483,467.3149],[10.0427,59.8489,429.2153],[10.04,59.8578,412.8887],[10.0311,59.8571,407.3029],[10.0298,59.8616,433.6482],[10.0209,59.8609,412.628],[10.0183,59.8698,402.8958],[9.974,59.8664,452.9276],[9.9726,59.8708,431.5687],[9.9549,59.8695,414.875],[9.9536,59.8739,472.908],[9.9359,59.8725,340.6437],[9.9345,59.877,312.6414],[9.9168,59.8756,115.5479],[9.9154,59.88,78.8042],[9.8977,59.8787,30.4543],[9.9045,59.8565,36.391],[9.878,59.8545,92.009],[9.8766,59.8589,95.628],[9.8589,59.8575,130.691],[9.8576,59.862,132.2101],[9.831,59.8599,136.5104],[9.8297,59.8643,97.7897],[9.8208,59.8636,110.8148],[9.8194,59.8681,95.8843],[9.8106,59.8674,133.477],[9.8078,59.8763,157.7733],[9.799,59.8756,163.7027],[9.7976,59.88,194.1538],[9.7888,59.8793,154.0301],[9.7874,59.8837,122.2271],[9.7697,59.8824,146.5519],[9.7683,59.8868,142.9682],[9.7594,59.8861,159.3201],[9.7581,59.8905,156.5979],[9.7404,59.8891,172.3773],[9.739,59.8936,169.5648],[9.7301,59.8929,201.0688],[9.7287,59.8973,175.4926],[9.7199,59.8966,221.3088],[9.7185,59.9011,179.1835],[9.7096,59.9004,266.6424],[9.7082,59.9048,205.6148],[9.6994,59.9041,222.9654],[9.698,59.9085,221.0643],[9.6891,59.9078,274.7552],[9.6947,59.8901,369.1468],[9.677,59.8887,507.1639],[9.6784,59.8843,454.5048],[9.6695,59.8836,467.9145],[9.6709,59.8791,496.8635],[9.6798,59.8798,465.7066],[9.6839,59.8665,407.3847],[9.6928,59.8672,361.4062],[9.7011,59.8406,594.3802],[9.7136,59.8007,529.3976],[9.7047,59.8001,560.6559],[9.7144,59.769,442.2003],[9.7056,59.7683,378.7888],[9.7111,59.7506,316.3347],[9.7023,59.7499,327.8488],[9.705,59.741,298.9885],[9.6874,59.7396,348.8627],[9.6888,59.7352,332.3854],[9.6447,59.7317,607.8588],[9.6461,59.7273,607.7264]]]]}}