{"type":"Feature","properties":{"GID_2":"NOR.7.22_1","GID_0":"NOR","country":"Norway","GID_1":"NOR.7_1","province":"Hordaland","NL_NAME_1":"NA","county":"Os","VARNAME_2":"NA","NL_NAME_2":"NA","TYPE_2":"Kommuner","ENGTYPE_2":"Municipality","CC_2":"NA","HASC_2":"NO.HE.OS","name":"Os.county"},
"geometry":{"type": "MultiPolygon","coordinates": [[[[5.363,60.1339,8.713],[5.3771,60.1333,28.8081],[5.3807,60.137,31.6735],[5.3776,60.138,34.0079],[5.3766,60.1453,2.3908],[5.3708,60.1458,0.0],[5.3651,60.1432,0.0],[5.3641,60.1401,14.8805],[5.3609,60.1391,20.3205],[5.3609,60.1359,0.0],[5.363,60.1339,8.713]]],
[[[5.3641,60.1724,31.8079],[5.3589,60.1734,72.2758],[5.3578,60.1766,20.7141],[5.3521,60.1771,57.9226],[5.3495,60.1734,58.8334],[5.3401,60.1724,47.4084],[5.3359,60.1703,16.4835],[5.3349,60.1651,31.3128],[5.3286,60.1609,16.9499],[5.3214,60.1599,19.8861],[5.3214,60.1547,6.4699],[5.3313,60.1542,11.8354],[5.3422,60.1484,30.6721],[5.3557,60.1443,0.0],[5.3599,60.1464,10.6816],[5.3589,60.1495,58.2229],[5.362,60.1505,12.0751],[5.3589,60.1536,22.7743],[5.3661,60.1568,9.3141],[5.3688,60.1625,34.2367],[5.3682,60.1703,31.6688],[5.3641,60.1724,31.8079]]],
[[[5.3625,60.2104,31.9591],[5.3646,60.2083,0.0],[5.3667,60.2104,50.4149],[5.3641,60.2161,43.385],[5.3568,60.2161,0.0],[5.3599,60.2141,15.5032],[5.3625,60.2104,31.9591]]],
[[[5.3995,60.1505,0.0],[5.4,60.1542,25.2612],[5.3964,60.1547,26.8469],[5.3953,60.1599,18.3949],[5.3938,60.1604,35.4219],[5.388,60.1599,21.2551],[5.387,60.1568,31.2309],[5.3833,60.1542,29.2373],[5.3839,60.1505,26.9637],[5.3854,60.15,6.5429],[5.3995,60.1505,0.0]]],
[[[5.3818,60.162,36.1315],[5.3818,60.1609,34.7413],[5.3849,60.1609,17.0006],[5.3833,60.1625,22.4411],[5.3818,60.162,36.1315]]],
[[[5.3823,60.2244,47.5254],[5.3748,60.2235,26.3535],[5.3716,60.2253,14.3863],[5.3813,60.2188,9.3306],[5.3807,60.2109,11.5807],[5.3755,60.2078,0.0],[5.3745,60.2047,35.3345],[5.3646,60.2021,0.0],[5.3563,60.2062,7.8973],[5.3479,60.2062,19.0511],[5.3422,60.2036,53.9274],[5.3432,60.1964,0.0],[5.3359,60.1922,20.4409],[5.3458,60.1875,14.4469],[5.3557,60.187,0.0],[5.3589,60.1818,36.2482],[5.3688,60.1771,33.2013],[5.3729,60.1771,25.6918],[5.3771,60.175,0.0],[5.3854,60.175,0.0],[5.3938,60.1792,22.5124],[5.4036,60.1745,38.0962],[5.4021,60.1667,29.9806],[5.4057,60.1641,33.8699],[5.4063,60.1604,25.9167],[5.4057,60.1589,24.3309],[5.4005,60.1578,22.9446],[5.4,60.1542,25.2612],[5.4036,60.1536,23.8677],[5.4063,60.15,0.0],[5.4104,60.15,11.0656],[5.4146,60.1521,14.0783],[5.4203,60.1516,39.4445],[5.4172,60.1495,15.804],[5.4161,60.1464,26.4183],[5.4068,60.1432,25.0678],[5.4068,60.1401,21.9926],[5.4208,60.1396,23.898],[5.425,60.1437,0.0],[5.4349,60.1391,59.0866],[5.4359,60.1359,20.8975],[5.4417,60.1354,67.5978],[5.4474,60.138,103.3493],[5.4484,60.1411,44.7677],[5.4516,60.1422,27.1306],[5.4542,60.1479,40.529],[5.4536,60.1516,72.4321],[5.4479,60.15,87.9114],[5.4464,60.1505,49.4785],[5.4464,60.1536,0.0],[5.4599,60.1589,0.0],[5.4599,60.1641,48.0175],[5.4568,60.1651,35.1114],[5.4563,60.1688,0.0],[5.4589,60.1724,0.0],[5.462,60.1734,0.0],[5.463,60.1786,17.3893],[5.4688,60.1813,0.0],[5.4807,60.1818,0.0],[5.4849,60.1839,0.0],[5.4859,60.187,0.0],[5.4917,60.1896,15.5593],[5.4958,60.1896,0.0],[5.5,60.1917,0.0],[5.5042,60.1896,31.5462],[5.5083,60.1896,0.0],[5.5125,60.1917,8.2301],[5.5208,60.1917,0.0],[5.5328,60.1964,0.0],[5.538,60.2036,42.0787],[5.5432,60.2047,0.0],[5.5443,60.2141,73.6354],[5.5474,60.2151,0.0],[5.5505,60.2203,51.1661],[5.5536,60.2214,53.9356],[5.5589,60.2286,129.913],[5.5641,60.2297,0.0],[5.5651,60.2349,123.2075],[5.5682,60.2359,0.0],[5.5693,60.2391,0.0],[5.5745,60.2422,0.0],[5.5745,60.2453,28.9629],[5.5714,60.2464,60.0539],[5.5703,60.2495,0.0],[5.563,60.2526,99.5407],[5.5651,60.2599,38.539],[5.5724,60.263,47.636],[5.5755,60.2661,20.8179],[5.5828,60.2672,0.0],[5.5839,60.2703,0.0],[5.588,60.2724,16.7173],[5.5938,60.2729,0.0],[5.6057,60.2776,0.0],[5.6068,60.2807,13.4523],[5.6141,60.2839,0.0],[5.6167,60.2917,0.0],[5.6124,60.2911,123.7198],[5.6104,60.2955,176.8024],[5.5927,60.2936,236.9853],[5.5888,60.3023,236.2298],[5.5976,60.3033,192.9867],[5.5957,60.3077,182.9088],[5.6046,60.3086,148.1843],[5.5947,60.3305,542.0188],[5.577,60.3286,813.2484],[5.5789,60.3242,648.0988],[5.5701,60.3232,494.0963],[5.572,60.3189,440.9156],[5.5632,60.3179,367.8401],[5.5651,60.3135,328.1295],[5.5563,60.3125,338.9036],[5.5582,60.3082,230.4969],[5.5494,60.3072,482.7069],[5.5513,60.3028,387.5411],[5.5425,60.3018,703.2184],[5.5444,60.2975,454.6143],[5.5356,60.2965,649.1906],[5.5376,60.2921,453.6362],[5.511,60.2892,117.466],[5.509,60.2935,77.1474],[5.5001,60.2926,117.1422],[5.5041,60.2838,80.9733],[5.4952,60.2828,57.9586],[5.4972,60.2785,55.51],[5.4883,60.2775,149.7313],[5.4903,60.2731,62.4149],[5.4815,60.2721,309.479],[5.4834,60.2678,174.8685],[5.4657,60.2658,359.9364],[5.4677,60.2614,370.8671],[5.4588,60.2604,321.3618],[5.4608,60.2561,297.3044],[5.4431,60.2541,96.6494],[5.4451,60.2497,61.3176],[5.4097,60.2458,303.1888],[5.4117,60.2414,336.7972],[5.394,60.2395,246.9662],[5.396,60.2351,245.7578],[5.3871,60.2341,174.7163],[5.3891,60.2297,79.0769],[5.3803,60.2287,74.2773],[5.3823,60.2244,47.5254]]]]}}