{"type":"Feature","properties":{"GID_2":"NOR.8.9_1","GID_0":"NOR","country":"Norway","GID_1":"NOR.8_1","province":"MøreogRomsdal","NL_NAME_1":"NA","county":"Gjemnes","VARNAME_2":"NA","NL_NAME_2":"NA","TYPE_2":"Kommuner","ENGTYPE_2":"Municipality","CC_2":"NA","HASC_2":"NO.MR.GJ","name":"Gjemnes.county"},
"geometry":{"type": "MultiPolygon","coordinates": [[[[7.5943,62.9358,14.1048],[7.5962,62.931399999999996,0.0],[7.6059,62.9322,37.5093],[7.6078,62.9278,72.8765],[7.5981,62.9269,25.4168],[7.6056,62.9093,766.1881],[7.6153,62.9102,598.8714],[7.6171,62.9058,845.8704],[7.6075,62.9049,778.0376],[7.6093,62.9005,969.2119],[7.5996,62.8997,648.3038],[7.6015,62.8953,344.6834],[7.5918,62.8944,509.9676],[7.5937,62.89,624.794],[7.555,62.8866,152.2148],[7.5568,62.8822,245.6084],[7.5472,62.8814,354.9386],[7.549,62.877,652.9747],[7.5394,62.8761,660.4807],[7.5412,62.8717,762.746],[7.5219,62.87,642.8115],[7.5238,62.8656,697.6075],[7.4464,62.8588,526.5549],[7.4483,62.8544,490.2688],[7.4192,62.8518,412.5479],[7.4211,62.8474,358.8318],[7.4018,62.8457,590.4757],[7.4037,62.8413,467.5861],[7.394,62.8405,706.3916],[7.396,62.8361,722.9532],[7.4056,62.8369,450.4362],[7.4094,62.8281,432.1322],[7.4384,62.8307,260.1663],[7.4365,62.8351,261.4182],[7.4655,62.8376,253.5998],[7.4674,62.8332,271.3809],[7.5061,62.8366,327.0457],[7.5079,62.8323,287.72],[7.5273,62.8339,517.3948],[7.5293,62.8295,463.881],[7.5485,62.8313,665.2309],[7.5505,62.8269,620.7903],[7.5795,62.8293,409.4999],[7.5813,62.8251,372.8994],[7.6199,62.8283,268.7282],[7.6586,62.8317,250.1739],[7.6568,62.8361,263.6031],[7.6761,62.8378,346.695],[7.6743,62.8423,301.0297],[7.6937,62.8439,277.7896],[7.6917,62.8483,286.1216],[7.7111,62.8499,385.6278],[7.7093,62.8545,403.892],[7.7286,62.8561,482.4103],[7.7267,62.8605,506.108],[7.7751,62.8646,495.9253],[7.7733,62.869,612.5098],[7.7927,62.8707,540.1072],[7.7945,62.8663,463.5965],[7.7849,62.8654,478.365],[7.7904,62.8522,440.2262],[7.8097,62.8539,411.8891],[7.8208,62.8274,73.4785],[7.8305,62.8282,99.2393],[7.8286,62.8327,96.0383],[7.8673,62.836,112.0327],[7.8692,62.8316,133.2971],[7.8788,62.8324,411.1496],[7.8807,62.828,579.8958],[7.8903,62.8288,557.3034],[7.894,62.82,402.3338],[7.952,62.8249,578.8112],[7.9502,62.8293,610.4418],[8.0373,62.8367,522.042],[8.0392,62.8323,556.8164],[8.0876,62.8363,367.2652],[8.0858,62.8407,362.954],[8.125,62.8433,58.0339],[8.1245,62.8453,0.0],[8.1172,62.8484,0.0],[8.1182,62.8516,0.0],[8.1151,62.8526,35.7761],[8.1141,62.8578,0.0],[8.1109,62.8589,0.0],[8.112,62.862,0.0],[8.1083,62.8646,49.9132],[8.1083,62.8688,11.8791],[8.1104,62.8729,0.0],[8.1063,62.8771,59.3606],[8.1089,62.8849,0.0],[8.1141,62.887,0.0],[8.1021,62.8875,11.1786],[8.0979,62.8854,216.0916],[8.0938,62.8854,212.3334],[8.0911,62.8891,0.0],[8.088,62.8901,0.0],[8.0922,62.8932,0.0],[8.0974,62.8943,0.0],[8.0943,62.8974,0.0],[8.1036,62.9005,0.0],[8.1063,62.9063,0.0],[8.1068,62.912,28.2957],[8.112,62.913,0.0],[8.113,62.9161,0.0],[8.1182,62.9172,0.0],[8.1182,62.9224,0.0],[8.1005,62.9214,6.3325],[8.1057,62.9234,0.0],[8.1057,62.9286,0.0],[8.0917,62.9292,21.8732],[8.0818,62.9318,6.1391],[8.0807,62.9349,0.0],[8.0734,62.9359,20.5445],[8.0724,62.9391,0.0],[8.0693,62.9401,74.4736],[8.0703,62.9453,13.7231],[8.0672,62.9464,61.3729],[8.0661,62.9495,0.0],[8.062,62.9516,30.4466],[8.0563,62.9521,86.546],[8.0521,62.95,292.4213],[8.0401,62.9505,166.0818],[8.0453,62.9536,0.0],[8.038,62.9568,0.0],[8.0375,62.9604,0.0],[8.0391,62.9641,0.0],[8.0333,62.9667,8.1583],[8.0188,62.9646,15.8908],[8.0063,62.9688,0.0],[7.9917,62.9688,16.7119],[7.9792,62.9729,0.0],[7.975,62.9729,7.5481],[7.9526,62.9641,10.0021],[7.9516,62.9609,90.1994],[7.9437,62.9604,113.7014],[7.9396,62.9583,164.4002],[7.9354,62.9625,0.0],[7.9208,62.9625,3.3821],[7.9167,62.9604,61.0736],[7.9063,62.9604,10.1728],[7.9021,62.9583,43.9979],[7.8938,62.9583,35.6353],[7.8896,62.9604,0.0],[7.8672,62.9516,0.0],[7.8625,62.9458,0.0],[7.8526,62.9464,0.0],[7.85,62.95,0.0],[7.8354,62.95,3.0672],[7.8313,62.9479,24.1782],[7.825,62.9479,0.0],[7.8224,62.9443,35.9552],[7.8104,62.9437,0.0],[7.8078,62.9401,45.5786],[7.7974,62.9359,52.6878],[7.788,62.9349,0.0],[7.787,62.9318,32.4674],[7.7813,62.9292,35.2185],[7.7734,62.9286,12.4871],[7.7563,62.9208,1.94],[7.75,62.9208,0.0],[7.7396,62.9167,24.1536],[7.7313,62.9167,0.0],[7.7234,62.9141,0.0],[7.7078,62.9047,15.6085],[7.7,62.9021,0.0],[7.6922,62.9016,0.0],[7.6911,62.8984,0.0],[7.6854,62.8958,1.1045],[7.6818,62.8964,0.0],[7.6797,62.8995,0.0],[7.6828,62.9005,0.0],[7.6839,62.9036,0.0],[7.6891,62.9068,0.0],[7.6901,62.9099,20.6434],[7.6979,62.9104,0.0],[7.7036,62.913,0.0],[7.7057,62.9151,0.0],[7.7068,62.9203,4.1161],[7.712,62.9214,0.0],[7.713,62.9245,0.0],[7.725,62.9292,3.8258],[7.7307,62.9297,0.0],[7.7339,62.9349,28.536],[7.7432,62.9359,0.0],[7.7443,62.9391,0.0],[7.7641,62.9464,0.0],[7.7651,62.9495,0.0],[7.7786,62.9547,3.2596],[7.7818,62.9578,15.4882],[7.7891,62.9568,0.0],[7.7911,62.962,0.0],[7.7792,62.9625,24.3337],[7.7724,62.9661,0.0],[7.7625,62.9688,0.0],[7.7479,62.9667,5.0774],[7.7464,62.9672,15.4851],[7.7474,62.9703,0.0],[7.7417,62.9729,0.0],[7.7354,62.9688,3.7184],[7.7271,62.9688,0.0],[7.7229,62.9708,0.0],[7.6979,62.9708,0.0],[7.6938,62.9688,0.0],[7.6854,62.9688,0.0],[7.675,62.9646,6.4278],[7.6646,62.9646,0.0],[7.662,62.9609,0.0],[7.65,62.9562,2.863],[7.6401,62.9578,0.0],[7.6411,62.9547,0.0],[7.6276,62.9516,0.0],[7.6266,62.9484,9.8312],[7.6208,62.9458,17.2325],[7.6146,62.9479,0.0],[7.612,62.9443,16.1457],[7.6026,62.9432,0.0],[7.6016,62.9401,0.0],[7.5936,62.9375,2.9892],[7.5943,62.9358,14.1048]]],
[[[7.8464,62.9932,0.0],[7.8495,62.9953,15.7904],[7.8438,62.9979,15.7589],[7.8354,62.9938,72.5815],[7.8292,62.9938,4.128],[7.825,62.9958,0.0],[7.8208,62.9938,8.5176],[7.8146,62.9938,0.0],[7.812,62.9901,42.0684],[7.8042,62.9896,0.0],[7.7922,62.9849,0.0],[7.7922,62.9797,0.0],[7.7953,62.9776,40.808],[7.7833,62.9771,0.0],[7.7818,62.9755,0.0],[7.7849,62.9745,16.5193],[7.7859,62.9714,0.0],[7.7958,62.9708,29.7234],[7.8042,62.9667,0.0],[7.8229,62.9667,0.0],[7.8313,62.9708,9.0238],[7.8521,62.9708,0.0],[7.8604,62.975,0.0],[7.8682,62.9755,10.14],[7.8703,62.9828,0.0],[7.8568,62.9839,3.2346],[7.8536,62.9911,0.0],[7.8479,62.9917,20.305],[7.8464,62.9932,0.0]]]]}}