{"type":"Feature","properties":{"GID_2":"NOR.16.13_1","GID_0":"NOR","country":"Norway","GID_1":"NOR.16_1","province":"Telemark","NL_NAME_1":"NA","county":"Seljord","VARNAME_2":"NA","NL_NAME_2":"NA","TYPE_2":"Kommuner","ENGTYPE_2":"Municipality","CC_2":"NA","HASC_2":"NO.TE.SE","name":"Seljord.county"},
"geometry":{"type": "MultiPolygon","coordinates": [[[[8.9022,59.4931,1117.4543],[8.8585,59.4893,1242.5092],[8.8571,59.4937,1185.9609],[8.8221,59.4907,1112.5167],[8.8206,59.4951,1071.3278],[8.8119,59.4944,1038.8236],[8.8104,59.4988,1102.1918],[8.793,59.4973,1072.1453],[8.79,59.5061,1067.4445],[8.7812,59.5054,1091.7748],[8.7708,59.5363,709.6808],[8.7621,59.5356,681.6498],[8.7591,59.5444,901.314],[8.7503,59.5437,911.2761],[8.7473,59.5525,1209.2932],[8.7298,59.551,1348.0004],[8.7283,59.5554,1366.7284],[8.7196,59.5546,1365.1196],[8.7181,59.5591,1322.8806],[8.7094,59.5583,1308.3264],[8.7048,59.5716,1037.6904],[8.6961,59.5708,986.6361],[8.6931,59.5796,867.1396],[8.6843,59.5789,827.5123],[8.6828,59.5833,734.2313],[8.6303,59.5787,775.8915],[8.6288,59.5831,747.1549],[8.6201,59.5824,701.9341],[8.6185,59.5868,681.7762],[8.5748,59.5829,532.1988],[8.5672,59.605,733.9017],[8.5584,59.6042,738.3594],[8.5569,59.6087,729.1375],[8.5481,59.6079,753.9678],[8.5466,59.6123,757.6163],[8.5378,59.6115,806.0754],[8.5363,59.616,834.653],[8.5276,59.6152,779.1013],[8.5169,59.6461,979.6337],[8.5081,59.6453,924.7172],[8.5066,59.6498,1000.1711],[8.4978,59.649,912.4421],[8.4916,59.6666,914.8663],[8.4829,59.6659,828.9408],[8.4752,59.688,1057.0217],[8.4664,59.6872,980.5679],[8.4587,59.7093,1052.6371],[8.4499,59.7085,945.6387],[8.4453,59.7217,1187.9673],[8.4365,59.721,1179.6244],[8.4303,59.7386,1090.2133],[8.4215,59.7379,1096.9407],[8.4169,59.7511,1218.1588],[8.4256,59.7519,1211.9956],[8.421,59.7651,1237.5065],[8.4122,59.7644,1316.7041],[8.4106,59.7688,1224.573],[8.4019,59.768,1227.5798],[8.4003,59.7724,1208.2375],[8.3915,59.7716,1197.2332],[8.3899,59.776,1169.3337],[8.3811,59.7752,1168.9893],[8.3796,59.7797,1215.7715],[8.3708,59.7789,1182.6078],[8.3692,59.7833,1104.396],[8.3604,59.7825,1041.6396],[8.3589,59.7869,1041.9188],[8.3149,59.783,1105.2539],[8.3165,59.7786,1122.6948],[8.2989,59.777,1065.334],[8.3004,59.7726,1083.501],[8.2916,59.7718,1101.3119],[8.2963,59.7585,1081.7809],[8.2875,59.7578,1212.1565],[8.2923,59.7445,1280.8151],[8.2747,59.7429,1089.8872],[8.2763,59.7385,1080.5112],[8.2675,59.7377,1021.0997],[8.269,59.7333,968.9235],[8.2515,59.7317,910.3878],[8.2499,59.7361,901.6941],[8.2411,59.7353,973.5353],[8.2395,59.7397,923.5632],[8.222,59.7382,1005.1299],[8.2235,59.7337,1112.8984],[8.206,59.7322,1121.6477],[8.2091,59.7233,1088.7794],[8.2004,59.7225,1094.1804],[8.2082,59.7005,1076.9763],[8.217,59.7013,1111.2632],[8.2186,59.6968,1089.1945],[8.2361,59.6984,1074.7166],[8.2409,59.6852,1052.8452],[8.2233,59.6836,1046.6489],[8.2249,59.6792,1019.8907],[8.2161,59.6784,992.0045],[8.2208,59.6651,951.8229],[8.2296,59.6659,996.7743],[8.2312,59.6615,1005.6944],[8.2224,59.6607,921.1338],[8.2256,59.6519,1005.4406],[8.2343,59.6527,935.7284],[8.2375,59.6439,991.6555],[8.2462,59.6447,939.0213],[8.2572,59.6138,783.894],[8.2659,59.6145,758.0191],[8.2675,59.6101,727.2031],[8.2587,59.6093,746.676],[8.2619,59.6005,766.1172],[8.2706,59.6013,725.9125],[8.2722,59.5969,717.986],[8.2634,59.5961,840.7863],[8.265,59.5917,797.3346],[8.2563,59.5909,804.3634],[8.2609,59.5776,837.7214],[8.2347,59.5753,816.5939],[8.2331,59.5797,805.7999],[8.2244,59.5789,759.561],[8.2275,59.57,762.736],[8.2363,59.5708,825.3127],[8.2394,59.562,871.6787],[8.2481,59.5628,865.8582],[8.2497,59.5584,1008.0432],[8.2584,59.5592,920.5272],[8.2672,59.56,930.546],[8.2656,59.5644,983.1398],[8.2831,59.566,968.7964],[8.2815,59.5704,948.0689],[8.299,59.572,954.6987],[8.2975,59.5764,950.0978],[8.3237,59.5788,834.2708],[8.3253,59.5743,891.9969],[8.334,59.5751,747.9561],[8.3371,59.5663,854.7803],[8.3458,59.5671,758.5016],[8.3474,59.5627,867.5831],[8.3561,59.5634,926.0665],[8.3577,59.559,887.7175],[8.3664,59.5598,766.7587],[8.3742,59.5377,1008.0887],[8.3654,59.537,1064.0354],[8.367,59.5325,1045.9998],[8.3757,59.5333,1012.6754],[8.3772,59.5289,1016.5449],[8.4122,59.532,964.9786],[8.4137,59.5276,1028.2764],[8.4224,59.5284,842.9388],[8.424,59.524,829.6449],[8.4327,59.5248,783.2004],[8.4358,59.5159,821.7377],[8.4445,59.5167,828.679],[8.4461,59.5123,840.2119],[8.4635,59.5139,913.2858],[8.462,59.5183,865.427],[8.4707,59.5191,603.0],[8.4722,59.5146,835.9141],[8.481,59.5154,603.0],[8.4825,59.511,693.2963],[8.4912,59.5118,603.0],[8.4989,59.4897,1034.6255],[8.5076,59.4905,1022.6838],[8.5167,59.4639,636.8978],[8.5429,59.4663,488.2442],[8.5474,59.453,505.4328],[8.5649,59.4546,238.6606],[8.5664,59.4501,254.6785],[8.6013,59.4532,664.432],[8.6028,59.4488,591.0074],[8.6115,59.4496,625.4848],[8.6175,59.4319,438.2194],[8.6088,59.4311,394.7624],[8.6148,59.4134,516.7945],[8.6322,59.415,508.1782],[8.6368,59.4017,582.3277],[8.6281,59.401,564.7283],[8.6341,59.3833,897.9796],[8.6254,59.3825,962.9791],[8.6284,59.3737,997.3981],[8.6719,59.3775,683.5585],[8.6734,59.3731,715.9481],[8.7256,59.3777,326.1765],[8.7241,59.3821,497.1829],[8.7328,59.3828,445.9584],[8.7313,59.3873,371.2883],[8.7487,59.3888,366.5445],[8.7472,59.3932,294.6089],[8.7559,59.394,196.3436],[8.7574,59.3895,267.6649],[8.7661,59.3903,199.0221],[8.7706,59.377,239.6958],[8.7793,59.3778,264.1874],[8.7822,59.3689,164.7205],[8.7909,59.3697,203.2706],[8.7939,59.3609,235.477],[8.8026,59.3616,279.8923],[8.8041,59.3572,295.9192],[8.8215,59.3587,419.5081],[8.8229,59.3543,419.4128],[8.8316,59.355,418.3223],[8.8331,59.3506,426.8863],[8.8505,59.3521,446.7291],[8.852,59.3477,501.7661],[8.8781,59.35,602.7688],[8.8766,59.3544,631.7495],[8.8853,59.3551,571.6809],[8.8838,59.3595,441.7864],[8.8751,59.3588,462.9749],[8.8736,59.3632,445.6318],[8.8649,59.3625,527.2226],[8.8605,59.3757,261.3651],[8.8692,59.3765,281.0885],[8.8648,59.3898,490.9436],[8.8387,59.3875,317.5492],[8.8372,59.3919,298.526],[8.8198,59.3904,307.3405],[8.8154,59.4037,426.6549],[8.8241,59.4044,544.6462],[8.8197,59.4177,345.5557],[8.8284,59.4185,378.2912],[8.8254,59.4273,116.5],[8.8603,59.4303,255.185],[8.8588,59.4347,124.8261],[8.8675,59.4355,125.47],[8.866,59.4399,140.516],[8.9096,59.4437,517.4833],[8.9023,59.4658,695.8882],[8.8936,59.465,715.7546],[8.8921,59.4695,769.7293],[8.9008,59.4702,782.3831],[8.8994,59.4746,932.0189],[8.9081,59.4754,946.8382],[8.9022,59.4931,1117.4543]]]]}}