{"type": "Feature","bbox": [5.4654,61.8458,6.4572,62.0195],"geometry": {"type": "MultiPolygon","coordinates": [[[[5.565,61.9579,659.5368],[5.537,61.9549,493.4425],[5.5391,61.9506,393.4632],[5.5017,61.9467,167.4305],[5.5038,61.9423,278.642],[5.4945,61.9413,283.2759],[5.4966,61.9369,155.8642],[5.4779,61.935,212.3551],[5.4801,61.9306,208.3052],[5.4707,61.9296,165.8884],[5.4719,61.9272,0.0],[5.4654,61.9268,0.0],[5.4687,61.925,0.0],[5.4729,61.9271,0.0],[5.4875,61.9271,0.0],[5.5021,61.9313,0.0],[5.5089,61.9276,0.0],[5.5188,61.925,0.0],[5.5313,61.9271,0.0],[5.5354,61.925,0.0],[5.5437,61.925,17.7843],[5.5521,61.9208,0.0],[5.5563,61.9229,0.0],[5.5667,61.9229,0.0],[5.5708,61.9208,0.0],[5.5937,61.9208,0.0],[5.5979,61.9229,0.0],[5.6062,61.9229,0.0],[5.6312,61.9146,0.0],[5.6396,61.9146,8.443],[5.6438,61.9125,0.0],[5.6479,61.9125,0.0],[5.6521,61.9146,27.9028],[5.6583,61.9146,30.5928],[5.6625,61.9125,0.0],[5.6708,61.9125,0.0],[5.675,61.9104,0.0],[5.7146,61.9104,0.0],[5.7271,61.9146,17.9011],[5.7417,61.9146,0.0],[5.7458,61.9167,0.0],[5.7771,61.9167,0.0],[5.7813,61.9188,11.2921],[5.8042,61.9188,24.488],[5.8167,61.9146,0.0],[5.8208,61.9167,10.1354],[5.8354,61.9146,0.0],[5.8396,61.9167,0.0],[5.8437,61.9167,0.0],[5.8521,61.9125,0.0],[5.8708,61.9125,0.0],[5.875,61.9146,15.3562],[5.8833,61.9146,0.0],[5.8979,61.9188,11.978],[5.9021,61.9167,0.0],[5.9063,61.9167,0.0],[5.9104,61.9188,9.3479],[5.9146,61.9188,26.6975],[5.9187,61.9167,0.0],[5.9333,61.9167,19.2829],[5.9375,61.9146,0.0],[5.975,61.9125,0.0],[5.9891,61.9057,5.4897],[5.9891,61.9026,7.3012],[5.9812,61.8979,81.3962],[5.9771,61.9,0.0],[5.9729,61.8979,65.3487],[5.9688,61.8979,64.05],[5.9646,61.9,0.0],[5.9604,61.8979,61.9958],[5.9563,61.9,0.0],[5.8979,61.9,95.4487],[5.8938,61.9021,0.0],[5.8854,61.9021,0.0],[5.8812,61.9,39.0743],[5.8771,61.9021,0.0],[5.8667,61.8979,31.3509],[5.8583,61.8979,0.0],[5.8542,61.8958,137.1965],[5.8313,61.8958,238.4903],[5.8271,61.8979,146.7157],[5.8187,61.8979,191.618],[5.8146,61.9,35.3467],[5.8,61.8979,117.1502],[5.7958,61.9,0.0],[5.7917,61.9,0.0],[5.7792,61.8958,189.2003],[5.7458,61.8958,0.0],[5.7359,61.8922,8.6427],[5.7458,61.8875,0.0],[5.7542,61.8875,44.7313],[5.7568,61.8839,0.0],[5.7641,61.8828,0.0],[5.7651,61.8797,0.0],[5.7724,61.8766,44.0721],[5.7714,61.8734,7.0515],[5.7729,61.8729,0.0],[5.7771,61.8729,22.7278],[5.7813,61.8708,0.0],[5.8016,61.8703,0.0],[5.8099,61.8661,0.0],[5.8083,61.8604,74.0446],[5.8104,61.8583,66.8496],[5.8208,61.8583,0.0],[5.8276,61.862,0.0],[5.8411,61.8651,0.0],[5.8422,61.8682,29.5432],[5.8479,61.8708,0.0],[5.8557,61.8714,0.0],[5.8583,61.875,0.0],[5.8625,61.875,0.0],[5.8667,61.8729,0.0],[5.875,61.8771,109.2864],[5.8812,61.875,0.0],[5.8938,61.8792,124.4692],[5.9083,61.8792,0.0],[5.9125,61.8812,0.0],[5.9167,61.8812,0.0],[5.9208,61.8792,0.0],[5.9333,61.8792,149.4084],[5.9542,61.8729,0.0],[5.9729,61.8729,0.0],[5.9771,61.875,0.0],[5.9812,61.8729,0.0],[5.9958,61.8771,90.5993],[6.0,61.875,0.0],[6.0313,61.875,0.0],[6.0354,61.8771,96.2918],[6.0396,61.875,0.0],[6.0521,61.875,38.1104],[6.0563,61.8729,0.0],[6.0646,61.8729,0.0],[6.0703,61.8703,0.0],[6.0714,61.8672,0.0],[6.0786,61.8661,0.0],[6.0854,61.8625,0.0],[6.1146,61.8563,27.0357],[6.1172,61.8526,0.0],[6.1229,61.8521,75.9566],[6.1312,61.8479,0.0],[6.1438,61.8458,0.0],[6.1479,61.8479,0.0],[6.1625,61.8479,0.0],[6.1667,61.85,36.1631],[6.1708,61.8479,0.0],[6.175,61.8479,0.0],[6.1896,61.8521,0.0],[6.2167,61.8542,0.0],[6.2312,61.8604,0.0],[6.275,61.8615,251.5394],[6.2734,61.8651,272.0038],[6.2827,61.866,325.9367],[6.2728,61.8879,836.3163],[6.2821,61.8889,792.8776],[6.2781,61.8977,661.7225],[6.3435,61.9041,1062.6875],[6.3455,61.8998,980.2584],[6.3549,61.9007,957.2195],[6.3529,61.9051,1126.873],[6.3903,61.9088,1063.9775],[6.3942,61.9,1057.0079],[6.4036,61.9009,885.9252],[6.4055,61.8965,886.4353],[6.4336,61.8993,1012.2031],[6.4355,61.8949,926.3633],[6.4449,61.8958,880.0418],[6.4409,61.9046,754.4714],[6.4503,61.9055,736.2432],[6.4404,61.9275,399.6164],[6.4498,61.9284,315.0432],[6.4478,61.9328,262.7086],[6.4572,61.9337,259.1371],[6.4532,61.9425,52.5],[6.4439,61.9415,52.5],[6.438,61.9547,52.5],[6.4286,61.9538,52.5],[6.4266,61.9582,52.5],[6.436,61.9591,52.5],[6.4301,61.9723,406.3099],[6.4281,61.9767,612.9106],[6.4187,61.9757,682.6454],[6.4147,61.9845,1030.2112],[6.3866,61.9817,892.1267],[6.3886,61.9774,662.7407],[6.3699,61.9755,811.9102],[6.3719,61.9711,593.5338],[6.3531,61.9693,705.6118],[6.3551,61.9649,876.8768],[6.3364,61.963,640.4161],[6.3344,61.9674,536.597],[6.3157,61.9656,719.011],[6.3137,61.97,710.3826],[6.3043,61.969,755.5001],[6.2983,61.9822,420.5685],[6.289,61.9813,420.0917],[6.287,61.9856,455.8708],[6.2776,61.9847,446.4172],[6.2756,61.9891,484.2744],[6.2662,61.9882,600.6071],[6.2642,61.9925,618.4454],[6.2549,61.9916,767.3431],[6.2529,61.996,867.391],[6.2341,61.9941,973.8877],[6.2261,62.0117,783.5755],[6.2167,62.0107,592.9889],[6.2127,62.0195,717.8776],[6.1846,62.0167,660.4985],[6.1866,62.0123,640.3879],[6.1772,62.0114,651.7167],[6.1812,62.0026,450.1962],[6.1719,62.0017,436.7268],[6.1759,61.9929,481.8871],[6.1665,61.992,612.3771],[6.1686,61.9876,554.6846],[6.1405,61.9848,851.1437],[6.1465,61.9716,714.3564],[6.1372,61.9707,553.5223],[6.1412,61.9619,307.965],[6.0383,61.9515,773.5722],[6.0363,61.9559,782.4667],[6.0269,61.955,535.8073],[6.0188,61.9725,475.9651],[6.0094,61.9716,565.7863],[6.0013,61.9891,732.3309],[5.9825,61.9872,853.6496],[5.9805,61.9916,877.5308],[5.9711,61.9906,1020.9118],[5.9691,61.995,1183.7936],[5.8849,61.9864,748.4674],[5.8869,61.982,782.43],[5.8776,61.9811,733.0],[5.8796,61.9767,690.4525],[5.8609,61.9748,812.0],[5.863,61.9704,767.6652],[5.8069,61.9646,658.0882],[5.8048,61.969,463.6866],[5.7861,61.9671,555.5669],[5.7841,61.9715,756.676],[5.7747,61.9705,775.3755],[5.7726,61.9749,861.1766],[5.7539,61.973,818.034],[5.7519,61.9773,828.9667],[5.7425,61.9764,679.5],[5.7404,61.9807,687.2463],[5.7217,61.9788,838.2295],[5.7238,61.9744,697.6884],[5.7145,61.9735,801.7253],[5.7165,61.9691,656.5644],[5.7072,61.9681,857.8876],[5.7093,61.9637,635.737],[5.6999,61.9628,663.5],[5.6978,61.9671,880.1135],[5.6885,61.9662,803.3047],[5.6843,61.9749,806.5991],[5.6563,61.972,713.0985],[5.6584,61.9676,453.886],[5.565,61.9579,659.5368]]]]}
,"properties": {"GID_2": "NOR.14.6_1","GID_0": "NOR","country": "Norway","GID_1": "NOR.14_1","province": "SognogFjordane","NL_NAME_1": "NA","county": "Eid","VARNAME_2": "NA","NL_NAME_2": "NA","TYPE_2": "Kommuner","ENGTYPE_2": "Municipality","CC_2": "NA","HASC_2": "NO.SF.EI","name": "Eid.county","area_km2": 461.3912,"hist_schema_id": "Elevation0-9000","hist_area_km2": {"0": 8.5397,"25": 8.3668,"50": 48.562,"75": 11.0796,"100": 8.3648,"125": 7.9054,"150": 8.6138,"175": 10.3393,"200": 10.2392,"225": 11.2363,"250": 11.914,"275": 11.9028,"300": 13.0501,"325": 12.561,"350": 12.3618,"375": 12.5411,"400": 14.8546,"425": 18.2707,"450": 16.2392,"475": 15.9185,"500": 15.6798,"525": 14.5835,"550": 14.3048,"575": 12.7877,"600": 13.3255,"625": 13.1465,"650": 12.957,"675": 12.2696,"700": 10.9133,"725": 9.9159,"750": 8.7294,"775": 7.811,"800": 7.5024,"825": 6.5542,"850": 5.4167,"875": 5.0472,"900": 3.5909,"925": 2.4933,"950": 2.3344,"975": 2.1647,"1000": 1.7855,"1025": 1.2072,"1050": 1.0171,"1075": 0.6683,"1100": 0.4888,"1125": 0.2993,"1150": 0.3592,"1175": 0.4287,"1200": 0.3492,"1225": 0.1198,"1250": 0.1697,"1275": 0.1098}}}