{"type":"Feature","properties":{"GID_2":"NOR.15.20_1","GID_0":"NOR","country":"Norway","GID_1":"NOR.15_1","province":"Sør-Trøndelag","NL_NAME_1":"NA","county":"Røros","VARNAME_2":"NA","NL_NAME_2":"NA","TYPE_2":"Kommuner","ENGTYPE_2":"Municipality","CC_2":"NA","HASC_2":"NO.ST.RR","name":"Røros.county"},
"geometry":{"type": "MultiPolygon","coordinates": [[[[12.2541,62.3307,756.8159],[12.2495,62.3485,763.2158],[12.2399,62.348,762.0328],[12.2342,62.3703,808.1864],[12.2245,62.3697,802.2783],[12.2188,62.392,908.2557],[12.2091,62.3915,907.6606],[12.2033,62.4138,831.7963],[12.1937,62.4132,834.3658],[12.1879,62.4355,856.771],[12.1782,62.435,849.8453],[12.1724,62.4573,877.0176],[12.1628,62.4568,868.9847],[12.1569,62.479,1076.2267],[12.1472,62.4785,1031.5237],[12.1414,62.5008,1053.5409],[12.1317,62.5003,1095.7118],[12.1258,62.5225,1014.3779],[12.1162,62.522,1074.4712],[12.1103,62.5443,967.4637],[12.1006,62.5438,1015.4223],[12.0947,62.566,958.9317],[12.085,62.5655,1066.4993],[12.0791,62.5878,1112.2063],[12.0694,62.5873,1033.7235],[12.0598,62.6229,994.6389],[12.0695,62.6234,974.2218],[12.066,62.6368,869.0563],[12.0757,62.6374,853.5204],[12.0733,62.6463,845.9782],[12.083,62.6468,848.6824],[12.0794,62.6602,898.6852],[12.0891,62.6607,889.9774],[12.0868,62.6696,947.6949],[12.0965,62.6702,928.1451],[12.0941,62.6791,905.6622],[12.1038,62.6796,855.0688],[12.1002,62.693,832.1334],[12.11,62.6935,826.0988],[12.1076,62.7025,795.3247],[12.1173,62.703,831.9208],[12.1137,62.7164,830.132],[12.1235,62.7169,833.8511],[12.1211,62.7258,868.21],[12.1308,62.7264,896.4091],[12.1273,62.7397,906.8566],[12.137,62.7403,890.4005],[12.1334,62.7536,1008.9614],[12.1237,62.7531,960.6255],[12.1225,62.7576,897.7209],[12.103,62.7565,883.9277],[12.1018,62.7609,930.7593],[12.0823,62.7599,938.4259],[12.0811,62.7643,992.6489],[12.0617,62.7632,1002.0829],[12.0605,62.7677,1022.5123],[12.0507,62.7672,908.041],[12.0495,62.7716,935.3359],[12.03,62.7705,895.9556],[12.0288,62.775,886.5612],[12.0093,62.7739,926.7027],[12.0081,62.7784,897.4154],[11.9886,62.7773,988.6901],[11.9874,62.7817,920.566],[11.9777,62.7812,970.7991],[11.9764,62.7856,910.7212],[11.9569,62.7845,1024.3719],[11.9557,62.789,1006.6495],[11.9362,62.7879,845.0339],[11.935,62.7923,843.042],[11.9253,62.7918,837.5],[11.924,62.7962,840.6857],[11.9045,62.7951,781.8337],[11.9033,62.7996,786.0627],[11.8936,62.799,763.2537],[11.8923,62.8035,771.6238],[11.8728,62.8024,813.2377],[11.8716,62.8068,827.3927],[11.8618,62.8063,868.8669],[11.8606,62.8107,854.2946],[11.8509,62.8102,877.8631],[11.8496,62.8146,883.5013],[11.8399,62.8141,875.309],[11.8386,62.8185,889.2028],[11.8289,62.818,830.8294],[11.8276,62.8224,848.8757],[11.8179,62.8219,822.0435],[11.8166,62.8263,864.7284],[11.8069,62.8258,817.8054],[11.8056,62.8302,827.6937],[11.7861,62.8291,806.3372],[11.7874,62.8247,846.2896],[11.7776,62.8241,921.2371],[11.7788,62.8196,923.728],[11.7593,62.8185,925.9831],[11.7606,62.8141,929.5639],[11.7508,62.8135,962.0891],[11.7521,62.8091,986.2773],[11.7326,62.8079,1018.5867],[11.7338,62.8035,1014.595],[11.7241,62.8029,1033.2147],[11.7253,62.7985,1017.3031],[11.7058,62.7973,1026.155],[11.7071,62.7929,997.7462],[11.6876,62.7917,992.9331],[11.6888,62.7873,947.0731],[11.6791,62.7867,944.4041],[11.6803,62.7823,919.9559],[11.5829,62.7766,1069.4393],[11.5842,62.7721,1076.2073],[11.4966,62.7669,944.8346],[11.4979,62.7625,904.9491],[11.4784,62.7613,872.6669],[11.4797,62.7568,877.2761],[11.4602,62.7557,875.8685],[11.4589,62.7601,819.572],[11.4492,62.7595,777.8328],[11.4479,62.764,709.3989],[11.4284,62.7628,784.6853],[11.4297,62.7584,774.6732],[11.4005,62.7566,880.4072],[11.4018,62.7522,895.35],[11.3921,62.7516,912.2489],[11.3947,62.7427,907.6959],[11.3753,62.7415,902.5194],[11.374,62.746,874.5005],[11.3253,62.743,657.9578],[11.324,62.7475,648.2664],[11.3046,62.7463,758.6575],[11.3059,62.7418,773.6722],[11.2962,62.7412,818.2995],[11.2988,62.7323,808.1158],[11.2891,62.7317,894.8944],[11.2917,62.7228,886.2675],[11.282,62.7222,927.984],[11.2833,62.7178,909.9259],[11.2736,62.7172,941.9273],[11.2749,62.7127,925.1094],[11.2652,62.7122,918.9698],[11.2665,62.7077,880.7242],[11.2568,62.7071,905.9286],[11.2555,62.7116,913.2751],[11.2458,62.711,911.9307],[11.2263,62.7098,960.9882],[11.2277,62.7053,987.0952],[11.2082,62.7041,904.1301],[11.2096,62.6997,918.3922],[11.1999,62.6991,890.597],[11.2012,62.6946,899.072],[11.1915,62.694,886.3997],[11.1928,62.6896,918.1169],[11.1831,62.689,936.6202],[11.1844,62.6845,944.7501],[11.1747,62.6839,929.7913],[11.176,62.6795,971.7389],[11.1663,62.6789,1000.0675],[11.1677,62.6744,1014.1075],[11.158,62.6738,871.6495],[11.1593,62.6694,900.5519],[11.1496,62.6688,820.5107],[11.1509,62.6643,853.7639],[11.1412,62.6637,848.3169],[11.1439,62.6548,855.1249],[11.1536,62.6554,940.1606],[11.1616,62.6287,930.3734],[11.1519,62.6281,957.7449],[11.1559,62.6148,938.5645],[11.1656,62.6154,894.8923],[11.1682,62.6065,918.3403],[11.1779,62.6071,913.9041],[11.1805,62.5982,887.8574],[11.1902,62.5988,882.6568],[11.1955,62.581,816.3542],[11.1858,62.5804,818.5712],[11.1885,62.5715,805.4165],[11.1981,62.5721,806.5621],[11.1994,62.5677,813.0266],[11.2381,62.57,749.7262],[11.2499,62.53,786.2563],[11.2596,62.5306,722.541],[11.2609,62.5262,704.0812],[11.2995,62.5285,614.439],[11.3008,62.5241,649.1308],[11.3104,62.5247,731.6824],[11.3117,62.5202,768.6924],[11.3214,62.5208,822.5606],[11.3227,62.5164,855.1104],[11.3323,62.517,900.1797],[11.3349,62.5081,943.1058],[11.3446,62.5086,996.5245],[11.3459,62.5042,974.9271],[11.3555,62.5048,982.0236],[11.3568,62.5003,963.4929],[11.3664,62.5009,972.492],[11.3677,62.4965,1024.0991],[11.3774,62.4971,973.3196],[11.3787,62.4926,1005.3314],[11.3883,62.4932,988.4839],[11.3896,62.4888,997.1546],[11.3992,62.4893,1037.3705],[11.4005,62.4849,967.4636],[11.4102,62.4855,1002.6902],[11.4114,62.481,970.1625],[11.4211,62.4816,1017.4285],[11.4224,62.4772,1010.5358],[11.432,62.4777,1069.0797],[11.4346,62.4688,935.0664],[11.4442,62.4694,909.1071],[11.4468,62.4605,867.1985],[11.4564,62.4611,852.6011],[11.4589,62.4522,776.6688],[11.4686,62.4528,790.0947],[11.4711,62.4439,848.3536],[11.4807,62.4445,848.369],[11.4833,62.4356,896.5652],[11.4929,62.4361,888.8231],[11.503,62.4005,953.8351],[11.5127,62.4011,977.8639],[11.5152,62.3922,964.9413],[11.5248,62.3928,943.4396],[11.5273,62.3839,920.8285],[11.5369,62.3844,935.8285],[11.5394,62.3755,955.0246],[11.5491,62.3761,950.5641],[11.5516,62.3672,816.6862],[11.5804,62.3689,782.9578],[11.5791,62.3734,777.1406],[11.6272,62.3763,929.7878],[11.6259,62.3807,949.7482],[11.674,62.3836,942.1203],[11.6765,62.3746,941.6828],[11.6861,62.3752,971.3558],[11.6923,62.3529,847.0118],[11.7019,62.3535,812.1033],[11.7031,62.3491,799.5069],[11.7319,62.3508,693.5837],[11.7307,62.3552,695.7102],[11.7403,62.3558,736.7327],[11.7391,62.3602,718.6939],[11.7487,62.3608,768.6641],[11.7475,62.3652,786.7095],[11.7571,62.3658,797.9341],[11.7558,62.3703,777.5087],[11.7655,62.3708,792.4275],[11.7642,62.3753,776.9831],[11.8027,62.3775,848.3139],[11.8039,62.3731,875.3239],[11.8327,62.3747,908.5193],[11.834,62.3703,936.6302],[11.8628,62.3719,862.58],[11.864,62.3675,897.226],[11.8929,62.3691,791.5557],[11.8941,62.3647,810.5859],[11.9133,62.3658,732.6399],[11.9145,62.3613,726.7707],[11.9433,62.363,661.5],[11.9445,62.3585,661.5],[11.9734,62.3602,661.5],[11.9745,62.3557,661.5],[11.9938,62.3568,672.897],[11.995,62.3524,683.9807],[12.0238,62.354,710.4689],[12.025,62.3495,710.9283],[12.0442,62.3506,715.777],[12.0454,62.3462,718.1694],[12.055,62.3467,714.3087],[12.0562,62.3423,724.6772],[12.0658,62.3428,719.2009],[12.0669,62.3383,723.1094],[12.076599999999999,62.3389,723.5728],[12.0777,62.3344,719.7454],[12.0873,62.335,729.113],[12.0897,62.326,720.4911],[12.0993,62.3266,728.7043],[12.1005,62.3221,719.5362],[12.1101,62.3227,734.0977],[12.1124,62.3138,722.7124],[12.122,62.3143,720.3131],[12.1232,62.3098,723.6491],[12.1808,62.313,754.8333],[12.1796,62.3175,749.3731],[12.1892,62.318,750.1916],[12.1881,62.3225,750.5],[12.2073,62.3236,782.2803],[12.2061,62.328,751.9632],[12.2541,62.3307,756.8159]]]]}}