{"type":"Feature","properties":{"featurecla":"Lake","scalerank":6,"name":"null351","name_abb":null,"name_alt":null,"note":"_untitled_52","delta":null,"dam_name":null,"year":-99,"admin":null,"min_zoom":5.0,"min_label":6.5},
"geometry":{"type": "Polygon","coordinates": [[[15.519322340449094,63.762621720190111,291.8866],[15.511963237270805,63.751435883359107,286.2848],[15.520794161084751,63.740250046528104,290.3672],[15.535512367441356,63.740250046528104,290.1396],[15.568481149680082,63.760855535427311,287.0],[15.582904991909544,63.767625910351342,301.4634],[15.570541698570025,63.783815937343576,291.7173],[15.57584025285837,63.796473594810237,287.0],[15.59173591572349,63.805010154497069,287.0],[15.611458312241325,63.8091312522769,298.2167],[15.60851467097001,63.824143822760618,287.0],[15.626470882725016,63.830031105303249,290.609],[15.672097322430432,63.828559284667591,285.6891],[15.713013936101731,63.821494545616446,301.9434],[15.733325060873824,63.813841078311015,295.3904],[15.747748903103286,63.80177214909861,290.7124],[15.735974338017996,63.792941225284665,280.26],[15.734502517382339,63.782049752580804,276.0191],[15.739801071670712,63.770569551622657,275.5592],[15.747748903103286,63.760855535427311,301.0146],[15.765705114858321,63.74996406272345,275.6996],[15.829876494573,63.740250046528104,282.8685],[15.828110309810228,63.749375334469192,316.2339],[15.824283576157512,63.755556981138938,327.3239],[15.80985973392805,63.767625910351342,321.9104],[15.80073444598699,63.773513192893972,355.6877],[15.782483870104812,63.78087229607226,345.9928],[15.774536038672267,63.787348306869177,357.8139],[15.770120576765294,63.79588486655598,367.3958],[15.765705114858321,63.815018534819558,298.8197],[15.761584017078462,63.8220832738707,329.9958],[15.752458729137373,63.826498735777676,305.5032],[15.730087055475366,63.828853648794734,338.7095],[15.691525354821124,63.839156393244338,316.9937],[15.632063801140532,63.835624023718765,295.3666],[15.59674010588472,63.8509309583296,378.266],[15.56995297031574,63.8535802354738,309.4508],[15.559061497611879,63.859761882143573,310.5187],[15.549347481416532,63.870653354847434,320.3985],[15.543754563001016,63.874185724373007,311.9862],[15.53492363918707,63.876835001517208,303.4476],[15.544048927128159,63.895968669780757,340.1431],[15.532863090297155,63.910392512010219,339.2945],[15.516084335050664,63.924521990112538,322.2311],[15.504604134092517,63.9483654844102,370.3393],[15.486647922337482,63.973092071089241,319.938],[15.481055003921995,63.983689179665987,304.7587],[15.479877547413452,63.989576462208618,325.3646],[15.476345177887879,63.993991924115591,327.1174],[15.466042433438275,64.001056663166764,305.025],[15.457211509624329,63.996052473005534,298.2951],[15.449852406446013,63.993991924115591,361.6295],[15.442493303267725,63.997229929514049,362.7195],[15.438372205487894,64.002528483802422,300.9592],[15.436606020725094,64.005472125073737,309.7503],[15.433368015326664,64.0069439457094,329.7882],[15.410113249283256,64.00812140221791,372.5197],[15.389507760384021,64.011948135870625,394.3124],[15.371257184501872,64.019601603176056,302.6573],[15.36360371719644,64.031376168261318,287.0],[15.375672646408844,64.046388738745037,287.0],[15.42453709151269,64.073470238441161,294.9518],[15.428363825165405,64.086127895907822,297.9208],[15.421593450241375,64.089954629560538,312.2101],[15.40452033086774,64.09348699908611,331.8254],[15.397749955943709,64.096430640357426,352.312],[15.393334494036736,64.101434830518656,397.2158],[15.386858483239848,64.11350375973106,365.7593],[15.383914841968533,64.117036129256633,337.2922],[15.366547358467756,64.129988150850437,301.9138],[15.357422070526695,64.13352052037601,303.9633],[15.342409500042976,64.136758525774468,364.3617],[15.329751842576314,64.136169797520211,375.1446],[15.319154733999568,64.133814884503153,405.9207],[15.31179563082128,64.137052889901582,377.8949],[15.308851989549964,64.1547147375295,406.0917],[15.305908348278649,64.164723117851963,353.4434],[15.29177887017633,64.178558231827168,318.4493],[15.288540864777872,64.188566612149629,314.0371],[15.2858915876337,64.207111552158921,327.2701],[15.279415576836783,64.22712831280387,384.0034],[15.270584653022837,64.2459676169403,365.5543],[15.261165000954634,64.260391459169767,352.45],[15.248212979360829,64.274520937272086,325.2813],[15.236144050148425,64.291594056645721,321.1205],[15.236732778402711,64.308372811892212,320.1854],[15.261165000954634,64.322502289994532,359.755],[15.261165000954634,64.329272664918562,419.4547],[15.186102148536037,64.326917751901533,301.3241],[15.168734665035288,64.333099398571278,298.9527],[15.155488279314369,64.34251905063951,347.6736],[15.145185534864737,64.342813414766624,355.9515],[15.133705333906619,64.339281045241052,316.3527],[15.116926578660099,64.336631768096851,361.879],[15.080719791022915,64.336926132224,363.7324],[15.075421236734542,64.339869773495309,335.5866],[15.073655051971741,64.341341594130967,326.1992],[15.062469215140737,64.356648528741829,418.6544],[15.049517193546961,64.351055610326313,397.2264],[15.04098063386013,64.340458501749566,308.2527],[15.04009754147873,64.32750648015579,334.0744],[15.048928465292704,64.315143186816243,295.3904],[15.08278033991283,64.311610817290671,286.5],[15.136060246923677,64.316320643324786,286.5],[15.184924692027522,64.314554458561986,286.5],[15.206707637435272,64.291888420772864,286.5],[15.210240006960845,64.28394058934029,296.5694],[15.227313126334479,64.258625274406967,315.5067],[15.23320040887711,64.2468507093217,292.6275],[15.234966593639911,64.235076144236444,351.1947],[15.23408350125851,64.2253621280411,302.4689],[15.234966593639911,64.216236840100009,309.3638],[15.240853876182541,64.2059340956504,287.0],[15.219659659029048,64.200929905489176,364.5439],[15.197287985367041,64.211821378193036,401.5081],[15.179626137739149,64.230660682329471,407.649],[15.172267034560861,64.250383078847278,346.4073],[15.159315012967056,64.273343480763543,490.9295],[15.129289871999646,64.287767322993,418.1432],[15.068650861810511,64.301308072841067,294.9148],[15.042746818622931,64.311022089036413,315.1269],[14.988878183357826,64.337514860478251,348.4615],[14.962974140170246,64.342813414766624,403.4121],[14.712764632108332,64.356648528741829,451.8755],[14.698929518133127,64.359886534140259,437.4929],[14.671553654309889,64.374604740496864,370.9898],[14.65830726858897,64.3778427458953,343.4888],[14.618862475553328,64.381963843675152,359.6863],[14.538795432973501,64.400803147811558,394.5158],[14.500233732319259,64.405218609718531,340.1028],[14.416928684341002,64.399625691303044,556.4641],[14.371007880508472,64.401686240192959,415.4193],[14.339216554778233,64.414638261786763,342.5023],[14.325970169057314,64.427295919253424,321.1823],[14.317139245243368,64.432888837668912,319.9286],[14.241782028697656,64.447018315771231,426.5731],[14.180554290254264,64.472333630704554,332.0183],[14.164658627389144,64.487640565315417,342.1501],[14.158182616592256,64.511189695485939,325.2563],[14.161420621990715,64.522669896444086,309.5],[14.166424812151945,64.528262814859573,351.1528],[14.165541719770545,64.53473882565649,380.5376],[14.151412241668226,64.548279575504523,365.9772],[14.140815133091479,64.555049950428554,361.3921],[14.127863111497703,64.559171048208412,372.2085],[14.114616725776784,64.55975977646267,394.9727],[14.102842160691495,64.555933042809954,379.0259],[14.109906899742668,64.548279575504523,309.5],[14.076055025122514,64.5571104993185,382.037],[13.834676440874546,64.651307020000615,550.9302],[13.739302463683885,64.658371759051789,493.8913],[13.719580067166078,64.656016846034731,473.4317],[13.709277322716474,64.649835199364958,321.3294],[13.710454779224989,64.641298639678155,327.733],[13.726350442090109,64.630995895228523,342.5547],[13.747839023370716,64.625108612685892,388.8309],[13.83173279960323,64.616572052999089,309.5],[13.844390457069892,64.613628411727774,312.6028],[13.883246521851277,64.590079281557223,309.5],[14.063103003528738,64.531206456130889,309.5],[14.109906899742668,64.527968450732459,309.5],[14.125802562607788,64.524436081206858,309.5],[14.136399671184506,64.515605157392912,309.5],[14.138754584201564,64.5041249564348,338.8886],[14.130512388641876,64.4932334837309,378.4702],[14.134633486421734,64.485874380552616,341.3791],[14.175550100093034,64.454671783076662,295.0],[14.204986512806187,64.439364848465829,295.0],[14.236777838536426,64.428767739889082,295.0],[14.285642283640271,64.4214086367108,295.0],[14.297122484598418,64.412872077023962,295.0],[14.307425229048022,64.401686240192959,308.371],[14.322143435404598,64.3907947674891,303.2023],[14.337156005888318,64.385496213200724,295.0],[14.592075339984348,64.374016012242578,295.0],[14.692159143209096,64.342813414766624,300.4111],[14.729249023227709,64.3395754093682,295.0],[14.808138609298993,64.346051420165082,323.5638],[14.993588009391942,64.315143186816243,287.0],[15.075715600861685,64.2792307633062,287.0],[15.099853459286464,64.274226573144944,287.0],[15.118987127550042,64.2645125569496,295.6085],[15.139298252322106,64.24390706805039,376.4504],[15.14547989899188,64.224773399786841,335.0804],[15.123402589457015,64.219474845498468,324.5958],[15.14960099677171,64.20622845977752,287.0],[15.207002001562387,64.185034242624056,287.0],[15.253511533649203,64.149710547368244,287.0],[15.303259071134448,64.131165607358952,287.0],[15.329457478449172,64.117036129256633,287.0],[15.343292592424376,64.102023558772913,287.0],[15.354184065128237,64.0814180698737,374.2118],[15.35359533687398,64.062873129864414,292.8686],[15.310618174312737,64.047566195253552,313.0584],[15.317094185109653,64.03078744000706,310.4796],[15.337405309881717,64.012536864124883,296.9064],[15.356833342272409,64.001056663166764,287.0],[15.452207319463071,63.978684989504757,287.0],[15.466042433438275,63.962494962512523,287.0],[15.450441134700299,63.951309125681519,287.0],[15.391568309273964,63.966616060292353,309.9943],[15.391568309273964,63.952486582190033,298.2367],[15.401576689596425,63.946010571393145,293.3693],[15.415117439444487,63.943655658376088,293.4487],[15.426892004529748,63.939828924723372,316.8613],[15.431896194691006,63.928348723765225,287.0],[15.429835645801063,63.914219245662906,287.0],[15.424242727385575,63.909509419628819,287.0],[15.400987961342167,63.910981240264476,287.0],[15.372434641010386,63.91627979455285,298.9469],[15.31267872320268,63.940417652977629,396.4243],[15.285008495252299,63.945716207266,361.5605],[15.276177571438353,63.950720397427233,358.9544],[15.272350837785638,63.972797706962126,332.8764],[15.261165000954634,63.979273717759014,295.4191],[15.259104452064719,63.975152619979184,307.5294],[15.23320040887711,63.952486582190033,293.697],[15.242620060945342,63.939534560596229,297.9391],[15.253805897776346,63.932764185672227,299.1144],[15.264991734607349,63.933941642180741,318.8151],[15.27500011492981,63.945716207266,376.5023],[15.302670342880191,63.925110718366795,294.002],[15.335344760991802,63.913630517408649,291.7328],[15.40452033086774,63.897440490416415,287.0],[15.466042433438275,63.869475898338891,287.0],[15.481349368049109,63.869181534211776,291.8956],[15.519911068703351,63.873008267864492,287.0],[15.53492363918707,63.869475898338891,304.8038],[15.541105285856844,63.8647660723048,298.066],[15.546109476018074,63.858878789762173,306.4935],[15.548170024908018,63.8526971430924,287.0],[15.545226383636674,63.846221132295511,287.0],[15.538750372839786,63.839745121498595,289.131],[15.538456008712672,63.838273300862937,287.0],[15.541105285856844,63.836507116100165,287.0],[15.543754563001016,63.79176376877615,287.0],[15.541694014111101,63.7811666601994,287.0],[15.519322340449094,63.762621720190111,291.8866]]]}}