{"type": "Feature","bbox": [13.479378939426624,64.948909152530746,13.82172441928077,65.055468966552411],"geometry": {"type": "Polygon","coordinates": [[[13.50999280864832,65.03280292876326,432.1632],[13.522944830242125,65.0227945484408,459.356],[13.527654656276212,65.00778197795708,453.2422],[13.521767373733582,64.993652499854761,456.4836],[13.513230814046779,64.982761027150872,460.6301],[13.513819542301036,64.972458282701268,478.1853],[13.534425031200243,64.9598006252346,484.7457],[13.535308123581643,64.956856983963291,510.1277],[13.538546128980101,64.951852793802061,555.5673],[13.545022139776989,64.948909152530746,563.4409],[13.555030520099479,64.953030250310576,480.947],[13.556796704862251,64.9580344404718,479.4838],[13.556502340735136,64.965687907777237,475.1989],[13.557385433116536,64.973635739209783,496.7975],[13.561800895023509,64.980406114133814,461.5359],[13.580345835032801,64.99012013032916,454.6448],[13.600656959804866,64.995418684617533,447.535],[13.782573990372242,65.004249608431479,447.0797],[13.82172441928077,65.014552352881111,485.0739],[13.809949854195509,65.016612901771026,450.989],[13.805534392288507,65.0219114560594,451.806],[13.802590751017192,65.028976195110545,446.9204],[13.794642919584646,65.035157841780318,447.0667],[13.779335984973812,65.039278939560148,480.3219],[13.766383963380008,65.039278939560148,542.3179],[13.643634122366109,65.014552352881111,501.9353],[13.595358405516521,65.0107256192284,487.8513],[13.570631818837455,65.013374896372568,582.6748],[13.547377052794047,65.021322727805114,482.0888],[13.515291362936694,65.04340003734,522.8454],[13.498512607690202,65.052230961153953,517.448],[13.479378939426624,65.055468966552411,446.2914],[13.4940971457832,65.0425169449586,419.6105],[13.50999280864832,65.03280292876326,432.1632]]]}
,"properties": {"featurecla": "Lake","scalerank": 9,"name": "null563","name_abb": null,"name_alt": null,"note": "_untitled_177","delta": null,"dam_name": null,"year": -99,"admin": null,"min_zoom": 7.0,"min_label": 8.0,"area_km2": 48.63236,"hist_schema_id": "Elevation0-9000","hist_area_km2": {"425": 1.32489,"450": 34.34833,"475": 5.56293,"500": 3.45659,"525": 2.64127,"550": 0.94032,"575": 0.30434,"600": 0.05369}}}