{"type": "Feature","bbox": [11.560124830528139,64.035202901914033,12.355202337910782,64.260097095042624],"geometry": {"type": "Polygon","coordinates": [[[12.299273153755763,64.260097095042624,22.5],[12.253352349923233,64.256564725517052,22.5],[12.225387757845709,64.250383078847278,22.5],[12.210669551489133,64.244790160431791,22.5],[12.178583861631779,64.23801978550776,22.5],[12.122360313349645,64.217414296608524,22.5],[12.007558303768292,64.193276438183744,22.5],[11.958105130410161,64.190038432785286,22.5],[11.910123777687687,64.178558231827168,22.5],[11.835060925269119,64.171787856903137,22.5],[11.8209314471668,64.168255487377536,87.8759],[11.807390697318738,64.162956933089191,123.5278],[11.794438675724962,64.15618655816516,118.061],[11.783547203021072,64.147649998478329,22.5],[11.768828996664496,64.1408796235543,22.5],[11.735565850298627,64.139113438791526,34.0578],[11.69317741599167,64.122923411799263,22.5],[11.614287829920386,64.122040319417863,105.8386],[11.581024683554489,64.117036129256633,27.5448],[11.587500694351405,64.107322113061286,22.5],[11.604279449597897,64.095841912103168,22.5],[11.607811819123469,64.086127895907822,133.4577],[11.604279449597897,64.072881510186875,133.2242],[11.595742889911065,64.061401309228756,143.0132],[11.5736655803762,64.041973276838064,51.6871],[11.566306477197912,64.040207092075264,19.0],[11.563362835926597,64.0387352714396,19.0],[11.560124830528139,64.035202901914033,19.0],[11.594859797529693,64.035202901914033,51.4017],[11.618408927700216,64.04580001049078,95.4115],[11.631655313421135,64.067288591771387,19.0],[11.635776411200993,64.099963009883,22.5],[11.6572649924816,64.115564308620975,32.9051],[11.906149861971429,64.148238726732586,22.5],[12.155034731461257,64.1809131448442,22.5],[12.167692388927918,64.1853286067512,22.5],[12.199189350531014,64.210938285811636,62.1223],[12.21037518736199,64.21711993248141,22.5],[12.333713756630175,64.2365479648721,51.5793],[12.355202337910782,64.2468507093217,87.9047],[12.340484131554206,64.257742182025567,22.5],[12.299273153755763,64.260097095042624,22.5]]]}
,"properties": {"featurecla": "Lake","scalerank": 9,"name": "Snåsavatnet","name_abb": "Snåsavatnet","name_alt": "Snåsa Lake","note": null,"delta": null,"dam_name": null,"year": -99,"admin": null,"min_zoom": 7.0,"min_label": 8.0,"area_km2": 124.87353,"hist_schema_id": "Elevation0-9000","hist_area_km2": {"25": 108.02458,"50": 8.00061,"75": 4.35185,"100": 2.25681,"125": 1.62835,"150": 0.57427,"175": 0.03707}}}