{"type":"Feature","properties":{"featurecla":"Lake","scalerank":9,"name":"null561","name_abb":null,"name_alt":null,"note":"_untitled_179","delta":null,"dam_name":null,"year":-99,"admin":null,"min_zoom":7.0,"min_label":8.0},
"geometry":{"type": "Polygon","coordinates": [[[14.16524735564343,63.9754469841063,361.7974],[14.122270193082187,63.972503342834983,378.1536],[14.088712682589176,63.965438603783838,376.2063],[14.114322361649641,63.96220059838538,314.0],[14.174667007711633,63.969265337436553,334.6399],[14.195566860737983,63.962494962512523,314.0],[14.213817436620133,63.952192218062891,333.8816],[14.231479284248053,63.954547131079948,340.7413],[14.248846767748802,63.961611870131122,333.1305],[14.266802979503836,63.965438603783838,314.0],[14.287408468403072,63.960434413622579,314.0],[14.349519299227836,63.924521990112538,314.0],[14.383959902102248,63.912453060900134,314.0],[14.400444293221625,63.903622137086188,314.0],[14.411335765925486,63.890964479619527,314.0],[14.406037211637113,63.889492658983869,314.0],[14.395734467187509,63.885077197076896,322.0804],[14.390435912899136,63.883605376441238,314.0],[14.462555124046418,63.861233702779231,370.1287],[14.526726503761125,63.828559284667591,314.0],[14.545860172024675,63.815607263073815,314.0],[14.555574188220021,63.80177214909861,314.0],[14.63652432318122,63.794707410047465,314.0],[14.681267670505235,63.79765105131878,314.0],[14.713058996235446,63.8091312522769,435.3313],[14.674497295581205,63.818256540217988,444.5047],[14.59384152474712,63.823849458633504,401.8916],[14.555574188220021,63.835918387845908,352.421],[14.530847601540955,63.850047865948227,378.6192],[14.419577961485174,63.930409272655169,531.0224],[14.253262229655803,64.001056663166764,314.0],[14.258560783944148,64.003705940310937,314.0],[14.268569164266637,64.011359407616368,370.3204],[14.273573354427867,64.01400868476054,436.0298],[14.187030301051152,64.0469774669993,370.4527],[14.134339122294591,64.075236423203933,375.1576],[13.917981488852831,64.136758525774468,395.4455],[13.867350858986185,64.1659005743605,356.5987],[13.839680631035804,64.17620331881011,357.9025],[13.814954044356739,64.171787856903137,357.8167],[13.8284947942048,64.1547147375295,355.4961],[13.854398837392381,64.140290895300041,374.3252],[13.918570217107089,64.114681216239575,355.5938],[13.943885532040412,64.108205205442687,344.15],[13.955660097125673,64.099963009883,344.2412],[13.966257205702419,64.094075727340368,343.9342],[14.000992172703945,64.084067347017879,344.039],[14.013649830170607,64.0823011622551,344.1017],[14.026601851764411,64.079063156856648,343.9346],[14.048090433045019,64.062284401610157,348.3328],[14.061925547020195,64.054925298431868,453.7696],[14.070462106707026,64.054042206050468,475.0084],[14.088418318462061,64.056102754940383,389.8749],[14.09666051402175,64.054925298431868,344.3801],[14.10078161180158,64.051981657160553,341.6526],[14.10166470418298,64.0478605593807,354.2354],[14.101959068310123,64.044033825727979,373.7347],[14.102842160691495,64.041973276838064,377.0346],[14.172017730567461,64.0275494346086,337.6046],[14.212051251857361,64.009593222853567,425.7493],[14.226475094086823,64.007238309836538,364.4478],[14.204692148679072,63.98398354379313,417.5904],[14.16524735564343,63.9754469841063,361.7974]]]}}