{"type": "Feature","bbox": [4.7734,60.7229,5.1063,60.8333],"geometry": {"type": "MultiPolygon","coordinates": [[[[5.0286,60.7599,16.8249],[5.025,60.7605,23.2976],[5.0276,60.7568,0.0],[5.0328,60.7568,13.0761],[5.0328,60.7578,10.5583],[5.0286,60.7599,16.8249]]],
[[[5.0172,60.7609,0.0],[5.025,60.7605,23.2976],[5.0214,60.763,24.9701],[5.0203,60.7661,4.9841],[5.0172,60.7672,15.7665],[5.0172,60.7703,0.0],[5.0188,60.7708,0.0],[5.0313,60.7646,9.5796],[5.0354,60.7667,0.0],[5.0479,60.7667,0.0],[5.0578,60.762,2.7824],[5.0583,60.7562,0.0],[5.0578,60.7547,0.0],[5.0526,60.7536,0.0],[5.0516,60.7505,2.7802],[5.0458,60.75,15.3202],[5.0401,60.7474,12.3702],[5.0401,60.7443,0.0],[5.0474,60.7432,12.0102],[5.0464,60.738,0.0],[5.0521,60.7354,0.0],[5.0578,60.7349,7.815],[5.0589,60.7318,0.0],[5.0813,60.7271,3.3927],[5.0896,60.7229,0.0],[5.0995,60.7234,1.9314],[5.0958,60.7271,0.0],[5.0964,60.7328,25.4398],[5.1063,60.7313,18.0319],[5.0875,60.7426,37.8659],[5.0696,60.7508,23.8789],[5.0627,60.7604,15.161],[5.0545,60.7662,17.0388],[5.0558,60.7697,28.9776],[5.0455,60.7796,27.2245],[5.0363,60.781,0.0],[5.0453,60.7706,19.1014],[5.0441,60.7669,0.0],[5.0351,60.7693,17.729],[5.033,60.7737,39.9141],[5.024,60.7727,39.9824],[5.0157,60.7902,33.143],[5.0247,60.7912,29.9355],[5.0268,60.7868,32.4427],[5.0447,60.7888,53.87],[5.0427,60.7932,76.6421],[5.0686,60.7964,1.4855],[5.0568,60.8026,17.723],[5.0557,60.8057,0.0],[5.0401,60.8089,5.2883],[5.037,60.8141,7.7452],[5.0313,60.8167,15.0365],[5.0255,60.8161,8.8941],[5.0229,60.8125,11.7576],[5.0167,60.8125,7.2513],[5.0125,60.8146,0.0],[5.0,60.8146,5.6549],[4.9958,60.8167,0.0],[4.9917,60.8167,20.5824],[4.975,60.8083,0.0],[4.9708,60.8104,0.0],[4.9667,60.8104,9.4574],[4.9625,60.8083,7.4187],[4.9563,60.8104,0.0],[4.9505,60.8099,7.2511],[4.9505,60.8047,11.7685],[4.9578,60.8016,0.0],[4.9578,60.7984,0.0],[4.9458,60.7979,8.1075],[4.9438,60.7958,0.0],[4.9443,60.7943,0.0],[4.9516,60.7911,9.5744],[4.9526,60.788,0.0],[4.9641,60.7828,15.7643],[4.9672,60.7797,0.0],[4.9729,60.7792,0.0],[4.9786,60.7766,8.2211],[4.9797,60.7734,0.0],[4.9953,60.7661,29.0122],[4.9974,60.762,37.768],[5.0026,60.7589,0.0],[5.0125,60.7583,7.6456],[5.0141,60.7589,8.7464],[5.013,60.762,0.0],[5.0172,60.7609,0.0]]],
[[[4.9651,60.7318,0.0],[4.9729,60.7313,0.0],[4.9729,60.7333,0.0],[4.9693,60.7349,0.0],[4.9792,60.7354,0.0],[4.9828,60.738,7.3555],[4.9828,60.7411,9.3556],[4.9714,60.7464,0.0],[4.9708,60.7479,0.0],[4.9729,60.75,5.7538],[4.9786,60.7484,0.0],[4.9776,60.7536,0.0],[4.9792,60.7542,0.0],[4.9938,60.7458,0.0],[4.9979,60.7458,16.0557],[5.0104,60.7417,16.8832],[5.0125,60.7438,9.319],[5.0089,60.7464,29.6267],[5.0099,60.7495,0.0],[5.0042,60.75,5.9447],[4.9984,60.7526,14.9141],[5.0016,60.7557,0.0],[4.9943,60.7568,19.1909],[4.9818,60.763,19.5532],[4.9786,60.7661,30.0254],[4.9609,60.7651,18.8388],[4.962,60.7724,12.8554],[4.9589,60.7734,28.6101],[4.9536,60.7807,16.8701],[4.9391,60.7891,6.739],[4.9318,60.7901,18.266],[4.9307,60.7932,0.0],[4.9234,60.7964,0.0],[4.9234,60.7995,0.0],[4.9328,60.8005,14.2537],[4.9328,60.8057,0.0],[4.9146,60.8146,5.1116],[4.9089,60.812,11.6195],[4.9063,60.7979,0.0],[4.9068,60.7964,14.5953],[4.9141,60.7932,17.479],[4.9167,60.7875,0.0],[4.9146,60.7854,22.7187],[4.9036,60.7911,7.1057],[4.8901,60.7943,16.5046],[4.875,60.8021,6.3227],[4.8609,60.8016,0.0],[4.862,60.7964,0.0],[4.8563,60.7938,0.0],[4.8505,60.7932,7.8293],[4.8521,60.7917,3.8006],[4.8578,60.7911,0.0],[4.8589,60.7839,8.5398],[4.8724,60.7766,25.2308],[4.8734,60.7734,6.844],[4.8776,60.7714,0.0],[4.8917,60.7708,19.6571],[4.8958,60.7687,0.0],[4.9042,60.7687,0.0],[4.9063,60.7667,4.5693],[4.9042,60.7646,0.0],[4.9,60.7646,0.0],[4.8958,60.7667,3.3356],[4.8854,60.7667,0.0],[4.8755,60.763,9.7553],[4.8813,60.7604,0.0],[4.8896,60.7604,9.0823],[4.8979,60.7562,0.0],[4.9036,60.7557,9.9341],[4.913,60.7505,0.0],[4.9328,60.7453,4.0946],[4.9375,60.7417,0.0],[4.9474,60.7411,8.1428],[4.9484,60.738,0.0],[4.9557,60.737,27.2594],[4.9651,60.7318,0.0]]],
[[[4.8896,60.8167,17.5705],[4.888,60.8151,6.1363],[4.8911,60.8151,0.0],[4.8911,60.8161,9.0076],[4.8896,60.8167,17.5705]]],
[[[4.8292,60.7833,18.2657],[4.8276,60.7818,9.861],[4.8307,60.7818,16.5236],[4.8307,60.7828,19.9818],[4.8292,60.7833,18.2657]]],
[[[4.8542,60.7833,0.0],[4.8526,60.7828,9.6039],[4.8526,60.7818,6.0598],[4.8557,60.7818,0.0],[4.8542,60.7833,0.0]]],
[[[4.85,60.7854,26.1579],[4.8484,60.7849,5.8614],[4.8484,60.7839,6.69],[4.8516,60.7839,21.5305],[4.85,60.7854,26.1579]]],
[[[4.838,60.7953,5.7359],[4.8354,60.7917,0.0],[4.8214,60.7984,7.1713],[4.8203,60.8016,12.3392],[4.813,60.8016,24.2],[4.8161,60.7995,0.0],[4.8172,60.7943,7.6354],[4.8245,60.7911,21.4842],[4.8276,60.788,0.0],[4.8396,60.7896,0.0],[4.8438,60.7875,2.5417],[4.8495,60.788,0.0],[4.8495,60.7911,0.0],[4.8411,60.7953,5.5218],[4.838,60.7953,5.7359]]],
[[[4.8333,60.8104,6.261],[4.8318,60.8089,9.4513],[4.8349,60.8089,7.9835],[4.8349,60.8099,3.2771],[4.8333,60.8104,6.261]]],
[[[4.775,60.8208,0.0],[4.7807,60.8193,0.0],[4.7807,60.8245,9.9083],[4.7734,60.8224,0.0],[4.775,60.8208,0.0]]],
[[[4.8089,60.8214,7.5542],[4.8125,60.8187,0.0],[4.8245,60.8193,1.699],[4.8104,60.8271,2.2248],[4.8083,60.825,9.28],[4.8089,60.8214,7.5542]]],
[[[4.8688,60.8187,5.4101],[4.8729,60.8167,10.9205],[4.8786,60.8172,0.0],[4.8786,60.8203,0.0],[4.8755,60.8224,0.0],[4.8807,60.8255,0.0],[4.8807,60.8286,0.0],[4.8708,60.8333,11.2168],[4.8651,60.8328,1.3526],[4.8641,60.8297,9.3699],[4.8609,60.8286,0.0],[4.8583,60.825,0.0],[4.8589,60.8234,1.404],[4.8688,60.8187,5.4101]]],
[[[4.8839,60.8203,12.0705],[4.8839,60.8172,0.0],[4.887,60.8172,14.1502],[4.887,60.8203,2.0356],[4.8839,60.8203,12.0705]]],
[[[4.8813,60.8229,11.9193],[4.8797,60.8224,0.0],[4.8797,60.8214,0.0],[4.8828,60.8214,7.9483],[4.8813,60.8229,11.9193]]],
[[[4.9922,60.8245,13.3066],[4.9922,60.8214,11.0438],[4.9995,60.8214,0.0],[4.9953,60.8245,12.4739],[4.9922,60.8245,13.3066]]],
[[[4.9095,60.8275,4.6927],[4.912,60.8318,5.8764],[4.9104,60.8333,2.1799],[4.8901,60.8328,7.1922],[4.9042,60.8271,2.724],[4.9095,60.8275,4.6927]]]]}
,"properties": {"GID_2": "NOR.7.3_1","GID_0": "NOR","country": "Norway","GID_1": "NOR.7_1","province": "Hordaland","NL_NAME_1": "NA","county": "Austrheim","VARNAME_2": "NA","NL_NAME_2": "NA","TYPE_2": "Kommuner","ENGTYPE_2": "Municipality","CC_2": "NA","HASC_2": "NO.HO.AH","name": "Austrheim.county","area_km2": 63.83386,"hist_schema_id": "Elevation0-9000","hist_area_km2": {"0": 20.15207,"25": 38.41444,"50": 4.57423,"75": 0.42415,"100": 0.26897}}}