{"type": "Feature","bbox": [13.3517,65.7629,14.6084,66.2458],"geometry": {"type": "MultiPolygon","coordinates": [[[[14.5866,65.8572,1026.0646],[14.6084,65.8579,792.9897],[14.6056,65.8714,786.2822],[14.5947,65.871,987.0145],[14.5731,65.974,1028.3099],[14.5621,65.9737,1059.7352],[14.5374,66.0901,595.5],[14.5264,66.0898,595.5],[14.5254,66.0942,653.9438],[14.4482,66.0916,1007.543],[14.4473,66.0961,1090.8177],[14.4031,66.0945,1023.5745],[14.4022,66.099,1119.2764],[14.3801,66.0982,1237.8582],[14.3791,66.1027,1216.5105],[14.3571,66.1019,915.0205],[14.3561,66.1064,795.8939],[14.334,66.1056,742.3565],[14.333,66.1101,821.5472],[14.2999,66.1089,1069.251],[14.2989,66.1134,1012.3253],[14.2879,66.113,992.3445],[14.2859,66.122,739.8776],[14.2748,66.1216,679.6743],[14.2728,66.1305,543.4932],[14.2618,66.1302,550.8137],[14.2578,66.1481,586.2177],[14.2688,66.1485,553.7987],[14.2648,66.1664,911.7132],[14.2537,66.166,898.3351],[14.2527,66.1705,1036.0278],[14.2417,66.1701,874.9329],[14.2407,66.1745,962.5909],[14.2296,66.1741,878.6909],[14.2286,66.1786,916.9666],[14.2175,66.1782,793.1831],[14.2165,66.1827,851.829],[14.2055,66.1823,767.237],[14.2044,66.1868,765.4556],[14.1934,66.1864,678.4282],[14.1913,66.1953,677.4979],[14.1692,66.1945,678.6356],[14.1682,66.199,771.9083],[14.1239,66.1974,870.0882],[14.1229,66.2019,893.8641],[14.0786,66.2002,835.9832],[14.0796,66.1958,789.9399],[14.0022,66.1929,872.5234],[14.0032,66.1884,770.7083],[13.959,66.1868,797.2755],[13.9579,66.1912,821.0031],[13.9468,66.1908,843.9366],[13.9458,66.1953,790.8823],[13.9347,66.1949,810.6407],[13.9336,66.1994,692.4282],[13.9115,66.1985,729.3835],[13.9104,66.203,598.8638],[13.8994,66.2026,597.6484],[13.8972,66.2115,375.6069],[13.8862,66.2111,406.544],[13.8819,66.229,48.4355],[13.8708,66.2286,55.8695],[13.8702,66.231,0.0],[13.8667,66.2292,14.4019],[13.8568,66.2286,0.0],[13.8536,66.2234,25.1367],[13.8458,66.2208,37.4092],[13.8359,66.2203,0.0],[13.8349,66.2172,35.6095],[13.8313,66.2146,112.7953],[13.825,66.2167,0.0],[13.8208,66.2146,6.0161],[13.813,66.2141,0.0],[13.8083,66.2104,30.8886],[13.8021,66.2104,0.0],[13.7943,66.2078,0.0],[13.7911,66.2047,46.3406],[13.7859,66.2037,0.0],[13.7896,66.2,0.0],[13.7891,66.1984,27.8752],[13.7839,66.1974,0.0],[13.7849,66.1922,0.0],[13.7771,66.1917,45.3152],[13.7672,66.1964,72.0224],[13.7714,66.2037,3.3844],[13.7766,66.2047,0.0],[13.7776,66.2078,0.0],[13.7891,66.2109,0.0],[13.7922,66.2141,0.0],[13.8036,66.2172,0.0],[13.8005,66.2193,18.7902],[13.8026,66.2224,28.4855],[13.8141,66.2255,0.0],[13.8151,66.2286,39.7565],[13.8203,66.2297,0.0],[13.8229,66.2333,0.0],[13.8208,66.2354,19.2219],[13.8047,66.238,0.0],[13.8,66.2417,0.0],[13.7833,66.2417,90.3601],[13.775,66.2458,0.0],[13.7708,66.2438,112.0685],[13.7583,66.2438,12.9309],[13.7505,66.2412,97.6157],[13.75,66.2396,146.0659],[13.7536,66.2391,239.3263],[13.7521,66.2375,344.9775],[13.7458,66.2396,179.5629],[13.7396,66.2396,184.0228],[13.7354,66.2375,292.7173],[13.7328,66.2412,74.177],[13.7271,66.2438,0.0],[13.7229,66.2417,33.0065],[13.7146,66.2417,0.0],[13.7104,66.2396,0.0],[13.7063,66.2417,0.0],[13.7,66.2396,10.8657],[13.6958,66.2417,0.0],[13.6896,66.2417,0.0],[13.6859,66.2391,0.0],[13.6849,66.2359,25.1376],[13.6708,66.2354,0.0],[13.663,66.2328,0.0],[13.6661,66.2307,0.0],[13.6646,66.2292,0.0],[13.6521,66.2292,17.7169],[13.6438,66.2333,15.1165],[13.6375,66.2333,0.0],[13.6333,66.2312,44.686],[13.6271,66.2333,0.0],[13.6167,66.2292,28.7315],[13.6104,66.2292,0.0],[13.6026,66.2266,0.0],[13.6083,66.2229,0.0],[13.6188,66.2229,2.8511],[13.6229,66.2208,0.0],[13.6349,66.2224,16.2358],[13.6396,66.2188,0.0],[13.639099999999999,66.2172,45.238],[13.6339,66.2161,48.0798],[13.6318,66.2141,28.661],[13.6318,66.2109,0.0],[13.6375,66.2125,31.9211],[13.6417,66.2104,0.0],[13.6495,66.2099,0.0],[13.6443,66.2078,6.7347],[13.639099999999999,66.2005,69.7881],[13.6297,66.1995,0.0],[13.6266,66.1943,138.1457],[13.613,66.1891,0.0],[13.6146,66.1833,0.0],[13.613,66.1797,0.0],[13.6146,66.1792,0.0],[13.6208,66.1813,60.9156],[13.6375,66.1813,0.0],[13.6453,66.1839,0.0],[13.6484,66.187,0.0],[13.6563,66.1875,6.5119],[13.6604,66.1896,0.0],[13.6667,66.1896,0.0],[13.6724,66.187,7.1447],[13.6734,66.1839,4.5938],[13.6766,66.1828,23.7661],[13.6755,66.1776,0.0],[13.6854,66.175,0.0],[13.6958,66.1792,25.7351],[13.7021,66.1771,0.0],[13.7063,66.1792,31.2766],[13.7146,66.1792,0.0],[13.7188,66.1833,10.8003],[13.7375,66.1833,0.0],[13.7417,66.1854,0.0],[13.7542,66.1854,0.0],[13.7583,66.1875,0.0],[13.7646,66.1875,0.0],[13.7688,66.1854,0.0],[13.7896,66.1854,0.0],[13.7953,66.1828,0.0],[13.7943,66.1797,0.0],[13.8026,66.1755,0.0],[13.8188,66.1729,0.0],[13.8297,66.1672,0.0],[13.837,66.1661,5.2828],[13.8359,66.163,0.0],[13.8396,66.1604,3.7965],[13.837,66.1547,0.0],[13.8255,66.1516,0.0],[13.8234,66.1495,0.0],[13.8234,66.1464,7.2341],[13.826599999999999,66.1453,6.2644],[13.8292,66.1417,0.0],[13.825,66.1375,2.8526],[13.8151,66.1422,0.0],[13.8161,66.1453,0.0],[13.8089,66.1505,0.0],[13.8099,66.1557,0.0],[13.8026,66.1568,0.0],[13.8036,66.1599,0.0],[13.7984,66.1599,0.0],[13.7974,66.1568,7.7464],[13.7938,66.1563,15.8707],[13.7922,66.1568,15.8707],[13.7932,66.162,0.0],[13.7854,66.1625,0.0],[13.7813,66.1604,4.9666],[13.7703,66.1661,10.3559],[13.7609,66.1672,26.8312],[13.762,66.1703,0.0],[13.7563,66.1729,24.86],[13.75,66.1729,31.5238],[13.7297,66.1661,12.3537],[13.7313,66.1646,47.2878],[13.737,66.1641,138.4543],[13.7354,66.1625,258.8252],[13.6979,66.1604,0.0],[13.6964,66.1589,14.1767],[13.6995,66.1578,140.7617],[13.6979,66.1563,160.3939],[13.6869,66.1585,96.2658],[13.6914,66.1403,547.467],[13.7135,66.1412,515.8216],[13.7146,66.1367,457.9229],[13.7035,66.1363,522.2678],[13.7057,66.1273,520.8535],[13.6947,66.1269,581.9838],[13.6969,66.1179,554.717],[13.6859,66.1175,662.0375],[13.6925,66.0907,496.0],[13.6815,66.0902,496.0],[13.6936,66.041,549.2733],[13.7046,66.0414,638.5683],[13.7057,66.037,651.4267],[13.7134,66.0056,596.6655],[13.7024,66.0052,496.4487],[13.7035,66.0007,501.1979],[13.6925,66.0003,433.4301],[13.7013,65.9645,756.267],[13.7122,65.9649,723.8586],[13.7155,65.9515,541.9534],[13.7045,65.9511,644.7036],[13.7067,65.9421,557.4763],[13.6958,65.9417,663.2138],[13.7002,65.9238,638.2482],[13.6783,65.9229,811.1957],[13.6772,65.9274,876.4525],[13.6443,65.9261,797.7322],[13.6432,65.9306,969.4544],[13.5994,65.9288,852.1816],[13.6017,65.9199,778.5948],[13.5907,65.9194,803.1349],[13.594,65.906,644.7723],[13.5831,65.9056,691.3707],[13.5898,65.8787,511.177],[13.6116,65.8796,635.1639],[13.6105,65.8841,618.249],[13.687,65.8871,692.9862],[13.6881,65.8827,781.9576],[13.6772,65.8822,835.9727],[13.6805,65.8688,744.8306],[13.6695,65.8684,811.947],[13.6717,65.8594,679.024],[13.6826,65.8598,715.2672],[13.6848,65.8509,783.2634],[13.6957,65.8513,756.5803],[13.6968,65.8469,748.6547],[13.7187,65.8477,697.2695],[13.7197,65.8433,693.6372],[13.7307,65.8437,638.7153],[13.7317,65.8392,627.2566],[13.7427,65.8396,632.5882],[13.7437,65.8352,634.7705],[13.7546,65.8356,629.1992],[13.7568,65.8267,616.233],[13.7677,65.8271,566.3382],[13.7709,65.8137,555.1337],[13.76,65.8132,562.7145],[13.7611,65.8088,611.8223],[13.7502,65.8083,602.9277],[13.7513,65.8038,681.1245],[13.7404,65.8034,735.8262],[13.7447,65.7855,1089.0724],[13.7338,65.7851,1235.3483],[13.7371,65.7717,1090.8524],[13.835,65.7755,975.6375],[13.8361,65.771,826.835],[13.847,65.7715,1070.2682],[13.848,65.767,825.0355],[13.8589,65.7674,1260.0917],[13.86,65.7629,909.719],[13.8817,65.7638,1123.0631],[13.8926,65.7642,808.5776],[13.8915,65.7687,797.6847],[13.9133,65.7695,471.6888],[13.9123,65.774,450.1005],[13.9232,65.7744,435.7644],[13.9221,65.7789,380.5],[13.9548,65.7801,380.5],[13.9558,65.7757,380.5],[13.9667,65.7761,380.5],[13.9994,65.7773,380.5],[13.9983,65.7818,380.5],[14.0637,65.7843,380.5],[14.0627,65.7887,380.5],[14.0844,65.7896,380.5],[14.0834,65.794,380.5],[14.0943,65.7944,380.5],[14.0933,65.7989,380.5],[14.1151,65.7997,380.5],[14.1141,65.8042,380.5],[14.125,65.8046,380.5],[14.124,65.8091,380.5],[14.1349,65.8095,380.5],[14.1329,65.8185,380.5],[14.1438,65.8189,380.5],[14.1407,65.8323,380.5],[14.1516,65.8327,380.5],[14.1486,65.8461,380.5],[14.1705,65.8469,380.5],[14.1694,65.8514,380.5],[14.1804,65.8518,388.5746],[14.1794,65.8563,382.8338],[14.1903,65.8567,380.5],[14.1893,65.8612,380.5],[14.2002,65.8616,380.5],[14.1992,65.866,380.5],[14.2101,65.8664,380.5],[14.2091,65.8709,380.5],[14.2201,65.8713,380.5],[14.2191,65.8758,380.5],[14.2519,65.877,380.5],[14.2509,65.8815,380.5],[14.2946,65.883,380.5],[14.2956,65.8786,380.5],[14.3175,65.8793,380.5],[14.3185,65.8749,481.704],[14.3403,65.8756,673.2897],[14.3413,65.8712,807.5521],[14.3632,65.8719,1034.5912],[14.3641,65.8675,1226.7087],[14.3751,65.8679,1250.1416],[14.376,65.8634,1386.9916],[14.387,65.8638,1268.5668],[14.3879,65.8593,1049.5079],[14.3989,65.8597,1045.3392],[14.3998,65.8552,973.225],[14.5529,65.8605,1152.7141],[14.5538,65.856,1007.1458],[14.5866,65.8572,1026.0646]]],
[[[13.7964,66.163,1.9077],[13.7995,66.163,1.4222],[13.7995,66.1641,0.0],[13.7964,66.1641,0.0],[13.7964,66.163,1.9077]]],
[[[13.5042,66.2292,301.5301],[13.5016,66.2292,83.4222],[13.5031,66.2232,495.4075],[13.492,66.2227,481.1555],[13.4932,66.2182,563.5401],[13.4821,66.2178,553.2229],[13.4844,66.2089,445.821],[13.4733,66.2084,383.0326],[13.4745,66.2039,355.2015],[13.4634,66.2035,232.4884],[13.4646,66.199,302.688],[13.4535,66.1986,122.9069],[13.4547,66.1941,71.0759],[13.4436,66.1936,156.886],[13.4448,66.1892,156.1709],[13.4337,66.1887,216.3083],[13.4349,66.1842,347.7538],[13.4238,66.1838,379.4089],[13.425,66.1793,361.1072],[13.4139,66.1789,352.2238],[13.4162,66.1699,455.376],[13.4052,66.1695,463.6709],[13.4063,66.165,502.8142],[13.3953,66.1645,608.5557],[13.3964,66.1601,511.8099],[13.3854,66.1596,637.9877],[13.3866,66.1551,559.741],[13.3755,66.1547,723.6708],[13.3767,66.1502,611.6876],[13.3656,66.1497,678.8724],[13.3691,66.1363,727.3819],[13.3581,66.1359,695.6779],[13.3627,66.118,912.7104],[13.3517,66.1175,881.3626],[13.354,66.1086,859.5981],[13.3651,66.109,818.0305],[13.3639,66.1135,873.5383],[13.3749,66.114,795.9323],[13.3738,66.1184,952.764],[13.3958,66.1193,888.8172],[13.3947,66.1238,912.8979],[13.4057,66.1243,822.9341],[13.4045,66.1287,904.193],[13.4156,66.1292,734.4427],[13.4144,66.1337,687.1137],[13.4254,66.1341,528.2107],[13.4243,66.1386,572.8474],[13.4353,66.1391,587.9122],[13.4342,66.1435,741.7831],[13.4783,66.1453,656.6027],[13.4772,66.1498,757.8749],[13.4882,66.1503,608.0989],[13.4871,66.1547,685.9341],[13.5091,66.1556,374.067],[13.508,66.1601,500.2548],[13.5191,66.1605,339.912],[13.5179,66.165,484.5501],[13.54,66.1659,313.826],[13.5389,66.1704,393.8953],[13.5499,66.1708,297.5156],[13.5488,66.1753,505.3396],[13.5709,66.1762,295.1096],[13.5698,66.1807,521.2212],[13.5808,66.1811,417.165],[13.5819,66.1766,254.726],[13.593,66.1777,87.7436],[13.5827,66.1732,88.2489],[13.5799,66.1663,67.0867],[13.5818,66.1682,0.0],[13.587,66.1693,0.0],[13.588,66.1724,40.8552],[13.5932,66.1734,0.0],[13.5953,66.1755,0.0],[13.6078,66.1984,0.0],[13.6062,66.2,23.6475],[13.5938,66.2,0.0],[13.5922,66.1984,9.7268],[13.5953,66.1964,114.013],[13.5875,66.1937,312.3499],[13.5813,66.1937,323.2999],[13.5797,66.1943,282.481],[13.5807,66.1995,3.6443],[13.5646,66.2,0.0],[13.5604,66.2021,0.0],[13.5557,66.1984,0.0],[13.5505,66.1974,0.0],[13.5495,66.1943,139.5331],[13.5458,66.1917,198.9065],[13.5188,66.1917,78.2138],[13.5125,66.1896,101.635],[13.5083,66.1917,0.0],[13.4979,66.1917,60.8513],[13.4964,66.1932,2.3757],[13.5167,66.1937,0.0],[13.5307,66.1984,0.0],[13.5318,66.2016,82.7977],[13.537,66.2026,0.0],[13.5417,66.2063,37.2127],[13.5479,66.2063,0.0],[13.5521,66.2083,27.6251],[13.5813,66.2083,0.0],[13.5828,66.2089,0.0],[13.587,66.2172,0.0],[13.5797,66.2214,38.159],[13.5797,66.2245,23.9802],[13.5828,66.2286,0.0],[13.5797,66.2307,0.0],[13.5849,66.2328,0.0],[13.5792,66.2354,13.7182],[13.5729,66.2333,51.5781],[13.5625,66.2333,62.3814],[13.5583,66.2354,17.7362],[13.5505,66.2359,50.5123],[13.5438,66.2396,0.0],[13.5333,66.2396,23.2952],[13.5292,66.2417,0.0],[13.5146,66.2417,0.0],[13.513,66.2412,0.0],[13.514099999999999,66.2359,59.5267],[13.5089,66.2338,0.0],[13.5146,66.2333,173.4739],[13.5161,66.2318,281.4723],[13.5042,66.2292,301.5301]]],
[[[13.7359,66.2422,21.6425],[13.7479,66.2417,47.9126],[13.7516,66.2453,0.0],[13.7438,66.2458,0.0],[13.7359,66.2422,21.6425]]]]}
,"properties": {"GID_2": "NOR.10.18_1","GID_0": "NOR","country": "Norway","GID_1": "NOR.10_1","province": "Nordland","NL_NAME_1": "NA","county": "Hemnes","VARNAME_2": "NA","NL_NAME_2": "NA","TYPE_2": "Kommuner","ENGTYPE_2": "Municipality","CC_2": "NA","HASC_2": "NO.NO.HM","name": "Hemnes.county","area_km2": 1596.048,"hist_schema_id": "Elevation0-9000","hist_area_km2": {"0": 13.224,"25": 15.857,"50": 17.127,"75": 14.557,"100": 17.873,"125": 14.772,"150": 12.695,"175": 13.037,"200": 13.451,"225": 13.063,"250": 22.848,"275": 17.375,"300": 23.527,"325": 33.53,"350": 25.35,"375": 112.636,"400": 59.817,"425": 53.495,"450": 46.17,"475": 45.573,"500": 46.721,"525": 57.58,"550": 55.215,"575": 50.03,"600": 69.884,"625": 51.004,"650": 50.759,"675": 46.365,"700": 46.238,"725": 45.92,"750": 43.51,"775": 35.269,"800": 32.338,"825": 32.496,"850": 29.768,"875": 28.823,"900": 30.713,"925": 28.494,"950": 25.347,"975": 18.836,"1000": 17.225,"1025": 17.283,"1050": 14.275,"1075": 12.193,"1100": 10.604,"1125": 9.967,"1150": 9.191,"1175": 10.268,"1200": 9.369,"1225": 8.481,"1250": 7.543,"1275": 7.156,"1300": 6.544,"1325": 7.26,"1350": 6.361,"1375": 4.074,"1400": 3.607,"1425": 3.521,"1450": 4.072,"1475": 3.727,"1500": 2.968,"1525": 1.932,"1550": 1.708,"1575": 1.337,"1600": 1.035,"1625": 0.768,"1650": 0.569,"1675": 0.423,"1700": 0.397,"1725": 0.224,"1750": 0.224,"1775": 0.138,"1800": 0.121,"1825": 0.103,"1850": 0.043,"1875": 0.034,"1900": 0.017}}}