{"type":"Feature","properties":{"GID_2":"NOR.4.8_1","GID_0":"NOR","country":"Norway","GID_1":"NOR.4_1","province":"Buskerud","NL_NAME_1":"NA","county":"Hole","VARNAME_2":"NA","NL_NAME_2":"NA","TYPE_2":"Kommuner","ENGTYPE_2":"Municipality","CC_2":"NA","HASC_2":"NO.BU.HE","name":"Hole.county"},
"geometry":{"type": "MultiPolygon","coordinates": [[[[10.4608,60.0297,439.91],[10.4698,60.0304,502.8278],[10.4685,60.0348,490.8131],[10.4596,60.0342,436.1229],[10.4608,60.0297,439.91]]],
[[[10.4506,60.0335,431.9852],[10.4596,60.0342,436.1229],[10.4544,60.0519,519.6603],[10.4455,60.0513,438.3196],[10.4442,60.0557,481.6754],[10.3907,60.0518,364.5278],[10.3855,60.0696,442.2453],[10.3766,60.0689,451.5821],[10.3753,60.0734,466.7449],[10.3485,60.0714,489.3204],[10.3472,60.0759,354.8829],[10.3383,60.0752,192.6429],[10.3344,60.0885,62.0],[10.3433,60.0892,101.4901],[10.342,60.0936,67.6582],[10.333,60.093,62.0],[10.3317,60.0974,62.0],[10.3228,60.0967,62.0],[10.3162,60.118899999999996,94.0209],[10.2984,60.1176,113.0393],[10.2971,60.1221,87.5168],[10.2078,60.1155,62.0],[10.2091,60.111,68.1908],[10.1913,60.1097,65.251],[10.194,60.1008,70.3253],[10.185,60.1002,70.9126],[10.1864,60.0957,66.7306],[10.1418,60.0924,62.0],[10.1445,60.0835,62.0],[10.1355,60.0829,62.0],[10.1382,60.074,62.0],[10.1293,60.0733,62.0],[10.132,60.0644,62.0],[10.1231,60.0638,62.0],[10.1271,60.0505,62.0],[10.1182,60.0498,62.0],[10.1209,60.0409,62.0],[10.112,60.0402,62.0],[10.1133,60.0358,62.0],[10.14,60.0378,62.0],[10.1414,60.0334,62.0],[10.1592,60.0347,62.0],[10.1605,60.0303,62.0],[10.1783,60.0316,62.0],[10.1796,60.0272,62.0],[10.1885,60.0278,62.0],[10.1899,60.0234,62.0],[10.1988,60.0241,62.0],[10.2014,60.0152,62.0],[10.2103,60.0158,62.0],[10.213,60.007,62.0],[10.2218,60.0076,62.0],[10.2245,59.9987,62.0],[10.2334,59.9994,62.0],[10.2347,59.995,62.0],[10.2436,59.9956,62.0],[10.2449,59.9912,62.0],[10.2627,59.9925,62.0],[10.2653,59.9836,62.0],[10.2742,59.9843,62.0],[10.2755,59.9799,62.0],[10.2844,59.9805,62.0],[10.2871,59.9716,62.0],[10.2959,59.9723,62.0],[10.2986,59.9634,62.0],[10.3163,59.9647,62.0],[10.3177,59.9603,62.0],[10.3265,59.9609,75.5127],[10.3278,59.9565,62.0],[10.3367,59.9572,207.4932],[10.338,59.9527,276.9896],[10.3469,59.9534,347.4277],[10.343,59.9667,354.4017],[10.3519,59.9673,388.2294],[10.3506,59.9718,375.2531],[10.3772,59.9737,345.0731],[10.3759,59.9782,371.2465],[10.4026,59.9801,335.9796],[10.4013,59.9846,341.7147],[10.4102,59.9852,302.3138],[10.4037,60.0074,233.0285],[10.4126,60.0081,264.0318],[10.4113,60.0125,318.4908],[10.4202,60.0132,376.6689],[10.4189,60.0176,376.7417],[10.4278,60.0183,378.4091],[10.4265,60.0227,363.2176],[10.4354,60.0233,335.9698],[10.4328,60.0322,397.4465],[10.4506,60.0335,431.9852]]]]}}