{"type": "Feature","bbox": [10.7444,64.1024,11.5391,64.5494],"geometry": {"type": "MultiPolygon","coordinates": [[[[10.9336,64.2785,445.2015],[10.9297,64.2782,435.5331],[10.9327,64.2693,334.2179],[10.9224,64.2687,395.0531],[10.9268,64.2554,215.1877],[10.9166,64.2547,197.3863],[10.9195,64.2459,247.5093],[10.9092,64.2452,233.2801],[10.9136,64.2319,278.4508],[10.9034,64.2313,231.5992],[10.9063,64.2224,257.9893],[10.8961,64.2217,311.0732],[10.899,64.2129,425.224],[10.8786,64.2116,487.6301],[10.88,64.2072,499.6126],[10.8392,64.2047,411.0331],[10.8406,64.2002,445.5483],[10.81,64.1983,501.2242],[10.8114,64.1939,508.9132],[10.791,64.1926,487.8085],[10.7925,64.1882,523.8384],[10.7721,64.1869,398.6887],[10.7736,64.1825,425.9802],[10.7531,64.1812,590.3614],[10.7546,64.1768,550.3013],[10.7444,64.1761,452.7581],[10.7503,64.1583,346.3431],[10.7605,64.159,347.8179],[10.7679,64.1367,528.1429],[10.7781,64.1374,508.5976],[10.784,64.1196,585.8732],[10.7942,64.1202,559.8074],[10.7957,64.1158,574.4453],[10.867,64.1202,541.8894],[10.8728,64.1024,553.3111],[10.9034,64.1043,414.7975],[10.9019,64.1087,485.8412],[10.9325,64.1106,439.6748],[10.931,64.115,493.1453],[10.9514,64.1163,406.6447],[10.9499,64.1207,450.1161],[10.9703,64.1219,293.3218],[10.9689,64.1264,266.8788],[10.9893,64.1276,446.6239],[10.9878,64.1321,460.3986],[11.0184,64.1339,463.8664],[11.017,64.1384,421.5053],[11.0374,64.1396,436.7923],[11.0359,64.144,392.9969],[11.0563,64.1453,407.7268],[11.0549,64.1497,384.2253],[11.0651,64.1503,396.607],[11.0665,64.1459,487.2513],[11.087,64.1471,407.7964],[11.0884,64.1427,404.7402],[11.1394,64.1457,326.0358],[11.1422,64.1368,310.3646],[11.1524,64.1374,280.8931],[11.1538,64.1329,273.2148],[11.164,64.1336,234.0276],[11.1626,64.138,269.8326],[11.2238,64.1416,92.1436],[11.2224,64.1461,141.3622],[11.2326,64.1467,98.0157],[11.2312,64.1511,107.2293],[11.2414,64.1517,69.4487],[11.2386,64.1606,65.4307],[11.351,64.1672,267.0751],[11.3496,64.1716,236.7013],[11.37,64.1728,162.5553],[11.3645,64.1906,162.2777],[11.3747,64.1912,356.3153],[11.3733,64.1957,257.0426],[11.3938,64.1968,163.4039],[11.3924,64.2013,167.7528],[11.4129,64.2025,170.7888],[11.4115,64.2069,196.2303],[11.4422,64.2087,315.5267],[11.4408,64.2131,299.6476],[11.4715,64.2149,231.3048],[11.4701,64.2194,174.0819],[11.5009,64.2211,231.6092],[11.4995,64.2256,162.6285],[11.52,64.2267,237.7939],[11.5186,64.2312,212.12],[11.5391,64.2323,427.8965],[11.5377,64.2368,405.5736],[11.5275,64.2362,292.8617],[11.5261,64.2407,231.002],[11.5159,64.2401,248.1714],[11.5104,64.2579,283.9243],[11.5002,64.2573,191.668],[11.4988,64.2618,286.0847],[11.4886,64.2612,151.9918],[11.4858,64.2701,178.663],[11.4756,64.2695,144.5314],[11.4728,64.2784,181.1067],[11.4626,64.2778,225.6528],[11.4598,64.2867,127.3103],[11.4495,64.2861,96.2391],[11.4509,64.2817,109.348],[11.4304,64.2805,114.3852],[11.429,64.285,111.4516],[11.4188,64.2844,112.887],[11.4174,64.2888,153.8872],[11.3558,64.2853,421.0964],[11.3544,64.2897,395.6362],[11.3339,64.2886,282.1413],[11.3325,64.293,369.2753],[11.312,64.2918,461.7294],[11.3078,64.3052,242.8831],[11.2975,64.3046,223.8133],[11.2919,64.3224,166.4267],[11.3022,64.323,224.7119],[11.2994,64.3319,82.9633],[11.3097,64.3325,110.9824],[11.3054,64.3458,110.58],[11.2849,64.3446,64.8682],[11.2821,64.3535,41.4025],[11.2924,64.3541,32.5418],[11.291,64.3586,40.4331],[11.3012,64.3592,70.7932],[11.2995,64.3646,0.0],[11.2964,64.3641,17.0825],[11.2953,64.3609,51.5688],[11.2859,64.3599,0.0],[11.2828,64.3547,46.8312],[11.275,64.3562,45.1893],[11.2724,64.3526,20.6718],[11.263,64.3516,0.0],[11.2589,64.3432,0.0],[11.262,64.3411,0.0],[11.262,64.338,23.6672],[11.2505,64.3349,0.0],[11.2474,64.3255,17.176],[11.2422,64.3245,0.0],[11.2391,64.3193,19.2896],[11.2339,64.3182,0.0],[11.2266,64.313,0.0],[11.2193,64.3151,0.0],[11.2208,64.3187,0.0],[11.2172,64.3214,16.2608],[11.2172,64.3245,32.2573],[11.2224,64.3255,0.0],[11.2245,64.3276,0.0],[11.2255,64.3328,16.6754],[11.2307,64.3339,0.0],[11.237,64.338,0.0],[11.2401,64.3432,34.8493],[11.2453,64.3443,0.0],[11.2464,64.3474,48.5159],[11.2516,64.3484,0.0],[11.2484,64.3516,38.2373],[11.2578,64.3547,21.6428],[11.2562,64.3562,22.3349],[11.2505,64.3568,7.8337],[11.2464,64.3599,18.6946],[11.262,64.3609,25.547],[11.263,64.3641,97.1684],[11.2745,64.3672,0.0],[11.2776,64.3766,29.7002],[11.2995,64.3818,0.0],[11.3005,64.3849,16.8471],[11.312,64.388,0.0],[11.3182,64.3922,0.0],[11.3182,64.3953,0.0],[11.3151,64.3974,47.5525],[11.3203,64.4016,0.0],[11.3172,64.4036,70.6121],[11.3224,64.4047,0.0],[11.3255,64.4099,54.8932],[11.3307,64.4109,0.0],[11.3276,64.413,0.0],[11.3276,64.4161,0.0],[11.3349,64.4213,29.966],[11.3375,64.4271,0.0],[11.3359,64.4349,12.3677],[11.3411,64.4359,8.1158],[11.3453,64.4464,8.2917],[11.3453,64.4495,52.1165],[11.338,64.4526,0.0],[11.3411,64.4599,25.2689],[11.3333,64.4625,0.0],[11.3276,64.4599,12.6671],[11.3229,64.4542,99.5246],[11.3167,64.4542,15.5143],[11.3125,64.4563,0.0],[11.2984,64.4516,0.0],[11.3057,64.4474,0.0],[11.3083,64.4437,0.0],[11.3125,64.4458,78.9093],[11.3188,64.4458,36.491],[11.3245,64.4432,12.6905],[11.3167,64.4396,17.4797],[11.3005,64.4401,54.1877],[11.2995,64.4432,0.0],[11.2964,64.4443,0.0],[11.2974,64.4474,0.0],[11.2901,64.4526,0.0],[11.2938,64.4563,27.2387],[11.3057,64.4568,0.0],[11.3057,64.4599,9.0206],[11.3,64.4625,18.0489],[11.2813,64.4625,0.0],[11.2734,64.4599,6.5705],[11.2724,64.4568,1.9918],[11.263,64.4557,0.0],[11.2661,64.4537,0.0],[11.2646,64.4521,0.0],[11.2438,64.45,66.2112],[11.2396,64.4521,0.0],[11.2333,64.4521,32.2781],[11.2292,64.45,65.2326],[11.2188,64.45,0.0],[11.2083,64.4458,32.2144],[11.1958,64.4458,0.0],[11.1943,64.4453,0.0],[11.1932,64.4401,7.932],[11.1896,64.4375,6.3616],[11.1854,64.4396,0.0],[11.1708,64.4396,15.2135],[11.1651,64.4432,0.0],[11.1714,64.4474,0.0],[11.1828,64.4505,13.277],[11.1839,64.4537,0.0],[11.1974,64.4547,62.4325],[11.1958,64.4563,6.9304],[11.1901,64.4568,0.0],[11.1908,64.4586,0.0],[11.1898,64.4586,0.0],[11.1949,64.4649,0.0],[11.1932,64.4682,8.7906],[11.1776,64.4734,0.0],[11.1797,64.4766,46.0322],[11.1849,64.4797,0.0],[11.1849,64.4828,38.3075],[11.1818,64.4838,6.6868],[11.1828,64.487,0.0],[11.1646,64.4958,0.0],[11.1583,64.4938,0.0],[11.1484,64.4964,14.3498],[11.1495,64.4995,0.0],[11.1438,64.5021,0.0],[11.1359,64.5026,47.6584],[11.137,64.5057,0.0],[11.1297,64.5068,55.7778],[11.1286,64.5099,0.0],[11.113,64.5172,8.6306],[11.1141,64.5203,15.6952],[11.1083,64.5229,35.8041],[11.1021,64.5229,28.8298],[11.0943,64.5203,0.0],[11.1016,64.5162,70.1546],[11.1,64.5146,84.6337],[11.0813,64.5146,2.8888],[11.0714,64.5193,44.7408],[11.076599999999999,64.5214,0.0],[11.0734,64.5234,0.0],[11.0734,64.5266,42.2418],[11.0786,64.5276,0.0],[11.0813,64.5333,0.0],[11.0807,64.5349,0.0],[11.0693,64.5401,39.8323],[11.0699,64.5418,31.4238],[11.0665,64.545,29.3026],[11.0653,64.5494,71.4108],[11.0408,64.548,231.2342],[11.0422,64.5435,253.805],[11.0319,64.5429,232.9586],[11.0348,64.534,176.4548],[11.0245,64.5334,121.1385],[11.0274,64.5245,157.3425],[11.0377,64.5251,159.6249],[11.0421,64.5117,222.9355],[11.0318,64.5111,360.7992],[11.0347,64.5022,272.4058],[11.0243,64.5016,456.3813],[11.0258,64.4972,459.5898],[11.0155,64.4966,358.9928],[11.0228,64.4743,411.6547],[11.0331,64.4749,217.8199],[11.0375,64.4616,228.28],[11.0478,64.4622,196.0309],[11.0521,64.4488,254.5046],[11.0418,64.4482,310.6733],[11.0433,64.4438,351.4016],[11.033,64.4432,219.5135],[11.0388,64.4254,70.5],[11.0491,64.426,88.4759],[11.0505,64.4215,114.4735],[11.102,64.4246,184.3522],[11.1107,64.3979,400.9335],[11.1004,64.3973,341.3635],[11.1076,64.375,432.1054],[11.0973,64.3744,490.7865],[11.1002,64.3655,438.5672],[11.0693,64.3637,443.0573],[11.065,64.3771,405.3803],[11.0547,64.3764,562.7975],[11.0532,64.3809,432.8239],[11.043,64.3803,575.0472],[11.0401,64.3892,273.1758],[11.0298,64.3886,468.0891],[11.0312,64.3841,522.8696],[11.0209,64.3835,495.42],[11.0253,64.3701,512.4259],[11.015,64.3695,501.4835],[11.0194,64.3562,452.5559],[11.0091,64.3556,485.0936],[11.0134,64.3422,338.9558],[11.0032,64.3416,335.5],[11.0075,64.3283,499.4014],[10.9972,64.3277,528.7523],[10.9987,64.3232,553.7648],[10.9884,64.3226,504.3766],[10.9913,64.3137,363.2507],[10.9811,64.3131,384.2146],[10.9825,64.3086,288.3654],[10.9723,64.308,311.4251],[10.9737,64.3036,273.3912],[10.9635,64.3029,195.2367],[10.9649,64.2985,237.7068],[10.9547,64.2979,349.9422],[10.9561,64.2934,287.4644],[10.9459,64.2928,350.7578],[10.9488,64.2839,446.4137],[10.9385,64.2833,425.5787],[10.94,64.2788,465.9401],[10.9336,64.2785,445.2015]]],
[[[11.125,64.5167,0.0],[11.1266,64.5172,0.0],[11.1266,64.5182,25.1425],[11.1234,64.5182,16.8205],[11.125,64.5167,0.0]]]]}
,"properties": {"GID_2": "NOR.9.11_1","GID_0": "NOR","country": "Norway","GID_1": "NOR.9_1","province": "Nord-Trøndelag","NL_NAME_1": "NA","county": "Mandalseid","VARNAME_2": "NA","NL_NAME_2": "NA","TYPE_2": "Kommuner","ENGTYPE_2": "Municipality","CC_2": "NA","HASC_2": "NA","name": "Mandalseid.county","area_km2": 762.2951,"hist_schema_id": "Elevation0-9000","hist_area_km2": {"0": 11.335,"25": 22.6826,"50": 25.2742,"75": 34.7014,"100": 45.9647,"125": 55.0093,"150": 45.545,"175": 46.1969,"200": 49.8744,"225": 50.7026,"250": 49.7832,"275": 47.3355,"300": 41.2866,"325": 36.4311,"350": 33.2712,"375": 30.3985,"400": 28.2775,"425": 24.4237,"450": 22.2821,"475": 17.1204,"500": 16.0493,"525": 13.6599,"550": 7.6935,"575": 3.962,"600": 1.8305,"625": 0.6901,"650": 0.4223,"675": 0.0919}}}