{"type": "Feature","bbox": [9.7842,58.9368,10.2381,59.327],"geometry": {"type": "MultiPolygon","coordinates": [[[[10.2192,58.9779,0.0],[10.2147,58.9785,-0.0692],[10.2169,58.9763,0.0],[10.2208,58.9763,0.0],[10.2192,58.9779,0.0]]],
[[[10.2319,58.9804,3.5377],[10.2275,58.9813,0.0],[10.2281,58.9771,0.0],[10.2319,58.9763,0.0],[10.2325,58.9787,0.0],[10.2353,58.979,0.0],[10.2319,58.9804,3.5377]]],
[[[10.2236,58.9818,4.6666],[10.2192,58.9824,0.0],[10.2186,58.9813,0.0],[10.2208,58.9796,0.0],[10.2192,58.9787,0.0],[10.2264,58.9793,1.0524],[10.2236,58.9818,4.6666]]],
[[[10.2208,58.9837,0.0],[10.2197,58.9854,3.5822],[10.2147,58.984,0.369],[10.2164,58.9826,0.0],[10.2208,58.9837,0.0]]],
[[[10.1419,58.9754,0.0],[10.1369,58.976,0.0],[10.1375,58.9721,3.3429],[10.1347,58.9726,0.0],[10.1342,58.971,2.2831],[10.1419,58.9674,0.0],[10.1464,58.9682,0.0],[10.1503,58.9649,0.0],[10.1531,58.9663,0.4532],[10.1531,58.9649,0.0],[10.1564,58.9649,0.0],[10.1558,58.9676,0.0],[10.1514,58.9693,0.14],[10.1542,58.9707,0.0],[10.1519,58.9726,0.0],[10.1475,58.9751,0.0],[10.1436,58.9746,0.0],[10.1442,58.9735,7.3873],[10.1419,58.9754,0.0]]],
[[[10.1964,58.974,0.0],[10.1925,58.9746,0.0],[10.1942,58.9712,0.0],[10.1975,58.9721,0.0],[10.1964,58.974,0.0]]],
[[[10.1619,58.976,0.71],[10.1608,58.9776,0.0],[10.1542,58.9776,1.2155],[10.1564,58.9751,0.0],[10.1619,58.976,0.71]]],
[[[10.0547,58.9982,0.0],[10.0536,58.9996,0.0],[10.0497,58.999,0.0],[10.0519,58.9971,0.0],[10.0469,58.996,0.0],[10.0469,58.9935,0.0],[10.0458,58.9935,0.0],[10.0458,58.9915,0.0],[10.0486,58.9901,2.1724],[10.0481,58.9876,0.0],[10.0503,58.986,0.0],[10.0547,58.9857,2.5036],[10.0553,58.9879,0.0],[10.0581,58.9896,0.0],[10.0581,58.9935,0.0],[10.0547,58.9949,5.3158],[10.0564,58.9963,1.0225],[10.0547,58.9982,0.0]]],
[[[10.2364,58.986,0.0],[10.2353,58.9874,0.0],[10.2325,58.9868,0.0],[10.2325,58.9821,0.0],[10.2375,58.9835,0.0],[10.2381,58.9854,0.0],[10.2364,58.986,0.0]]],
[[[10.2303,58.9865,0.0],[10.2308,58.9885,0.0],[10.2297,58.9888,0.0],[10.2253,58.9871,0.0],[10.2269,58.9854,0.0],[10.2303,58.9865,0.0]]],
[[[10.2319,59.0357,4.8577],[10.2303,59.0368,4.8577],[10.2269,59.0354,6.2681],[10.2264,59.0321,3.1913],[10.2281,59.0324,3.1913],[10.2319,59.0357,4.8577]]],
[[[10.2358,59.0379,0.0],[10.2331,59.0393,1.6528],[10.2319,59.0374,0.0],[10.2347,59.036,0.0],[10.2358,59.0379,0.0]]],
[[[10.1219,59.0224,0.0],[10.1175,59.0221,0.0],[10.1175,59.0201,0.6448],[10.1192,59.0196,8.4207],[10.1181,59.019,0.6448],[10.1236,59.0179,1.1978],[10.1219,59.0224,0.0]]],
[[[9.9369,58.939,0.4572],[9.9347,58.9407,0.0],[9.9319,58.9396,0.0],[9.9364,58.9368,0.0],[9.9381,58.9374,0.0],[9.9369,58.939,0.4572]]],
[[[9.8803,58.9468,0.0],[9.8775,58.9488,0.0],[9.8753,58.9457,0.0],[9.8769,58.9451,0.0],[9.8803,58.9468,0.0]]],
[[[9.8964,58.9479,1.0719],[9.8953,58.9499,0.0],[9.8925,58.9493,0.0],[9.8936,58.9468,0.0],[9.8992,58.9474,0.0],[9.8964,58.9479,1.0719]]],
[[[9.8653,58.9549,0.0],[9.8642,58.9568,0.0],[9.8592,58.956,0.0],[9.8619,58.9529,0.0],[9.8647,58.9532,0.0],[9.8653,58.9549,0.0]]],
[[[9.8703,58.9579,0.6186],[9.8681,58.959,0.0],[9.8681,58.9576,0.0],[9.8714,58.956,0.0],[9.8681,58.9557,0.0],[9.8686,58.9512,0.0],[9.8708,58.9524,0.0],[9.8714,58.9554,1.067],[9.8742,58.956,0.0],[9.8703,58.9579,0.6186]]],
[[[9.8864,58.9615,0.4384],[9.8808,58.9624,0.0],[9.8792,58.9601,0.0],[9.8814,58.9585,0.0],[9.8997,58.9571,0.0],[9.8947,58.9585,0.2623],[9.8936,58.961,0.0],[9.8864,58.9615,0.4384]]],
[[[9.7881,59.0157,0.0],[9.7842,59.016,3.5219],[9.7842,59.011,17.4261],[9.7864,59.0071,0.7816],[9.7903,59.0062,0.807],[9.7914,59.0043,0.084],[9.7953,59.0046,2.1925],[9.7947,59.0026,0.6059],[9.7969,59.0018,4.8198],[9.7969,59.0001,17.933],[9.7914,58.9987,0.0],[9.7925,58.9957,3.8892],[9.7975,58.9921,7.5566],[9.8092,58.9924,2.6258],[9.8092,58.9946,6.9109],[9.8058,58.9968,10.395],[9.8147,58.9943,0.0],[9.8158,58.9965,2.4447],[9.8208,58.9951,0.0],[9.8253,58.9974,0.0],[9.8169,58.999,0.0],[9.8181,59.001,2.2622],[9.8075,59.0051,2.123],[9.8047,59.0057,0.9928],[9.8019,59.0038,28.2236],[9.8019,59.0062,15.2459],[9.7958,59.0107,6.7623],[9.7964,59.0132,0.0],[9.7881,59.0157,0.0]]],
[[[9.8486,59.0068,0.0],[9.8492,59.0088,0.0],[9.8475,59.0099,0.0],[9.8464,59.0079,0.0],[9.8486,59.0068,0.0]]],
[[[10.1119,59.0076,0.7226],[10.1103,59.0096,0.0],[10.1075,59.0082,0.0],[10.1103,59.0051,0.0],[10.1125,59.0051,0.0],[10.1108,59.0065,0.8809],[10.1131,59.0068,0.0],[10.1119,59.0076,0.7226]]],
[[[10.1064,59.0185,0.7835],[10.1042,59.0201,0.7561],[10.0931,59.0176,1.218],[10.0858,59.0104,0.8229],[10.0842,59.0104,0.8229],[10.0847,59.0082,0.6624],[10.0914,59.0085,0.0],[10.0981,59.0035,0.0],[10.1008,59.0035,0.0],[10.1019,59.0082,3.9178],[10.1086,59.0099,0.0],[10.1069,59.0129,0.0],[10.1075,59.0157,0.0],[10.1036,59.0151,14.2813],[10.1031,59.0163,5.5594],[10.1031,59.0176,6.84],[10.1064,59.0185,0.7835]]],
[[[10.1219,59.0137,2.0503],[10.1186,59.0146,1.1112],[10.1153,59.0093,0.5277],[10.1231,59.0099,0.0],[10.1242,59.0115,5.6983],[10.1219,59.0137,2.0503]]],
[[[10.1169,59.0185,0.0],[10.1175,59.0199,0.6448],[10.1158,59.021,0.0],[10.1131,59.0201,0.8281],[10.1131,59.0182,0.0],[10.1169,59.0185,0.0]]],
[[[9.8381,59.0432,4.9124],[9.8353,59.0354,0.0],[9.8381,59.0351,6.0213],[9.8386,59.0307,0.0],[9.8347,59.0324,0.0],[9.8342,59.0307,0.0],[9.8403,59.0276,16.5102],[9.8364,59.0271,0.0],[9.8358,59.0254,0.0],[9.8403,59.024,9.3069],[9.8419,59.0129,3.0135],[9.8464,59.0129,1.0837],[9.8447,59.0146,10.0195],[9.8458,59.0154,1.1205],[9.8475,59.0146,3.9746],[9.8475,59.0126,3.3381],[9.8519,59.0113,6.0817],[9.8503,59.0101,0.6257],[9.8514,59.0074,0.0],[9.8481,59.0054,0.0],[9.8497,59.0043,5.5724],[9.8481,59.001,2.0049],[9.8486,58.9974,0.0],[9.8542,58.9965,1.7756],[9.8547,58.9938,0.0],[9.8569,58.9926,0.0],[9.8547,58.9893,4.2417],[9.8392,58.9896,0.0],[9.8386,58.9921,0.0],[9.8358,58.9918,0.0],[9.8431,58.9843,1.686],[9.8381,58.9851,0.5032],[9.8381,58.9832,0.0],[9.8408,58.9815,0.0],[9.8331,58.9807,0.0],[9.8303,58.9765,0.59],[9.8169,58.9771,0.0],[9.8153,58.9804,0.0],[9.8086,58.9804,0.0],[9.8064,58.9849,0.0],[9.8031,58.9863,0.0],[9.8019,58.9863,0.0],[9.8036,58.9846,0.0],[9.8025,58.979,3.8922],[9.8075,58.9768,0.0],[9.8097,58.9801,0.0],[9.8219,58.971,0.0],[9.8286,58.9688,0.8666],[9.8358,58.9688,5.5487],[9.8364,58.9671,0.0],[9.8397,58.9663,0.0],[9.8481,58.9671,0.728],[9.8519,58.9649,6.209],[9.8475,58.9621,0.0],[9.8503,58.9588,0.0],[9.8569,58.9596,0.0],[9.8581,58.9576,0.8303],[9.8608,58.9576,0.0],[9.8642,58.9601,0.0],[9.8603,58.9635,2.1137],[9.8675,58.9635,0.0],[9.8703,58.9651,0.0],[9.8703,58.9679,0.0],[9.8653,58.9729,0.8434],[9.8669,58.9751,0.0],[9.8775,58.9743,3.5502],[9.8786,58.9724,0.0],[9.8842,58.9707,0.3468],[9.8875,58.9718,0.0],[9.8886,58.9679,0.0],[9.9081,58.9657,0.0],[9.9064,58.9679,3.9483],[9.9086,58.9696,0.0],[9.9242,58.9682,0.0],[9.9236,58.9765,1.1528],[9.9253,58.9771,0.6215],[9.9264,58.9696,0.0],[9.9308,58.9651,0.0],[9.9353,58.9663,0.3244],[9.9369,58.9643,0.0],[9.9458,58.9615,0.0],[9.9486,58.9654,0.0],[9.9631,58.9601,0.0],[9.9647,58.9613,0.0],[9.9642,58.964,2.0635],[9.9681,58.9635,0.0],[9.9753,58.9654,0.0],[9.9703,58.9771,0.0],[9.9658,58.9782,1.9025],[9.9736,58.9832,0.0],[9.9808,58.9821,0.0],[9.9814,58.9782,0.4687],[9.9836,58.9774,0.4687],[9.9853,58.9738,0.3521],[9.9853,58.9693,0.0],[9.9897,58.9682,0.0],[9.9942,58.9696,0.0],[9.9958,58.9735,0.0],[10.0014,58.9712,0.0],[10.0019,58.9735,1.4313],[10.0053,58.9704,0.0],[10.0092,58.9732,1.2277],[10.0092,58.9779,2.6365],[10.0125,58.9788,6.0568],[10.0164,58.9751,0.0],[10.0192,58.9757,0.7105],[10.0186,58.9776,0.3506],[10.0231,58.9771,5.3396],[10.0225,58.9751,0.0],[10.0264,58.9746,0.7295],[10.0258,58.9735,0.0],[10.0303,58.9749,0.0],[10.0292,58.9763,0.0],[10.0303,58.9774,1.2757],[10.0419,58.9776,0.3603],[10.0375,58.981,0.4423],[10.0431,58.9801,0.0],[10.0436,58.9837,0.0],[10.0325,58.9865,12.5383],[10.0353,58.9893,3.4878],[10.0392,58.9896,0.0],[10.0392,58.9926,1.6695],[10.0419,58.9885,0.0],[10.0453,58.9888,0.0],[10.0436,58.991,2.0955],[10.0447,58.9938,0.0],[10.0414,58.9943,1.1098],[10.0419,58.9957,0.0],[10.0403,58.9968,0.0],[10.0419,58.9985,3.307],[10.0469,58.9985,0.0],[10.0508,59.0004,0.0],[10.0497,59.0026,0.0],[10.0464,59.0035,4.0637],[10.0497,59.0054,0.0],[10.0469,59.0062,0.0],[10.0403,59.0029,1.6236],[10.0347,59.0051,4.4758],[10.0342,59.0065,15.1844],[10.0392,59.0074,0.0],[10.0381,59.0101,1.164],[10.0358,59.0107,1.7195],[10.0375,59.0182,0.0],[10.0303,59.0179,0.0],[10.0192,59.0285,39.8351],[10.0197,59.031,13.4783],[10.0258,59.0326,1.3729],[10.0258,59.0346,3.2953],[10.0253,59.039,0.0],[10.0181,59.0418,8.6699],[10.0181,59.044,1.2492],[10.0158,59.0457,6.3829],[10.0192,59.049,5.7997],[10.0314,59.0488,1.1864],[10.0331,59.0454,0.0],[10.0447,59.0446,0.0],[10.0458,59.0429,0.4684],[10.0425,59.0399,0.6161],[10.0403,59.0399,0.6161],[10.0386,59.0371,0.0],[10.0558,59.0382,0.343],[10.0669,59.046,4.9709],[10.0697,59.0513,0.0],[10.0703,59.061,0.0],[10.0731,59.0607,2.0842],[10.0703,59.0479,3.5635],[10.0653,59.0429,2.0546],[10.0642,59.0388,4.2889],[10.0625,59.0374,3.1156],[10.0558,59.0374,0.343],[10.0536,59.0351,0.0],[10.0553,59.0324,1.0016],[10.0603,59.0318,3.0704],[10.0586,59.0296,0.0],[10.0592,59.0276,0.0],[10.0636,59.0285,0.0],[10.0642,59.0315,0.3491],[10.0681,59.0307,8.1956],[10.0664,59.0299,0.0],[10.0664,59.0268,0.0],[10.0692,59.0265,2.0267],[10.0647,59.0246,1.6259],[10.0675,59.0235,0.0],[10.0692,59.0171,0.0],[10.0725,59.0149,0.0],[10.0869,59.0199,0.0],[10.0892,59.0218,5.0744],[10.0881,59.0238,7.1158],[10.0969,59.0235,0.0],[10.0953,59.0282,2.1214],[10.0986,59.0271,0.2544],[10.1064,59.0279,0.4477],[10.1086,59.0257,1.6566],[10.1147,59.0274,5.7041],[10.1192,59.0321,0.0],[10.1197,59.0349,0.0],[10.1214,59.036,1.3007],[10.1281,59.0351,0.476],[10.1264,59.0371,2.0682],[10.1336,59.0401,0.0],[10.1375,59.0399,0.0],[10.1369,59.0365,0.0],[10.1458,59.0374,2.7069],[10.1492,59.0351,0.6411],[10.1519,59.0363,1.7176],[10.1531,59.034,0.673],[10.1564,59.0337,23.3221],[10.1236,59.024,0.0],[10.1242,59.0226,0.0],[10.1297,59.0218,12.7328],[10.1297,59.0185,1.8706],[10.1319,59.0179,10.6958],[10.1319,59.0149,11.5991],[10.1281,59.0146,0.0],[10.1281,59.0129,0.9467],[10.1314,59.011,15.4452],[10.1319,59.0082,9.199],[10.1275,59.0096,0.0],[10.1275,59.0071,8.6204],[10.1303,59.0049,0.1763],[10.1353,59.0043,0.0],[10.1364,59.0065,5.511],[10.1408,59.0082,0.0],[10.1403,59.0107,2.6609],[10.1419,59.0113,6.4899],[10.1453,59.009,1.3015],[10.1497,59.009,1.6736],[10.1492,59.0079,0.0],[10.1531,59.0057,1.9824],[10.1547,59.0079,1.551],[10.1631,59.0076,0.0],[10.1625,59.0101,0.0],[10.1714,59.0113,0.0],[10.1747,59.0154,0.0],[10.1769,59.016,0.0],[10.1797,59.019,0.0],[10.1786,59.0224,7.4757],[10.1842,59.0221,3.5154],[10.1847,59.019,0.0],[10.1892,59.0182,0.0],[10.1958,59.0226,0.9788],[10.1958,59.0257,0.4992],[10.1981,59.0251,6.0868],[10.1975,59.0229,4.0127],[10.1992,59.0215,0.0],[10.2031,59.0218,0.0],[10.2036,59.0232,8.0657],[10.2081,59.0226,1.3894],[10.2092,59.0254,15.3188],[10.2125,59.0262,0.0],[10.2136,59.0282,1.2246],[10.2086,59.0321,21.6784],[10.2147,59.031,0.0],[10.2186,59.0335,0.0],[10.2219,59.0335,1.3575],[10.2197,59.0315,0.0],[10.2208,59.0307,0.0],[10.2269,59.0379,2.7679],[10.2292,59.0379,2.7679],[10.2275,59.0396,1.4062],[10.2319,59.0418,1.9487],[10.2314,59.0432,1.6119],[10.2286,59.0432,4.0923],[10.2308,59.046,3.1903],[10.2297,59.051,7.321],[10.2319,59.0518,7.0785],[10.2308,59.0565,0.4675],[10.2253,59.0607,2.9971],[10.1907,59.0753,5.0341],[10.1843,59.0974,41.5266],[10.1584,59.0955,22.0421],[10.1558,59.1043,23.4649],[10.1471,59.1037,62.8858],[10.1445,59.1125,43.9809],[10.1359,59.1119,52.7539],[10.1229,59.1563,90.2053],[10.1316,59.1569,35.2111],[10.1238,59.1835,47.7586],[10.1152,59.1829,101.5322],[10.1126,59.1918,93.7388],[10.0952,59.1904,121.8672],[10.0939,59.1949,74.7124],[10.0765,59.1935,75.7236],[10.0752,59.198,52.9506],[10.0666,59.1973,81.892],[10.0613,59.215,89.6869],[10.0526,59.2144,76.6576],[10.05,59.2232,135.296],[10.0413,59.2226,209.9075],[10.0387,59.2314,173.097],[10.03,59.2308,210.5175],[10.0248,59.2485,177.8661],[10.0161,59.2478,256.5412],[10.0108,59.2656,128.1901],[10.0021,59.2649,234.0049],[9.9982,59.2782,121.6097],[10.0069,59.2789,149.0641],[10.0056,59.2833,251.0216],[10.0143,59.284,188.0769],[10.0037,59.3195,262.702],[9.995,59.3188,354.2075],[9.9937,59.3232,352.7428],[9.985,59.3226,344.8326],[9.9837,59.327,286.5843],[9.9227,59.3223,249.4947],[9.924,59.3178,320.2577],[9.9153,59.3171,263.3837],[9.914,59.3216,162.3554],[9.9053,59.3209,128.9371],[9.9039,59.3253,59.5543],[9.8952,59.3246,63.6166],[9.8966,59.3202,18.1735],[9.8879,59.3195,61.9075],[9.8905,59.3107,23.6265],[9.8818,59.31,48.4143],[9.8871,59.2922,28.8965],[9.8958,59.2929,15.3213],[9.8972,59.2885,43.3103],[9.9059,59.2892,34.0697],[9.9072,59.2847,31.6349],[9.8898,59.2834,51.4232],[9.8911,59.2789,76.1507],[9.8824,59.2782,156.6763],[9.8851,59.2694,230.8577],[9.8764,59.2687,204.2694],[9.8777,59.2643,259.9919],[9.8691,59.2636,228.3849],[9.8704,59.2591,337.1788],[9.8617,59.2585,243.769],[9.875,59.2141,232.4344],[9.8663,59.2134,111.3224],[9.8796,59.1691,21.5],[9.8363,59.1656,27.8006],[9.8376,59.1612,146.3002],[9.829,59.1605,156.0121],[9.833,59.1472,140.7533],[9.8243,59.1465,165.4878],[9.827,59.1377,143.85],[9.8183,59.137,235.2346],[9.8223,59.1237,216.6535],[9.831,59.1244,218.2177],[9.8336,59.1155,186.6641],[9.8423,59.1162,127.4196],[9.8436,59.1118,147.0079],[9.8523,59.1124,148.8787],[9.8602,59.0858,173.4763],[9.8516,59.0851,115.0648],[9.8529,59.0807,122.9233],[9.8443,59.08,79.0026],[9.8456,59.0756,107.9854],[9.8369,59.0749,128.4169],[9.8462,59.0439,39.2613],[9.8381,59.0432,4.9124]]]]}
,"properties": {"GID_2": "NOR.19.6_1","GID_0": "NOR","country": "Norway","GID_1": "NOR.19_1","province": "Vestfold","NL_NAME_1": "NA","county": "Larvik","VARNAME_2": "NA","NL_NAME_2": "NA","TYPE_2": "Kommuner","ENGTYPE_2": "Municipality","CC_2": "NA","HASC_2": "NO.VF.LV","name": "Larvik.county","area_km2": 539.6031,"hist_schema_id": "Elevation0-9000","hist_area_km2": {"0": 50.1928,"25": 121.4892,"50": 80.4336,"75": 63.8207,"100": 49.9469,"125": 46.8016,"150": 40.2007,"175": 26.0522,"200": 16.6364,"225": 12.3195,"250": 9.5725,"275": 7.0881,"300": 5.5473,"325": 3.4881,"350": 2.7298,"375": 1.3111,"400": 1.3115,"425": 0.5961,"450": 0.065}}}