{"type": "Feature","bbox": [29.1427885082299,69.228669196898068,29.338835016899594,69.325220630597272],"geometry": {"type": "Polygon","coordinates": [[[29.15456307331516,69.228963561025211,66.3523],[29.165454546019021,69.232495930550783,51.0],[29.176051654595767,69.239266305474814,54.2646],[29.185765670791113,69.242798675000387,51.0],[29.203427518419034,69.2466254086531,73.7571],[29.210786621597322,69.246036680398845,65.5708],[29.213730262868637,69.2389719413477,51.0],[29.216085175885695,69.230141017533725,60.3757],[29.22226682255544,69.228669196898068,55.7874],[29.240517398437618,69.235145207694984,51.0],[29.26494962098954,69.257516881356992,51.0],[29.28084528385466,69.2669365334252,51.0],[29.288204387032948,69.25987179437405,62.8857],[29.292325484812778,69.251923962941476,51.0],[29.302333865135267,69.240149397856214,51.0],[29.314697158474786,69.231318474042268,51.0],[29.325588631178675,69.232201566423669,80.1543],[29.337068832136794,69.2466254086531,51.0],[29.338835016899594,69.259283066119764,74.1357],[29.330004093085648,69.2678196258066,69.1034],[29.3091042400593,69.26988017469651,66.3635],[29.311164788949213,69.277533642001941,96.3952],[29.315285886729043,69.282832196290315,158.9465],[29.321467533398817,69.286953294070145,223.6005],[29.329121000704248,69.290485663595717,307.5116],[29.32499990292439,69.3078531470965,59.0359],[29.314697158474786,69.3190389839275,50.5],[29.299390223863952,69.324631902343015,109.9675],[29.281434012108917,69.325220630597272,105.4246],[29.262594707972482,69.320510804563156,98.3682],[29.251114507014364,69.31167988074921,87.1633],[29.230214653988014,69.286953294070145,76.4376],[29.215496447631409,69.275767457239141,123.908],[29.196951507622117,69.2660534410438,115.1732],[29.176934746977167,69.258988701992649,84.8507],[29.158095442840732,69.256339424848449,91.4563],[29.1513250679167,69.254573240085676,98.4365],[29.145732149501214,69.2492746857973,96.9851],[29.1427885082299,69.242504310873272,94.3714],[29.144849057119814,69.235145207694984,74.4988],[29.15456307331516,69.228963561025211,66.3523]]]}
,"properties": {"featurecla": "Lake","scalerank": 7,"name": "null390","name_abb": null,"name_alt": null,"note": "_untitled_18","delta": null,"dam_name": null,"year": -99,"admin": null,"min_zoom": 5.7,"min_label": 6.7,"area_km2": 40.04112,"hist_schema_id": "Elevation0-9000","hist_area_km2": {"50": 19.81121,"75": 10.12309,"100": 6.21975,"125": 1.89892,"150": 0.91555,"175": 0.57022,"200": 0.27745,"225": 0.09747,"250": 0.05998,"275": 0.03749,"300": 0.02999}}}