{"type":"Feature","properties":{"featurecla":"Lake","scalerank":9,"name":"null535","name_abb":null,"name_alt":null,"note":"_untitled_208","delta":null,"dam_name":null,"year":-99,"admin":null,"min_zoom":7.0,"min_label":8.0},
"geometry":{"type": "Polygon","coordinates": [[[24.327285752482908,69.659029550764586,396.3354],[24.333761763279824,69.667860474578532,411.6183],[24.318749192796105,69.671687208231248,399.9338],[24.272239660709289,69.6740421212483,389.6409],[24.276360758489147,69.681989952680851,394.1628],[24.282542405158893,69.687877235223482,402.9025],[24.290195872464324,69.69199833300334,391.1248],[24.299615524532527,69.694647610147513,393.6529],[24.282248041031778,69.699063072054486,389.362],[24.114754852693864,69.708777088249832,414.3408],[24.118581586346551,69.697591251418828,389.5027],[24.115932309202378,69.690526512367683,390.9185],[24.107395749515547,69.687288506969224,402.5801],[24.094149363794628,69.687877235223482,399.0504],[24.1003310104644,69.679929403790936,400.3141],[24.114754852693864,69.654025360603327,391.9903],[24.110633754914005,69.646960621552182,402.5348],[24.105040836498517,69.63341987170412,404.8045],[24.100919738718659,69.626355132652975,433.6166],[24.19717680829072,69.599567997084,412.8664],[24.238387786089163,69.599567997084,394.5876],[24.220725938461243,69.617229844711886,394.4351],[24.217782297189927,69.619584757728944,400.7968],[24.218665389571328,69.628121317415747,393.5751],[24.219842846079843,69.62871004567,393.5751],[24.2248470362411,69.62664949678009,389.2414],[24.310212633109273,69.625766404398689,389.2504],[24.333761763279824,69.633125507577,398.572],[24.32669702422865,69.634008599958378,394.5712],[24.313450638507732,69.639012790119637,405.2671],[24.306385899456558,69.6404846107553,393.9925],[24.312567546126331,69.6499042628235,390.2824],[24.327285752482908,69.659029550764586,396.3354]]]}}