{"type":"Feature","properties":{"GID_2":"NOR.13.16_1","GID_0":"NOR","country":"Norway","GID_1":"NOR.13_1","province":"Rogaland","NL_NAME_1":"NA","county":"Sandnes","VARNAME_2":"NA","NL_NAME_2":"NA","TYPE_2":"Kommuner","ENGTYPE_2":"Municipality","CC_2":"NA","HASC_2":"NO.RO.SN","name":"Sandnes.county"},
"geometry":{"type": "MultiPolygon","coordinates": [[[[6.1017,58.8633,152.2301],[6.0964,58.8701,0.0],[6.0869,58.8735,174.0562],[6.0825,58.8776,0.0],[6.0736,58.8796,0.0],[6.0764,58.8807,6.5354],[6.0753,58.8829,2.1033],[6.0636,58.8824,10.0424],[6.0642,58.884,36.837],[6.0692,58.884,4.7179],[6.0719,58.8871,0.0],[6.0581,58.8946,0.0],[6.0408,58.8979,0.0],[6.0403,58.8957,2.4146],[6.0458,58.8951,0.0],[6.0481,58.8932,4.8832],[6.0408,58.8926,0.0],[6.0303,58.8965,4.7594],[6.0225,58.8963,9.3252],[6.0214,58.8985,1.6697],[6.0142,58.9026,0.0],[6.0058,58.9021,0.0],[6.0036,58.901,8.9874],[6.0036,58.8985,7.874],[5.9975,58.8965,4.8853],[5.9919,58.8974,0.0],[5.9786,58.9035,12.1589],[5.9719,58.9021,1.2953],[5.9664,58.9035,7.7103],[5.9664,58.9054,0.3718],[5.9731,58.9068,0.0],[5.9736,58.9085,5.1264],[5.9686,58.9126,0.0],[5.9664,58.9188,11.9222],[5.9708,58.9226,1.746],[5.9708,58.9243,1.1315],[5.9764,58.9232,0.0],[5.9836,58.9276,4.5982],[5.9836,58.9313,1.3877],[5.9786,58.9376,2.2154],[5.9742,58.9388,0.0],[5.9697,58.9357,0.0],[5.9675,58.9379,0.0],[5.9647,58.9379,1.5454],[5.9647,58.9443,0.0],[5.9492,58.9521,0.0],[5.9325,58.9549,7.6826],[5.9308,58.9529,0.0],[5.9347,58.9482,15.1292],[5.9308,58.9479,4.4655],[5.9286,58.951,0.0],[5.9225,58.9538,0.0],[5.9192,58.954,0.0],[5.9181,58.9521,0.0],[5.9119,58.954,0.0],[5.9103,58.9562,0.0],[5.9053,58.9571,0.0],[5.8986,58.961,0.0],[5.8997,58.9643,0.0],[5.8986,58.9657,0.0],[5.8919,58.9679,0.0],[5.8886,58.9668,0.0],[5.8903,58.9646,3.8916],[5.8708,58.9657,0.0],[5.8658,58.9632,3.2872],[5.8625,58.9635,10.1738],[5.8614,58.9618,0.0],[5.8642,58.9593,11.0188],[5.8619,58.9574,1.8864],[5.8631,58.9543,0.8698],[5.8603,58.954,1.4763],[5.8558,58.9565,5.5792],[5.8514,58.9549,17.5269],[5.8514,58.9532,23.4815],[5.8442,58.9482,0.0],[5.8536,58.9426,2.7199],[5.8497,58.9401,4.825],[5.8492,58.931,9.3285],[5.8431,58.934,1.6796],[5.8392,58.934,0.0],[5.8386,58.9301,11.5912],[5.8319,58.9268,2.2318],[5.8164,58.9257,0.0],[5.7992,58.9315,8.6947],[5.7992,58.9357,0.0],[5.7958,58.9382,1.3763],[5.7864,58.9396,0.0],[5.7864,58.9362,2.7791],[5.7836,58.9362,0.0],[5.7836,58.934,0.0],[5.7897,58.931,9.6169],[5.7786,58.9276,0.0],[5.7775,58.9185,10.5426],[5.7747,58.9146,0.0],[5.7781,58.9096,4.6745],[5.7742,58.9071,0.0],[5.7781,58.9046,8.7928],[5.7742,58.9029,0.0],[5.7731,58.8999,0.0],[5.7747,58.8993,0.0],[5.7747,58.8976,0.0],[5.7719,58.8965,10.4455],[5.7719,58.8937,0.0],[5.7758,58.8901,0.0],[5.7747,58.8829,0.2013],[5.7686,58.8818,0.0],[5.7681,58.8799,0.0],[5.7708,58.8782,7.9819],[5.7625,58.8749,0.0],[5.7625,58.8732,0.0],[5.7642,58.8732,0.0],[5.7636,58.8707,0.0],[5.7597,58.8699,4.8821],[5.7592,58.8679,17.9332],[5.7558,58.8662,1.486],[5.7536,58.8621,0.0],[5.7547,58.8582,18.1651],[5.7497,58.856,0.0],[5.7481,58.8518,4.7466],[5.7431,58.8518,3.0322],[5.7492,58.8621,0.1563],[5.7469,58.8638,0.0],[5.7464,58.8665,0.0],[5.7481,58.8696,0.0],[5.7425,58.8721,0.0],[5.7419,58.8743,3.6004],[5.7481,58.8774,0.0],[5.7486,58.8832,4.8347],[5.7514,58.8885,0.3901],[5.7486,58.8882,10.7349],[5.7468,58.8925,12.1845],[5.7297,58.8906,12.9381],[5.7279,58.895,33.7316],[5.7024,58.8921,10.598],[5.7042,58.8877,15.833],[5.6957,58.8868,10.1922],[5.6976,58.8824,23.8026],[5.6891,58.8814,27.1236],[5.6909,58.8771,46.8852],[5.6824,58.8761,20.4847],[5.6898,58.8586,32.822],[5.6643,58.8557,10.9952],[5.6662,58.8513,27.6093],[5.6492,58.8494,11.9262],[5.651,58.845,42.6555],[5.634,58.8431,4.5465],[5.6359,58.8387,32.2949],[5.6274,58.8377,11.2689],[5.6311,58.829,47.8237],[5.6396,58.8299,59.551],[5.6414,58.8256,48.6803],[5.6499,58.8265,83.4707],[5.6518,58.8222,74.4892],[5.6603,58.8231,52.9921],[5.6621,58.8187,46.2081],[5.6706,58.8197,56.0717],[5.6725,58.8153,55.5034],[5.681,58.8163,56.0337],[5.6828,58.8119,42.2141],[5.6913,58.8129,40.2911],[5.695,58.8041,13.3335],[5.7035,58.8051,30.9783],[5.7072,58.7963,27.6057],[5.7241,58.7982,37.7232],[5.726,58.7939,46.8895],[5.7345,58.7948,77.3697],[5.7363,58.7904,80.6592],[5.7448,58.7914,66.2002],[5.7533,58.7924,81.4422],[5.7496,58.8011,41.0826],[5.7836,58.8049,43.5],[5.7909,58.7874,209.1982],[5.8079,58.7893,88.1196],[5.8097,58.785,92.5079],[5.8182,58.7859,102.9618],[5.82,58.7815,152.2882],[5.8285,58.7825,102.8104],[5.8322,58.7737,179.5092],[5.8406,58.7747,91.1034],[5.8388,58.7791,109.6862],[5.8558,58.781,239.5],[5.854,58.7853,243.7086],[5.8794,58.7882,204.461],[5.8776,58.7926,213.2147],[5.8946,58.7945,274.8435],[5.8928,58.7989,281.0517],[5.9607,58.8064,370.9972],[5.9589,58.8108,407.4661],[5.9759,58.8127,295.678],[5.9741,58.8171,427.6278],[5.9826,58.818,350.1609],[5.9808,58.8224,338.4831],[5.9893,58.8233,390.0504],[5.9911,58.819,358.4604],[5.9996,58.8199,239.8878],[6.0014,58.8155,152.9192],[6.0099,58.8165,103.5],[6.0063,58.8252,251.092],[6.0148,58.8262,181.525],[6.0112,58.8349,324.8556],[6.0197,58.8359,306.9104],[6.0179,58.8403,332.587],[6.0349,58.8421,411.6219],[6.0331,58.8465,352.4516],[6.0416,58.8475,409.9011],[6.0398,58.8519,411.7043],[6.0653,58.8547,454.856],[6.0671,58.8503,454.5234],[6.0926,58.8531,500.6335],[6.0908,58.8575,426.1978],[6.0993,58.8584,301.905],[6.0975,58.8628,212.3167],[6.1017,58.8633,152.2301]]],
[[[5.8425,58.9632,3.4437],[5.8386,58.9635,2.0607],[5.8369,58.9596,9.0813],[5.8192,58.9618,2.6483],[5.8175,58.961,2.6483],[5.8186,58.9579,1.7392],[5.8175,58.9568,8.7414],[5.8136,58.9574,0.0],[5.8064,58.9532,18.372],[5.8025,58.9526,4.4761],[5.8131,58.9496,3.593],[5.8125,58.9468,30.4259],[5.8103,58.9465,2.8801],[5.8103,58.9451,0.0],[5.8219,58.9385,0.0],[5.8269,58.9374,5.0686],[5.8325,58.9385,0.0],[5.8403,58.9437,0.0],[5.8392,58.9465,0.0],[5.8408,58.9529,0.0],[5.8364,58.9532,11.068],[5.8358,58.9551,1.9345],[5.8397,58.9557,6.3823],[5.8436,58.9532,0.0],[5.8486,58.9557,3.5667],[5.8464,58.9601,7.5002],[5.8425,58.9632,3.4437]]],
[[[5.8614,58.971,0.0],[5.8564,58.9718,0.0],[5.8558,58.9704,0.0],[5.8597,58.9699,0.0],[5.8614,58.971,0.0]]],
[[[5.8575,58.9743,0.0],[5.8536,58.9751,3.1871],[5.8508,58.9738,0.0],[5.8542,58.9726,0.0],[5.8581,58.9732,0.0],[5.8575,58.9743,0.0]]],
[[[5.9881,58.926,4.2973],[5.9858,58.9268,6.0452],[5.9831,58.9254,8.0151],[5.9831,58.9229,2.2974],[5.9864,58.9215,0.0],[5.9914,58.9129,0.0],[5.9936,58.9129,0.0],[5.9942,58.9146,7.273],[5.9914,58.9171,4.7995],[5.9986,58.919,5.4875],[5.9958,58.9179,0.0],[5.9964,58.9101,0.0],[6.0008,58.9085,0.0],[6.0142,58.9079,7.0454],[6.0169,58.9071,7.0454],[6.0164,58.9051,0.0],[6.0281,58.9054,0.0],[6.0269,58.9124,0.0],[6.0203,58.919,0.0],[6.0103,58.9215,0.0],[6.0097,58.9232,0.0],[6.0025,58.9254,17.7949],[5.9958,58.9232,23.3972],[5.9881,58.926,4.2973]]],
[[[5.9936,58.9326,3.4917],[5.9903,58.9332,2.5027],[5.9903,58.9304,0.0],[5.9964,58.9287,0.0],[5.9964,58.9296,7.294],[5.9936,58.9326,3.4917]]],
[[[5.8708,58.9688,1.4597],[5.8686,58.9693,0.0],[5.8681,58.9682,0.0],[5.8731,58.9671,1.7304],[5.8708,58.9688,1.4597]]],
[[[5.8819,58.9704,3.6841],[5.8786,58.9712,0.0],[5.8769,58.969,3.6935],[5.8858,58.9685,0.0],[5.8819,58.9704,3.6841]]]]}}