{"type": "Feature","bbox": [10.0023,62.0168,11.2024,62.6932],"geometry": {"type": "MultiPolygon","coordinates": [[[[10.8855,62.0175,719.7665],[10.8842,62.0219,754.8278],[10.9032,62.0231,403.591],[10.9018,62.0276,396.3575],[10.9113,62.0282,399.9125],[10.9127,62.0238,392.4218],[10.9411,62.0256,710.0274],[10.9398,62.0301,712.4794],[10.9588,62.0313,846.4688],[10.9442,62.0802,945.1691],[10.9537,62.0808,926.0094],[10.9497,62.0942,927.4765],[10.9592,62.0948,945.3924],[10.9552,62.1081,968.1353],[10.9647,62.1087,924.6663],[10.9607,62.1221,836.2012],[10.9703,62.1227,764.9249],[10.9676,62.1316,662.993],[10.9866,62.1328,491.4125],[10.9853,62.1372,490.6373],[11.0044,62.1385,672.7573],[11.003,62.1429,633.3585],[11.0507,62.146,656.4811],[11.052,62.1415,723.3463],[11.0711,62.1427,968.166],[11.0697,62.1472,1008.0817],[11.0793,62.1478,1045.3971],[11.078,62.1522,1091.7159],[11.0875,62.1528,1106.7207],[11.0862,62.1573,1148.2123],[11.0957,62.1579,1160.9569],[11.0944,62.1623,1167.3889],[11.1039,62.163,1228.3376],[11.1052,62.1585,1214.1464],[11.1148,62.1591,1210.5002],[11.1161,62.1547,1241.0245],[11.1256,62.1553,1251.0492],[11.1269,62.1508,1236.113],[11.1365,62.1514,1232.0356],[11.1378,62.147,1225.5551],[11.1473,62.1476,1253.4928],[11.146,62.152,1196.8372],[11.1555,62.1526,1164.8922],[11.1542,62.1571,1069.8767],[11.1638,62.1577,1087.9067],[11.1585,62.1755,824.3226],[11.1776,62.1767,874.4271],[11.1763,62.1811,887.3051],[11.1859,62.1817,946.0375],[11.1846,62.1862,943.8785],[11.1941,62.1868,999.6984],[11.1928,62.1912,987.4489],[11.2024,62.1918,1048.621],[11.1998,62.2007,1002.0115],[11.1807,62.1995,932.7025],[11.182,62.1951,944.7787],[11.1724,62.1945,946.1019],[11.1711,62.1989,918.2803],[11.1616,62.1983,932.1938],[11.1603,62.2028,896.1976],[11.1412,62.2016,886.2809],[11.1425,62.1971,874.6212],[11.1234,62.1959,780.744],[11.1221,62.2004,822.7887],[11.1125,62.1997,755.1794],[11.1112,62.2042,767.7873],[11.1017,62.2036,803.8257],[11.1004,62.208,744.8066],[11.0908,62.2074,817.6797],[11.0895,62.2119,729.5065],[11.0704,62.2107,871.6006],[11.0691,62.2151,712.041],[11.0595,62.2145,714.2092],[11.0582,62.2189,802.881],[11.0486,62.2183,823.6347],[11.05,62.2139,716.5525],[11.0213,62.2121,936.6078],[10.9894,62.3188,1092.2072],[10.9798,62.3182,895.1617],[10.9771,62.3271,936.1523],[10.9675,62.3264,760.3243],[10.9622,62.3442,704.7722],[10.943,62.343,591.0008],[10.9417,62.3474,577.7505],[10.9129,62.3456,535.7493],[10.9115,62.35,506.9645],[10.902,62.3494,490.0215],[10.9033,62.345,495.0743],[10.8554,62.3419,543.4293],[10.8527,62.3508,655.4816],[10.8431,62.3501,648.6261],[10.8417,62.3546,697.3916],[10.8321,62.354,690.7268],[10.8294,62.3628,726.0544],[10.8198,62.3622,751.4711],[10.8184,62.3667,795.3574],[10.8088,62.366,839.2259],[10.8075,62.3705,846.2403],[10.7979,62.3699,882.8715],[10.7965,62.3743,922.9238],[10.7869,62.3737,950.1846],[10.7856,62.3781,1011.0505],[10.776,62.3775,985.6745],[10.7746,62.3819,1013.5595],[10.765,62.3813,961.4812],[10.7636,62.3857,945.3163],[10.754,62.3851,944.0994],[10.7526,62.3896,866.0928],[10.7334,62.3883,788.8663],[10.7321,62.3927,748.8043],[10.7225,62.3921,721.1498],[10.7211,62.3966,712.1531],[10.7115,62.3959,727.2172],[10.7101,62.4004,699.4559],[10.7005,62.3997,714.238],[10.7019,62.3953,725.2314],[10.6731,62.3934,689.5011],[10.6703,62.4023,740.9518],[10.6607,62.4016,722.754],[10.6593,62.4061,803.3696],[10.6497,62.4054,758.6265],[10.6414,62.4321,841.8236],[10.6221,62.4308,831.3282],[10.6207,62.4353,852.5958],[10.6015,62.434,827.3951],[10.5973,62.4473,843.1247],[10.5877,62.4467,849.1279],[10.5849,62.4556,944.2432],[10.5753,62.4549,925.5011],[10.5711,62.4682,896.126],[10.5615,62.4676,872.073],[10.5586,62.4765,848.5296],[10.549,62.4758,817.9577],[10.5462,62.4847,828.2373],[10.5366,62.4841,943.7548],[10.5352,62.4885,895.7212],[10.5159,62.4872,969.6579],[10.5145,62.4917,958.2397],[10.5049,62.491,994.3045],[10.5034,62.4955,968.6266],[10.4938,62.4948,1037.1222],[10.4896,62.5081,924.7542],[10.4992,62.5088,918.8902],[10.4963,62.5177,890.6724],[10.5156,62.519,943.2411],[10.5142,62.5234,985.6967],[10.5238,62.5241,1032.9816],[10.5224,62.5285,1054.8322],[10.5513,62.5304,1113.1538],[10.5528,62.526,1126.4814],[10.6299,62.5311,1134.5938],[10.6285,62.5356,1125.0698],[10.6381,62.5362,1148.0752],[10.6367,62.5406,1141.8995],[10.6464,62.5413,1083.8138],[10.6422,62.5546,1077.6736],[10.6518,62.5552,1113.4203],[10.6476,62.5686,961.3839],[10.6573,62.5692,947.5862],[10.6545,62.5781,953.5103],[10.6641,62.5787,985.7665],[10.6613,62.5876,1036.8717],[10.671,62.5883,1052.3809],[10.6696,62.5927,1066.7476],[10.6793,62.5933,1069.6943],[10.6779,62.5978,1072.8148],[10.6875,62.5984,1092.0284],[10.6861,62.6029,1047.6865],[10.7055,62.6041,1021.2887],[10.7041,62.6086,988.2817],[10.7137,62.6092,991.7327],[10.7123,62.6137,1032.4766],[10.7317,62.6149,1082.7869],[10.7289,62.6238,1085.4164],[10.7386,62.6244,1112.1337],[10.7233,62.6733,1103.3701],[10.7039,62.6721,1059.5469],[10.7025,62.6765,1029.2979],[10.6928,62.6759,1026.3715],[10.6914,62.6803,1050.948],[10.6332,62.6765,991.6637],[10.6347,62.672,969.3541],[10.6153,62.6708,1024.1428],[10.6167,62.6663,1027.8522],[10.5876,62.6644,987.6473],[10.5862,62.6688,971.9433],[10.5572,62.6669,1153.1511],[10.5557,62.6714,1121.8214],[10.5364,62.6701,1043.8329],[10.535,62.6745,1009.7572],[10.5059,62.6726,1164.6959],[10.5045,62.677,1119.4989],[10.4754,62.6751,1191.0272],[10.474,62.6795,1194.038],[10.4546,62.6782,1138.9054],[10.4532,62.6827,1146.4747],[10.4241,62.6807,994.3104],[10.4227,62.6851,981.6642],[10.4033,62.6838,931.5463],[10.4018,62.6883,933.9033],[10.3728,62.6863,983.9344],[10.3713,62.6907,990.6383],[10.3423,62.6888,1163.8749],[10.3408,62.6932,1157.7498],[10.1471,62.6799,498.2979],[10.1486,62.6755,507.9406],[10.1293,62.6741,734.2657],[10.1307,62.6697,784.7537],[10.1114,62.6684,905.9695],[10.1129,62.6639,923.2154],[10.1032,62.6632,922.3027],[10.1121,62.6366,996.0633],[10.1024,62.6359,1010.624],[10.1039,62.6315,1031.1062],[10.0943,62.6308,1068.7445],[10.0958,62.6264,1086.6405],[10.0861,62.6257,1093.8475],[10.0876,62.6213,1080.2937],[10.0972,62.622,1062.1196],[10.0987,62.6175,1029.8785],[10.1084,62.6182,1015.8898],[10.1128,62.6049,904.2098],[10.1032,62.6042,892.1249],[10.1076,62.5909,824.4034],[10.098,62.5902,891.4028],[10.0995,62.5858,900.4669],[10.0802,62.5844,1045.5955],[10.0817,62.58,1075.5254],[10.0624,62.5786,1008.5011],[10.0638,62.5742,1017.9169],[10.0542,62.5735,1028.1051],[10.0557,62.5691,1047.0562],[10.0364,62.5677,964.8919],[10.0379,62.5633,984.1561],[10.0283,62.5626,1064.7051],[10.0297,62.5582,1045.7222],[10.0105,62.5568,1150.5474],[10.012,62.5524,1182.7148],[10.0023,62.5517,1174.0364],[10.0158,62.5118,1013.9066],[10.0254,62.5125,1016.3082],[10.0328,62.4903,1005.6641],[10.0425,62.491,1036.3701],[10.0499,62.4688,992.7338],[10.0595,62.4695,994.4177],[10.0669,62.4473,970.7947],[10.0765,62.448,962.4186],[10.0839,62.4258,1006.3903],[10.0743,62.4251,988.0723],[10.0758,62.4207,1005.1127],[10.0854,62.4213,1032.0341],[10.0898,62.408,1136.2228],[10.0994,62.4087,1176.0717],[10.1023,62.3998,1413.5907],[10.1503,62.4032,1360.2744],[10.1517,62.3987,1356.4587],[10.1613,62.3994,1351.4227],[10.1657,62.3861,1334.7463],[10.1945,62.3881,1198.5956],[10.1959,62.3837,1146.7515],[10.2151,62.385,1036.4583],[10.2166,62.3806,1037.5024],[10.2261,62.3812,1016.1773],[10.2319,62.3635,1282.799],[10.2224,62.3628,1215.2477],[10.2267,62.3495,1235.1831],[10.2171,62.3488,1318.0245],[10.2215,62.3355,1256.826],[10.2119,62.3349,1358.5813],[10.2177,62.3171,1484.0348],[10.2464,62.3191,1276.8833],[10.2479,62.3147,1197.3085],[10.267,62.316,1024.4299],[10.2684,62.3115,1031.2627],[10.278,62.3122,995.8354],[10.2823,62.2989,1015.7822],[10.311,62.3009,958.0892],[10.3125,62.2964,937.5812],[10.322,62.2971,925.4819],[10.3234,62.2926,885.4911],[10.333,62.2933,880.0531],[10.3387,62.2755,855.0382],[10.3674,62.2775,907.9531],[10.3688,62.2731,898.2573],[10.3879,62.2744,996.9701],[10.3894,62.27,993.2998],[10.3989,62.2706,989.5184],[10.4003,62.2662,938.4448],[10.4099,62.2668,913.1412],[10.4127,62.2579,817.6934],[10.4414,62.2599,705.1035],[10.44,62.2643,712.8942],[10.4495,62.265,704.323],[10.4509,62.2605,703.3763],[10.4605,62.2612,703.6438],[10.4647,62.2479,703.3491],[10.4743,62.2485,711.9023],[10.4757,62.2441,703.2631],[10.4852,62.2447,703.3315],[10.4866,62.2403,703.3997],[10.4962,62.2409,703.0754],[10.4976,62.2365,703.2113],[10.5071,62.2371,703.3431],[10.5085,62.2327,702.8332],[10.5181,62.2333,704.3836],[10.5195,62.2289,717.0033],[10.529,62.2295,711.041],[10.5304,62.2251,707.1566],[10.54,62.2257,704.269],[10.5413,62.2213,660.938],[10.5986,62.2252,747.0099],[10.6,62.2207,665.7832],[10.6477,62.2239,493.4155],[10.6491,62.2195,494.1021],[10.6586,62.2201,486.7729],[10.66,62.2157,489.9352],[10.7268,62.2201,656.3897],[10.7323,62.2023,788.9274],[10.7228,62.2017,769.347],[10.7255,62.1928,881.3028],[10.716,62.1922,909.4503],[10.7187,62.1833,1191.4805],[10.7092,62.1826,1359.9945],[10.7105,62.1782,1461.3564],[10.701,62.1776,1600.1724],[10.7201,62.1154,912.5822],[10.7297,62.116,908.0453],[10.7324,62.1071,858.8842],[10.7419,62.1077,863.2415],[10.7446,62.0988,842.2195],[10.7541,62.0995,865.9752],[10.7568,62.0906,838.5365],[10.7663,62.0912,867.5727],[10.7691,62.0823,888.5491],[10.7786,62.083,947.8041],[10.7813,62.0741,1000.6171],[10.7908,62.0747,991.9291],[10.7935,62.0658,985.0735],[10.803,62.0664,979.9055],[10.8057,62.0575,772.5158],[10.8152,62.0582,737.4933],[10.8179,62.0493,897.8123],[10.8274,62.0499,888.7618],[10.83,62.041,972.85],[10.8395,62.0416,948.7689],[10.8409,62.0372,824.9095],[10.8504,62.0378,863.8945],[10.8517,62.0334,803.5562],[10.8612,62.034,839.2698],[10.8639,62.0251,705.8497],[10.8734,62.0257,774.7763],[10.876,62.0168,654.5555],[10.8855,62.0175,719.7665]]]]}
,"properties": {"GID_2": "NOR.6.21_1","GID_0": "NOR","country": "Norway","GID_1": "NOR.6_1","province": "Hedmark","NL_NAME_1": "NA","county": "Tynset","VARNAME_2": "NA","NL_NAME_2": "NA","TYPE_2": "Kommuner","ENGTYPE_2": "Municipality","CC_2": "NA","HASC_2": "NO.HE.TY","name": "Tynset.county","area_km2": 1855.996,"hist_schema_id": "Elevation0-9000","hist_area_km2": {"375": 0.03,"400": 7.006,"425": 4.598,"450": 3.614,"475": 24.284,"500": 23.74,"525": 30.565,"550": 30.075,"575": 25.404,"600": 26.273,"625": 31.247,"650": 33.103,"675": 46.747,"700": 76.228,"725": 84.39,"750": 84.701,"775": 86.545,"800": 92.581,"825": 94.795,"850": 102.773,"875": 105.86,"900": 105.801,"925": 112.358,"950": 112.122,"975": 97.714,"1000": 89.208,"1025": 77.079,"1050": 58.735,"1075": 45.019,"1100": 33.551,"1125": 26.083,"1150": 19.1,"1175": 18.435,"1200": 13.365,"1225": 8.215,"1250": 5.531,"1275": 3.721,"1300": 3.043,"1325": 2.549,"1350": 2.627,"1375": 2.518,"1400": 1.624,"1425": 0.916,"1450": 0.591,"1475": 0.345,"1500": 0.394,"1525": 0.198,"1550": 0.119,"1575": 0.119,"1600": 0.158,"1625": 0.168,"1650": 0.03}}}