{"type": "Feature","id": 92671.0,"bbox": [8.0014754566462329,59.779181219525327,8.2998153003962329,59.965826727337827],"geometry": {"type": "Polygon","coordinates": [[[8.1950789722712329,59.779181219525327,1020.6363],[8.1950789722712329,59.779181219525327,1020.6363],[8.1930037769587329,59.783148504681577,1038.8302],[8.1568709644587329,59.792608953900327,969.1073],[8.1350203785212329,59.805914617962827,913.3067],[8.1195174488337329,59.826605535931577,965.1764],[8.1034041675837329,59.846075750775327,924.9934],[8.1146346363337329,59.854620672650327,910.0],[8.1358748707087329,59.855841375775327,910.0],[8.1626082691462329,59.854010321087827,910.0],[8.1875106128962329,59.853094793744077,942.3608],[8.1988631519587329,59.845465399212827,910.0],[8.2335311207087329,59.830877996869077,910.0],[8.2927352222712329,59.824957586712827,936.5306],[8.2998153003962329,59.831793524212827,1008.8502],[8.2495223316462329,59.839972235150327,929.4229],[8.2180281910212329,59.851568914837827,980.8603],[8.2097274097712329,59.854620672650327,983.0756],[8.1917830738337329,59.856085516400327,926.2576],[8.1705428394587329,59.870123602337827,945.9433],[8.1464949878962329,59.883795477337827,1046.5525],[8.1279403003962329,59.882269598431577,1079.688],[8.1150008472712329,59.879523016400327,1049.587],[8.0944930347712329,59.877691961712827,1018.103],[8.0598250660212329,59.888922430462827,1015.1181],[8.0398055347712329,59.910773016400327,910.0],[8.0595809253962329,59.926886297650327,927.7255],[8.0703231128962329,59.945196844525327,1147.86],[8.0422469410212329,59.961920477337827,1296.4126],[8.0134383472712329,59.965826727337827,1073.884],[8.0264998707087329,59.957281805462827,1010.2933],[8.0550643238337329,59.945196844525327,910.5],[8.0434676441462329,59.928717352337827,1070.7003],[8.0205184253962329,59.910773016400327,1007.4351],[8.0079451832087329,59.898077703900327,1013.2291],[8.0014754566462329,59.885870672650327,931.0474],[8.0167342457087329,59.866766668744077,910.0],[8.0340682300837329,59.844000555462827,910.0],[8.0662947925837329,59.824225164837827,910.0],[8.1109725269587329,59.806524969525327,910.0],[8.1350203785212329,59.791022039837827,910.0],[8.1538192066462329,59.784369207806577,926.9005],[8.1745711597712329,59.780768133587827,926.2339],[8.1950789722712329,59.779181219525327,1020.6363]]]}
,"properties": {"name": "Msvatn","lge_id": "no","pfafstette": 91177.0,"lke_type": "B","altitude": 1394,"objectid": 47810,"scalerank": 10,"featurecla": "Lake","note": null,"funkyname": 0,"min_zoom": 6.0,"min_label": 7.0,"area_km2": 69.45174,"hist_schema_id": "Elevation0-9000","hist_area_km2": {"900": 40.97446,"925": 10.43725,"950": 7.4961,"975": 3.90702,"1000": 2.76822,"1025": 1.26595,"1050": 0.89299,"1075": 0.61633,"1100": 0.20181,"1125": 0.11677,"1150": 0.09553,"1175": 0.04246,"1200": 0.10614,"1225": 0.09553,"1250": 0.12737,"1275": 0.13798,"1300": 0.10614,"1325": 0.05307,"1350": 0.01061}}}