{"type":"Feature","properties":{"GID_2":"NOR.10.9_1","GID_0":"NOR","country":"Norway","GID_1":"NOR.10_1","province":"Nordland","NL_NAME_1":"NA","county":"Dønna","VARNAME_2":"NA","NL_NAME_2":"NA","TYPE_2":"Kommuner","ENGTYPE_2":"Municipality","CC_2":"NA","HASC_2":"NO.NO.DO","name":"Dønna.county"},
"geometry":{"type": "MultiPolygon","coordinates": [[[[12.4771,66.0146,4.964],[12.4734,66.0141,0.0],[12.4734,66.013,3.3032],[12.4786,66.013,5.0128],[12.4771,66.0146,4.964]]],
[[[12.4979,66.0188,12.3361],[12.5016,66.0193,7.1894],[12.5042,66.0229,0.5087],[12.5036,66.0245,0.0],[12.4979,66.0271,0.0],[12.4875,66.0229,4.5543],[12.4604,66.025,0.0],[12.4568,66.0203,13.0312],[12.4583,66.0188,2.8382],[12.4729,66.0188,0.0],[12.4771,66.0167,0.0],[12.4849,66.0172,1.3772],[12.4818,66.0193,0.0],[12.4833,66.0208,4.5128],[12.4979,66.0188,12.3361]]],
[[[12.5188,66.0292,18.6498],[12.5167,66.0271,12.6117],[12.5188,66.025,4.9193],[12.5396,66.025,0.0],[12.5411,66.0255,0.0],[12.5432,66.0307,0.0],[12.5292,66.0313,0.0],[12.525,66.0292,23.2208],[12.5188,66.0292,18.6498]]],
[[[12.5164,66.0366,7.1361],[12.5151,66.0339,0.0],[12.5167,66.0333,0.0],[12.5542,66.0333,0.0],[12.5568,66.037,0.0],[12.562,66.038,0.0],[12.5651,66.0411,13.9377],[12.5828,66.0463,0.0],[12.5833,66.0479,0.0],[12.5828,66.0495,5.3964],[12.5771,66.0521,0.0],[12.5667,66.0521,0.0],[12.5625,66.05,35.6932],[12.5542,66.05,0.0],[12.55,66.0479,27.6545],[12.5271,66.0479,0.0],[12.5188,66.0437,6.0139],[12.5089,66.0432,0.0],[12.5161,66.0391,7.3362],[12.5164,66.0366,7.1361]]],
[[[12.6036,66.0828,0.0],[12.6005,66.0828,5.1915],[12.6005,66.0818,9.004],[12.6036,66.0818,0.8088],[12.6036,66.0828,0.0]]],
[[[12.5891,66.2266,6.919],[12.5813,66.2271,0.0],[12.5771,66.2292,0.0],[12.5484,66.2286,0.0],[12.5542,66.225,0.0],[12.5708,66.225,0.0],[12.5724,66.2234,0.0],[12.5646,66.2208,1.8851],[12.5547,66.2203,2.2759],[12.5526,66.2151,0.0],[12.5557,66.213,0.0],[12.5443,66.2089,0.0],[12.55,66.2063,0.0],[12.5563,66.2063,0.0],[12.5578,66.2047,0.0],[12.5438,66.2,10.6487],[12.5063,66.2,0.0],[12.5021,66.1979,7.9975],[12.4938,66.1979,5.6689],[12.4896,66.1958,8.2495],[12.4854,66.1979,0.0],[12.4792,66.1958,1.9382],[12.4688,66.1958,0.0],[12.4646,66.1979,0.0],[12.4521,66.1979,0.7702],[12.4479,66.1958,2.164],[12.4401,66.1953,7.4871],[12.438,66.1922,0.0],[12.4438,66.1896,0.0],[12.4604,66.1896,6.744],[12.4646,66.1875,0.0],[12.475,66.1875,0.0],[12.4766,66.1859,3.3435],[12.4589,66.1807,3.3654],[12.4661,66.1776,0.0],[12.4547,66.1745,1.085],[12.451599999999999,66.1672,12.6931],[12.4276,66.1599,0.0],[12.425,66.1563,0.0],[12.4271,66.1542,3.7262],[12.4333,66.1542,0.0],[12.4661,66.1651,0.0],[12.4672,66.1682,0.0],[12.4875,66.175,0.0],[12.5063,66.175,0.0],[12.5167,66.1792,7.3206],[12.5266,66.1766,0.0],[12.5349,66.1724,0.0],[12.5297,66.1703,0.0],[12.5339,66.1672,0.0],[12.5474,66.1661,0.0],[12.5464,66.1589,0.0],[12.5583,66.1625,6.2897],[12.5661,66.162,0.0],[12.5609,66.1599,0.0],[12.5599,66.1568,30.073],[12.5396,66.1542,6.5086],[12.5359,66.1516,0.0],[12.5349,66.1484,9.6102],[12.525,66.1479,0.0],[12.5229,66.1458,6.9582],[12.525,66.1438,10.2725],[12.5354,66.1438,1.5],[12.537,66.1422,5.5497],[12.5292,66.1396,1.5],[12.5229,66.1396,1.5],[12.5182,66.1453,0.0],[12.5125,66.1479,15.354],[12.5063,66.1479,0.0],[12.5021,66.1458,55.8199],[12.4922,66.1453,0.0],[12.4911,66.1422,12.6692],[12.4833,66.1396,4.251],[12.4771,66.1417,0.0],[12.4693,66.138,0.0],[12.475,66.1354,0.0],[12.4813,66.1354,0.0],[12.4854,66.1375,0.0],[12.5021,66.1375,0.0],[12.5036,66.1359,0.0],[12.4958,66.1333,0.0],[12.4859,66.1328,1.9641],[12.4859,66.1297,1.4408],[12.4891,66.1286,0.0],[12.487,66.1255,0.0],[12.4792,66.125,0.0],[12.475,66.1229,0.0],[12.4667,66.1229,0.585],[12.4641,66.1193,9.3022],[12.4526,66.1182,0.0],[12.4505,66.113,3.8269],[12.4578,66.1088,0.0],[12.45,66.1062,11.2594],[12.4396,66.1062,0.0],[12.4354,66.1042,10.6248],[12.4271,66.1042,0.0],[12.4229,66.1021,4.6995],[12.4104,66.1021,0.0],[12.3958,66.0979,9.2344],[12.3729,66.0979,0.0],[12.3667,66.0938,5.9144],[12.3438,66.0917,0.0],[12.3411,66.088,0.0],[12.3297,66.087,4.6904],[12.337,66.0828,1.3773],[12.3318,66.0807,0.0],[12.3292,66.075,6.63],[12.3313,66.0729,8.788],[12.3479,66.0729,0.0],[12.3495,66.0745,0.0],[12.3464,66.0766,0.0],[12.3542,66.0771,0.0],[12.3583,66.0792,0.0],[12.4021,66.0792,0.0],[12.4229,66.0854,0.0],[12.4266,66.0849,4.032],[12.4307,66.0828,11.0524],[12.4297,66.0797,0.9718],[12.4328,66.0776,35.0338],[12.425,66.0771,0.0],[12.4083,66.0708,16.4107],[12.4,66.0708,0.0],[12.3833,66.0646,0.0],[12.3755,66.0641,0.0],[12.375,66.0625,4.3391],[12.3755,66.0609,0.0],[12.3854,66.0583,0.0],[12.3958,66.0583,9.7135],[12.4057,66.0557,101.4133],[12.4068,66.0526,242.5969],[12.4109,66.0505,180.9585],[12.4182,66.0495,340.5906],[12.4182,66.0463,478.5465],[12.4,66.0458,813.0012],[12.3854,66.05,557.8679],[12.3771,66.05,542.7329],[12.3667,66.0542,0.8244],[12.3651,66.0537,0.0],[12.3625,66.0479,7.2339],[12.3661,66.0453,65.3955],[12.3646,66.0437,183.6288],[12.3583,66.0458,12.0868],[12.3521,66.0458,0.0],[12.3479,66.0437,5.9827],[12.325,66.0437,0.0],[12.3208,66.0396,23.0706],[12.2938,66.0396,4.048],[12.2896,66.0417,0.0],[12.2833,66.0417,0.0],[12.2792,66.0396,0.0],[12.2714,66.0391,0.0],[12.2693,66.037,0.0],[12.2672,66.0297,0.0],[12.2745,66.0255,0.0],[12.2703,66.0172,2.6905],[12.2625,66.0167,0.0],[12.2609,66.0151,0.0],[12.2667,66.0125,0.0],[12.2771,66.0125,0.0],[12.2818,66.0182,0.0],[12.2958,66.0229,0.0],[12.2984,66.0193,0.0],[12.3016,66.0182,9.4417],[12.3005,66.0151,0.0],[12.3188,66.0146,0.0],[12.3333,66.0188,9.3995],[12.3458,66.0188,0.0],[12.3563,66.0229,14.4311],[12.3646,66.0229,0.0],[12.375,66.0271,17.7228],[12.3896,66.0271,0.0],[12.3958,66.025,0.0],[12.4167,66.0313,9.7894],[12.4292,66.0313,0.0],[12.4396,66.0354,0.0],[12.4521,66.0354,0.0],[12.4667,66.0396,20.4876],[12.475,66.0396,0.0],[12.4979,66.0479,0.0],[12.5042,66.0479,0.0],[12.525,66.0542,6.4597],[12.5333,66.0542,0.0],[12.5375,66.0583,2.138],[12.55,66.0583,0.0],[12.5578,66.0609,0.0],[12.5609,66.0641,0.0],[12.5703,66.0651,0.0],[12.5734,66.0703,15.0903],[12.5786,66.0714,0.0],[12.5818,66.0766,9.2803],[12.587,66.0776,0.0],[12.5891,66.0797,0.0],[12.5891,66.0828,13.1482],[12.5859,66.0849,0.0],[12.5938,66.0875,36.2085],[12.6229,66.0896,0.0],[12.6271,66.0917,5.8934],[12.6312,66.0896,10.748],[12.6375,66.0896,0.0],[12.6578,66.0964,0.0],[12.6609,66.1016,0.0],[12.6661,66.1036,15.8262],[12.663,66.1047,0.0],[12.6641,66.1078,11.2265],[12.6609,66.1088,0.0],[12.662,66.1141,0.0],[12.6547,66.1193,48.4837],[12.6557,66.1224,0.0],[12.6417,66.1229,0.0],[12.6312,66.1188,0.0],[12.6234,66.1193,0.0],[12.6318,66.1245,0.0],[12.637,66.1255,0.0],[12.6276,66.1286,0.0],[12.6328,66.1297,0.0],[12.6359,66.1328,0.0],[12.6474,66.1359,16.7661],[12.6458,66.1375,0.0],[12.6297,66.1401,46.8587],[12.6172,66.1464,0.0],[12.6224,66.1484,0.0],[12.6255,66.1536,0.0],[12.6307,66.1547,0.0],[12.6276,66.1568,5.6045],[12.6266,66.1599,0.0],[12.6193,66.1641,0.0],[12.6312,66.1875,0.0],[12.6286,66.1932,0.0],[12.6172,66.1984,0.0],[12.6182,66.2016,0.0],[12.6089,66.2026,0.0],[12.612,66.2089,2.5113],[12.6083,66.2125,0.0],[12.6099,66.2182,0.0],[12.6042,66.2208,0.0],[12.5984,66.2214,4.6006],[12.5974,66.2245,0.0],[12.5891,66.2266,6.919]]],
[[[12.7229,66.1208,0.0],[12.7208,66.1188,0.0],[12.7229,66.1167,0.0],[12.7333,66.1167,0.0],[12.737,66.1193,0.0],[12.7313,66.125,0.0],[12.7266,66.1214,0.0],[12.7229,66.1208,0.0]]],
[[[12.4443,66.1422,1.5162],[12.45,66.1396,0.0],[12.4536,66.1401,2.9898],[12.4542,66.1417,3.1176],[12.4521,66.1438,2.3669],[12.4458,66.1438,0.0],[12.4443,66.1422,1.5162]]],
[[[12.35,66.1104,7.8432],[12.3464,66.1088,3.4059],[12.3542,66.1083,0.0],[12.3563,66.1104,0.672],[12.3542,66.1125,0.0],[12.35,66.1104,7.8432]]],
[[[12.4047,66.1224,0.0],[12.4026,66.1193,3.8063],[12.4063,66.1188,0.0],[12.4141,66.1214,0.0],[12.4146,66.1229,0.0],[12.4125,66.125,1.665],[12.4047,66.1224,0.0]]],
[[[12.4359,66.1349,0.0],[12.4339,66.1318,2.9641],[12.4375,66.1312,0.0],[12.4453,66.1339,0.0],[12.4438,66.1354,4.1542],[12.4359,66.1349,0.0]]],
[[[12.4009,66.1475,29.2598],[12.4057,66.1495,0.0],[12.4026,66.1505,3.9589],[12.4036,66.1536,0.0],[12.3979,66.1563,0.0],[12.3917,66.1563,0.0],[12.3813,66.1521,6.5104],[12.3729,66.1521,0.7263],[12.3688,66.15,2.7108],[12.3625,66.15,0.0],[12.3583,66.1521,0.0],[12.3536,66.1484,1.0072],[12.3484,66.1474,0.0],[12.3432,66.1359,0.0],[12.3339,66.1349,5.873],[12.3255,66.1297,0.6978],[12.3333,66.1292,0.0],[12.3375,66.1312,0.0],[12.3438,66.1292,0.0],[12.3479,66.1312,3.12],[12.3542,66.1312,0.0],[12.3604,66.1354,1.8182],[12.3667,66.1354,0.0],[12.3771,66.1396,18.4432],[12.3854,66.1396,0.0],[12.3896,66.1417,0.0],[12.3974,66.1422,0.0],[12.4009,66.1475,29.2598]]],
[[[12.4875,66.1625,6.3357],[12.4859,66.162,2.6287],[12.4859,66.1609,0.0],[12.4891,66.1609,0.0],[12.4875,66.1625,6.3357]]],
[[[12.7042,66.1854,0.0],[12.6854,66.1875,0.0],[12.6807,66.1839,5.9244],[12.6755,66.1828,0.0],[12.6745,66.1797,0.0],[12.6693,66.1787,0.0],[12.6807,66.1745,0.0],[12.6755,66.1713,0.0],[12.6891,66.1703,0.0],[12.6875,66.1646,0.0],[12.6911,66.162,0.0],[12.6901,66.1589,0.0],[12.6995,66.1578,0.0],[12.6974,66.1526,14.168],[12.6859,66.1516,0.0],[12.6896,66.1479,0.0],[12.6891,66.1464,0.0],[12.6839,66.1443,2.1974],[12.7,66.1417,1.2521],[12.7042,66.1396,0.0],[12.7083,66.1417,0.0],[12.725,66.1417,0.0],[12.7292,66.1438,0.0],[12.7458,66.1417,0.0],[12.7521,66.1438,58.0218],[12.7646,66.1396,0.0],[12.7708,66.1396,0.0],[12.7771,66.1438,54.729],[12.7896,66.1438,0.0],[12.8036,66.1484,0.0],[12.8036,66.1516,0.0],[12.8005,66.1536,0.0],[12.8057,66.1547,7.3201],[12.8026,66.1578,0.0],[12.8057,66.1641,0.0],[12.7979,66.1646,0.0],[12.7917,66.1625,5.3706],[12.7875,66.1646,0.0],[12.7833,66.1625,0.0],[12.7771,66.1625,0.0],[12.7672,66.1672,6.2244],[12.7661,66.1703,0.0],[12.7604,66.1729,0.0],[12.7563,66.1708,17.4566],[12.75,66.1729,0.0],[12.7458,66.1708,0.0],[12.738,66.1713,0.0],[12.738,66.1745,0.0],[12.7401,66.1766,0.0],[12.7516,66.1797,0.0],[12.7526,66.1828,5.5468],[12.7578,66.1849,7.3271],[12.7354,66.1854,0.0],[12.7313,66.1833,3.3503],[12.7208,66.1833,0.0],[12.7167,66.1854,0.0],[12.7042,66.1854,0.0]]],
[[[12.4938,66.1667,0.0],[12.4917,66.1646,0.0],[12.4938,66.1625,0.0],[12.4979,66.1646,10.9206],[12.5078,66.1651,2.0827],[12.5021,66.1687,0.0],[12.4938,66.1667,0.0]]],
[[[12.4245,66.1432,0.0],[12.4208,66.1438,4.6459],[12.4193,66.1422,0.0],[12.4229,66.1417,0.0],[12.4245,66.1432,0.0]]],
[[[12.3667,66.1667,1.6702],[12.3547,66.1672,0.0],[12.3536,66.1703,0.0],[12.3464,66.1734,0.4241],[12.35,66.1813,6.1771],[12.3464,66.1839,5.3441],[12.3474,66.1891,0.0],[12.3339,66.1891,0.0],[12.337,66.1859,0.0],[12.3349,66.1839,0.0],[12.3297,66.1828,0.0],[12.3292,66.1813,0.0],[12.3297,66.1797,0.0],[12.337,66.1766,0.0],[12.3349,66.1734,0.0],[12.3234,66.1703,0.0],[12.3224,66.1672,2.7368],[12.3172,66.1661,1.4933],[12.3141,66.1609,1.0485],[12.3089,66.1599,0.0],[12.3036,66.1505,0.6616],[12.2984,66.1495,0.0],[12.2974,66.1464,3.2955],[12.2859,66.1432,0.0],[12.2828,66.138,1.356],[12.2693,66.1328,0.0],[12.2724,66.1307,1.0095],[12.2724,66.1276,0.0],[12.2547,66.1214,0.0],[12.2604,66.1188,2.187],[12.2667,66.1188,0.0],[12.2771,66.1229,0.0],[12.2896,66.1229,0.0],[12.3078,66.1276,0.0],[12.3109,66.1307,0.0],[12.3161,66.1318,0.0],[12.3172,66.1349,0.0],[12.3224,66.1359,0.0],[12.3255,66.1391,0.0],[12.3333,66.1417,0.0],[12.3391,66.1401,0.0],[12.3411,66.1432,0.0],[12.337,66.1453,0.0],[12.3333,66.1458,2.6507],[12.3292,66.1438,0.0],[12.3276,66.1453,0.0],[12.3297,66.1495,0.0],[12.3375,66.1521,0.0],[12.3453,66.1526,0.0],[12.3422,66.1547,1.6086],[12.3443,66.1599,0.0],[12.3521,66.1625,0.0],[12.3557,66.162,0.0],[12.3526,66.1547,2.14],[12.3563,66.1542,0.0],[12.3703,66.1589,0.0],[12.3714,66.162,0.7778],[12.3792,66.1646,2.3161],[12.389099999999999,66.1651,0.0],[12.3932,66.1745,0.0],[12.375,66.175,0.0],[12.3672,66.1724,0.0],[12.3651,66.1703,0.0],[12.3682,66.1682,0.0],[12.3667,66.1667,1.6702]]],
[[[12.3146,66.1687,3.3042],[12.3104,66.1687,0.0],[12.3089,66.1672,0.0],[12.3161,66.1672,0.0],[12.3146,66.1687,3.3042]]],
[[[12.3724,66.1755,0.0],[12.3724,66.1766,1.3696],[12.3693,66.1766,2.0973],[12.3693,66.1755,0.0],[12.3724,66.1755,0.0]]],
[[[12.238,66.1422,1.5199],[12.2411,66.1412,0.0],[12.2438,66.1375,0.1087],[12.2474,66.1401,2.1783],[12.2417,66.1438,0.6135],[12.238,66.1422,1.5199]]],
[[[12.2979,66.1646,0.6513],[12.2943,66.1609,0.0],[12.2995,66.1609,0.0],[12.2995,66.1641,0.3303],[12.2979,66.1646,0.6513]]],
[[[12.2839,66.1703,0.0],[12.2896,66.1667,0.4347],[12.2932,66.1693,0.0],[12.2917,66.1708,0.0],[12.2839,66.1703,0.0]]],
[[[12.2188,66.2063,3.6761],[12.2224,66.2068,0.0],[12.2245,66.2089,0.0],[12.2214,66.212,0.2234],[12.2266,66.213,0.0],[12.2266,66.2161,1.207],[12.2234,66.2172,0.0],[12.2255,66.2203,1.8655],[12.2333,66.2208,0.0],[12.2411,66.2234,0.0],[12.2432,66.2266,1.4185],[12.2354,66.2271,0.0],[12.225,66.2229,10.2005],[12.2109,66.2224,0.0],[12.2089,66.2203,3.9549],[12.2125,66.2167,0.0],[12.2104,66.2146,0.0],[12.1917,66.2146,0.0],[12.1839,66.212,0.0],[12.1854,66.2104,2.7114],[12.1958,66.2104,0.0],[12.2,66.2083,0.0],[12.2063,66.2083,0.0],[12.2146,66.2042,0.0],[12.2188,66.2063,3.6761]]],
[[[12.3224,66.1787,4.3382],[12.3188,66.1792,0.0],[12.3172,66.1776,0.0],[12.3208,66.1771,1.2501],[12.3224,66.1787,4.3382]]],
[[[12.3708,66.1854,2.707],[12.3672,66.1849,0.0],[12.3672,66.1818,5.6619],[12.3703,66.1818,0.0],[12.3724,66.1839,0.0],[12.3708,66.1854,2.707]]],
[[[12.4286,66.1953,0.0],[12.425,66.1958,4.5836],[12.4234,66.1943,3.1127],[12.4271,66.1937,0.0],[12.4286,66.1953,0.0]]],
[[[12.325,66.2292,7.2005],[12.3214,66.2276,2.6236],[12.3307,66.2276,0.0],[12.3292,66.2292,7.8234],[12.325,66.2292,7.2005]]],
[[[12.2578,66.2266,4.516],[12.2542,66.2271,0.0],[12.2526,66.2255,0.0],[12.2563,66.225,0.0],[12.2578,66.2266,4.516]]],
[[[12.264099999999999,66.2286,0.0],[12.2604,66.2292,3.2643],[12.2589,66.2276,5.4087],[12.2625,66.2271,2.6435],[12.264099999999999,66.2286,0.0]]],
[[[12.1859,66.2245,0.0],[12.1911,66.2255,3.6647],[12.1917,66.2271,1.1386],[12.188,66.2297,0.0],[12.1891,66.2328,4.4025],[12.1833,66.2354,4.9564],[12.1755,66.2349,0.0],[12.1786,66.2318,0.0],[12.175,66.2292,2.2859],[12.1688,66.2312,0.0],[12.1505,66.2266,0.0],[12.1604,66.2229,14.0154],[12.1667,66.225,0.7331],[12.1745,66.2245,0.0],[12.1693,66.2224,0.0],[12.1708,66.2208,5.2747],[12.1771,66.2208,0.5987],[12.1859,66.2245,0.0]]],
[[[12.1974,66.2297,0.0],[12.1974,66.2307,4.2607],[12.1943,66.2307,0.0],[12.1943,66.2297,10.5983],[12.1974,66.2297,0.0]]],
[[[12.2792,66.2354,1.6929],[12.2776,66.2338,0.4683],[12.2828,66.2338,10.0585],[12.2828,66.2349,17.0279],[12.2792,66.2354,1.6929]]],
[[[12.2771,66.2583,0.0],[12.2708,66.2583,0.0],[12.2667,66.2604,-0.1135],[12.2526,66.2557,2.1774],[12.2474,66.2464,5.7478],[12.2229,66.2438,3.2867],[12.2089,66.2391,0.4006],[12.2057,66.2338,0.0],[12.2005,66.2318,0.0],[12.2063,66.2292,0.0],[12.2099,66.2318,0.0],[12.213,66.237,0.0],[12.2208,66.2375,0.0],[12.2375,66.2438,3.8886],[12.2438,66.2417,0.0],[12.2479,66.2438,0.0],[12.25,66.2417,0.0],[12.2474,66.238,2.1424],[12.2396,66.2354,0.0],[12.2292,66.2354,0.8451],[12.2255,66.2318,0.0],[12.2479,66.2312,0.0],[12.2542,66.2354,1.9159],[12.2724,66.2359,1.8788],[12.2708,66.2375,0.0],[12.2604,66.2375,5.1508],[12.2589,66.2391,17.65],[12.2688,66.2396,0.0],[12.2792,66.2438,15.5043],[12.287,66.2443,0.0],[12.2891,66.2464,5.1022],[12.2833,66.2521,0.0],[12.2771,66.2521,0.0],[12.2651,66.2484,0.0],[12.2651,66.2516,21.9818],[12.2766,66.2547,11.6218],[12.2786,66.2568,8.4239],[12.2771,66.2583,0.0]]],
[[[12.1625,66.2458,0.0],[12.1667,66.2438,0.0],[12.1703,66.2474,4.8753],[12.1609,66.2474,1.3059],[12.1625,66.2458,0.0]]],
[[[12.2104,66.2521,7.2134],[12.2089,66.2516,0.0],[12.2089,66.2505,0.0],[12.212,66.2505,13.9519],[12.2104,66.2521,7.2134]]]]}}