{"type":"Feature","properties":{"GID_2":"NOR.18.2_1","GID_0":"NOR","country":"Norway","GID_1":"NOR.18_1","province":"Vest-Agder","NL_NAME_1":"NA","county":"Audnedal","VARNAME_2":"NA","NL_NAME_2":"NA","TYPE_2":"Kommuner","ENGTYPE_2":"Municipality","CC_2":"NA","HASC_2":"NO.VA.AU","name":"Audnedal.county"},
"geometry":{"type": "MultiPolygon","coordinates": [[[[7.5217,58.5132,477.5729],[7.5047,58.5116,436.9131],[7.5031,58.516,416.8579],[7.4693,58.5126,364.6359],[7.4709,58.5082,365.0034],[7.4624,58.5073,336.9248],[7.464,58.5029,286.8428],[7.4556,58.5021,275.5694],[7.4572,58.4977,254.9822],[7.4234,58.4943,177.8258],[7.4218,58.4987,201.544],[7.4132999999999996,58.4979,384.9938],[7.4117,58.5023,392.6922],[7.4032,58.5014,466.0356],[7.4016,58.5058,359.5592],[7.3932,58.505,371.6859],[7.3899,58.5138,387.7522],[7.3815,58.5129,355.3727],[7.3799,58.5173,350.4836],[7.363,58.5156,399.4975],[7.3694,58.498,469.8729],[7.361,58.4972,413.3007],[7.3626,58.4928,507.0189],[7.3541,58.4919,443.5926],[7.367,58.4567,397.5223],[7.3502,58.455,319.2092],[7.3518,58.4506,302.829],[7.3349,58.4489,374.8496],[7.3365,58.4445,439.3229],[7.3196,58.4428,477.602],[7.3229,58.434,425.8347],[7.3144,58.4331,471.5333],[7.3209,58.4155,498.9924],[7.3124,58.4146,539.4531],[7.3173,58.4014,377.2126],[7.3257,58.4023,399.2016],[7.3306,58.3891,421.3915],[7.3221,58.3882,464.9451],[7.3238,58.3838,456.5695],[7.3153,58.383,497.0464],[7.3186,58.3742,475.0115],[7.3101,58.3733,458.0967],[7.3182,58.3513,321.5915],[7.3098,58.3504,319.0138],[7.313,58.3416,323.9736],[7.2962,58.3399,378.5397],[7.2978,58.3355,397.4755],[7.2894,58.3347,328.3021],[7.2942,58.3214,336.887],[7.3026,58.3223,312.5133],[7.3042,58.3179,331.4886],[7.2958,58.317,345.6919],[7.2974,58.3126,359.4252],[7.289,58.3118,328.4622],[7.2874,58.3162,328.7169],[7.2622,58.3136,429.1058],[7.2538,58.3128,410.0107],[7.2554,58.3084,403.9677],[7.2302,58.3058,336.5885],[7.235,58.2926,367.0517],[7.2434,58.2934,371.5033],[7.2451,58.289,365.8356],[7.2535,58.2899,369.925],[7.2551,58.2855,373.0352],[7.2635,58.2863,347.6946],[7.2651,58.2819,371.0648],[7.2735,58.2828,278.3222],[7.2767,58.274,298.921],[7.2851,58.2748,257.2035],[7.2867,58.2704,268.295],[7.2783,58.2696,253.5],[7.28,58.2652,268.1206],[7.2716,58.2643,280.4778],[7.2764,58.2511,341.3227],[7.3352,58.2571,220.07],[7.3384,58.2483,226.647],[7.33,58.2474,242.4139],[7.3332,58.2386,253.5974],[7.35,58.2403,129.581],[7.3516,58.2359,130.4107],[7.3684,58.2376,204.7289],[7.3699,58.2332,281.5949],[7.3951,58.2358,309.0484],[7.3935,58.2402,299.4365],[7.4103,58.2419,321.8231],[7.4071,58.2507,298.9656],[7.4155,58.2515,321.4228],[7.4139,58.2559,269.6652],[7.4223,58.2568,320.8771],[7.4191,58.2656,300.2459],[7.4275,58.2664,303.2159],[7.4228,58.2797,363.8861],[7.4312,58.2805,305.6938],[7.428,58.2893,371.5002],[7.4028,58.2868,304.9271],[7.4012,58.2912,277.0825],[7.3928,58.2903,299.7707],[7.388,58.3035,247.6635],[7.3964,58.3044,304.2672],[7.3948,58.3088,312.3777],[7.42,58.3113,410.8953],[7.4184,58.3157,408.4618],[7.4268,58.3166,430.6618],[7.4236,58.3254,399.1899],[7.432,58.3262,409.3851],[7.4272,58.3395,366.0864],[7.4357,58.3403,386.5201],[7.4181,58.3888,344.5253],[7.4265,58.3896,266.7722],[7.4281,58.3852,297.2968],[7.4534,58.3877,425.3622],[7.447,58.4054,422.9647],[7.4639,58.407,458.473],[7.4623,58.4114,457.0566],[7.4791,58.4131,373.2777],[7.4775,58.4175,365.2736],[7.4944,58.419199999999996,323.1179],[7.4912,58.428,340.522],[7.4997,58.4289,314.3676],[7.4917,58.4509,260.6848],[7.4832,58.4501,187.9418],[7.4784,58.4633,326.5396],[7.4953,58.465,350.1696],[7.4938,58.4694,311.0906],[7.5276,58.4727,461.8548],[7.518,58.4992,436.4381],[7.5264,58.5,424.1581],[7.5217,58.5132,477.5729]]]]}}