{"type": "Feature","bbox": [15.1331,68.2526,16.1391,68.6172],"geometry": {"type": "MultiPolygon","coordinates": [[[[15.2354,68.2542,6.0224],[15.2339,68.2526,21.236],[15.237,68.2526,23.3922],[15.237,68.2536,15.9897],[15.2354,68.2542,6.0224]]],
[[[15.3307,68.2932,0.8751],[15.3188,68.2958,0.0],[15.3109,68.2932,12.4962],[15.3063,68.2875,7.9899],[15.3083,68.2854,0.0],[15.3146,68.2854,0.0],[15.3208,68.2875,3.0665],[15.325,68.2854,0.0],[15.3313,68.2854,0.0],[15.3349,68.2891,0.0],[15.3318,68.2901,0.0],[15.3307,68.2932,0.8751]]],
[[[15.325,68.2979,1.4997],[15.3234,68.2963,1.838],[15.3375,68.2958,0.0],[15.3432,68.3016,1.0672],[15.3333,68.3021,0.0],[15.3318,68.3005,0.0],[15.3349,68.2984,0.0],[15.325,68.2979,1.4997]]],
[[[15.2563,68.3021,0.0],[15.2547,68.3016,1.6563],[15.2547,68.3005,1.1614],[15.2578,68.3005,2.4829],[15.2563,68.3021,0.0]]],
[[[15.3297,68.3224,0.0],[15.3417,68.325,7.0866],[15.3432,68.3266,3.3582],[15.3333,68.3271,0.0],[15.3292,68.325,0.0],[15.3229,68.325,0.0],[15.3188,68.3271,4.5989],[15.2896,68.3271,0.0],[15.2849,68.3234,0.0],[15.2771,68.3208,0.9911],[15.2688,68.3229,0.0],[15.2609,68.3203,0.0],[15.264099999999999,68.3172,0.0],[15.2599,68.3109,0.0],[15.2563,68.3104,0.0],[15.25,68.3125,0.0],[15.2474,68.3089,11.4249],[15.2417,68.3083,2.2622],[15.2401,68.3068,0.0],[15.2479,68.3063,1.0033],[15.2521,68.3042,0.0],[15.2604,68.3042,0.0],[15.2708,68.3083,0.0],[15.2807,68.3089,3.3639],[15.2839,68.312,0.0],[15.2979,68.3167,0.0],[15.3063,68.3146,1.424],[15.3104,68.3187,0.903],[15.3068,68.3214,0.0],[15.3083,68.3229,0.0],[15.3167,68.3229,0.0],[15.3224,68.3203,4.7505],[15.3193,68.3151,0.0],[15.3229,68.3146,0.0],[15.3266,68.3172,1.273],[15.3297,68.3224,0.0]]],
[[[15.3188,68.3354,6.4267],[15.3151,68.3349,0.0],[15.3151,68.3339,0.0],[15.3203,68.3339,5.749],[15.3188,68.3354,6.4267]]],
[[[15.3401,68.3703,2.4111],[15.338,68.3672,9.4889],[15.3458,68.3667,0.0],[15.3495,68.3693,10.9155],[15.3479,68.3708,13.9196],[15.3401,68.3703,2.4111]]],
[[[15.3229,68.3708,15.9852],[15.3214,68.3672,0.0],[15.3229,68.3667,0.0],[15.3328,68.3693,0.0],[15.3271,68.3729,4.419],[15.3234,68.3724,0.0],[15.3229,68.3708,15.9852]]],
[[[15.5417,68.3146,0.0],[15.538,68.3141,0.7005],[15.538,68.313,5.1412],[15.5432,68.313,0.7518],[15.5417,68.3146,0.0]]],
[[[15.5438,68.3187,4.7077],[15.5479,68.3146,4.3196],[15.5547,68.3203,9.2376],[15.5599,68.3224,0.0],[15.5542,68.325,1.6189],[15.5479,68.325,0.0],[15.5422,68.3203,2.9111],[15.5438,68.3187,4.7077]]],
[[[15.4,68.325,0.8536],[15.3979,68.3229,0.0],[15.4,68.3208,2.8186],[15.4036,68.3245,6.8494],[15.4,68.325,0.8536]]],
[[[15.3401,68.3786,0.0],[15.338,68.3755,2.2843],[15.3417,68.375,0.0],[15.3495,68.3776,8.8002],[15.3516,68.3807,12.8276],[15.3479,68.3812,10.6123],[15.3401,68.3786,0.0]]],
[[[15.5755,68.2786,17.1646],[15.5755,68.2755,0.0],[15.5849,68.2755,0.0],[15.5807,68.2786,27.7864],[15.5755,68.2786,17.1646]]],
[[[15.4745,68.2859,36.8326],[15.4734,68.2839,39.898],[15.475,68.2833,10.9119],[15.4828,68.2839,14.4864],[15.487,68.288,0.0],[15.487,68.2911,8.6586],[15.4755,68.2891,17.8298],[15.4745,68.2859,36.8326]]],
[[[15.4109,68.3016,0.0],[15.4109,68.2984,0.48],[15.4125,68.2979,0.0],[15.4188,68.2979,0.0],[15.4224,68.3005,0.0],[15.4167,68.3063,0.0],[15.4109,68.3016,0.0]]],
[[[15.3375,68.3083,0.0],[15.3359,68.3068,0.0],[15.3536,68.3068,4.8099],[15.3479,68.3125,1.7356],[15.3443,68.312,2.9719],[15.3432,68.3089,0.9728],[15.3375,68.3083,0.0]]],
[[[15.6745,68.2766,6.443],[15.6714,68.2766,12.1289],[15.6714,68.2755,12.4404],[15.6745,68.2755,5.6444],[15.6745,68.2766,6.443]]],
[[[15.6859,68.3151,12.9958],[15.6911,68.3151,4.2941],[15.6932,68.3182,2.2031],[15.6875,68.3208,0.0],[15.6776,68.3203,0.0],[15.6776,68.3172,0.0],[15.6859,68.3151,12.9958]]],
[[[15.7766,68.3349,0.0],[15.7734,68.3349,0.0],[15.7734,68.3339,0.0],[15.7766,68.3339,0.0],[15.7766,68.3349,0.0]]],
[[[15.9292,68.3688,0.0],[15.9255,68.3672,0.0],[15.937,68.3672,0.7449],[15.9354,68.3688,0.0],[15.9292,68.3688,0.0]]],
[[[15.8526,68.4182,0.0],[15.8526,68.4151,3.0739],[15.8542,68.4146,1.5668],[15.8578,68.4172,0.0],[15.8563,68.4187,1.9806],[15.8526,68.4182,0.0]]],
[[[16.0458,68.4542,0.0],[16.0422,68.4537,0.9395],[16.0422,68.4526,0.0],[16.0474,68.4526,1.8438],[16.0458,68.4542,0.0]]],
[[[15.1338,68.3716,518.0575],[15.1378,68.3523,355.2984],[15.1499,68.3527,477.2204],[15.1509,68.3482,246.1304],[15.2114,68.3499,260.9272],[15.2105,68.3543,294.8137],[15.2226,68.3547,195.9041],[15.2347,68.355,184.733],[15.2356,68.3505,77.543],[15.2413,68.3507,5.7513],[15.2443,68.3536,36.9759],[15.2495,68.3547,10.7318],[15.2516,68.3578,5.9215],[15.2417,68.3625,6.1481],[15.2354,68.3625,35.4568],[15.2208,68.3667,0.0],[15.2146,68.3646,10.4231],[15.2083,68.3646,0.0],[15.2,68.3688,0.0],[15.1917,68.3688,0.0],[15.1901,68.3672,0.0],[15.1953,68.3651,4.9591],[15.1854,68.3646,0.0],[15.1797,68.3682,3.9755],[15.1849,68.3693,0.0],[15.1896,68.3729,3.3806],[15.1979,68.3729,29.3793],[15.2021,68.3708,0.0],[15.2229,68.3708,32.3345],[15.2271,68.3688,0.0],[15.2583,68.3688,19.8819],[15.2609,68.3724,15.3075],[15.2828,68.3776,0.0],[15.2859,68.3828,0.0],[15.2995,68.3859,0.0],[15.3005,68.3891,7.8108],[15.312,68.3901,0.0],[15.3089,68.3922,11.3218],[15.3109,68.3953,27.8645],[15.3188,68.3979,13.8022],[15.3396,68.3979,0.0],[15.362,68.4047,0.0],[15.3672,68.4099,5.3117],[15.3724,68.4109,0.0],[15.3745,68.413,0.0],[15.3672,68.4172,7.9334],[15.3724,68.4193,0.0],[15.3693,68.4224,0.0],[15.3745,68.4234,0.0],[15.3766,68.4255,0.0],[15.3734,68.4287,0.0],[15.3828,68.4287,0.0],[15.3828,68.4255,9.6954],[15.3797,68.4213,3.2273],[15.3875,68.4208,5.306],[15.3891,68.4203,0.0],[15.388,68.4172,0.0],[15.4021,68.4146,0.0],[15.4068,68.4182,0.0],[15.4146,68.4208,0.0],[15.4229,68.4208,0.0],[15.4276,68.4245,0.0],[15.4328,68.4255,0.0],[15.4359,68.4287,14.1857],[15.4495,68.4318,0.0],[15.4505,68.4349,48.5482],[15.462,68.4359,0.0],[15.4734,68.4495,0.0],[15.4875,68.45,0.0],[15.4938,68.4542,0.0],[15.5021,68.4542,2.0787],[15.5078,68.4505,4.5531],[15.5036,68.4464,0.0],[15.4984,68.4453,0.0],[15.4964,68.4432,0.0],[15.4995,68.4411,0.0],[15.4974,68.4359,0.0],[15.4953,68.4339,0.0],[15.4901,68.4328,0.0],[15.4849,68.4276,4.1703],[15.4714,68.4224,0.0],[15.4682,68.4193,11.2293],[15.463,68.4182,0.0],[15.4578,68.413,84.2685],[15.4464,68.412,0.0],[15.4432,68.4068,103.1446],[15.4125,68.4021,0.0],[15.3984,68.3974,0.0],[15.3932,68.3922,6.9888],[15.3797,68.3891,0.0],[15.3786,68.3859,4.6705],[15.3714,68.3849,0.0],[15.3703,68.3818,0.0],[15.363,68.3807,0.0],[15.3667,68.3771,0.0],[15.3641,68.3734,7.9824],[15.3589,68.3724,0.0],[15.362,68.3703,10.7541],[15.3609,68.3672,24.5689],[15.3641,68.3662,0.0],[15.362,68.3609,11.5483],[15.3568,68.3609,0.0],[15.3578,68.3641,0.0],[15.35,68.3667,0.0],[15.3458,68.3646,18.4698],[15.3375,68.3646,0.0],[15.3276,68.362,4.6725],[15.3255,68.3568,0.0],[15.3328,68.3536,0.1971],[15.3318,68.3484,0.0],[15.3391,68.3474,0.0],[15.3458,68.3438,0.0],[15.3708,68.3438,0.0],[15.3813,68.3479,0.0],[15.3911,68.3484,0.0],[15.3958,68.3521,0.0],[15.4146,68.3521,14.2509],[15.4307,68.3474,19.4128],[15.4297,68.3443,0.0],[15.4479,68.3417,16.786],[15.4521,68.3396,9.065],[15.4568,68.3432,3.0138],[15.4604,68.3438,1.8529],[15.4688,68.3396,0.0],[15.4745,68.3443,6.4239],[15.4797,68.3516,0.0],[15.5,68.3542,8.7798],[15.5057,68.3505,0.0],[15.5005,68.3495,0.0],[15.4984,68.3474,0.0],[15.4984,68.3443,0.0],[15.5057,68.3432,5.7678],[15.5068,68.3401,0.0],[15.5099,68.3391,30.378],[15.5089,68.3359,20.7748],[15.5146,68.3333,0.0],[15.5375,68.3313,5.9237],[15.5417,68.3333,0.0],[15.5479,68.3333,5.6419],[15.55,68.3313,0.0],[15.5484,68.3276,0.0],[15.55,68.3271,0.0],[15.5625,68.3313,0.0],[15.587,68.3287,0.0],[15.5792,68.325,0.0],[15.5672,68.3224,0.0],[15.5703,68.3193,0.0],[15.5682,68.3172,0.0],[15.563,68.3161,12.2091],[15.5609,68.3141,31.6873],[15.5625,68.3125,0.0],[15.5771,68.3167,0.0],[15.5828,68.3141,19.2628],[15.5818,68.3109,3.857],[15.5833,68.3104,9.9994],[15.5917,68.3104,4.7796],[15.5958,68.3125,0.0],[15.6,68.3104,0.0],[15.6063,68.3104,0.0],[15.6104,68.3083,0.0],[15.6208,68.3083,2.4374],[15.625,68.3063,0.8379],[15.6563,68.3083,0.0],[15.662,68.313,7.9109],[15.662,68.3161,6.5072],[15.6547,68.3172,3.8088],[15.6536,68.3203,5.255],[15.6505,68.3224,0.0],[15.6589,68.3328,2.9641],[15.6667,68.3313,0.0],[15.6708,68.3333,0.0],[15.6854,68.3333,0.0],[15.6932,68.3359,0.0],[15.7,68.3438,0.0],[15.7286,68.3443,0.0],[15.7286,68.3474,0.0],[15.7214,68.3484,0.0],[15.7203,68.3516,0.0],[15.713,68.3547,0.0],[15.7234,68.3703,0.0],[15.7333,68.3708,0.0],[15.7375,68.3729,0.0],[15.7458,68.3729,0.0],[15.75,68.3708,0.0],[15.764099999999999,68.3714,0.0],[15.7609,68.3734,2.2438],[15.762,68.3766,0.0],[15.7583,68.3771,0.0],[15.7542,68.375,3.5957],[15.7333,68.375,0.0],[15.7292,68.3729,12.5811],[15.7193,68.3724,0.0],[15.7146,68.3688,4.7478],[15.7083,68.3688,45.2357],[15.7042,68.3708,0.0],[15.6938,68.3708,3.032],[15.6896,68.3729,0.0],[15.6833,68.3729,25.7123],[15.6776,68.3766,0.0],[15.6875,68.3771,0.0],[15.6938,68.3792,29.0002],[15.7021,68.375,7.5301],[15.7146,68.375,0.0],[15.7229,68.3833,8.4599],[15.7557,68.3839,0.0],[15.7526,68.387,7.3815],[15.7578,68.388,0.0],[15.762,68.3932,0.0],[15.7521,68.3979,0.0],[15.7443,68.3984,8.4333],[15.7453,68.4016,0.0],[15.7417,68.4042,0.0],[15.7464,68.412,0.0],[15.7599,68.4151,0.0],[15.7568,68.4182,14.6798],[15.764099999999999,68.4193,0.0],[15.7682,68.4255,0.0],[15.7651,68.4276,0.0],[15.7651,68.4307,8.805],[15.7693,68.4349,6.8168],[15.7771,68.4354,0.0],[15.7828,68.4328,19.8249],[15.7755,68.4203,0.0],[15.7786,68.4182,1.1833],[15.7771,68.4146,0.0],[15.7807,68.412,30.6339],[15.7797,68.4089,0.0],[15.7891,68.4078,0.0],[15.8,68.4021,0.0],[15.8042,68.4042,3.9356],[15.8313,68.4042,0.0],[15.8411,68.4089,0.0],[15.838,68.4109,0.0],[15.8432,68.4193,0.0],[15.8401,68.4224,0.0],[15.8479,68.4229,0.0],[15.8521,68.4208,0.0],[15.8661,68.4213,2.9717],[15.8578,68.4266,0.0],[15.85,68.4271,0.0],[15.8484,68.4287,1.4882],[15.8526,68.4328,0.0],[15.8578,68.4339,0.0],[15.8547,68.437,18.247],[15.862,68.438,0.0],[15.8672,68.4453,24.4956],[15.8724,68.4464,0.0],[15.8766,68.4505,0.0],[15.8786,68.4557,0.0],[15.8755,68.4578,4.3585],[15.8776,68.4599,0.0],[15.8828,68.4609,0.0],[15.8875,68.4646,0.4008],[15.8953,68.462,0.0],[15.8995,68.4589,24.0117],[15.8922,68.4578,0.0],[15.8953,68.4557,0.0],[15.8922,68.4495,3.345],[15.8953,68.4474,20.6078],[15.8932,68.4443,12.0139],[15.8797,68.4411,0.0],[15.8755,68.4349,0.0],[15.887,68.4287,0.0],[15.8875,68.4271,0.0],[15.887,68.4255,14.9477],[15.8797,68.4245,0.0],[15.8833,68.4208,7.1022],[15.8776,68.412,0.0],[15.8807,68.4089,9.4669],[15.8745,68.4005,0.0],[15.8693,68.3995,1.7625],[15.8651,68.3953,0.0],[15.8651,68.3922,0.0],[15.8682,68.3901,0.0],[15.863,68.3839,0.0],[15.875,68.3792,3.0857],[15.8792,68.3812,0.0],[15.8875,68.3812,0.0],[15.8917,68.3833,2.4439],[15.9063,68.3833,0.0],[15.9188,68.3875,0.0],[15.9271,68.3875,1.5844],[15.9297,68.3912,0.0],[15.9354,68.3917,0.0],[15.9458,68.3958,7.7597],[15.9521,68.3938,0.0],[15.9583,68.3938,3.5876],[15.963,68.3974,0.0],[15.9766,68.4005,0.0],[15.9734,68.4036,0.0],[15.9896,68.4042,0.0],[15.9974,68.4068,0.0],[16.0016,68.412,2.7725],[15.9943,68.4151,2.5911],[15.9932,68.4182,13.5339],[15.9901,68.4203,4.9861],[15.9943,68.4245,11.173],[16.0078,68.4276,0.0],[16.0047,68.4307,43.0282],[16.0099,68.4318,0.0],[16.0068,68.4349,26.1606],[16.013,68.4453,0.0],[16.0151,68.4474,0.0],[16.0224,68.4484,0.0],[16.0234,68.4516,0.0],[16.0307,68.4526,0.0],[16.0276,68.4557,0.68],[16.0328,68.4568,0.0],[16.0375,68.4604,0.0],[16.0474,68.4609,0.0],[16.0505,68.4641,0.0],[16.0583,68.4667,4.5556],[16.0766,68.4693,0.0],[16.0859,68.4828,35.7238],[16.0932,68.4838,0.0],[16.0932,68.487,0.0],[16.0859,68.4912,13.075],[16.0896,68.4938,7.2773],[16.0958,68.4917,0.0],[16.0995,68.4943,0.0],[16.0964,68.4964,18.6046],[16.0974,68.5016,0.0],[16.0943,68.5036,27.2989],[16.0995,68.5089,0.0],[16.1005,68.512,22.1221],[16.1333,68.5104,0.0],[16.1349,68.512,0.0],[16.1318,68.513,0.826],[16.1318,68.5162,0.0],[16.1375,68.5167,0.0],[16.1391,68.5182,2.5858],[16.1068,68.5193,0.0],[16.1078,68.5224,0.0],[16.1047,68.5245,0.0],[16.1068,68.5266,3.5026],[16.112,68.5276,0.0],[16.1141,68.5297,0.0],[16.1141,68.5328,0.0],[16.1109,68.5346,30.4309],[16.093,68.5342,317.1614],[16.0923,68.5387,358.5185],[16.08,68.5385,380.2984],[16.0808,68.534,238.1729],[16.0564,68.5334,274.199],[16.0197,68.5326,765.4645],[16.0189,68.5371,722.5573],[16.0067,68.5368,868.0328],[16.0051,68.5458,641.9343],[15.9929,68.5455,535.0576],[15.9913,68.5545,476.7843],[16.0036,68.5548,491.5805],[16.002,68.5638,657.5737],[16.0142,68.5641,726.1121],[16.0134,68.5686,819.9039],[16.0257,68.5688,963.3996],[16.0249,68.5733,836.3339],[16.0127,68.5731,705.645],[16.0103,68.5865,463.7412],[15.998,68.5863,483.6556],[15.9965,68.5952,549.6839],[15.9842,68.595,444.7324],[15.9818,68.6085,610.2198],[15.9696,68.6082,575.2691],[15.968,68.6172,539.1677],[15.9557,68.6169,701.9482],[15.9565,68.6124,571.4932],[15.9443,68.6121,433.1948],[15.9459,68.6031,489.6747],[15.9336,68.6028,580.4954],[15.9352,68.5938,743.3207],[15.923,68.5936,764.7628],[15.9254,68.5801,688.7128],[15.9132,68.5798,650.5418],[15.9164,68.5618,427.9034],[15.9041,68.5615,571.0076],[15.9066,68.5481,286.8145],[15.8943,68.5478,309.0803],[15.896,68.5388,251.8895],[15.8349,68.5373,222.6741],[15.8357,68.5329,280.8658],[15.8235,68.5326,211.3955],[15.8243,68.5281,72.2812],[15.8121,68.5278,63.0474],[15.8129,68.5233,133.3259],[15.8007,68.523,285.4342],[15.8015,68.5185,483.3664],[15.7893,68.5182,598.6892],[15.7902,68.5137,636.4902],[15.778,68.5134,701.4536],[15.7788,68.5089,653.3641],[15.7666,68.5086,520.8506],[15.7674,68.5041,815.9409],[15.7552,68.5038,768.9704],[15.7561,68.4994,728.8837],[15.7439,68.4991,642.5181],[15.7447,68.4946,658.9583],[15.7325,68.4943,527.5124],[15.7342,68.4853,181.4568],[15.722,68.485,465.5936],[15.7228,68.4805,257.0842],[15.7106,68.4802,289.2299],[15.7115,68.4757,248.7832],[15.6993,68.4754,323.8498],[15.701,68.4664,457.3541],[15.6888,68.4661,579.293],[15.6905,68.4571,477.5525],[15.6783,68.4568,761.7531],[15.68,68.4478,529.9597],[15.6679,68.4475,526.7211],[15.6687,68.4431,628.4946],[15.6444,68.4425,841.5126],[15.6435,68.4469,648.4089],[15.607,68.446,447.9336],[15.6062,68.4505,307.7698],[15.6183,68.4508,383.5699],[15.6158,68.4643,718.3647],[15.6279,68.4646,658.2502],[15.6262,68.4736,543.1409],[15.6384,68.4739,508.4841],[15.6375,68.4784,254.6297],[15.6497,68.4787,294.7367],[15.6446,68.5056,401.802],[15.6568,68.506,545.459],[15.6525,68.5284,634.3499],[15.6403,68.5281,734.4227],[15.6395,68.5326,584.8553],[15.6272,68.5323,778.5566],[15.6264,68.5368,641.3518],[15.6142,68.5365,589.071],[15.6133,68.541,666.4877],[15.5278,68.5388,606.9777],[15.5287,68.5343,354.6844],[15.4432,68.5321,497.528],[15.445,68.5232,797.4117],[15.4328,68.5228,744.9236],[15.4337,68.5183,587.1248],[15.4215,68.518,615.0451],[15.4233,68.509,623.7858],[15.4111,68.5087,242.2229],[15.4138,68.4953,660.5083],[15.4016,68.4949,699.8602],[15.4052,68.477,798.9301],[15.4174,68.4773,562.4599],[15.4201,68.4638,51.5741],[15.4323,68.4641,31.9741],[15.4341,68.4551,546.3345],[15.4219,68.4548,404.6598],[15.4237,68.4458,569.5638],[15.3751,68.4446,640.984],[15.3741,68.4491,516.926],[15.362,68.4487,381.6859],[15.3611,68.4532,509.4456],[15.3367,68.4526,214.5523],[15.3377,68.4481,259.5397],[15.3255,68.4478,489.7048],[15.3264,68.4433,411.2385],[15.3143,68.443,410.6378],[15.3152,68.4385,489.6185],[15.2909,68.4378,689.3759],[15.2918,68.4333,630.9471],[15.2796,68.433,730.0714],[15.2815,68.424,597.346],[15.2693,68.4237,571.7219],[15.2703,68.4192,578.6526],[15.2581,68.4189,384.7928],[15.26,68.4099,297.8773],[15.2478,68.4096,239.0047],[15.2487,68.4051,321.7045],[15.2366,68.4047,340.9698],[15.2375,68.4002,294.4896],[15.2011,68.3992,477.955],[15.2021,68.3948,311.3211],[15.1778,68.3941,410.367],[15.1787,68.3896,531.1046],[15.1666,68.3893,291.225],[15.1676,68.3848,526.3837],[15.1554,68.3844,413.8404],[15.1564,68.38,558.9669],[15.1443,68.3796,343.2029],[15.1452,68.3751,471.5005],[15.1331,68.3748,530.8823],[15.1338,68.3716,518.0575]]]]}
,"properties": {"GID_2": "NOR.10.21_1","GID_0": "NOR","country": "Norway","GID_1": "NOR.10_1","province": "Nordland","NL_NAME_1": "NA","county": "Lødingen","VARNAME_2": "NA","NL_NAME_2": "NA","TYPE_2": "Kommuner","ENGTYPE_2": "Municipality","CC_2": "NA","HASC_2": "NO.NO.LO","name": "Lødingen.county","area_km2": 534.1846,"hist_schema_id": "Elevation0-9000","hist_area_km2": {"0": 59.0984,"25": 48.6788,"50": 28.1719,"75": 20.0228,"100": 19.6964,"125": 19.627,"150": 17.5042,"175": 19.4331,"200": 19.9735,"225": 19.9482,"250": 21.2147,"275": 19.5741,"300": 18.9886,"325": 17.4216,"350": 16.7577,"375": 15.5371,"400": 16.5782,"425": 16.8302,"450": 14.9552,"475": 13.2623,"500": 11.3162,"525": 11.9428,"550": 10.5127,"575": 9.3172,"600": 8.243,"625": 6.8509,"650": 5.8619,"675": 5.6265,"700": 4.3603,"725": 4.2345,"750": 3.6281,"775": 2.4468,"800": 1.6546,"825": 1.3824,"850": 0.9008,"875": 0.7997,"900": 0.5357,"925": 0.295,"950": 0.264,"975": 0.1087,"1000": 0.1475,"1025": 0.1087,"1050": 0.0466,"1075": 0.0699,"1100": 0.0699,"1125": 0.0543,"1150": 0.0543,"1175": 0.0078,"1200": 0.0388,"1225": 0.031}}}