{"type": "Feature","bbox": [9.173,59.7231,9.7144,59.9912],"geometry": {"type": "MultiPolygon","coordinates": [[[[9.6461,59.7273,607.7264],[9.6447,59.7317,607.8588],[9.6888,59.7352,332.3854],[9.6874,59.7396,348.8627],[9.705,59.741,298.9885],[9.7023,59.7499,327.8488],[9.7111,59.7506,316.3347],[9.7056,59.7683,378.7888],[9.7144,59.769,442.2003],[9.7047,59.8001,560.6559],[9.7136,59.8007,529.3976],[9.7011,59.8406,594.3802],[9.6928,59.8672,361.4062],[9.6839,59.8665,407.3847],[9.6798,59.8798,465.7066],[9.6709,59.8791,496.8635],[9.6695,59.8836,467.9145],[9.6784,59.8843,454.5048],[9.677,59.8887,507.1639],[9.6947,59.8901,369.1468],[9.6877,59.9123,253.7414],[9.6789,59.9116,318.9094],[9.6775,59.916,308.6194],[9.6686,59.9153,324.0399],[9.6658,59.9242,301.4686],[9.657,59.9235,282.4155],[9.6542,59.9323,421.7841],[9.6453,59.9316,359.8625],[9.6439,59.9361,394.8605],[9.6351,59.9354,414.0612],[9.6337,59.9398,453.7603],[9.6248,59.9391,486.0117],[9.6234,59.9435,491.2966],[9.6145,59.9428,431.4517],[9.6117,59.9517,397.5169],[9.6029,59.951,411.4582],[9.6015,59.9554,398.8606],[9.5926,59.9547,374.8966],[9.5898,59.9636,364.8587],[9.5809,59.9629,377.856],[9.5795,59.9673,364.8481],[9.544,59.9645,382.5199],[9.5426,59.9689,346.6784],[9.5249,59.9675,380.6002],[9.5234,59.9719,343.6793],[9.5146,59.9712,367.5031],[9.5103,59.9845,307.4572],[9.4926,59.9831,368.8779],[9.4911,59.9875,384.2908],[9.4823,59.9868,442.8084],[9.4808,59.9912,413.7442],[9.4542,59.9891,405.9398],[9.4556,59.9847,432.7167],[9.4468,59.9839,457.1],[9.4482,59.9795,552.2295],[9.4305,59.9781,525.7688],[9.4319,59.9737,481.5813],[9.423,59.9729,505.9696],[9.4259,59.9641,607.8386],[9.417,59.9634,684.3901],[9.4184,59.9589,636.3282],[9.4096,59.9582,666.4995],[9.411,59.9538,600.8693],[9.4021,59.9531,559.2341],[9.4036,59.9486,624.0645],[9.3947,59.9479,537.2564],[9.3961,59.9435,558.6969],[9.3873,59.9428,514.8999],[9.3887,59.9384,517.4576],[9.3798,59.9376,482.225],[9.3856,59.9199,339.2321],[9.359,59.9178,196.9695],[9.3604,59.9133,196.3266],[9.3073,59.909,569.4346],[9.3088,59.9046,541.2723],[9.2822,59.9024,745.5262],[9.2837,59.898,707.991],[9.2483,59.8951,787.5383],[9.2497,59.8906,775.3497],[9.2232,59.8885,880.8563],[9.2246,59.884,858.0344],[9.1893,59.8811,941.5076],[9.1878,59.8855,1042.28],[9.179,59.8848,987.9894],[9.1819,59.876,1048.8204],[9.173,59.8752,1073.4601],[9.1891,59.8265,1156.7367],[9.1979,59.8273,1156.8301],[9.1993,59.8228,1150.6576],[9.217,59.8243,1137.278],[9.2184,59.8199,1156.3645],[9.2273,59.8206,1006.9891],[9.2287,59.8162,958.3807],[9.2464,59.8176,861.3705],[9.2478,59.8132,883.7213],[9.2566,59.8139,854.1947],[9.2581,59.8095,913.8993],[9.2757,59.811,856.0259],[9.2772,59.8065,885.324],[9.2948,59.808,848.7809],[9.2962,59.8035,867.1792],[9.3051,59.8043,849.0113],[9.3065,59.7998,854.5244],[9.3242,59.8013,795.3462],[9.3256,59.7969,782.9896],[9.3344,59.7976,765.7982],[9.3358,59.7932,782.4581],[9.3447,59.7939,767.4504],[9.3461,59.7894,746.2486],[9.3549,59.7902,731.7709],[9.3578,59.7813,723.6317],[9.3754,59.7827,737.0059],[9.3768,59.7783,743.7072],[9.3856,59.779,742.749],[9.3871,59.7746,735.0388],[9.4047,59.776,728.374],[9.4061,59.7716,732.6835],[9.4149,59.7723,726.7122],[9.4192,59.759,723.5767],[9.428,59.7598,764.8729],[9.4294,59.7553,732.5995],[9.4382,59.756,678.7936],[9.4397,59.7516,671.9275],[9.4485,59.7523,668.7566],[9.4555,59.7302,493.0093],[9.4644,59.7309,522.3035],[9.4658,59.7265,510.5404],[9.5803,59.7357,222.0139],[9.5831,59.7268,212.8416],[9.5919,59.7275,174.5512],[9.5933,59.7231,169.5],[9.6461,59.7273,607.7264]]]]}
,"properties": {"GID_2": "NOR.4.4_1","GID_0": "NOR","country": "Norway","GID_1": "NOR.4_1","province": "Buskerud","NL_NAME_1": "NA","county": "Flesberg","VARNAME_2": "NA","NL_NAME_2": "NA","TYPE_2": "Kommuner","ENGTYPE_2": "Municipality","CC_2": "NA","HASC_2": "NO.BU.FB","name": "Flesberg.county","area_km2": 550.4968,"hist_schema_id": "Elevation0-9000","hist_area_km2": {"150": 0.0855,"175": 19.5408,"200": 22.7441,"225": 14.0962,"250": 17.7298,"275": 14.3849,"300": 15.2867,"325": 18.657,"350": 27.1055,"375": 31.7331,"400": 33.4036,"425": 37.9347,"450": 39.9697,"475": 34.5198,"500": 27.8829,"525": 27.0731,"550": 24.3386,"575": 25.3996,"600": 18.4042,"625": 13.6425,"650": 10.3264,"675": 9.0286,"700": 7.0802,"725": 8.1345,"750": 8.6881,"775": 7.6821,"800": 7.637,"825": 4.4198,"850": 3.7814,"875": 2.8224,"900": 1.4165,"925": 1.3627,"950": 1.6076,"975": 1.2881,"1000": 1.2671,"1025": 1.2034,"1050": 1.2353,"1075": 1.6399,"1100": 1.4803,"1125": 1.6401,"1150": 1.6829,"1175": 0.6499,"1200": 0.2024,"1225": 0.2238,"1250": 0.0533,"1275": 0.0107}}}