{"type":"Feature","properties":{"GID_2":"NOR.7.24_1","GID_0":"NOR","country":"Norway","GID_1":"NOR.7_1","province":"Hordaland","NL_NAME_1":"NA","county":"Øygarden","VARNAME_2":"NA","NL_NAME_2":"NA","TYPE_2":"Kommuner","ENGTYPE_2":"Municipality","CC_2":"NA","HASC_2":"NO.HO.OY","name":"Øygarden.county"},
"geometry":{"type": "MultiPolygon","coordinates": [[[[4.9808,60.4466,0.0],[4.9809,60.4479,0.0],[4.9714,60.4484,0.0],[4.9651,60.4526,8.2977],[4.9641,60.4557,0.0],[4.9568,60.4568,10.8675],[4.9568,60.4599,8.2647],[4.9599,60.4609,9.8505],[4.9589,60.4661,10.3351],[4.962,60.4672,4.1394],[4.9625,60.475,2.2093],[4.9641,60.4776,19.7944],[4.9609,60.4797,9.5902],[4.9646,60.4833,0.0],[4.9641,60.4891,7.4654],[4.9609,60.4901,22.0943],[4.962,60.4932,0.0],[4.9521,60.4979,15.0565],[4.9396,60.4979,12.899],[4.937,60.4943,27.5877],[4.9276,60.4911,21.5426],[4.9276,60.488,14.2321],[4.9349,60.487,0.0],[4.9391,60.4839,0.0],[4.9339,60.4807,23.5641],[4.9328,60.4714,5.4367],[4.9292,60.4687,9.1675],[4.9313,60.4625,0.0],[4.9276,60.4589,26.1181],[4.9417,60.4583,0.0],[4.9557,60.4516,34.5615],[4.9542,60.4479,24.8977],[4.9547,60.4443,0.0],[4.9661,60.4391,0.0],[4.9646,60.4309,25.8901],[4.9757999999999996,60.439,32.7276],[4.9763,60.4462,48.6731],[4.9808,60.4466,0.0]]],
[[[4.8682,60.5786,0.0],[4.8651,60.5797,8.712],[4.8641,60.5849,4.6247],[4.8583,60.5875,0.0],[4.8484,60.5818,0.0],[4.8583,60.5812,0.0],[4.8599,60.5797,9.4656],[4.8526,60.5786,0.0],[4.8453,60.5734,12.0656],[4.838,60.5724,33.7693],[4.8313,60.5687,17.2924],[4.8229,60.5687,0.0],[4.8104,60.5729,0.0],[4.8021,60.5729,7.5941],[4.8005,60.5724,6.1198],[4.7984,60.5651,13.6216],[4.8042,60.5646,2.4219],[4.8099,60.562,8.3955],[4.8068,60.5599,0.0],[4.8057,60.5568,18.975],[4.8026,60.5557,22.1984],[4.8068,60.5526,1.9957],[4.8167,60.5542,2.1667],[4.825,60.5583,0.0],[4.8271,60.5563,3.0888],[4.8255,60.5464,14.4987],[4.8354,60.5438,2.4808],[4.8438,60.5438,0.0],[4.8453,60.5422,20.036],[4.8422,60.5401,7.8812],[4.8521,60.5396,0.0],[4.8578,60.537,18.9323],[4.8589,60.5339,0.0],[4.862,60.5328,7.8079],[4.8568,60.5307,0.0],[4.8604,60.5271,3.5634],[4.8609,60.5172,25.8936],[4.8708,60.5167,0.0],[4.8786,60.5141,0.0],[4.875,60.5104,25.7271],[4.8755,60.5089,10.9953],[4.8828,60.5057,0.0],[4.8792,60.5021,9.9929],[4.8818,60.4984,7.867],[4.8875,60.4958,0.0],[4.8953,60.4984,0.0],[4.8953,60.5016,0.0],[4.8922,60.5026,0.0],[4.8922,60.5057,5.8428],[4.9063,60.5062,0.0],[4.9089,60.5026,0.0],[4.912,60.5016,13.688],[4.9109,60.4964,0.0],[4.9151,60.4943,11.1284],[4.9208,60.4938,5.3039],[4.9286,60.4964,0.0],[4.9286,60.5036,14.5795],[4.9214,60.5068,8.3846],[4.9193,60.5109,11.328],[4.9109,60.5151,16.2423],[4.9099,60.5182,12.2995],[4.9026,60.5193,0.0],[4.9141,60.5234,7.9987],[4.9162,60.5256,0.0],[4.9161,60.5286,0.0],[4.8922,60.5401,19.5457],[4.8932,60.5453,15.5473],[4.8859,60.5484,9.9042],[4.8849,60.5516,0.0],[4.8818,60.5526,6.5224],[4.8828,60.5578,0.0],[4.8771,60.5583,12.9615],[4.8708,60.5563,0.0],[4.8672,60.5589,4.8063],[4.8672,60.5641,0.0],[4.8708,60.5667,16.9146],[4.8672,60.5703,27.7694],[4.8724,60.5714,0.0],[4.8729,60.5729,0.0],[4.8693,60.5755,16.3121],[4.8682,60.5786,0.0]]],
[[[4.8146,60.6583,0.0],[4.8104,60.6583,24.1518],[4.8047,60.6609,8.8094],[4.8104,60.6667,0.0],[4.8099,60.6682,24.6383],[4.8042,60.6708,5.5903],[4.7984,60.6703,26.1723],[4.7974,60.6672,17.8233],[4.7922,60.6661,0.0],[4.7911,60.663,0.0],[4.788,60.662,11.8042],[4.788,60.6568,4.3971],[4.7917,60.6542,0.0],[4.7896,60.65,12.9763],[4.7896,60.6437,1.5168],[4.7938,60.6396,10.7306],[4.7917,60.6354,0.0],[4.7953,60.6328,0.0],[4.7964,60.6255,8.7994],[4.7995,60.6245,0.0],[4.7943,60.6224,0.0],[4.7938,60.6208,17.4905],[4.7943,60.6151,4.5546],[4.7974,60.6141,4.8678],[4.7943,60.6109,5.116],[4.7974,60.6089,0.0],[4.7953,60.6026,0.0],[4.7896,60.6,8.5237],[4.7797,60.5995,9.1445],[4.7776,60.5943,6.3925],[4.7833,60.5917,0.0],[4.7932,60.5911,3.3924],[4.7958,60.5875,0.0],[4.8042,60.5875,7.0871],[4.8083,60.5854,1.0575],[4.8208,60.5854,0.0],[4.8292,60.5812,0.0],[4.8333,60.5833,0.0],[4.8432,60.5839,5.1383],[4.8458,60.5875,0.0],[4.8516,60.5859,0.0],[4.8536,60.588,0.0],[4.8536,60.5911,0.0],[4.8505,60.5922,8.5496],[4.8495,60.5995,0.0],[4.8464,60.6005,17.948],[4.8474,60.6036,0.0],[4.8401,60.6068,14.2187],[4.8396,60.6104,0.0],[4.8417,60.6125,0.0],[4.8458,60.6104,14.7004],[4.8578,60.6151,10.83],[4.8578,60.6182,0.0],[4.8547,60.6193,4.4651],[4.8536,60.6245,0.0],[4.8464,60.6276,12.6674],[4.8432,60.6328,16.8447],[4.8359,60.6359,11.0043],[4.8349,60.6411,0.0],[4.8276,60.6443,3.7235],[4.8286,60.6516,0.0],[4.8214,60.6547,5.5941],[4.8203,60.6578,16.2489],[4.8146,60.6583,0.0]]],
[[[4.738,60.6651,7.7276],[4.7438,60.6646,4.9006],[4.7453,60.6661,3.1378],[4.7396,60.6667,12.698],[4.738,60.6651,7.7276]]],
[[[4.7396,60.6896,0.0],[4.7297,60.6911,14.5972],[4.7318,60.688,0.0],[4.7375,60.6854,8.9525],[4.7458,60.6854,0.0],[4.7536,60.688,9.6587],[4.7521,60.6896,3.6532],[4.7396,60.6896,0.0]]],
[[[4.7276,60.713,7.8434],[4.7333,60.7125,3.9542],[4.7349,60.7141,16.7997],[4.7292,60.7146,6.9825],[4.7276,60.713,7.8434]]]]}}