{"type":"Feature","properties":{"ISO3166-1-Alpha-3":"NOR","country":"Norway","fill":"#FF0","id":"920","name":"Oppland"},
"geometry":{"type": "Polygon","coordinates": [[[9.02144,62.37056,1693.0786],[8.96822,62.3719,1403.7297],[8.85246,62.38945,1629.3668],[8.64948,62.38673,986.5393],[8.40929,62.37893,1367.5751],[8.29896,62.35741,1534.215],[8.17312,62.34855,1481.6306],[8.15421,62.3455,1405.6532],[8.1447,62.34103,1307.4911],[8.13307,62.32839,989.2234],[8.08527,62.25669,950.6005],[8.07194,62.24315,1329.2131],[8.04791,62.22535,1216.9829],[8.02182,62.20985,1282.3385],[7.97091,62.19137,1487.5304],[7.90513,62.18685,1357.4349],[7.84028,62.19494,1473.6648],[7.80581,62.20416,1282.9203],[7.78736,62.20545,1187.3586],[7.76302,62.20427,1257.7124],[7.74281,62.19982,1324.1233],[7.7284,62.19509,1397.5962],[7.70793,62.17801,1607.2482],[7.67889,62.15812,1359.2935],[7.63109,62.13445,1372.5],[7.61171,62.12251,1356.0924],[7.61047,62.11275,1264.3691],[7.61931,62.0974,1583.589],[7.6114,62.09192,1529.4171],[7.59559,62.08789,1320.0],[7.56965,62.08802,1309.7781],[7.55197,62.09179,1310.3923],[7.52169,62.10156,1567.7189],[7.49782,62.1005,1281.4856],[7.46366,62.09321,1418.2623],[7.37679,62.06156,1242.1298],[7.3279,62.0498,1146.5664],[7.34837,62.0465,1123.7948],[7.35876,62.04353,1123.5875],[7.36935,62.03859,1224.5674],[7.38516,62.02921,1286.7286],[7.39648,62.01818,1099.6851],[7.40516,62.00368,1104.3958],[7.4047,61.97459,1412.5865],[7.39245,61.91439,1632.7006],[7.39229,61.89118,1121.2753],[7.39353,61.87814,1222.6559],[7.42397,61.84067,1319.4207],[7.46691,61.78517,1394.0376],[7.49239,61.76047,1557.3334],[7.5203,61.75416,1595.7501],[7.75615,61.76062,1630.5603],[7.83811,61.75241,1732.6372],[7.86849,61.74502,1874.1401],[7.89071,61.7359,1532.5181],[7.90436,61.72321,1427.3038],[7.91149,61.71148,1412.5675],[7.91536,61.6798,1628.2329],[7.91753,61.66554,1350.4685],[7.92327,61.64828,1396.4553],[7.93479,61.62887,1585.3906],[7.9534,61.60828,1262.0],[7.99158,61.57624,1522.8287],[8.00538,61.57014,1496.1823],[8.20413,61.52364,1393.4351],[8.27539,61.47852,1452.0405],[8.30857,61.44976,1608.6204],[8.16537,61.43615,1764.0486],[8.14191,61.42669,1672.5834],[8.14036,61.40354,1314.5],[8.14269,61.39716,1408.1736],[8.15075,61.38788,1257.9139],[8.17219,61.37708,1278.5457],[8.19173,61.35967,1232.106],[8.20382,61.33729,1094.9054],[8.13463,61.28293,1266.8445],[8.05473,61.24032,1385.7327],[8.04714,61.2312,1386.2368],[8.04497,61.22345,1327.4288],[8.05148,61.20815,1219.8411],[8.07039,61.18779,1079.2009],[8.18227,61.10795,1414.8696],[8.19808,61.07245,1692.9158],[8.26061,61.11195,1473.7269],[8.27973,61.11767,1435.8966],[8.33978,61.0818,1538.0601],[8.38665,61.05994,1557.8583],[8.45848,61.03896,1647.5565],[8.56943,61.01695,1165.7772],[8.60483,61.00393,1045.2668],[8.61212,61.00041,1037.2638],[8.61413,60.99819,1035.6738],[8.61801,60.99297,1022.0305],[8.62111,60.98331,1036.7166],[8.62669,60.97225,1065.9625],[8.63227,60.96434,893.7617],[8.66333,60.94951,939.4915],[8.74151,60.93153,885.5075],[8.89313,60.91339,930.1219],[8.97116,60.88068,884.3492],[9.21477,60.80259,947.7325],[9.28091,60.78955,1084.4191],[9.3006,60.78146,1108.3849],[9.31207,60.775149999999996,1022.9575],[9.32199,60.76518,960.85],[9.32603,60.75293,1111.592],[9.32137,60.73821,1042.2466],[9.31951,60.71469,938.05],[9.39527,60.6457,856.3081],[9.40783,60.62922,973.2881],[9.41015,60.58473,643.4653],[9.44338,60.57354,909.2651],[9.47656,60.5686,1065.5566],[9.58255,60.56452,1105.239],[9.60642,60.56121,1117.5344],[9.62027,60.55088,891.019],[9.62864,60.53778,543.1355],[9.63825,60.52587,700.7242],[9.65763,60.5147,1160.4832],[9.7492,60.49295,1154.7223],[9.83142,60.48499,586.9625],[9.82786,60.50088,600.0015],[9.80615,60.54649,368.9947],[9.80352,60.56555,537.6548],[9.8077,60.57917,575.393],[9.82088,60.59139,801.3245],[9.84325,60.6009,619.8641],[9.92547,60.61289,253.5541],[9.93539,60.6162,161.2705],[9.9464,60.62581,389.1624],[9.94749,60.6341,345.4291],[9.94237,60.64209,284.7448],[9.93198,60.64922,288.8472],[9.93725,60.65444,376.0725],[9.94299,60.65857,512.7681],[10.04371,60.65539,593.4652],[10.0788,60.63211,613.0],[10.09321,60.61803,639.4261],[10.10608,60.59718,602.1414],[10.14396,60.56,481.8023],[10.16799,60.53227,224.1552],[10.18091,60.50768,302.0457],[10.21626,60.41492,410.3943],[10.22525,60.39631,421.1008],[10.23739,60.37849,486.9288],[10.30597,60.30283,386.7231],[10.33155,60.28004,377.1836],[10.37904,60.2463,152.236],[10.39831,60.23632,169.2243],[10.55577,60.18367,620.0029],[10.62362,60.15473,577.2028],[10.6801,60.15338,401.1967],[10.70816,60.16449,293.954],[10.72212,60.16537,256.0837],[10.74279,60.16031,450.7685],[10.74961,60.16449,535.8629],[10.7541,60.16816,590.7472],[10.77503,60.21736,491.4917],[10.79958,60.25064,540.4216],[10.8171,60.26759,532.8237],[10.9127,60.3419,472.9016],[10.91983,60.35164,486.0371],[10.92185,60.35688,439.5051],[10.91952,60.37389,461.878],[10.85746,60.41853,575.0461],[10.83027,60.4328,489.4703],[10.80935,60.43652,474.2554],[10.69189,60.44455,653.1302],[10.68382,60.44716,671.5209],[10.68181,60.45264,692.2522],[10.68553,60.46448,483.6159],[10.69902,60.4838,558.6063],[10.71374,60.51656,528.2507],[10.71607,60.52313,526.9169],[10.73395,60.53072,543.5933],[10.7493,60.52439,587.1663],[10.76061,60.51718,638.0069],[10.78806,60.50349,694.7834],[10.79632,60.5007,642.9781],[10.86226,60.49021,715.0873],[11.09532,60.53202,588.439],[11.10835,60.53832,526.1559],[11.11377,60.54411,520.6494],[11.11796,60.55677,584.61],[11.11796,60.56623,604.6982],[11.11625,60.58367,522.7084],[11.12137,60.59258,453.9636],[11.12638,60.59852,230.7912],[11.16219,60.62149,119.5],[11.16397,60.62264,166.6622],[11.16369,60.62289,166.6622],[11.14839,60.64152,119.5],[11.13134,60.64472,119.5],[11.12803,60.64749,119.5],[11.04768,60.68498,119.5],[10.8063,60.76771,119.5],[10.78955,60.77887,126.5823],[10.77999,60.77975,119.5],[10.76738,60.78296,130.6822],[10.72723,60.80433,119.5],[10.71917,60.81401,119.5],[10.71312,60.82554,146.7318],[10.71111,60.835,119.5],[10.71591,60.84347,119.5],[10.73447,60.85939,119.5],[10.73845,60.86853,119.5],[10.72997,60.88419,119.5],[10.60124,60.9784,119.5],[10.57644,60.98902,119.5],[10.51639,61.00449,119.5],[10.45913,61.03664,119.5],[10.4504,61.04666,119.5],[10.44808,61.05684,119.5],[10.4751,61.06475,266.6489],[10.48642,61.06777,294.5309],[10.49681,61.06948,334.7541],[10.60419,61.11911,514.8433],[10.6399,61.14257,693.2304],[10.73157,61.2212,934.5763],[10.73752,61.22799,921.273],[10.74496,61.24078,846.2644],[10.77813,61.25879,730.3037],[10.85374,61.28117,911.1117],[10.6877,61.47976,1116.4764],[10.67933,61.55562,783.3378],[10.62595,61.70678,731.593],[10.60838,61.73494,956.7521],[10.59675,61.7413,953.7361],[10.58481,61.74491,910.7301],[10.56714,61.74525,895.4546],[10.5181,61.73675,788.3292],[10.49324,61.72982,946.041],[10.47448,61.71771,1082.5009],[10.39971,61.68295,1188.7177],[10.38958,61.68218,1121.5815],[10.35997,61.68983,1178.2811],[10.31511,61.70678,1129.7496],[10.2993,61.71644,1318.1189],[10.2808,61.72158,1187.2667],[10.05828,61.75633,1140.3488],[10.06531,61.79519,1208.9679],[10.1067,61.84821,1253.4523],[10.08562,61.90439,702.7377],[10.04541,61.91457,740.6519],[10.00526,61.91085,890.5779],[9.99916,61.90728,871.0593],[10.00133,61.9047,935.5914],[10.0048,61.90206,964.3184],[10.00821,61.89896,916.3705],[10.00898,61.8956,962.5399],[9.9987,61.88268,1019.877],[9.95405,61.89813,1733.4189],[9.85814,61.91121,1820.3245],[9.81158,61.92986,1324.9902],[9.80646,61.93844,1236.3812],[9.80274,61.95038,1379.0305],[9.8091,61.96836,1247.1394],[9.80894,61.97852,1168.9839],[9.8029,62.00118,1098.3507],[9.8029,62.00309,1160.2765],[9.80383,62.00883,1420.7479],[9.80832,62.01769,1604.8263],[9.81886,62.02828,1497.4387],[9.83406,62.03642,1039.0919],[9.90315,62.05645,878.1649],[9.90873,62.06515,873.1741],[9.90346,62.07445,1016.3162],[9.88852,62.0851,1136.0109],[9.82475,62.11254,997.4923],[9.68854,62.156,1152.2153],[9.65903,62.16969,1137.5332],[9.65639,62.18861,942.2578],[9.67055,62.20525,867.2966],[9.78305,62.28581,1108.6919],[9.59728,62.27431,927.7347],[9.51103,62.29103,1251.3632],[9.46106,62.30731,1375.3835],[9.24334,62.35056,1486.2834],[9.09064,62.38012,1891.6636],[9.02144,62.37056,1693.0786]]]}}