{"type": "Feature","bbox": [7.3466,60.1218,11.1622,62.3818],"geometry": {"type": "MultiPolygon","coordinates": [[[[10.8496,60.2975,454.1096],[10.8483,60.3019,499.4748],[10.8573,60.3025,518.8658],[10.856,60.307,518.1114],[10.865,60.3076,521.3429],[10.8638,60.312,558.9257],[10.8728,60.3127,508.8044],[10.8715,60.3171,497.414],[10.8805,60.3177,465.3863],[10.8792,60.3222,525.0975],[10.8882,60.3228,622.3594],[10.887,60.3272,654.248],[10.896,60.3278,674.0369],[10.8947,60.3323,632.1785],[10.9037,60.3329,607.1204],[10.9025,60.3374,546.1152],[10.9115,60.338,535.6452],[10.909,60.3469,463.4577],[10.918,60.3475,511.1125],[10.9142,60.3608,440.4271],[10.9052,60.3602,448.4313],[10.894,60.4002,659.2048],[10.885,60.3996,695.1312],[10.8837,60.404,701.0242],[10.8747,60.4034,677.9923],[10.8735,60.4079,691.6971],[10.8644,60.4072,615.1784],[10.8632,60.4117,624.8406],[10.8542,60.4111,599.116],[10.8529,60.4155,622.2347],[10.8439,60.4149,543.0616],[10.8426,60.4193,561.0797],[10.8336,60.4187,573.3207],[10.8324,60.4232,586.3274],[10.8233,60.4225,615.7346],[10.8221,60.427,636.4226],[10.786,60.4245,651.8792],[10.7847,60.4289,655.9416],[10.7577,60.4271,598.886],[10.7564,60.4315,629.9639],[10.7203,60.429,739.1337],[10.719,60.4334,757.6201],[10.683,60.4309,743.2883],[10.6804,60.4398,681.0889],[10.6714,60.4392,694.6543],[10.6688,60.4481,663.8513],[10.6869,60.4493,652.3001],[10.6856,60.4538,609.2357],[10.7036,60.455,647.2756],[10.7023,60.4595,579.8858],[10.7114,60.4601,615.0609],[10.7101,60.4645,573.3531],[10.7191,60.4652,646.1759],[10.7114,60.4918,550.4969],[10.7205,60.4925,560.9755],[10.7141,60.5147,530.4673],[10.7322,60.5159,577.0146],[10.7334,60.5115,590.9724],[10.7425,60.5121,592.5324],[10.7437,60.5077,593.4003],[10.7528,60.5083,586.8516],[10.7541,60.5039,596.2307],[10.7721,60.5051,630.4667],[10.7734,60.5007,635.3493],[10.7825,60.5013,689.372],[10.7837,60.4968,655.8114],[10.7928,60.4975,658.5303],[10.794,60.493,656.8876],[10.8121,60.4943,598.0269],[10.8134,60.4898,577.7761],[10.8224,60.4904,604.6178],[10.8237,60.486,573.7601],[10.8327,60.4866,654.8293],[10.834,60.4822,650.3418],[10.8521,60.4834,640.857],[10.8533,60.479,603.5637],[10.9075,60.4827,772.1024],[10.9125,60.4649,692.471],[10.9216,60.4655,681.9208],[10.9228,60.4611,753.969],[10.9499,60.4629,654.9879],[10.9424,60.4896,344.9508],[10.9605,60.4908,441.8959],[10.9593,60.4953,505.2738],[10.9773,60.4965,411.1923],[10.9761,60.5009,401.5694],[11.0032,60.5028,531.498],[11.002,60.5072,595.9588],[11.0291,60.509,493.6388],[11.0279,60.5135,504.1766],[11.046,60.5147,493.3388],[11.0447,60.5192,499.2941],[11.0991,60.5228,538.4417],[11.0978,60.5272,575.4932],[11.1069,60.5278,490.707],[11.1032,60.5412,555.2267],[11.1122,60.5418,539.871],[11.1086,60.5551,577.1198],[11.1176,60.5557,582.6634],[11.1139,60.5691,598.7771],[11.123,60.5697,604.254],[11.1193,60.583,505.555],[11.1284,60.5836,586.3132],[11.1271,60.5881,520.1235],[11.1453,60.5893,130.738],[11.1441,60.5937,119.5],[11.1622,60.5949,119.5],[11.161,60.5994,119.5],[11.1519,60.5988,119.5],[11.1482,60.6121,119.5],[11.139099999999999,60.6115,119.5],[11.1342,60.6293,119.5],[11.1251,60.6287,119.5],[11.1227,60.6376,119.5],[11.1136,60.637,119.5],[11.1111,60.6459,119.5],[11.102,60.6453,119.5],[11.1008,60.6497,119.5],[11.0917,60.6491,119.5],[11.0893,60.658,119.5],[11.0802,60.6574,119.5],[11.0789,60.6619,119.5],[11.0698,60.6613,119.5],[11.0686,60.6657,119.5],[11.0595,60.6651,119.5],[11.057,60.674,119.5],[11.0479,60.6734,119.5],[11.0467,60.6778,119.5],[11.0376,60.6772,119.5],[11.0363,60.6817,119.5],[11.0273,60.6811,119.5],[11.026,60.6855,119.5],[11.0169,60.6849,119.5],[11.0157,60.6893,119.5],[11.0066,60.6887,119.5],[11.0053,60.6932,119.5],[10.9962,60.6926,119.5],[10.9937,60.7015,119.5],[10.9846,60.7008,119.5],[10.9834,60.7053,119.5],[10.9743,60.7047,119.5],[10.973,60.7091,119.5],[10.9639,60.7085,119.5],[10.9626,60.713,119.5],[10.9535,60.7123,119.5],[10.9523,60.7168,119.5],[10.9432,60.7162,119.5],[10.9419,60.7206,119.5],[10.9237,60.7194,119.5],[10.9224,60.7238,119.5],[10.9133,60.7232,119.5],[10.9121,60.7277,119.5],[10.903,60.7271,119.5],[10.9017,60.7315,119.5],[10.8926,60.7309,119.5],[10.8913,60.7353,119.5],[10.8822,60.7347,119.5],[10.881,60.7392,119.5],[10.8718,60.7385,119.5],[10.8706,60.743,119.5],[10.8615,60.7424,119.5],[10.8602,60.7468,119.5],[10.8511,60.7462,119.5],[10.8498,60.7506,119.5],[10.8407,60.75,119.5],[10.8394,60.7545,119.5],[10.8212,60.7532,119.5],[10.8199,60.7577,119.5],[10.8108,60.757,119.5],[10.8095,60.7615,119.5],[10.7913,60.7602,119.5],[10.79,60.7647,119.5],[10.7809,60.764,119.5],[10.7796,60.7685,119.5],[10.7614,60.7672,119.5],[10.7601,60.7717,119.5],[10.751,60.7711,119.5],[10.7497,60.7755,119.5],[10.7406,60.7749,119.5],[10.738,60.7838,119.5],[10.7289,60.7831,119.5],[10.7263,60.792,119.5],[10.7172,60.7914,119.5],[10.7146,60.8003,119.5],[10.7055,60.7996,119.5],[10.701599999999999,60.813,119.5],[10.6924,60.8123,119.5],[10.6885,60.8257,119.5],[10.6977,60.8263,119.5],[10.6951,60.8352,119.5],[10.7042,60.8358,119.5],[10.701599999999999,60.8447,119.5],[10.7107,60.8453,119.5],[10.7081,60.8542,119.5],[10.7173,60.8549,119.5],[10.7121,60.8726,119.5],[10.7029,60.872,119.5],[10.699,60.8853,119.5],[10.6899,60.8847,119.5],[10.6834,60.9069,119.5],[10.6742,60.9063,119.5],[10.6664,60.9329,119.5],[10.6572,60.9323,119.5],[10.6533,60.9456,119.5],[10.6441,60.945,119.5],[10.6415,60.9539,119.5],[10.6323,60.9532,119.5],[10.6297,60.9621,119.5],[10.6205,60.9615,126.8317],[10.6179,60.9704,119.5],[10.6087,60.9697,119.5],[10.6061,60.9786,119.5],[10.5969,60.978,119.5],[10.5956,60.9824,119.5],[10.5864,60.9818,119.5],[10.5851,60.9862,119.5],[10.5759,60.9856,119.5],[10.5746,60.99,119.5],[10.5654,60.9894,119.5],[10.5641,60.9938,119.5],[10.5549,60.9932,119.5],[10.5536,60.9976,119.5],[10.5444,60.997,119.5],[10.5431,61.0014,119.5],[10.5339,61.0008,119.5],[10.5326,61.0052,119.5],[10.5142,61.004,119.5],[10.5129,61.0084,119.5],[10.5037,61.0077,119.5],[10.5024,61.0122,119.5],[10.484,61.0109,119.5],[10.4813,61.0198,119.5],[10.4721,61.0191,119.5],[10.4695,61.028,119.5],[10.4603,61.0274,119.5],[10.4562,61.0407,119.5],[10.4471,61.04,119.5],[10.4417,61.0578,119.5],[10.5336,61.0643,372.8555],[10.5323,61.0687,369.5261],[10.5415,61.0693,427.4127],[10.5401,61.0738,405.2868],[10.5493,61.0744,471.5583],[10.548,61.0789,443.9406],[10.5572,61.0795,457.4653],[10.5559,61.084,502.9891],[10.5743,61.0852,522.2067],[10.5729,61.0897,513.0655],[10.5821,61.0903,534.9327],[10.5808,61.0948,566.3882],[10.59,61.0954,574.2825],[10.5873,61.1043,692.6256],[10.5965,61.1049,690.9155],[10.5952,61.1094,612.0118],[10.6044,61.11,563.4905],[10.6031,61.1144,515.3386],[10.6123,61.1151,515.338],[10.6097,61.124,550.6279],[10.6189,61.1246,530.347],[10.6175,61.129,520.1104],[10.6268,61.1297,550.1968],[10.6254,61.1341,627.2047],[10.6347,61.1348,651.4462],[10.632,61.1436,679.0658],[10.6412,61.1443,697.4116],[10.6399,61.1487,717.6292],[10.6491,61.1494,793.9391],[10.6478,61.1538,827.4991],[10.657,61.1544,880.9655],[10.6544,61.1633,909.9504],[10.6636,61.164,943.3241],[10.6623,61.1684,971.5224],[10.6715,61.169,978.4615],[10.6702,61.1735,1000.723],[10.6794,61.1741,964.3903],[10.6768,61.183,921.9955],[10.6952,61.1843,887.7412],[10.6939,61.1887,887.5878],[10.7031,61.1893,884.8],[10.7018,61.1938,885.8187],[10.7111,61.1944,882.6881],[10.7097,61.1988,893.1024],[10.719,61.1995,921.759],[10.7177,61.2039,905.9415],[10.7269,61.2046,909.5153],[10.723,61.2179,915.9441],[10.7322,61.2185,899.4336],[10.7283,61.2318,886.4796],[10.7375,61.2325,901.3999],[10.7362,61.2369,914.2875],[10.7547,61.2382,846.9212],[10.7534,61.2426,824.2634],[10.7719,61.243899999999996,833.4424],[10.7706,61.2483,827.2145],[10.7983,61.2502,710.4728],[10.797,61.2546,700.6597],[10.8155,61.2559,723.1204],[10.8142,61.2603,739.3884],[10.8327,61.2616,807.294],[10.8314,61.266,824.2714],[10.8407,61.2666,878.8651],[10.8355,61.2844,866.9037],[10.8262,61.2838,852.4174],[10.8197,61.306,887.1559],[10.8104,61.3054,882.8101],[10.8025,61.3321,959.3301],[10.7933,61.3314,966.9398],[10.7867,61.3537,1004.989],[10.7774,61.353,1007.9892],[10.7708,61.3753,1004.5889],[10.7615,61.3746,1008.9225],[10.7563,61.3924,1021.9223],[10.747,61.3918,1010.6057],[10.7417,61.4095,1101.1783],[10.7324,61.4089,1076.6338],[10.7271,61.4267,957.1614],[10.7178,61.4261,963.6858],[10.7125,61.4438,956.0934],[10.7032,61.4432,957.2542],[10.6992,61.4565,1060.7408],[10.6899,61.4559,1076.1311],[10.6805,61.487,1063.592],[10.6898,61.4876,1066.6188],[10.6872,61.4965,1023.9033],[10.6965,61.4972,1049.8967],[10.6885,61.5238,914.7831],[10.6791,61.5232,865.0842],[10.6684,61.5587,1012.6701],[10.6591,61.5581,796.0436],[10.6497,61.5892,1081.3329],[10.659,61.5898,1004.1169],[10.6253,61.7009,760.6688],[10.6159,61.7003,774.3661],[10.6132,61.7091,745.7223],[10.6038,61.7085,806.2513],[10.5997,61.7218,811.7086],[10.5903,61.7212,949.0457],[10.5862,61.7345,890.684],[10.5768,61.7339,966.2943],[10.5741,61.7428,909.1055],[10.5553,61.7415,970.855],[10.5567,61.737,995.4759],[10.5285,61.7351,839.7568],[10.5299,61.7307,829.7644],[10.4923,61.7281,956.7692],[10.4937,61.7236,987.6736],[10.4843,61.723,1024.8579],[10.4857,61.7186,1019.925],[10.4763,61.7179,1065.5967],[10.4777,61.7135,1082.8969],[10.4683,61.7128,1140.1163],[10.4696,61.7084,1167.5433],[10.4603,61.7077,1232.7811],[10.4616,61.7033,1242.1219],[10.4335,61.7013,1292.6545],[10.4349,61.6969,1296.6218],[10.4255,61.6962,1256.0409],[10.4269,61.6918,1191.3517],[10.4175,61.6912,1148.2499],[10.4189,61.6867,1055.1244],[10.4095,61.6861,1044.4983],[10.4109,61.6816,1182.3596],[10.4015,61.681,1175.2839],[10.4029,61.6765,1161.0645],[10.3935,61.6759,1161.0408],[10.3949,61.6714,1320.1342],[10.3856,61.6708,1307.5421],[10.3842,61.6752,1159.6034],[10.3748,61.6746,1141.0785],[10.372,61.6835,1087.4713],[10.3627,61.6828,1096.8999],[10.3613,61.6872,1143.5924],[10.3519,61.6866,1146.1991],[10.3505,61.691,1199.9314],[10.3411,61.6904,1148.9403],[10.3397,61.6948,1199.1892],[10.3303,61.6941,1136.0818],[10.3289,61.6986,1152.22],[10.3196,61.6979,1086.3237],[10.3182,61.7024,1110.0747],[10.3088,61.7017,1137.0664],[10.3074,61.7062,1158.5165],[10.298,61.7055,1186.0348],[10.2966,61.7099,1248.1024],[10.2778,61.7086,1248.9233],[10.2764,61.713,1261.0127],[10.2577,61.7117,1313.0641],[10.2563,61.7162,1336.5],[10.2375,61.7148,1322.8547],[10.2361,61.7193,1247.6829],[10.1986,61.7166,1247.3594],[10.1972,61.7211,1320.0613],[10.1784,61.7197,1106.5924],[10.177,61.7242,1076.2017],[10.1676,61.7235,1054.4525],[10.1662,61.7279,1066.0887],[10.1474,61.7266,1084.446],[10.146,61.731,1106.8434],[10.1366,61.7304,1083.463],[10.1352,61.7348,1178.1407],[10.1164,61.7334,1265.9836],[10.115,61.7379,1236.8008],[10.1056,61.7372,1164.4276],[10.1041,61.7416,1173.3315],[10.0854,61.7403,1116.4623],[10.0839,61.7447,1112.2583],[10.0746,61.7441,1093.6328],[10.0731,61.7485,1111.7076],[10.0543,61.7472,1112.7655],[10.05,61.7605,1152.7756],[10.0594,61.7611,1159.1454],[10.058,61.7656,1175.5334],[10.0674,61.7663,1181.9457],[10.0645,61.7751,1212.8239],[10.0739,61.7758,1202.5483],[10.071,61.7847,1346.6117],[10.0804,61.7853,1207.3159],[10.079,61.7898,1243.6083],[10.0884,61.7905,1171.7568],[10.0855,61.7993,1125.2784],[10.0949,61.8,1058.9651],[10.092,61.8089,1044.8118],[10.1014,61.8095,1041.8545],[10.1,61.814,1087.0138],[10.1094,61.8147,1090.6814],[10.1065,61.8235,1177.285],[10.1159,61.8242,1184.7106],[10.1145,61.8286,1220.7476],[10.1239,61.8293,1245.7977],[10.121,61.8382,1268.2764],[10.1304,61.8389,1217.5105],[10.129,61.8433,1197.7235],[10.1384,61.844,1077.7173],[10.1356,61.8528,943.8192],[10.145,61.8535,879.187],[10.1421,61.8624,849.9238],[10.1515,61.8631,917.6204],[10.1487,61.8719,819.3018],[10.1581,61.8726,783.6342],[10.1552,61.8815,704.2055],[10.1458,61.8808,734.1523],[10.1444,61.8852,700.5788],[10.1255,61.8839,700.4165],[10.1241,61.8883,700.4399],[10.1146,61.8877,700.6176],[10.1132,61.8921,700.4705],[10.1038,61.8914,737.7809],[10.1023,61.8959,701.8357],[10.0929,61.8952,762.1633],[10.09,61.9041,703.0435],[10.0806,61.9034,718.8919],[10.0791,61.9078,703.1776],[10.0697,61.9072,732.0681],[10.0682,61.9116,704.8476],[10.0588,61.9109,743.8235],[10.0559,61.9198,705.4548],[10.0276,61.9178,796.2287],[10.029,61.9133,805.698],[10.0102,61.912,862.999],[10.016,61.8942,926.9589],[10.0066,61.8935,987.6445],[10.008,61.8891,970.6588],[9.9892,61.8877,1384.9647],[9.9877,61.8922,1492.1107],[9.9688,61.8908,1520.6862],[9.9674,61.8953,1636.0841],[9.9485,61.8939,1769.8528],[9.9471,61.8983,1691.1312],[9.9282,61.897,1771.9861],[9.9267,61.9014,1618.5961],[9.9079,61.9,1350.5817],[9.9064,61.9045,1343.3253],[9.8781,61.9024,1869.5822],[9.8766,61.9068,1503.3193],[9.8389,61.9041,1707.9546],[9.8345,61.9174,1838.6727],[9.8439,61.9181,1733.4438],[9.8409,61.9269,1481.8577],[9.8504,61.9276,1435.0742],[9.8459,61.9409,1672.4976],[9.8554,61.9416,1942.3544],[9.8509,61.9549,1546.3369],[9.8604,61.9556,1646.6139],[9.8559,61.9689,1422.3412],[9.8654,61.9696,1376.0376],[9.8609,61.9829,1261.1112],[9.8704,61.9836,1201.6869],[9.863,62.0058,1014.0794],[9.8535,62.0051,1019.4341],[9.852,62.0095,1003.9298],[9.8615,62.0102,988.6058],[9.8556,62.0279,998.062],[9.865,62.0286,1030.0858],[9.8621,62.0375,1172.9701],[9.8905,62.0396,1141.5122],[9.889,62.044,1213.6808],[9.9174,62.046,903.0106],[9.9115,62.0638,848.0929],[9.902,62.0631,868.1506],[9.8991,62.072,1006.8734],[9.8896,62.0713,1038.0397],[9.8866,62.0802,1076.183],[9.8771,62.0795,1048.6298],[9.8756,62.0839,1083.0776],[9.8662,62.0832,1043.8553],[9.8632,62.0921,1135.2117],[9.8537,62.0914,1119.5811],[9.8507,62.1003,1114.5542],[9.8317,62.0989,1086.7256],[9.8302,62.1033,1043.7224],[9.8207,62.1026,1046.7638],[9.8193,62.107,1045.5558],[9.8098,62.1064,1101.8875],[9.8083,62.1108,1068.0862],[9.7893,62.1094,1086.8484],[9.7878,62.1138,1083.1522],[9.7783,62.1131,1161.0975],[9.7768,62.1176,1174.2471],[9.7673,62.1169,1267.6085],[9.7658,62.1213,1228.9191],[9.7563,62.1206,1303.5951],[9.7548,62.125,1223.5312],[9.7358,62.1237,1214.028],[9.7343,62.1281,1164.0897],[9.7248,62.1274,1197.9913],[9.7233,62.1318,1216.2024],[9.7043,62.1304,1237.9811],[9.7028,62.1349,1234.1693],[9.6838,62.1334,1298.5834],[9.6823,62.1379,1309.9083],[9.6728,62.1372,1323.7843],[9.6712,62.1416,1281.5509],[9.6522,62.1402,1452.249],[9.6492,62.1491,1281.0182],[9.6397,62.1484,1318.2169],[9.6382,62.1528,1325.6885],[9.6287,62.1521,1345.2113],[9.6256,62.161,1346.0608],[9.6161,62.1602,1361.9231],[9.6131,62.1691,1357.2399],[9.6035,62.1684,1421.5295],[9.602,62.1728,1314.0602],[9.5925,62.1721,1393.9396],[9.5848,62.1943,970.8273],[9.6134,62.1964,869.6365],[9.6118,62.2008,874.201],[9.6214,62.2015,897.4847],[9.6229,62.1971,847.0198],[9.6419,62.1985,839.3737],[9.6435,62.1941,865.4816],[9.653,62.1948,851.8646],[9.6514,62.1992,842.9187],[9.661,62.1999,846.1669],[9.6594,62.2044,877.408],[9.669,62.2051,868.289],[9.6674,62.2095,945.6357],[9.677,62.2102,970.1918],[9.6739,62.2191,1035.3069],[9.6834,62.2198,1006.4771],[9.6819,62.2242,1026.639],[9.6914,62.2249,946.8149],[9.6884,62.2338,903.7053],[9.6979,62.2345,869.3394],[9.6964,62.2389,871.3384],[9.7059,62.2396,910.2026],[9.7029,62.2485,913.4006],[9.7124,62.2492,946.6203],[9.7109,62.2536,946.1946],[9.7204,62.2543,982.6729],[9.7189,62.2587,996.6147],[9.7285,62.2594,1019.653],[9.7269,62.2639,1053.1583],[9.746,62.2653,1064.6713],[9.7445,62.2697,1060.7974],[9.754,62.2704,1093.0536],[9.7525,62.2748,1089.7788],[9.7048,62.2713,1181.9139],[9.7063,62.2669,1147.1572],[9.63,62.2613,993.644],[9.6316,62.2568,1020.1757],[9.603,62.2547,1069.179],[9.6014,62.2592,1027.7296],[9.5824,62.2577,1027.1794],[9.5808,62.2622,992.2635],[9.5713,62.2615,992.4207],[9.5697,62.2659,964.9017],[9.5507,62.2645,1004.2588],[9.5491,62.2689,1025.4597],[9.5396,62.2682,1054.2097],[9.538,62.2726,1060.0591],[9.519,62.2712,1087.2517],[9.5174,62.2756,1087.3254],[9.5079,62.2749,1096.8134],[9.5048,62.2838,1364.4738],[9.4952,62.2831,1432.8309],[9.4921,62.2919,1590.7727],[9.4826,62.2912,1556.4677],[9.481,62.2956,1557.3713],[9.4715,62.2949,1485.4943],[9.4699,62.2993,1489.0317],[9.4508,62.2979,1283.1575],[9.4493,62.3023,1326.4955],[9.4302,62.3009,1339.832],[9.4286,62.3053,1371.0951],[9.4191,62.3046,1425.33],[9.4175,62.309,1406.891],[9.3984,62.3076,1449.6552],[9.3969,62.312,1461.9181],[9.3873,62.3113,1547.3809],[9.3857,62.3157,1516.9336],[9.3666,62.3143,1590.4752],[9.3651,62.3187,1641.1969],[9.3555,62.318,1614.9318],[9.3539,62.3224,1531.8579],[9.3348,62.321,1583.1692],[9.3333,62.3254,1579.6594],[9.3142,62.3239,1604.4313],[9.3126,62.3284,1651.3688],[9.303,62.3276,1702.2688],[9.3015,62.3321,1695.0089],[9.2823,62.3306,1732.9344],[9.2808,62.335,1698.3127],[9.2617,62.3336,1774.9554],[9.2601,62.338,1711.7267],[9.2505,62.3373,1683.3486],[9.2489,62.3417,1634.4884],[9.2298,62.3402,1600.4934],[9.2282,62.3447,1546.3898],[9.2091,62.3432,1549.054],[9.2075,62.3476,1409.5698],[9.1884,62.3462,1395.6503],[9.1868,62.3506,1327.2294],[9.1773,62.3498,1310.9943],[9.1756,62.3543,1301.6312],[9.1565,62.3528,1324.2954],[9.1549,62.3572,1399.7576],[9.1358,62.3558,1571.7073],[9.1342,62.3602,1440.3108],[9.1151,62.3587,1481.7468],[9.1135,62.3631,1639.2068],[9.0944,62.3616,1645.9221],[9.0928,62.3661,1530.3],[9.0832,62.3653,1550.8231],[9.0816,62.3697,1541.963],[9.0625,62.3683,1797.1887],[9.0608,62.3727,1970.428],[9.0417,62.3712,1679.7639],[9.0433,62.3668,1652.1837],[9.0242,62.3653,1683.5277],[9.0259,62.3609,1691.0717],[8.9972,62.3586,1482.5898],[8.9988,62.3542,1665.9128],[8.9702,62.3519,1814.3262],[8.9685,62.3564,1709.6022],[8.9399,62.3541,1716.7585],[8.9383,62.3585,1767.822],[8.9096,62.3563,1628.2673],[8.908,62.3607,1642.0739],[8.8984,62.3599,1596.5103],[8.8935,62.3732,1892.4127],[8.8744,62.3717,1712.3978],[8.8727,62.3761,1734.2063],[8.8632,62.3754,1682.7727],[8.8615,62.3798,1788.1177],[8.8233,62.3767,1492.7932],[8.8216,62.3812,1455.3336],[8.7739,62.3774,1523.8751],[8.7722,62.3818,1325.1702],[8.6958,62.3756,1055.3363],[8.6941,62.3801,1041.9742],[8.6177,62.3739,853.0],[8.616,62.3783,853.0],[8.4728,62.3666,1318.3887],[8.4711,62.371,1301.8624],[8.3089,62.3576,1340.1714],[8.3106,62.3532,1459.6459],[8.2344,62.3468,1121.735],[8.2361,62.3424,1125.2256],[8.1694,62.3368,1565.1074],[8.1712,62.3324,1602.8341],[8.1617,62.3316,1458.2107],[8.1634,62.3272,1415.005],[8.1539,62.3264,1302.7563],[8.1574,62.3175,1115.7633],[8.1479,62.3167,978.214],[8.1496,62.3123,913.9167],[8.1401,62.3115,821.5693],[8.1419,62.3071,840.5206],[8.1324,62.3063,700.4803],[8.1341,62.3019,802.5694],[8.1246,62.3011,509.9201],[8.1264,62.2967,512.7739],[8.1168,62.2959,391.908],[8.1204,62.287,461.4002],[8.1108,62.2862,520.8925],[8.1144,62.2774,532.0359],[8.1049,62.2766,631.769],[8.1084,62.2678,639.1829],[8.0989,62.267,643.3939],[8.1006,62.2625,669.2247],[8.0911,62.2617,715.0726],[8.0929,62.2573,798.0695],[8.0834,62.2565,978.1755],[8.0851,62.2521,1123.3992],[8.0756,62.2513,1237.4956],[8.0774,62.2469,1247.8778],[8.0679,62.2461,1302.7179],[8.0697,62.2417,1354.6045],[8.0602,62.2408,1389.0153],[8.0619,62.2364,1406.8086],[8.0524,62.2356,1359.5472],[8.0542,62.2312,1280.0759],[8.0447,62.2304,1270.9424],[8.0465,62.226,1223.1273],[8.037,62.2252,1217.5765],[8.0387,62.2208,1221.1387],[8.0293,62.2199,1211.3728],[8.031,62.2155,1227.3396],[8.0215,62.2147,1235.9956],[8.0251,62.2059,1374.7483],[8.0156,62.2051,1422.0638],[8.0173,62.2007,1513.0209],[8.0079,62.1999,1515.8901],[8.0096,62.1954,1691.1111],[8.0002,62.1946,1667.9047],[8.0019,62.1902,1698.6453],[7.9925,62.1894,1628.6686],[7.9942,62.185,1692.9314],[7.9847,62.1842,1808.3068],[7.9865,62.1798,1856.0457],[7.8634,62.1691,1924.6742],[7.8616,62.1735,1874.1313],[7.8522,62.1727,1778.5493],[7.8504,62.1771,1667.4176],[7.8314,62.1754,1405.9976],[7.8296,62.1799,1353.525],[7.8202,62.179,1359.0243],[7.8184,62.1834,1461.6534],[7.7994,62.1818,1441.3716],[7.7977,62.1862,1511.9761],[7.7787,62.1845,1706.7466],[7.7769,62.1889,1647.1714],[7.7296,62.1848,1849.1686],[7.7314,62.1804,1792.8174],[7.7219,62.1795,1814.6448],[7.7237,62.1751,1670.5472],[7.7143,62.1743,1595.7297],[7.7161,62.1699,1491.3634],[7.7066,62.169,1272.1969],[7.7084,62.1646,1201.7749],[7.6989,62.1638,1166.2405],[7.7008,62.1594,1173.4347],[7.6913,62.1586,1248.4513],[7.6931,62.1542,1296.705],[7.6836,62.1533,1328.1979],[7.6855,62.1489,1330.7343],[7.6665,62.1472,1599.0388],[7.6684,62.1428,1566.7742],[7.6589,62.142,1850.8625],[7.6607,62.1376,1748.1797],[7.6229,62.1342,1393.2419],[7.6247,62.1298,1408.6321],[7.5869,62.1265,1476.0876],[7.5924,62.1132,1372.2943],[7.6019,62.1141,1264.4364],[7.6055,62.1053,1580.2644],[7.6149,62.1061,1408.0853],[7.6186,62.0973,1591.6338],[7.628,62.0981,1540.3303],[7.6334,62.0849,1332.527],[7.6146,62.0832,1328.2063],[7.6164,62.0788,1496.6022],[7.5975,62.0772,1399.0341],[7.5993,62.0728,1609.3381],[7.5805,62.0711,1331.7152],[7.5823,62.0667,1342.3129],[7.5634,62.065,1313.0898],[7.5598,62.0738,1367.9565],[7.5504,62.0729,1415.8704],[7.5449,62.0862,1332.4861],[7.5355,62.0853,1485.8256],[7.53,62.0985,1396.1122],[7.4734,62.0934,1294.5649],[7.4752,62.089,1272.9301],[7.4658,62.0882,1425.3818],[7.4639,62.0926,1421.9456],[7.4357,62.09,1274.7971],[7.4338,62.0944,1301.1233],[7.4149,62.0927,997.7944],[7.4186,62.0839,998.0],[7.4092,62.0831,1001.4191],[7.4147,62.0698,1020.5148],[7.4053,62.069,1012.8926],[7.409,62.0602,1279.8715],[7.3996,62.0593,1075.6655],[7.4014,62.0549,1209.8535],[7.3826,62.0532,1125.2245],[7.3844,62.0488,1165.3083],[7.375,62.048,1123.5221],[7.3769,62.0436,1213.5084],[7.358,62.0418,1123.9215],[7.3599,62.0374,1140.7981],[7.3505,62.0366,1127.5402],[7.356,62.0234,1459.0435],[7.3466,62.0225,1114.9695],[7.354,62.0049,1518.5625],[7.3634,62.0058,1362.0623],[7.3671,61.997,1204.5535],[7.3765,61.9978,1382.7133],[7.3783,61.9934,1182.9977],[7.3877,61.9943,1146.3796],[7.3896,61.9899,1161.6567],[7.399,61.9907,1234.0017],[7.4027,61.9819,1597.1481],[7.412,61.9828,1613.8513],[7.4176,61.9696,1123.0721],[7.4082,61.9687,1128.5579],[7.4137,61.9555,1367.939],[7.4043,61.9546,1229.5164],[7.4116,61.937,1529.5922],[7.4022,61.9362,1660.3927],[7.4096,61.9186,1462.4484],[7.4002,61.9177,1583.4675],[7.4075,61.9001,1437.5945],[7.3981,61.8993,1407.8098],[7.4201,61.8464,1310.3566],[7.4295,61.8473,1332.8391],[7.4349,61.8341,1624.3168],[7.4443,61.8349,1706.9856],[7.4497,61.8217,1378.0276],[7.4591,61.8226,1414.4969],[7.47,61.7961,1584.6827],[7.4793,61.797,1728.1193],[7.4902,61.7706,1290.4247],[7.4995,61.7714,1373.0389],[7.5031,61.7626,1575.7341],[7.4938,61.7617,1564.6431],[7.501,61.7441,1320.7954],[7.4917,61.7433,1312.0244],[7.4971,61.7301,1645.5083],[7.5997,61.7394,1476.2196],[7.6015,61.735,1425.625],[7.6761,61.7417,1597.2961],[7.6779,61.7373,1825.8986],[7.6861,61.738,1874.7469],[7.6873,61.7381,1793.6996],[7.6855,61.7425,2009.7026],[7.7415,61.7475,1554.548],[7.7397,61.7519,1549.0343],[7.7584,61.7536,1814.2104],[7.7601,61.7492,1902.5626],[7.7788,61.7508,1427.6001],[7.7806,61.7464,1393.673],[7.7993,61.7481,1613.2749],[7.801,61.7437,1585.5273],[7.8197,61.7453,1800.1772],[7.8215,61.7409,1661.2321],[7.8401,61.7426,1981.3038],[7.8419,61.7382,1938.0333],[7.8512,61.739,1815.597],[7.853,61.7346,1694.6962],[7.8623,61.7354,1744.1327],[7.8641,61.731,1704.7145],[7.8827,61.7326,1570.0928],[7.8845,61.7282,1535.3291],[7.8938,61.729,1470.7692],[7.8956,61.7246,1429.0524],[7.9049,61.7255,1427.4746],[7.9136,61.7034,1395.6868],[7.9043,61.7026,1372.1974],[7.913,61.6805,1668.8263],[7.9037,61.6797,1626.094],[7.9072,61.6709,1540.89],[7.8979,61.6701,1543.2346],[7.9031,61.6569,1415.9379],[7.8938,61.656,1396.6709],[7.906,61.6252,1659.5763],[7.9153,61.626,1597.8591],[7.9222,61.6083,1238.7435],[7.9315,61.6092,1265.6301],[7.9454,61.5739,1399.0493],[7.9361,61.5731,1403.0186],[7.9413,61.5598,1407.1185],[7.9599,61.5615,1415.6907],[7.9616,61.5571,1367.244],[7.9895,61.5595,1397.6892],[7.9912,61.5551,1383.8062],[8.0005,61.5559,1419.9198],[8.0022,61.5515,1453.8997],[8.0115,61.5523,1473.5859],[8.0132,61.5479,1473.8822],[8.0318,61.5495,1381.424],[8.0335,61.5451,1427.6766],[8.0892,61.55,1778.1971],[8.0909,61.5456,1795.2239],[8.1559,61.5512,1472.7578],[8.1576,61.5468,1486.9237],[8.1854,61.5492,1524.2317],[8.1871,61.5448,1726.4703],[8.215,61.5472,1617.3524],[8.2167,61.5428,1750.9501],[8.2352,61.5444,1543.2146],[8.2454,61.5179,1714.8854],[8.2546,61.5187,1692.0098],[8.2597,61.5054,2050.1279],[8.269,61.5062,1889.5789],[8.2723,61.4974,1680.2887],[8.2816,61.4982,1543.5519],[8.285,61.4894,1592.6733],[8.2942,61.4902,1589.0145],[8.2976,61.4813,1656.1033],[8.3068,61.4821,1714.2494],[8.3102,61.4733,1562.7869],[8.3195,61.4741,1536.4523],[8.3295,61.4476,1532.0786],[8.311,61.446,1851.3121],[8.3126,61.4416,2035.639],[8.1831,61.4304,1743.1938],[8.1814,61.4349,1733.4695],[8.1536,61.4324,1854.5973],[8.1553,61.428,1893.4142],[8.1368,61.4264,1521.2389],[8.1554,61.3779,1177.0],[8.1462,61.3771,1177.0],[8.1496,61.3683,1300.7096],[8.1588,61.3691,1177.0],[8.1622,61.3602,1225.6423],[8.1714,61.361,1178.1511],[8.1748,61.3522,1309.843],[8.2117,61.3554,1095.3608],[8.2167,61.3422,1123.6252],[8.2352,61.3438,1079.5],[8.2368,61.3393,1100.5178],[8.2461,61.3401,1079.5],[8.2494,61.3313,1079.5],[8.2402,61.3305,1134.5402],[8.2435,61.3217,1085.6995],[8.2343,61.3209,1088.9001],[8.236,61.3165,1080.8816],[8.2268,61.3157,1091.9048],[8.2284,61.3113,1079.5],[8.1639,61.3057,1114.2972],[8.1656,61.3013,1093.8044],[8.1564,61.3004,1181.1162],[8.1581,61.296,1187.4536],[8.1489,61.2952,1351.9202],[8.1506,61.2908,1285.1105],[8.1413,61.29,1330.2175],[8.143,61.2856,1205.5211],[8.1338,61.2848,1330.9692],[8.1389,61.2716,1105.0789],[8.1297,61.2708,1108.4614],[8.1314,61.2663,1337.2871],[8.113,61.2647,1117.7809],[8.1146,61.2603,1168.401],[8.087,61.2579,1174.0488],[8.0887,61.2535,1266.1932],[8.0611,61.2511,1290.1619],[8.0628,61.2467,1326.1381],[8.0536,61.2458,1370.7355],[8.0553,61.2414,1340.152],[8.0461,61.2406,1386.1455],[8.0495,61.2318,1421.8856],[8.0403,61.231,1435.6599],[8.0454,61.2178,1313.2988],[8.0362,61.2169,1326.2992],[8.0396,61.2081,1183.7891],[8.0304,61.2073,1140.0931],[8.0372,61.1897,1092.5146],[8.0464,61.1905,1182.5435],[8.0532,61.1728,934.798],[8.0623,61.1736,977.4595],[8.0674,61.1604,1144.0939],[8.0766,61.1612,1207.3411],[8.0799,61.1524,1215.809],[8.0891,61.1532,1209.705],[8.0925,61.1444,1303.5656],[8.1016,61.1452,1265.9021],[8.1067,61.1319,1377.881],[8.1158,61.1327,1369.896],[8.1192,61.1239,1602.4854],[8.1283,61.1247,1583.1652],[8.13,61.1203,1633.5667],[8.1392,61.1211,1482.1101],[8.1408,61.1167,1454.6853],[8.15,61.1175,1484.2872],[8.1517,61.1131,1655.856],[8.1608,61.1139,1513.3873],[8.1642,61.1051,1721.2208],[8.1733,61.1059,1592.7299],[8.175,61.1015,1695.9515],[8.1842,61.1023,1545.0688],[8.1858,61.0978,1670.4998],[8.195,61.0986,1580.4005],[8.1966,61.0942,1496.4338],[8.2058,61.095,1415.3693],[8.2075,61.0906,1414.4673],[8.2166,61.0914,1415.3134],[8.2183,61.087,1454.1931],[8.2274,61.0878,1415.0013],[8.2291,61.0834,1414.6285],[8.2382,61.0842,1459.8237],[8.2415,61.0754,1426.7385],[8.269,61.0777,1491.2744],[8.2673,61.0822,1633.4751],[8.2948,61.0845,1385.5234],[8.2932,61.089,1528.7786],[8.3115,61.0905,1589.314],[8.3131,61.0861,1428.0389],[8.3223,61.0869,1523.4065],[8.3256,61.0781,1437.1892],[8.3347,61.0789,1488.4873],[8.338,61.07,1585.5814],[8.3471,61.0708,1559.8601],[8.3504,61.062,1532.1611],[8.3596,61.0628,1576.7368],[8.3629,61.054,1535.7926],[8.372,61.0547,1462.9072],[8.3753,61.0459,1554.1693],[8.3844,61.0467,1581.2267],[8.3861,61.0423,1632.9417],[8.3952,61.0431,1671.8689],[8.3985,61.0342,1672.7709],[8.4076,61.035,1737.0343],[8.4092,61.0306,1737.322],[8.4184,61.0314,1795.7134],[8.42,61.027,1820.4358],[8.4291,61.0278,1803.28],[8.4324,61.0189,1579.637],[8.4781,61.0228,1798.8157],[8.4797,61.0184,1762.2307],[8.498,61.02,1857.4846],[8.4996,61.0156,1872.7465],[8.5179,61.0171,1447.8804],[8.5195,61.0127,1876.8622],[8.5286,61.0135,1757.1866],[8.5302,61.0091,1845.4872],[8.5394,61.0098,1862.1654],[8.541,61.0054,1803.083],[8.5501,61.0062,1819.1042],[8.5517,61.0018,1754.3755],[8.5609,61.0026,1776.1055],[8.5641,60.9937,1645.2504],[8.5732,60.9945,1623.636],[8.5748,60.9901,1322.4973],[8.584,60.9909,1377.6134],[8.5856,60.9864,1202.7145],[8.5947,60.9872,1237.045],[8.5979,60.9784,1030.0247],[8.607,60.9791,1144.7703],[8.6086,60.9747,1039.842],[8.6178,60.9755,1057.6378],[8.6225,60.9622,964.6436],[8.6134,60.9615,973.0662],[8.6166,60.9526,1164.8839],[8.6075,60.9519,1215.2272],[8.6091,60.9474,1321.6959],[8.6182,60.9482,1238.0188],[8.6198,60.9438,1305.6998],[8.6289,60.9446,1200.9736],[8.6305,60.9401,1315.0632],[8.6488,60.9417,1117.6997],[8.6504,60.9373,1199.3666],[8.6595,60.938,1099.4388],[8.6611,60.9336,1101.771],[8.6702,60.9344,1095.1381],[8.6718,60.93,1084.2395],[8.6809,60.9307,1075.1381],[8.6825,60.9263,1076.1865],[8.6916,60.9271,1068.1924],[8.6932,60.9227,1073.428],[8.7114,60.9242,1101.6105],[8.713,60.9198,1107.8027],[8.7312,60.9213,1102.014],[8.7328,60.9169,1129.0378],[8.751,60.9184,1096.88],[8.7526,60.914,1088.5869],[8.7617,60.9147,1051.9813],[8.7633,60.9103,1067.3074],[8.7724,60.9111,1054.3416],[8.774,60.9067,1070.7769],[8.7831,60.9074,1067.3043],[8.7847,60.903,1100.0692],[8.7938,60.9038,1075.4802],[8.7953,60.8993,1101.6912],[8.8227,60.9016,1009.6248],[8.8242,60.8972,1037.7742],[8.8607,60.9002,891.4308],[8.8623,60.8958,906.016],[8.8805,60.8973,862.1475],[8.8851,60.884,858.6213],[8.8943,60.8848,836.6142],[8.9005,60.8671,817.0],[8.9096,60.8678,817.0],[8.9111,60.8634,817.0],[8.9202,60.8642,817.0],[8.9218,60.8598,817.0],[8.94,60.8613,817.0],[8.9415,60.8568,817.0],[8.9506,60.8576,817.0],[8.9522,60.8532,817.0],[8.9613,60.8539,817.0],[8.9628,60.8495,817.0],[8.9719,60.8502,817.0],[8.9735,60.8458,817.0],[8.9917,60.8473,817.0],[8.9932,60.8429,817.0],[9.0023,60.8436,817.0],[9.0038,60.8392,817.0],[9.0129,60.8399,817.0],[9.0145,60.8355,817.2603],[9.0236,60.8363,812.3859],[9.0251,60.8318,828.6226],[9.0433,60.8333,809.5153],[9.0448,60.8289,820.7843],[9.0539,60.8296,813.8655],[9.0555,60.8252,812.3875],[9.0646,60.826,806.2463],[9.0661,60.8215,811.9055],[9.0843,60.823,812.5782],[9.0858,60.8186,812.6066],[9.0949,60.8193,817.1927],[9.0964,60.8149,825.875],[9.1055,60.8156,830.2629],[9.107,60.8112,831.6747],[9.1161,60.812,832.6451],[9.1176,60.8075,838.2864],[9.1358,60.809,856.7877],[9.1373,60.8046,853.5266],[9.1464,60.8053,863.1378],[9.1479,60.8009,880.4824],[9.157,60.8016,879.2466],[9.1586,60.7972,917.8824],[9.1676,60.7979,897.0734],[9.1692,60.7935,947.4648],[9.1782,60.7942,914.9982],[9.1798,60.7898,955.663],[9.1888,60.7905,948.3329],[9.1904,60.7861,1034.2931],[9.1994,60.7868,1041.627],[9.2024,60.778,1084.4019],[9.2115,60.7787,1072.4783],[9.213,60.7743,1090.0978],[9.2221,60.775,1066.0441],[9.2236,60.7706,1116.2279],[9.2418,60.7721,1115.1906],[9.2433,60.7676,1212.2251],[9.2615,60.7691,1038.5455],[9.263,60.7647,1122.6062],[9.272,60.7654,1115.9103],[9.2735,60.761,1037.8347],[9.2917,60.7624,1079.37],[9.2962,60.7491,1118.9337],[9.3053,60.7499,1082.1176],[9.3082,60.741,1109.8727],[9.3173,60.7417,1078.2042],[9.3203,60.7329,1097.197],[9.3294,60.7336,1042.5787],[9.3353,60.7159,914.4941],[9.3262,60.7152,928.6115],[9.3307,60.7019,820.4795],[9.3216,60.7012,822.7404],[9.3261,60.6879,920.4689],[9.317,60.6871,933.6666],[9.32,60.6783,926.8303],[9.329,60.679,918.1453],[9.332,60.6702,834.899],[9.341,60.6709,835.3939],[9.3425,60.6665,855.6763],[9.3516,60.6672,850.2958],[9.3531,60.6628,876.5767],[9.3621,60.6635,872.0885],[9.3636,60.659,857.4788],[9.3545,60.6583,905.4506],[9.3678,60.6185,823.881],[9.3769,60.6192,747.2677],[9.3783,60.6148,758.9769],[9.3874,60.6155,747.4143],[9.3888,60.611,822.4356],[9.4069,60.6125,747.2228],[9.4084,60.6081,774.049],[9.4174,60.6088,747.715],[9.4189,60.6043,792.103],[9.4279,60.6051,748.6816],[9.4323,60.5918,758.2347],[9.4233,60.5911,702.1252],[9.4248,60.5866,723.0571],[9.4157,60.5859,651.4874],[9.4186,60.5771,666.5446],[9.4096,60.5763,608.9676],[9.4184,60.5498,609.353],[9.4274,60.5505,639.5023],[9.4289,60.5461,601.1728],[9.4379,60.5468,586.3567],[9.4394,60.5423,575.7716],[9.4574,60.5438,572.3036],[9.4589,60.5393,571.5748],[9.4679,60.5401,579.6608],[9.4693,60.5356,571.5241],[9.4784,60.5363,609.5453],[9.4798,60.5319,575.4162],[9.4888,60.5326,597.6545],[9.4903,60.5282,568.1798],[9.5354,60.5317,546.4804],[9.534,60.5362,551.2101],[9.6062,60.5418,583.3885],[9.6205,60.4975,1157.1161],[9.6386,60.4989,1222.532],[9.64,60.4945,1228.6162],[9.649,60.4952,1191.1619],[9.6504,60.4907,1138.4882],[9.6594,60.4915,1085.8812],[9.6609,60.487,1089.27],[9.6699,60.4877,1106.7418],[9.6713,60.4833,1195.0613],[9.6893,60.4847,1112.9491],[9.6908,60.4803,1139.5718],[9.6998,60.481,1142.3871],[9.7012,60.4765,1121.2826],[9.7102,60.4772,1177.3739],[9.7116,60.4728,1157.0055],[9.7296,60.4742,1126.8877],[9.7311,60.4697,1094.5463],[9.7401,60.4704,1073.63],[9.7415,60.466,1061.8757],[9.7505,60.4667,1087.4384],[9.7519,60.4623,1000.3143],[9.7699,60.4637,1131.3649],[9.7713,60.4592,1117.0323],[9.7803,60.4599,1132.8739],[9.7818,60.4555,1110.2467],[9.8268,60.4589,602.9965],[9.8015,60.5387,321.1893],[9.8105,60.5394,308.8769],[9.8063,60.5527,445.9758],[9.8154,60.5534,489.6713],[9.8111,60.5667,557.6254],[9.8202,60.5674,621.2188],[9.8174,60.5763,656.0607],[9.8264,60.577,762.0631],[9.825,60.5814,766.6141],[9.834,60.5821,658.5465],[9.8326,60.5865,654.425],[9.8417,60.5872,531.8557],[9.8431,60.5828,531.3031],[9.8883,60.5862,553.8123],[9.8869,60.5906,482.9352],[9.9322,60.5941,459.431],[9.9308,60.5985,423.0801],[9.9398,60.5992,434.8953],[9.937,60.6081,297.5458],[9.9461,60.6087,288.8179],[9.9433,60.6176,165.6719],[9.9342,60.6169,155.5491],[9.9328,60.6214,177.5914],[9.9238,60.6207,166.1444],[9.9224,60.6251,175.0845],[9.9133,60.6244,149.5],[9.9105,60.6333,206.4961],[9.9015,60.6326,156.5952],[9.9001,60.6371,174.6393],[9.9273,60.6391,325.7477],[9.9287,60.6347,325.6843],[10.0012,60.6401,421.8075],[10.0025,60.6357,490.1911],[10.0207,60.637,592.9938],[10.022,60.6326,608.8872],[10.0311,60.6333,644.2997],[10.0339,60.6244,694.0871],[10.0429,60.6251,692.9659],[10.0471,60.6118,709.3367],[10.0561,60.6124,723.8198],[10.0589,60.6036,711.2464],[10.0679,60.6042,725.9406],[10.0721,60.5909,672.2531],[10.0811,60.5916,624.0436],[10.0907,60.5605,512.1404],[10.0998,60.5612,399.2263],[10.1025,60.5523,332.3877],[10.1115,60.553,318.7015],[10.1143,60.5441,282.394],[10.1233,60.5448,247.4611],[10.126,60.5359,228.0],[10.1351,60.5366,281.6313],[10.1392,60.5233,263.7087],[10.1482,60.524,239.2931],[10.1577,60.4929,473.498],[10.1667,60.4936,436.5572],[10.1708,60.4802,418.3633],[10.1798,60.4809,371.6741],[10.1812,60.4765,358.7169],[10.1722,60.4758,396.3844],[10.1762,60.4625,399.899],[10.1672,60.4618,381.0],[10.1929,60.3775,288.6246],[10.2019,60.3782,229.152],[10.2059,60.3649,283.6426],[10.2149,60.3655,350.553],[10.2203,60.3478,360.1308],[10.2292,60.3484,428.2106],[10.2333,60.3351,356.0228],[10.2422,60.3358,408.2072],[10.2463,60.3225,387.7442],[10.2552,60.3231,393.0478],[10.2592,60.3098,369.2773],[10.2682,60.3105,349.5499],[10.2722,60.2972,353.3345],[10.2812,60.2978,341.13],[10.2838,60.2889,358.3309],[10.2928,60.2896,376.6154],[10.2968,60.2763,408.0348],[10.3058,60.2769,429.3006],[10.3097,60.2636,451.2342],[10.3187,60.2643,465.6408],[10.32,60.2598,453.9829],[10.3111,60.2592,427.9976],[10.3137,60.2503,380.4152],[10.3048,60.2496,378.4296],[10.3074,60.2408,338.1199],[10.3164,60.2414,295.338],[10.319,60.2325,212.6553],[10.328,60.2332,213.0123],[10.3306,60.2243,202.6511],[10.3396,60.225,155.6448],[10.3409,60.2205,206.7419],[10.3498,60.2212,193.5002],[10.3512,60.2168,126.1995],[10.378,60.2187,197.2312],[10.3793,60.2143,259.9348],[10.4062,60.2162,398.9792],[10.4075,60.2118,448.9964],[10.4165,60.2124,487.6331],[10.4178,60.208,517.3224],[10.4267,60.2086,489.9677],[10.428,60.2042,585.3865],[10.437,60.2048,528.017],[10.4383,60.2004,538.4199],[10.4472,60.201,566.7109],[10.4498,60.1922,523.2477],[10.4588,60.1928,560.3307],[10.4601,60.1884,531.2342],[10.469,60.189,540.7325],[10.4703,60.1846,549.4495],[10.4793,60.1852,539.6293],[10.4806,60.1808,538.5889],[10.4895,60.181399999999996,509.5733],[10.4908,60.177,483.2176],[10.4998,60.1776,551.6249],[10.5011,60.1732,535.4584],[10.5279,60.1751,526.7607],[10.5292,60.1707,485.8332],[10.556,60.1726,478.6122],[10.5586,60.1637,474.5596],[10.5675,60.1644,473.7284],[10.5714,60.151,460.3917],[10.5803,60.1517,469.1551],[10.5842,60.1383,507.9893],[10.5931,60.139,461.8987],[10.5957,60.1301,497.6584],[10.6225,60.132,567.3047],[10.6238,60.1276,520.7579],[10.6416,60.1288,420.8145],[10.6429,60.1244,389.2001],[10.6697,60.1263,408.7187],[10.671,60.1218,396.3341],[10.6978,60.1237,411.7682],[10.6965,60.1282,427.1296],[10.6876,60.1275,445.9457],[10.6838,60.1409,435.1206],[10.6748,60.1402,440.1284],[10.6723,60.1491,456.7818],[10.6902,60.1504,369.3037],[10.6889,60.1548,380.914],[10.7247,60.1574,235.0216],[10.7336,60.158,301.3829],[10.7349,60.1535,254.4697],[10.7528,60.1548,287.5104],[10.7515,60.1592,461.2261],[10.7605,60.1599,435.7753],[10.7592,60.1643,518.9619],[10.7682,60.1649,459.5955],[10.7656,60.1738,633.8511],[10.7746,60.1744,583.4833],[10.7696,60.1922,519.5201],[10.7606,60.1916,632.4633],[10.7543,60.2138,580.5811],[10.7722,60.2151,474.4288],[10.771,60.2195,490.8189],[10.7799,60.2201,563.4318],[10.7749,60.2379,551.6857],[10.7838,60.2385,585.0989],[10.7813,60.2474,505.0898],[10.7903,60.248,513.3434],[10.7878,60.2569,520.7228],[10.7967,60.2576,542.4045],[10.7955,60.262,549.1306],[10.8045,60.2626,537.6165],[10.8019,60.2715,491.6645],[10.8109,60.2721,463.0806],[10.8097,60.2766,347.0012],[10.8186,60.2772,336.0447],[10.8174,60.2816,325.0166],[10.8264,60.2823,337.0644],[10.8251,60.2867,367.1864],[10.8341,60.2873,385.1138],[10.8328,60.2918,468.6016],[10.8418,60.2924,452.5511],[10.8406,60.2968,500.9643],[10.8496,60.2975,454.1096]],
[[10.7129,60.5187,524.2137],[10.7141,60.5147,530.4673],[10.705,60.514,550.968],[10.7037,60.5185,544.7498],[10.7128,60.5191,523.8539],[10.7129,60.5187,524.2137]]]]}
,"properties": {"GID_1": "NOR.11_1","GID_0": "NOR","country": "Norway","province": "Oppland","VARNAME_1": "Opplandfylke|Kristian|Opland|Up","NL_NAME_1": "NA","TYPE_1": "Fylke","ENGTYPE_1": "County","CC_1": "NA","HASC_1": "NO.OP","ISO_1": "NA","name": "Oppland.province","area_km2": 25008.46,"hist_schema_id": "Elevation0-9000","hist_area_km2": {"125": 258.96,"150": 73.54,"175": 118.41,"200": 112.98,"225": 115.56,"250": 140.75,"275": 147.95,"300": 169.79,"325": 176.84,"350": 225.69,"375": 290.72,"400": 322.85,"425": 365.32,"450": 356.85,"475": 375.16,"500": 391.34,"525": 405.39,"550": 424.79,"575": 394.06,"600": 390.91,"625": 391.19,"650": 373.95,"675": 375.06,"700": 386.04,"725": 398.44,"750": 388.55,"775": 414.97,"800": 468.49,"825": 548.43,"850": 668.38,"875": 703.33,"900": 755.31,"925": 762.14,"950": 739.19,"975": 727.19,"1000": 706.04,"1025": 697.08,"1050": 644.73,"1075": 586.64,"1100": 505.64,"1125": 465.64,"1150": 446.8,"1175": 441.88,"1200": 416.23,"1225": 414.26,"1250": 391.79,"1275": 401.62,"1300": 394.94,"1325": 390.58,"1350": 364.91,"1375": 371.43,"1400": 349.35,"1425": 333.9,"1450": 318.63,"1475": 305.57,"1500": 300.38,"1525": 272.59,"1550": 249.1,"1575": 213.8,"1600": 195.61,"1625": 176.69,"1650": 160.75,"1675": 149.22,"1700": 136.19,"1725": 119.9,"1750": 104.63,"1775": 87.79,"1800": 78.36,"1825": 71.0,"1850": 61.78,"1875": 54.58,"1900": 45.32,"1925": 38.9,"1950": 31.94,"1975": 26.75,"2000": 23.61,"2025": 20.61,"2050": 18.35,"2075": 15.49,"2100": 12.48,"2125": 10.27,"2150": 8.19,"2175": 5.66,"2200": 4.44,"2225": 2.83,"2250": 1.91,"2275": 1.18,"2300": 0.84,"2325": 0.4,"2350": 0.24,"2425": 0.2}}}