{"type":"Feature","properties":{"GID_2":"NOR.18.6_1","GID_0":"NOR","country":"Norway","GID_1":"NOR.18_1","province":"Vest-Agder","NL_NAME_1":"NA","county":"Kristiansand","VARNAME_2":"NA","NL_NAME_2":"NA","TYPE_2":"Kommuner","ENGTYPE_2":"Municipality","CC_2":"NA","HASC_2":"NO.VA.KR","name":"Kristiansand.county"},
"geometry":{"type": "MultiPolygon","coordinates": [[[[7.9242,58.054,0.0],[7.9269,58.0574,0.0],[7.9147,58.0563,0.0],[7.9186,58.0537,0.0],[7.9242,58.054,0.0]]],
[[[8.0136,58.0582,0.6897],[8.0108,58.059,0.0],[8.0086,58.0563,0.0],[8.0147,58.0571,0.0],[8.0136,58.0582,0.6897]]],
[[[8.0192,58.0601,0.0],[8.0192,58.0618,1.1391],[8.0153,58.0626,0.0],[8.0119,58.0593,1.1177],[8.0164,58.0588,0.0],[8.0192,58.0601,0.0]]],
[[[7.9331,58.0693,2.0221],[7.9186,58.0696,0.0],[7.9153,58.0674,0.0],[7.9308,58.0665,0.0],[7.9375,58.0682,2.5271],[7.9331,58.0693,2.0221]]],
[[[7.9469,58.0699,0.0],[7.9458,58.0715,0.0],[7.9425,58.071,0.5686],[7.9447,58.0682,0.0],[7.9469,58.0699,0.0]]],
[[[8.0014,58.0924,1.5203],[7.9947,58.0929,0.0],[7.9942,58.0901,3.4961],[7.9908,58.0874,0.6479],[7.9903,58.0854,0.0],[7.9958,58.0829,0.8348],[7.9964,58.0812,2.0474],[7.9875,58.0846,0.5816],[7.9875,58.0801,0.0],[7.9908,58.0774,2.7977],[7.9858,58.0726,1.5234],[7.9842,58.0738,15.1138],[7.9869,58.0746,4.8391],[7.9875,58.0774,0.0],[7.9836,58.0804,9.9646],[7.9681,58.0782,0.0],[7.9692,58.0765,16.0579],[7.9625,58.0715,0.8126],[7.9625,58.0668,0.0],[7.9664,58.0658,1.4346],[7.9642,58.0635,0.0],[7.9692,58.0596,1.2028],[7.9731,58.0588,0.4334],[7.9736,58.0599,0.4334],[7.9714,58.061,5.2584],[7.9719,58.0646,2.3606],[7.9747,58.0654,0.0],[7.9757999999999996,58.068,2.0907],[7.9781,58.0663,2.0695],[7.9769,58.0654,3.3298],[7.9775,58.0615,0.0],[7.9814,58.0615,2.5661],[7.9792,58.0576,0.0],[7.9847,58.0588,2.1944],[7.9842,58.061,2.5661],[7.9858,58.0635,0.0],[7.9892,58.0632,3.4186],[7.9914,58.0604,0.0],[8.0014,58.0621,1.5653],[8.0058,58.0607,0.7616],[8.0064,58.0621,0.0],[8.0031,58.0626,0.672],[8.0042,58.066,0.8395],[8.0103,58.0676,3.744],[8.0142,58.066,0.0],[8.0169,58.0685,0.0],[8.0108,58.0696,0.0],[8.0136,58.0715,1.7107],[8.0125,58.0732,2.6023],[8.0142,58.0749,0.0],[8.0092,58.0724,4.9211],[8.0069,58.0738,5.5188],[8.0075,58.0774,0.6929],[8.0025,58.0801,2.2632],[8.0114,58.0793,0.0],[8.0119,58.0768,0.0],[8.0175,58.0751,0.0],[8.0208,58.0754,0.0],[8.0197,58.0776,0.6314],[8.0258,58.0799,0.6259],[8.0264,58.0768,0.9646],[8.0236,58.0749,0.0],[8.0264,58.0735,0.7833],[8.0258,58.0707,1.5567],[8.0281,58.0726,0.7833],[8.0275,58.0779,0.9921],[8.0325,58.079,0.0],[8.0303,58.0815,10.0301],[8.0269,58.0821,0.0],[8.0286,58.0835,0.0],[8.0275,58.0846,0.0],[8.0197,58.0854,7.0967],[8.0219,58.0879,1.0939],[8.0169,58.0893,1.6263],[8.0158,58.0879,2.1709],[8.0108,58.0876,3.0056],[8.0014,58.0924,1.5203]]],
[[[7.9342,58.0776,0.0],[7.9342,58.079,0.0],[7.9286,58.079,0.0],[7.9264,58.0765,0.0],[7.9331,58.0757,0.8742],[7.9342,58.0776,0.0]]],
[[[8.0019,58.094,0.0],[8.0003,58.0951,0.8213],[7.9981,58.0946,0.0],[7.9986,58.0935,0.0],[8.0019,58.094,0.0]]],
[[[8.0164,58.0632,1.4145],[8.0236,58.0612,0.0],[8.0264,58.0657,0.0],[8.0219,58.0654,2.9728],[8.0186,58.0671,0.0],[8.0153,58.0643,3.0374],[8.0164,58.0632,1.4145]]],
[[[8.0269,58.069,0.0],[8.0225,58.0701,0.8351],[8.0208,58.0679,0.0],[8.0253,58.0674,0.6927],[8.0269,58.069,0.0]]],
[[[8.0542,58.0757,1.5529],[8.0547,58.0776,0.9432],[8.0514,58.0774,0.9432],[8.0503,58.0718,0.0],[8.0542,58.0704,0.0],[8.0581,58.0732,0.0],[8.0581,58.0746,0.0],[8.0542,58.0757,1.5529]]],
[[[8.0236,58.0926,0.0],[8.0197,58.094,0.0],[8.0169,58.0913,2.8493],[8.0203,58.0907,0.0],[8.0203,58.0921,4.4752],[8.0236,58.0926,0.0]]],
[[[7.9997,58.109,0.0],[7.9958,58.1096,1.5582],[7.9947,58.1079,0.0],[8.0003,58.1082,0.0],[7.9997,58.109,0.0]]],
[[[7.9903,58.1243,0.0],[7.9858,58.1246,1.2419],[7.9819,58.1188,2.8907],[7.9853,58.116,3.6256],[8.0025,58.1135,0.0],[8.0053,58.1143,0.5117],[8.0025,58.1154,2.7756],[8.0092,58.1157,0.0],[8.0064,58.1182,7.6576],[8.0014,58.1188,3.8523],[8.0069,58.1221,0.0],[7.9892,58.1218,10.1768],[7.9903,58.1243,0.0]]],
[[[8.0019,58.1271,0.0],[7.9986,58.1276,0.0],[7.9969,58.1276,0.0],[8.0036,58.1254,0.0],[8.0019,58.1271,0.0]]],
[[[8.0914,58.081,0.0],[8.0875,58.0815,0.2944],[8.0881,58.0788,0.3604],[8.0908,58.079,0.6216],[8.0914,58.081,0.0]]],
[[[8.1047,58.0851,0.0],[8.1047,58.0876,0.0],[8.1008,58.0868,0.8688],[8.1008,58.0846,0.0],[8.1047,58.0851,0.0]]],
[[[8.1175,58.0871,3.7263],[8.1203,58.0863,0.0],[8.1214,58.0896,0.0],[8.1175,58.089,1.6695],[8.1164,58.0874,1.0938],[8.1175,58.0871,3.7263]]],
[[[8.1064,58.0924,3.7226],[8.1075,58.0949,1.3316],[8.1047,58.0951,7.0564],[8.1008,58.0935,2.273],[8.1008,58.091,2.0827],[8.1031,58.0899,2.3691],[8.1064,58.0924,3.7226]]],
[[[8.0931,58.0935,0.0],[8.0931,58.0949,0.0],[8.0908,58.0951,1.4992],[8.0914,58.0921,0.0],[8.0931,58.0935,0.0]]],
[[[8.1397,58.1032,3.2097],[8.1314,58.1032,3.2271],[8.1314,58.1018,1.9323],[8.1353,58.101,7.6754],[8.1319,58.0979,2.2126],[8.1319,58.0949,0.0],[8.1342,58.0949,0.0],[8.1364,58.0976,3.6586],[8.1392,58.0962,0.0],[8.1353,58.0949,3.3013],[8.1364,58.0924,0.0],[8.1436,58.0951,0.0],[8.1436,58.0982,0.0],[8.1464,58.1004,0.0],[8.1397,58.1032,3.2097]]],
[[[8.1086,58.1132,0.0],[8.1019,58.1138,0.0],[8.1019,58.1096,0.0],[8.1047,58.1076,13.4823],[8.1008,58.1049,6.1745],[8.1008,58.1029,1.5514],[8.1031,58.1013,2.2622],[8.1008,58.1007,0.5159],[8.1003,58.0982,0.0],[8.1031,58.0962,1.8889],[8.1053,58.0993,1.8012],[8.1075,58.0996,6.6021],[8.1081,58.0968,0.0],[8.1136,58.0974,5.1519],[8.1136,58.0924,5.8708],[8.1097,58.0921,1.2953],[8.1097,58.0899,2.0193],[8.1158,58.0879,1.0938],[8.1158,58.0901,2.5664],[8.1186,58.0904,1.6695],[8.1203,58.0929,1.4987],[8.1192,58.0951,0.9841],[8.1219,58.0968,0.0],[8.1203,58.1001,3.6815],[8.1219,58.1051,0.0],[8.1069,58.1079,3.345],[8.1075,58.1107,3.6503],[8.1092,58.1113,0.0],[8.1086,58.1132,0.0]]],
[[[8.0897,58.1065,0.726],[8.0886,58.1085,2.2719],[8.0864,58.1087,2.2719],[8.0864,58.1054,0.0],[8.0892,58.1051,0.0],[8.0897,58.1065,0.726]]],
[[[8.0353,58.0965,0.0],[8.0336,58.0974,0.0],[8.0308,58.0946,0.0],[8.0336,58.0938,1.8738],[8.0353,58.0965,0.0]]],
[[[8.0597,58.1135,0.0],[8.0542,58.1146,1.2796],[8.0536,58.1124,1.0197],[8.0564,58.1115,0.0],[8.0564,58.1082,0.0],[8.0592,58.1043,0.0],[8.0614,58.104,0.0],[8.0631,58.1049,0.0],[8.0631,58.109,0.0],[8.0586,58.111,4.8191],[8.0597,58.1135,0.0]]],
[[[8.0831,58.1243,0.4169],[8.0803,58.1251,0.8765],[8.0808,58.1221,0.6767],[8.0858,58.1224,0.0],[8.0847,58.124,2.7098],[8.0831,58.1243,0.4169]]],
[[[8.0503,58.1335,11.4597],[8.0475,58.1351,7.5882],[8.0431,58.1299,0.0],[8.0519,58.1307,0.0],[8.0503,58.1335,11.4597]]],
[[[8.0803,58.121,2.1084],[8.0758,58.1207,1.6617],[8.0781,58.1179,1.2599],[8.0825,58.1188,1.8759],[8.0803,58.116,6.7062],[8.0814,58.1138,5.4324],[8.0864,58.1143,13.755],[8.0864,58.1126,4.1189],[8.0919,58.1126,2.692],[8.0958,58.114,7.0378],[8.0953,58.1165,2.435],[8.0931,58.1177,2.2457],[8.0803,58.121,2.1084]]],
[[[8.1814,58.1268,0.0],[8.1786,58.1276,1.2357],[8.1764,58.1251,0.0],[8.1786,58.1254,0.0],[8.1814,58.1268,0.0]]],
[[[8.0453,58.1399,5.4676],[8.0453,58.1429,0.0],[8.0442,58.1429,1.39],[8.0419,58.1385,0.0],[8.0453,58.139,5.4676],[8.0492,58.1351,0.0],[8.0531,58.1374,0.0],[8.0503,58.1424,0.8461],[8.0475,58.1424,1.8756],[8.0453,58.1399,5.4676]]],
[[[8.057,58.2826,171.7916],[8.0485,58.2817,216.6742],[8.0455,58.2906,229.3371],[8.0371,58.2898,222.6645],[8.0386,58.2854,205.568],[8.0302,58.2845,203.7219],[8.0317,58.2801,262.5599],[8.0233,58.2793,256.2437],[8.0248,58.2749,218.4813],[8.0164,58.2741,225.7442],[8.0179,58.2697,205.0388],[8.0095,58.2689,223.2037],[8.011,58.2645,185.5349],[8.0026,58.2637,134.0783],[8.0056,58.2548,148.9395],[7.9972,58.254,148.0653],[7.9988,58.2496,115.7585],[7.9903,58.2488,92.4064],[7.9934,58.24,232.8404],[7.985,58.2392,194.6834],[7.988,58.2304,271.235],[7.9796,58.2295,243.6576],[7.9811,58.2251,242.5193],[7.9475,58.2219,124.8511],[7.946,58.2263,162.2854],[7.9376,58.2255,5.7699],[7.9346,58.2343,16.8424],[7.9262,58.2335,37.4567],[7.9246,58.2379,163.0012],[7.9162,58.2371,171.109],[7.9132,58.2459,230.1523],[7.9048,58.2451,269.1015],[7.9017,58.2539,287.9832],[7.8765,58.2515,235.8592],[7.878,58.2471,224.1288],[7.8612,58.2455,248.3956],[7.8627,58.241,242.8711],[7.8543,58.2402,245.0497],[7.8574,58.2314,267.9279],[7.849,58.2306,249.8675],[7.8536,58.2174,266.311],[7.8452,58.2165,246.6841],[7.8544,58.1901,205.6401],[7.8628,58.1909,210.4373],[7.8644,58.1865,160.9141],[7.8811,58.1881,207.2502],[7.8857,58.1749,87.1258],[7.8941,58.1757,86.6377],[7.9018,58.1536,152.4649],[7.8934,58.1528,184.0476],[7.8949,58.1484,172.3387],[7.8865,58.1476,154.9213],[7.8896,58.1388,101.3001],[7.898,58.1396,76.9736],[7.9026,58.1263,116.6147],[7.9087,58.1087,70.4865],[7.9003,58.1079,57.7388],[7.9018,58.1035,33.4292],[7.9102,58.1043,122.2897],[7.9132,58.0955,67.464],[7.9216,58.0963,90.4309],[7.9252,58.0859,27.5535],[7.9281,58.0874,0.0],[7.9258,58.0907,5.8745],[7.9292,58.0904,0.0],[7.9342,58.0943,23.3678],[7.9331,58.091,1.5362],[7.9303,58.0893,0.0],[7.9425,58.0849,8.0848],[7.9419,58.0824,13.1364],[7.9447,58.0801,4.2624],[7.9431,58.0785,1.8708],[7.9442,58.0771,12.814],[7.9525,58.0754,0.0],[7.9519,58.0779,5.4008],[7.9569,58.0779,0.0],[7.9581,58.0799,0.7194],[7.9603,58.0801,0.7194],[7.9542,58.084,10.9862],[7.9531,58.0865,0.0],[7.9608,58.0863,3.3107],[7.9631,58.0826,2.2374],[7.9686,58.0835,0.0],[7.9664,58.0846,2.2406],[7.9719,58.0857,2.9618],[7.9692,58.0882,1.6047],[7.9747,58.0871,10.002],[7.9753,58.0882,0.0],[7.9731,58.0896,2.463],[7.9753,58.0896,1.0145],[7.9781,58.0926,0.0],[7.9781,58.094,0.0],[7.9736,58.0943,11.1823],[7.9747,58.0965,20.1985],[7.9719,58.0993,15.4894],[7.9847,58.1004,0.0],[7.9853,58.0988,2.5024],[7.9886,58.0982,0.0],[7.9875,58.1004,0.0],[7.9908,58.1015,0.0],[7.9892,58.1049,0.0],[7.9825,58.1054,6.0143],[7.9831,58.1032,1.1437],[7.9803,58.1026,1.2606],[7.9781,58.1071,3.8677],[7.9842,58.1076,3.3262],[7.9903,58.106,1.987],[7.9897,58.1087,0.0],[7.9947,58.1104,1.5735],[7.9886,58.1118,0.0],[7.9864,58.1104,23.0258],[7.9853,58.1124,3.0654],[7.9886,58.1124,3.045],[7.9892,58.1138,0.0],[7.9819,58.116,0.0],[7.9647,58.1154,15.4847],[7.9592,58.1126,0.0],[7.9547,58.1138,2.7351],[7.9625,58.1151,11.5921],[7.9669,58.1176,0.0],[7.9647,58.1199,0.0],[7.9714,58.1213,1.3499],[7.9719,58.1229,4.2585],[7.9786,58.1257,0.0],[7.9781,58.1293,5.1414],[7.9814,58.1299,0.0],[7.9675,58.1349,7.1317],[7.9681,58.1363,1.6224],[7.9786,58.1365,0.0],[7.9797,58.1407,7.5487],[7.9847,58.141,0.3205],[7.9892,58.1435,0.0],[7.9903,58.1415,1.4145],[7.9869,58.1396,0.0],[7.9952,58.1379,0.0],[7.9942,58.1357,0.0],[7.9981,58.1349,13.3468],[7.9969,58.1326,0.0],[8.0081,58.1296,0.0],[8.0119,58.1304,0.0],[8.0136,58.1329,6.857],[8.0003,58.141,0.4403],[8.0053,58.1435,0.0],[8.0064,58.1457,3.4955],[8.0108,58.1435,0.0],[8.0136,58.1446,0.0],[8.0147,58.1426,3.447],[8.0181,58.1421,3.1002],[8.0186,58.1435,3.1002],[8.0264,58.1426,0.0],[8.0258,58.1454,3.5949],[8.0353,58.1443,2.3268],[8.0392,58.1468,0.0],[8.0386,58.1512,0.0],[8.0342,58.1499,4.5859],[8.0353,58.1521,0.0],[8.0303,58.1532,12.5203],[8.0364,58.1574,6.4948],[8.0453,58.1579,0.0],[8.0458,58.1593,0.0],[8.0425,58.1635,12.8474],[8.0492,58.1637,2.3978],[8.0453,58.1665,2.1676],[8.0469,58.1679,0.0],[8.0464,58.1715,8.1203],[8.0442,58.1718,43.0536],[8.0431,58.1743,10.0872],[8.0492,58.1768,0.0],[8.0469,58.179,0.0],[8.0375,58.1821,7.9741],[8.0431,58.1829,11.0232],[8.0486,58.1813,0.0],[8.0514,58.1829,0.0],[8.0514,58.1851,0.0],[8.0492,58.1874,2.9494],[8.0497,58.1888,0.0],[8.0436,58.1907,3.2224],[8.0364,58.1979,2.2334],[8.0436,58.1979,0.0],[8.0447,58.2001,25.9078],[8.0547,58.2004,0.0],[8.0531,58.2026,5.9546],[8.0542,58.2044,6.9259],[8.0531,58.2068,1.4401],[8.0497,58.2076,0.0],[8.0514,58.209,0.0],[8.0458,58.2104,22.4655],[8.0464,58.2124,15.5581],[8.0508,58.2146,3.5556],[8.0508,58.2165,4.4995],[8.0447,58.2196,36.1044],[8.0436,58.221,6.8803],[8.0447,58.2218,6.8803],[8.0392,58.2255,0.0],[8.0314,58.2293,0.0],[8.0264,58.2293,0.0],[8.0236,58.231,11.952],[8.0314,58.2357,16.6629],[8.0369,58.2329,35.3974],[8.0392,58.2293,11.9409],[8.0442,58.2287,0.0],[8.0469,58.2224,38.0082],[8.0525,58.2174,29.0477],[8.0592,58.2154,21.7868],[8.0608,58.209,3.2693],[8.0653,58.2065,0.0],[8.0642,58.2046,0.0],[8.0653,58.2035,0.0],[8.0708,58.2001,2.443],[8.0697,58.1988,2.443],[8.0725,58.1951,0.0],[8.0903,58.1993,0.0],[8.0897,58.1979,1.3746],[8.0753,58.1921,1.9416],[8.0758,58.1904,0.0],[8.0853,58.1893,5.3886],[8.0869,58.186,8.4489],[8.0814,58.1846,0.0],[8.0825,58.1793,6.0946],[8.0797,58.1763,0.0],[8.0719,58.1749,3.9834],[8.0736,58.1724,15.6673],[8.0858,58.1696,5.8956],[8.0853,58.1679,2.4954],[8.0886,58.1668,6.2445],[8.0847,58.1657,0.0],[8.0814,58.1679,9.9509],[8.0769,58.1679,0.0],[8.0753,58.1651,3.2392],[8.0792,58.1618,15.5348],[8.0725,58.1621,0.0],[8.0731,58.1637,0.0],[8.0692,58.1651,8.6857],[8.0614,58.1629,12.5448],[8.0492,58.1524,0.757],[8.0503,58.1499,9.5737],[8.0469,58.1499,1.8408],[8.0492,58.1485,13.6389],[8.0492,58.1465,6.2018],[8.0514,58.1451,27.1041],[8.0508,58.1435,0.8461],[8.0553,58.1382,5.5552],[8.0592,58.1368,4.099],[8.0575,58.136,5.4647],[8.0581,58.1349,0.0],[8.0625,58.1343,2.0129],[8.0631,58.1354,2.0129],[8.0608,58.1371,5.0869],[8.0653,58.1374,15.76],[8.0658,58.1413,5.4019],[8.0753,58.1413,4.649],[8.0681,58.1354,9.9556],[8.0664,58.1304,11.0308],[8.0597,58.1243,9.6292],[8.0597,58.1213,1.3454],[8.0636,58.1218,3.5644],[8.0619,58.1193,5.8306],[8.0658,58.1179,1.0395],[8.0714,58.1243,12.1873],[8.0781,58.1237,0.0],[8.0786,58.1265,4.3484],[8.0808,58.1276,1.5021],[8.0758,58.1299,5.2517],[8.0842,58.1299,0.8008],[8.0858,58.1312,2.7161],[8.0836,58.1335,9.8768],[8.0875,58.1338,15.9688],[8.0908,58.1318,25.3863],[8.0847,58.1299,0.8008],[8.0836,58.1252,0.4169],[8.0869,58.124,16.3231],[8.0875,58.1218,0.0],[8.0953,58.1188,9.9592],[8.0997,58.119,5.0152],[8.1019,58.1165,0.0],[8.1131,58.1157,2.5289],[8.1147,58.1146,0.0],[8.1136,58.1101,0.0],[8.1203,58.1085,0.0],[8.1264,58.1096,4.1725],[8.1219,58.1129,0.0],[8.1319,58.1146,5.7557],[8.1336,58.1107,2.5085],[8.1375,58.1087,5.265],[8.1375,58.1068,0.0],[8.1414,58.1063,0.525],[8.1414,58.1043,0.0],[8.1469,58.104,4.7311],[8.1503,58.1057,0.0],[8.1497,58.1076,2.0374],[8.1564,58.1099,0.0],[8.1547,58.1115,1.1329],[8.1547,58.1151,0.0],[8.1586,58.1162,2.4398],[8.1558,58.1174,10.1329],[8.1586,58.1188,16.3806],[8.1675,58.1185,0.0],[8.1664,58.1204,0.0],[8.1592,58.1226,37.4733],[8.1608,58.1232,5.7759],[8.1642,58.1221,0.0],[8.1658,58.1235,0.0],[8.1486,58.1282,27.844],[8.1669,58.1285,11.226],[8.1692,58.1252,0.0],[8.1714,58.1246,0.0],[8.1736,58.1251,0.0],[8.1747,58.1279,0.0],[8.1808,58.129,3.1784],[8.1786,58.1307,0.0],[8.1797,58.1335,0.0],[8.1836,58.1335,1.9861],[8.1753,58.1354,21.6429],[8.1825,58.1354,0.0],[8.1847,58.1374,0.0],[8.1786,58.1404,12.6606],[8.1831,58.1413,0.0],[8.1822,58.1441,55.3266],[8.1738,58.1433,55.0684],[8.1708,58.1521,73.0103],[8.1624,58.1513,75.7744],[8.158,58.1646,46.8944],[8.1496,58.1638,68.3901],[8.1451,58.177,70.1948],[8.1535,58.1778,70.1396],[8.1505,58.1866,73.3212],[8.1589,58.1874,91.9234],[8.1574,58.1918,56.5448],[8.1658,58.1926,94.385],[8.1643,58.1971,72.4188],[8.1811,58.1986,66.7586],[8.1796,58.2031,54.6655],[8.188,58.2039,83.2641],[8.1835,58.2171,86.9018],[8.1919,58.2179,94.9533],[8.1889,58.2267,162.5629],[8.1973,58.2275,138.8492],[8.1943,58.2364,168.9963],[8.2027,58.2371,133.3979],[8.2012,58.2416,147.2995],[8.2096,58.2424,122.5923],[8.2081,58.2468,127.631],[8.1997,58.246,124.2147],[8.1982,58.2504,106.5058],[8.1898,58.2496,143.6353],[8.1883,58.254,99.6266],[8.1799,58.2532,102.4017],[8.1784,58.2576,73.4133],[8.1616,58.256,19.8637],[8.1586,58.2649,51.6044],[8.167,58.2657,22.533],[8.1655,58.2701,26.6041],[8.1739,58.2709,17.879],[8.1724,58.2753,19.0899],[8.1808,58.2761,86.5322],[8.1793,58.2805,33.0439],[8.1709,58.2797,24.2024],[8.1694,58.2841,53.2821],[8.1526,58.2825,104.1173],[8.1511,58.2869,82.4732],[8.1258,58.2845,210.0314],[8.1273,58.2801,204.9261],[8.1105,58.2785,214.5892],[8.112,58.2741,153.3278],[8.1036,58.2733,161.4706],[8.1021,58.2777,231.8999],[8.0852,58.2761,175.0883],[8.0837,58.2805,193.9368],[8.0669,58.2789,146.7881],[8.0654,58.2834,201.3397],[8.057,58.2826,171.7916]]],
[[[8.0536,58.1951,10.6794],[8.0503,58.1957,0.0],[8.0486,58.1935,5.8158],[8.0442,58.194,0.0],[8.0442,58.1926,0.0],[8.0508,58.1899,0.0],[8.0558,58.1899,0.0],[8.0564,58.1921,2.2761],[8.0536,58.1951,10.6794]]]]}}