{"type": "Feature","bbox": [8.625,58.6417,9.0183,58.8719],"geometry": {"type": "MultiPolygon","coordinates": [[[[8.7623,58.6527,176.0693],[8.7638,58.6483,208.6258],[8.7723,58.6491,180.5766],[8.7737,58.6446,149.0203],[8.7908,58.6461,146.4663],[8.7922,58.6417,97.0196],[8.8092,58.6432,141.8491],[8.8078,58.6477,153.4794],[8.8419,58.6507,180.9757],[8.8376,58.6639,80.7156],[8.8461,58.6647,106.7766],[8.8432,58.6735,158.0392],[8.8518,58.6743,182.3192],[8.8475,58.6876,172.453],[8.856,58.6883,158.7054],[8.8546,58.6927,157.3724],[8.8631,58.6935,168.5423],[8.8645,58.6891,200.9396],[8.8986,58.6921,149.336],[8.9001,58.6876,168.2219],[8.9598,58.6929,158.5638],[8.9584,58.6973,163.8613],[8.9669,58.698,173.2623],[8.9655,58.7024,182.3219],[8.974,58.7032,191.1015],[8.9698,58.7165,170.7555],[8.9783,58.7172,181.4912],[8.9755,58.7261,159.904],[8.9926,58.7275,137.0678],[8.9911,58.732,188.2366],[9.0082,58.7335,133.3238],[9.0054,58.7423,203.783],[9.0139,58.743,191.5998],[9.0083,58.7607,188.9053],[8.9997,58.76,162.2508],[8.9983,58.7644,156.7917],[9.0068,58.7652,165.0829],[9.004,58.774,163.0752],[9.0126,58.7748,152.8726],[9.0097,58.7836,158.265],[9.0183,58.7844,142.0],[9.0154,58.7932,187.167],[9.0069,58.7925,208.2857],[9.0055,58.7969,212.2787],[8.9883,58.7954,163.8397],[8.9855,58.8043,198.1792],[8.994,58.805,207.1754],[8.9926,58.8094,211.959],[9.0012,58.8102,202.3662],[8.9983,58.819,239.6719],[8.9898,58.8183,266.8054],[8.9883,58.8227,263.4669],[8.9712,58.8212,240.1844],[8.9698,58.8256,233.3245],[8.9612,58.8249,240.7014],[8.9598,58.8293,247.2416],[8.9512,58.8286,236.2926],[8.9484,58.8374,244.8171],[8.9398,58.8367,239.6002],[8.9369,58.8455,219.3516],[8.9283,58.8448,259.0225],[8.9269,58.8492,268.7099],[8.9098,58.8477,385.5644],[8.9083,58.8521,320.9665],[8.8826,58.8499,379.3444],[8.8812,58.8543,328.1252],[8.864,58.8528,220.4394],[8.8626,58.8572,229.2311],[8.854,58.8565,217.1915],[8.8526,58.8609,217.1529],[8.8354,58.8594,320.5446],[8.834,58.8638,325.7403],[8.8254,58.8631,342.0885],[8.8225,58.8719,381.1899],[8.8053,58.8704,386.5952],[8.8068,58.866,399.8086],[8.7897,58.8645,379.957],[8.7911,58.86,403.3634],[8.7825,58.8593,384.691],[8.784,58.8549,436.941],[8.7668,58.8534,399.3895],[8.7683,58.8489,437.007],[8.7597,58.8482,389.7707],[8.7612,58.8438,373.4698],[8.7441,58.8422,392.2171],[8.7455,58.8378,337.3161],[8.7369,58.8371,327.5234],[8.7384,58.8326,316.1889],[8.7127,58.8304,308.8066],[8.7142,58.8259,316.3768],[8.7056,58.8252,353.4592],[8.7071,58.8207,366.4132],[8.6899,58.8192,369.8536],[8.6914,58.8148,316.6787],[8.6829,58.814,293.1714],[8.6843,58.8096,305.8378],[8.6758,58.8089,276.1816],[8.6787,58.8,331.3494],[8.6701,58.7993,291.0208],[8.6716,58.7948,224.1934],[8.663,58.7941,239.7966],[8.6674,58.7808,304.6172],[8.6589,58.78,299.5505],[8.6604,58.7756,273.6039],[8.6518,58.7749,286.6465],[8.6533,58.7704,271.3535],[8.6447,58.7697,253.8154],[8.6462,58.7652,285.2617],[8.6377,58.7645,290.6452],[8.6406,58.7556,232.4395],[8.632,58.7549,301.9808],[8.6335,58.7505,292.744],[8.625,58.7497,350.4626],[8.6352,58.7187,173.7037],[8.6438,58.7195,188.4091],[8.6496,58.7018,428.758],[8.6752,58.7041,424.2239],[8.6767,58.6997,413.5261],[8.7193,58.7035,351.1346],[8.7208,58.6991,314.5536],[8.7293,58.6998,252.1232],[8.7308,58.6954,237.6425],[8.7222,58.6947,220.3341],[8.7281,58.677,243.7797],[8.7366,58.6777,228.4875],[8.7395,58.6689,205.4409],[8.748,58.6697,206.8207],[8.7495,58.6652,213.8898],[8.758,58.666,238.0847],[8.7623,58.6527,176.0693]]]]}
,"properties": {"GID_2": "NOR.3.15_1","GID_0": "NOR","country": "Norway","GID_1": "NOR.3_1","province": "Aust-Agder","NL_NAME_1": "NA","county": "Vegårshei","VARNAME_2": "Vegårshei|Vegårdshei","NL_NAME_2": "NA","TYPE_2": "Kommuner","ENGTYPE_2": "Municipality","CC_2": "NA","HASC_2": "NO.AA.VE","name": "Vegårshei.county","area_km2": 356.6581,"hist_schema_id": "Elevation0-9000","hist_area_km2": {"75": 2.4034,"100": 3.3957,"125": 5.4652,"150": 17.0186,"175": 44.1352,"200": 85.3857,"225": 49.902,"250": 44.5583,"275": 31.9649,"300": 24.0149,"325": 15.4481,"350": 12.6109,"375": 8.1592,"400": 5.3064,"425": 3.9131,"450": 1.8897,"475": 0.9768,"500": 0.077,"525": 0.033}}}