{"type": "Feature","bbox": [16.5426,68.4499,17.316,68.5735],"geometry": {"type": "MultiPolygon","coordinates": [[[[16.9125,68.4667,0.0],[16.9292,68.4667,0.0],[16.9307,68.4682,0.0],[16.9271,68.4708,4.5485],[16.9188,68.4708,0.0],[16.9109,68.4682,0.0],[16.9125,68.4667,0.0]]],
[[[16.9505,68.4693,0.0],[16.9557,68.4693,0.0],[16.9599,68.4745,0.0],[16.9542,68.4771,0.0],[16.9505,68.4766,0.0],[16.9484,68.4734,0.0],[16.9516,68.4724,0.0],[16.9505,68.4693,0.0]]],
[[[17.316,68.5572,355.3515],[17.315,68.5662,382.0855],[17.2905,68.5658,418.7111],[17.291,68.5613,401.2706],[17.1564,68.5592,478.5788],[17.1558,68.5637,465.7624],[17.0823,68.5625,543.8302],[17.0818,68.567,533.0698],[17.0083,68.5657,589.1082],[17.0077,68.5702,562.1671],[16.9342,68.569,765.3979],[16.9336,68.5735,663.9412],[16.8479,68.5719,586.1176],[16.8485,68.5674,645.4336],[16.8363,68.5672,510.8457],[16.8369,68.5627,500.3931],[16.8247,68.5625,381.3124],[16.8253,68.558,482.6207],[16.8131,68.5578,359.8063],[16.8137,68.5533,459.036],[16.8015,68.5531,338.8228],[16.8021,68.5486,334.0333],[16.7899,68.5483,360.3473],[16.7905,68.5438,333.3732],[16.7783,68.5436,160.678],[16.7789,68.5391,99.4549],[16.7667,68.5389,39.7127],[16.7673,68.5344,37.3492],[16.7428,68.534,41.3105],[16.7441,68.525,26.9059],[16.7319,68.5247,36.8706],[16.7326,68.5202,25.1666],[16.7203,68.52,66.258],[16.7216,68.511,65.7384],[16.6972,68.5106,36.0788],[16.6979,68.5061,46.1958],[16.6612,68.5054,2.3807],[16.6619,68.5009,2.5966],[16.6253,68.5002,189.9572],[16.6246,68.5047,210.0363],[16.5758,68.5037,393.3114],[16.5765,68.4992,370.7616],[16.5643,68.499,300.9789],[16.5656,68.49,307.0239],[16.5534,68.4897,309.577],[16.5548,68.4808,328.5559],[16.5426,68.4805,232.3252],[16.546,68.458,211.6313],[16.5581,68.4583,229.094],[16.5594,68.4499,34.2327],[16.5743,68.4504,26.1518],[16.5803,68.4562,37.277],[16.6083,68.4542,4.3],[16.6125,68.4521,0.0],[16.6172,68.4557,0.6906],[16.6271,68.4583,3.783],[16.6354,68.4542,0.0],[16.6417,68.4563,0.0],[16.6479,68.4542,0.0],[16.6521,68.4563,4.9822],[16.6604,68.4563,0.0],[16.6646,68.4542,0.0],[16.675,68.4542,9.6614],[16.6813,68.4521,0.0],[16.6917,68.4563,6.3724],[16.7021,68.4563,0.0],[16.7062,68.4583,1.9585],[16.7104,68.4542,11.4858],[16.7229,68.4542,0.0],[16.7271,68.4563,0.0],[16.7479,68.4583,0.0],[16.7521,68.4604,0.0],[16.7667,68.4604,0.0],[16.7771,68.4646,15.8218],[16.7875,68.4646,0.0],[16.7917,68.4667,0.0],[16.8271,68.4667,0.0],[16.8333,68.4688,69.0278],[16.8396,68.4667,0.0],[16.8458,68.4688,19.6871],[16.85,68.4667,0.0],[16.8563,68.4667,0.0],[16.8604,68.4688,2.8351],[16.8766,68.4693,0.0],[16.8797,68.4724,3.0051],[16.8849,68.4734,0.0],[16.8901,68.4786,0.0],[16.8979,68.4812,0.0],[16.9078,68.4807,12.1552],[16.9047,68.4766,4.8882],[16.9063,68.475,0.0],[16.9188,68.475,0.0],[16.9229,68.4771,0.0],[16.9375,68.4771,0.0],[16.9417,68.4792,0.0],[16.9562,68.4792,0.0],[16.9661,68.4818,0.0],[16.9729,68.4917,3.0061],[16.9724,68.4932,12.2864],[16.9651,68.4964,0.0],[16.9661,68.4995,0.0],[16.9604,68.5021,0.0],[16.9443,68.4995,0.0],[16.9432,68.4964,15.8692],[16.9297,68.4932,0.0],[16.9229,68.4875,35.7902],[16.9167,68.4875,0.0],[16.9146,68.4896,0.0],[16.9214,68.4974,0.0],[16.9349,68.5005,0.0],[16.937,68.5057,0.0],[16.9339,68.5078,0.0],[16.938,68.5141,4.794],[16.9479,68.5167,9.9391],[16.9688,68.5167,0.0],[16.975,68.5229,8.5304],[16.9833,68.5229,0.0],[16.9875,68.525,11.5796],[17.0,68.525,0.0],[17.0016,68.5245,0.0],[17.0016,68.5214,0.0],[16.9964,68.5151,0.0],[17.0005,68.513,0.0],[17.0146,68.5125,0.0],[17.0292,68.5083,0.0],[17.0354,68.5083,0.0],[17.0417,68.5104,0.0],[17.0542,68.5062,0.0],[17.0604,68.5062,0.0],[17.0703,68.5016,9.2332],[17.0693,68.4964,0.0],[17.0766,68.4953,0.0],[17.0776,68.4922,0.0],[17.0938,68.4896,0.0],[17.0953,68.4891,0.0],[17.0943,68.4859,0.0],[17.1036,68.4849,0.0],[17.1021,68.4833,0.0],[17.0964,68.4828,0.0],[17.0953,68.4797,0.0],[17.0917,68.4771,0.0],[17.0604,68.4771,0.0],[17.0536,68.4714,2.221],[17.0474,68.4693,10.6703],[17.0375,68.4688,0.0],[17.0276,68.4661,0.0],[17.0245,68.463,0.0],[17.0193,68.462,0.0],[17.0151,68.4578,0.0],[17.0151,68.4547,0.0],[17.0224,68.4537,8.2246],[17.0292,68.45,0.0],[17.0708,68.45,0.0],[17.075,68.4521,68.2765],[17.1,68.4521,0.0],[17.1042,68.4542,63.3864],[17.1188,68.4542,0.0],[17.1229,68.4563,116.2981],[17.1488,68.4563,0.0],[17.1527,68.4644,322.4684],[17.1559,68.4645,318.8709],[17.1553,68.469,286.1582],[17.1919,68.4696,323.7579],[17.1914,68.4741,354.7308],[17.2036,68.4743,390.8875],[17.203,68.4788,376.2912],[17.2274,68.4791,444.7535],[17.2263,68.4881,488.3057],[17.2385,68.4883,502.3577],[17.2374,68.4973,374.5401],[17.2496,68.4975,375.2888],[17.2475,68.5155,204.1714],[17.2597,68.5157,203.8085],[17.2581,68.5292,145.9921],[17.2703,68.5294,150.932],[17.2692,68.5384,135.2226],[17.2815,68.5386,145.0421],[17.2809,68.5431,144.1253],[17.2932,68.5433,187.2018],[17.2921,68.5523,236.984],[17.3043,68.5525,270.361],[17.3038,68.557,293.6062],[17.316,68.5572,355.3515]]]]}
,"properties": {"GID_2": "NOR.10.10_1","GID_0": "NOR","country": "Norway","GID_1": "NOR.10_1","province": "Nordland","NL_NAME_1": "NA","county": "Evenes","VARNAME_2": "NA","NL_NAME_2": "NA","TYPE_2": "Kommuner","ENGTYPE_2": "Municipality","CC_2": "NA","HASC_2": "NO.NO.EV","name": "Evenes.county","area_km2": 245.9389,"hist_schema_id": "Elevation0-9000","hist_area_km2": {"0": 15.4491,"25": 18.6715,"50": 15.8638,"75": 11.9635,"100": 11.0467,"125": 17.5965,"150": 16.638,"175": 10.5193,"200": 11.5358,"225": 12.2902,"250": 10.5423,"275": 9.7429,"300": 8.4453,"325": 8.0684,"350": 6.359,"375": 4.9683,"400": 4.5179,"425": 3.8339,"450": 3.2983,"475": 4.4222,"500": 4.6216,"525": 3.4272,"550": 4.0312,"575": 3.1709,"600": 2.9926,"625": 2.9769,"650": 3.0236,"675": 2.5506,"700": 2.3103,"725": 2.1551,"750": 1.6356,"775": 1.31,"800": 1.2323,"825": 1.147,"850": 0.7673,"875": 0.6898,"900": 0.5115,"925": 0.4263,"950": 0.3953,"975": 0.217,"1000": 0.217,"1025": 0.1163,"1050": 0.093,"1075": 0.093,"1100": 0.0465,"1125": 0.0078}}}