{"type":"Feature","properties":{"GID_2":"NOR.13.9_1","GID_0":"NOR","country":"Norway","GID_1":"NOR.13_1","province":"Rogaland","NL_NAME_1":"NA","county":"Hjelmeland","VARNAME_2":"NA","NL_NAME_2":"NA","TYPE_2":"Kommuner","ENGTYPE_2":"Municipality","CC_2":"NA","HASC_2":"NO.RO.HJ","name":"Hjelmeland.county"},
"geometry":{"type": "MultiPolygon","coordinates": [[[[6.0292,59.1235,2.6678],[6.0292,59.1249,4.4218],[6.0264,59.1243,4.4218],[6.0253,59.1221,2.2242],[6.0281,59.1218,0.0],[6.0292,59.1235,2.6678]]],
[[[6.0281,59.1399,16.5686],[6.0153,59.1404,7.8034],[6.0119,59.1351,1.2632],[6.0153,59.1338,16.1681],[6.0264,59.1343,0.0],[6.0303,59.1363,0.0],[6.0308,59.1393,0.362],[6.0281,59.1399,16.5686]]],
[[[6.0125,59.1437,0.0],[6.0047,59.1426,1.4822],[6.0092,59.1421,8.0746],[6.0103,59.1404,0.0],[6.0125,59.1437,0.0]]],
[[[6.0047,59.1963,0.0],[6.0036,59.1979,0.0],[6.0003,59.1971,0.9982],[6.0031,59.1949,0.0],[6.0053,59.1951,0.0],[6.0047,59.1963,0.0]]],
[[[6.0964,59.2337,2.0057],[6.0847,59.2321,0.0],[6.0786,59.2329,0.0],[6.0736,59.231,9.8798],[6.0719,59.2287,23.7328],[6.0703,59.229,0.0],[6.0708,59.2307,2.4791],[6.0692,59.2324,0.0],[6.0608,59.2315,2.9991],[6.0581,59.229,1.3653],[6.0597,59.2243,3.5189],[6.0564,59.2226,0.0],[6.0481,59.2221,0.0],[6.0447,59.2185,11.2317],[6.0214,59.219,0.0],[6.0153,59.2174,7.8566],[5.9992,59.2174,0.0],[5.9992,59.2157,0.0],[6.0014,59.2157,17.7414],[6.0053,59.2118,29.0894],[5.9964,59.2101,5.8021],[5.9897,59.2032,1.833],[6.0031,59.1993,1.7634],[6.0097,59.2001,3.0692],[6.0192,59.1965,19.3118],[6.0069,59.194,0.0],[6.0108,59.1915,5.5268],[6.0036,59.1921,0.0],[6.0025,59.1888,4.6508],[6.0069,59.1862,0.0],[6.0069,59.1835,2.1193],[6.0019,59.1835,10.5912],[6.0025,59.1851,0.0],[6.0008,59.1868,2.5136],[5.9925,59.1876,2.1668],[5.9903,59.1862,4.3849],[5.9908,59.1838,1.8381],[5.9886,59.181,0.0],[5.9942,59.1779,0.0],[6.0086,59.176,6.0218],[6.0069,59.1751,0.0],[6.0081,59.1738,0.8611],[6.0053,59.1724,0.4291],[6.0086,59.1715,0.0],[6.0136,59.1724,0.0],[6.0108,59.1735,2.3796],[6.0125,59.1768,0.0],[6.0108,59.1768,3.5662],[6.0097,59.1799,0.0],[6.0064,59.1821,2.1193],[6.0175,59.1813,0.0],[6.0203,59.1832,0.0],[6.0208,59.1862,6.9029],[6.0253,59.1851,0.0],[6.0286,59.1888,14.4461],[6.0336,59.1874,3.3557],[6.0303,59.1865,5.6874],[6.0292,59.1832,0.0],[6.0442,59.184,4.805],[6.0514,59.189,5.7735],[6.0514,59.1918,17.3486],[6.0531,59.1921,0.0],[6.0508,59.1935,20.8994],[6.0514,59.1951,6.5506],[6.0581,59.1974,0.5835],[6.0603,59.2018,0.0],[6.0642,59.2018,1.3134],[6.0631,59.2004,0.0],[6.0697,59.2007,0.0],[6.0703,59.2024,7.1894],[6.0764,59.2054,0.0],[6.0781,59.2101,0.0],[6.0831,59.2101,0.0],[6.0864,59.2135,3.8886],[6.0908,59.2149,0.0],[6.0903,59.2171,11.5334],[6.0958,59.2179,1.4335],[6.1007999999999996,59.2221,3.7887],[6.1019,59.2304,5.9525],[6.0964,59.2337,2.0057]]],
[[[6.0703,59.1404,0.0],[6.0681,59.1413,0.0],[6.0714,59.1374,1.3094],[6.0742,59.1368,0.0],[6.0742,59.1379,0.0],[6.0703,59.1404,0.0]]],
[[[6.0819,59.1407,0.0],[6.0781,59.1413,0.0],[6.0758,59.1401,0.0],[6.0803,59.139,1.4031],[6.0819,59.1407,0.0]]],
[[[6.0831,59.2038,0.0],[6.0792,59.204,0.0],[6.0786,59.2021,0.0],[6.0825,59.2007,0.0],[6.0831,59.2038,0.0]]],
[[[6.8549,59.3606,1110.6428],[6.8535,59.3642,1064.0139],[6.8622,59.3651,1046.0],[6.8604,59.3695,1046.0],[6.8085,59.3642,1044.0],[6.8068,59.3686,1044.0],[6.7981,59.3677,1044.0],[6.7964,59.3721,1044.0],[6.7791,59.3703,1048.9954],[6.7773,59.3747,1044.0],[6.7254,59.3693,995.4766],[6.7271,59.3649,1066.775],[6.6839,59.3605,1053.9073],[6.6856,59.3561,1025.5568],[6.6424,59.3516,799.5494],[6.6441,59.3472,623.1339],[6.6355,59.3463,534.1853],[6.6302,59.3594,1017.5779],[6.6216,59.3585,1045.2782],[6.6163,59.3717,837.1778],[6.6076,59.3708,833.7328],[6.6058,59.3752,719.1002],[6.5885,59.3734,755.3553],[6.5903,59.369,780.4466],[6.5817,59.3681,776.7464],[6.5834,59.3637,749.8788],[6.5488,59.3601,664.6048],[6.5471,59.3645,796.659],[6.5298,59.3627,799.0681],[6.528,59.3671,747.787],[6.502,59.3643,649.3589],[6.5003,59.3687,646.5961],[6.4916,59.3678,631.3598],[6.4898,59.3722,394.1335],[6.4812,59.3713,475.5028],[6.4794,59.3757,175.7256],[6.4708,59.3748,172.4461],[6.4725,59.3704,384.4328],[6.4639,59.3695,494.0376],[6.4657,59.3651,446.481],[6.4052,59.3587,636.1588],[6.3998,59.3719,721.374],[6.3825,59.37,773.8146],[6.3843,59.3656,751.5194],[6.367,59.3638,672.7338],[6.3706,59.355,571.6549],[6.362,59.3541,562.5979],[6.3637,59.3497,629.8965],[6.3551,59.3488,583.653],[6.3569,59.3444,619.5763],[6.3483,59.3435,616.7083],[6.3501,59.3391,634.1406],[6.3328,59.3373,439.3081],[6.3346,59.3329,441.0583],[6.326,59.3319,425.1002],[6.3278,59.3276,448.2339],[6.3191,59.3266,444.2622],[6.3263,59.3091,247.5428],[6.2832,59.3045,328.4315],[6.2807,59.3105,28.3644],[6.2853,59.3098,136.5042],[6.2895,59.3118,68.6938],[6.2846,59.3146,121.7598],[6.2681,59.3149,4.7713],[6.2731,59.3124,1.8245],[6.2708,59.3118,0.0],[6.2714,59.3104,94.553],[6.2692,59.309,27.5372],[6.2736,59.3046,0.0],[6.2708,59.2999,0.0],[6.2753,59.2982,23.0499],[6.2692,59.2996,0.0],[6.2664,59.3046,0.0],[6.2625,59.3063,79.5586],[6.2608,59.3101,0.0],[6.2581,59.3118,8.7858],[6.2447,59.3146,0.0],[6.2386,59.3143,0.0],[6.2364,59.3124,4.6997],[6.1992,59.3118,0.0],[6.1669,59.306,12.5886],[6.1414,59.309,0.0],[6.1264,59.3085,0.0],[6.1142,59.3026,0.0],[6.1164,59.2904,0.0],[6.1208,59.2849,0.0],[6.1264,59.284,1.5858],[6.1275,59.2818,0.0],[6.1325,59.2796,12.1022],[6.1336,59.2771,0.0],[6.1397,59.2762,1.1037],[6.1481,59.2715,6.3702],[6.1492,59.2665,0.0],[6.1542,59.2607,14.9053],[6.1597,59.2604,0.0],[6.1742,59.2629,0.0],[6.1919,59.2721,50.4006],[6.1986,59.2715,0.0],[6.2397,59.2799,45.7978],[6.2486,59.2796,0.0],[6.2642,59.2857,63.994],[6.2686,59.2849,0.0],[6.2753,59.2904,0.0],[6.2864,59.2907,7.4783],[6.2947,59.2943,14.9851],[6.3031,59.2938,15.4001],[6.3097,59.2951,0.0],[6.3186,59.299,0.0],[6.3219,59.3026,127.5574],[6.3308,59.3013,0.0],[6.3453,59.3107,0.0],[6.3464,59.3124,0.0],[6.3453,59.3135,0.0],[6.3481,59.3138,0.0],[6.3486,59.3165,17.1566],[6.3592,59.3196,38.9921],[6.3831,59.3226,181.2891],[6.3875,59.3215,19.9241],[6.3819,59.3207,0.0],[6.3914,59.3207,15.8659],[6.4236,59.3249,0.0],[6.4514,59.3204,0.0],[6.4592,59.324,21.9895],[6.4642,59.3246,55.6864],[6.4775,59.3235,32.73],[6.4819,59.3218,23.5676],[6.4808,59.3213,7.7833],[6.4869,59.3224,152.9179],[6.4881,59.321,3.8223],[6.4931,59.3207,13.5851],[6.4914,59.3193,14.933],[6.4925,59.3179,0.0],[6.5053,59.3199,32.269],[6.5125,59.3179,16.8834],[6.5336,59.3188,45.6344],[6.5481,59.3218,18.5251],[6.5519,59.321,12.9244],[6.5586,59.3235,8.7143],[6.5564,59.3224,9.53],[6.5586,59.3218,0.1033],[6.5569,59.3207,0.0],[6.5392,59.316,37.193],[6.5047,59.3151,44.5885],[6.4842,59.3168,12.9914],[6.4742,59.3154,127.9433],[6.4636,59.3168,17.5895],[6.4208,59.3143,0.0],[6.4114,59.3096,63.6071],[6.3992,59.3085,11.6941],[6.3881,59.3035,115.251],[6.3769,59.304,0.0],[6.3558,59.296,0.0],[6.3531,59.2935,58.4774],[6.3458,59.2935,0.0],[6.3442,59.2912,10.3015],[6.3347,59.291,0.0],[6.3253,59.2885,0.0],[6.3242,59.2837,0.0],[6.3364,59.2743,69.5316],[6.3308,59.2713,0.0],[6.3225,59.2724,0.0],[6.3186,59.2749,17.0588],[6.3197,59.2757,0.0],[6.3164,59.2762,0.0],[6.3131,59.2807,0.0],[6.3047,59.2815,0.0],[6.2814,59.2749,154.1478],[6.277,59.2712,64.1831],[6.2703,59.2696,3.4094],[6.2275,59.2682,0.0],[6.2264,59.2668,104.2328],[6.2164,59.2663,0.0],[6.2153,59.2635,105.1549],[6.2014,59.2593,19.8767],[6.1903,59.2576,4.2323],[6.1869,59.2532,93.607],[6.1819,59.2526,0.0],[6.1742,59.2479,0.0],[6.1797,59.2388,13.3059],[6.1769,59.2354,18.3623],[6.1636,59.234,0.0],[6.1608,59.2324,6.8047],[6.1564,59.2357,0.0],[6.1531,59.2357,0.0],[6.1492,59.2326,0.0],[6.1369,59.2296,0.0],[6.1358,59.2265,6.1608],[6.1325,59.2246,2.2859],[6.1336,59.2221,0.9558],[6.1325,59.2207,1.9496],[6.1231,59.219,0.0],[6.1231,59.2212,0.0],[6.1203,59.2215,0.9749],[6.1158,59.2174,0.0],[6.1158,59.2154,2.2896],[6.1103,59.2171,0.0],[6.1081,59.2201,1.0041],[6.1007999999999996,59.2207,0.0],[6.0981,59.2174,14.3372],[6.1007999999999996,59.2149,8.5418],[6.0997,59.2113,7.2536],[6.0931,59.2126,0.0],[6.0914,59.211,1.8184],[6.0869,59.2107,0.0],[6.0875,59.2088,0.0],[6.0842,59.2068,3.5238],[6.0853,59.2051,0.0],[6.0981,59.2049,6.5433],[6.0986,59.1985,24.9132],[6.0925,59.1963,9.1624],[6.0853,59.1965,5.9633],[6.0686,59.1937,0.0],[6.0669,59.1918,0.0],[6.0675,59.189,3.0247],[6.0653,59.1888,0.0],[6.0647,59.1871,0.0],[6.0675,59.1854,15.0205],[6.0686,59.1804,3.1108],[6.0642,59.1787,20.8148],[6.0581,59.181,0.0],[6.0553,59.1774,4.3823],[6.0508,59.1774,0.0],[6.0525,59.171,0.0],[6.0475,59.1693,0.0],[6.0475,59.1668,18.2287],[6.0403,59.1646,1.8704],[6.0392,59.1613,32.8472],[6.0319,59.1599,0.0],[6.0325,59.1563,9.6321],[6.0286,59.1529,0.0],[6.0297,59.151,0.0],[6.0231,59.1482,0.0],[6.0225,59.1432,2.4712],[6.0292,59.1432,0.0],[6.0308,59.1418,0.0],[6.0369,59.1415,13.8776],[6.0381,59.1396,0.0],[6.0514,59.1376,0.0],[6.0608,59.1418,0.0],[6.0675,59.1413,0.0],[6.0692,59.1429,10.9332],[6.0781,59.1443,0.0],[6.0803,59.1474,53.2035],[6.0847,59.1479,0.0],[6.0936,59.1529,19.9766],[6.1019,59.1521,4.4205],[6.1003,59.1465,0.0],[6.1053,59.1465,8.0209],[6.1042,59.1449,0.0],[6.1125,59.1432,0.0],[6.1175,59.1432,0.0],[6.1181,59.1449,5.4121],[6.1214,59.1457,7.7759],[6.1292,59.1454,0.0],[6.1258,59.1476,3.3123],[6.1269,59.1493,98.4862],[6.1431,59.1479,24.7386],[6.1575,59.1501,0.0],[6.1636,59.1496,0.9317],[6.1675,59.1437,0.0],[6.1742,59.141,0.2574],[6.1692,59.1382,3.6186],[6.1632,59.1376,0.0],[6.1693,59.1227,369.7339],[6.1607,59.1217,402.0773],[6.1625,59.1174,495.0064],[6.154,59.1164,547.1842],[6.1558,59.112,514.2225],[6.1472,59.1111,571.921],[6.149,59.1067,467.7329],[6.1404,59.1058,466.609],[6.1441,59.097,41.0],[6.1526,59.098,41.0],[6.1544,59.0936,124.8205],[6.1459,59.0926,41.0],[6.1477,59.0882,389.2855],[6.1391,59.0873,158.8501],[6.1481,59.0654,314.3389],[6.1567,59.0663,295.3624],[6.1585,59.0619,449.5291],[6.1842,59.0647,417.1392],[6.1824,59.0691,411.1872],[6.191,59.07,383.7815],[6.1928,59.0657,450.4967],[6.2013,59.0666,404.8461],[6.2031,59.0622,456.4008],[6.2117,59.0631,533.3369],[6.2189,59.0456,565.3804],[6.2274,59.0465,537.5821],[6.231,59.0377,533.7246],[6.2481,59.0396,619.3657],[6.2463,59.044,555.4531],[6.2806,59.0477,644.9062],[6.2788,59.0521,627.6708],[6.2874,59.053,703.5463],[6.2856,59.0574,771.1738],[6.3113,59.0601,690.5157],[6.3059,59.0733,668.2759],[6.3145,59.0742,552.1077],[6.3127,59.0786,576.4262],[6.3813,59.086,609.5],[6.3795,59.0904,609.5],[6.3881,59.0913,609.5],[6.3899,59.0869,609.5],[6.4242,59.0905,609.5],[6.4259,59.0862,609.5],[6.4345,59.0871,619.7349],[6.4363,59.0827,610.3028],[6.462,59.0854,867.3431],[6.4602,59.0898,935.6689],[6.486,59.0925,668.0],[6.4877,59.0882,672.9084],[6.5478,59.0945,668.0],[6.546,59.0989,668.0],[6.5546,59.0998,668.0],[6.5511,59.1086,1030.6809],[6.5597,59.1095,1049.639],[6.5562,59.1183,1027.3417],[6.5648,59.1192,1021.4603],[6.5595,59.1324,1055.2617],[6.5681,59.1333,1045.5916],[6.5646,59.142,1044.3805],[6.6162,59.1475,673.6277],[6.6144,59.1519,671.0],[6.623,59.1528,723.4094],[6.6177,59.1659,728.3966],[6.6349,59.1677,727.5],[6.6332,59.1721,727.5],[6.6418,59.173,776.0206],[6.6401,59.1774,728.9905],[6.6745,59.181,890.5588],[6.6762,59.1766,983.6476],[6.6934,59.1784,948.2201],[6.6952,59.174,964.8232],[6.7382,59.1785,1016.9337],[6.7399,59.1741,944.0507],[6.7485,59.175,951.9207],[6.7468,59.1794,1082.7255],[6.8415,59.1892,1160.6149],[6.8346,59.2068,1140.6635],[6.8432,59.2077,1177.0178],[6.838,59.2208,1145.4246],[6.8467,59.2217,1170.3455],[6.8398,59.2393,1166.4487],[6.8484,59.2402,1188.8358],[6.8432,59.2534,1160.11],[6.8518,59.2543,1135.7743],[6.8501,59.2587,937.5],[6.8415,59.2578,1024.1487],[6.838,59.2666,1110.2781],[6.8294,59.2657,1101.6904],[6.8225,59.2833,1139.3295],[6.8311,59.2842,1119.3079],[6.8242,59.3017,1163.7327],[6.8328,59.3026,1142.1605],[6.8276,59.3158,1064.6603],[6.8362,59.3167,1051.2557],[6.831,59.3299,1115.8883],[6.8397,59.3308,1072.2068],[6.8345,59.344,1101.9198],[6.8431,59.3449,1071.9073],[6.8414,59.3493,1096.543],[6.8501,59.3501,1097.5175],[6.8466,59.3589,1160.639],[6.8549,59.3606,1110.6428]]],
[[[6.023,59.2373,41.9004],[6.0236,59.2357,7.4485],[6.0342,59.2382,14.2002],[6.0514,59.2388,18.8005],[6.0692,59.2432,0.0],[6.0825,59.2493,2.5893],[6.0942,59.2504,0.0],[6.1053,59.2579,0.0],[6.1064,59.2629,0.0],[6.1053,59.2679,0.0],[6.1036,59.2715,0.0],[6.0992,59.2751,2.3796],[6.0958,59.2757,2.3179],[6.0875,59.2824,2.2119],[6.0831,59.2826,10.0224],[6.0819,59.2846,0.0],[6.0758,59.2867,2.8166],[6.0744,59.2865,2.8166],[6.0763,59.2821,191.404],[6.0677,59.2812,256.473],[6.0695,59.2768,296.4573],[6.0609,59.2759,328.4876],[6.0645,59.2671,356.2266],[6.0559,59.2662,315.0093],[6.0577,59.2618,284.3698],[6.0233,59.258,264.7204],[6.0215,59.2624,205.8369],[5.9956,59.2596,199.6661],[6.0012,59.2464,176.0109],[6.0098,59.2474,295.6646],[6.0116,59.243,252.9767],[6.0202,59.243899999999996,226.1664],[6.023,59.2373,41.9004]]]]}}