{"type":"Feature","properties":{"GID_2":"NOR.16.17_1","GID_0":"NOR","country":"Norway","GID_1":"NOR.16_1","province":"Telemark","NL_NAME_1":"NA","county":"Tokke","VARNAME_2":"NA","NL_NAME_2":"NA","TYPE_2":"Kommuner","ENGTYPE_2":"Municipality","CC_2":"NA","HASC_2":"NO.TE.TO","name":"Tokke.county"},
"geometry":{"type": "MultiPolygon","coordinates": [[[[7.5258,59.3947,1104.1844],[7.5345,59.3955,1132.5111],[7.5361,59.3911,1251.5081],[7.5448,59.3919,1240.4028],[7.5481,59.3831,1239.7415],[7.5568,59.384,1234.8793],[7.5584,59.3796,1146.2715],[7.5671,59.3804,1169.1759],[7.5704,59.3716,1208.6515],[7.579,59.3724,1126.8977],[7.5839,59.3592,1274.6284],[7.5926,59.36,1225.9584],[7.5959,59.3512,1103.8862],[7.6046,59.3521,904.1609],[7.6078,59.3433,918.2009],[7.6252,59.3449,836.4557],[7.6268,59.3405,880.5428],[7.6441,59.3422,885.3823],[7.6458,59.3378,1003.1536],[7.6631,59.3394,963.5821],[7.6647,59.335,1203.5602],[7.6734,59.3359,1245.7412],[7.675,59.3315,1196.7134],[7.6837,59.3323,1138.0905],[7.6853,59.3279,1097.3264],[7.694,59.3287,1137.3281],[7.6956,59.3243,1230.2314],[7.7476,59.3293,893.8377],[7.7492,59.3249,869.2344],[7.7579,59.3257,887.4264],[7.7563,59.3301,878.0054],[7.7736,59.3317,923.9288],[7.772,59.3362,898.4346],[7.798,59.3386,950.072],[7.7964,59.343,935.4474],[7.8658,59.3496,836.7195],[7.8674,59.3452,817.7324],[7.9108,59.3493,863.2545],[7.9124,59.3449,812.9026],[7.9471,59.3481,724.9474],[7.9486,59.3437,765.7879],[7.9834,59.347,762.3932],[7.9865,59.3381,792.1292],[7.9952,59.339,870.6959],[7.9968,59.3345,867.8563],[8.0055,59.3354,875.9644],[8.0039,59.3398,884.6484],[8.0125,59.3406,935.0358],[8.011,59.345,912.766],[8.0283,59.3466,896.1714],[8.0267,59.351,839.3163],[8.0788,59.3558,386.4708],[8.0804,59.3514,357.352],[8.0891,59.3522,370.3117],[8.0922,59.3434,339.0],[8.1009,59.3442,339.9987],[8.1025,59.3398,343.0739],[8.1111,59.3406,339.0],[8.1127,59.3362,339.0],[8.1301,59.3378,339.0],[8.1285,59.3422,339.0],[8.1372,59.343,339.0],[8.1356,59.3474,339.0],[8.1443,59.3482,370.0549],[8.1427,59.3526,335.7866],[8.1514,59.3534,344.591],[8.1499,59.3578,325.6035],[8.1585,59.3587,314.7936],[8.157,59.3631,321.5486],[8.1917,59.3663,619.0413],[8.1902,59.3707,527.2396],[8.2162,59.3731,721.1592],[8.2147,59.3775,747.7385],[8.2321,59.3791,761.2982],[8.2305,59.3835,747.7085],[8.2392,59.3843,694.3856],[8.2376,59.3887,713.2756],[8.2463,59.3895,686.5342],[8.2432,59.3983,211.9736],[8.2345,59.3975,250.0158],[8.233,59.4019,72.0],[8.2678,59.4051,72.0],[8.2693,59.4007,72.0],[8.2867,59.4023,72.0],[8.2883,59.3979,72.0],[8.3057,59.3994,72.0],[8.3072,59.395,72.0],[8.3159,59.3958,72.0],[8.3128,59.4046,193.8858],[8.3215,59.4054,335.2914],[8.3184,59.4143,836.6835],[8.3271,59.415,768.5066],[8.3209,59.4327,687.1998],[8.3122,59.4319,686.4764],[8.3107,59.4363,646.6323],[8.2846,59.434,762.3997],[8.2815,59.4428,636.0159],[8.2728,59.442,672.0188],[8.265,59.4641,739.7518],[8.2737,59.4649,731.1722],[8.2706,59.4737,713.6811],[8.2793,59.4745,694.5089],[8.2778,59.4789,681.6539],[8.2865,59.4797,699.3629],[8.2849,59.4841,621.0714],[8.3198,59.4873,628.0661],[8.3183,59.4917,554.8422],[8.327,59.4925,583.8983],[8.3146,59.5278,706.9425],[8.3233,59.5286,696.7006],[8.3202,59.5374,785.2487],[8.3289,59.5382,828.8568],[8.3227,59.5559,844.703],[8.314,59.5551,847.519],[8.3109,59.5639,982.47],[8.3021,59.5631,952.7433],[8.3006,59.5676,960.7639],[8.2918,59.5668,969.7354],[8.2903,59.5712,965.6332],[8.2815,59.5704,948.0689],[8.2831,59.566,968.7964],[8.2656,59.5644,983.1398],[8.2672,59.56,930.546],[8.2497,59.5584,1008.0432],[8.2481,59.5628,865.8582],[8.2394,59.562,871.6787],[8.2363,59.5708,825.3127],[8.2275,59.57,762.736],[8.226,59.5745,776.5092],[8.2085,59.5729,705.8639],[8.2101,59.5685,749.4108],[8.2013,59.5677,729.6821],[8.2029,59.5632,813.4188],[8.1767,59.5609,649.5408],[8.1798,59.552,648.9734],[8.1711,59.5512,697.0375],[8.1742,59.5424,730.7918],[8.148,59.54,841.1251],[8.1465,59.5444,742.5309],[8.1203,59.542,819.5542],[8.1187,59.5464,878.158],[8.11,59.5456,917.3123],[8.1036,59.5633,853.739],[8.06,59.5592,848.3317],[8.0616,59.5548,750.0129],[8.0528,59.554,670.3891],[8.0544,59.5496,710.1431],[8.0369,59.548,582.756],[8.0354,59.5524,607.887],[8.0179,59.5508,582.5587],[8.0163,59.5552,586.4762],[7.9901,59.5528,403.3134],[7.9917,59.5484,457.5165],[7.983,59.5476,386.0263],[7.9846,59.5432,385.7626],[7.9933,59.544,489.5302],[8.0029,59.5175,567.5258],[7.9941,59.5167,350.7809],[7.9957,59.5123,452.032],[7.987,59.5115,334.3213],[7.9918,59.4982,469.7182],[7.9831,59.4974,339.7648],[7.9847,59.493,392.2872],[7.976,59.4922,203.0234],[7.9776,59.4878,460.0324],[7.9688,59.487,373.1729],[7.9672,59.4914,264.505],[7.9498,59.4898,478.3702],[7.9482,59.4942,665.8047],[7.9308,59.4925,891.4224],[7.9292,59.4969,939.8009],[7.9205,59.4961,1011.878],[7.9189,59.5005,1028.0774],[7.9102,59.4997,1073.6165],[7.907,59.5085,1089.5759],[7.8982,59.5077,1050.8263],[7.8886,59.5342,904.8096],[7.8799,59.5334,861.666],[7.8783,59.5378,823.8687],[7.8695,59.537,748.4558],[7.8679,59.5414,871.209],[7.8505,59.5397,947.2003],[7.8408,59.5662,918.8311],[7.8321,59.5654,545.9312],[7.8272,59.5786,745.0727],[7.8359,59.5794,795.0654],[7.8343,59.5838,847.0451],[7.8431,59.5847,944.9017],[7.8398,59.5935,950.6354],[7.8223,59.5918,650.9672],[7.8207,59.5962,675.3859],[7.777,59.5921,1065.9093],[7.7683,59.5913,1123.9144],[7.7699,59.5869,1154.9758],[7.7175,59.5819,1034.116],[7.7159,59.5863,1063.049],[7.7072,59.5855,1210.1805],[7.7055,59.5899,1181.8093],[7.6881,59.5883,1303.2855],[7.6864,59.5927,1180.1659],[7.6166,59.586,1349.4374],[7.6182,59.5816,1312.1107],[7.592,59.5791,1266.2804],[7.5904,59.5835,1269.2104],[7.538,59.5784,1343.6792],[7.5364,59.5829,1307.2866],[7.5276,59.582,1315.9635],[7.5309,59.5732,1358.6609],[7.5222,59.5724,1368.9731],[7.5239,59.568,1392.9324],[7.5152,59.5671,1386.3176],[7.5168,59.5627,1404.9196],[7.5081,59.5619,1348.0996],[7.5131,59.5486,1349.4397],[7.5218,59.5495,1403.7288],[7.5301,59.5275,1321.2463],[7.5388,59.5283,1386.8783],[7.5404,59.5239,1429.1237],[7.5491,59.5247,1429.9806],[7.5508,59.5203,1339.3853],[7.5595,59.5212,1314.1328],[7.5612,59.5168,1290.1921],[7.5699,59.5176,1325.9999],[7.5715,59.5132,1312.0198],[7.5802,59.514,1392.8553],[7.5819,59.5096,1414.4406],[7.5906,59.5105,1426.2461],[7.5972,59.4928,1338.7107],[7.6059,59.4937,1437.6882],[7.6223,59.4496,1392.5967],[7.631,59.4505,1406.6956],[7.6457,59.4108,1475.266],[7.637,59.41,1388.1501],[7.6354,59.4144,1393.7039],[7.592,59.4102,1038.0695],[7.5903,59.4146,1125.7858],[7.5469,59.4104,1363.8746],[7.5452,59.4148,1366.9448],[7.5192,59.4123,1275.4296],[7.5208,59.4079,1269.0825],[7.5122,59.407,1171.6848],[7.5138,59.4026,1105.666],[7.5225,59.4035,1208.0908],[7.5258,59.3947,1104.1844]]]]}}