{"type": "Feature","bbox": [11.050874890590364,59.642995760982387,11.247215763387175,59.9665019367001],"geometry": {"type": "Polygon","coordinates": [[[11.231908828776341,59.744845748969965,100.0],[11.241328480844544,59.760741411835056,100.0],[11.243389029734459,59.77104415628466,102.404],[11.241328480844544,59.778991987717234,129.1624],[11.231908828776341,59.794887650582325,100.0],[11.226315910360825,59.81873114487999,100.0],[11.210714611622848,59.8558210248986,100.0],[11.205710421461617,59.863474492204006,132.3454],[11.195702041139128,59.866418133475321,100.0],[11.18922603034224,59.872894144272237,100.0],[11.178334557638379,59.887906714755957,101.6376],[11.166854356680233,59.895560182061359,100.4181],[11.145954503653883,59.90233055698539,101.4653],[11.136829215712794,59.908512203655164,100.0],[11.111219536652357,59.935593703351287,100.0],[11.096795694422894,59.946485176055148,104.6351],[11.07883948266786,59.953549915106294,105.243],[11.073540928379487,59.957376648759009,106.3918],[11.063532548057026,59.962675203047382,109.7929],[11.058528357895796,59.9665019367001,114.6839],[11.050874890590364,59.947662632563663,101.6429],[11.059411450277167,59.932944426207087,190.3599],[11.092674596643064,59.912044573180737,174.7596],[11.107981531253898,59.89820945920556,165.799],[11.110925172525214,59.887023622374556,127.2518],[11.109747716016699,59.874071600780752,100.0],[11.112985721415129,59.856704117279975,115.9135],[11.123877194119018,59.845518280448971,210.3805],[11.174507823985664,59.822557878532706,167.9749],[11.186282389070925,59.80960585693893,169.0478],[11.190992215105041,59.795770742963725,172.3287],[11.190697850977898,59.779875080098634,142.1471],[11.18834293796084,59.7610357759622,132.5526],[11.199528774791844,59.749849939131195,115.1588],[11.205416057334475,59.676847635602542,222.8603],[11.216013165911221,59.651826684796333,175.5978],[11.245449578624402,59.642995760982387,149.8667],[11.247215763387175,59.670077260678511,100.0],[11.229848279886426,59.737192281664534,100.0],[11.231908828776341,59.744845748969965,100.0]]]}
,"properties": {"featurecla": "Lake","scalerank": 7,"name": "Yeren","name_abb": "Yeren","name_alt": null,"note": null,"delta": null,"dam_name": null,"year": -99,"admin": null,"min_zoom": 5.7,"min_label": 6.7,"area_km2": 95.92279,"hist_schema_id": "Elevation0-9000","hist_area_km2": {"100": 76.6905,"125": 6.11171,"150": 7.31096,"175": 4.16411,"200": 1.46381,"225": 0.1817}}}