{"type":"Feature","properties":{"featurecla":"River","scalerank":9,"rivernum":1003,"dissolve":"1003River","name":"Vorma5","name_alt":null,"note":null,"min_zoom":7.1,"strokeweig":0.25,"name_en":"Vorma","min_label":8.1},
"geometry":{"type": "LineString","coordinates": [[11.230224609375,60.41400787968162,119.5],[11.248291015625,60.40094635624412,165.8097],[11.253320312500023,60.38825104374412,141.6963],[11.2529296875,60.374627996869123,147.4506],[11.24951171875,60.34735748905662,119.5],[11.252197265625,60.33392975468162,119.5],[11.259423828125023,60.323504949994117,145.0726],[11.268798828125,60.31757233280662,134.3092],[11.278564453125,60.313006903119117,119.5],[11.286279296875023,60.306659246869117,164.3951],[11.3310546875,60.227167059369123,165.6389],[11.362060546875,60.19061920780662,174.626],[11.38037109375,60.17853424686912,136.0598],[11.454980468750023,60.159540106244123,152.3516]]}}