{"type":"Feature","properties":{"featurecla":"River","scalerank":6,"rivernum":276,"dissolve":"276River","name":"Vorma9","name_alt":null,"note":null,"min_zoom":5.0,"strokeweig":0.3,"name_en":"Vorma","min_label":6.0},
"geometry":{"type": "LineString","coordinates": [[12.027587890625,60.52484772343162,148.0],[12.061767578125,60.49127838749412,150.7345],[12.06396484375,60.48151276249412,147.5],[12.051513671875,60.47638580936912,151.3827],[12.03466796875,60.47272369999412,153.4919],[12.024169921875,60.467401434369123,152.0931],[12.0234375,60.458026434369117,147.5],[12.028710937500023,60.45050690311912,147.5],[12.035400390625,60.442987371869123,150.9465],[12.038476562500023,60.43329498905662,150.9755],[12.0361328125,60.425409246869123,147.5],[12.0263671875,60.407342840619123,147.0],[12.024169921875,60.394794012494117,152.7323],[12.028466796875023,60.384637762494123,151.389],[12.037011718750023,60.37421295780662,152.0171],[12.04345703125,60.36383698124412,185.185],[12.04150390625,60.35382721561912,145.5],[12.032128906250023,60.34613678593162,196.7058],[12.023095703125023,60.34210846561912,166.3491],[12.015527343750023,60.33624909061912,145.0],[12.010498046875,60.32343170780662,149.7202],[12.030517578125,60.25800202030662,150.6016],[12.027587890625,60.247674871869123,149.1172],[12.023681640625,60.24262116093162,146.004],[12.017578125,60.218377996869123,163.1779],[12.013916015625,60.21015045780662,162.068],[12.001123046875023,60.199481512494117,199.0698],[11.993896484375,60.199090887494123,192.2634],[11.985595703125,60.203387762494117,197.5628],[11.969628906250023,60.20673248905662,158.639],[11.913964843750023,60.20221588749412,164.5138],[11.88818359375,60.203973699994123,130.0],[11.837060546875023,60.22870514530662,130.0],[11.730126953125023,60.247674871869123,140.7363],[11.698144531250023,60.24848053593162,159.0749],[11.679345703125023,60.23602936405662,160.7042],[11.662744140625023,60.22089264530662,129.5],[11.637597656250023,60.21356842655662,134.3027],[11.606201171875,60.20819733280662,134.0037],[11.559228515625023,60.182147528119117,129.0],[11.531982421875,60.17255280155662,139.2563],[11.482568359375023,60.17047760624412,134.7916],[11.46923828125,60.16510651249412,139.304],[11.460839843750023,60.154315496869117,117.5],[11.459863281250023,60.14423248905662,117.5],[11.460839843750023,60.13532135624412,133.6824],[11.458740234375,60.12787506718162,117.5],[11.440576171875023,60.11371491093162,137.9067],[11.373681640625023,60.08319733280662,141.5699],[11.30859375,60.02484772343162,144.1859],[11.288476562500023,60.01068756718162,165.9351],[11.222900390625,59.98016998905662,120.1049],[11.197509765625,59.96295807499412,106.4505],[11.159570312500023,59.92597077030662,130.7541],[11.133544921875,59.91193268436912,100.0]]}}