{"type": "Feature","bbox": [11.704068888695531,58.905613622517563,12.21125827974339,59.485805317094076],"geometry": {"type": "Polygon","coordinates": [[[12.21125827974339,59.046025311159354,113.7206],[12.203899176565102,59.06162660989736,93.0],[12.204782268946502,59.095772848644629,93.0],[12.197423165768214,59.114317788653921,93.0],[12.187709149572868,59.123148712467867,93.0],[12.171813486707748,59.134628913426013,93.0],[12.154151639079856,59.144342929621359,93.0],[12.126775775256618,59.153173853435305,93.0],[12.063781852050425,59.19703410837792,114.1728],[12.048474917439592,59.204687575683351,95.1265],[11.980182439945025,59.225881792836816,93.0],[11.97135151613108,59.230297254743789,93.0],[11.964286777079934,59.23706762966782,93.0],[11.956633309774503,59.251785836024396,93.0],[11.951040391359015,59.258261846821313,93.0],[11.944564380562099,59.262088580474,101.4859],[11.931023630714037,59.267092770635259,110.143],[11.914539239594689,59.276512422703462,93.0],[11.908063228797772,59.278572971593377,93.0],[11.9045308592722,59.283282797627493,99.3904],[11.902470310382284,59.309186840815073,96.9235],[11.900115397365226,59.314191030976332,111.8279],[11.894816843076853,59.316545943993361,115.7122],[11.886280283390022,59.323021954790278,133.0106],[11.885985919262907,59.328909237332908,124.2929],[11.899821033238084,59.343333079562342,101.0],[11.903353402763685,59.350692182740659,107.4832],[11.912184326577631,59.362761111953034,108.4099],[11.930140538332665,59.372769492275523,106.0508],[11.943092559926441,59.384838421487927,101.0],[11.937499641510954,59.402205904988676,131.3635],[11.953395304376045,59.40838755165845,113.3486],[12.005203390751234,59.402205904988676,101.0],[12.005203390751234,59.40838755165845,103.3578],[11.963403684698534,59.415746654836738,104.9955],[11.943975652307842,59.422222665633655,123.4255],[11.910712505941973,59.442533790405719,114.505],[11.908946321179172,59.4310535894476,116.98],[11.916894152611718,59.402205904988676,123.4344],[11.911006870069087,59.390431339903415,125.8862],[11.900704125619484,59.393963709428988,114.7049],[11.887163375771422,59.40338336149722,108.6655],[11.856549506549726,59.413980470073966,101.0],[11.851250952261381,59.427226855794885,101.0],[11.848896039244323,59.443122518660005,101.0],[11.841831300193149,59.456957632635181,113.3187],[11.855372050041211,59.470498382483242,111.7288],[11.856255142422611,59.481978583441361,101.0],[11.847129854481523,59.485805317094076,113.964],[11.833294740506346,59.483744768204161,121.4389],[11.821225811293942,59.477268757407273,150.6159],[11.814161072242769,59.468143469466185,174.773],[11.815044164624169,59.461961822796411,130.6613],[11.819165262404027,59.456663268508038,138.4861],[11.821225811293942,59.45018725771115,133.2019],[11.8200483547854,59.431936681829,121.5959],[11.817104713514084,59.422517029760769,107.0805],[11.809156882081538,59.416335383090995,137.1226],[11.793555583343561,59.40838755165845,177.547],[11.808568153827281,59.391903160539073,125.4768],[11.822108903675343,59.36835403036855,152.7335],[11.826524365582316,59.342744351308085,207.0898],[11.813866708115654,59.31978394939182,147.1184],[11.790023213817989,59.317134672247647,101.0],[11.75911498046915,59.332147242731338,108.7296],[11.704068888695531,59.368059666241408,158.9462],[11.71819836679785,59.350103454486373,143.4911],[11.769417724918753,59.303005194145328,105.6835],[11.775010643334269,59.294174270331354,134.994],[11.776776828097042,59.285343346517408,136.7486],[11.777659920478442,59.275923694449205,125.3941],[11.779720469368385,59.265032221745344,146.8956],[11.793555583343561,59.230297254743789,221.988],[11.795321768106362,59.217345233150013,172.682],[11.793555583343561,59.186436999801174,206.0078],[11.79679358874202,59.17525116297017,139.112],[11.805330148428823,59.168775152173282,163.0823],[11.815338528751312,59.164065326139166,164.8426],[11.824463816692372,59.158178043596536,187.1053],[11.841242571938892,59.137866918824443,118.8739],[11.849484767498581,59.116967065798093,143.183],[11.840948207811749,59.102543223568659,101.0],[11.807096333191623,59.101365767060116,155.3705],[11.8209314471668,59.09165175086477,143.9285],[11.831234191616403,59.075756087999679,168.1051],[11.830939827489289,59.058682968626044,150.2507],[11.813866708115654,59.046025311159354,156.7243],[11.831822919870689,59.037488751472551,136.7924],[11.840065115430377,59.026008550514405,137.6793],[11.83859329479472,59.012467800666371,144.7533],[11.827407457963716,58.998338322564052,147.7041],[11.856843870676869,58.992745404148536,162.4251],[11.87362262592336,58.980087746681875,160.659],[11.903942131017942,58.925630383162513,184.522],[11.91542233197606,58.911795269187337,157.2327],[11.92631380467995,58.905613622517563,149.4225],[11.931023630714037,58.919154372365625,101.0],[11.927491261188464,58.926219111416771,101.0],[11.903353402763685,58.956538616511352,101.0],[11.912478690704745,58.9756722847749,101.0],[11.901587218000884,58.995100317165594,101.0],[11.88451409862725,59.015117077810544,101.0],[11.875977538940418,59.035428202582636,101.0],[11.874505718304761,59.06162660989736,101.0],[11.876271903067561,59.071340626092706,101.0],[11.882747913864449,59.086941924830683,101.0],[11.896583027839654,59.109902326746948,101.0],[11.895994299585368,59.115200881035321,101.0],[11.88539719100865,59.134923277553128,101.0],[11.869207164016387,59.15523440232522,134.8101],[11.86773534338073,59.161121684867851,101.0],[11.86861843576213,59.17348497820737,101.0],[11.8653804303637,59.179372260750029,118.4082],[11.854194593532696,59.184082086784116,101.0],[11.841831300193149,59.184082086784116,101.0],[11.831822919870689,59.187025728055431,115.5625],[11.827407457963716,59.20027211377635,101.0],[11.82770182209083,59.249136558880224,101.0],[11.823875088438115,59.268858955398031,101.0],[11.813866708115654,59.292996813822839,101.0],[11.827996186217973,59.316251579866247,102.4943],[11.836827110031919,59.326259960188708,101.0],[11.84860167511718,59.333913427494139,101.0],[11.872445169414846,59.277395515084862,147.7529],[11.889812652915623,59.249725287134481,145.491],[11.959871315172961,59.219994510294185,108.1302],[11.989602092013257,59.212341042988754,145.7097],[12.012562493929522,59.193796102979462,93.0],[12.043176363151218,59.185848271546917,93.0],[12.154740367334114,59.119321978815151,154.9109],[12.162099470512402,59.111374147382605,126.9479],[12.166809296546518,59.101071402933,133.843],[12.170047301944976,59.086941924830683,110.2646],[12.172107850834891,59.07075189783842,119.9208],[12.17034166607209,59.055150599100443,129.9702],[12.163276927020945,59.043376034015182,123.094],[12.149147448918626,59.038666207981066,104.5112],[12.157389644478314,59.022770545115975,123.0148],[12.167692388927918,59.00893543114077,103.286],[12.180938774648837,58.998043958436909,93.5],[12.197423165768214,58.991273583512879,162.4258],[12.18035004639458,59.028069099404348,93.5],[12.184765508301552,59.042198577506667,99.2752],[12.21125827974339,59.046025311159354,113.7206]]]}
,"properties": {"featurecla": "Lake","scalerank": 8,"name": "Foxen","name_abb": "Foxen","name_alt": "Stora Le, Lesjön","note": null,"delta": null,"dam_name": null,"year": -99,"admin": null,"min_zoom": 6.0,"min_label": 7.0,"area_km2": 272.6343,"hist_schema_id": "Elevation0-9000","hist_area_km2": {"100": 129.7891,"125": 59.5974,"150": 50.513,"175": 23.3826,"200": 8.2557,"225": 1.0857,"250": 0.0109}}}