{"type":"Feature","properties":{"featurecla":"Lake","scalerank":7,"name":"null372","name_abb":null,"name_alt":null,"note":"_untitled_130","delta":null,"dam_name":null,"year":-99,"admin":null,"min_zoom":5.7,"min_label":6.7},
"geometry":{"type": "Polygon","coordinates": [[[11.219839899563937,59.47697439328013,32.2863],[11.218073714801136,59.479918034551446,41.4018],[11.218073714801136,59.484922224712676,41.3425],[11.199823138918987,59.474619480263073,64.448],[11.179512014146894,59.454013991363865,76.5178],[11.162733258900403,59.430759225320458,136.4708],[11.155962883976372,59.412214285311165,157.1169],[11.144188318891111,59.399262263717361,139.113],[11.117106819194987,59.38248350847087,86.5588],[11.086198585846148,59.36747093798715,122.7391],[11.03880596137796,59.356873829410404,72.2011],[11.018494836605868,59.345099264325142,87.7159],[11.011430097554722,59.329497965587166,144.8535],[11.026148303911299,59.313013574467789,118.4536],[11.056762173132995,59.3065375636709,48.2444],[11.073540928379487,59.318017764629019,37.4784],[11.071480379489572,59.332147242731338,24.0],[11.046165064556249,59.333913427494139,39.0412],[11.067653645836856,59.349220362105,61.373],[11.096795694422894,59.364821660842978,24.0],[11.127115199517448,59.376301861801096,55.5268],[11.152724878577914,59.381306051962326,114.1031],[11.172741639222863,59.392197524666216,69.8972],[11.194524584630614,59.418101567853796,24.0],[11.213658252894163,59.447832344694092,24.0],[11.224844089725167,59.470498382483242,24.5],[11.222489176708109,59.474325116135958,38.255],[11.219839899563937,59.47697439328013,32.2863]]]}}