{"type": "Feature","bbox": [11.9943,66.475,12.2682,66.6],"geometry": {"type": "MultiPolygon","coordinates": [[[[11.9953,66.4776,5.6897],[11.9943,66.4755,11.8295],[11.9958,66.475,0.0],[11.9995,66.4755,0.0],[12.0,66.4771,4.9287],[11.9979,66.4792,0.0],[11.9953,66.4776,5.6897]]],
[[[12.0354,66.4833,10.3914],[12.0339,66.4818,5.2693],[12.0391,66.4818,0.0],[12.0391,66.4828,0.0],[12.0354,66.4833,10.3914]]],
[[[12.0458,66.4833,9.0223],[12.0443,66.4818,0.0],[12.0495,66.4818,19.3454],[12.0495,66.4828,28.0799],[12.0458,66.4833,9.0223]]],
[[[12.0578,66.5005,0.0],[12.0661,66.5057,0.0],[12.0589,66.5089,0.0],[12.0578,66.512,0.4866],[12.0521,66.5146,4.3233],[12.0443,66.512,27.6081],[12.0474,66.5099,33.8464],[12.0458,66.5083,51.4571],[12.0375,66.5083,5.0435],[12.0333,66.5062,3.8643],[12.0047,66.5057,27.8163],[12.0104,66.5021,0.0],[12.0208,66.5021,0.0],[12.025,66.5042,6.4256],[12.0328,66.5036,0.0],[12.0307,66.4964,3.9115],[12.0255,66.4953,12.3549],[12.0234,66.4932,0.0],[12.025,66.4917,0.0],[12.0437,66.4938,0.0],[12.0516,66.4964,0.0],[12.0526,66.4995,26.3884],[12.0578,66.5005,0.0]]],
[[[12.0651,66.4797,0.0],[12.0708,66.4771,2.2194],[12.0745,66.4776,0.0],[12.075,66.4792,0.0],[12.0729,66.4812,16.448],[12.0667,66.4812,0.0],[12.0651,66.4797,0.0]]],
[[[12.1016,66.4922,0.0],[12.0938,66.4917,0.0],[12.0917,66.4938,0.0],[12.0943,66.4974,8.9294],[12.0995,66.4984,0.0],[12.1016,66.5057,0.7973],[12.0833,66.5062,8.4572],[12.0755,66.5036,0.0],[12.0724,66.4984,13.3222],[12.0672,66.4974,0.0],[12.0646,66.4917,6.5794],[12.0651,66.4901,0.0],[12.0708,66.4875,6.6778],[12.0771,66.4875,0.0],[12.0813,66.4896,25.2694],[12.0917,66.4896,0.0],[12.1021,66.4854,0.0],[12.1125,66.4854,0.0],[12.1167,66.4896,4.9332],[12.1161,66.4932,0.0],[12.1146,66.4938,2.7056],[12.1042,66.4938,0.0],[12.1016,66.4922,0.0]]],
[[[12.1125,66.5021,0.0],[12.1109,66.5016,6.476],[12.1109,66.4984,0.0],[12.1203,66.4984,1.4438],[12.1161,66.5016,0.0],[12.1125,66.5021,0.0]]],
[[[12.1563,66.5188,5.9222],[12.1682,66.5214,0.0],[12.1682,66.5245,0.0],[12.1563,66.525,0.0],[12.1521,66.5229,-0.6221],[12.138,66.5224,0.0],[12.1479,66.5188,13.9019],[12.1563,66.5188,5.9222]]],
[[[12.0563,66.5229,0.0],[12.0547,66.5214,0.0],[12.0578,66.5214,2.8889],[12.0578,66.5224,0.3015],[12.0563,66.5229,0.0]]],
[[[12.0375,66.525,0.0],[12.0417,66.5229,7.6646],[12.0536,66.5234,1.6045],[12.0479,66.5271,4.9606],[12.0359,66.5266,0.6052],[12.0375,66.525,0.0]]],
[[[12.1109,66.5537,5.9356],[12.1125,66.5521,0.8096],[12.1161,66.5526,0.0],[12.1146,66.5542,7.5677],[12.1109,66.5537,5.9356]]],
[[[12.1354,66.5646,0.0],[12.139099999999999,66.5672,7.6825],[12.139099999999999,66.5703,7.2646],[12.1313,66.5708,0.0],[12.1276,66.5682,11.1679],[12.1276,66.5672,12.119],[12.1354,66.5646,0.0]]],
[[[12.1693,66.5443,2.4485],[12.1583,66.5479,0.0],[12.1547,66.5474,0.0],[12.1484,66.5453,-0.0331],[12.1516,66.5432,4.6058],[12.1516,66.5401,15.7472],[12.1464,66.5391,17.3593],[12.1443,66.5359,0.0],[12.1521,66.5354,-0.0663],[12.1563,66.5333,13.3584],[12.1682,66.5339,1.004],[12.1729,66.5417,0.0],[12.1693,66.5443,2.4485]]],
[[[12.2245,66.5411,19.9432],[12.2234,66.538,0.0],[12.225,66.5375,0.0],[12.2479,66.5375,3.558],[12.2682,66.5453,3.1653],[12.2333,66.5458,0.0],[12.2292,66.5437,10.1973],[12.2214,66.5432,4.4296],[12.2245,66.5411,19.9432]]],
[[[12.2422,66.5526,37.865],[12.2479,66.55,20.2905],[12.2583,66.55,22.716],[12.2661,66.5526,5.0849],[12.2682,66.5557,2.9694],[12.2438,66.5563,0.0],[12.2422,66.5557,0.0],[12.2422,66.5526,37.865]]],
[[[12.2432,66.5891,0.0],[12.225,66.5917,0.0],[12.2172,66.5891,0.0],[12.2172,66.5859,0.0],[12.2286,66.5818,0.0],[12.2146,66.5813,0.0],[12.213,66.5797,0.2613],[12.2208,66.5792,11.1211],[12.225,66.5771,0.0],[12.2328,66.5797,12.3134],[12.2359,66.5828,0.0],[12.2453,66.5839,0.0],[12.2474,66.587,0.388],[12.2432,66.5891,0.0]]],
[[[12.2438,66.5979,3.684],[12.2396,66.5979,2.2466],[12.2354,66.6,0.0],[12.2313,66.5958,7.5407],[12.2318,66.5943,0.0],[12.2417,66.5917,0.0],[12.2479,66.5917,0.0],[12.2516,66.5943,0.0],[12.2474,66.5974,0.0],[12.2438,66.5979,3.684]]]]}
,"properties": {"GID_2": "NOR.10.38_1","GID_0": "NOR","country": "Norway","GID_1": "NOR.10_1","province": "Nordland","NL_NAME_1": "NA","county": "Træna","VARNAME_2": "NA","NL_NAME_2": "NA","TYPE_2": "Kommuner","ENGTYPE_2": "Municipality","CC_2": "NA","HASC_2": "NO.NO.TR","name": "Træna.county","area_km2": 12.152888,"hist_schema_id": "Elevation0-9000","hist_area_km2": {"0": 8.147514,"25": 3.101251,"50": 0.363199,"75": 0.135215,"100": 0.101425,"125": 0.092979,"150": 0.092978,"175": 0.033813,"200": 0.025358,"225": 0.016904,"250": 0.00845,"275": 0.025351,"300": 0.00845}}}