{"type":"Feature","properties":{"ISO3166-1-Alpha-3":"NOR","country":"Norway","fill":"#00F","id":"914","name":"Rogaland"},
"geometry":{"type": "MultiPolygon","coordinates": [[[[5.60792,59.13443,1.6474],[5.5936,59.13251,18.4583],[5.58513,59.12718,0.8691],[5.57521,59.12401,7.4592],[5.60157,59.11522,0.0],[5.667,59.10041,7.5682],[5.75074,59.07233,191.6085],[5.77475,59.08055,19.7326],[5.77849,59.10139,9.0144],[5.77589,59.11274,0.0],[5.76401,59.11787,28.1469],[5.73911,59.12442,14.5235],[5.72096,59.12568,7.6162],[5.69793,59.12018,0.0],[5.6775,59.1225,7.3376],[5.64682,59.13068,0.0],[5.63478,59.1315,0.0],[5.62428,59.13105,0.0],[5.60792,59.13443,1.6474]]],
[[[5.87656,59.16739,0.0],[5.87737,59.17097,0.0],[5.87696,59.17857,6.8466],[5.87664,59.18452,0.0],[5.86232,59.18728,0.0],[5.84327,59.19619,20.9284],[5.83294,59.1999,13.2346],[5.82252,59.19912,0.2803],[5.81625,59.19416,10.2042],[5.81219,59.19253,7.8308],[5.80958,59.19009,0.0],[5.80974,59.1872,0.0],[5.80869,59.18541,6.8774],[5.80242,59.18252,7.667],[5.80291,59.17642,0.0],[5.80803,59.16987,3.3868],[5.79998,59.168,2.7363],[5.79412,59.16413,0.0],[5.78549,59.16987,11.3633],[5.7846,59.17361,36.6167],[5.78085,59.17642,0.0],[5.77125,59.17267,3.0092],[5.77434,59.16999,0.0],[5.77459,59.16405,0.0],[5.7728,59.15896,0.1156],[5.77312,59.15428,1.5226],[5.78175,59.14248,0.0],[5.78989,59.14155,0.0],[5.79689,59.1387,0.0],[5.80885,59.14073,6.9263],[5.82488,59.1387,0.0],[5.84018,59.14029,0.0],[5.84441,59.14317,0.0],[5.84636,59.14684,9.0073],[5.85353,59.15567,0.3928],[5.86419,59.16177,0.0],[5.87656,59.16739,0.0]]],
[[[5.45118,59.16348,0.5867],[5.46461,59.18309,1.8449],[5.46811,59.19672,8.0307],[5.46632,59.20454,22.3842],[5.46209,59.21088,12.9811],[5.452,59.22211,13.6949],[5.43922,59.22993,27.8461],[5.4323,59.23273,32.8897],[5.42555,59.2364,17.7294],[5.41383,59.24079,10.0436],[5.40382,59.24209,2.8314],[5.39389,59.24042,14.9196],[5.3851,59.23412,0.0],[5.37843,59.22675,18.467],[5.37534,59.21882,0.0],[5.3768,59.20722,14.4772],[5.38478,59.1953,0.0],[5.39601,59.18793,11.2693],[5.42172,59.1778,0.0],[5.42742,59.17455,0.0],[5.43198,59.1706,0.0],[5.43263,59.16722,12.0163],[5.43067,59.16474,9.3355],[5.43442,59.16108,0.302],[5.44321,59.15892,0.0],[5.45118,59.16348,0.5867]]],
[[[6.00441,59.23078,0.0],[6.05633,59.24071,21.0259],[6.09181,59.26142,306.1167],[6.09986,59.27656,0.0],[6.0726,59.28506,144.2426],[6.01637,59.29218,4.3819],[5.98756,59.29084,0.0],[5.95248,59.28392,0.0],[5.93247,59.26899,176.1192],[5.92986,59.24348,0.0],[5.95818,59.22785,115.6847],[6.00441,59.23078,0.0]]],
[[[4.90382,59.31619,24.3654],[4.89308,59.3181,14.7665],[4.88331,59.31428,3.8286],[4.88038,59.31342,14.3455],[4.87395,59.31737,5.3878],[4.87159,59.3146,3.9941],[4.8624,59.31371,9.4492],[4.85703,59.3107,0.0],[4.85792,59.30349,0.0],[4.86297,59.29999,0.8608],[4.86752,59.29507,0.0],[4.87786,59.29772,10.4403],[4.88185,59.29316,0.0],[4.8886,59.29316,0.4056],[4.90968,59.305,10.3428],[4.90414,59.30874,11.9898],[4.90594,59.31151,3.2415],[4.90382,59.31619,24.3654]]],
[[[5.27898,59.29255,20.505],[5.27687,59.29926,22.9609],[5.27882,59.31013,45.943],[5.28403,59.31538,26.5072],[5.28647,59.32038,37.7646],[5.28028,59.33027,24.1499],[5.27263,59.33564,24.0339],[5.26254,59.34105,37.0825],[5.25392,59.34797,25.0867],[5.24488,59.36921,4.4535],[5.20851,59.41596,0.0],[5.18588,59.41474,0.0],[5.18002,59.40058,0.0],[5.18849,59.38398,1.483],[5.20851,59.37495,0.0],[5.19874,59.36188,0.0],[5.18523,59.35586,0.0],[5.17449,59.34927,0.0],[5.17384,59.33405,0.0],[5.18279,59.32001,0.0],[5.22828,59.28559,23.6946],[5.17872,59.29222,0.0],[5.16528,59.27343,0.0],[5.17312,59.26871,0.0],[5.17213,59.25828,0.0],[5.17269,59.24102,0.0],[5.16443,59.21805,0.0],[5.16617,59.19568,0.0],[5.17867,59.17049,0.0],[5.18843,59.15725,0.0],[5.20855,59.14289,0.0],[5.23593,59.14106,0.0],[5.26319,59.15184,18.485],[5.29709,59.16888,42.4973],[5.30236,59.2055,71.6193],[5.31738,59.22885,57.7955],[5.31793,59.25654,44.849],[5.3141,59.2736,22.6463],[5.2951,59.28285,0.0],[5.27898,59.29255,20.505]]],
[[[6.55808,59.85955,1089.5707],[6.52863,59.85857,1112.8781],[6.48284,59.84999,819.8318],[6.43194,59.83325,1155.5139],[6.40801,59.82017,1072.0823],[6.34052,59.80219,1058.6404],[6.32145,59.79023,861.7281],[6.31231,59.78736,818.1725],[6.30301,59.78777,837.1456],[6.29551,59.78728,910.0887],[6.28528,59.78074,733.636],[6.27412,59.76901,932.8218],[6.26048,59.74312,1216.9856],[6.24508,59.72039,1098.6188],[6.20709,59.68426,937.0447],[6.18193,59.65491,798.1154],[6.18162,59.62318,776.2085],[6.17061,59.61579,700.5854],[6.01341,59.61553,629.3163],[5.98628,59.60778,561.9456],[5.97713,59.60768,597.2223],[5.9529,59.61553,625.5093],[5.94422,59.61675,620.2687],[5.91182,59.60939,514.3201],[5.88277,59.59716,378.871],[5.83885,59.58657,417.3641],[5.73767,59.58773,117.4588],[5.65731,59.5783,413.2177],[5.5954,59.5621,374.4944],[5.52873,59.55791,0.0],[5.52687,59.55386,0.0],[5.51637,59.5395,0.0],[5.50563,59.53335,13.014099999999999],[5.44125,59.51838,27.7003],[5.43434,59.5152,28.5151],[5.42254,59.5065,8.5],[5.41676,59.50471,39.3357],[5.40805,59.50991,8.5],[5.40789,59.51622,50.0986],[5.40789,59.51623,50.0986],[5.37939,59.51213,12.1448],[5.35102,59.51316,41.766],[5.34306,59.51265,54.7325],[5.31283,59.50092,10.0225],[5.27661,59.49394,23.1887],[5.22028,59.48345,0.0],[5.19026,59.48019,0.0],[5.18998,59.48016,0.0],[5.19191,59.46304,0.0],[5.19606,59.44428,0.0],[5.20167,59.42963,0.0],[5.23121,59.42426,0.0],[5.29721,59.34467,0.0],[5.33139,59.35391,33.6296],[5.33041,59.3581,24.5],[5.33269,59.41153,59.2128],[5.33627,59.41511,72.4448],[5.3484,59.41596,153.4877],[5.35377,59.41108,93.019],[5.3576,59.39989,57.0402],[5.35825,59.38719,68.09],[5.34995,59.36644,60.0867],[5.35385,59.35529,27.1323],[5.36557,59.34024,31.2141],[5.36948,59.31835,19.314],[5.37273,59.3072,19.15],[5.37924,59.29926,0.0],[5.39088,59.29462,0.0],[5.39942,59.2967,0.0],[5.40463,59.30427,29.397],[5.4065,59.31635,45.3376],[5.40284,59.35904,4.8513],[5.40431,59.37897,4.8835],[5.41334,59.39545,27.0478],[5.43312,59.4051,19.9018],[5.44174,59.39224,62.2571],[5.4406,59.36982,82.0377],[5.43043,59.35078,39.9014],[5.42384,59.33047,31.1006],[5.4358,59.30768,56.7142],[5.45607,59.28852,0.0],[5.47543,59.27875,38.1908],[5.50538,59.27774,22.9561],[5.52931,59.28579,22.6003],[5.54933,59.29971,146.3795],[5.56788,59.31635,218.7588],[5.57635,59.33299,66.4437],[5.57781,59.37592,51.8535],[5.5853,59.39545,54.8869],[5.57814,59.40278,21.8644],[5.57008,59.40742,11.5],[5.56072,59.40933,28.0301],[5.5866,59.41649,119.616],[5.60727,59.39029,88.1885],[5.62338,59.35456,0.0],[5.64617,59.33405,0.0],[5.64617,59.32656,0.0],[5.63299,59.32477,0.0],[5.61866,59.31688,0.0],[5.60963,59.30557,0.0],[5.61199,59.29304,0.0],[5.6242,59.29218,0.0],[5.66651,59.30467,253.7866],[5.67774,59.3098,216.1353],[5.68238,59.31293,233.0712],[5.6951599999999996,59.31977,302.7014],[5.69858,59.32587,123.361],[5.6976,59.33267,73.7484],[5.69793,59.33804,45.2725],[5.70484,59.34024,23.3967],[5.73845,59.33478,23.3698],[5.7527,59.33625,0.0],[5.76344,59.34772,123.1437],[5.78354,59.34321,81.6962],[5.84636,59.34691,22.139],[5.85963,59.35078,145.6694],[5.85816,59.37458,381.8434],[5.85255,59.385,434.6298],[5.8025,59.42011,254.1118],[5.78419,59.42927,0.0],[5.76303,59.43236,0.0],[5.73552,59.42963,222.6283],[5.6644,59.40648,66.2089],[5.64617,59.40851,81.9309],[5.69646,59.42943,401.5038],[5.71372,59.44668,285.472],[5.70826,59.47061,296.2998],[5.72283,59.45116,159.6875],[5.74838,59.44579,36.049],[5.77638,59.45091,362.3542],[5.79754,59.46312,291.9711],[5.80787,59.48029,192.5292],[5.80348,59.49478,457.8038],[5.77711,59.52582,592.3373],[5.7889099999999996,59.52863,531.9641],[5.80738,59.53937,538.8136],[5.81813,59.5395,523.5806],[5.82301,59.53425,382.6472],[5.83448,59.51561,0.0],[5.8423,59.51154,0.0],[5.84938,59.50873,0.0],[5.86354,59.49429,0.0],[5.87273,59.48798,0.0],[5.88746,59.48225,13.7782],[5.90187,59.47907,86.5432],[6.02467,59.47431,0.0],[6.07374,59.48896,454.2768],[6.10434,59.49291,266.1602],[6.13356,59.49006,51.7333],[6.15317,59.47744,0.0],[5.92408,59.44611,119.471],[5.88624,59.44697,0.0],[5.88502,59.43472,0.0],[5.88282,59.42512,0.0],[5.8825,59.41523,0.0],[5.88624,59.40229,0.0],[5.89275,59.39517,0.0],[5.9017,59.38911,0.0],[5.91,59.38203,0.0],[5.91375,59.37157,0.0],[5.92416,59.35578,0.0],[5.94858,59.36026,17.4748],[5.99545,59.38117,60.028],[5.99195,59.38947,32.0148],[5.98609,59.3959,309.135],[5.97836,59.40013,467.6366],[5.96892,59.40229,575.6261],[5.96892,59.40851,613.8254],[5.97438,59.40982,613.5654],[5.98325,59.41413,643.5394],[5.98862,59.41596,612.4523],[5.9826,59.42963,628.2198],[5.9983,59.42841,368.469],[6.00953,59.40762,11.0448],[6.02703,59.40229,46.729],[6.04151,59.40497,126.2635],[6.07814,59.41934,181.5681],[6.09913,59.43268,340.9646],[6.14031,59.4501,383.5341],[6.15301,59.45942,378.9796],[6.16285,59.46849,259.61],[6.19825,59.51105,259.097],[6.219,59.52896,373.49],[6.23732,59.54979,337.6865],[6.24586,59.56196,441.1054],[6.24936,59.56989,489.4308],[6.25408,59.59553,701.1761],[6.26686,59.62564,247.0732],[6.28647,59.64924,228.6338],[6.31153,59.6555,210.698],[6.29705,59.64496,86.4071],[6.28875,59.62914,180.158],[6.285,59.6103,384.9053],[6.28419,59.59101,136.7617],[6.27858,59.57201,156.3483],[6.26498,59.55581,108.4771],[6.24928,59.54084,277.3832],[6.23634,59.52582,337.4709],[6.27215,59.52814,6.4503],[6.33611,59.55362,368.1541],[6.50522,59.57128,478.5685],[6.5442,59.55996,30.6377],[6.4275,59.55097,0.0],[6.24269,59.51057,0.0],[6.22267,59.49787,0.0],[6.21795,59.48851,0.0],[6.21616,59.46809,0.0],[6.21176,59.46003,0.0],[6.19809,59.44562,0.0],[6.19304,59.43822,0.0],[6.18865,59.42963,4.5758],[6.18531,59.43329,0.0],[6.1775,59.44001,0.0],[6.17433,59.44383,19.1971],[6.15382,59.42739,113.4014],[6.12924,59.4173,0.0],[6.07879,59.40229,0.0],[6.0534,59.39081,63.6287],[6.04151,59.38369,0.0],[6.03045,59.37495,0.0],[6.02223,59.3653,0.0],[6.01547,59.35505,0.0],[6.00758,59.34614,0.0],[5.99545,59.34024,0.0],[5.99545,59.33405,0.0],[6.01539,59.32856,0.0],[6.03745,59.32746,0.0],[6.05405,59.33462,137.5556],[6.05763,59.35391,475.3229],[6.063,59.34154,82.4217],[6.06918,59.33177,98.2947],[6.07838,59.32453,0.0],[6.09246,59.31977,0.0],[6.10125,59.31867,0.0],[6.11215,59.31843,0.0],[6.12281,59.31977,9.7738],[6.12989,59.32315,121.4659],[6.14381,59.33771,372.6071],[6.14698,59.34024,348.7109],[6.15846,59.33662,374.7454],[6.16456,59.32746,265.8842],[6.17213,59.32123,135.0031],[6.18865,59.32656,0.0],[6.1976,59.3347,0.0],[6.20069,59.34414,0.0],[6.19923,59.35155,190.4545],[6.21209,59.33979,14.825],[6.22657,59.33015,187.5451],[6.23634,59.31977,0.0],[6.23634,59.31293,4.6997],[6.08497,59.30671,0.0],[6.11232,59.27456,0.0],[6.15414,59.26777,74.3051],[6.2024,59.27704,196.7701],[6.31381,59.32294,403.9308],[6.33912,59.32656,504.3788],[6.46168,59.32656,106.607],[6.46168,59.31977,0.0],[6.36931,59.32136,61.4414],[6.3239,59.31501,419.3671],[6.25213,59.27725,0.0],[6.1714,59.26142,0.0],[6.12517,59.23383,0.0],[6.07879,59.2167,102.1658],[6.0643,59.20722,120.8214],[6.03045,59.17577,0.0],[6.0088,59.14936,0.0],[6.03932,59.14745,74.1593],[6.08937,59.1529,92.607],[6.12648,59.14842,3.3123],[6.10841,59.14252,0.0],[6.05079,59.13475,0.0],[6.02182,59.12613,0.0],[5.92302,59.11347,0.0],[5.89064,59.10391,0.0],[5.87273,59.08698,0.0],[5.8755,59.06623,0.0],[5.89186,59.04536,0.0],[5.9139099999999996,59.02806,0.0],[5.93409,59.01813,0.0],[5.95395,59.01642,0.0],[5.99244,59.02513,42.707],[6.00913,59.02558,76.6096],[6.02003,59.01996,0.0],[6.03745,59.00283,0.0],[6.05079,58.99824,19.4652],[6.03191,58.99291,0.0],[6.00636,58.99103,10.6347],[5.98406,58.98408,30.8258],[5.97511,58.96345,0.0],[5.98268,58.95173,0.0],[6.03386,58.90518,0.0],[6.1268,58.98371,328.3086],[6.16041,58.99824,547.1891],[6.29868,59.01512,34.0373],[6.35206,59.03303,507.9059],[6.62623,59.05972,689.9772],[6.62623,59.0528,13.8387],[6.19483,58.98395,14.4857],[6.12648,58.9621,287.1119],[6.10532,58.95038,177.051],[6.07789,58.92829,82.8592],[6.06373,58.91364,29.445],[6.05763,58.90204,0.0],[6.06479,58.8854,36.837],[6.08204,58.87079,268.6337],[6.10255,58.85977,206.7834],[6.11899,58.85358,28.0748],[6.20623,58.84903,2.9585],[6.22885,58.83999,397.3149],[6.1351,58.83959,198.0691],[6.09254,58.84724,601.7028],[5.96998,58.90363,1.2953],[5.95737,58.91352,85.3366],[5.93409,58.93618,248.6878],[5.91961,58.94505,132.1087],[5.8825,58.9593,77.3881],[5.8659,58.96345,3.2872],[5.85353,58.96503,0.0],[5.82179,58.96345,0.0],[5.81739,58.95978,9.0879],[5.81951,58.94221,27.4804],[5.81813,58.93618,0.0],[5.80079,58.93183,2.3102],[5.75408,58.93391,4.595],[5.73552,58.9287,25.0759],[5.71559,58.86725,21.7208],[5.70297,58.8876,15.833],[5.70102,58.91913,14.4047],[5.70631,58.95222,61.2209],[5.71559,58.97712,30.4162],[5.55055,59.03856,0.0],[5.54249,59.00959,0.0],[5.53566,58.9986,0.0],[5.5232,58.9914,0.0],[5.54103,58.98456,0.0],[5.57887,58.98908,20.8522],[5.59156,58.97712,0.0],[5.58107,58.98225,1.3012],[5.57065,58.98208,0.0],[5.56039,58.97797,0.0],[5.55055,58.97089,0.0],[5.5936,58.94994,37.3703],[5.61638,58.93561,0.829],[5.62623,58.9256,2.3773],[5.61736,58.90729,0.0],[5.59767,58.91559,10.8473],[5.56788,58.94302,2.6778],[5.55698,58.94733,0.0],[5.5464,58.95474,0.0],[5.53712,58.95612,0.0],[5.53566,58.94599,0.0],[5.54322,58.93476,0.0],[5.54933,58.92084,0.0],[5.55055,58.91572,0.0],[5.56219,58.90526,0.0],[5.57065,58.90005,0.0],[5.57252,58.89403,0.0],[5.56414,58.88154,0.0],[5.55372,58.87763,0.0],[5.53924,58.87499,0.0],[5.53053,58.86872,0.0],[5.53688,58.85358,0.0],[5.53966,58.83385,0.0],[5.53967,58.81548,0.4735],[5.53536,58.7989,0.0],[5.52672,58.78411,0.0],[5.49521,58.76596,0.0],[5.47795,58.75475,0.0],[5.50692,58.7299,0.0],[5.51816,58.71422,0.0],[5.52638,58.69429,0.0],[5.54794,58.66696,1.4223],[5.57154,58.62832,0.0],[5.6146,58.59323,0.0],[5.65235,58.56273,0.0],[5.64625,58.54865,0.0],[5.70417,58.52077,0.0],[5.74195,58.527,0.0],[5.77839,58.5209,0.9715],[5.79665,58.48925,0.171],[5.83732,58.48132,6.4465],[5.92848,58.48359,86.2517],[5.9546,58.47748,30.0],[5.96437,58.46817,0.0],[5.96705,58.45869,66.8319],[5.96697,58.44839,62.9821],[5.96892,58.43651,26.0238],[5.9734,58.42402,21.4621],[5.97804,58.4145,35.2349],[5.9839,58.4064,0.0],[6.00148,58.39012,0.0],[6.0101,58.38491,0.0],[6.02117,58.38215,0.0],[6.05063,58.37946,22.7816],[6.0617,58.3747,0.0],[6.08497,58.36017,0.0],[6.14031,58.33967,0.0],[6.20338,58.33552,6.5534],[6.219,58.32978,2.9194],[6.23121,58.32315,0.0],[6.24822,58.31782,0.0],[6.26596,58.31428,0.0],[6.28077,58.31297,0.0],[6.29176,58.30866,0.0],[6.34752,58.28585,55.0233],[6.39763,58.273,132.2145],[6.40786,58.28001,151.414],[6.43891,58.29303,4.4124],[6.5494,58.31737,50.3898],[6.56351,58.3213,297.8934],[6.57715,58.32662,53.3531],[6.59813,58.33851,294.8368],[6.61425,58.35225,172.4161],[6.62728,58.3668,249.5813],[6.631,58.38434,166.7436],[6.62898,58.40145,95.6237],[6.5941,58.50294,559.4868],[6.59084,58.52023,465.6985],[6.59239,58.53147,551.1359],[6.59782,58.54893,500.1016],[6.59673,58.55891,503.119],[6.58774,58.58831,525.8943],[6.58728,58.5996,535.64],[6.5848,58.61146,528.7683],[6.57389,58.62035,472.4485],[6.54056,58.62761,563.3745],[6.48749,58.62448,428.1804],[6.47075,58.63182,503.7247],[6.44543,58.65807,572.1214],[6.4555,58.66707,658.5097],[6.5542,58.68732,792.1208],[6.5848,58.70024,491.0782],[6.5986,58.70804,772.8215],[6.60185,58.72174,765.3138],[6.57591,58.74505,767.8703],[6.56335,58.76029,665.4785],[6.53157,58.77357,743.7858],[6.52253,58.77959,770.1578],[6.51664,58.78571,609.0174],[6.53188,58.80915,813.3275],[6.57777,58.86452,841.1758],[6.58118,58.87579,650.9301],[6.58196,58.89341,751.3812],[6.57575,58.90369,801.1076],[6.56506,58.91467,793.1017],[6.56041,58.92276,893.2794],[6.56242,58.93118,859.152],[6.57343,58.94054,1003.524],[6.75905,59.05242,892.0508],[6.77145,59.06255,968.5109],[6.78525,59.07986,830.3367],[6.80153,59.09298,1037.179],[6.83135,59.10934,949.2476],[6.86504,59.12394,920.8731],[6.88147,59.13515,994.1027],[6.88705,59.14884,883.0],[6.88116,59.1607,907.8063],[6.88194,59.16921,965.2191],[6.88984,59.17753,1005.0026],[6.91341,59.1875,1070.907],[6.94261,59.20858,883.0],[6.85693,59.20264,1178.5522],[6.83026,59.21148,1139.1865],[6.82716,59.21967,1148.5273],[6.82747,59.26215,1106.9542],[6.81507,59.31271,1068.7278],[6.81677,59.32532,1094.6838],[6.8239,59.33772,1090.7786],[6.84204,59.35785,1128.8593],[6.85289,59.37245,1110.1914],[6.85863,59.40247,1046.0],[6.86705,59.41942,1100.7058],[6.88008,59.42795,1046.0],[6.89449,59.43524,1105.2635],[6.89961,59.43927,1132.3008],[6.90163,59.44387,1147.8181],[6.90039,59.448,1149.5659],[6.9024,59.45503,1085.7402],[6.90907,59.45802,1101.6447],[6.94043,59.46283,1137.5327],[6.96322,59.4695,1309.0853],[6.99692,59.48484,1164.2654],[7.00916,59.49368,1163.8459],[7.01459,59.49882,1160.3583],[7.01444,59.50019,1160.3583],[7.01366,59.50123,1160.3005],[7.01149,59.50355,1160.3406],[7.00513,59.50836,1168.4716],[6.98482,59.52913,1387.7883],[6.98405,59.54474,1157.4093],[6.98793,59.5697,1193.0918],[6.98715,59.57874,1362.4834],[6.98529,59.58626,1229.8901],[6.98436,59.59574,1286.2888],[6.98606,59.60417,1169.3567],[6.99382,59.61011,1095.1814],[7.0551,59.63217,1132.6011],[7.08239,59.64732,1140.7362],[7.10942,59.67005,982.6686],[7.12213,59.67553,1072.9447],[7.14838,59.68101,1052.5106],[7.16419,59.6824,1050.5039],[7.17505,59.68184,1050.4065],[7.18171,59.67967,1050.4045],[7.19163,59.67951,1054.625],[7.19959,59.68013,1052.1152],[7.24393,59.69103,1090.6451],[7.14419,59.71493,1121.0754],[7.12771,59.72333,1297.328],[7.11314,59.73558,1353.8229],[7.10818,59.77191,1408.8276],[7.09205,59.79408,1310.3372],[7.00374,59.79759,1196.9443],[6.97552,59.79247,1308.5623],[6.77734,59.72886,1054.0583],[6.70288,59.71258,999.0569],[6.67477,59.71741,1089.5143],[6.66283,59.72225,1018.484],[6.65399,59.72912,896.9824],[6.65399,59.74173,818.5],[6.66143,59.75392,888.5869],[6.67275,59.76798,1045.327],[6.68159,59.78183,1011.4496],[6.68639,59.79702,1106.2343],[6.68562,59.8147,1025.5],[6.67957,59.83206,1068.83],[6.66856,59.8458,1187.281],[6.64981,59.85443,1090.8086],[6.62526,59.85878,1154.9532],[6.59549,59.85733,1002.6583],[6.55808,59.85955,1089.5707]]]]}}