{"type":"Feature","properties":{"GID_2":"NOR.15.16_1","GID_0":"NOR","country":"Norway","GID_1":"NOR.15_1","province":"Sør-Trøndelag","NL_NAME_1":"NA","county":"Osen","VARNAME_2":"NA","NL_NAME_2":"NA","TYPE_2":"Kommuner","ENGTYPE_2":"Municipality","CC_2":"NA","HASC_2":"NO.ST.OS","name":"Osen.county"},
"geometry":{"type": "MultiPolygon","coordinates": [[[[10.6551,64.3793,198.2184],[10.6448,64.3787,210.8222],[10.6433,64.3831,112.0007],[10.6245,64.382,31.5581],[10.6229,64.3792,6.7712],[10.6234,64.3755,30.9115],[10.6307,64.3745,65.3183],[10.6307,64.3714,0.0],[10.6229,64.3708,0.0],[10.6151,64.3682,13.8644],[10.613,64.3651,14.2212],[10.6188,64.3625,0.0],[10.6292,64.3646,6.3598],[10.6333,64.3604,0.0],[10.6438,64.3604,0.0],[10.6583,64.3646,30.7321],[10.6625,64.3625,0.0],[10.6771,64.3625,0.0],[10.6828,64.3588,54.3287],[10.6708,64.3542,293.2932],[10.6438,64.3542,0.0],[10.6422,64.3536,0.0],[10.6411,64.3484,16.9198],[10.639099999999999,64.3464,144.3504],[10.6313,64.3438,0.0],[10.6229,64.3438,7.2196],[10.612,64.3495,80.1195],[10.6026,64.3505,172.5433],[10.5995,64.3536,0.0],[10.588,64.3588,153.0833],[10.5891,64.3641,0.0],[10.5833,64.3667,27.4936],[10.5771,64.3667,102.9774],[10.5646,64.3708,0.0],[10.5583,64.3688,61.7887],[10.5542,64.3708,14.3681],[10.55,64.3708,32.5087],[10.5458,64.3688,51.1402],[10.5375,64.3729,7.5941],[10.5271,64.3729,35.2695],[10.5229,64.375,0.0],[10.5167,64.3729,89.7593],[10.5109,64.3745,0.0],[10.5109,64.3714,9.0448],[10.514099999999999,64.3703,70.6218],[10.513,64.3672,4.633],[10.5167,64.3646,2.2534],[10.514099999999999,64.3588,162.5743],[10.5089,64.3568,0.0],[10.5188,64.3521,0.0],[10.5307,64.3516,48.4106],[10.5443,64.3443,0.0],[10.5516,64.3432,0.0],[10.5682,64.3349,0.0],[10.5714,64.3318,0.0],[10.5807,64.3307,85.0281],[10.5797,64.3276,97.2576],[10.5828,64.3266,91.0986],[10.5813,64.325,286.2562],[10.5771,64.325,230.5844],[10.5729,64.3271,16.5124],[10.5625,64.3271,27.7801],[10.5599,64.3307,130.2682],[10.5359,64.3359,195.6194],[10.537,64.3411,0.0],[10.5292,64.3417,93.5481],[10.5109,64.3464,54.1401],[10.5099,64.3495,50.1325],[10.4958,64.3562,6.3678],[10.4771,64.3583,0.0],[10.4714,64.3557,24.2659],[10.4693,64.3526,3.7012],[10.4854,64.35,37.2524],[10.4922,64.3464,28.0344],[10.4995,64.3453,0.0],[10.512,64.338,9.3167],[10.5042,64.3375,38.5232],[10.5,64.3396,2.4273],[10.4938,64.3375,164.0681],[10.4839,64.3422,77.4808],[10.4849,64.3453,0.0],[10.4833,64.3458,0.0],[10.4688,64.3458,38.1971],[10.4505,64.3516,31.4324],[10.4484,64.3484,22.2934],[10.4521,64.3458,0.0],[10.4505,64.3401,11.0012],[10.4563,64.3375,0.0],[10.4703,64.3349,0.0],[10.475,64.3313,0.0],[10.4729,64.3292,58.1762],[10.4688,64.3313,0.0],[10.4625,64.3313,0.0],[10.4583,64.3292,23.3226],[10.4521,64.3313,0.0],[10.4464,64.3287,2.2914],[10.4443,64.3255,0.0],[10.4599,64.3182,0.0],[10.4604,64.3167,0.0],[10.4578,64.313,12.3826],[10.4484,64.312,0.0],[10.451599999999999,64.3089,0.0],[10.4464,64.3068,0.0],[10.4557,64.3057,0.0],[10.4547,64.3026,0.0],[10.4563,64.3021,0.0],[10.4667,64.3042,0.0],[10.475,64.3,0.0],[10.4896,64.3042,0.0],[10.4958,64.3042,0.0],[10.4974,64.3037,0.0],[10.4974,64.3005,0.0],[10.4859,64.2963,3.4548],[10.4938,64.2958,0.0],[10.4979,64.2979,0.0],[10.4995,64.2974,0.0],[10.4995,64.2943,41.6176],[10.4896,64.2875,142.1935],[10.4812,64.2917,0.0],[10.4672,64.2943,0.0],[10.4604,64.2979,34.1417],[10.4458,64.2979,0.0],[10.4417,64.2958,0.0],[10.4354,64.2958,85.2306],[10.4313,64.2979,82.9712],[10.4208,64.2979,0.0],[10.4167,64.2958,49.9859],[10.4104,64.2958,15.7541],[10.4057,64.2901,26.1226],[10.4026,64.2891,0.0],[10.4057,64.2859,62.5278],[10.4016,64.2797,0.0],[10.3938,64.2792,3.1516],[10.3917,64.2771,0.0],[10.3922,64.2755,0.0],[10.413,64.2651,0.0],[10.4188,64.2646,56.8767],[10.4245,64.262,84.0902],[10.4224,64.2547,0.0],[10.413,64.2547,0.0],[10.4047,64.2589,33.799],[10.4057,64.262,0.0],[10.4022,64.2635,96.9672],[10.3811,64.2621,297.8437],[10.3826,64.2577,251.7954],[10.3929,64.2583,214.0135],[10.396,64.2494,135.4907],[10.4062,64.2501,135.0997],[10.4077,64.2456,106.0],[10.4282,64.247,322.2581],[10.4297,64.2425,368.7276],[10.4502,64.2438,227.2349],[10.4517,64.2394,301.1387],[10.4721,64.2407,393.2482],[10.4737,64.2362,313.245],[10.4839,64.2369,374.8177],[10.4854,64.2325,393.5194],[10.4956,64.2331,416.2536],[10.4972,64.2287,468.5533],[10.5074,64.2293,419.2529],[10.5104,64.2204,409.2916],[10.5206,64.2211,425.998],[10.5222,64.2166,372.9493],[10.5324,64.2173,312.0489],[10.5339,64.2128,364.7808],[10.5441,64.2135,394.083],[10.5456,64.209,388.6024],[10.5558,64.2097,341.8127],[10.5574,64.2052,329.5447],[10.5676,64.2059,365.5808],[10.5691,64.2014,354.6766],[10.5793,64.2021,376.8904],[10.5823,64.1932,369.266],[10.5925,64.1938,339.4027],[10.5986,64.1761,324.3461],[10.5884,64.1754,278.1505],[10.5914,64.1665,350.906],[10.7546,64.1768,550.3013],[10.7531,64.1812,590.3614],[10.7736,64.1825,425.9802],[10.7721,64.1869,398.6887],[10.7925,64.1882,523.8384],[10.791,64.1926,487.8085],[10.8114,64.1939,508.9132],[10.81,64.1983,501.2242],[10.8406,64.2002,445.5483],[10.8392,64.2047,411.0331],[10.88,64.2072,499.6126],[10.8786,64.2116,487.6301],[10.899,64.2129,425.224],[10.8961,64.2217,311.0732],[10.9063,64.2224,257.9893],[10.9034,64.2313,231.5992],[10.9136,64.2319,278.4508],[10.9092,64.2452,233.2801],[10.9195,64.2459,247.5093],[10.9166,64.2547,197.3863],[10.9268,64.2554,215.1877],[10.9224,64.2687,395.0531],[10.9327,64.2693,334.2179],[10.9297,64.2782,435.5331],[10.9195,64.2776,453.7094],[10.918,64.2821,354.2951],[10.8975,64.2808,282.712],[10.8961,64.2853,326.3048],[10.8756,64.284,416.4997],[10.8741,64.2885,436.8182],[10.8536,64.2872,490.0753],[10.8521,64.2916,494.4541],[10.8316,64.2904,414.3322],[10.8302,64.2948,422.7289],[10.8097,64.2936,486.0574],[10.8082,64.298,328.5045],[10.7979,64.2974,292.0532],[10.7964,64.3018,349.0948],[10.7862,64.3012,362.4336],[10.7832,64.3101,412.9953],[10.773,64.3095,440.6059],[10.7715,64.3139,448.0417],[10.7612,64.3133,434.7863],[10.7597,64.3177,428.9484],[10.7495,64.3171,372.0162],[10.7465,64.326,394.8891],[10.7362,64.3254,443.1797],[10.7347,64.3298,409.6586],[10.7245,64.3292,425.8469],[10.7215,64.3381,400.9657],[10.7112,64.3374,281.624],[10.7037,64.3597,398.3323],[10.6935,64.359,149.0362],[10.692,64.3635,189.0048],[10.6817,64.3628,45.1165],[10.6787,64.3717,231.6376],[10.6684,64.3711,201.2808],[10.6669,64.3755,372.3548],[10.6566,64.3749,392.0689],[10.6551,64.3793,198.2184]]],
[[[10.4271,64.35,6.6373],[10.4313,64.3479,0.0],[10.4349,64.3516,0.0],[10.4255,64.3516,15.4351],[10.4271,64.35,6.6373]]],
[[[10.4938,64.3625,17.7595],[10.4979,64.3604,0.0],[10.5016,64.3609,17.722],[10.5016,64.3662,5.2026],[10.4943,64.3662,11.5387],[10.4922,64.3641,9.035],[10.4938,64.3625,17.7595]]],
[[[10.4375,64.3667,0.0],[10.4438,64.3688,23.7348],[10.4542,64.3688,5.6599],[10.4557,64.3703,0.0],[10.4526,64.3714,29.0615],[10.45,64.375,0.0],[10.4354,64.375,9.2687],[10.4234,64.3703,2.3665],[10.425,64.3688,0.0],[10.4375,64.3667,0.0]]],
[[[10.3099,64.2901,0.0],[10.312,64.2932,0.0],[10.3089,64.2943,0.0],[10.3078,64.2974,0.0],[10.2979,64.3021,0.0],[10.2792,64.3021,0.0],[10.2714,64.2995,3.5251],[10.2693,64.2953,0.0],[10.275,64.2917,0.0],[10.2792,64.2937,0.644],[10.287,64.2932,0.0],[10.287,64.2901,23.4594],[10.2792,64.2875,29.8391],[10.2714,64.287,27.6207],[10.2771,64.2813,0.0],[10.2812,64.2813,9.5775],[10.2854,64.2833,11.7729],[10.2917,64.2813,0.0],[10.3005,64.287,0.0],[10.3099,64.2901,0.0]]],
[[[10.3109,64.3037,22.2615],[10.3109,64.3005,1.4287],[10.3141,64.3005,2.1682],[10.3141,64.3037,24.0631],[10.3109,64.3037,22.2615]]],
[[[10.2667,64.3229,0.0],[10.2651,64.3214,0.0],[10.2771,64.3208,0.0],[10.2891,64.3255,6.6789],[10.2911,64.3287,0.0],[10.2833,64.3292,0.0],[10.2667,64.3229,0.0]]],
[[[10.3766,64.3287,6.432],[10.3708,64.3292,59.4952],[10.3651,64.3318,5.614],[10.3661,64.3349,0.0],[10.3583,64.3354,2.2197],[10.3505,64.3328,0.0],[10.3536,64.3297,0.0],[10.3484,64.3287,0.0],[10.3479,64.3271,0.0],[10.3484,64.3255,0.0],[10.3568,64.3214,0.0],[10.3641,64.3203,0.0],[10.3667,64.3167,0.0],[10.3708,64.3187,9.4957],[10.3875,64.3187,0.0],[10.3917,64.3208,0.0],[10.3995,64.3214,0.0],[10.3979,64.3229,13.3218],[10.3875,64.3229,14.1502],[10.3766,64.3287,6.432]]],
[[[10.2937,64.3313,0.0],[10.2922,64.3297,0.9185],[10.3042,64.3292,0.0],[10.3083,64.3313,19.1964],[10.3146,64.3313,0.0],[10.3224,64.3339,11.864],[10.3245,64.3391,0.0],[10.3208,64.3396,1.1149],[10.3,64.3313,0.0],[10.2937,64.3313,0.0]]],
[[[10.4307,64.3432,0.0],[10.4234,64.3443,16.8721],[10.4208,64.3479,0.0],[10.4063,64.3479,17.847],[10.4047,64.3464,0.0],[10.412,64.3422,0.0],[10.3938,64.3396,0.0],[10.3896,64.3354,0.0],[10.3901,64.3339,0.0],[10.4,64.3292,0.0],[10.4083,64.3292,0.0],[10.4229,64.325,0.0],[10.4333,64.325,0.0],[10.4391,64.3276,0.0],[10.4411,64.3297,0.0],[10.4411,64.3328,0.0],[10.4208,64.3354,104.4044],[10.4193,64.3359,105.6267],[10.4203,64.3391,0.0],[10.4172,64.3401,0.0],[10.4188,64.3417,0.0],[10.4292,64.3417,0.0],[10.4307,64.3432,0.0]]],
[[[10.4245,64.3662,0.0],[10.4083,64.3688,0.774],[10.3901,64.3609,0.0],[10.3958,64.3583,0.0],[10.4063,64.3625,18.7161],[10.4125,64.3604,0.0],[10.4229,64.3604,0.0],[10.425,64.3625,6.3859],[10.4245,64.3662,0.0]]],
[[[10.4208,64.4125,0.0],[10.4193,64.412,0.0],[10.4193,64.4109,0.0],[10.4224,64.4109,1.7582],[10.4208,64.4125,0.0]]],
[[[10.6109,64.3859,30.6209],[10.6127,64.3833,7.0824],[10.6222,64.3833,0.0],[10.6212,64.3863,28.3083],[10.6109,64.3859,30.6209]]],
[[[10.5401,64.387,9.6161],[10.5401,64.3839,9.9239],[10.5474,64.3839,0.0],[10.5432,64.387,26.5467],[10.5401,64.387,9.6161]]],
[[[10.5149,64.4205,91.7961],[10.5134,64.4249,77.7589],[10.4979,64.425,7.049],[10.4901,64.4224,0.4345],[10.4891,64.4172,0.0],[10.4734,64.4161,0.0],[10.4724,64.413,2.2822],[10.463,64.4099,2.3828],[10.4599,64.4047,9.0307],[10.4547,64.4036,0.0],[10.4542,64.4021,0.0],[10.4547,64.4005,1.944],[10.462,64.3995,0.0],[10.4688,64.3958,0.0],[10.4849,64.3953,0.0],[10.4839,64.3922,7.3552],[10.4896,64.3896,21.9319],[10.5,64.3896,0.0],[10.5016,64.3912,2.3263],[10.4984,64.3932,0.0],[10.5005,64.3953,0.4547],[10.5083,64.3958,0.0],[10.5125,64.3979,0.0],[10.5229,64.3979,0.0],[10.5271,64.4,3.5806],[10.5625,64.4021,23.3055],[10.5695,64.3988,0.0],[10.5683,64.4014,20.2734],[10.5517,64.4054,155.3863],[10.5504,64.4091,205.5461],[10.5401,64.4084,113.3973],[10.5386,64.4129,228.8859],[10.5283,64.4122,58.8532],[10.5268,64.4167,186.4733],[10.5165,64.416,68.227],[10.5149,64.4205,91.7961]]]]}}