{"type":"Feature","properties":{"GID_2":"NOR.6.3_1","GID_0":"NOR","country":"Norway","GID_1":"NOR.6_1","province":"Hedmark","NL_NAME_1":"NA","county":"Åsnes","VARNAME_2":"NA","NL_NAME_2":"NA","TYPE_2":"Kommuner","ENGTYPE_2":"Municipality","CC_2":"NA","HASC_2":"NO.HE.AS","name":"Åsnes.county"},
"geometry":{"type": "MultiPolygon","coordinates": [[[[11.7834,60.4761,430.547],[11.7822,60.4806,453.158],[11.8365,60.4839,430.1701],[11.8377,60.4795,455.8099],[11.8467,60.48,417.8853],[11.8456,60.4845,429.4],[11.918,60.4889,385.8943],[11.9169,60.4933,321.6297],[11.935,60.4944,239.2035],[11.9339,60.4989,208.2066],[11.943,60.4994,175.5],[11.9419,60.5039,175.5],[12.0506,60.5104,148.0],[12.0462,60.5282,160.5208],[12.0371,60.5277,148.0],[12.036,60.5322,153.9451],[12.0542,60.5332,154.9532],[12.0531,60.5377,152.5684],[12.0621,60.5382,157.6109],[12.0599,60.5471,151.5766],[12.1144,60.5504,194.8132],[12.1155,60.5459,207.0412],[12.1427,60.5475,243.2182],[12.1449,60.5386,240.2886],[12.1539,60.5391,233.8681],[12.155,60.5347,214.3049],[12.1641,60.5352,243.1388],[12.163,60.5397,256.975],[12.1902,60.5412,318.5911],[12.1892,60.5457,323.4273],[12.1982,60.5462,304.6202],[12.1993,60.5418,321.46],[12.2356,60.5439,387.6979],[12.2367,60.5394,362.8183],[12.2548,60.5405,385.257],[12.2591,60.5227,335.6079],[12.3589,60.5284,366.8794],[12.3578,60.5329,384.9395],[12.3669,60.5334,454.4452],[12.3659,60.5378,407.1797],[12.384,60.5389,467.5068],[12.383,60.5433,483.3482],[12.4011,60.5444,517.1268],[12.4001,60.5488,495.7708],[12.4364,60.5509,494.6258],[12.4374,60.5464,476.7143],[12.4465,60.5469,451.0524],[12.4475,60.5425,425.9089],[12.4566,60.543,439.3963],[12.4587,60.5341,453.2159],[12.4678,60.5346,462.5052],[12.4688,60.5301,471.0092],[12.4779,60.5306,462.0042],[12.4789,60.5262,447.8113],[12.5334,60.5292,426.8742],[12.5344,60.5247,437.738],[12.5979,60.5283,405.6502],[12.5949,60.5417,384.1648],[12.5858,60.5412,368.0],[12.5827,60.5545,369.8794],[12.5736,60.554,368.0],[12.5716,60.563,425.76],[12.5625,60.5625,412.5927],[12.5604,60.5714,451.618],[12.5513,60.5709,413.224],[12.5493,60.5798,442.5041],[12.5402,60.5793,416.8296],[12.5381,60.5882,466.0061],[12.529,60.5877,516.8295],[12.527,60.5966,521.8848],[12.5179,60.5961,543.65],[12.5085,60.6363,492.4914],[12.5176,60.6368,496.1412],[12.5155,60.6457,476.3589],[12.5064,60.6452,519.301],[12.5044,60.6541,543.3345],[12.4952,60.6536,578.9811],[12.4932,60.6625,539.1376],[12.484,60.662,535.0317],[12.4809,60.6754,549.9357],[12.4718,60.6749,432.5825],[12.4697,60.6838,277.6975],[12.4606,60.6833,242.9217],[12.4585,60.6922,261.086],[12.4494,60.6917,299.6466],[12.4473,60.7006,341.4261],[12.4381,60.7001,352.0179],[12.436,60.709,455.7318],[12.4269,60.7085,447.2411],[12.4248,60.7174,380.5293],[12.4157,60.7169,345.7948],[12.4136,60.7258,322.5018],[12.4044,60.7253,320.7506],[12.4023,60.7342,282.1479],[12.3932,60.7337,278.0],[12.3868,60.7605,355.9001],[12.3777,60.7599,378.7115],[12.3702,60.7912,326.7808],[12.3611,60.7906,328.5971],[12.3536,60.8218,500.0654],[12.3444,60.8213,537.8003],[12.3391,60.8436,395.7761],[12.3116,60.8421,287.4836],[12.3105,60.8465,286.9824],[12.3014,60.846,300.7512],[12.2992,60.8549,325.1183],[12.29,60.8544,299.7536],[12.289,60.8588,304.454],[12.2798,60.8583,301.1179],[12.2787,60.8628,312.1387],[12.2604,60.8617,305.8407],[12.2593,60.8662,309.6385],[12.2501,60.8657,316.1764],[12.2491,60.8701,324.5172],[12.2307,60.8691,325.4359],[12.2296,60.8735,341.5039],[12.2205,60.873,333.8941],[12.2194,60.8775,357.1577],[12.201,60.8764,342.2717],[12.1999,60.8809,371.9515],[12.1816,60.8798,340.1104],[12.1805,60.8843,338.2594],[12.1713,60.8837,362.8083],[12.1724,60.8793,390.4981],[12.1633,60.8787,443.2827],[12.1644,60.8743,435.618],[12.1552,60.8737,494.6449],[12.1563,60.8693,573.5516],[12.1655,60.8698,558.4929],[12.1666,60.8654,609.5624],[12.1757,60.8659,600.1877],[12.1768,60.8614,615.2971],[12.186,60.862,547.9962],[12.1871,60.8575,596.9367],[12.1962,60.858,528.065],[12.1973,60.8536,502.0805],[12.2065,60.8541,453.5183],[12.2087,60.8452,425.9907],[12.1995,60.8447,459.3786],[12.2006,60.8402,460.5796],[12.1823,60.8391,472.624],[12.1834,60.8347,499.067],[12.1742,60.8342,492.4894],[12.1753,60.8297,484.0391],[12.157,60.8286,406.2575],[12.1581,60.8242,388.0515],[12.149,60.8237,350.744],[12.1501,60.8192,350.8033],[12.1043,60.8165,390.0857],[12.1054,60.8121,372.654],[12.0963,60.8115,323.2227],[12.0974,60.8071,319.0775],[12.0882,60.8065,303.412],[12.0926,60.7887,282.3668],[12.0652,60.7871,307.9793],[12.0663,60.7826,314.8759],[12.0389,60.781,335.1309],[12.04,60.7766,371.5358],[12.0309,60.776,378.4117],[12.032,60.7716,424.9047],[12.0137,60.7705,435.3081],[12.0148,60.766,479.418],[11.9966,60.7649,531.2773],[11.9977,60.7605,536.7172],[11.9885,60.7599,545.0557],[11.9908,60.751,528.1487],[11.9817,60.7505,545.9514],[11.9828,60.746,500.593],[11.9736,60.7455,473.261],[11.9748,60.741,472.8835],[11.9656,60.7405,514.6416],[11.9668,60.736,458.4294],[11.9576,60.7355,474.3694],[11.9599,60.7266,338.5493],[11.9507,60.726,322.009],[11.9541,60.7127,225.0341],[11.945,60.7121,221.7688],[11.9484,60.6987,183.9903],[11.9301,60.6977,184.5477],[11.9312,60.6932,182.4837],[11.913,60.6921,179.4878],[11.9141,60.6876,177.8629],[11.905,60.6871,177.208],[11.9062,60.6826,175.8656],[11.9153,60.6832,176.2346],[11.9175,60.6743,174.9205],[11.9266,60.6748,174.9759],[11.9289,60.6659,184.1276],[11.9198,60.6654,179.0573],[11.9276,60.6342,179.8848],[11.9185,60.6336,173.6371],[11.9196,60.6292,171.4339],[11.9106,60.6286,172.8287],[11.9117,60.6242,150.0],[11.9026,60.6236,150.0],[11.9048,60.6147,173.0615],[11.8957,60.6142,176.1918],[11.898,60.6053,187.3537],[11.8889,60.6047,185.3601],[11.89,60.6003,195.8782],[11.8809,60.5997,204.2134],[11.8821,60.5953,227.8845],[11.873,60.5947,236.8342],[11.8741,60.5902,234.1768],[11.8559,60.5891,263.4344],[11.8571,60.5847,295.279],[11.8389,60.5836,366.3659],[11.84,60.5791,396.1209],[11.8128,60.5775,323.0],[11.8139,60.573,333.8695],[11.7958,60.5719,343.609],[11.7969,60.5674,342.8125],[11.7243,60.563,533.9337],[11.7232,60.5674,513.494],[11.696,60.5657,568.2164],[11.6948,60.5702,599.8701],[11.6676,60.5685,494.4508],[11.6664,60.573,496.9489],[11.6483,60.5718,460.6218],[11.6506,60.5629,428.4539],[11.6597,60.5635,429.0],[11.6643,60.5457,432.1098],[11.6824,60.5468,452.4973],[11.6836,60.5424,488.0325],[11.6926,60.5429,496.0589],[11.6961,60.5296,456.1759],[11.7051,60.5301,423.6135],[11.7074,60.5212,419.6672],[11.7165,60.5218,409.6152],[11.7176,60.5173,411.4363],[11.7358,60.5184,418.4525],[11.7415,60.4962,438.9544],[11.7505,60.4967,454.9752],[11.7574,60.47,440.3265],[11.7754,60.4711,418.2108],[11.7743,60.4756,440.2978],[11.7834,60.4761,430.547]]]]}}