{"type": "Feature","bbox": [11.9554,63.9561,13.2448,64.433],"geometry": {"type": "MultiPolygon","coordinates": [[[[12.1354,64.3327,313.0],[12.0839,64.33,321.56],[12.0852,64.3256,313.0],[12.0544,64.3239,324.6873],[12.0556,64.3195,345.479],[12.0248,64.3178,313.0],[12.0261,64.3134,313.0],[11.9849,64.3112,313.0],[11.9862,64.3067,313.0],[11.9554,64.3051,395.8441],[11.9709,64.2516,360.5477],[11.9607,64.251,365.4102],[11.9658,64.2332,403.7677],[11.9556,64.2327,411.882],[11.9582,64.2237,256.5015],[11.9787,64.2249,323.4481],[11.98,64.2204,250.3272],[12.0005,64.2215,224.1886],[12.0017,64.217,163.7031],[12.012,64.2176,204.5955],[12.0299,64.1552,137.193],[12.0503,64.1563,183.8671],[12.0529,64.1473,264.0623],[12.0427,64.1468,258.5383],[12.0439,64.1423,270.3184],[12.0337,64.1418,265.3801],[12.0401,64.1195,292.6082],[12.0503,64.12,318.9172],[12.0541,64.1067,399.7799],[12.0643,64.1072,431.6094],[12.0656,64.1028,516.1732],[12.0962,64.1044,632.244],[12.0975,64.0999,679.9482],[12.1281,64.1015,580.0],[12.1294,64.0971,580.0],[12.16,64.0987,630.3437],[12.1637,64.0853,691.8353],[12.1535,64.0848,631.2183],[12.1573,64.0714,381.1575],[12.1471,64.0709,402.1931],[12.1496,64.062,270.4209],[12.1394,64.0614,272.5638],[12.1419,64.0525,268.2565],[12.1521,64.053,310.5611],[12.1533,64.0486,343.3711],[12.1737,64.0497,377.2646],[12.175,64.0452,417.5632],[12.1852,64.0457,463.1061],[12.1864,64.0413,489.4533],[12.2068,64.0423,447.5475],[12.208,64.0379,437.75],[12.2182,64.0384,387.8409],[12.2194,64.034,406.8534],[12.2296,64.0345,433.332],[12.2309,64.03,428.9068],[12.2512,64.0311,574.7102],[12.2525,64.0266,568.5927],[12.2626,64.0272,615.0208],[12.2639,64.0227,657.7679],[12.2741,64.0232,694.7876],[12.2753,64.0188,543.1113],[12.2855,64.0193,600.9323],[12.2879,64.0104,445.3552],[12.2981,64.0109,483.2959],[12.3005,64.002,471.8699],[12.3107,64.0025,468.777],[12.3132,63.9936,442.4859],[12.3233,63.9941,449.9733],[12.3258,63.9852,508.962],[12.3359,63.9857,460.1685],[12.3384,63.9768,435.0],[12.3485,63.9773,435.0],[12.3498,63.9729,435.0],[12.3599,63.9734,467.9967],[12.3624,63.9645,470.4268],[12.3725,63.965,500.8574],[12.3749,63.9561,649.0262],[12.568,63.9659,498.1035],[12.5692,63.9614,494.9786],[12.681,63.967,672.0394],[12.6798,63.9714,637.5645],[12.69,63.9719,623.8947],[12.6888,63.9764,633.3372],[12.699,63.9769,579.924],[12.6979,63.9813,553.7637],[12.7182,63.9823,487.8119],[12.717,63.9868,467.6294],[12.7272,63.9873,420.2686],[12.7261,63.9918,421.5937],[12.7464,63.9928,525.9113],[12.7453,63.9972,551.8014],[12.7554,63.9977,697.5938],[12.7543,64.0022,661.4874],[12.7746,64.0032,673.5466],[12.7735,64.0076,677.0892],[12.7939,64.0086,600.8373],[12.7927,64.0131,629.5473],[12.8029,64.0136,594.402],[12.8018,64.0181,640.586],[12.8221,64.019,603.0012],[12.821,64.0235,664.3793],[12.8414,64.0245,676.4742],[12.8402,64.029,711.838],[12.8504,64.0294,590.7684],[12.8493,64.0339,559.0672],[12.8697,64.0349,481.2614],[12.8685,64.0394,465.9171],[12.8787,64.0398,454.6736],[12.8776,64.0443,448.7618],[12.898,64.0453,439.5],[12.8969,64.0497,439.5],[12.9173,64.0507,491.3582],[12.9161,64.0552,573.8523],[12.9263,64.0557,598.9968],[12.9252,64.0601,691.0829],[12.9864,64.063,459.8953],[12.9853,64.0675,488.1591],[13.0364,64.0699,447.4091],[13.0352,64.0744,447.3101],[13.0863,64.0767,476.8149],[13.0852,64.0812,450.9261],[13.1465,64.084,547.108],[13.1454,64.0885,545.9355],[13.1965,64.0908,686.7016],[13.1954,64.0953,771.9543],[13.2056,64.0958,920.5087],[13.2013,64.1136,769.8105],[13.2115,64.1141,764.6498],[13.2072,64.132,739.7163],[13.2174,64.1324,752.3159],[13.212,64.1548,636.5296],[13.2222,64.1553,622.0247],[13.2179,64.1731,723.8487],[13.2281,64.1736,699.0451],[13.2227,64.1959,599.2615],[13.2329,64.1964,600.4081],[13.2286,64.2143,656.0815],[13.2388,64.2147,654.8397],[13.2345,64.2326,852.3075],[13.2448,64.2331,893.3161],[13.2372,64.2643,669.0378],[13.2269,64.2639,676.8409],[13.2247,64.2728,637.0679],[13.2144,64.2723,600.1492],[13.2111,64.2858,590.7332],[13.2008,64.2853,554.2468],[13.1975,64.2987,692.5884],[13.1873,64.2982,685.1184],[13.1851,64.3072,661.6653],[13.1748,64.3067,623.3108],[13.1714,64.3201,754.5919],[13.1611,64.3196,694.787],[13.1589,64.3286,640.4907],[13.1486,64.3281,606.8604],[13.1453,64.3415,696.5762],[13.135,64.341,718.9693],[13.1317,64.3544,953.5333],[13.1214,64.354,973.4103],[13.1158,64.3763,624.7947],[13.1055,64.3758,678.0859],[13.101,64.3937,584.8599],[13.0907,64.3932,654.2687],[13.0851,64.4156,501.1205],[13.0747,64.4151,438.8269],[13.0702,64.433,1059.0554],[12.7188,64.4164,408.085],[12.7176,64.4209,449.0601],[12.6762,64.4188,354.0755],[12.6774,64.4144,361.6694],[12.6464,64.4129,338.3424],[12.6476,64.4084,360.5689],[12.627,64.4074,277.9124],[12.6282,64.4029,328.5574],[12.5972,64.4014,345.7122],[12.5984,64.3969,322.6584],[12.5777,64.3959,243.131],[12.5789,64.3915,231.1538],[12.5686,64.391,213.0186],[12.5698,64.3865,212.8352],[12.5595,64.386,207.0252],[12.5607,64.3815,204.0223],[12.5298,64.38,222.0273],[12.5286,64.3845,226.1638],[12.5182,64.3839,210.1045],[12.477,64.3819,266.5694],[12.4782,64.3774,316.2711],[12.4576,64.3764,338.4365],[12.4564,64.3809,323.2271],[12.446,64.3803,267.9834],[12.4448,64.3848,155.5541],[12.4345,64.3843,185.0898],[12.4333,64.3887,186.3497],[12.4126,64.3877,175.2449],[12.4139,64.3832,131.8651],[12.4036,64.3827,145.971],[12.4048,64.3783,247.3519],[12.3945,64.3777,298.5041],[12.3957,64.3733,384.0822],[12.3854,64.3728,346.5185],[12.3866,64.3683,426.2394],[12.3763,64.3678,411.3824],[12.3775,64.3633,494.7373],[12.3466,64.3617,253.7486],[12.3479,64.3573,289.8835],[12.317,64.3557,209.0695],[12.3182,64.3512,234.7164],[12.3079,64.3507,257.7457],[12.3091,64.3463,351.1902],[12.2988,64.3457,337.0539],[12.3001,64.3413,444.5112],[12.2692,64.3397,333.0471],[12.2679,64.3441,321.6919],[12.2268,64.342,375.9208],[12.165,64.3388,356.4869],[12.1663,64.3343,439.368],[12.1354,64.3327,313.0]]]]}
,"properties": {"GID_2": "NOR.9.19_1","GID_0": "NOR","country": "Norway","GID_1": "NOR.9_1","province": "Nord-Trøndelag","NL_NAME_1": "NA","county": "Snåsa","VARNAME_2": "NA","NL_NAME_2": "NA","TYPE_2": "Kommuner","ENGTYPE_2": "Municipality","CC_2": "NA","HASC_2": "NO.NT.SN","name": "Snåsa.county","area_km2": 2305.92,"hist_schema_id": "Elevation0-9000","hist_area_km2": {"25": 76.476,"50": 23.751,"75": 26.708,"100": 21.263,"125": 17.422,"150": 25.079,"175": 36.134,"200": 46.961,"225": 55.632,"250": 42.89,"275": 57.338,"300": 62.923,"325": 76.018,"350": 72.455,"375": 99.883,"400": 95.617,"425": 109.755,"450": 121.592,"475": 111.523,"500": 119.503,"525": 118.061,"550": 110.985,"575": 109.359,"600": 117.921,"625": 118.488,"650": 105.456,"675": 85.808,"700": 63.155,"725": 47.981,"750": 36.033,"775": 25.815,"800": 20.355,"825": 15.212,"850": 10.202,"875": 7.421,"900": 5.308,"925": 3.891,"950": 2.066,"975": 1.335,"1000": 0.769,"1025": 0.51,"1050": 0.344,"1075": 0.232,"1100": 0.167,"1125": 0.121}}}