{"type": "Feature","bbox": [11.8401,65.1833,12.469,65.43],"geometry": {"type": "MultiPolygon","coordinates": [[[[11.8401,65.187,0.0],[11.8401,65.1839,13.6989],[11.8417,65.1833,15.2587],[11.8495,65.1859,1.959],[11.8479,65.1875,10.161],[11.8401,65.187,0.0]]],
[[[11.9641,65.2016,0.0],[11.9568,65.2026,9.049],[11.9578,65.2057,0.0],[11.9542,65.2063,0.0],[11.951599999999999,65.2026,63.6069],[11.9464,65.2005,1.6198],[11.9563,65.1958,0.0],[11.9682,65.1964,0.0],[11.9651,65.1984,17.8264],[11.9641,65.2016,0.0]]],
[[[11.9766,65.2589,7.129],[11.9755,65.2568,0.0],[11.9833,65.2562,0.0],[11.9911,65.2589,5.5552],[11.9995,65.2662,0.0],[11.9813,65.2667,0.0],[11.9797,65.2662,0.0],[11.9766,65.2589,7.129]]],
[[[12.037,65.2724,0.0],[12.0297,65.2734,0.0],[12.0271,65.2771,0.0],[12.0229,65.275,10.1611],[12.013,65.2745,5.7743],[12.0089,65.2724,0.8903],[12.0063,65.2688,0.0],[12.0109,65.2651,0.0],[12.0167,65.2646,14.4277],[12.0208,65.2667,0.0],[12.0292,65.2667,4.7016],[12.037,65.2693,0.0],[12.037,65.2724,0.0]]],
[[[12.4233,65.2977,137.436],[12.4553,65.2992,135.8589],[12.4515,65.3126,112.4254],[12.4621,65.3131,178.0806],[12.4593,65.3232,125.3728],[12.4443,65.3224,5.2624],[12.4474,65.3193,0.0],[12.4422,65.3172,20.8918],[12.4453,65.3161,36.3473],[12.4464,65.313,0.0],[12.4495,65.3109,213.3864],[12.4401,65.3099,98.6655],[12.4354,65.3063,224.5057],[12.425,65.3063,131.5914],[12.4188,65.3083,51.0403],[12.4146,65.3042,377.9833],[12.3979,65.3042,367.3314],[12.3917,65.3083,178.5981],[12.3854,65.3063,245.3944],[12.3792,65.3083,142.7691],[12.375,65.3063,146.681],[12.3672,65.3057,61.7959],[12.3703,65.3037,181.1302],[12.3688,65.3021,185.5901],[12.3625,65.3021,117.2922],[12.3583,65.3042,12.501],[12.3505,65.3016,0.0],[12.3521,65.3,25.7218],[12.3625,65.3,189.2357],[12.3641,65.2984,278.4379],[12.3589,65.2974,177.9566],[12.3557,65.2943,271.293],[12.3479,65.2917,242.4885],[12.3375,65.2917,60.6002],[12.3337,65.2887,8.5139],[12.3499,65.2895,327.2128],[12.3512,65.2851,383.1596],[12.3938,65.2872,258.633],[12.3926,65.2916,424.9785],[12.4032,65.2921,282.3727],[12.4019,65.2966,394.7227],[12.4233,65.2977,137.436]]],
[[[12.3021,65.3125,2.7365],[12.3005,65.3109,1.4223],[12.3099,65.3109,0.0],[12.3083,65.3125,0.0],[12.3021,65.3125,2.7365]]],
[[[12.1944,65.3806,8.6286],[12.177,65.3789,0.8102],[12.1745,65.3755,0.0],[12.1693,65.3745,0.0],[12.1708,65.3729,6.3899],[12.1875,65.3729,0.0],[12.1932,65.3745,0.0],[12.1911,65.3672,9.3674],[12.1875,65.3667,21.2413],[12.1833,65.3688,0.0],[12.1792,65.3646,25.893],[12.1714,65.3651,4.1054],[12.1703,65.3682,0.0],[12.1604,65.3729,0.0],[12.1563,65.3729,0.0],[12.1458,65.3688,0.0],[12.1396,65.3688,0.0],[12.138,65.3703,0.0],[12.1432,65.3724,0.0],[12.1401,65.3734,0.0],[12.1375,65.3771,0.0],[12.1297,65.3766,0.0],[12.1286,65.3714,5.756],[12.1234,65.3703,1.4347],[12.1214,65.3682,6.0447],[12.1214,65.3651,0.0],[12.1229,65.3646,0.0],[12.1292,65.3646,0.0],[12.1333,65.3667,0.0],[12.139099999999999,65.3641,0.0],[12.1375,65.3583,0.0],[12.139099999999999,65.3547,0.0],[12.1328,65.3505,0.0],[12.1276,65.3495,2.5187],[12.1266,65.3464,7.5407],[12.1214,65.3453,0.0],[12.1193,65.3432,0.0],[12.1193,65.338,0.0],[12.1245,65.3349,3.8745],[12.1193,65.3307,3.5107],[12.1224,65.3287,0.0],[12.1224,65.3255,0.0],[12.1125,65.325,0.0],[12.1099,65.3214,0.0],[12.1021,65.3187,18.2162],[12.0943,65.3182,0.0],[12.0911,65.3151,0.0],[12.0859,65.3141,0.0],[12.0891,65.3109,0.0],[12.0859,65.3099,6.6913],[12.0839,65.3068,0.0],[12.0896,65.3042,0.0],[12.1063,65.3042,0.0],[12.1104,65.3063,0.0],[12.1208,65.3063,0.0],[12.125,65.3042,0.0],[12.1354,65.3083,0.0],[12.1411,65.3026,0.0],[12.1359,65.3016,0.0],[12.1307,65.2922,0.0],[12.1214,65.2911,0.0],[12.1151,65.2891,0.0],[12.1141,65.2859,0.0],[12.1089,65.2849,2.4214],[12.1104,65.2833,0.0],[12.1208,65.2833,0.0],[12.125,65.2854,0.0],[12.1307,65.2818,0.0],[12.1255,65.2807,0.0],[12.1193,65.2766,0.0],[12.1193,65.2734,7.4782],[12.1224,65.2724,2.6692],[12.1203,65.2693,0.6728],[12.1083,65.2688,0.0],[12.1047,65.2662,0.0],[12.1047,65.263,3.1191],[12.1078,65.262,8.835],[12.1068,65.2589,1.8371],[12.1141,65.2547,0.0],[12.1063,65.2542,0.0],[12.0984,65.2516,0.0],[12.0953,65.2464,0.0],[12.0901,65.2432,0.0],[12.0932,65.2412,0.0],[12.0922,65.238,0.0],[12.0953,65.2359,0.0],[12.0813,65.2312,6.644],[12.075,65.2312,0.0],[12.0672,65.2286,0.0],[12.0703,65.2255,21.1389],[12.0583,65.2208,7.2709],[12.05,65.2208,0.0],[12.0396,65.2167,0.0],[12.0339,65.2193,5.9884],[12.0349,65.2224,0.0],[12.0276,65.2255,0.0],[12.0266,65.2286,3.1762],[12.0193,65.2318,5.0997],[12.0203,65.237,0.0],[12.0146,65.2396,16.6597],[11.9938,65.2396,0.0],[11.9911,65.2359,92.1846],[11.9734,65.2307,0.0],[11.9672,65.2266,13.3713],[11.9672,65.2234,10.5473],[11.9703,65.2214,26.6731],[11.9672,65.2161,90.4661],[11.9672,65.213,37.1582],[11.9771,65.2125,4.9622],[11.9813,65.2104,0.0],[11.9917,65.2104,0.0],[11.9958,65.2083,9.9634],[12.0104,65.2083,0.0],[12.0122,65.2071,0.0],[12.0109,65.2026,0.0],[12.0125,65.2021,0.0],[12.0188,65.2042,46.9],[12.0292,65.2042,0.0],[12.037,65.2068,6.1676],[12.0417,65.2104,0.0],[12.0521,65.2104,52.8543],[12.0563,65.2083,0.0],[12.0771,65.2083,0.0],[12.0875,65.2125,0.0],[12.0938,65.2125,0.0],[12.1016,65.2151,0.0],[12.112,65.2193,0.0],[12.1167,65.2229,0.0],[12.1229,65.2229,0.0],[12.1307,65.2255,4.0999],[12.1318,65.2286,25.3084],[12.1396,65.2312,9.3947],[12.1458,65.2312,31.2187],[12.15,65.2292,0.0],[12.1542,65.2312,30.8313],[12.1625,65.2312,0.0],[12.1771,65.2375,16.4252],[12.1833,65.2354,0.0],[12.1911,65.238,4.7151],[12.1922,65.2412,19.6349],[12.2036,65.2422,0.0],[12.2109,65.2474,31.5209],[12.2161,65.2484,0.0],[12.2172,65.2516,41.9763],[12.2224,65.2526,0.0],[12.2234,65.2557,55.4257],[12.2286,65.2568,0.0],[12.2318,65.2599,0.0],[12.2432,65.263,0.0],[12.2443,65.2682,25.0208],[12.2464,65.2703,11.1409],[12.2542,65.2708,0.0],[12.2682,65.2755,0.0],[12.2703,65.2807,0.0],[12.2667,65.2833,0.0],[12.2703,65.2911,18.9858],[12.2542,65.2958,104.2676],[12.238,65.2963,74.5185],[12.2417,65.3042,0.0],[12.238,65.3068,33.1776],[12.2391,65.3099,0.0],[12.2297,65.3109,3.8173],[12.2307,65.3141,0.0],[12.2271,65.3167,5.0946],[12.2276,65.3182,3.0881],[12.2328,65.3193,0.0],[12.2349,65.3214,0.0],[12.2349,65.3245,0.0],[12.2318,65.3266,3.4668],[12.2453,65.3266,0.0],[12.2443,65.3172,2.798],[12.2604,65.3167,20.9933],[12.2646,65.3146,0.0],[12.2708,65.3146,7.7885],[12.2734,65.3182,9.4948],[12.2813,65.3187,0.0],[12.2854,65.3208,1.9461],[12.3125,65.3208,0.0],[12.3167,65.3229,0.0],[12.3396,65.3229,0.0],[12.35,65.3292,29.6326],[12.3641,65.3297,0.0],[12.3609,65.3318,0.0],[12.3609,65.3349,78.3919],[12.3688,65.3354,0.0],[12.3766,65.338,0.0],[12.3797,65.3411,0.0],[12.3849,65.3422,0.0],[12.3859,65.3453,26.6459],[12.3974,65.3484,0.0],[12.3984,65.3516,11.8173],[12.4063,65.3542,86.131],[12.4141,65.3547,0.0],[12.4193,65.362,7.9394],[12.4313,65.3625,15.2196],[12.4354,65.3604,0.0],[12.4475,65.3646,25.8325],[12.4469,65.3667,121.4347],[12.4362,65.3662,175.1745],[12.4311,65.384,413.3829],[12.3989,65.3824,402.4378],[12.3912,65.4092,387.5648],[12.3805,65.4087,352.9626],[12.3779,65.4176,421.722],[12.3672,65.4171,466.3814],[12.3646,65.426,548.7814],[12.3539,65.4255,378.3872],[12.3526,65.43,444.8399],[12.3205,65.4284,415.1775],[12.3218,65.4239,339.3028],[12.3111,65.4234,530.8752],[12.3124,65.4189,368.9444],[12.2909,65.4179,244.898],[12.2922,65.4134,292.4251],[12.2815,65.4129,80.8011],[12.2828,65.4084,60.2438],[12.2721,65.4079,67.1872],[12.2774,65.39,23.8144],[12.2667,65.3895,0.0],[12.268,65.385,13.2544],[12.2573,65.3845,20.4112],[12.2586,65.3801,10.0325],[12.2453,65.3794,0.0],[12.2648,65.3946,12.1715],[12.2612,65.3967,22.0817],[12.1944,65.3806,8.6286]]],
[[[12.4639,65.3449,77.911],[12.4604,65.3573,183.9123],[12.4521,65.3521,70.1664],[12.4458,65.3521,0.0],[12.4276,65.3474,91.4838],[12.4349,65.3432,0.0],[12.437,65.3401,0.0],[12.4292,65.3396,0.0],[12.4214,65.337,0.0],[12.4182,65.3318,0.0],[12.4089,65.3287,0.0],[12.412,65.3255,12.4458],[12.4068,65.3245,2.2783],[12.4047,65.3214,0.0],[12.4104,65.3187,0.0],[12.4271,65.3187,4.5941],[12.4286,65.3203,29.0293],[12.4255,65.3224,0.0],[12.4474,65.3276,0.0],[12.45,65.3313,14.4643],[12.4583,65.3313,0.0],[12.4625,65.3333,0.0],[12.4641,65.3318,23.6932],[12.4589,65.3276,0.0],[12.469,65.327,11.5879],[12.4639,65.3449,77.911]]],
[[[12.0484,65.2974,0.0],[12.0521,65.2958,0.0],[12.0599,65.2995,0.0],[12.0521,65.3,15.9265],[12.0484,65.2974,0.0]]],
[[[12.1063,65.3562,9.0434],[12.1068,65.3547,0.0],[12.1099,65.3547,0.0],[12.112,65.3568,0.0],[12.112,65.3599,1.7812],[12.1089,65.3599,2.5507],[12.1063,65.3562,9.0434]]],
[[[12.4642,65.363,51.1535],[12.4566,65.3626,19.0417],[12.4547,65.3609,44.2843],[12.4604,65.3604,5.6251],[12.4684,65.3632,0.0],[12.4642,65.363,51.1535]]]]}
,"properties": {"GID_2": "NOR.10.33_1","GID_0": "NOR","country": "Norway","GID_1": "NOR.10_1","province": "Nordland","NL_NAME_1": "NA","county": "Sømna","VARNAME_2": "NA","NL_NAME_2": "NA","TYPE_2": "Kommuner","ENGTYPE_2": "Municipality","CC_2": "NA","HASC_2": "NO.NO.SM","name": "Sømna.county","area_km2": 200.6962,"hist_schema_id": "Elevation0-9000","hist_area_km2": {"0": 36.0632,"25": 37.4126,"50": 20.4375,"75": 14.1386,"100": 12.6701,"125": 9.2095,"150": 6.6054,"175": 5.8163,"200": 6.6042,"225": 5.8405,"250": 5.54,"275": 4.8934,"300": 4.6182,"325": 4.0431,"350": 3.9982,"375": 3.7772,"400": 3.883,"425": 3.6791,"450": 3.0952,"475": 2.4403,"500": 1.5557,"525": 1.4049,"550": 1.14,"575": 0.8044,"600": 0.5481,"625": 0.4422,"650": 0.0354}}}