{"type": "Feature","bbox": [11.6102,60.563,12.3397,61.0597],"geometry": {"type": "MultiPolygon","coordinates": [[[[12.3391,60.8436,395.7761],[12.3305,60.8793,336.1978],[12.3397,60.8798,349.7935],[12.3365,60.8932,315.2957],[12.3273,60.8927,298.5],[12.324,60.906,326.8752],[12.3149,60.9055,315.8268],[12.3106,60.9234,365.8008],[12.3014,60.9228,362.3517],[12.2981,60.9362,383.0797],[12.2889,60.9357,386.6877],[12.2857,60.9491,401.9179],[12.2765,60.9485,409.7011],[12.2722,60.9664,405.6461],[12.263,60.9658,413.3639],[12.2597,60.9792,415.3936],[12.2505,60.9787,412.2246],[12.2461,60.9965,507.8866],[12.2369,60.996,517.0475],[12.2336,61.0094,596.0388],[12.2244,61.0088,601.6846],[12.2212,61.0222,534.5131],[12.2119,61.0217,552.4385],[12.2097,61.0306,657.5298],[12.2005,61.0301,600.7798],[12.1983,61.039,607.8921],[12.1891,61.0385,656.4615],[12.1869,61.0474,607.3206],[12.1777,61.0468,665.6566],[12.1755,61.0558,509.3428],[12.1663,61.0552,577.6636],[12.1652,61.0597,524.8884],[12.1559,61.0592,585.9826],[12.157,61.0547,591.8389],[12.1386,61.0536,569.2394],[12.1397,61.0492,560.2888],[12.1213,61.0481,550.2868],[12.1224,61.0436,526.1953],[12.104,61.0426,506.3564],[12.1084,61.0247,497.9213],[12.1176,61.0253,519.9445],[12.1198,61.0164,491.3999],[12.1291,61.0169,531.7267],[12.1302,61.0124,512.1313],[12.1394,61.013,547.4077],[12.1438,60.9952,511.957],[12.1346,60.9946,484.7779],[12.139,60.9768,473.0315],[12.1206,60.9757,429.9734],[12.1217,60.9713,431.0415],[12.1125,60.9707,418.2421],[12.117,60.9529,398.5413],[12.1262,60.9534,419.8946],[12.1317,60.9312,376.2348],[12.1409,60.9317,391.8237],[12.142,60.9272,391.6273],[12.1236,60.9262,365.5624],[12.1225,60.9306,372.1354],[12.1133,60.9301,372.126],[12.1122,60.9345,375.8101],[12.103,60.934,385.0102],[12.1019,60.9385,382.2793],[12.0927,60.9379,382.2826],[12.0916,60.9424,389.4969],[12.0824,60.9418,394.9373],[12.0813,60.9463,397.3089],[12.0721,60.9458,403.5578],[12.071,60.9502,406.3593],[12.0527,60.9491,452.0758],[12.0538,60.9447,453.5965],[12.0354,60.9436,509.7916],[12.0343,60.9481,490.6193],[12.0159,60.947,519.713],[12.0148,60.9514,504.028],[12.0056,60.9509,507.7567],[12.0078,60.942,549.2012],[11.9987,60.9414,566.3409],[12.0032,60.9236,526.6296],[11.994,60.9231,540.6821],[11.9985,60.9052,473.8525],[11.9893,60.9047,481.3806],[11.9927,60.8913,409.1969],[12.0018,60.8919,410.1421],[12.0041,60.883,401.8663],[11.9949,60.8824,392.1642],[11.996,60.878,389.2186],[11.9869,60.8774,359.5952],[11.988,60.873,349.1865],[11.9788,60.8724,338.0591],[11.98,60.868,334.8114],[11.9708,60.8674,316.9177],[11.9719,60.863,316.5496],[11.9628,60.8624,300.8775],[11.965,60.8535,305.9118],[11.9742,60.8541,296.3773],[11.9787,60.8362,387.3641],[11.9695,60.8357,492.0237],[11.9706,60.8312,533.2806],[11.9615,60.8307,563.1833],[11.9637,60.8218,520.264],[11.9454,60.8207,507.0744],[11.9465,60.8162,517.1532],[11.9283,60.8151,485.3651],[11.9294,60.8107,467.4225],[11.9019,60.809,423.6513],[11.9031,60.8046,412.413],[11.8665,60.8024,335.0657],[11.8676,60.7979,317.2536],[11.8311,60.7957,391.0953],[11.8322,60.7913,447.0564],[11.8139,60.7901,361.6823],[11.8151,60.7857,337.7306],[11.8059,60.7851,311.9544],[11.8082,60.7762,228.3448],[11.7991,60.7757,231.8637],[11.8002,60.7712,208.7465],[11.782,60.7701,238.9848],[11.7831,60.7656,219.1785],[11.774,60.7651,217.2964],[11.7751,60.7606,217.3272],[11.7569,60.7595,185.445],[11.7592,60.7506,176.1013],[11.7501,60.75,160.5],[11.7524,60.7411,185.0465],[11.7432,60.7406,187.8337],[11.7421,60.745,186.1064],[11.7147,60.7434,345.4029],[11.7136,60.7478,267.9591],[11.6771,60.7455,302.7002],[11.6759,60.75,309.2434],[11.6212,60.7466,386.1175],[11.627,60.7243,366.0],[11.6179,60.7238,386.0248],[11.6202,60.7149,384.9033],[11.6111,60.7143,431.558],[11.6134,60.7054,455.8426],[11.6225,60.706,424.9169],[11.6237,60.7015,438.9636],[11.6328,60.7021,414.0],[11.6352,60.6932,432.1662],[11.626,60.6926,450.4014],[11.6272,60.6882,470.7283],[11.6181,60.6876,493.6009],[11.6193,60.6831,507.9641],[11.6102,60.6826,520.9457],[11.616,60.6603,514.8442],[11.6251,60.6609,496.7361],[11.6263,60.6564,507.3465],[11.6172,60.6558,526.1865],[11.6206,60.6425,532.6953],[11.6297,60.6431,539.9237],[11.6309,60.6386,564.7631],[11.6321,60.6342,558.8254],[11.623,60.6336,556.9327],[11.6299,60.6069,539.1345],[11.639,60.6074,555.1356],[11.6483,60.5718,460.6218],[11.6664,60.573,496.9489],[11.6676,60.5685,494.4508],[11.6948,60.5702,599.8701],[11.696,60.5657,568.2164],[11.7232,60.5674,513.494],[11.7243,60.563,533.9337],[11.7969,60.5674,342.8125],[11.7958,60.5719,343.609],[11.8139,60.573,333.8695],[11.8128,60.5775,323.0],[11.84,60.5791,396.1209],[11.8389,60.5836,366.3659],[11.8571,60.5847,295.279],[11.8559,60.5891,263.4344],[11.8741,60.5902,234.1768],[11.873,60.5947,236.8342],[11.8821,60.5953,227.8845],[11.8809,60.5997,204.2134],[11.89,60.6003,195.8782],[11.8889,60.6047,185.3601],[11.898,60.6053,187.3537],[11.8957,60.6142,176.1918],[11.9048,60.6147,173.0615],[11.9026,60.6236,150.0],[11.9117,60.6242,150.0],[11.9106,60.6286,172.8287],[11.9196,60.6292,171.4339],[11.9185,60.6336,173.6371],[11.9276,60.6342,179.8848],[11.9198,60.6654,179.0573],[11.9289,60.6659,184.1276],[11.9266,60.6748,174.9759],[11.9175,60.6743,174.9205],[11.9153,60.6832,176.2346],[11.9062,60.6826,175.8656],[11.905,60.6871,177.208],[11.9141,60.6876,177.8629],[11.913,60.6921,179.4878],[11.9312,60.6932,182.4837],[11.9301,60.6977,184.5477],[11.9484,60.6987,183.9903],[11.945,60.7121,221.7688],[11.9541,60.7127,225.0341],[11.9507,60.726,322.009],[11.9599,60.7266,338.5493],[11.9576,60.7355,474.3694],[11.9668,60.736,458.4294],[11.9656,60.7405,514.6416],[11.9748,60.741,472.8835],[11.9736,60.7455,473.261],[11.9828,60.746,500.593],[11.9817,60.7505,545.9514],[11.9908,60.751,528.1487],[11.9885,60.7599,545.0557],[11.9977,60.7605,536.7172],[11.9966,60.7649,531.2773],[12.0148,60.766,479.418],[12.0137,60.7705,435.3081],[12.032,60.7716,424.9047],[12.0309,60.776,378.4117],[12.04,60.7766,371.5358],[12.0389,60.781,335.1309],[12.0663,60.7826,314.8759],[12.0652,60.7871,307.9793],[12.0926,60.7887,282.3668],[12.0882,60.8065,303.412],[12.0974,60.8071,319.0775],[12.0963,60.8115,323.2227],[12.1054,60.8121,372.654],[12.1043,60.8165,390.0857],[12.1501,60.8192,350.8033],[12.149,60.8237,350.744],[12.1581,60.8242,388.0515],[12.157,60.8286,406.2575],[12.1753,60.8297,484.0391],[12.1742,60.8342,492.4894],[12.1834,60.8347,499.067],[12.1823,60.8391,472.624],[12.2006,60.8402,460.5796],[12.1995,60.8447,459.3786],[12.2087,60.8452,425.9907],[12.2065,60.8541,453.5183],[12.1973,60.8536,502.0805],[12.1962,60.858,528.065],[12.1871,60.8575,596.9367],[12.186,60.862,547.9962],[12.1768,60.8614,615.2971],[12.1757,60.8659,600.1877],[12.1666,60.8654,609.5624],[12.1655,60.8698,558.4929],[12.1563,60.8693,573.5516],[12.1552,60.8737,494.6449],[12.1644,60.8743,435.618],[12.1633,60.8787,443.2827],[12.1724,60.8793,390.4981],[12.1713,60.8837,362.8083],[12.1805,60.8843,338.2594],[12.1816,60.8798,340.1104],[12.1999,60.8809,371.9515],[12.201,60.8764,342.2717],[12.2194,60.8775,357.1577],[12.2205,60.873,333.8941],[12.2296,60.8735,341.5039],[12.2307,60.8691,325.4359],[12.2491,60.8701,324.5172],[12.2501,60.8657,316.1764],[12.2593,60.8662,309.6385],[12.2604,60.8617,305.8407],[12.2787,60.8628,312.1387],[12.2798,60.8583,301.1179],[12.289,60.8588,304.454],[12.29,60.8544,299.7536],[12.2992,60.8549,325.1183],[12.3014,60.846,300.7512],[12.3105,60.8465,286.9824],[12.3116,60.8421,287.4836],[12.3391,60.8436,395.7761]]]]}
,"properties": {"GID_2": "NOR.6.22_1","GID_0": "NOR","country": "Norway","GID_1": "NOR.6_1","province": "Hedmark","NL_NAME_1": "NA","county": "Våler","VARNAME_2": "NA","NL_NAME_2": "NA","TYPE_2": "Kommuner","ENGTYPE_2": "Municipality","CC_2": "NA","HASC_2": "NO.HE.VA","name": "Våler.county","area_km2": 693.7979,"hist_schema_id": "Elevation0-9000","hist_area_km2": {"150": 7.9343,"175": 61.315,"200": 33.9011,"225": 22.1204,"250": 17.2916,"275": 21.6598,"300": 35.1108,"325": 41.0838,"350": 44.0575,"375": 47.0478,"400": 54.1062,"425": 54.6676,"450": 51.341,"475": 48.5381,"500": 41.8323,"525": 40.648,"550": 30.1144,"575": 20.2546,"600": 11.5568,"625": 5.5194,"650": 2.1164,"675": 1.1909,"700": 0.3901}}}