{"type": "Feature","bbox": [10.5764,59.4046,10.7821,59.5157],"geometry": {"type": "MultiPolygon","coordinates": [[[[10.5831,59.4354,0.0],[10.5825,59.4368,0.7692],[10.5769,59.4365,0.0],[10.5764,59.4343,0.0],[10.5792,59.434,4.179],[10.5831,59.4354,0.0]]],
[[[10.6959,59.4891,42.5083],[10.6853,59.4883,1.1981],[10.6892,59.4824,17.6389],[10.6853,59.4774,9.1937],[10.6869,59.4754,23.8278],[10.6803,59.4726,1.5424],[10.6769,59.4643,23.2244],[10.6731,59.4613,0.0],[10.6686,59.4485,34.486],[10.6681,59.4421,4.7386],[10.6608,59.4404,0.3196],[10.6597,59.4379,0.0],[10.6608,59.4371,4.0807],[10.6547,59.4354,7.9253],[10.6492,59.436,2.2109],[10.6475,59.4393,9.5765],[10.6497,59.4404,0.4529],[10.6503,59.4437,0.0],[10.6581,59.4454,0.0],[10.6553,59.4515,16.7642],[10.6547,59.4624,3.8901],[10.6575,59.4629,0.0],[10.6575,59.4646,1.083],[10.6631,59.4646,14.8807],[10.6653,59.4615,0.0],[10.6681,59.4643,0.0],[10.6608,59.4701,16.5471],[10.6597,59.476,27.5631],[10.6675,59.4826,7.8127],[10.6758,59.4851,0.0],[10.6764,59.4868,0.9598],[10.6731,59.4907,0.0],[10.6675,59.4921,0.0],[10.6669,59.4943,0.0],[10.6647,59.4946,1.1378],[10.6642,59.4968,14.0164],[10.6669,59.4974,0.0],[10.6653,59.5046,3.2776],[10.6481,59.5062,17.2947],[10.6469,59.5096,7.6598],[10.6453,59.509,7.6598],[10.6458,59.5018,0.0],[10.6542,59.4982,15.2789],[10.6519,59.4965,0.0],[10.6531,59.4954,14.6311],[10.6519,59.4921,0.0],[10.6453,59.4888,0.6167],[10.6419,59.4888,0.0],[10.6397,59.4865,4.1612],[10.6397,59.4832,7.0435],[10.6353,59.4849,0.5013],[10.6275,59.4837,10.2355],[10.6253,59.4815,2.2047],[10.6242,59.476,0.0],[10.6264,59.4749,1.7335],[10.6253,59.4724,2.4019],[10.6297,59.4715,8.2163],[10.6292,59.4696,0.0],[10.6353,59.4699,1.2853],[10.6347,59.4663,2.2086],[10.6258,59.4599,6.2146],[10.6175,59.4596,5.6645],[10.6164,59.4501,0.0],[10.6153,59.4482,5.0141],[10.6119,59.4476,0.0],[10.6108,59.4451,0.0],[10.6125,59.4435,0.0],[10.6092,59.4407,13.1875],[10.5919,59.4393,0.0],[10.5881,59.4371,0.0],[10.5869,59.4204,3.8127],[10.5925,59.4168,0.0],[10.6014,59.4179,0.5489],[10.6047,59.4168,0.0],[10.6114,59.4215,5.0381],[10.6169,59.4215,0.0],[10.6225,59.4246,5.3155],[10.6258,59.4185,0.0],[10.6303,59.4182,0.0],[10.6381,59.4254,0.5412],[10.6414,59.4251,0.0],[10.6453,59.4285,0.0],[10.6447,59.4299,2.7013],[10.6492,59.4296,0.0],[10.6519,59.4318,2.6476],[10.6536,59.4307,0.8818],[10.6525,59.4279,0.0],[10.6615,59.4268,10.6337],[10.665,59.4234,44.8382],[10.7044,59.4262,33.3383],[10.7031,59.4307,33.6635],[10.7294,59.4326,57.9471],[10.7282,59.437,26.2881],[10.7369,59.4376,28.2583],[10.7406,59.4243,46.6176],[10.7319,59.4237,33.5872],[10.7331,59.4192,32.5184],[10.7156,59.418,22.5],[10.7168,59.4135,22.5],[10.7081,59.4129,23.7488],[10.7093,59.4085,25.9985],[10.718,59.4091,22.5],[10.7193,59.4046,30.4006],[10.7543,59.4071,23.0652],[10.753,59.4116,22.5],[10.7618,59.4122,27.8137],[10.7606,59.4167,23.8331],[10.7693,59.4173,22.5],[10.7669,59.4262,22.5],[10.7756,59.4268,28.6726],[10.7732,59.4357,28.6375],[10.7819,59.4363,36.5217],[10.7795,59.4452,38.543],[10.762,59.4439,24.7854],[10.7571,59.4617,38.2678],[10.7746,59.463,32.7131],[10.7734,59.4674,29.5899],[10.7821,59.468,43.3757],[10.7748,59.4947,74.0644],[10.7572,59.4935,65.6863],[10.7585,59.489,71.9376],[10.7409,59.4878,67.8975],[10.7422,59.4833,60.3007],[10.7071,59.4808,47.5311],[10.7059,59.4852,29.8811],[10.6971,59.4846,34.2769],[10.6959,59.4891,42.5083]]],
[[[10.6292,59.5088,0.7626],[10.6269,59.5099,0.0],[10.6269,59.5057,0.0],[10.6297,59.5057,0.0],[10.6292,59.5088,0.7626]]],
[[[10.6392,59.5157,8.8347],[10.6331,59.5146,0.0],[10.6375,59.5093,0.0],[10.6419,59.5085,0.0],[10.6436,59.5107,23.571],[10.6492,59.5124,5.3397],[10.6469,59.5143,3.9465],[10.6392,59.5157,8.8347]]]]}
,"properties": {"GID_2": "NOR.2.11_1","GID_0": "NOR","country": "Norway","GID_1": "NOR.2_1","province": "Ãstfold","NL_NAME_1": "NA","county": "Moss","VARNAME_2": "NA","NL_NAME_2": "NA","TYPE_2": "Kommuner","ENGTYPE_2": "Municipality","CC_2": "NA","HASC_2": "NO.OF.MO","name": "Moss.county","area_km2": 63.0507,"hist_schema_id": "Elevation0-9000","hist_area_km2": {"0": 6.22809,"25": 22.0219,"50": 18.8047,"75": 11.4825,"100": 3.96404,"125": 0.50638,"150": 0.04308}}}