{"type":"Feature","properties":{"GID_2":"NOR.2.2_1","GID_0":"NOR","country":"Norway","GID_1":"NOR.2_1","province":"Ãstfold","NL_NAME_1":"NA","county":"Askim","VARNAME_2":"NA","NL_NAME_2":"NA","TYPE_2":"Kommuner","ENGTYPE_2":"Municipality","CC_2":"NA","HASC_2":"NO.OF.AS","name":"Askim.county"},
"geometry":{"type": "MultiPolygon","coordinates": [[[[11.2477,59.5999,174.599],[11.2389,59.5993,175.0142],[11.2319,59.626,187.7425],[11.2143,59.6248,186.8714],[11.2131,59.6293,190.1051],[11.2043,59.6287,190.2518],[11.1972,59.6554,154.3674],[11.1884,59.6548,151.1866],[11.1896,59.6503,192.6537],[11.1631,59.6485,116.5068],[11.1643,59.6441,103.7781],[11.1467,59.6429,142.5965],[11.1502,59.6295,94.1514],[11.1414,59.6289,114.2181],[11.1438,59.62,85.3119],[11.135,59.6194,80.375],[11.1362,59.615,79.5],[11.1273,59.6144,79.0],[11.1285,59.6099,101.3213],[11.1197,59.6093,83.9232],[11.1209,59.6049,110.4073],[11.1033,59.6037,80.6661],[11.1045,59.5992,108.8931],[11.0869,59.598,94.8294],[11.094,59.5714,79.6054],[11.1028,59.572,52.875],[11.1052,59.5631,104.7854],[11.114,59.5637,105.7259],[11.1175,59.5503,95.3656],[11.1263,59.5509,99.5047],[11.1275,59.5465,97.0145],[11.1363,59.5471,56.095],[11.1386,59.5382,104.5115],[11.1474,59.5388,81.2183],[11.1486,59.5343,122.2919],[11.1838,59.5367,83.4455],[11.1814,59.5456,101.7997],[11.1902,59.5462,89.2847],[11.189,59.5507,122.3612],[11.2154,59.5524,193.3553],[11.2166,59.548,147.4385],[11.2254,59.5486,129.3085],[11.2219,59.5619,150.3101],[11.2307,59.5625,146.7681],[11.2271,59.5759,137.8984],[11.2359,59.5765,151.8449],[11.2348,59.5809,160.8009],[11.2524,59.5821,166.2489],[11.2477,59.5999,174.599]]]]}}