{"type": "Feature","bbox": [11.8005,67.4047,12.187,67.5354],"geometry": {"type": "MultiPolygon","coordinates": [[[[11.8021,67.4063,0.0],[11.8005,67.4047,0.0],[11.8036,67.4047,0.0],[11.8036,67.4057,0.0],[11.8021,67.4063,0.0]]],
[[[11.8813,67.4271,72.0649],[11.8797,67.4255,19.8221],[11.8849,67.4255,9.5788],[11.8849,67.4266,0.0],[11.8813,67.4271,72.0649]]],
[[[11.8979,67.4354,0.0],[11.8964,67.4349,14.2765],[11.8964,67.4339,0.0],[11.8995,67.4339,0.0],[11.8979,67.4354,0.0]]],
[[[11.8813,67.4375,34.7269],[11.8797,67.4359,0.0],[11.8953,67.4359,83.9924],[11.8938,67.4375,52.7255],[11.8813,67.4375,34.7269]]],
[[[11.9068,67.4474,0.0],[11.9083,67.4458,0.0],[11.9161,67.4464,0.0],[11.9104,67.45,13.815],[11.9068,67.4474,0.0]]],
[[[11.9354,67.4563,22.6697],[11.9495,67.4589,0.0],[11.9536,67.4661,0.0],[11.9458,67.4688,0.0],[11.9417,67.4667,44.4875],[11.9339,67.4661,18.7937],[11.9292,67.4625,18.3166],[11.9193,67.462,0.0],[11.9234,67.4589,0.0],[11.9354,67.4563,22.6697]]],
[[[12.0042,67.475,38.7282],[12.0083,67.4729,0.0],[12.0167,67.4729,0.0],[12.0193,67.4766,4.5767],[12.0245,67.4776,0.0],[12.0328,67.4828,0.0],[12.0083,67.4833,14.7592],[12.0047,67.4807,0.0],[12.0026,67.4766,0.0],[12.0042,67.475,38.7282]]],
[[[12.0917,67.4979,-0.1096],[12.0901,67.4964,0.833],[12.0953,67.4964,0.0],[12.0953,67.4974,0.0],[12.0917,67.4979,-0.1096]]],
[[[12.0875,67.5,0.0],[12.0859,67.4984,0.0],[12.0891,67.4984,9.1899],[12.0891,67.4995,6.475],[12.0875,67.5,0.0]]],
[[[12.063,67.4995,0.0],[12.063,67.4964,0.0],[12.0667,67.4958,0.0],[12.0849,67.5005,0.0152],[12.0875,67.5042,0.0],[12.0854,67.5062,0.0],[12.0792,67.5062,1.1978],[12.076599999999999,67.5026,4.198],[12.0667,67.5021,0.0],[12.063,67.4995,0.0]]],
[[[12.0271,67.5083,0.0],[12.0255,67.5068,0.0],[12.0349,67.5068,0.0],[12.0333,67.5083,0.0],[12.0271,67.5083,0.0]]],
[[[12.1464,67.5099,0.1798],[12.1464,67.5089,10.872],[12.1495,67.5089,4.1265],[12.1495,67.5099,0.3726],[12.1464,67.5099,0.1798]]],
[[[12.175,67.5104,1.6482],[12.1792,67.5083,3.2381],[12.187,67.5089,19.1415],[12.1813,67.5125,0.3751],[12.1734,67.512,0.0],[12.175,67.5104,1.6482]]],
[[[12.0979,67.5333,-0.2832],[12.0938,67.5333,0.0],[12.0896,67.5354,0.6307],[12.0792,67.5313,0.0],[12.0734,67.5307,0.0],[12.0708,67.5271,0.0398],[12.0583,67.5271,0.0],[12.0521,67.5229,0.1412],[12.0458,67.525,0.0],[12.0422,67.5214,0.0],[12.0542,67.5167,0.1712],[12.0604,67.5229,0.0],[12.0667,67.5208,0.0],[12.0708,67.5229,0.0],[12.0833,67.5229,-2.0],[12.0849,67.5214,0.0718],[12.0755,67.5203,-2.0],[12.0724,67.5151,-1.0362],[12.0563,67.5146,0.0],[12.0542,67.5125,0.1027],[12.0547,67.5109,1.1994],[12.0604,67.5083,0.0],[12.0729,67.5125,-0.1538],[12.0833,67.5083,0.5379],[12.0875,67.5104,0.6155],[12.1104,67.5104,0.0],[12.1146,67.5125,-0.1679],[12.1188,67.5125,0.0],[12.1328,67.5172,0.0],[12.1339,67.5203,0.0],[12.1375,67.5229,0.0],[12.1453,67.5224,0.0],[12.1479,67.5188,0.0],[12.1526,67.5224,0.0],[12.1604,67.525,0.0],[12.1703,67.5255,0.4565],[12.1651,67.5276,0.0],[12.1661,67.5307,0.0],[12.1646,67.5313,0.0],[12.1521,67.5313,0.0],[12.1479,67.5292,-0.0556],[12.1146,67.5292,-0.2159],[12.1104,67.5313,-0.0811],[12.1042,67.5313,0.0],[12.0979,67.5333,-0.2832]]]]}
,"properties": {"GID_2": "NOR.10.30_1","GID_0": "NOR","country": "Norway","GID_1": "NOR.10_1","province": "Nordland","NL_NAME_1": "NA","county": "Røst","VARNAME_2": "NA","NL_NAME_2": "NA","TYPE_2": "Kommuner","ENGTYPE_2": "Municipality","CC_2": "NA","HASC_2": "NO.NO.RS","name": "Røst.county","area_km2": 10.981972,"hist_schema_id": "Elevation0-9000","hist_area_km2": {"0": 9.300077,"25": 0.422523,"50": 0.284413,"75": 0.227493,"100": 0.14624,"125": 0.154371,"150": 0.12184,"175": 0.138117,"200": 0.040615,"225": 0.097521,"250": 0.048761}}}