{"type":"Feature","properties":{"GID_2":"NOR.5.8_1","GID_0":"NOR","country":"Norway","GID_1":"NOR.5_1","province":"Finnmark","NL_NAME_1":"NA","county":"Kautokeino","VARNAME_2":"Guovdageaidnu","NL_NAME_2":"NA","TYPE_2":"Kommuner","ENGTYPE_2":"Municipality","CC_2":"NA","HASC_2":"NO.FI.KK","name":"Kautokeino.county"},
"geometry":{"type": "MultiPolygon","coordinates": [[[[25.3765,68.8841,228.3589],[25.3776,68.8886,236.6669],[25.3156,68.8904,261.7093],[25.3145,68.8859,229.8623],[25.2278,68.8885,274.5312],[25.2268,68.884,247.5031],[25.1772,68.8855,272.5323],[25.1782,68.89,307.658],[25.1411,68.891,289.4744],[25.1421,68.8955,317.9217],[25.1173,68.8962,324.0545],[25.1163,68.8917,303.8183],[25.1039,68.8921,320.0415],[25.0791,68.8928,326.4452],[25.0801,68.8973,353.0559],[25.0553,68.898,350.982],[25.0563,68.9025,373.1858],[25.0439,68.9028,342.3181],[25.0449,68.9073,357.0013],[25.0325,68.9077,372.4024],[25.0396,68.9391,325.0425],[25.0272,68.9395,313.9113],[25.028199999999998,68.944,321.2583],[25.0158,68.9443,308.175],[25.0168,68.9488,297.756],[24.9919,68.9495,315.1122],[24.9929,68.954,319.5208],[24.968,68.9547,331.4174],[24.969,68.9592,333.7497],[24.9566,68.9595,334.2556],[24.9576,68.964,338.0414],[24.9327,68.9647,353.6917],[24.9337,68.9692,353.1586],[24.9088,68.9699,392.4272],[24.9098,68.9744,384.338],[24.8974,68.9747,385.5924],[24.8984,68.9792,375.508],[24.8735,68.9799,389.8344],[24.8744,68.9844,392.0949],[24.862,68.9847,397.5308],[24.863,68.9892,393.5749],[24.8381,68.9899,401.9857],[24.839,68.9944,400.1206],[24.8141,68.995,412.7161],[24.8151,68.9995,420.0601],[24.8026,68.9999,422.2504],[24.8036,69.0043,441.7564],[24.7787,69.005,414.4825],[24.7796,69.0095,411.5602],[24.7547,69.0102,393.8493],[24.7557,69.0147,378.8064],[24.7432,69.015,387.4878],[24.7442,69.0195,359.0359],[24.7192,69.0201,378.7339],[24.7211,69.0291,317.1403],[24.7086,69.0294,317.063],[24.7124,69.0474,305.0312],[24.7,69.0477,343.8755],[24.7028,69.0612,336.4316],[24.6903,69.0616,346.3472],[24.6941,69.0795,322.134],[24.6816,69.0798,328.3818],[24.6845,69.0933,330.3423],[24.6719,69.0937,316.8246],[24.6748,69.1071,320.7489],[24.6623,69.1075,343.4137],[24.666,69.1254,360.4016],[24.6535,69.1257,364.6633],[24.6563,69.1392,437.268],[24.6313,69.1399,361.3129],[24.6322,69.1444,330.2464],[24.6197,69.1447,298.8113],[24.6206,69.1492,301.3488],[24.608,69.1495,309.8904],[24.609,69.154,319.8503],[24.5964,69.1543,314.645],[24.5974,69.1588,286.9096],[24.5723,69.1594,298.309],[24.5732,69.1639,337.0544],[24.5606,69.1643,322.8655],[24.5616,69.1688,323.9994],[24.549,69.1691,328.6787],[24.5499,69.1736,333.9712],[24.5248,69.1742,355.413],[24.5257,69.1787,377.7586],[24.5132,69.179,360.7305],[24.5141,69.1835,357.029],[24.5015,69.1838,331.8068],[24.5024,69.1883,335.1557],[24.4899,69.1886,334.9711],[24.4908,69.1931,350.1453],[24.4656,69.1937,348.2359],[24.4665,69.1982,355.027],[24.454,69.1985,365.2571],[24.4549,69.203,388.7945],[24.4423,69.2033,411.3193],[24.4432,69.2078,436.1294],[24.4306,69.2081,421.1792],[24.4315,69.2126,424.2305],[24.4063,69.2133,432.8773],[24.4072,69.2178,433.4114],[24.3947,69.2181,436.9915],[24.3955,69.2226,424.7428],[24.383,69.2229,437.7056],[24.3839,69.2274,415.6448],[24.3713,69.2277,441.1248],[24.3721,69.2322,463.0391],[24.3596,69.2325,466.4719],[24.3622,69.2459,445.5767],[24.3496,69.2462,451.6359],[24.3523,69.2597,400.7448],[24.3397,69.26,410.7976],[24.3423,69.2735,390.1039],[24.3297,69.2738,388.862],[24.3324,69.2873,386.8907],[24.3197,69.2876,385.8005],[24.3224,69.3011,400.8559],[24.3098,69.3014,402.6969],[24.3133,69.3194,394.4947],[24.3006,69.3197,418.7813],[24.3042,69.3377,374.9416],[24.2915,69.338,378.4165],[24.2933,69.3469,389.9079],[24.2806,69.3472,416.8109],[24.2815,69.3517,405.3186],[24.2688,69.352,384.2738],[24.2697,69.3565,381.0492],[24.257,69.3568,398.0508],[24.2579,69.3613,388.5352],[24.2199,69.3622,354.6264],[24.2208,69.3667,347.5369],[24.1954,69.3673,342.0628],[24.1971,69.3763,321.9597],[24.2098,69.376,320.6766],[24.2133,69.394,349.5382],[24.2513,69.3931,309.6124],[24.2522,69.3976,305.9352],[24.2649,69.3973,305.5179],[24.2684,69.4153,339.0384],[24.2811,69.415,306.9414],[24.2829,69.424,332.1743],[24.2956,69.4237,317.6525],[24.2983,69.4372,320.196],[24.2856,69.4375,337.1208],[24.2882,69.4509,336.1968],[24.2755,69.4512,345.8495],[24.2764,69.4557,346.6178],[24.2891,69.4554,331.3812],[24.2917,69.4689,362.6757],[24.3045,69.4686,336.6849],[24.3072,69.4821,360.3361],[24.3199,69.4818,338.8048],[24.3217,69.4908,361.433],[24.3344,69.4905,356.1628],[24.3362,69.4995,365.5788],[24.349,69.4992,347.0939],[24.3517,69.5127,402.0366],[24.3644,69.5124,356.2333],[24.369,69.5349,377.9641],[24.3817,69.5345,386.8051],[24.3836,69.5435,386.6147],[24.3963,69.5432,369.3675],[24.3982,69.5522,367.7565],[24.4109,69.5519,383.4715],[24.4137,69.5654,376.2052],[24.3753,69.5663,381.695],[24.3762,69.5708,381.7787],[24.3506,69.5714,385.1192],[24.3524,69.5804,392.0399],[24.3396,69.5807,400.6419],[24.3433,69.5987,382.3844],[24.292,69.5999,384.6799],[24.2929,69.6044,384.5721],[24.2801,69.6047,390.8292],[24.2828,69.6182,403.2155],[24.2699,69.6185,391.621],[24.2726,69.632,389.5619],[24.2598,69.6323,389.6269],[24.2616,69.6413,390.2183],[24.2487,69.6416,389.4403],[24.2496,69.6461,389.5594],[24.2368,69.6464,389.4397],[24.2376,69.6509,389.4753],[24.2248,69.6511,389.6258],[24.2257,69.6556,389.3448],[24.2128,69.6559,389.5509],[24.2137,69.6604,389.5435],[24.2009,69.6607,389.5576],[24.2026,69.6697,389.356],[24.1898,69.67,389.641],[24.1906,69.6745,389.3558],[24.1778,69.6748,389.8435],[24.1787,69.6793,389.4973],[24.0115,69.683,472.2732],[24.0123,69.6875,452.073],[23.8965,69.69,481.6198],[23.8973,69.6945,456.656],[23.7814,69.6969,525.2232],[23.7822,69.7014,512.6697],[23.692,69.7032,631.2876],[23.6928,69.7077,625.0543],[23.6155,69.7093,553.8159],[23.6163,69.7138,547.3566],[23.5518,69.715,499.6243],[23.5526,69.7195,513.2559],[23.4494,69.7215,472.5739],[23.4487,69.717,483.6726],[23.3971,69.7179,289.5],[23.3964,69.7134,289.5],[23.3449,69.7144,570.2076],[23.3442,69.7099,560.0557],[23.3055,69.7106,523.0393],[23.3048,69.7061,518.1422],[23.279,69.7065,517.867],[23.2783,69.702,496.8181],[23.2655,69.7022,415.0414],[23.2648,69.6977,366.5743],[23.239,69.6982,367.4678],[23.2383,69.6937,413.1155],[23.2255,69.6939,480.469],[23.2248,69.6894,503.2806],[23.199,69.6899,550.5336],[23.1984,69.6854,537.6716],[23.1855,69.6856,541.6151],[23.1848,69.6811,530.2144],[23.0303,69.6837,588.4012],[23.031,69.6882,570.9045],[22.9022,69.6903,811.8174],[22.9028,69.6948,822.9015],[22.8899,69.695,818.483],[22.8893,69.6905,818.0862],[22.8764,69.6907,767.7708],[22.8752,69.6817,781.4911],[22.8623,69.6819,780.377],[22.8611,69.6729,793.6066],[22.8483,69.6731,786.8815],[22.8471,69.664,776.0698],[22.8342,69.6642,785.1105],[22.8336,69.6597,780.3835],[22.8465,69.6595,758.5206],[22.8459,69.655,755.8076],[22.8587,69.6548,776.7947],[22.8581,69.6503,763.8694],[22.871,69.6501,770.1749],[22.8704,69.6456,770.0463],[22.8833,69.6454,778.379],[22.8827,69.6409,782.9692],[22.8698,69.6411,794.3401],[22.8686,69.6321,760.3443],[22.8558,69.6323,756.2747],[22.8552,69.6278,739.4325],[22.8423,69.628,727.6364],[22.8417,69.6235,733.1857],[22.8289,69.6237,717.8999],[22.8283,69.6192,713.7245],[22.8155,69.6194,700.9449],[22.8149,69.6149,684.3704],[22.7892,69.6153,657.3267],[22.7886,69.6108,649.8641],[22.7758,69.611,635.712],[22.7752,69.6065,632.7659],[22.7624,69.6067,624.4997],[22.7595,69.5842,618.4578],[22.7467,69.5844,618.2253],[22.7421,69.5483,634.8838],[22.7165,69.5487,625.9379],[22.716,69.5442,627.4225],[22.6904,69.5446,630.0134],[22.6892,69.5356,630.649],[22.702,69.5354,636.174],[22.7004,69.5219,615.4835],[22.7131,69.5217,615.9366],[22.7115,69.5082,618.4849],[22.6731,69.5088,617.4435],[22.6737,69.5133,706.5916],[22.5203,69.5154,708.2936],[22.5198,69.5109,726.8622],[22.4687,69.5116,572.4578],[22.4682,69.5071,562.3771],[22.4554,69.5073,547.7736],[22.4549,69.5028,532.6816],[22.4421,69.503,521.5062],[22.4416,69.4985,538.8383],[22.4161,69.4988,555.8959],[22.4156,69.4943,549.7961],[22.4028,69.4945,606.3593],[22.4023,69.49,594.9046],[22.3768,69.4903,699.9467],[22.3763,69.4858,735.2766],[22.3635,69.486,619.4308],[22.363,69.4815,604.6495],[22.2737,69.4826,816.3016],[22.2728,69.4736,716.9764],[22.26,69.4737,707.1252],[22.2595,69.4692,683.1663],[22.2723,69.4691,688.2857],[22.2718,69.4646,716.5404],[22.2846,69.4644,741.3243],[22.2836,69.4554,802.8946],[22.2964,69.4552,818.1438],[22.2959,69.4507,787.9502],[22.2832,69.4509,750.588],[22.2794,69.4149,793.5371],[22.2921,69.4147,809.788],[22.2916,69.4102,860.958],[22.3044,69.41,850.4908],[22.3034,69.401,906.6179],[22.3161,69.4009,907.8737],[22.3133,69.3739,800.7917],[22.326,69.3737,825.7523],[22.325,69.3647,790.5159],[22.3377,69.3645,765.5176],[22.3372,69.36,751.0724],[22.3499,69.3599,804.3897],[22.3494,69.3554,746.5686],[22.3621,69.3552,780.2902],[22.3616,69.3507,737.8099],[22.3743,69.3505,745.5115],[22.3734,69.3415,688.3941],[22.386,69.3414,695.0421],[22.3846,69.3279,723.6779],[22.3972,69.3277,780.6932],[22.3963,69.3187,702.6638],[22.4089,69.3185,710.0218],[22.4079,69.3095,626.7897],[22.4206,69.3093,620.8089],[22.4201,69.3048,594.2773],[22.4328,69.3047,594.8589],[22.4323,69.3002,603.7848],[22.4449,69.3,619.9702],[22.4434,69.2865,638.8519],[22.4561,69.2863,659.6334],[22.455,69.2773,670.7979],[22.4677,69.2771,696.5196],[22.4667,69.2681,717.4382],[22.4793,69.268,728.7365],[22.4788,69.2635,726.7336],[22.4914,69.2633,668.5146],[22.4904,69.2543,642.4557],[22.5031,69.2541,614.2396],[22.5025,69.2496,566.3101],[22.5152,69.2494,540.7362],[22.5126,69.2269,496.3467],[22.5252,69.2267,521.706],[22.5216,69.1952,469.5205],[22.509,69.1954,460.1914],[22.5029,69.1414,514.4698],[22.4903,69.1415,507.8201],[22.4883,69.1235,542.1961],[22.4758,69.1237,555.7566],[22.4743,69.1102,603.0783],[22.4492,69.1105,525.8376],[22.4487,69.106,516.6302],[22.411,69.1066,502.5055],[22.4105,69.1021,501.8281],[22.3855,69.1024,486.7864],[22.385,69.0979,484.6672],[22.3724,69.0981,491.7455],[22.3719,69.0936,491.2675],[22.3594,69.0937,503.6113],[22.3589,69.0892,509.9876],[22.3339,69.0895,502.0289],[22.3334,69.085,504.3409],[22.3208,69.0852,509.5095],[22.3204,69.0807,510.9297],[22.2828,69.0812,526.5581],[22.2823,69.0767,529.5863],[22.1821,69.0779,542.083],[22.1816,69.0734,536.6685],[22.0814,69.0746,551.7361],[22.081,69.0701,554.8898],[21.9933,69.0711,544.0618],[21.9925,69.0621,529.3469],[22.005,69.062,580.7628],[22.0046,69.0575,581.892],[22.0171,69.0573,581.9859],[22.0163,69.0483,566.996],[22.0288,69.0482,552.1613],[22.0284,69.0437,538.1774],[22.0409,69.0435,536.0354],[22.0401,69.0345,522.5075],[22.0526,69.0344,527.1509],[22.0522,69.0299,523.2491],[22.0647,69.0297,518.3388],[22.0639,69.0207,509.9938],[22.0764,69.0206,524.7288],[22.0759,69.0161,516.8133],[22.0884,69.0159,522.0393],[22.0876,69.0069,505.5298],[22.1001,69.0068,518.7198],[22.0992,68.9978,504.6718],[22.1117,68.9976,515.8221],[22.1113,68.9931,502.5835],[22.1238,68.993,513.2852],[22.1229,68.984,478.7684],[22.1354,68.9838,484.1666],[22.135,68.9793,487.829],[22.1474,68.9792,493.1022],[22.1466,68.9702,503.6207],[22.1591,68.97,512.2907],[22.1586,68.9655,518.6743],[22.1711,68.9654,523.9467],[22.1702,68.9563,491.8851],[22.1827,68.9562,477.6848],[22.1805,68.9337,465.0471],[22.1929,68.9335,490.5839],[22.1912,68.9155,479.9678],[22.2036,68.9154,483.1896],[22.2032,68.9109,482.6602],[22.2156,68.9107,484.6047],[22.2147,68.9017,452.78],[22.2271,68.9016,451.8564],[22.2263,68.8926,449.957],[22.2387,68.8924,449.538],[22.2382,68.8879,449.5329],[22.2507,68.8877,446.8274],[22.2498,68.8787,459.1451],[22.2622,68.8786,454.0361],[22.2617,68.8741,458.0697],[22.2741,68.8739,447.4963],[22.2732,68.8649,440.1487],[22.2856,68.8648,441.4763],[22.2852,68.8603,438.0934],[22.2976,68.8601,439.1994],[22.2967,68.8511,437.9867],[22.3091,68.8509,442.0574],[22.3086,68.8464,452.3438],[22.321,68.8463,463.8087],[22.3201,68.8373,502.0503],[22.3325,68.8371,500.4983],[22.3315,68.8281,553.7775],[22.3439,68.8279,557.6458],[22.3421,68.8099,546.4083],[22.3544,68.8098,559.8828],[22.3512,68.7783,491.0353],[22.3635,68.7781,480.4965],[22.3602,68.7466,450.5992],[22.3726,68.7464,450.0045],[22.3697,68.7194,511.2432],[22.4067,68.7189,523.6049],[22.4072,68.7234,547.4531],[22.4319,68.7231,470.3172],[22.4324,68.7276,480.6995],[22.457,68.7272,464.2765],[22.4575,68.7317,463.2666],[22.4699,68.7316,465.5658],[22.4704,68.7361,467.0662],[22.495,68.7357,495.4232],[22.4955,68.7402,507.2234],[22.5202,68.7399,556.7226],[22.5207,68.7444,559.2258],[22.5454,68.744,634.6755],[22.5449,68.7395,629.3572],[22.5696,68.7392,531.3859],[22.5691,68.7347,551.9204],[22.5937,68.7343,514.1178],[22.5932,68.7298,535.5309],[22.6179,68.7295,513.232],[22.6174,68.7249,507.3158],[22.642,68.7246,547.4612],[22.6415,68.7201,544.5171],[22.6662,68.7197,506.4221],[22.6656,68.7152,511.9305],[22.6903,68.7148,519.8711],[22.6898,68.7103,517.1368],[22.7144,68.71,497.2245],[22.7139,68.7055,503.064],[22.7262,68.7053,515.5199],[22.7257,68.7008,519.8923],[22.7503,68.7004,519.4904],[22.7497,68.6959,525.4175],[22.7744,68.6955,506.6158],[22.7738,68.691,497.8626],[22.7985,68.6906,560.2258],[22.7979,68.6861,545.234],[22.8348,68.6855,534.9393],[22.8354,68.69,524.9069],[23.02,68.687,466.8903],[23.0206,68.6915,462.7276],[23.0453,68.6911,442.8337],[23.0446,68.6866,450.7781],[23.057,68.6863,472.7489],[23.0564,68.6818,484.4069],[23.0687,68.6816,481.8907],[23.0681,68.6771,482.7978],[23.0804,68.6769,469.6552],[23.0797,68.6724,471.8192],[23.092,68.6722,491.3994],[23.0908,68.6632,519.725],[23.1031,68.663,519.1693],[23.1025,68.6585,519.9611],[23.1148,68.6583,484.5179],[23.1142,68.6538,471.74],[23.1265,68.6536,463.3104],[23.1258,68.6491,453.6664],[23.1381,68.6488,474.6983],[23.1369,68.6399,440.5709],[23.1492,68.6396,448.0087],[23.1485,68.6351,439.3016],[23.1608,68.6349,446.5338],[23.1602,68.6304,447.106],[23.1848,68.63,413.2708],[23.1854,68.6345,416.2874],[23.1977,68.6343,420.1138],[23.1983,68.6387,423.0685],[23.2229,68.6383,470.0226],[23.2235,68.6428,461.1844],[23.2358,68.6426,479.8885],[23.2364,68.6471,462.0379],[23.261,68.6466,436.9844],[23.2616,68.6511,421.9031],[23.2739,68.6509,416.5294],[23.2746,68.6554,407.152],[23.2869,68.6552,411.8616],[23.2875,68.6597,398.624],[23.3121,68.6592,389.6261],[23.3127,68.6637,389.598],[23.325,68.6635,385.6566],[23.3257,68.668,390.951],[23.3503,68.6675,391.3599],[23.351,68.672,390.5837],[23.3633,68.6718,396.2098],[23.3639,68.6763,393.3571],[23.3762,68.676,417.1746],[23.3769,68.6805,416.068],[23.4015,68.6801,473.6044],[23.4022,68.6846,471.6602],[23.4145,68.6843,464.0351],[23.4151,68.6888,493.1313],[23.4398,68.6883,517.9201],[23.4404,68.6928,543.2947],[23.4774,68.6921,481.502],[23.478,68.6966,478.6731],[23.5396,68.6954,437.1291],[23.5403,68.6999,430.2877],[23.5895,68.6989,391.0492],[23.5903,68.7034,390.4972],[23.6518,68.7021,490.7934],[23.6525,68.7066,466.1241],[23.6772,68.7061,605.9448],[23.6786,68.7151,501.937],[23.6909,68.7149,494.7085],[23.6924,68.7239,464.6814],[23.7047,68.7236,469.616],[23.7069,68.7371,436.055],[23.7193,68.7368,438.0837],[23.7208,68.7458,434.888],[23.7331,68.7456,431.2194],[23.7368,68.768,439.0074],[23.7491,68.7678,470.3192],[23.7529,68.7903,485.6796],[23.7652,68.79,462.8871],[23.7697,68.817,556.2866],[23.7821,68.8167,570.1454],[23.7829,68.8212,567.6332],[23.7953,68.821,540.53],[23.796,68.8254,561.0143],[23.8208,68.8249,559.9033],[23.8215,68.8294,532.5735],[23.8463,68.8289,526.3563],[23.8471,68.8334,528.0889],[23.8594,68.8331,554.4095],[23.8602,68.8376,559.5446],[23.8974,68.8368,536.3382],[23.8966,68.8323,538.2209],[23.9708,68.8307,502.8751],[23.97,68.8262,509.7459],[23.9948,68.8256,497.4798],[23.994,68.8211,485.6358],[24.0064,68.8208,483.4392],[24.0048,68.8118,484.7618],[24.0171,68.8116,487.4424],[24.0163,68.8071,466.9698],[24.0287,68.8068,463.3223],[24.0279,68.8023,464.2035],[24.0403,68.802,458.8328],[24.0395,68.7975,454.7008],[24.0518,68.7972,462.7772],[24.0502,68.7882,461.5536],[24.0626,68.788,464.7774],[24.0617,68.7835,469.3679],[24.0741,68.7832,496.6354],[24.0733,68.7787,526.2216],[24.0856,68.7784,499.7907],[24.0864,68.7829,498.9732],[24.1111,68.7823,507.0219],[24.112,68.7868,493.39],[24.149,68.786,570.0256],[24.1498,68.7905,532.1158],[24.1622,68.7902,554.0282],[24.1556,68.7542,547.1865],[24.1679,68.7539,547.2471],[24.1671,68.7494,543.1388],[24.2041,68.7486,501.3169],[24.2032,68.7441,491.3459],[24.2155,68.7438,494.4451],[24.2147,68.7393,513.673],[24.227,68.739,520.9219],[24.2262,68.7345,520.4798],[24.2385,68.7342,523.8423],[24.2377,68.7297,520.5958],[24.25,68.7294,520.2943],[24.2491,68.7249,525.2648],[24.2738,68.7243,520.9939],[24.2729,68.7198,518.7593],[24.3099,68.7189,488.3199],[24.309,68.7144,492.3941],[24.3582,68.7132,517.8718],[24.3574,68.7087,500.7141],[24.4189,68.7072,542.0208],[24.418,68.7027,510.7532],[24.4672,68.7015,486.1322],[24.4663,68.697,485.7306],[24.5155,68.6957,490.5174],[24.5146,68.6912,497.9182],[24.5638,68.69,470.6328],[24.5629,68.6855,478.0077],[24.6121,68.6842,534.4789],[24.6112,68.6797,543.8445],[24.6234,68.6794,515.0132],[24.6225,68.6749,471.9975],[24.6471,68.6743,463.0152],[24.6462,68.6698,459.9382],[24.6707,68.6691,466.2991],[24.6698,68.6646,460.7995],[24.6821,68.6643,432.7781],[24.6812,68.6598,443.7035],[24.7057,68.6592,441.8086],[24.7048,68.6547,444.3962],[24.7293,68.654,478.6878],[24.7284,68.6495,466.7822],[24.7407,68.6492,466.4551],[24.7397,68.6447,454.3336],[24.7642,68.6441,465.282],[24.7633,68.6396,444.5705],[24.7878,68.6389,448.2789],[24.7859,68.6299,422.0557],[24.7982,68.6296,416.6801],[24.7963,68.6206,442.7121],[24.8085,68.6203,463.7836],[24.8057,68.6068,462.2125],[24.8179,68.6065,462.4196],[24.816,68.5975,432.9262],[24.8283,68.5972,448.8876],[24.8264,68.5882,422.2892],[24.8386,68.5878,412.2347],[24.8367,68.5788,406.3149],[24.8489,68.5785,411.9639],[24.847,68.5695,443.6339],[24.8592,68.5692,416.6869],[24.8573,68.5602,420.9944],[24.894,68.5592,428.0472],[24.893,68.5547,443.7781],[24.9052,68.5544,451.6836],[24.9169,68.6083,394.6543],[24.9291,68.6079,383.282],[24.9301,68.6124,377.2797],[24.9546,68.6117,368.6106],[24.9555,68.6162,361.9328],[24.9923,68.6152,353.4203],[24.9913,68.6107,354.3118],[25.0036,68.6103,353.3194],[25.0045,68.6148,351.593],[25.0168,68.6144,351.5623],[25.0188,68.6234,351.354],[25.0433,68.6227,357.7253],[25.0443,68.6272,353.8814],[25.0565,68.6269,346.735],[25.0555,68.6224,338.3806],[25.08,68.6217,331.0345],[25.081,68.6262,333.8787],[25.0933,68.6258,327.0736],[25.0963,68.6393,327.3062],[25.1208,68.6386,318.4968],[25.1239,68.652,321.0364],[25.1116,68.6524,313.9357],[25.1167,68.6748,326.6842],[25.1044,68.6752,332.5966],[25.1074,68.6887,323.1337],[25.1197,68.6883,331.5378],[25.1207,68.6928,344.2384],[25.1084,68.6932,322.0414],[25.1115,68.7066,313.34],[25.1238,68.7063,337.4195],[25.1319,68.7422,331.697],[25.1196,68.7425,324.4456],[25.1227,68.756,294.0394],[25.135,68.7556,333.2705],[25.1432,68.7916,274.974],[25.1555,68.7912,299.9478],[25.1576,68.8002,254.3406],[25.1699,68.7998,266.1611],[25.1709,68.8043,250.2436],[25.1833,68.8039,298.7489],[25.1843,68.8084,249.0218],[25.1967,68.8081,254.8285],[25.1977,68.8126,265.806],[25.2101,68.8122,263.1926],[25.2121,68.8212,258.0717],[25.2245,68.8208,251.8159],[25.2255,68.8253,244.1536],[25.2379,68.8249,334.258],[25.2421,68.8429,255.4863],[25.2545,68.8425,252.4757],[25.2555,68.847,235.0084],[25.2679,68.8466,255.0948],[25.2689,68.8511,228.9596],[25.2813,68.8508,313.6838],[25.2824,68.8553,227.3552],[25.2947,68.8549,292.5948],[25.2969,68.8639,255.2318],[25.3216,68.8631,268.9551],[25.3227,68.8676,238.472],[25.335,68.8672,239.5995],[25.3361,68.8717,240.5788],[25.3485,68.8714,231.8264],[25.3496,68.8759,239.0193],[25.3743,68.8751,248.1897],[25.3765,68.8841,228.3589]]]]}}