{"type":"Feature","properties":{"GID_2":"NOR.18.8_1","GID_0":"NOR","country":"Norway","GID_1":"NOR.18_1","province":"Vest-Agder","NL_NAME_1":"NA","county":"Lindesnes","VARNAME_2":"NA","NL_NAME_2":"NA","TYPE_2":"Kommuner","ENGTYPE_2":"Municipality","CC_2":"NA","HASC_2":"NO.VA.LI","name":"Lindesnes.county"},
"geometry":{"type": "MultiPolygon","coordinates": [[[[7.0942,57.9885,0.0],[7.0947,57.9893,0.0],[7.0919,57.9896,1.4475],[7.0875,57.9874,0.0],[7.0919,57.9874,4.5078],[7.0942,57.9885,0.0]]],
[[[7.2108,57.9943,0.0],[7.2081,57.996,0.7308],[7.2058,57.9938,1.1183],[7.2019,57.9938,0.5134],[7.2042,57.9896,0.0],[7.2081,57.9888,2.1256],[7.2097,57.9904,0.0],[7.2081,57.9915,0.0],[7.2108,57.9943,0.0]]],
[[[7.2081,58.0007,0.8969],[7.2081,58.0029,0.4017],[7.2064,58.0029,0.0],[7.2058,58.0007,2.5864],[7.2031,57.9993,0.0],[7.1936,57.9987,0.0],[7.1931,57.9963,0.0],[7.2064,57.9985,0.0],[7.2108,57.9974,0.9685],[7.2114,57.9996,0.0],[7.2086,57.9993,0.0],[7.2081,58.0007,0.8969]]],
[[[7.2031,58.0126,0.0],[7.1997,58.0137,13.4174],[7.1942,58.0129,2.1479],[7.1903,58.0101,4.2537],[7.1897,58.0085,4.9312],[7.1936,58.0079,4.4879],[7.1875,58.0038,0.4859],[7.1886,57.9974,0.0],[7.1875,57.9965,1.6065],[7.1919,57.9965,1.7725],[7.1908,58.0004,1.596],[7.1931,58.0004,0.0],[7.1942,58.0029,17.0107],[7.1997,58.0013,0.0],[7.2019,58.0035,0.0],[7.2025,58.0051,0.0],[7.2008,58.0057,13.3847],[7.2042,58.0076,3.6757],[7.2008,58.0096,0.6989],[7.2031,58.0126,0.0]]],
[[[7.2097,57.9835,0.0],[7.2053,57.9846,0.0],[7.2058,57.9829,0.8392],[7.2036,57.9824,0.0],[7.2031,57.9804,0.0],[7.2097,57.9799,8.9535],[7.2075,57.9782,1.1965],[7.2175,57.9782,0.0],[7.2175,57.9801,0.4908],[7.2097,57.9835,0.0]]],
[[[7.2525,58.0254,1.6579],[7.2486,58.0265,2.3337],[7.2469,58.0249,0.348],[7.2531,58.0232,0.0],[7.2525,58.0254,1.6579]]],
[[[7.3064,58.0243,0.0],[7.3064,58.0265,0.0],[7.3014,58.026,0.0],[7.3019,58.0246,0.0],[7.3064,58.0243,0.0]]],
[[[7.2319,58.031,1.2519],[7.2175,58.0307,0.0],[7.2197,58.0296,12.6928],[7.2092,58.026,0.0],[7.2092,58.0249,0.0],[7.2164,58.024,0.0],[7.2158,58.0254,0.0],[7.2214,58.0257,0.5268],[7.2219,58.0282,1.9869],[7.2275,58.0271,6.2232],[7.2275,58.0246,0.0],[7.2397,58.0251,0.0],[7.2319,58.031,1.2519]]],
[[[7.1692,58.0137,0.0],[7.1686,58.0171,0.0],[7.1653,58.014,3.4317],[7.1653,58.0135,0.0],[7.1692,58.0137,0.0]]],
[[[7.1669,58.0288,0.0],[7.1642,58.0293,1.0816],[7.1625,58.0265,1.4096],[7.1686,58.0251,0.0],[7.1669,58.0288,0.0]]],
[[[7.1864,58.0401,3.592],[7.1847,58.0418,0.0],[7.1797,58.041,1.8743],[7.1786,58.0379,29.7064],[7.1808,58.0376,29.7064],[7.1814,58.0335,2.5762],[7.1775,58.0382,0.9873],[7.1692,58.0363,0.0],[7.1719,58.0349,0.0],[7.1692,58.0318,0.0],[7.1708,58.0251,0.0],[7.1892,58.026,0.0],[7.1875,58.0282,16.499],[7.1908,58.0288,1.7569],[7.1925,58.0335,6.261],[7.1886,58.0357,16.8308],[7.1864,58.0401,3.592]]],
[[[7.2542,58.0276,4.816],[7.2603,58.0304,0.0],[7.2508,58.029,0.3865],[7.2508,58.0274,1.4977],[7.2542,58.0276,4.816]]],
[[[7.2848,58.252,242.9625],[7.2764,58.2511,341.3227],[7.2748,58.2555,311.3672],[7.2664,58.2547,305.9142],[7.2696,58.2459,307.114],[7.2612,58.245,307.1393],[7.2644,58.2362,295.0923],[7.2561,58.2353,323.4197],[7.2577,58.2309,321.2169],[7.2493,58.2301,315.6817],[7.2509,58.2257,337.4517],[7.2425,58.2248,369.4896],[7.2538,58.194,314.7495],[7.2454,58.1931,337.0376],[7.2486,58.1843,317.8376],[7.2403,58.1835,307.6521],[7.2451,58.1703,277.3685],[7.2367,58.1694,266.2015],[7.2416,58.1562,254.532],[7.2332,58.1554,231.6736],[7.2364,58.1465,230.3028],[7.228,58.1457,256.4445],[7.2297,58.1413,230.1105],[7.2213,58.1404,230.2243],[7.2229,58.136,287.3234],[7.2062,58.1343,228.4005],[7.2078,58.1299,296.236],[7.1994,58.129,277.5037],[7.201,58.1246,219.611],[7.1927,58.1238,130.1024],[7.1943,58.1194,125.3794],[7.1776,58.1177,118.5172],[7.1792,58.1133,9.7208],[7.1708,58.1124,107.2532],[7.1741,58.1036,0.0],[7.1657,58.1027,0.0],[7.1673,58.0983,0.0],[7.159,58.0975,0.0],[7.1622,58.0887,0.0],[7.1538,58.0878,0.0],[7.1555,58.0834,0.0],[7.1471,58.0825,165.4342],[7.1503,58.0737,7.0766],[7.1332,58.0724,10.3951],[7.1325,58.071,0.5366],[7.1442,58.0707,11.7153],[7.1331,58.0679,6.6292],[7.1253,58.0682,1.2953],[7.1247,58.0654,63.0895],[7.1186,58.0643,0.0],[7.1164,58.0618,35.1179],[7.1125,58.061,0.0],[7.1131,58.0574,11.2014],[7.0858,58.0529,4.3024],[7.0825,58.0496,43.2652],[7.0781,58.0496,0.0],[7.0742,58.046,53.7513],[7.0708,58.046,0.0],[7.0642,58.0424,0.0],[7.0597,58.0368,68.0161],[7.0558,58.0365,2.3013],[7.0519,58.0326,53.5937],[7.0464,58.0301,6.9416],[7.0442,58.0282,0.0],[7.0447,58.0268,65.0031],[7.0403,58.0238,2.1223],[7.0408,58.0221,21.6315],[7.0381,58.0213,5.6913],[7.0392,58.019,47.4669],[7.0364,58.0151,0.0],[7.0369,58.0132,67.3341],[7.0342,58.0107,0.0],[7.0364,58.0088,4.2963],[7.0336,58.006,0.0],[7.0375,58.0043,14.2081],[7.0336,58.0032,0.0],[7.0353,58.0015,56.5275],[7.0275,57.9971,0.0],[7.0319,57.9893,0.0],[7.0347,57.9874,11.5863],[7.0397,57.9879,5.6844],[7.0442,57.9846,0.0],[7.0447,57.9815,0.0],[7.0536,57.979,1.558],[7.0581,57.9801,0.0],[7.0581,57.9829,0.0],[7.0619,57.9843,0.0],[7.0625,57.986,1.183],[7.0664,57.9846,0.6188],[7.0669,57.9865,2.014],[7.0703,57.9876,0.8388],[7.0836,57.9888,5.8679],[7.0869,57.9918,2.1887],[7.0942,57.9946,0.0],[7.0975,57.999,4.3441],[7.1014,57.999,3.5292],[7.1058,58.0018,0.0],[7.1081,58.0057,3.6941],[7.1114,58.0062,0.0],[7.1147,58.0132,0.0],[7.1169,58.0137,0.0],[7.1164,58.0179,6.6675],[7.1053,58.0301,10.7366],[7.1053,58.0326,3.4173],[7.1075,58.0332,0.0],[7.1058,58.0396,1.7265],[7.1092,58.039,89.8904],[7.1103,58.0365,0.7261],[7.1158,58.0354,6.9911],[7.1136,58.034,0.0],[7.1142,58.0321,0.0],[7.1192,58.0276,31.8246],[7.1186,58.0254,0.0],[7.1214,58.0251,0.0],[7.1247,58.0262,0.0],[7.1253,58.0288,9.3238],[7.1286,58.0315,0.0],[7.1264,58.0332,16.8909],[7.1253,58.0371,2.7207],[7.1303,58.0371,4.2009],[7.1331,58.0388,0.0],[7.1314,58.0407,0.0],[7.1319,58.0424,2.1397],[7.1414,58.0426,0.9095],[7.1431,58.041,1.2281],[7.1408,58.0401,1.5547],[7.1414,58.0374,23.0009],[7.1381,58.0343,2.7144],[7.1397,58.0315,22.9362],[7.1364,58.029,0.0],[7.1358,58.0265,0.0],[7.1392,58.0262,0.0],[7.1386,58.0288,6.6329],[7.1458,58.0276,0.0],[7.1458,58.0293,4.8714],[7.1481,58.0299,0.0],[7.1469,58.0346,19.6081],[7.1486,58.0363,1.1869],[7.1458,58.0376,6.9286],[7.1458,58.0401,3.3341],[7.1497,58.0401,3.3136],[7.1508,58.0374,0.6988],[7.1547,58.0376,0.0],[7.1536,58.0401,0.5481],[7.1553,58.0421,0.0],[7.1536,58.0429,13.3923],[7.1547,58.0449,1.115],[7.1608,58.0438,3.2275],[7.1614,58.0457,10.2665],[7.1669,58.046,7.8655],[7.1686,58.0443,4.3093],[7.1681,58.0407,6.2341],[7.1714,58.0399,0.0],[7.1736,58.0401,0.0],[7.1725,58.0418,3.9878999999999998],[7.1775,58.0424,0.0],[7.1764,58.0449,0.0],[7.1736,58.0454,5.0111],[7.1758,58.0488,7.3008],[7.1786,58.0474,0.0],[7.1786,58.0496,0.0],[7.1758,58.054,3.7946],[7.1786,58.0551,6.3335],[7.1775,58.0568,0.0],[7.1786,58.0576,3.1965],[7.1808,58.0576,3.1965],[7.1797,58.0537,1.2513],[7.1847,58.0507,26.0496],[7.1947,58.049,0.9775],[7.1981,58.051,9.4839],[7.2008,58.0493,5.0179],[7.1969,58.0485,0.2059],[7.1969,58.0451,9.8103],[7.1936,58.0438,0.0],[7.1964,58.0412,0.0],[7.2003,58.0412,13.1669],[7.2025,58.0388,48.4662],[7.1981,58.0332,5.1134],[7.1975,58.0268,0.0],[7.2003,58.0282,0.0],[7.2058,58.0274,0.6249],[7.2125,58.0313,0.0],[7.2125,58.0329,0.0],[7.2253,58.0321,0.4046],[7.2281,58.0349,0.0],[7.2247,58.0376,2.6843],[7.2336,58.0376,0.5593],[7.2392,58.0396,2.13],[7.2397,58.0421,15.4515],[7.2469,58.0438,0.0],[7.2458,58.0496,3.9997],[7.2492,58.0504,17.0463],[7.2586,58.0438,0.7134],[7.2525,58.0407,0.0],[7.2514,58.0368,0.0],[7.2536,58.0354,6.2915],[7.2519,58.0346,0.0],[7.2575,58.0335,8.8317],[7.2558,58.0321,0.8725],[7.2569,58.0313,1.5431],[7.2647,58.031,3.0854],[7.2625,58.0265,0.0],[7.2681,58.0257,3.3538],[7.2681,58.0299,1.2153],[7.2653,58.0301,12.2814],[7.2692,58.0318,0.0],[7.2675,58.0329,0.0],[7.2675,58.0354,0.0],[7.2703,58.0357,0.0],[7.2714,58.0412,0.0],[7.2681,58.0438,1.4142],[7.2681,58.0468,4.6929],[7.2664,58.0485,7.1159],[7.2742,58.0543,1.9048],[7.2786,58.0524,1.866],[7.2797,58.0554,0.0],[7.2775,58.0576,2.7412],[7.2786,58.0612,21.9013],[7.2836,58.064,1.1796],[7.2803,58.0604,3.5079],[7.2797,58.0574,1.114],[7.2847,58.0532,3.0309],[7.2853,58.0504,19.1639],[7.2808,58.0499,2.256],[7.2769,58.0429,0.0],[7.2753,58.0426,0.0],[7.2764,58.0385,17.2096],[7.2747,58.0379,0.0],[7.2758,58.0343,3.5379],[7.2742,58.0329,0.0],[7.2769,58.0326,0.98],[7.2758,58.0315,0.0],[7.2769,58.0301,0.8135],[7.2742,58.0268,0.0],[7.2797,58.0249,0.0],[7.2814,58.0254,0.0],[7.2808,58.0282,1.4595],[7.2819,58.0285,0.0],[7.2886,58.0282,0.0],[7.2881,58.0299,4.0766],[7.2964,58.0288,5.1298],[7.2981,58.0329,0.7566],[7.2953,58.0357,2.7078],[7.2974,58.0393,4.2931],[7.2997,58.0385,1.604],[7.2981,58.0365,2.5962],[7.3014,58.0349,0.0],[7.3003,58.0326,5.1839],[7.3042,58.0318,0.6962],[7.3031,58.0293,1.4441],[7.2992,58.0282,0.0],[7.3019,58.0268,0.0],[7.3097,58.0274,6.5775],[7.3197,58.0254,0.0],[7.3214,58.0268,2.1999],[7.3214,58.0301,10.1014],[7.3175,58.0349,0.0],[7.3192,58.036,0.0],[7.3192,58.0399,0.0],[7.3169,58.0421,0.8115],[7.3203,58.0443,0.0],[7.3197,58.0455,9.8231],[7.325,58.046,123.5368],[7.3234,58.0504,132.8899],[7.3401,58.0521,89.1952],[7.3385,58.0565,112.458],[7.3469,58.0574,126.3621],[7.3453,58.0618,85.194],[7.362,58.0635,74.5884],[7.3636,58.0591,17.0],[7.3719,58.0599,60.1759],[7.3703,58.0643,55.026],[7.3954,58.0669,114.9879],[7.3938,58.0713,90.7082],[7.4022,58.0721,95.8362],[7.4006,58.0765,128.4235],[7.4089,58.0774,203.0829],[7.4057,58.0862,174.0859],[7.3974,58.0853,179.0674],[7.3958,58.0897,183.2327],[7.4042,58.0906,242.8975],[7.401,58.0994,164.1787],[7.4094,58.1002,257.1293],[7.4046,58.1134,195.4252],[7.4464,58.1177,271.3548],[7.4448,58.1221,256.4051],[7.4532,58.1229,239.2127],[7.4516,58.1273,298.83],[7.46,58.1282,251.4919],[7.4584,58.1326,261.3078],[7.4668,58.1334,272.3079],[7.4604,58.1511,250.9308],[7.4688,58.1519,262.8184],[7.4672,58.1563,251.8555],[7.4756,58.1571,275.7889],[7.4724,58.166,240.1654],[7.4641,58.1651,249.8583],[7.4609,58.1739,249.3686],[7.4525,58.1731,233.0682],[7.4382,58.2127,303.0851],[7.4299,58.2119,299.9978],[7.4267,58.2207,317.783],[7.4183,58.2198,307.9377],[7.4167,58.2243,304.0616],[7.4083,58.2234,283.6732],[7.4067,58.2278,310.9969],[7.3983,58.227,319.3715],[7.3951,58.2358,309.0484],[7.3699,58.2332,281.5949],[7.3684,58.2376,204.7289],[7.3516,58.2359,130.4107],[7.35,58.2403,129.581],[7.3332,58.2386,253.5974],[7.33,58.2474,242.4139],[7.3384,58.2483,226.647],[7.3352,58.2571,220.07],[7.2848,58.252,242.9625]]]]}}