{"type": "Feature","bbox": [6.6943,62.416,7.1244,62.5469],"geometry": {"type": "MultiPolygon","coordinates": [[[[6.8545,62.5443,188.5],[6.8564,62.5399,188.5],[6.8373,62.5381,188.5],[6.8393,62.5337,199.2185],[6.8202,62.5319,192.5788],[6.8221,62.5275,184.0],[6.7935,62.5248,203.9208],[6.7954,62.5204,320.8858],[6.7859,62.5195,300.3742],[6.7879,62.5151,310.4772],[6.7688,62.5133,178.2557],[6.7727,62.5046,161.8773],[6.7632,62.5037,174.7524],[6.7671,62.4949,88.1153],[6.7576,62.494,55.9041],[6.7595,62.4896,190.8697],[6.7405,62.4878,65.6373],[6.7424,62.4834,265.2462],[6.7094,62.4802,50.0032],[6.7072,62.4816,13.0511],[6.7093,62.4833,0.0],[6.7021,62.4833,0.0],[6.6943,62.4755,0.0],[6.725,62.475,0.0],[6.7292,62.4771,54.478],[6.7333,62.475,0.0],[6.7417,62.475,0.0],[6.7458,62.4771,50.0501],[6.7521,62.4771,36.3486],[6.7562,62.475,0.0],[6.7646,62.475,0.0],[6.7672,62.4786,1.0671],[6.775,62.4813,62.2259],[6.7792,62.4792,0.0],[6.7833,62.4792,0.0],[6.7875,62.4813,46.6591],[6.8104,62.4813,1.0922],[6.812,62.4807,2.1235],[6.812,62.4776,0.0],[6.8089,62.4766,0.0],[6.8099,62.4734,0.0],[6.8057,62.4714,0.0],[6.7922,62.4682,41.9384],[6.7854,62.4646,192.5318],[6.775,62.4646,25.5926],[6.7734,62.463,18.3925],[6.7833,62.4583,0.0],[6.8021,62.4583,0.0],[6.8104,62.4625,43.523],[6.8146,62.4604,0.0],[6.825,62.4604,35.9665],[6.8292,62.4583,9.9047],[6.8417,62.4583,0.0],[6.8458,62.4604,0.0],[6.8646,62.4604,0.0],[6.8745,62.4578,10.7108],[6.8928,62.4473,78.0145],[6.9131,62.4427,325.4747],[6.9172,62.4403,311.0352],[6.9299,62.4415,483.0043],[6.9318,62.4371,532.7485],[6.9795,62.4415,320.6454],[6.9814,62.4371,527.0374],[6.9909,62.438,416.4119],[6.9929,62.4336,481.8937],[7.0119,62.4353,543.4799],[7.0139,62.4309,485.5888],[7.0234,62.4318,535.2949],[7.0253,62.4274,554.0914],[7.0348,62.4283,594.0677],[7.0368,62.4239,705.6796],[7.0463,62.4248,856.0667],[7.0501,62.416,986.195],[7.0787,62.4186,1072.075],[7.0768,62.423,1151.4873],[7.1053,62.4257,1121.5375],[7.1034,62.4301,873.8986],[7.113,62.4309,958.8138],[7.1091,62.4397,1039.8514],[7.1187,62.4406,1079.7343],[7.1148,62.4494,1365.9576],[7.1244,62.4503,1334.2007],[7.1225,62.4547,965.4908],[7.1129,62.4538,1068.693],[7.111,62.4582,815.4205],[7.0919,62.4565,733.2265],[7.09,62.4609,692.8644],[7.0709,62.4591,710.825],[7.069,62.4635,803.7552],[7.0595,62.4626,677.6026],[7.0576,62.467,682.8975],[7.0385,62.4653,378.4937],[7.0366,62.4697,369.4731],[7.027,62.4688,394.3163],[7.0212,62.482,558.1653],[7.0117,62.4811,657.448],[7.0059,62.4943,1063.1521],[6.9963,62.4934,969.9895],[6.9905,62.5066,699.7044],[6.981,62.5057,632.8344],[6.9771,62.5145,395.6716],[6.9675,62.5136,374.629],[6.9617,62.5268,412.5817],[6.9522,62.5259,372.6139],[6.9463,62.5391,312.1133],[6.9368,62.5382,338.4807],[6.9348,62.5426,384.4105],[6.9157,62.5408,412.6036],[6.9138,62.5452,388.2477],[6.8851,62.5426,325.5371],[6.8831,62.5469,271.5139],[6.8545,62.5443,188.5]]]]}
,"properties": {"GID_2": "NOR.8.19_1","GID_0": "NOR","country": "Norway","GID_1": "NOR.8_1","province": "MøreogRomsdal","NL_NAME_1": "NA","county": "Ørskog","VARNAME_2": "NA","NL_NAME_2": "NA","TYPE_2": "Kommuner","ENGTYPE_2": "Municipality","CC_2": "NA","HASC_2": "NO.MR.OK","name": "Ørskog.county","area_km2": 134.7338,"hist_schema_id": "Elevation0-9000","hist_area_km2": {"0": 1.9109,"25": 1.754,"50": 2.7437,"75": 4.1933,"100": 3.204,"125": 3.2627,"150": 3.8992,"175": 5.5722,"200": 7.606,"225": 5.3074,"250": 4.946,"275": 5.1322,"300": 6.7656,"325": 6.7065,"350": 6.2465,"375": 7.5701,"400": 5.4445,"425": 4.1727,"450": 3.5164,"475": 3.5949,"500": 3.3209,"525": 3.7814,"550": 3.724,"575": 3.9494,"600": 3.6655,"625": 2.8226,"650": 3.5294,"675": 2.8522,"700": 2.0679,"725": 1.6075,"750": 1.1564,"775": 0.9606,"800": 0.7058,"825": 0.9316,"850": 0.8238,"875": 0.5492,"900": 0.5688,"925": 0.5787,"950": 0.51,"975": 0.4021,"1000": 0.3237,"1025": 0.3923,"1050": 0.3139,"1075": 0.3335,"1100": 0.3041,"1125": 0.2648,"1150": 0.2158,"1175": 0.1569,"1200": 0.0883,"1225": 0.1569,"1250": 0.0392,"1275": 0.0294,"1300": 0.0392,"1325": 0.0098,"1375": 0.0098}}}