{"type":"Feature","properties":{"GID_2":"NOR.1.21_1","GID_0":"NOR","country":"Norway","GID_1":"NOR.1_1","province":"Akershus","NL_NAME_1":"NA","county":"Vestby","VARNAME_2":"NA","NL_NAME_2":"NA","TYPE_2":"Kommuner","ENGTYPE_2":"Municipality","CC_2":"NA","HASC_2":"NO.AK.VE","name":"Vestby.county"},
"geometry":{"type": "MultiPolygon","coordinates": [[[[10.6703,59.5038,0.0],[10.6681,59.504,0.0],[10.6675,59.5021,4.0016],[10.6714,59.5018,0.0],[10.6703,59.5038,0.0]]],
[[[10.6753,59.5146,1.4864],[10.6781,59.5174,0.0],[10.6731,59.5157,0.2324],[10.6736,59.5137,3.5389],[10.6703,59.5135,3.9687],[10.6697,59.5101,0.0],[10.6731,59.5101,0.0],[10.6753,59.5146,1.4864]]],
[[[10.6901,59.6382,84.8373],[10.6725,59.637,99.5887],[10.675,59.6281,77.6376],[10.6662,59.6274,101.0769],[10.6674,59.623,78.312],[10.6481,59.6225,4.2641],[10.6525,59.6171,13.7588],[10.6508,59.616,0.0],[10.6508,59.6115,11.9001],[10.6486,59.6079,0.0],[10.6536,59.6037,3.0754],[10.6514,59.5999,0.0],[10.6553,59.5976,6.7236],[10.6553,59.5954,26.1704],[10.6525,59.5924,5.128],[10.6531,59.5879,5.8159],[10.6514,59.5857,0.0],[10.6564,59.5829,35.866],[10.6508,59.5812,2.1835],[10.6508,59.579,3.0483],[10.6469,59.5765,0.0],[10.6503,59.5701,6.9187],[10.6508,59.5649,1.5837],[10.6475,59.5585,0.0],[10.6503,59.5565,7.8715],[10.6525,59.5471,14.2996],[10.6586,59.5412,2.4638],[10.6647,59.5396,16.8937],[10.6647,59.5382,10.0938],[10.6586,59.5371,0.0],[10.6581,59.5354,0.0],[10.6614,59.5296,0.0],[10.6686,59.5221,13.4882],[10.6781,59.5235,0.0],[10.6819,59.5279,16.6482],[10.6847,59.5279,0.0],[10.6836,59.526,0.0],[10.6886,59.5271,1.1248],[10.6825,59.5213,0.0],[10.6814,59.5143,4.3331],[10.6792,59.5126,19.3107],[10.6797,59.5099,5.4625],[10.6847,59.5096,2.6966],[10.6825,59.5076,0.0],[10.6831,59.5026,8.0134],[10.6808,59.5004,8.9531],[10.6814,59.4982,0.0],[10.6831,59.4982,8.7083],[10.6831,59.4915,5.2695],[10.6853,59.4883,1.1981],[10.6959,59.4891,42.5083],[10.6971,59.4846,34.2769],[10.7059,59.4852,29.8811],[10.7071,59.4808,47.5311],[10.7422,59.4833,60.3007],[10.7409,59.4878,67.8975],[10.7585,59.489,71.9376],[10.7572,59.4935,65.6863],[10.766,59.4941,73.7378],[10.7648,59.4985,54.2678],[10.7735,59.4991,48.8114],[10.7686,59.5169,45.0259],[10.7774,59.5175,35.0853],[10.7737,59.5309,49.4257],[10.7825,59.5315,37.9854],[10.7801,59.5404,42.2401],[10.7713,59.5398,52.5767],[10.7688,59.5487,64.7795],[10.7776,59.5493,88.6799],[10.7764,59.5537,49.5588],[10.7939,59.555,66.1186],[10.7927,59.5594,53.8342],[10.8454,59.5631,67.8772],[10.8393,59.5854,50.8826],[10.8569,59.5866,90.5678],[10.8545,59.5955,87.4903],[10.8457,59.5949,53.1645],[10.8433,59.6038,84.0651],[10.8345,59.6031,80.0838],[10.8332,59.6076,101.7348],[10.8244,59.607,109.0928],[10.8232,59.6114,102.919],[10.8144,59.6108,101.1505],[10.8119,59.6197,110.0354],[10.8031,59.6191,88.3567],[10.8019,59.6235,85.648],[10.7931,59.6229,81.4856],[10.7919,59.6273,97.9716],[10.7743,59.6261,75.732],[10.773,59.6305,81.2973],[10.7661,59.63,79.5174],[10.7554,59.6293,80.7759],[10.7567,59.6248,84.8998],[10.7303,59.623,106.0284],[10.729,59.6274,95.7186],[10.7114,59.6261,100.0753],[10.7102,59.6306,87.2568],[10.7014,59.63,89.9582],[10.7001,59.6344,89.5027],[10.6913,59.6338,85.4258],[10.6901,59.6382,84.8373]]]]}}