{"type":"Feature","properties":{"GID_2":"NOR.8.21_1","GID_0":"NOR","country":"Norway","GID_1":"NOR.8_1","province":"MøreogRomsdal","NL_NAME_1":"NA","county":"Rauma","VARNAME_2":"NA","NL_NAME_2":"NA","TYPE_2":"Kommuner","ENGTYPE_2":"Municipality","CC_2":"NA","HASC_2":"NO.MR.RA","name":"Rauma.county"},
"geometry":{"type": "MultiPolygon","coordinates": [[[[7.7413,62.7064,314.2275],[7.7386,62.7129,35.2012],[7.7313,62.7125,0.0],[7.7271,62.7104,43.9689],[7.7125,62.7104,0.0],[7.6995,62.7026,0.0],[7.6917,62.7021,0.0],[7.6833,62.6979,0.0],[7.6688,62.6979,0.0],[7.6646,62.6958,69.643],[7.6604,62.6979,0.0],[7.6563,62.6958,50.4368],[7.6458,62.6958,7.6628],[7.6417,62.6937,99.1228],[7.6271,62.6937,10.0747],[7.5958,62.6792,0.0],[7.5917,62.6792,0.0],[7.5875,62.6771,11.7404],[7.5813,62.6792,0.0],[7.5771,62.6771,0.0],[7.5729,62.6771,8.9244],[7.5688,62.6792,0.0],[7.5646,62.6792,0.0],[7.5604,62.6771,5.3033],[7.5422,62.6745,0.0],[7.5328,62.6693,21.1174],[7.5193,62.6661,7.0949],[7.5146,62.6625,96.1891],[7.5063,62.6625,36.4736],[7.4984,62.6599,8.1808],[7.4984,62.6568,0.0],[7.5021,62.6542,39.5277],[7.5005,62.6505,0.0],[7.5078,62.6453,0.0],[7.5068,62.6359,0.0],[7.5141,62.6349,29.4839],[7.5151,62.6318,0.0],[7.5224,62.6286,2.3278],[7.5255,62.6255,0.0],[7.5349,62.6245,22.7991],[7.5339,62.6214,0.0],[7.5411,62.6182,7.7446],[7.5401,62.6089,0.0],[7.5432,62.6078,0.0],[7.5443,62.6047,0.0],[7.5474,62.6026,67.2951],[7.5422,62.6016,0.0],[7.5422,62.5984,0.0],[7.5453,62.5974,0.0],[7.5453,62.5943,0.0],[7.5432,62.5901,0.0],[7.5375,62.5875,18.5252],[7.5229,62.5896,6.7058],[7.5188,62.5875,0.0],[7.5068,62.5859,0.0],[7.5089,62.5891,0.0],[7.512,62.5901,0.0],[7.5089,62.5932,7.8629],[7.512,62.5943,0.0],[7.5104,62.6021,16.3701],[7.5125,62.6083,0.0],[7.5104,62.6104,0.0],[7.5005,62.6109,277.9194],[7.5036,62.6141,37.2052],[7.4964,62.6172,8.3108],[7.4995,62.6307,0.0],[7.4964,62.6318,4.9285],[7.4953,62.6349,0.0],[7.4896,62.6375,3.6641],[7.4854,62.6375,12.9708],[7.4813,62.6396,0.0],[7.4625,62.6396,98.864],[7.4568,62.637,57.5581],[7.4542,62.6333,380.9219],[7.4479,62.6333,303.3346],[7.4438,62.6312,513.1435],[7.425,62.6312,285.0793],[7.4208,62.6292,340.9864],[7.4104,62.6292,353.7456],[7.4005,62.6255,105.1284],[7.4026,62.6214,0.0],[7.4057,62.6203,0.0],[7.4063,62.6167,0.0],[7.4047,62.613,0.0],[7.4078,62.612,6.98],[7.4089,62.6089,0.0],[7.4161,62.6036,247.8952],[7.4151,62.6005,106.156],[7.4182,62.5995,175.4963],[7.4193,62.5964,52.4394],[7.4417,62.5854,0.0],[7.45,62.5854,0.0],[7.4542,62.5875,17.2632],[7.4583,62.5854,0.0],[7.4661,62.5849,0.0],[7.463,62.5734,161.9067],[7.4714,62.5693,31.3825],[7.4813,62.5667,55.9599],[7.4896,62.5667,67.7814],[7.4938,62.5646,0.0],[7.5083,62.5646,98.9098],[7.5125,62.5625,0.0],[7.5333,62.5604,74.2798],[7.5458,62.5563,0.0],[7.5604,62.5542,0.0],[7.5646,62.5563,23.1701],[7.575,62.5563,0.0],[7.5792,62.5583,0.0],[7.5833,62.5583,0.0],[7.5938,62.5625,0.0],[7.6083,62.5625,0.0],[7.6167,62.5667,25.5061],[7.6396,62.5667,0.0],[7.6438,62.5687,0.0],[7.65,62.5687,0.0],[7.6568,62.5724,0.0],[7.6792,62.5792,16.09],[7.6938,62.5792,0.0],[7.6979,62.5812,0.0],[7.7167,62.5812,0.0],[7.7208,62.5833,0.0],[7.7354,62.5833,0.0],[7.7401,62.5797,0.0],[7.7479,62.5792,0.0],[7.7604,62.575,0.0],[7.7828,62.5745,0.0],[7.7828,62.5714,0.0],[7.7813,62.5708,2.1112],[7.7771,62.5708,0.0],[7.7729,62.5687,55.8094],[7.7604,62.5687,8.5822],[7.7604,62.5667,68.6684],[7.7667,62.5667,117.1348],[7.7724,62.5641,304.7563],[7.762,62.5589,784.9025],[7.75,62.5604,493.9598],[7.7458,62.5583,659.3643],[7.7417,62.5604,576.1196],[7.7375,62.5583,844.8383],[7.7333,62.5583,858.0192],[7.7208,62.5625,496.65],[7.7146,62.5625,486.1516],[7.7146,62.5646,219.5562],[7.7063,62.5646,174.7553],[7.7021,62.5667,35.8474],[7.675,62.5667,0.0],[7.6734,62.5661,5.6659],[7.6714,62.5599,1.5569],[7.6745,62.5568,0.0],[7.6609,62.5536,0.0],[7.6641,62.5516,6.8007],[7.6651,62.5484,85.3247],[7.6682,62.5474,303.3539],[7.6693,62.5443,430.7948],[7.6724,62.5432,301.6565],[7.6672,62.5401,689.0704],[7.6745,62.5359,457.9429],[7.6688,62.5333,732.0106],[7.6625,62.5333,991.0984],[7.6583,62.5354,1098.9342],[7.65,62.5354,1010.2788],[7.6458,62.5375,938.0076],[7.6417,62.5375,839.8451],[7.6354,62.5333,1105.6311],[7.6297,62.5349,968.3439],[7.6271,62.5313,1055.7397],[7.6167,62.5313,729.4315],[7.6083,62.5354,635.4576],[7.6,62.5354,500.3624],[7.5958,62.5375,364.6463],[7.5917,62.5375,270.697],[7.5813,62.5333,476.1952],[7.5625,62.5333,0.0],[7.5609,62.5328,0.0],[7.5589,62.5234,0.0],[7.562,62.5224,0.0],[7.563,62.5172,0.0],[7.5661,62.5161,59.7226],[7.5646,62.5104,0.0],[7.5682,62.5068,17.4513],[7.5661,62.5005,6.5991],[7.5604,62.4979,2.5898],[7.55,62.4979,0.0],[7.5474,62.5016,0.0],[7.5443,62.5026,0.0],[7.5453,62.5057,0.0],[7.538,62.5089,9.3305],[7.537,62.512,0.0],[7.5255,62.5172,216.4356],[7.5271,62.5187,160.4749],[7.5349,62.5193,0.0],[7.5313,62.5229,0.0],[7.5328,62.5266,0.0],[7.5161,62.5349,0.0],[7.5021,62.5375,61.5675],[7.4938,62.5417,115.7119],[7.4792,62.5417,75.7528],[7.4604,62.5333,6.3543],[7.4458,62.5333,6.9509],[7.4438,62.5354,3.6923],[7.4453,62.5391,0.0],[7.4422,62.5401,0.0],[7.4411,62.5432,0.0],[7.4313,62.5479,270.0727],[7.4255,62.5484,358.8642],[7.4266,62.5536,23.8952],[7.4193,62.5568,58.8893],[7.4182,62.5599,0.0],[7.4042,62.5625,214.8727],[7.4,62.5604,451.9635],[7.3938,62.5604,588.8437],[7.3792,62.5563,1031.8229],[7.3734,62.5589,614.0287],[7.3786,62.5609,469.5707],[7.3797,62.5661,268.4459],[7.3813,62.5667,174.1593],[7.3938,62.5625,289.2052],[7.3974,62.5641,102.8477],[7.3859,62.5693,22.9897],[7.3849,62.5724,0.0],[7.3776,62.5755,79.2158],[7.3786,62.5786,13.9797],[7.3755,62.5797,0.0],[7.3745,62.5828,0.0],[7.3714,62.5839,25.1443],[7.3703,62.587,0.0],[7.363,62.5901,84.4565],[7.3641,62.5953,8.6497],[7.3609,62.5964,66.102],[7.3599,62.5995,96.0996],[7.3474,62.6057,261.0631],[7.3375,62.6083,222.6316],[7.3292,62.6083,29.7301],[7.325,62.6063,8.1223],[7.3021,62.6063,0.0],[7.2979,62.6083,0.0],[7.2833,62.6083,51.2098],[7.2734,62.6109,89.8297],[7.2724,62.6141,39.7085],[7.2661,62.6182,76.1881],[7.2625,62.6188,63.5234],[7.2583,62.6167,118.8934],[7.2542,62.6188,58.5975],[7.2516,62.6151,73.4721],[7.2396,62.6104,11.9845],[7.2354,62.6104,6.0476],[7.2313,62.6125,0.0],[7.2167,62.6125,36.4299],[7.2123,62.6138,48.1361],[7.2161,62.605,239.7155],[7.2065,62.6041,405.1477],[7.2084,62.5998,393.4973],[7.1989,62.5989,485.2931],[7.2065,62.5813,393.9278],[7.2161,62.5821,337.325],[7.218,62.5778,380.8232],[7.2276,62.5786,447.1148],[7.2295,62.5742,539.7495],[7.2486,62.576,817.3354],[7.2525,62.5672,796.1627],[7.262,62.568,816.2607],[7.2658,62.5592,1020.4716],[7.2754,62.5601,992.2394],[7.2792,62.5513,1120.3967],[7.2888,62.5521,1047.7444],[7.2907,62.5477,974.4682],[7.2811,62.5469,987.6868],[7.283,62.5425,846.0847],[7.2639,62.5407,555.4047],[7.2658,62.5363,557.113],[7.2466,62.5346,641.1311],[7.2485,62.5302,659.8038],[7.239,62.5293,1093.2993],[7.2428,62.5205,1107.252],[7.2523,62.5214,965.6782],[7.2542,62.517,1117.022],[7.2447,62.5161,1004.5039],[7.2466,62.5117,895.4963],[7.2179,62.5091,1017.0472],[7.2198,62.5047,1028.2747],[7.2294,62.5056,1071.0919],[7.2389,62.4836,1341.4117],[7.2484,62.4845,972.8632],[7.2541,62.4713,1364.902],[7.2637,62.4721,1153.5959],[7.2656,62.4677,1377.0452],[7.2942,62.4703,661.3236],[7.2961,62.4659,1046.5216],[7.3152,62.4677,726.0],[7.3171,62.4633,979.4724],[7.3266,62.4641,772.4603],[7.3285,62.4597,1133.0449],[7.338,62.4606,1201.9902],[7.3474,62.4386,588.6313],[7.3379,62.4377,574.5046],[7.3473,62.4157,668.8545],[7.3568,62.4166,806.8843],[7.3681,62.3901,1552.0194],[7.3966,62.3927,1182.7584],[7.3985,62.3883,1270.9592],[7.4366,62.3917,1214.5997],[7.4347,62.3961,910.2111],[7.4729,62.3995,1113.324],[7.471,62.4039,761.1368],[7.5091,62.4073,1509.6149],[7.5073,62.4118,1425.9025],[7.5263,62.4134,1016.5275],[7.5245,62.4179,1161.0038],[7.5531,62.4204,1467.1761],[7.5512,62.4248,1292.3802],[7.5703,62.4265,1353.3099],[7.5685,62.4309,1432.8171],[7.5971,62.4334,1393.3577],[7.5952,62.4378,954.8274],[7.6239,62.4404,1505.5083],[7.6257,62.436,1608.5005],[7.6353,62.4368,1448.5862],[7.6371,62.4324,1396.1061],[7.6466,62.4332,1139.2081],[7.6485,62.4288,866.115],[7.6676,62.4305,827.3417],[7.6694,62.4261,1119.084],[7.6885,62.4278,1276.6249],[7.6903,62.4234,1205.8217],[7.7189,62.4259,1163.5732],[7.7208,62.4215,1410.8503],[7.7589,62.4248,1235.8079],[7.7626,62.416,1483.7344],[7.7721,62.4168,1311.8556],[7.7775,62.4036,1170.4969],[7.7871,62.4044,1105.0885],[7.7907,62.3956,1491.3373],[7.8002,62.3964,1321.7942],[7.8057,62.3832,1401.5028],[7.7961,62.3824,1213.168],[7.8034,62.3647,1151.1476],[7.7938,62.3639,1256.0245],[7.7975,62.3551,1391.6693],[7.7879,62.3543,1450.5968],[7.7898,62.3499,1489.8002],[7.7802,62.349,1551.4574],[7.782,62.3446,1479.8927],[7.7725,62.3438,1514.572],[7.7761,62.335,1396.7532],[7.7666,62.3341,1553.4452],[7.7721,62.3209,1442.3044],[7.7435,62.3184,1569.7738],[7.7453,62.314,1388.8478],[7.7263,62.3123,1137.951],[7.7281,62.3079,1212.8564],[7.7186,62.3071,1273.1008],[7.7223,62.2983,1131.3828],[7.7128,62.2975,1359.5538],[7.7146,62.2931,1434.8771],[7.6956,62.2914,1703.5432],[7.6974,62.287,1509.9924],[7.6784,62.2853,1450.3698],[7.6802,62.2809,1270.99],[7.6707,62.2801,1214.0485],[7.6744,62.2712,1622.37],[7.6554,62.2696,1679.8312],[7.6572,62.2652,1280.3931],[7.6477,62.2643,1347.2491],[7.6532,62.2511,1372.5496],[7.6627,62.2519,1220.2861],[7.6663,62.2431,1595.0386],[7.6758,62.244,1612.5758],[7.6794,62.2352,1720.6572],[7.6889,62.236,1598.3685],[7.6907,62.2316,1601.6675],[7.7002,62.2324,1505.5647],[7.7056,62.2192,1528.0751],[7.6962,62.2184,1637.3362],[7.6998,62.2095,1649.0153],[7.6903,62.2087,1718.8113],[7.6921,62.2043,1631.0081],[7.6826,62.2035,1751.6571],[7.6845,62.1991,1942.0974],[7.6939,62.1999,1649.2441],[7.6957,62.1955,1780.0139],[7.7147,62.1972,1382.244],[7.7165,62.1928,1754.1431],[7.726,62.1936,1580.5968],[7.7296,62.1848,1849.1686],[7.7769,62.1889,1647.1714],[7.7787,62.1845,1706.7466],[7.7977,62.1862,1511.9761],[7.7994,62.1818,1441.3716],[7.8184,62.1834,1461.6534],[7.8202,62.179,1359.0243],[7.8296,62.1799,1353.525],[7.8314,62.1754,1405.9976],[7.8504,62.1771,1667.4176],[7.8522,62.1727,1778.5493],[7.8616,62.1735,1874.1313],[7.8634,62.1691,1924.6742],[7.9865,62.1798,1856.0457],[7.9847,62.1842,1808.3068],[7.9942,62.185,1692.9314],[7.9925,62.1894,1628.6686],[8.0019,62.1902,1698.6453],[8.0002,62.1946,1667.9047],[8.0096,62.1954,1691.1111],[8.0079,62.1999,1515.8901],[8.0173,62.2007,1513.0209],[8.0156,62.2051,1422.0638],[8.0251,62.2059,1374.7483],[8.0215,62.2147,1235.9956],[8.031,62.2155,1227.3396],[8.0293,62.2199,1211.3728],[8.0387,62.2208,1221.1387],[8.037,62.2252,1217.5765],[8.0465,62.226,1223.1273],[8.0447,62.2304,1270.9424],[8.0542,62.2312,1280.0759],[8.0524,62.2356,1359.5472],[8.0619,62.2364,1406.8086],[8.0602,62.2408,1389.0153],[8.0697,62.2417,1354.6045],[8.0679,62.2461,1302.7179],[8.0774,62.2469,1247.8778],[8.0756,62.2513,1237.4956],[8.0851,62.2521,1123.3992],[8.0834,62.2565,978.1755],[8.0929,62.2573,798.0695],[8.0911,62.2617,715.0726],[8.1006,62.2625,669.2247],[8.0989,62.267,643.3939],[8.1084,62.2678,639.1829],[8.1049,62.2766,631.769],[8.1144,62.2774,532.0359],[8.1108,62.2862,520.8925],[8.1204,62.287,461.4002],[8.1168,62.2959,391.908],[8.1264,62.2967,512.7739],[8.1246,62.3011,509.9201],[8.1341,62.3019,802.5694],[8.1324,62.3063,700.4803],[8.1419,62.3071,840.5206],[8.1401,62.3115,821.5693],[8.1496,62.3123,913.9167],[8.1479,62.3167,978.214],[8.1574,62.3175,1115.7633],[8.1539,62.3264,1302.7563],[8.1634,62.3272,1415.005],[8.1617,62.3316,1458.2107],[8.1712,62.3324,1602.8341],[8.1694,62.3368,1565.1074],[8.198,62.3392,1459.1954],[8.1945,62.348,1516.8619],[8.185,62.3472,1453.6176],[8.1797,62.3605,1527.413],[8.1893,62.3613,1766.7924],[8.1823,62.3789,1625.3594],[8.1727,62.3781,1525.0071],[8.171,62.3825,1503.7104],[8.1614,62.3817,1386.2244],[8.1597,62.3861,1387.6392],[8.1406,62.3845,1595.1008],[8.13,62.411,1696.7456],[8.1205,62.4102,1396.5135],[8.1152,62.4234,1310.2769],[8.1247,62.4243,1590.2612],[8.123,62.4287,1386.9309],[8.1325,62.4295,1715.6229],[8.1255,62.4471,1056.1749],[8.1159,62.4463,1093.2083],[8.1141,62.4507,1096.1313],[8.1046,62.4499,1068.4161],[8.1028,62.4543,992.2062],[8.0837,62.4527,1225.181],[8.0819,62.4571,1073.2921],[8.0532,62.4547,1068.6193],[8.0514,62.4591,1035.5677],[8.0228,62.4567,1459.6404],[8.0103,62.4875,1597.3291],[8.0198,62.4884,1541.8324],[8.0163,62.4972,1459.1343],[8.0067,62.4964,1405.8291],[8.0031,62.5052,1566.5502],[8.0127,62.506,1470.4781],[8.0109,62.5104,1457.1089],[8.0205,62.5112,1327.3387],[8.0151,62.5245,1171.6863],[8.0055,62.5237,1115.2493],[8.002,62.5325,1218.7634],[8.0595,62.5374,927.684],[8.0613,62.5329,941.2074],[8.09,62.5354,1377.0955],[8.0847,62.5486,1493.9464],[8.0751,62.5478,1361.8243],[8.0715,62.5566,1553.2839],[8.0619,62.5558,1421.9203],[8.0602,62.5602,1575.5099],[8.0506,62.5594,1572.8018],[8.047,62.5682,1610.9933],[8.0566,62.5691,1415.7809],[8.0548,62.5735,1319.891],[8.0644,62.5743,1268.9341],[8.0626,62.5787,1100.3367],[8.0722,62.5795,1197.1425],[8.0704,62.5839,1332.8225],[8.0608,62.5831,1169.5667],[8.059,62.5875,1327.4425],[8.0494,62.5867,1060.1008],[8.0423,62.6043,1027.8269],[8.0231,62.6027,1205.9954],[8.0213,62.6071,926.6912],[8.0021,62.6055,791.8402],[8.0003,62.6099,1084.6115],[7.9811,62.6083,793.6566],[7.9792,62.6127,841.8427],[7.96,62.611,1138.058],[7.9582,62.6155,1372.6211],[7.9102,62.6114,1321.718],[7.9066,62.6202,1066.9307],[7.897,62.6194,1221.4834],[7.8952,62.6238,1202.9183],[7.8663,62.6213,902.8176],[7.87,62.6125,1158.843],[7.8507,62.6108,940.2668],[7.8471,62.6196,778.56],[7.8375,62.6188,794.9052],[7.8339,62.6276,871.1314],[7.8242,62.6268,1079.8446],[7.8206,62.6356,1100.085],[7.811,62.6348,1097.9047],[7.8092,62.6392,926.506],[7.8188,62.64,788.4688],[7.8133,62.6533,639.1083],[7.8229,62.6541,893.8973],[7.8193,62.6629,844.4492],[7.8289,62.6637,726.2922],[7.8234,62.677,1063.2854],[7.833,62.6778,874.5548],[7.8312,62.6822,705.18],[7.8216,62.681399999999996,803.5818],[7.8197,62.6858,662.6457],[7.8005,62.6841,848.241],[7.7987,62.6885,851.4763],[7.7794,62.6869,798.2952],[7.7776,62.6913,759.7054],[7.7679,62.6904,798.1847],[7.7661,62.6948,631.6494],[7.7565,62.694,766.9984],[7.7509,62.7072,408.3155],[7.7413,62.7064,314.2275]]],
[[[7.7583,62.5646,162.2576],[7.7604,62.5646,163.3129],[7.7604,62.5667,68.6684],[7.7438,62.5667,21.1884],[7.7417,62.5646,134.1667],[7.7438,62.5625,297.4008],[7.7521,62.5625,290.377],[7.7583,62.5646,162.2576]]],
[[[7.7167,62.5667,93.3576],[7.7146,62.5667,92.4145],[7.7146,62.5646,219.5562],[7.7182,62.5651,205.0271],[7.7167,62.5667,93.3576]]],
[[[7.7276,62.5651,182.1942],[7.737,62.5672,17.4718],[7.737,62.5682,0.0],[7.7234,62.5682,19.4427],[7.7276,62.5651,182.1942]]]]}}