{"type":"Feature","properties":{"GID_2":"NOR.2.5_1","GID_0":"NOR","country":"Norway","GID_1":"NOR.2_1","province":"Ãstfold","NL_NAME_1":"NA","county":"Fredrikstad","VARNAME_2":"NA","NL_NAME_2":"NA","TYPE_2":"Kommuner","ENGTYPE_2":"Municipality","CC_2":"NA","HASC_2":"NO.OF.FR","name":"Fredrikstad.county"},
"geometry":{"type": "MultiPolygon","coordinates": [[[[10.9819,59.1401,2.3616],[10.9792,59.1407,0.0],[10.9819,59.1379,0.6652],[10.9842,59.1379,0.6652],[10.9836,59.1399,2.3616],[10.9819,59.1401,2.3616]]],
[[[10.9892,59.1515,6.3985],[10.9847,59.1521,0.0],[10.9836,59.1446,0.0],[10.9908,59.1465,0.5378],[10.9903,59.1515,0.4524],[10.9892,59.1515,6.3985]]],
[[[10.9836,59.1701,0.6507],[10.9775,59.1685,0.7116],[10.9775,59.1649,0.8537],[10.9747,59.1632,0.0],[10.9764,59.1615,0.1739],[10.9736,59.1621,0.0],[10.9731,59.1607,0.0],[10.9797,59.1576,0.0],[10.9858,59.1626,0.598],[10.9836,59.1649,1.0852],[10.9869,59.1649,0.7266],[10.9858,59.1693,0.0941],[10.9881,59.1699,0.0989],[10.9836,59.1701,0.6507]]],
[[[10.9897,59.1654,0.0],[10.9931,59.1654,0.0],[10.9936,59.1676,0.0],[10.9908,59.1674,0.0],[10.9897,59.1654,0.0]]],
[[[10.9808,59.1538,2.1116],[10.9803,59.1557,0.1449],[10.9781,59.1543,1.9392],[10.9781,59.1496,0.242],[10.9808,59.1501,0.0],[10.9808,59.1538,2.1116]]],
[[[10.9736,59.1685,0.5208],[10.9708,59.169,0.0],[10.9708,59.1665,0.0],[10.9731,59.1651,0.0],[10.9758,59.166,0.0],[10.9753,59.1682,0.0],[10.9736,59.1685,0.5208]]],
[[[10.9486,59.1824,0.0],[10.9486,59.1826,0.0],[10.9485,59.1826,0.0],[10.9486,59.1824,0.0]]],
[[[10.9912,59.2336,0.0],[10.9968,59.234,5.8361],[10.9956,59.2384,1.9697],[10.9782,59.2372,15.6671],[10.977,59.2417,18.4508],[10.9509,59.2398,67.0992],[10.9497,59.2443,66.9639],[10.941,59.2437,51.8704],[10.9398,59.2481,47.9103],[10.9485,59.2487,75.3191],[10.9462,59.2576,75.1705],[10.9549,59.2582,75.0529],[10.9525,59.2671,53.1395],[10.9612,59.2677,95.5105],[10.9588,59.2766,67.2718],[10.9501,59.276,70.9913],[10.9513,59.2716,75.5409],[10.9426,59.271,62.4881],[10.9438,59.2665,50.9492],[10.9351,59.2659,36.6566],[10.9339,59.2704,51.5522],[10.9251,59.2697,55.6366],[10.9239,59.2742,65.3675],[10.9327,59.2748,52.5313],[10.9291,59.2881,64.7771],[10.9204,59.2875,53.93],[10.9216,59.2831,51.9047],[10.9041,59.2818,14.6579],[10.9053,59.2774,2.4575],[10.8966,59.2768,26.8129],[10.9014,59.259,2.6508],[10.8927,59.2584,5.8072],[10.8939,59.2539,5.3718],[10.9026,59.2546,6.3934],[10.9131,59.2157,2.4256],[10.9153,59.2176,5.524],[10.9142,59.2215,23.6856],[10.9175,59.2221,13.5713],[10.9192,59.2165,0.0],[10.9247,59.2146,1.5552],[10.9136,59.2132,0.6809],[10.9131,59.2107,0.3283],[10.9175,59.2107,0.738],[10.9146,59.2099,1.3607],[10.9158,59.2057,17.5507],[10.9245,59.2063,41.3798],[10.9256,59.2018,45.1523],[10.9343,59.2024,12.4285],[10.9379,59.1891,23.8946],[10.9442,59.1895,0.0],[10.9453,59.1926,3.1658],[10.9486,59.194,0.0],[10.9536,59.1824,0.7493],[10.9631,59.1746,0.0],[10.9714,59.1757,0.2703],[10.9725,59.1743,0.5916],[10.9697,59.1721,0.1269],[10.9703,59.1707,0.1],[10.9781,59.1715,0.0],[10.9775,59.1754,0.0],[10.9686,59.1807,1.8617],[10.9714,59.184,0.7737],[10.9797,59.1888,6.1425],[10.9886,59.1893,5.8935],[10.9919,59.1879,0.9438],[10.9897,59.1826,0.1551],[10.9919,59.1787,0.0],[10.9969,59.1804,0.0],[10.9981,59.1776,0.0],[11.0019,59.1815,0.0],[10.9929,59.2156,9.3637],[10.9842,59.215,16.2601],[10.983,59.2194,9.5147],[10.9743,59.2188,0.0],[10.9731,59.2233,3.4893],[10.9818,59.2239,3.0077],[10.9806,59.2283,12.5119],[10.9893,59.2289,0.7747],[10.9881,59.2334,4.7878],[10.9912,59.2336,0.0]]]]}}