{"type":"Feature","properties":{"GID_2":"NOR.19.13_1","GID_0":"NOR","country":"Norway","GID_1":"NOR.19_1","province":"Vestfold","NL_NAME_1":"NA","county":"Tjøme","VARNAME_2":"NA","NL_NAME_2":"NA","TYPE_2":"Kommuner","ENGTYPE_2":"Municipality","CC_2":"NA","HASC_2":"NO.VF.TJ","name":"Tjøme.county"},
"geometry":{"type": "MultiPolygon","coordinates": [[[[10.5219,59.0504,0.0],[10.5208,59.0526,0.0],[10.5186,59.0521,0.0],[10.5181,59.0476,1.2594],[10.5203,59.0476,0.0],[10.5219,59.0504,0.0]]],
[[[10.5364,59.0576,0.0],[10.5347,59.0579,0.0],[10.5319,59.0532,0.0],[10.5342,59.0529,0.0],[10.5364,59.0576,0.0]]],
[[[10.5164,59.0554,0.0],[10.5153,59.0601,0.0],[10.5119,59.0588,0.0],[10.5114,59.0551,3.2335],[10.5158,59.054,0.0],[10.5164,59.0554,0.0]]],
[[[10.5247,59.074,0.0],[10.5225,59.0746,5.1447],[10.5192,59.0721,0.0],[10.5203,59.0682,10.6441],[10.5175,59.0657,3.3377],[10.5231,59.0621,25.1218],[10.5231,59.0599,0.0],[10.5264,59.0596,0.0],[10.5292,59.0643,0.0],[10.5275,59.0713,0.0],[10.5247,59.074,0.0]]],
[[[10.4842,59.1082,9.4119],[10.4764,59.1079,2.1181],[10.4736,59.1032,0.0],[10.4797,59.0982,0.0],[10.4836,59.0985,0.3622],[10.4853,59.1015,7.0266],[10.4869,59.0946,0.0],[10.4897,59.0938,1.6224],[10.4925,59.0971,0.0],[10.4925,59.104,0.0],[10.4908,59.1051,3.128],[10.4864,59.1043,5.4352],[10.4842,59.1082,9.4119]]],
[[[10.4981,59.1043,1.4083],[10.4975,59.1063,2.395],[10.4947,59.1065,2.395],[10.4947,59.104,4.1003],[10.4981,59.1043,1.4083]]],
[[[10.4708,59.1501,3.3647],[10.4686,59.1515,2.0177],[10.4658,59.1507,0.0],[10.4692,59.1482,0.0],[10.4719,59.1485,0.0],[10.4708,59.1501,3.3647]]],
[[[10.4503,59.121,0.4477],[10.4492,59.1224,0.9029],[10.4464,59.1218,6.1811],[10.4453,59.1179,6.5131],[10.4469,59.116,25.5732],[10.4464,59.114,16.6474],[10.4536,59.1126,3.2499],[10.4547,59.1171,0.0],[10.4503,59.121,0.4477]]],
[[[10.4675,59.1185,0.0],[10.4675,59.124,0.0],[10.4636,59.124,0.0],[10.4592,59.1199,10.1494],[10.4625,59.1143,0.0],[10.4681,59.1126,0.0],[10.4708,59.1157,2.9965],[10.4675,59.1185,0.0]]],
[[[10.4519,59.1349,17.1397],[10.4508,59.1418,1.3628],[10.4469,59.1418,7.1184],[10.4442,59.1404,17.2643],[10.4431,59.1349,7.7521],[10.4392,59.1338,0.0],[10.4386,59.1312,0.0],[10.4453,59.1274,3.7322],[10.4481,59.1285,0.0],[10.4475,59.1299,2.5874],[10.4519,59.1349,17.1397]]],
[[[10.4703,59.1401,3.0911],[10.4697,59.1424,0.0],[10.4675,59.1421,0.0],[10.4653,59.1376,8.9048],[10.4658,59.1343,2.9484],[10.4686,59.1335,0.0],[10.4708,59.1357,0.0],[10.4703,59.1371,1.3115],[10.4725,59.139,3.0911],[10.4703,59.1401,3.0911]]],
[[[10.3986,59.059,14.8068],[10.3958,59.0593,1.1589],[10.3953,59.0571,0.3099],[10.4008,59.0576,0.0],[10.3986,59.059,14.8068]]],
[[[10.4371,59.0601,0.0],[10.4336,59.0607,0.0],[10.4331,59.059,0.0],[10.4364,59.0576,0.0],[10.4381,59.0582,0.0],[10.4371,59.0601,0.0]]],
[[[10.3514,59.109,1.8413],[10.3514,59.1113,0.0],[10.3508,59.1096,1.8413],[10.3442,59.1096,0.0],[10.3447,59.1054,0.0],[10.3464,59.1049,0.0],[10.3514,59.109,1.8413]]],
[[[10.3597,59.109,1.0809],[10.3586,59.1104,1.0809],[10.3547,59.1104,3.5163],[10.3536,59.1068,2.0779],[10.3564,59.106,2.0779],[10.3597,59.109,1.0809]]],
[[[10.4458,59.0551,0.0],[10.4419,59.0554,0.0],[10.4419,59.0524,0.0],[10.4469,59.0496,0.0],[10.4519,59.0504,0.0],[10.4508,59.0543,0.0],[10.4458,59.0551,0.0]]],
[[[10.4608,59.0854,12.2061],[10.4597,59.0868,1.9131],[10.4581,59.0863,6.0115],[10.4586,59.079,19.8362],[10.4608,59.0779,10.1958],[10.4608,59.0743,0.0],[10.4642,59.0726,3.1441],[10.4631,59.0687,1.302],[10.4697,59.0679,0.0],[10.4714,59.071,9.5727],[10.4736,59.0715,1.3256],[10.4714,59.0754,17.9198],[10.4714,59.0818,5.4805],[10.4686,59.0829,8.3263],[10.4686,59.0849,4.8759],[10.4608,59.0854,12.2061]]],
[[[10.4308,59.1193,4.6013],[10.4258,59.1193,1.349],[10.4281,59.1171,14.6739],[10.4258,59.1129,0.0],[10.4286,59.111,3.0848],[10.4286,59.106,2.3668],[10.4258,59.1063,6.2185],[10.4258,59.1082,4.8334],[10.4225,59.1118,3.6637],[10.4208,59.1082,1.4452],[10.4231,59.1074,7.9712],[10.4236,59.1049,15.3894],[10.4203,59.1021,2.0387],[10.4231,59.0887,0.0],[10.4292,59.086,3.2822],[10.4247,59.0849,8.3005],[10.4258,59.0821,2.536],[10.4292,59.081,0.7142],[10.4281,59.0751,1.5569],[10.4297,59.0665,5.551],[10.4375,59.0624,0.0],[10.4447,59.0643,1.9669],[10.4508,59.064,4.1283],[10.4503,59.0668,8.1718],[10.4542,59.0687,2.5192],[10.4519,59.0779,11.6514],[10.4547,59.0801,0.0],[10.4519,59.0821,7.4434],[10.4514,59.0899,2.3386],[10.4486,59.091,5.3232],[10.4503,59.0943,1.1423],[10.4425,59.0979,3.6527],[10.4414,59.0938,0.0],[10.4436,59.0918,3.1557],[10.4414,59.0901,0.0],[10.4425,59.0865,11.4268],[10.4408,59.084,1.7209],[10.4425,59.0838,7.2472],[10.4403,59.0832,3.3958],[10.4403,59.0796,8.8764],[10.4375,59.0796,1.4563],[10.4347,59.086,0.0],[10.4314,59.0863,0.8294],[10.4331,59.0879,2.1318],[10.4375,59.0874,0.0],[10.4386,59.0893,0.0],[10.4347,59.0901,1.9342],[10.4353,59.0932,0.0],[10.4308,59.094,6.5874],[10.4319,59.0962,0.0],[10.4292,59.0988,6.3727],[10.4292,59.1004,6.3727],[10.4331,59.1004,0.0],[10.4319,59.1076,3.3461],[10.4364,59.106,0.0],[10.4353,59.1115,0.0],[10.4325,59.1124,1.6397],[10.4308,59.1193,4.6013]]],
[[[10.4508,59.1074,2.2407],[10.4442,59.1079,6.8886],[10.4436,59.0996,0.0],[10.4525,59.0996,0.0],[10.4536,59.1063,5.5861],[10.4508,59.1074,2.2407]]],
[[[10.3958,59.1676,1.3646],[10.3942,59.169,0.0],[10.3897,59.1682,3.8357],[10.3869,59.166,5.2146],[10.3881,59.1638,3.374],[10.3864,59.1599,2.025],[10.3781,59.1607,0.0],[10.3747,59.1576,11.3141],[10.3764,59.1471,9.3416],[10.3814,59.1474,2.7545],[10.3786,59.144,0.9076],[10.3786,59.1415,0.0],[10.3875,59.1424,3.2078],[10.3803,59.1404,9.6456],[10.3786,59.1374,1.5776],[10.3792,59.1315,0.0],[10.3836,59.121,4.5499],[10.3814,59.1185,0.3048],[10.3825,59.1138,7.2014],[10.3792,59.1115,0.0],[10.3808,59.1099,11.6793],[10.3786,59.1099,0.0],[10.3803,59.1057,10.1077],[10.3786,59.1032,0.0],[10.3814,59.0968,0.0],[10.3847,59.0974,0.0],[10.3836,59.1035,12.1997],[10.3881,59.1035,4.5589],[10.3886,59.0962,5.154],[10.3947,59.0966,10.3818],[10.3986,59.0935,5.3225],[10.3953,59.091,2.536],[10.3975,59.0882,3.62],[10.3981,59.0799,2.7435],[10.3914,59.0768,0.0],[10.3936,59.0693,0.466],[10.3914,59.0687,0.0],[10.3942,59.0643,0.069],[10.3964,59.0635,0.6268],[10.3964,59.0601,1.1589],[10.4014,59.0599,16.4268],[10.4064,59.0535,0.0],[10.4097,59.0604,-0.2353],[10.4147,59.0632,2.4957],[10.4203,59.0632,0.0],[10.4208,59.0665,0.5511],[10.4258,59.0704,1.0297],[10.4247,59.0779,0.0],[10.4197,59.0868,0.0],[10.4153,59.0904,6.7419],[10.4114,59.0907,0.0],[10.4075,59.0976,3.3176],[10.4125,59.0976,5.7279],[10.4147,59.096,0.5952],[10.4175,59.0968,0.8863],[10.4169,59.1024,19.9204],[10.4181,59.1024,2.5768],[10.4192,59.1162,3.9062],[10.4236,59.1157,0.0],[10.4231,59.1179,1.7178],[10.4247,59.1196,1.349],[10.4231,59.1201,3.378],[10.4269,59.1212,0.0945],[10.4314,59.1251,1.8209],[10.4353,59.1251,0.0],[10.4369,59.131,0.0],[10.4369,59.1324,0.0],[10.4325,59.1346,2.4615],[10.4275,59.1346,0.0],[10.4281,59.1307,4.6138],[10.4203,59.1299,3.0918],[10.4186,59.1318,0.0],[10.4153,59.1315,1.4807],[10.4175,59.1335,0.0],[10.4164,59.1363,0.6661],[10.4181,59.1365,0.0],[10.4153,59.1379,0.0],[10.4186,59.141,0.5524],[10.4181,59.1435,0.6896],[10.4164,59.1437,5.4307],[10.4186,59.1446,0.0],[10.4208,59.1493,5.7619],[10.4247,59.1488,4.6705],[10.4231,59.1482,2.5089],[10.4236,59.1457,3.4176],[10.4314,59.1451,0.0],[10.4336,59.1468,2.515],[10.4403,59.1468,0.0],[10.4464,59.1457,0.0],[10.4447,59.1501,0.0],[10.4464,59.1538,0.0],[10.4453,59.1579,0.0],[10.4353,59.1587,0.0],[10.4369,59.1574,6.1464],[10.4325,59.1535,5.6297],[10.4297,59.1535,3.5408],[10.4303,59.1571,0.0],[10.4264,59.1596,3.9026],[10.4153,59.1607,3.2605],[10.4131,59.1643,0.1362],[10.4081,59.164,1.0368],[10.4086,59.1654,1.0368],[10.4064,59.1676,1.2986],[10.4025,59.1682,9.9278],[10.3969,59.1665,2.46],[10.3958,59.1676,1.3646]]],
[[[10.3647,59.1265,1.1382],[10.3647,59.1279,0.0],[10.3564,59.1279,0.0],[10.3531,59.1251,0.6728],[10.3542,59.1226,14.1018],[10.3503,59.1226,3.4755],[10.3497,59.1212,14.676],[10.3508,59.1168,0.6963],[10.3553,59.1185,2.5229],[10.3581,59.1168,4.6332],[10.3592,59.1143,1.2764],[10.3575,59.1126,0.0],[10.3619,59.1093,0.4411],[10.3653,59.1129,0.0506],[10.3647,59.1162,2.9646],[10.3681,59.1154,0.0],[10.3636,59.1218,15.065],[10.3664,59.1229,3.053],[10.3669,59.121,2.9947],[10.3692,59.121,2.9947],[10.3697,59.124,7.1112],[10.3686,59.126,0.9531],[10.3647,59.1265,1.1382]]],
[[[10.3414,59.1235,0.8261],[10.3436,59.1229,0.8261],[10.3431,59.1271,0.0],[10.3408,59.1263,1.1018],[10.3414,59.1235,0.8261]]],
[[[10.3758,59.1315,1.6153],[10.3742,59.1351,2.237],[10.3697,59.1315,0.0],[10.3692,59.1285,0.0],[10.3714,59.1279,0.3758],[10.3714,59.1301,7.4338],[10.3758,59.1315,1.6153]]]]}}