{"type":"Feature","properties":{"GID_2":"NOR.16.16_1","GID_0":"NOR","country":"Norway","GID_1":"NOR.16_1","province":"Telemark","NL_NAME_1":"NA","county":"Tinn","VARNAME_2":"NA","NL_NAME_2":"NA","TYPE_2":"Kommuner","ENGTYPE_2":"Municipality","CC_2":"NA","HASC_2":"NO.TE.TI","name":"Tinn.county"},
"geometry":{"type": "MultiPolygon","coordinates": [[[[9.179,59.8848,987.9894],[9.1775,59.8892,981.7728],[9.1864,59.89,1040.5581],[9.1805,59.9077,1136.2783],[9.1894,59.9084,1158.6484],[9.1821,59.9305,954.1938],[9.1732,59.9298,971.3699],[9.1718,59.9342,798.9545],[9.1629,59.9335,801.9911],[9.1615,59.9379,746.3184],[9.1526,59.9372,752.4124],[9.1511,59.9416,746.2576],[9.1423,59.9409,751.7192],[9.1408,59.9453,774.5143],[9.132,59.9446,847.2979],[9.129,59.9534,949.1335],[9.1202,59.9527,949.251],[9.1187,59.9571,957.9156],[9.1098,59.9564,912.0554],[9.1084,59.9608,900.0444],[9.0818,59.9586,855.7073],[9.0803,59.963,855.462],[9.0626,59.9615,896.3235],[9.0611,59.966,944.7145],[9.0522,59.9652,992.7333],[9.0478,59.9785,1006.4965],[9.0389,59.9778,987.2632],[9.036,59.9866,911.0039],[8.9917,59.9829,756.7527],[8.9872,59.9962,846.5254],[8.9961,59.9969,948.3891],[8.9931,60.0058,916.0383],[8.9842,60.005,860.4786],[8.9738,60.036,1001.6996],[8.9826,60.0367,1057.4861],[8.9752,60.0589,1093.6938],[8.9662,60.0854,1118.2323],[8.9573,60.0846,1065.9513],[8.9528,60.0979,1145.6598],[8.9439,60.0972,1168.6519],[8.9409,60.106,1168.2258],[8.932,60.1053,1245.3193],[8.929,60.1141,1284.7267],[8.9201,60.1134,1336.9937],[8.9186,60.1178,1309.4716],[8.9097,60.117,1262.4781],[8.9067,60.1259,1171.9869],[8.8978,60.1251,1180.7444],[8.8963,60.1296,1196.668],[8.8785,60.1281,1212.7047],[8.877,60.1325,1227.3567],[8.8681,60.1317,1235.3674],[8.8666,60.1361,1240.7903],[8.8577,60.1354,1244.7692],[8.8561,60.1398,1242.4347],[8.8472,60.1391,1240.329],[8.8457,60.1435,1245.3226],[8.8368,60.1427,1230.6704],[8.8353,60.1472,1257.9493],[8.8264,60.1464,1222.0707],[8.8234,60.1552,1230.8448],[8.8055,60.1537,1212.755],[8.804,60.1581,1213.2875],[8.7862,60.1566,1212.8723],[8.7847,60.1611,1212.7651],[8.7758,60.1603,1212.7018],[8.7742,60.1647,1212.7784],[8.7653,60.164,1215.693],[8.7623,60.1728,1233.3663],[8.7445,60.1713,1313.4445],[8.7429,60.1757,1370.2156],[8.6806,60.1704,1372.368],[8.679,60.1748,1337.7965],[8.6078,60.1686,1171.546],[8.6062,60.173,1174.8151],[8.5439,60.1676,1270.8446],[8.5423,60.1721,1277.8468],[8.4533,60.1643,1280.6648],[8.4517,60.1687,1263.2137],[8.4339,60.1671,1259.0381],[8.4323,60.1716,1265.0054],[8.3878,60.1676,1284.6097],[8.3862,60.172,1290.0312],[8.3239,60.1665,1398.2117],[8.3223,60.171,1388.3529],[8.2867,60.1678,1338.3745],[8.2852,60.1722,1343.4174],[8.2763,60.1714,1344.8098],[8.2747,60.1758,1310.3236],[8.2658,60.175,1289.7693],[8.2642,60.1794,1227.4922],[8.2553,60.1787,1197.2167],[8.2537,60.1831,1188.1257],[8.2448,60.1823,1182.1216],[8.2432,60.1867,1187.9082],[8.2343,60.1859,1189.8384],[8.2311,60.1947,1214.822],[8.2043,60.1923,1225.835],[8.2027,60.1967,1243.1295],[8.1582,60.1927,1127.535],[8.1566,60.1972,1131.4703],[8.1388,60.1956,1214.5386],[8.1404,60.1911,1141.3229],[8.1315,60.1903,1144.3606],[8.1331,60.1859,1120.7224],[8.1153,60.1843,1127.5896],[8.1169,60.1799,1163.0898],[8.0991,60.1783,1188.6809],[8.1008,60.1739,1250.8085],[8.0919,60.1731,1278.9762],[8.0935,60.1687,1351.1273],[8.0312,60.163,1342.4824],[8.0329,60.1586,1335.5352],[7.9884,60.1546,1340.52],[7.9901,60.1502,1335.6646],[7.9456,60.1461,1371.2573],[7.9473,60.1417,1335.9974],[7.9117,60.1384,1399.4198],[7.9134,60.134,1347.287],[7.8956,60.1324,1300.6914],[7.8972,60.128,1286.0446],[7.8706,60.1255,1251.9487],[7.8723,60.1211,1258.0964],[7.8634,60.1203,1311.1327],[7.8667,60.1114,1246.1348],[7.9022,60.1147,1251.193],[7.9038,60.1103,1245.6514],[7.9216,60.1119,1259.9249],[7.9232,60.1075,1245.3242],[7.941,60.1092,1282.7122],[7.9426,60.1048,1253.1372],[7.9515,60.1056,1302.6528],[7.9531,60.1012,1266.3022],[7.962,60.102,1305.8689],[7.9636,60.0976,1291.3329],[7.9725,60.0984,1339.7798],[7.9774,60.0851,1292.147],[7.9862,60.086,1363.8938],[7.9895,60.0771,1171.7463],[7.9984,60.0779,1296.4645],[8.0,60.0735,1166.0525],[8.0089,60.0743,1200.3739],[8.0105,60.0699,1160.9904],[8.0194,60.0707,1200.9073],[8.0242,60.0575,1138.532],[8.0154,60.0567,1147.6722],[8.0186,60.0479,1116.7428],[8.0363,60.0495,1162.6846],[8.0379,60.0451,1115.8356],[8.0468,60.0459,1152.0337],[8.0484,60.0415,1124.9712],[8.0661,60.0431,1177.0861],[8.0678,60.0387,1123.2911],[8.1032,60.0419,1115.736],[8.1064,60.0331,1118.3824],[8.1153,60.0339,1156.8525],[8.1249,60.0074,1133.6567],[8.1161,60.0066,1195.228],[8.1209,59.9934,1150.8378],[8.1297,59.9942,1144.1909],[8.1313,59.9897,1160.9204],[8.1402,59.9906,1161.1815],[8.1418,59.9861,1160.3527],[8.1506,59.9869,1211.6802],[8.1746,59.9207,1242.1305],[8.1658,59.9199,1194.041],[8.169,59.9111,1198.7767],[8.1601,59.9103,1197.6853],[8.1633,59.9015,1108.7465],[8.1545,59.9007,1234.4103],[8.1704,59.8565,910.0],[8.1616,59.8557,910.0],[8.1648,59.8469,910.0],[8.1736,59.8477,910.0],[8.1752,59.8433,938.9086],[8.184,59.8441,910.0],[8.1856,59.8397,947.9479],[8.1944,59.8405,910.0],[8.196,59.8361,916.4766],[8.2048,59.8369,910.0],[8.2064,59.8325,910.0],[8.224,59.834,910.0],[8.2256,59.8296,910.0],[8.2344,59.8304,910.0],[8.236,59.826,910.0],[8.2448,59.8268,910.0],[8.2463,59.8224,910.0],[8.264,59.824,910.0],[8.2592,59.8372,928.2485],[8.268,59.838,927.2279],[8.2696,59.8336,947.473],[8.2872,59.8352,980.8385],[8.2888,59.8308,1009.9381],[8.2976,59.8316,1017.0686],[8.2992,59.8271,1028.5658],[8.308,59.8279,944.502],[8.3111,59.8191,910.0],[8.2847,59.8167,910.0],[8.2831,59.8211,910.0],[8.2743,59.8204,910.0],[8.2775,59.8115,922.0266],[8.2863,59.8123,916.7393],[8.2989,59.777,1065.334],[8.3165,59.7786,1122.6948],[8.3149,59.783,1105.2539],[8.3589,59.7869,1041.9188],[8.3573,59.7913,1131.7985],[8.3661,59.7921,1105.8849],[8.3646,59.7965,1126.5264],[8.3734,59.7973,1126.9897],[8.3718,59.8018,1156.2812],[8.3894,59.8033,1154.9],[8.3878,59.8077,1172.3395],[8.3966,59.8085,1223.6694],[8.3951,59.8129,1230.0735],[8.4127,59.8145,1235.7244],[8.4111,59.8189,1223.2631],[8.4288,59.8205,1218.4944],[8.4272,59.8249,1219.3076],[8.4448,59.8265,1175.8446],[8.4433,59.8309,1184.3804],[8.4609,59.8324,1220.292],[8.4594,59.8369,1219.0757],[8.4858,59.8392,1033.2395],[8.4843,59.8436,1032.8772],[8.5019,59.8452,1169.5413],[8.5003,59.8496,1073.2383],[8.5621,59.855,1122.0374],[8.5636,59.8506,1213.0653],[8.5724,59.8514,1098.6521],[8.574,59.847,1180.6536],[8.5916,59.8485,1192.6976],[8.5932,59.8441,1200.8951],[8.602,59.8448,1147.8682],[8.6035,59.8404,1126.1824],[8.6123,59.8412,1059.8043],[8.6139,59.8368,1081.2593],[8.6227,59.8375,986.9647],[8.6257,59.8287,982.2737],[8.7139,59.8364,1152.1216],[8.7124,59.8408,1136.2002],[8.8006,59.8484,1046.3099],[8.7991,59.8528,1064.585],[8.8344,59.8558,1130.6936],[8.8329,59.8603,1095.0636],[8.8506,59.8618,903.8766],[8.8491,59.8662,879.9989],[8.8667,59.8677,975.2244],[8.8622,59.881,1243.192],[8.8711,59.8817,1221.251],[8.8696,59.8861,1165.8721],[8.8784,59.8869,1151.973],[8.8769,59.8913,1098.7183],[8.8946,59.8928,553.4984],[8.8931,59.8972,355.2166],[8.9019,59.898,189.0],[8.9034,59.8936,190.1673],[8.9123,59.8943,189.0],[8.9167,59.881,189.0],[8.9256,59.8818,189.0],[8.9301,59.8685,217.3584],[8.9389,59.8693,189.0],[8.9419,59.8604,212.1767],[8.9507,59.8612,189.0],[8.9552,59.8479,189.0],[8.964,59.8486,189.0],[8.9669,59.8398,189.0],[8.9758,59.8405,189.0],[8.9773,59.8361,189.0],[8.9861,59.8369,189.0],[8.9876,59.8324,189.0],[8.9964,59.8332,189.0],[8.9993,59.8243,258.4213],[9.0082,59.8251,189.0],[9.017,59.7985,189.0],[9.0082,59.7978,189.0],[9.0185,59.7668,234.0725],[9.0273,59.7676,189.0],[9.0288,59.7631,189.0],[9.0728,59.7668,327.3942],[9.0714,59.7713,323.7802],[9.0802,59.772,313.1749],[9.0773,59.7808,341.8206],[9.1037,59.7831,331.6107],[9.1052,59.7786,373.6472],[9.1228,59.7801,542.8406],[9.1199,59.789,656.7194],[9.1287,59.7897,664.7677],[9.1258,59.7985,688.3284],[9.1522,59.8007,1229.2355],[9.1537,59.7963,1198.0256],[9.1625,59.7971,1165.2312],[9.1596,59.8059,1239.989],[9.1684,59.8066,1262.0199],[9.1669,59.8111,1269.9158],[9.1758,59.8118,1232.4517],[9.1729,59.8206,1201.7949],[9.1817,59.8214,1258.0345],[9.1802,59.8258,1206.7131],[9.1891,59.8265,1156.7367],[9.173,59.8752,1073.4601],[9.1819,59.876,1048.8204],[9.179,59.8848,987.9894]]]]}}