{"type": "Feature","bbox": [9.9506,59.6494,10.1202,59.8547],"geometry": {"type": "MultiPolygon","coordinates": [[[[10.0989,59.8124,439.8557],[10.0976,59.8168,428.0529],[10.0887,59.8161,442.2323],[10.0821,59.8383,568.2835],[10.0732,59.8376,520.0638],[10.0706,59.8465,483.825],[10.0617,59.8458,414.925],[10.059,59.8547,384.1657],[10.0413,59.8534,380.5],[10.0427,59.8489,429.2153],[10.0338,59.8483,467.3149],[10.0352,59.8438,512.5315],[10.0263,59.8432,467.4845],[10.0277,59.8387,535.5582],[10.0188,59.838,449.4075],[10.0202,59.8336,472.9232],[10.0025,59.8323,514.7273],[10.0038,59.8278,533.778],[9.995,59.8271,501.1049],[9.9977,59.8183,510.3961],[9.9888,59.8176,519.4608],[9.9915,59.8087,505.1054],[9.9827,59.808,423.5104],[9.9854,59.7992,398.1945],[9.9765,59.7985,335.3236],[9.9792,59.7896,377.921],[9.9704,59.7889,420.0733],[9.9717,59.7845,342.2336],[9.9629,59.7838,310.2798],[9.9656,59.775,165.8771],[9.9568,59.7743,138.662],[9.9595,59.7654,0.0],[9.9506,59.7647,3.5527],[9.956,59.747,76.9539],[9.9648,59.7477,51.7229],[9.9662,59.7432,73.5161],[9.9716,59.7255,254.8441],[9.9628,59.7248,280.7463],[9.9654,59.7159,363.7886],[9.9743,59.7166,345.9974],[9.9823,59.69,563.3456],[9.9911,59.6907,512.6791],[9.9978,59.6685,332.3307],[9.989,59.6678,490.1598],[9.9917,59.659,296.2455],[9.9829,59.6583,232.9134],[9.9855,59.6494,82.9167],[10.0031,59.6508,247.8989],[10.0018,59.6552,282.1304],[10.0106,59.6559,356.4354],[10.0093,59.6603,364.5625],[10.0181,59.661,395.5093],[10.0154,59.6699,326.606],[10.0242,59.6705,406.8775],[10.0229,59.675,380.2913],[10.0405,59.6763,416.6846],[10.0391,59.6807,404.666],[10.0568,59.6821,309.4593],[10.0554,59.6865,276.1113],[10.0642,59.6872,214.5745],[10.0629,59.6916,256.6117],[10.0717,59.6923,255.7815],[10.0691,59.7012,326.0165],[10.0779,59.7019,303.2821],[10.0739,59.7152,344.3118],[10.0827,59.7158,352.1551],[10.08,59.7247,366.9809],[10.0977,59.7261,336.4028],[10.0963,59.7305,353.3729],[10.1052,59.7312,366.835],[10.1038,59.7356,353.2973],[10.1127,59.7363,346.2377],[10.1113,59.7407,143.9137],[10.1202,59.7414,122.9151],[10.0989,59.8124,439.8557]]]]}
,"properties": {"GID_2": "NOR.4.14_1","GID_0": "NOR","country": "Norway","GID_1": "NOR.4_1","province": "Buskerud","NL_NAME_1": "NA","county": "NedreEiker","VARNAME_2": "NA","NL_NAME_2": "NA","TYPE_2": "Kommuner","ENGTYPE_2": "Municipality","CC_2": "NA","HASC_2": "NO.BU.NE","name": "Nedre_Eiker.county","area_km2": 124.50999,"hist_schema_id": "Elevation0-9000","hist_area_km2": {"0": 10.5088,"25": 7.76418,"50": 3.87716,"75": 2.09326,"100": 2.47834,"125": 2.53172,"150": 2.70258,"175": 2.7874,"200": 2.30692,"225": 2.35029,"250": 3.30159,"275": 3.72932,"300": 5.57916,"325": 6.44437,"350": 7.43771,"375": 5.99439,"400": 5.08597,"425": 6.19271,"450": 5.35747,"475": 6.67808,"500": 9.73723,"525": 9.07912,"550": 6.90533,"575": 3.18086,"600": 0.406}}}