{"type": "Feature","bbox": [6.6747,62.4538,7.2907,62.6542],"geometry": {"type": "MultiPolygon","coordinates": [[[[6.8084,62.5583,664.8328],[6.8179,62.5592,609.7004],[6.8219,62.5504,567.1367],[6.8314,62.5513,620.0398],[6.8334,62.5469,352.1241],[6.8429,62.5478,302.8605],[6.8449,62.5434,199.755],[6.8831,62.5469,271.5139],[6.8851,62.5426,325.5371],[6.9138,62.5452,388.2477],[6.9157,62.5408,412.6036],[6.9348,62.5426,384.4105],[6.9368,62.5382,338.4807],[6.9463,62.5391,312.1133],[6.9522,62.5259,372.6139],[6.9617,62.5268,412.5817],[6.9675,62.5136,374.629],[6.9771,62.5145,395.6716],[6.981,62.5057,632.8344],[6.9905,62.5066,699.7044],[6.9963,62.4934,969.9895],[7.0059,62.4943,1063.1521],[7.0117,62.4811,657.448],[7.0212,62.482,558.1653],[7.027,62.4688,394.3163],[7.0366,62.4697,369.4731],[7.0385,62.4653,378.4937],[7.0576,62.467,682.8975],[7.0595,62.4626,677.6026],[7.069,62.4635,803.7552],[7.0709,62.4591,710.825],[7.09,62.4609,692.8644],[7.0919,62.4565,733.2265],[7.111,62.4582,815.4205],[7.1129,62.4538,1068.693],[7.1511,62.4573,799.5012],[7.1492,62.4617,876.8637],[7.1778,62.4643,481.995],[7.1759,62.4687,530.1644],[7.195,62.4705,394.715],[7.1911,62.4793,262.0764],[7.2007,62.4801,426.4634],[7.1988,62.4845,561.9141],[7.2179,62.4863,1039.1224],[7.2236,62.4731,965.9383],[7.2331,62.4739,1054.9343],[7.235,62.4695,1083.381],[7.2541,62.4713,1364.902],[7.2484,62.4845,972.8632],[7.2389,62.4836,1341.4117],[7.2294,62.5056,1071.0919],[7.2198,62.5047,1028.2747],[7.2179,62.5091,1017.0472],[7.2466,62.5117,895.4963],[7.2447,62.5161,1004.5039],[7.2542,62.517,1117.022],[7.2523,62.5214,965.6782],[7.2428,62.5205,1107.252],[7.239,62.5293,1093.2993],[7.2485,62.5302,659.8038],[7.2466,62.5346,641.1311],[7.2658,62.5363,557.113],[7.2639,62.5407,555.4047],[7.283,62.5425,846.0847],[7.2811,62.5469,987.6868],[7.2907,62.5477,974.4682],[7.2888,62.5521,1047.7444],[7.2792,62.5513,1120.3967],[7.2754,62.5601,992.2394],[7.2658,62.5592,1020.4716],[7.262,62.568,816.2607],[7.2525,62.5672,796.1627],[7.2486,62.576,817.3354],[7.2295,62.5742,539.7495],[7.2276,62.5786,447.1148],[7.218,62.5778,380.8232],[7.2161,62.5821,337.325],[7.2065,62.5813,393.9278],[7.1989,62.5989,485.2931],[7.2084,62.5998,393.4973],[7.2065,62.6041,405.1477],[7.2161,62.605,239.7155],[7.2123,62.6138,48.1361],[7.2148,62.614,12.9165],[7.2141,62.6161,0.0],[7.2,62.6188,78.051],[7.1917,62.6229,53.7935],[7.1833,62.6229,47.8088],[7.1792,62.625,0.0],[7.175,62.625,29.109],[7.1724,62.6286,0.0],[7.1625,62.6312,10.2025],[7.1464,62.6266,8.2416],[7.1479,62.6208,4.2966],[7.1474,62.6151,3.7429],[7.1422,62.6141,0.0],[7.1411,62.6109,4.0144],[7.137,62.6089,13.7704],[7.1292,62.6083,0.0],[7.1271,62.6063,0.0],[7.1307,62.6036,0.0],[7.1297,62.5984,0.0],[7.1328,62.5974,0.0],[7.1339,62.5922,4.5462],[7.137,62.5911,16.5543],[7.1359,62.588,0.0],[7.1391,62.587,0.0],[7.1401,62.5839,0.0],[7.1516,62.5786,9.615],[7.15,62.5729,0.0],[7.1542,62.5687,13.2365],[7.1536,62.5651,0.0],[7.1484,62.562,0.0],[7.1464,62.5557,0.0],[7.1536,62.5484,35.2934],[7.1443,62.5453,0.0],[7.1479,62.5417,0.0],[7.1458,62.5354,0.0],[7.1495,62.5328,29.6701],[7.1495,62.5276,74.0455],[7.1417,62.525,0.0],[7.1318,62.5255,1.9571],[7.1307,62.5307,0.0],[7.1276,62.5328,14.1907],[7.1328,62.5339,0.0],[7.1328,62.5391,0.0],[7.1255,62.5422,0.0],[7.125,62.5438,0.0],[7.1276,62.5516,0.0],[7.1328,62.5526,0.0],[7.1333,62.5542,0.0],[7.1328,62.5578,20.8851],[7.1292,62.5604,10.817],[7.1307,62.5641,0.0],[7.1234,62.5672,0.0],[7.1224,62.5745,4.5152],[7.1089,62.5818,0.0],[7.1078,62.5891,0.0],[7.1047,62.5901,7.5434],[7.1057,62.5953,0.0],[7.1021,62.5979,14.9986],[7.1036,62.6016,0.0],[7.1005,62.6026,0.0],[7.0995,62.6078,0.0],[7.0958,62.6104,27.3209],[7.0979,62.6146,0.0],[7.0979,62.6188,13.7229],[7.0943,62.6214,1.5064],[7.0953,62.6245,1.7845],[7.0922,62.6255,0.0],[7.0953,62.6286,0.0],[7.0797,62.6339,1.8074],[7.0797,62.637,2.5035],[7.0849,62.638,0.0],[7.0859,62.6411,0.0],[7.0891,62.6422,0.0],[7.0859,62.6443,0.0],[7.087,62.6495,0.0],[7.0813,62.6521,62.0831],[7.0771,62.65,124.2605],[7.0729,62.6521,57.7377],[7.0583,62.65,181.372],[7.0542,62.6521,80.3301],[7.0125,62.6521,9.6675],[7.0083,62.65,109.7473],[7.0042,62.65,81.7162],[7.0,62.6521,0.0],[6.9854,62.6521,41.9281],[6.9812,62.6542,13.5116],[6.9771,62.6521,52.8509],[6.9583,62.6521,34.1002],[6.9542,62.65,92.1651],[6.95,62.6521,0.0],[6.9458,62.65,49.2849],[6.9354,62.65,6.6023],[6.9313,62.6479,36.839],[6.9151,62.6474,0.0],[6.9089,62.6432,3.4687],[6.9089,62.638,4.4767],[6.9214,62.6318,0.0],[6.9286,62.6307,0.0],[6.9328,62.6286,1.8198],[6.9339,62.6255,0.0],[6.937,62.6245,3.6984],[6.9349,62.6214,1.2613],[6.9318,62.6203,0.0],[6.9349,62.6182,0.0],[6.9349,62.6151,0.0],[6.9313,62.6125,3.9704],[6.9255,62.612,9.3173],[6.9286,62.6089,0.0],[6.9193,62.6036,0.0],[6.9167,62.6,0.0],[6.9172,62.5984,0.0],[6.9229,62.5979,0.0],[6.9286,62.5953,17.7372],[6.9297,62.5901,0.0],[6.9328,62.5891,6.2317],[6.9307,62.5839,2.9436],[6.9276,62.5828,0.0],[6.925,62.5792,4.7468],[6.9172,62.5797,0.0],[6.9182,62.587,4.6267],[6.9125,62.5875,0.0],[6.9026,62.5922,58.0578],[6.9016,62.5974,7.2894],[6.888,62.6047,31.498],[6.887,62.6078,0.0],[6.8812,62.6104,17.1838],[6.8755,62.6109,38.3148],[6.8745,62.6141,0.0],[6.8672,62.6151,24.5819],[6.8661,62.6182,0.4809],[6.862,62.6203,0.0],[6.8547,62.6214,10.7411],[6.8536,62.6245,0.0],[6.8479,62.6271,0.0],[6.8422,62.6276,31.5653],[6.8297,62.6339,0.0],[6.8234,62.638,0.0],[6.8224,62.6411,0.0],[6.8141,62.6453,30.1378],[6.8068,62.6464,42.2721],[6.7974,62.6516,21.7714],[6.7875,62.6542,0.0],[6.7604,62.6542,0.0],[6.7562,62.6521,30.8346],[6.7458,62.6521,0.0],[6.7312,62.6458,10.0291],[6.7109,62.6432,0.0],[6.7047,62.6391,10.2818],[6.7021,62.6354,155.8311],[6.6875,62.6354,31.5558],[6.6833,62.6333,70.3785],[6.6747,62.6333,41.0216],[6.679,62.6239,253.0242],[6.7173,62.6276,646.6489],[6.7193,62.6232,623.0601],[6.7289,62.6241,733.2841],[6.7408,62.5977,817.7974],[6.7312,62.5968,985.9152],[6.7332,62.5924,1021.631],[6.7428,62.5933,801.7714],[6.7447,62.5889,820.1139],[6.7543,62.5898,690.6294],[6.7563,62.5854,520.1978],[6.7659,62.5863,580.8076],[6.7698,62.5775,475.4186],[6.7794,62.5784,399.5991],[6.7813,62.5741,304.3478],[6.7909,62.5749,300.1361],[6.7949,62.5662,474.9962],[6.8044,62.5671,502.5558],[6.8084,62.5583,664.8328]]]]}
,"properties": {"GID_2": "NOR.8.37_1","GID_0": "NOR","country": "Norway","GID_1": "NOR.8_1","province": "MøreogRomsdal","NL_NAME_1": "NA","county": "Vestnes","VARNAME_2": "NA","NL_NAME_2": "NA","TYPE_2": "Kommuner","ENGTYPE_2": "Municipality","CC_2": "NA","HASC_2": "NO.MR.VE","name": "Vestnes.county","area_km2": 346.6436,"hist_schema_id": "Elevation0-9000","hist_area_km2": {"0": 11.0835,"25": 15.9082,"50": 19.2101,"75": 14.8054,"100": 12.1117,"125": 9.733,"150": 9.7123,"175": 9.7525,"200": 10.691,"225": 9.7247,"250": 9.0813,"275": 8.1067,"300": 9.1137,"325": 8.3625,"350": 8.8702,"375": 9.7996,"400": 12.1246,"425": 10.5816,"450": 10.19,"475": 10.0445,"500": 10.4846,"525": 11.2875,"550": 9.3142,"575": 8.1104,"600": 7.6519,"625": 7.4676,"650": 6.9793,"675": 7.9386,"700": 6.6288,"725": 6.2666,"750": 5.5632,"775": 4.5665,"800": 4.5471,"825": 3.9808,"850": 3.7164,"875": 3.2282,"900": 2.5628,"925": 2.3771,"950": 2.2897,"975": 2.0155,"1000": 1.9275,"1025": 1.3896,"1050": 1.1839,"1075": 1.1744,"1100": 0.9985,"1125": 0.8027,"1150": 0.6167,"1175": 0.4799,"1200": 0.3233,"1225": 0.3331,"1250": 0.1763,"1275": 0.2743,"1300": 0.2449,"1325": 0.2057,"1350": 0.1567,"1375": 0.1469,"1400": 0.1078,"1425": 0.0686,"1450": 0.0392,"1475": 0.0098}}}