{"type": "Feature","bbox": [10.1229,59.041,10.3303,59.2099],"geometry": {"type": "MultiPolygon","coordinates": [[[[10.2975,59.0485,1.1099],[10.2958,59.0496,1.2012],[10.2942,59.0482,8.64],[10.2953,59.0432,0.0],[10.2986,59.0438,0.0],[10.2975,59.0485,1.1099]]],
[[[10.2831,59.0854,2.5106],[10.2814,59.0863,0.0],[10.2808,59.084,0.0],[10.2836,59.0835,0.0],[10.2831,59.0854,2.5106]]],
[[[10.2742,59.1013,2.2962],[10.2758,59.101,1.5843],[10.2758,59.1037,0.0],[10.2736,59.1037,8.3897],[10.2731,59.1015,2.2962],[10.2742,59.1013,2.2962]]],
[[[10.2758,59.1101,3.2054],[10.2742,59.111,0.0],[10.2714,59.109,15.5594],[10.2736,59.1054,0.0],[10.2775,59.1057,0.0],[10.2775,59.109,0.0],[10.2758,59.1101,3.2054]]],
[[[10.2308,59.0746,0.9428],[10.2297,59.0757,0.0],[10.2275,59.074,0.935],[10.227,59.0699,0.0],[10.2292,59.0707,4.3871],[10.2308,59.0746,0.9428]]],
[[[10.2281,59.0768,0.0],[10.2275,59.0782,0.0],[10.2242,59.0785,3.086],[10.2214,59.0754,15.3002],[10.2181,59.0757,3.6272],[10.2147,59.0715,1.6719],[10.2186,59.0702,0.0],[10.2197,59.0718,5.2675],[10.2253,59.0726,1.0404],[10.2281,59.0768,0.0]]],
[[[10.2547,59.0765,0.8445],[10.2547,59.0799,2.1213],[10.2531,59.0799,2.1213],[10.2531,59.0762,0.8445],[10.2547,59.0765,0.8445]]],
[[[10.2575,59.0829,0.0],[10.2581,59.0851,0.0],[10.2547,59.0849,0.0],[10.2547,59.0829,0.0],[10.2575,59.0829,0.0]]],
[[[10.1266,59.1838,33.2543],[10.1238,59.1835,47.7586],[10.1316,59.1569,35.2111],[10.1229,59.1563,90.2053],[10.1359,59.1119,52.7539],[10.1445,59.1125,43.9809],[10.1471,59.1037,62.8858],[10.1558,59.1043,23.4649],[10.1584,59.0955,22.0421],[10.1843,59.0974,41.5266],[10.1907,59.0753,5.0341],[10.2073,59.0693,13.8203],[10.221,59.0621,25.6737],[10.2269,59.061,13.8416],[10.2319,59.0576,0.0],[10.2342,59.0618,0.0],[10.2319,59.0621,9.6701],[10.2292,59.066,2.8288],[10.2219,59.0693,0.0],[10.2175,59.0685,11.3472],[10.2114,59.071,6.4013],[10.2125,59.0735,0.0],[10.2208,59.079,0.0],[10.2175,59.0796,4.2961],[10.2203,59.0818,0.0],[10.2181,59.0846,0.0],[10.2181,59.0887,0.3522],[10.2203,59.0887,4.2725],[10.2197,59.0871,0.3522],[10.2231,59.0871,1.6915],[10.2236,59.0893,0.5049],[10.2197,59.0896,6.5866],[10.2208,59.0921,12.6572],[10.2269,59.0932,0.0],[10.2275,59.096,0.0],[10.2258,59.0985,3.0433],[10.2308,59.1007,0.0],[10.2297,59.1032,3.5654],[10.2258,59.1051,2.5794],[10.2258,59.1124,0.0],[10.2219,59.1146,2.0502],[10.2242,59.1165,0.0],[10.2247,59.1201,0.0],[10.2186,59.1229,26.7877],[10.2253,59.124,0.0],[10.2219,59.1265,0.4357],[10.2264,59.1265,0.1828],[10.2281,59.1249,0.0],[10.2308,59.1271,1.7756],[10.2414,59.1268,3.9505],[10.2331,59.1229,5.4497],[10.2319,59.1207,1.2862],[10.2292,59.1207,0.0],[10.2269,59.1162,1.0071],[10.2292,59.1157,1.0071],[10.2286,59.1146,0.0],[10.2314,59.1118,0.0],[10.2308,59.1101,0.0],[10.2342,59.1079,7.0592],[10.2342,59.106,0.7249],[10.2386,59.1049,1.0032],[10.2369,59.1001,5.3754],[10.2392,59.0957,1.3603],[10.2436,59.096,0.3778],[10.2436,59.1004,2.0892],[10.2475,59.0996,2.7467],[10.2469,59.0943,2.371],[10.2508,59.0951,0.0],[10.2519,59.0985,0.2614],[10.2542,59.0979,0.0],[10.2547,59.0887,0.0],[10.2597,59.0854,4.0494],[10.2619,59.0771,10.2222],[10.2597,59.0771,0.0],[10.2586,59.0718,4.2114],[10.2525,59.0696,0.0],[10.2519,59.0674,0.0],[10.2575,59.0657,0.0],[10.2586,59.066,0.0],[10.2575,59.0674,1.3106],[10.2597,59.0668,3.8352],[10.2614,59.0638,10.1109],[10.2597,59.0635,8.364],[10.2592,59.0596,7.4213],[10.2642,59.0557,1.3139],[10.2658,59.0493,0.0],[10.2686,59.0479,6.1022],[10.2686,59.0462,2.114],[10.2669,59.0457,0.0],[10.2675,59.0424,4.7269],[10.2692,59.041,2.1985],[10.2742,59.041,1.3674],[10.2742,59.046,13.504],[10.2769,59.0471,2.7377],[10.2769,59.049,9.805],[10.2814,59.0501,1.9327],[10.2814,59.0526,4.3115],[10.2758,59.0568,11.0504],[10.2753,59.0607,15.9216],[10.2697,59.0665,0.0],[10.2731,59.0679,4.5782],[10.2758,59.0638,2.6271],[10.2814,59.0651,1.7923],[10.2775,59.071,1.0585],[10.2814,59.0749,0.8911],[10.2814,59.0776,2.194],[10.2792,59.0799,4.734],[10.2814,59.0818,3.6057],[10.2781,59.0835,3.8596],[10.2769,59.0874,0.0],[10.2725,59.0913,0.0],[10.2747,59.0949,29.1116],[10.2697,59.1001,4.709],[10.2697,59.1024,0.0],[10.2636,59.1071,3.3443],[10.2631,59.1093,1.177],[10.2653,59.1107,1.3259],[10.2619,59.1138,0.0],[10.2631,59.1179,12.2385],[10.2658,59.1174,8.26],[10.2642,59.114,0.0],[10.2664,59.1115,1.3259],[10.2681,59.1118,0.0],[10.2675,59.1154,0.51],[10.2719,59.116,0.0],[10.2669,59.1182,8.26],[10.2653,59.1215,3.0052],[10.2675,59.1218,0.0],[10.2725,59.1168,0.0],[10.2747,59.1171,14.3061],[10.2775,59.114,1.252],[10.2758,59.1126,0.0],[10.2831,59.1071,5.1954],[10.2831,59.1029,9.8849],[10.2769,59.1043,0.0],[10.2764,59.1018,1.5843],[10.2792,59.0982,0.0],[10.2803,59.0982,0.8986],[10.2797,59.1004,1.899],[10.2825,59.0999,11.3794],[10.2825,59.0954,1.9189],[10.2853,59.0932,0.0],[10.2881,59.096,8.9469],[10.2908,59.0962,2.3646],[10.2892,59.0943,0.0],[10.2919,59.0926,16.0394],[10.2919,59.0899,8.7603],[10.2897,59.0896,0.0],[10.2892,59.0879,0.0],[10.2914,59.0846,0.0],[10.2936,59.084,3.5117],[10.2886,59.0829,0.0],[10.2903,59.0824,1.1338],[10.2897,59.0804,0.0],[10.2925,59.0768,13.6019],[10.2919,59.0746,6.0017],[10.3025,59.0654,11.871],[10.3025,59.0629,8.8201],[10.2986,59.0626,0.0],[10.2964,59.0582,0.0],[10.3036,59.0529,0.7975],[10.3053,59.0532,0.0],[10.3047,59.0563,0.6086],[10.3081,59.0551,0.0],[10.3108,59.0576,0.0],[10.3097,59.0596,17.6094],[10.3119,59.0635,4.4537],[10.3103,59.0646,16.4018],[10.3131,59.0649,0.0],[10.3147,59.0704,0.0],[10.3058,59.0726,9.4261],[10.3047,59.0774,0.0],[10.3003,59.0826,5.6537],[10.3031,59.0832,0.2703],[10.3008,59.0843,20.2557],[10.3019,59.0854,20.2557],[10.3069,59.0824,5.0714],[10.3119,59.0838,9.2143],[10.3125,59.0868,0.0],[10.3108,59.0887,20.7152],[10.3125,59.089,0.0],[10.3097,59.0913,14.7498],[10.3086,59.099,0.0],[10.3031,59.1004,8.6157],[10.3047,59.1021,0.0],[10.3019,59.1026,22.3163],[10.3042,59.1037,0.0],[10.3036,59.106,6.2997],[10.2953,59.1146,1.7988],[10.2914,59.1162,14.1967],[10.2997,59.1171,8.2229],[10.2986,59.1204,6.9373],[10.2919,59.1193,3.1023],[10.2908,59.1221,8.1779],[10.2925,59.1221,0.0],[10.2925,59.124,0.0],[10.2897,59.1279,3.952],[10.2831,59.1274,3.7394],[10.2869,59.1285,1.3724],[10.2869,59.1299,6.2575],[10.2842,59.1335,0.0],[10.2853,59.1351,0.0],[10.2819,59.136,0.0],[10.2803,59.139,1.5211],[10.2858,59.1407,0.7543],[10.2958,59.1382,0.8114],[10.3003,59.1396,4.0414],[10.2986,59.1357,0.0],[10.3031,59.134,7.011],[10.3058,59.134,2.6497],[10.3081,59.136,1.8181],[10.3136,59.1357,0.8357],[10.3103,59.1315,0.0],[10.3108,59.1276,0.0],[10.3164,59.1271,2.3127],[10.3158,59.129,9.8206],[10.3181,59.129,0.5165],[10.3175,59.1312,4.1556],[10.3192,59.1318,20.8685],[10.3208,59.1279,3.1463],[10.3192,59.1254,8.1596],[10.3208,59.1212,1.3786],[10.3253,59.1207,0.0],[10.3269,59.1265,0.0],[10.3231,59.1265,4.7931],[10.3219,59.1288,6.6959],[10.3258,59.1282,0.0],[10.3264,59.1304,2.933],[10.3303,59.1296,0.0],[10.3297,59.1365,0.0],[10.3264,59.1421,0.0],[10.3225,59.1443,9.8867],[10.3242,59.1449,0.71],[10.3258,59.1435,0.0],[10.3269,59.1482,0.0],[10.3242,59.1476,0.0],[10.3231,59.1457,0.0],[10.3136,59.1482,2.7797],[10.3075,59.146,0.1823],[10.3086,59.1501,1.5464],[10.3119,59.1521,12.2662],[10.3192,59.1515,1.0661],[10.3163,59.1619,43.1248],[10.3077,59.1613,41.9625],[10.3064,59.1657,18.3802],[10.2977,59.165,57.0793],[10.2964,59.1695,51.6906],[10.2878,59.1688,67.2944],[10.2865,59.1733,78.3523],[10.2778,59.1726,64.7443],[10.2765,59.177,68.9499],[10.2679,59.1764,95.1391],[10.2666,59.1808,71.7214],[10.2579,59.1802,77.2419],[10.2566,59.1846,83.0944],[10.2479,59.1839,94.5862],[10.2441,59.1973,86.7534],[10.2354,59.1966,101.0724],[10.2316,59.2099,87.9249],[10.2142,59.2086,71.4892],[10.2155,59.2042,86.252],[10.1547,59.1995,31.3605],[10.1534,59.204,80.755],[10.1447,59.2033,51.1503],[10.1434,59.2077,75.2396],[10.1347,59.2071,46.6354],[10.136,59.2026,71.8132],[10.1273,59.202,44.4205],[10.1325,59.1842,26.5],[10.1266,59.1838,33.2543]]]]}
,"properties": {"GID_2": "NOR.19.10_1","GID_0": "NOR","country": "Norway","GID_1": "NOR.19_1","province": "Vestfold","NL_NAME_1": "NA","county": "Sandefjord","VARNAME_2": "NA","NL_NAME_2": "NA","TYPE_2": "Kommuner","ENGTYPE_2": "Municipality","CC_2": "NA","HASC_2": "NO.VF.SF","name": "Sandefjord.county","area_km2": 120.64546,"hist_schema_id": "Elevation0-9000","hist_area_km2": {"0": 17.78767,"25": 37.27897,"50": 28.75146,"75": 22.80324,"100": 11.99269,"125": 2.0097,"150": 0.02173}}}