{"type": "Feature","bbox": [4.9443,60.3917,5.2536,60.5812],"geometry": {"type": "MultiPolygon","coordinates": [[[[5.0755,60.4339,28.5787],[5.0786,60.4339,27.2706],[5.0786,60.437,10.4764],[5.0755,60.437,11.5425],[5.0755,60.4339,28.5787]]],
[[[4.9917,60.5458,13.0232],[4.988,60.5464,9.2961],[4.987,60.5495,4.6463],[4.9755,60.5547,33.8014],[4.9745,60.5578,23.0725],[4.9682,60.562,24.1462],[4.9609,60.562,2.7652],[4.963,60.5589,10.652],[4.9661,60.5578,27.9326],[4.9672,60.5505,3.6088],[4.9729,60.5479,0.0],[4.9786,60.5474,16.5855],[4.9807,60.5453,4.3488],[4.9818,60.5339,21.7327],[4.9974,60.5307,16.5492],[5.0005,60.5276,0.0],[5.0078,60.5245,30.1245],[5.0089,60.5172,16.8013],[5.0146,60.5146,22.2129],[5.0203,60.5141,35.5395],[5.0193,60.5109,0.0],[5.0224,60.5099,13.0],[5.0234,60.5068,1.1987],[5.0292,60.5042,40.8503],[5.0432,60.5036,11.1111],[5.0443,60.4984,11.8307],[5.0521,60.4938,14.125],[5.0604,60.4938,4.6982],[5.0708,60.5,7.6464],[5.075,60.4979,0.0],[5.0891,60.4974,0.0],[5.0922,60.4922,0.0],[5.0953,60.4911,37.3342],[5.0896,60.4875,28.5059],[5.0797,60.487,9.0252],[5.0771,60.4833,0.0],[5.0729,60.4833,27.7792],[5.0661,60.487,19.6468],[5.063,60.487,17.5023],[5.063,60.4839,0.0],[5.0661,60.4818,16.9694],[5.0609,60.4807,0.0],[5.0604,60.4771,0.0],[5.0641,60.4745,4.5127],[5.0646,60.4708,0.0],[5.0589,60.4651,10.6473],[5.0646,60.4646,11.0955],[5.0724,60.4672,0.0],[5.075,60.4708,0.0],[5.0771,60.4688,26.8605],[5.0755,60.4651,18.4716],[5.0771,60.4646,18.4716],[5.0896,60.4646,20.1497],[5.0938,60.4667,25.4718],[5.1042,60.4667,0.0],[5.1083,60.4688,16.8273],[5.1182,60.4682,0.0],[5.1141,60.4651,37.1623],[5.1005,60.462,36.8222],[5.0911,60.4568,0.0],[5.0839,60.4557,12.0315],[5.0807,60.4505,9.0506],[5.0734,60.4453,13.9675],[5.0734,60.4422,17.7841],[5.0792,60.4396,3.6338],[5.0849,60.4401,2.9642],[5.0875,60.4437,0.0],[5.0917,60.4437,0.0],[5.0958,60.4417,2.4859],[5.1125,60.4417,18.7491],[5.1146,60.4437,11.8495],[5.1109,60.4464,27.6767],[5.1109,60.4495,4.5775],[5.1167,60.45,0.0],[5.1182,60.4495,0.0],[5.1193,60.4443,0.0],[5.1208,60.4437,0.0],[5.1583,60.4437,18.1252],[5.1724,60.437,0.0],[5.1682,60.4339,24.901],[5.163,60.4328,13.8565],[5.163,60.4297,2.4688],[5.1661,60.4286,0.0],[5.1661,60.4255,46.4714],[5.1563,60.425,0.0],[5.1521,60.4271,6.896],[5.1479,60.4271,43.8926],[5.1422,60.4245,26.3611],[5.1417,60.4229,16.36],[5.1443,60.4172,0.0],[5.1474,60.4161,53.5759],[5.1484,60.4109,6.5526],[5.162,60.4036,59.1738],[5.163,60.3964,0.0],[5.1714,60.3922,54.1197],[5.1771,60.3917,36.8731],[5.1854,60.4,10.5251],[5.1937,60.4,0.0],[5.1979,60.3979,28.4741],[5.2104,60.3979,0.0],[5.213,60.4016,32.3926],[5.2266,60.4047,0.0],[5.2391,60.4109,0.0],[5.2422,60.4141,0.0],[5.2479,60.4125,0.0],[5.2536,60.413,0.0],[5.2536,60.4161,0.0],[5.2505,60.4172,0.0],[5.2495,60.4203,0.0],[5.2422,60.4234,2.7179],[5.2432,60.4307,0.0],[5.2401,60.4318,0.0],[5.2391,60.4349,0.0],[5.2318,60.4359,37.0008],[5.2297,60.4401,14.601],[5.2328,60.4432,0.0],[5.2297,60.4443,25.4865],[5.2297,60.4516,0.0],[5.2391,60.4547,0.0],[5.2396,60.4562,0.0],[5.2359,60.4589,32.4031],[5.2349,60.462,25.0926],[5.2276,60.4651,0.0],[5.2286,60.4682,0.0],[5.2255,60.4693,17.7284],[5.2245,60.4786,0.0],[5.2214,60.4797,18.7006],[5.2224,60.4828,0.0],[5.2099,60.4891,0.0],[5.1901,60.4943,11.8277],[5.1771,60.5021,0.0],[5.1604,60.5021,11.4879],[5.1563,60.5042,10.9217],[5.1521,60.5021,35.7619],[5.1479,60.5021,0.0],[5.138,60.5068,39.7909],[5.137,60.5099,15.578],[5.1255,60.5109,30.6168],[5.1099,60.5203,3.7467],[5.1,60.5229,1.4298],[5.088,60.5182,0.0],[5.087,60.5151,7.1732],[5.0812,60.5146,0.0],[5.0755,60.5172,8.288],[5.0724,60.5224,0.0],[5.0641,60.5266,26.6238],[5.0542,60.5271,9.8277],[5.05,60.5292,9.2127],[5.0333,60.5292,0.0],[5.0276,60.5318,18.8705],[5.0266,60.5349,0.0],[5.0182,60.5391,12.8424],[5.0109,60.5401,53.4755],[5.0062,60.5438,0.0],[4.9917,60.5458,13.0232]]],
[[[5.0422,60.487,16.033],[5.0422,60.4859,14.4749],[5.0453,60.4859,0.0],[5.0453,60.487,0.0],[5.0422,60.487,16.033]]],
[[[5.0089,60.5526,0.0],[5.0104,60.5521,0.0],[5.012,60.5536,5.6058],[5.0089,60.5536,9.1047],[5.0089,60.5526,0.0]]],
[[[4.9995,60.5557,0.0],[5.0021,60.5542,0.0],[5.0078,60.5547,11.3963],[5.0042,60.5583,4.1593],[4.9984,60.5578,7.4041],[4.9995,60.5557,0.0]]],
[[[4.9557,60.5641,12.2856],[4.9583,60.5625,14.2165],[4.9604,60.5646,3.497],[4.9568,60.5672,6.1812],[4.9568,60.5724,0.0],[4.9672,60.5786,0.0],[4.9729,60.5792,9.1288],[4.9745,60.5807,1.0],[4.9604,60.5812,1.5676],[4.9521,60.5771,0.0],[4.9443,60.5766,20.6409],[4.9443,60.5734,27.9676],[4.9474,60.5724,21.8533],[4.9484,60.5672,10.6269],[4.9557,60.5641,12.2856]]]]}
,"properties": {"GID_2": "NOR.7.1_1","GID_0": "NOR","country": "Norway","GID_1": "NOR.7_1","province": "Hordaland","NL_NAME_1": "NA","county": "Askøy","VARNAME_2": "NA","NL_NAME_2": "NA","TYPE_2": "Kommuner","ENGTYPE_2": "Municipality","CC_2": "NA","HASC_2": "NO.HO.AS","name": "Askøy.county","area_km2": 94.61289,"hist_schema_id": "Elevation0-9000","hist_area_km2": {"0": 12.97521,"25": 28.97887,"50": 26.52951,"75": 12.88889,"100": 6.9646,"125": 2.47869,"150": 1.89338,"175": 1.49575,"200": 0.38707,"225": 0.02092}}}