{"type":"Feature","properties":{"GID_1":"SJM.1_1","GID_0":"SJM","country":"SvalbardandJanMayen","province":"JanMayen","VARNAME_1":"NA","NL_NAME_1":"NA","TYPE_1":"Territory","ENGTYPE_1":"Territory","CC_1":"NA","HASC_1":"SJ.JN","ISO_1":"NA","name":"Jan_Mayen.province"},
"geometry":{"type": "MultiPolygon","coordinates": [[[[-8.412,70.9776,4.5523],[-8.4083,70.9771,9.4464],[-8.4068,70.9786,9.8676],[-8.4104,70.9792,4.2082],[-8.412,70.9776,4.5523]]],
[[[-8.3286,70.9776,0.0],[-8.325,70.9771,0.0],[-8.3234,70.9786,14.509],[-8.3271,70.9792,13.2572],[-8.3286,70.9776,0.0]]],
[[[-8.6687,70.9292,0.0],[-8.6672,70.9297,0.0],[-8.6672,70.9328,0.0],[-8.6786,70.9328,0.0],[-8.6786,70.9318,0.0],[-8.6687,70.9292,0.0]]],
[[[-8.5641,70.9617,2.2005],[-8.5625,70.9604,0.0],[-8.5589,70.9609,0.0],[-8.5604,70.9625,2.6316],[-8.5641,70.9617,2.2005]]],
[[[-8.0604,71.1937,0.0],[-8.0646,71.1937,0.0],[-8.0687,71.1958,0.0],[-8.0771,71.1958,0.0],[-8.0828,71.1932,0.0],[-8.0839,71.188,0.0],[-8.0854,71.1875,0.0],[-8.1062,71.1875,0.0],[-8.1104,71.1896,0.0],[-8.1396,71.1896,0.0],[-8.1411,71.1891,0.0],[-8.1401,71.1859,0.0],[-8.1417,71.1854,0.0],[-8.1562,71.1854,0.0],[-8.1604,71.1833,0.0],[-8.1875,71.1833,0.0],[-8.1901,71.1797,0.0],[-8.1995,71.1787,0.0],[-8.2,71.175,0.0],[-8.1979,71.1708,0.0],[-8.2,71.1687,0.0],[-8.2474,71.1682,0.0],[-8.2453,71.1609,0.0],[-8.2234,71.1557,0.0],[-8.2224,71.1526,0.0],[-8.2151,71.1516,0.0],[-8.2141,71.1484,0.0],[-8.2068,71.1474,0.0],[-8.2057,71.1443,0.0],[-8.1984,71.1432,0.0],[-8.1984,71.1401,0.0],[-8.2208,71.1375,0.0],[-8.225,71.1354,0.0],[-8.2375,71.1354,0.0],[-8.2417,71.1333,0.0],[-8.25,71.1333,0.0],[-8.2542,71.1312,0.0],[-8.2625,71.1312,0.0],[-8.2641,71.1297,0.0],[-8.2583,71.1292,0.0],[-8.2568,71.1276,0.0],[-8.2646,71.125,0.0],[-8.2854,71.125,0.0],[-8.288,71.1214,0.0],[-8.2911,71.1203,18.0589],[-8.2922,71.1172,44.9328],[-8.2974,71.1162,63.2014],[-8.2964,71.1109,231.6194],[-8.3005,71.1088,278.3975],[-8.3104,71.1083,240.1806],[-8.325,71.1021,242.4666],[-8.3396,71.1021,0.0],[-8.3437,71.1,0.0],[-8.3536,71.0995,0.0],[-8.3484,71.0964,170.1855],[-8.3578,71.0953,44.7713],[-8.3589,71.0922,140.3141],[-8.3641,71.0911,80.9659],[-8.362,71.088,188.2146],[-8.3568,71.087,228.0879],[-8.3609,71.0839,202.476],[-8.3708,71.0833,152.1305],[-8.3755,71.087,51.3773],[-8.3792,71.0875,4.5491],[-8.3818,71.0839,88.1124],[-8.3911,71.0807,0.0],[-8.3901,71.0776,66.0451],[-8.4042,71.0729,42.3098],[-8.4104,71.0729,0.0],[-8.4182,71.0703,0.0],[-8.4193,71.0672,0.0],[-8.4224,71.0661,0.0],[-8.4214,71.0609,10.3281],[-8.4266,71.0599,0.0],[-8.4193,71.0557,23.6922],[-8.4193,71.0526,114.285],[-8.4516,71.0411,7.7955],[-8.4505,71.038,9.4313],[-8.4557,71.037,4.8184],[-8.4547,71.0339,4.8295],[-8.4599,71.0328,0.0],[-8.4609,71.0297,0.0],[-8.4641,71.0286,0.0],[-8.4641,71.0255,0.0],[-8.4568,71.0245,0.0],[-8.4547,71.0172,40.6324],[-8.4625,71.0146,0.0],[-8.4786,71.0141,0.0],[-8.4766,71.0109,0.0],[-8.4667,71.0104,1.9932],[-8.462,71.0068,0.1726],[-8.4568,71.0057,-0.2654],[-8.4542,71.0021,28.0485],[-8.4562,71.0,125.6495],[-8.4896,70.9979,22.0708],[-8.4911,70.9995,44.8674],[-8.4859,71.0016,-0.0127],[-8.5479,71.0021,0.0],[-8.5599,70.9974,0.0],[-8.5609,70.9943,0.0],[-8.5651,70.9922,0.0],[-8.575,70.9917,0.0],[-8.5828,70.9891,0.0],[-8.5807,70.9859,0.0],[-8.5755,70.9849,0.0],[-8.5771,70.9833,50.4843],[-8.5958,70.9812,8.4849],[-8.6,70.9792,69.8698],[-8.6083,70.9792,25.8732],[-8.6125,70.9771,39.4836],[-8.6271,70.9771,3.027],[-8.6286,70.9766,3.526],[-8.6276,70.9734,103.1521],[-8.6391,70.9724,55.208],[-8.638,70.9693,97.2198],[-8.6396,70.9688,101.6788],[-8.6625,70.9708,63.9625],[-8.6667,70.9688,120.2307],[-8.6745,70.9682,30.1992],[-8.6755,70.9651,36.2913],[-8.6807,70.9641,31.1136],[-8.6797,70.9609,250.5908],[-8.6812,70.9604,259.4597],[-8.6958,70.9604,169.1797],[-8.7,70.9583,194.3593],[-8.7083,70.9583,87.3121],[-8.7229,70.9542,257.7249],[-8.7375,70.9542,0.0],[-8.7417,70.9521,110.2814],[-8.75,70.9521,0.0],[-8.7583,70.9479,129.6572],[-8.7682,70.9474,0.0],[-8.7667,70.9458,0.0],[-8.7609,70.9453,71.0107],[-8.7661,70.9432,93.6146],[-8.7667,70.9417,195.0058],[-8.7661,70.9401,309.0336],[-8.7589,70.9391,417.0011],[-8.7604,70.9375,442.5651],[-8.7687,70.9375,407.5503],[-8.775,70.9396,160.0871],[-8.7792,70.9375,313.1542],[-8.7958,70.9375,182.2076],[-8.8062,70.9417,0.0],[-8.8146,70.9417,0.0],[-8.825,70.9375,9.0747],[-8.8312,70.9396,0.0],[-8.8396,70.9375,11.9187],[-8.8458,70.9396,0.0],[-8.85,70.9375,16.7691],[-8.8646,70.9375,0.0],[-8.8687,70.9354,0.0],[-8.875,70.9354,0.0],[-8.8776,70.9318,0.0],[-8.8932,70.9266,0.0],[-8.8922,70.9234,16.872],[-8.8974,70.9224,26.8061],[-8.8984,70.9193,24.2572],[-8.9146,70.9208,0.0],[-8.9292,70.9167,38.3331],[-8.9375,70.9167,0.0],[-8.9401,70.913,0.0],[-8.9432,70.912,0.0],[-8.9422,70.9068,0.0],[-8.9562,70.9021,13.4681],[-8.9646,70.9042,0.0],[-8.9729,70.9,0.0],[-8.9828,70.8995,0.0],[-8.9818,70.8943,0.0],[-8.987,70.8932,0.0],[-8.9859,70.8901,10.1619],[-8.9911,70.8891,0.0],[-8.9901,70.8859,0.0],[-8.9953,70.8849,0.0],[-8.9943,70.8797,5.6235],[-9.0125,70.875,37.7467],[-9.0271,70.875,12.6701],[-9.0312,70.8771,0.0],[-9.0542,70.8771,0.0],[-9.0625,70.8729,7.6566],[-9.0724,70.8724,0.0],[-9.0714,70.8672,7.8558],[-9.0765999999999991,70.8651,0.0],[-9.0745,70.863,11.4088],[-9.0693,70.862,31.7308],[-9.0661,70.8588,14.7636],[-9.0609,70.8578,-1.2158],[-9.0578,70.8547,0.0],[-9.0464,70.8536,-7.9096],[-9.0411,70.8464,0.0],[-9.0359,70.8453,62.1357],[-9.0333,70.8417,104.5003],[-9.0375,70.8375,25.3419],[-9.0349,70.8297,0.0],[-9.0333,70.8292,0.0],[-9.0292,70.8292,32.0951],[-9.025,70.8271,0.0],[-9.0021,70.8271,87.0478],[-8.9979,70.825,0.0],[-8.9896,70.825,0.0],[-8.975,70.8313,266.9874],[-8.9542,70.8313,0.0],[-8.9479,70.8333,15.0727],[-8.9417,70.8313,0.0],[-8.9359,70.8339,0.0],[-8.937,70.8391,124.4204],[-8.9255,70.8422,0.0],[-8.9266,70.8453,0.0],[-8.9146,70.85,184.4382],[-8.9083,70.8479,0.0],[-8.9047,70.8484,0.0],[-8.9036,70.8516,0.1194],[-8.8984,70.8526,0.0],[-8.8995,70.8557,102.1624],[-8.8776,70.8609,0.0],[-8.875,70.8646,322.9351],[-8.8667,70.8625,0.0],[-8.8625,70.8646,30.499],[-8.85,70.8646,0.0],[-8.8422,70.8672,119.2853],[-8.8432,70.8703,301.9538],[-8.8417,70.8708,278.6404],[-8.8375,70.8708,230.7752],[-8.8333,70.8688,192.1841],[-8.8187,70.8688,0.0],[-8.8146,70.8667,0.0],[-8.8047,70.8693,0.0],[-8.8068,70.8724,0.0],[-8.812,70.8745,181.9702],[-8.8026,70.8776,0.0],[-8.8016,70.8807,70.6951],[-8.7984,70.8818,105.8182],[-8.7974,70.8849,109.7012],[-8.7932,70.887,72.0325],[-8.7854,70.8896,25.6329],[-8.7693,70.8901,0.0],[-8.7703,70.8953,0.0],[-8.7609,70.8984,0.0],[-8.7599,70.9016,64.6284],[-8.7479,70.9063,102.1358],[-8.7318,70.9068,0.0],[-8.7328,70.9099,12.09],[-8.7172,70.9151,0.0],[-8.712,70.9224,22.6056],[-8.7026,70.9234,0.0],[-8.7016,70.9266,0.0],[-8.6937,70.9292,0.0],[-8.6859,70.9297,0.0],[-8.6807,70.937,24.2932],[-8.6646,70.9375,0.0],[-8.6604,70.9396,4.3226],[-8.6542,70.9396,0.0],[-8.6516,70.9432,7.5638],[-8.6417,70.9437,0.0],[-8.6359,70.9464,2.1605],[-8.6375,70.9479,2.1785],[-8.6521,70.9479,14.0384],[-8.6536,70.9495,46.623],[-8.6312,70.95,1.7134],[-8.6271,70.9521,0.921],[-8.6193,70.9526,1.4819],[-8.6182,70.9557,0.8704],[-8.6151,70.9578,1.829],[-8.6187,70.9583,2.8452],[-8.625,70.9563,2.1303],[-8.6271,70.9583,3.5239],[-8.625,70.9604,5.3578],[-8.6151,70.9609,4.0843],[-8.6167,70.9625,4.3177],[-8.6224,70.963,11.5581],[-8.6208,70.9646,37.6819],[-8.6062,70.9646,0.6808],[-8.6021,70.9625,0.4671],[-8.5937,70.9625,0.468],[-8.5896,70.9646,0.7268],[-8.5729,70.9646,0.1904],[-8.5667,70.9625,2.2929],[-8.5458,70.9688,0.1225],[-8.5396,70.9667,2.8984],[-8.5312,70.9667,3.3029],[-8.5271,70.9688,2.5115],[-8.5187,70.9688,3.4906],[-8.5146,70.9708,3.3154],[-8.4999,70.9709,3.404],[-8.4984,70.9714,3.405],[-8.4995,70.9745,2.5416],[-8.4901,70.9776,0.6285],[-8.4875,70.9812,0.8567],[-8.4839,70.9807,0.696],[-8.4792,70.9771,0.5495],[-8.4729,70.9792,0.7251],[-8.4604,70.9792,0.6955],[-8.4562,70.9812,1.0065],[-8.45,70.9792,0.9353],[-8.4208,70.9792,2.1902],[-8.4125,70.9833,4.8186],[-8.4068,70.9828,4.6061],[-8.4042,70.9792,7.1346],[-8.3833,70.9812,7.8569],[-8.3771,70.9792,11.1964],[-8.3745,70.9828,12.959],[-8.3646,70.9833,17.1247],[-8.363,70.9818,16.5547],[-8.3682,70.9797,4.7898],[-8.3562,70.9792,3.6006],[-8.35,70.9812,19.4788],[-8.3474,70.9776,0.0],[-8.3437,70.9771,0.0],[-8.3411,70.9807,21.4458],[-8.3333,70.9833,24.7885],[-8.3208,70.9792,12.7974],[-8.3125,70.9792,11.8617],[-8.3062,70.9812,13.9048],[-8.3,70.9792,0.0],[-8.2854,70.9854,8.4987],[-8.2521,70.9875,1.7536],[-8.2417,70.9917,26.7271],[-8.2208,70.9896,0.0],[-8.2167,70.9917,26.5504],[-8.2021,70.9917,1.6425],[-8.1979,70.9938,22.5413],[-8.1708,70.9938,0.0],[-8.1625,70.9979,106.9459],[-8.1542,70.9958,0.0],[-8.15,70.9979,0.0],[-8.1417,70.9979,0.0],[-8.1375,71.0,66.3946],[-8.1292,71.0,0.0],[-8.125,71.0021,52.931399999999996],[-8.0979,71.0021,0.0],[-8.0937,71.0042,0.0],[-8.0729,71.0042,0.0],[-8.0687,71.0062,0.0],[-8.0542,71.0062,15.1024],[-8.0479,71.0042,0.0],[-8.0375,71.0083,0.0],[-8.0297,71.0089,0.0],[-8.0271,71.0125,125.6694],[-8.0062,71.0125,0.0],[-8.0036,71.0162,0.0],[-7.9943,71.0172,0.0],[-7.9932,71.0203,75.5961],[-7.988,71.0214,0.0],[-7.9896,71.025,74.3111],[-7.9859,71.0286,0.0],[-7.9911,71.0307,236.5804],[-7.9812,71.0313,0.0],[-7.9755,71.0339,0.0],[-7.9807,71.0359,0.0],[-7.9839,71.0411,63.1025],[-7.9891,71.0422,189.5698],[-7.9859,71.0453,0.0],[-7.9974,71.0463,324.9959],[-7.9932,71.0495,136.913],[-7.988,71.0505,0.0],[-7.9953,71.0547,84.4805],[-7.9901,71.0578,0.0],[-8.0036,71.0609,247.1257],[-7.9995,71.0641,50.3447],[-7.9943,71.0651,0.0],[-7.9937,71.0667,0.0],[-7.9979,71.0771,8.3262],[-7.9943,71.0807,0.0],[-7.9995,71.0828,115.7777],[-7.9943,71.0839,0.0],[-7.9953,71.087,0.0],[-7.9839,71.0901,0.0],[-7.9854,71.0917,0.0],[-7.9911,71.0922,0.0],[-7.9911,71.0953,0.0],[-7.9755,71.1005,0.0],[-7.9771,71.1021,0.0],[-7.9891,71.1026,0.0],[-7.9891,71.1057,1.7492],[-7.9833,71.1083,11.3829],[-7.9734,71.1088,0.0],[-7.9708,71.1125,3.7008],[-7.9547,71.1109,0.0],[-7.9495,71.1182,0.0],[-7.9443,71.1193,0.0],[-7.9453,71.1224,0.0],[-7.9401,71.1234,0.0],[-7.9411,71.1266,0.0],[-7.9359,71.1276,0.0],[-7.937,71.1349,0.0],[-7.9318,71.137,0.0],[-7.938,71.1516,0.0],[-7.9516,71.1547,56.8535],[-7.9562,71.1583,9.4461],[-7.9646,71.1583,28.0243],[-7.9687,71.1604,3.0314],[-7.9771,71.1604,0.0],[-7.9812,71.1583,4.991],[-7.987,71.1589,0.0],[-7.987,71.162,0.0],[-7.9818,71.163,0.0],[-7.9776,71.1661,0.0],[-7.9958,71.1687,0.0],[-7.9984,71.1724,0.0],[-8.0083,71.175,0.0],[-8.0182,71.1755,0.0],[-8.0229,71.1813,0.0],[-8.0411,71.1818,0.0],[-8.0443,71.187,0.0],[-8.0495,71.188,0.0],[-8.0443,71.1911,0.0],[-8.0604,71.1937,0.0]]]]}}