{"type": "Feature","bbox": [9.2705,60.4555,10.0346,60.8764],"geometry": {"type": "MultiPolygon","coordinates": [[[[9.8178,60.4582,790.3146],[9.8268,60.4589,602.9965],[9.8015,60.5387,321.1893],[9.8105,60.5394,308.8769],[9.8063,60.5527,445.9758],[9.8154,60.5534,489.6713],[9.8111,60.5667,557.6254],[9.8202,60.5674,621.2188],[9.8174,60.5763,656.0607],[9.8264,60.577,762.0631],[9.825,60.5814,766.6141],[9.834,60.5821,658.5465],[9.8326,60.5865,654.425],[9.8417,60.5872,531.8557],[9.8431,60.5828,531.3031],[9.8883,60.5862,553.8123],[9.8869,60.5906,482.9352],[9.9322,60.5941,459.431],[9.9308,60.5985,423.0801],[9.9398,60.5992,434.8953],[9.937,60.6081,297.5458],[9.9461,60.6087,288.8179],[9.9433,60.6176,165.6719],[9.9342,60.6169,155.5491],[9.9328,60.6214,177.5914],[9.9238,60.6207,166.1444],[9.9224,60.6251,175.0845],[9.9133,60.6244,149.5],[9.9105,60.6333,206.4961],[9.9015,60.6326,156.5952],[9.9001,60.6371,174.6393],[9.9273,60.6391,325.7477],[9.9287,60.6347,325.6843],[10.0012,60.6401,421.8075],[10.0025,60.6357,490.1911],[10.0207,60.637,592.9938],[10.022,60.6326,608.8872],[10.0311,60.6333,644.2997],[10.0256,60.651,567.2101],[10.0346,60.6517,542.0],[10.025,60.6827,655.9267],[10.0159,60.6821,629.2787],[10.0117,60.6954,670.4867],[10.0026,60.6947,647.9688],[9.9971,60.7124,690.7048],[9.988,60.7118,682.1404],[9.9824,60.7295,743.9108],[9.9733,60.7288,738.716],[9.9705,60.7377,817.5225],[9.9614,60.737,779.1976],[9.9601,60.7414,760.5527],[9.951,60.7408,758.4079],[9.9482,60.7496,736.3055],[9.9391,60.749,744.9433],[9.9377,60.7534,738.5939],[9.9286,60.7527,735.958],[9.9272,60.7571,750.6221],[9.9181,60.7565,749.6253],[9.9167,60.7609,758.5872],[9.8985,60.7595,728.0818],[9.8999,60.7551,718.5113],[9.8908,60.7544,715.6865],[9.8922,60.75,699.3267],[9.8831,60.7493,706.5217],[9.8845,60.7448,690.6603],[9.8754,60.7442,689.7258],[9.8768,60.7397,713.5065],[9.8677,60.739,730.7128],[9.8692,60.7346,744.9011],[9.8601,60.7339,746.4664],[9.8615,60.7295,759.6794],[9.8433,60.7281,693.5975],[9.8419,60.7325,660.1309],[9.8237,60.7312,626.7737],[9.8209,60.74,674.1441],[9.8118,60.7393,656.4623],[9.8033,60.7659,690.3144],[9.8124,60.7666,722.741],[9.8039,60.7932,772.5619],[9.813,60.7939,792.6139],[9.8058,60.8161,606.7849],[9.7876,60.8147,529.9972],[9.7862,60.8191,438.014],[9.768,60.8178,439.0097],[9.7666,60.8222,351.8694],[9.7483,60.8208,467.6334],[9.7469,60.8252,405.1958],[9.7287,60.8238,580.2162],[9.7301,60.8194,599.7556],[9.7028,60.8173,820.9035],[9.7014,60.8218,806.5214],[9.6922,60.8211,862.5612],[9.6908,60.8255,755.5],[9.6726,60.8241,843.9538],[9.6711,60.8285,785.3358],[9.662,60.8278,825.4973],[9.6606,60.8322,815.8163],[9.6424,60.8308,724.9578],[9.6409,60.8353,698.5463],[9.6318,60.8346,676.9811],[9.6304,60.839,726.7],[9.6121,60.8376,696.9598],[9.6107,60.842,687.3649],[9.6016,60.8413,703.3177],[9.6001,60.8458,724.3574],[9.5819,60.8443,706.9799],[9.5804,60.8488,741.8032],[9.5713,60.8481,756.0421],[9.5699,60.8525,736.2836],[9.5608,60.8518,792.3956],[9.5593,60.8562,751.4068],[9.5137,60.8527,453.2821],[9.5152,60.8482,438.4285],[9.497,60.8468,457.0255],[9.494,60.8557,361.7209],[9.4849,60.855,493.0684],[9.4805,60.8683,372.907],[9.4714,60.8675,421.117],[9.4684,60.8764,423.1658],[9.4411,60.8743,511.1837],[9.4426,60.8698,555.069],[9.4334,60.8691,721.6615],[9.4349,60.8647,776.1074],[9.4258,60.864,805.4804],[9.4243,60.8684,785.3605],[9.4152,60.8677,797.8053],[9.4137,60.8721,801.2056],[9.3955,60.8707,823.7253],[9.3985,60.8618,967.0399],[9.3893,60.8611,906.3669],[9.3923,60.8522,970.9426],[9.3832,60.8515,964.6635],[9.3862,60.8427,1054.5917],[9.3679,60.8412,1075.8014],[9.3694,60.8368,1060.2872],[9.3512,60.8354,855.7758],[9.3527,60.8309,851.5309],[9.3436,60.8302,816.6844],[9.3451,60.8258,891.9838],[9.336,60.8251,843.4144],[9.3375,60.8206,937.6652],[9.3284,60.8199,947.1057],[9.3299,60.8155,967.4973],[9.3208,60.8147,1051.2125],[9.3223,60.8103,1066.0872],[9.3132,60.8096,1068.619],[9.3146,60.8052,1020.6981],[9.3056,60.8044,1027.2201],[9.307,60.8,1019.1005],[9.2979,60.7993,1048.2727],[9.2994,60.7949,1009.797],[9.2903,60.7941,1037.6034],[9.2933,60.7853,1134.3152],[9.2842,60.7846,1119.8112],[9.2857,60.7801,1137.7228],[9.2766,60.7794,1154.7935],[9.2796,60.7705,980.3528],[9.2705,60.7698,992.6066],[9.2735,60.761,1037.8347],[9.2917,60.7624,1079.37],[9.2962,60.7491,1118.9337],[9.3053,60.7499,1082.1176],[9.3082,60.741,1109.8727],[9.3173,60.7417,1078.2042],[9.3203,60.7329,1097.197],[9.3294,60.7336,1042.5787],[9.3353,60.7159,914.4941],[9.3262,60.7152,928.6115],[9.3307,60.7019,820.4795],[9.3216,60.7012,822.7404],[9.3261,60.6879,920.4689],[9.317,60.6871,933.6666],[9.32,60.6783,926.8303],[9.329,60.679,918.1453],[9.332,60.6702,834.899],[9.341,60.6709,835.3939],[9.3425,60.6665,855.6763],[9.3516,60.6672,850.2958],[9.3531,60.6628,876.5767],[9.3621,60.6635,872.0885],[9.3636,60.659,857.4788],[9.3545,60.6583,905.4506],[9.3678,60.6185,823.881],[9.3769,60.6192,747.2677],[9.3783,60.6148,758.9769],[9.3874,60.6155,747.4143],[9.3888,60.611,822.4356],[9.4069,60.6125,747.2228],[9.4084,60.6081,774.049],[9.4174,60.6088,747.715],[9.4189,60.6043,792.103],[9.4279,60.6051,748.6816],[9.4323,60.5918,758.2347],[9.4233,60.5911,702.1252],[9.4248,60.5866,723.0571],[9.4157,60.5859,651.4874],[9.4186,60.5771,666.5446],[9.4096,60.5763,608.9676],[9.4184,60.5498,609.353],[9.4274,60.5505,639.5023],[9.4289,60.5461,601.1728],[9.4379,60.5468,586.3567],[9.4394,60.5423,575.7716],[9.4574,60.5438,572.3036],[9.4589,60.5393,571.5748],[9.4679,60.5401,579.6608],[9.4693,60.5356,571.5241],[9.4784,60.5363,609.5453],[9.4798,60.5319,575.4162],[9.4888,60.5326,597.6545],[9.4903,60.5282,568.1798],[9.5354,60.5317,546.4804],[9.534,60.5362,551.2101],[9.6062,60.5418,583.3885],[9.6205,60.4975,1157.1161],[9.6386,60.4989,1222.532],[9.64,60.4945,1228.6162],[9.649,60.4952,1191.1619],[9.6504,60.4907,1138.4882],[9.6594,60.4915,1085.8812],[9.6609,60.487,1089.27],[9.6699,60.4877,1106.7418],[9.6713,60.4833,1195.0613],[9.6893,60.4847,1112.9491],[9.6908,60.4803,1139.5718],[9.6998,60.481,1142.3871],[9.7012,60.4765,1121.2826],[9.7102,60.4772,1177.3739],[9.7116,60.4728,1157.0055],[9.7296,60.4742,1126.8877],[9.7311,60.4697,1094.5463],[9.7401,60.4704,1073.63],[9.7415,60.466,1061.8757],[9.7505,60.4667,1087.4384],[9.7519,60.4623,1000.3143],[9.7699,60.4637,1131.3649],[9.7713,60.4592,1117.0323],[9.7803,60.4599,1132.8739],[9.7818,60.4555,1110.2467],[9.8178,60.4582,790.3146]]]]}
,"properties": {"GID_2": "NOR.11.21_1","GID_0": "NOR","country": "Norway","GID_1": "NOR.11_1","province": "Oppland","NL_NAME_1": "NA","county": "Sør-Aurdal","VARNAME_2": "NA","NL_NAME_2": "NA","TYPE_2": "Kommuner","ENGTYPE_2": "Municipality","CC_2": "NA","HASC_2": "NO.OP.SA","name": "Sør-Aurdal.county","area_km2": 1088.206,"hist_schema_id": "Elevation0-9000","hist_area_km2": {"150": 3.4717,"175": 8.884,"200": 10.1386,"225": 8.8138,"250": 6.7626,"275": 7.2728,"300": 9.0911,"325": 14.0258,"350": 13.4961,"375": 12.9651,"400": 17.038,"425": 16.9981,"450": 18.1024,"475": 20.3019,"500": 22.3009,"525": 26.8088,"550": 32.0502,"575": 36.8066,"600": 42.9784,"625": 44.9817,"650": 45.7015,"675": 45.3329,"700": 44.0407,"725": 38.9699,"750": 43.1764,"775": 38.6344,"800": 43.8042,"825": 53.1357,"850": 56.5514,"875": 41.5771,"900": 41.1464,"925": 38.1563,"950": 30.188,"975": 27.7901,"1000": 24.8567,"1025": 27.3082,"1050": 20.6834,"1075": 15.7564,"1100": 13.4291,"1125": 10.5731,"1150": 7.2431,"1175": 4.6587,"1200": 1.8279,"1225": 0.3759}}}