{"type": "Feature","bbox": [7.0069,58.9498,7.8239,59.3955],"geometry": {"type": "MultiPolygon","coordinates": [[[[7.8239,59.0948,855.5796],[7.8191,59.108,959.9647],[7.8105,59.1072,897.306],[7.8057,59.1204,922.0024],[7.7971,59.1196,841.5098],[7.7939,59.1284,950.6343],[7.7853,59.1276,906.0114],[7.7837,59.132,868.5312],[7.7751,59.1312,835.4716],[7.7735,59.1356,850.7782],[7.7649,59.1347,847.4983],[7.7633,59.1392,849.9506],[7.7546,59.1383,882.5447],[7.7514,59.1471,856.7349],[7.7428,59.1463,876.3432],[7.7316,59.1772,904.827],[7.7402,59.178,941.7806],[7.7386,59.1824,957.1796],[7.7472,59.1832,964.2315],[7.744,59.1921,913.5863],[7.7526,59.1929,897.6357],[7.751,59.1973,821.2455],[7.7597,59.1981,834.6875],[7.7581,59.2025,690.3],[7.7753,59.2042,750.4097],[7.7737,59.2086,785.8654],[7.7824,59.2094,884.9733],[7.7808,59.2138,863.8363],[7.7894,59.2146,909.9028],[7.7862,59.2235,918.919],[7.7776,59.2226,980.669],[7.7744,59.2315,915.4064],[7.7657,59.2306,982.3154],[7.7609,59.243899999999996,1022.9191],[7.7522,59.243,886.5182],[7.749,59.2518,849.0064],[7.7404,59.251,847.1016],[7.7355,59.2642,949.2553],[7.7269,59.2634,922.6766],[7.7188,59.2855,1049.8625],[7.7102,59.2846,903.6617],[7.694,59.3287,1137.3281],[7.6853,59.3279,1097.3264],[7.6837,59.3323,1138.0905],[7.675,59.3315,1196.7134],[7.6734,59.3359,1245.7412],[7.6647,59.335,1203.5602],[7.6631,59.3394,963.5821],[7.6458,59.3378,1003.1536],[7.6441,59.3422,885.3823],[7.6268,59.3405,880.5428],[7.6252,59.3449,836.4557],[7.6078,59.3433,918.2009],[7.6046,59.3521,904.1609],[7.5959,59.3512,1103.8862],[7.5926,59.36,1225.9584],[7.5839,59.3592,1274.6284],[7.579,59.3724,1126.8977],[7.5704,59.3716,1208.6515],[7.5671,59.3804,1169.1759],[7.5584,59.3796,1146.2715],[7.5568,59.384,1234.8793],[7.5481,59.3831,1239.7415],[7.5448,59.3919,1240.4028],[7.5361,59.3911,1251.5081],[7.5345,59.3955,1132.5111],[7.5171,59.3938,1102.7053],[7.5188,59.3894,1185.6572],[7.5014,59.3877,1227.4542],[7.503,59.3833,1225.3501],[7.4944,59.3825,1246.1671],[7.496,59.3781,1216.7269],[7.4873,59.3772,1258.4197],[7.489,59.3728,1206.5963],[7.4803,59.372,1242.5789],[7.482,59.3676,1270.0668],[7.4733,59.3667,1315.6968],[7.4766,59.3579,1285.4232],[7.4593,59.3562,1186.0481],[7.4609,59.3518,1212.6747],[7.4436,59.3501,1237.9734],[7.4453,59.3457,1231.8501],[7.4366,59.3449,1183.1969],[7.4382,59.3405,1116.9763],[7.4296,59.3396,1062.683],[7.4312,59.3352,993.9125],[7.4226,59.3344,969.5535],[7.4242,59.33,930.3589],[7.4156,59.3291,921.6849],[7.4172,59.3247,924.1708],[7.4086,59.3239,932.9323],[7.4102,59.3195,957.5543],[7.4016,59.3186,849.2368],[7.4049,59.3098,1045.0394],[7.4135,59.3107,1063.1499],[7.4218,59.2886,785.4381],[7.4132,59.2878,682.659],[7.4148,59.2834,694.4892],[7.3975,59.2817,470.6579],[7.3942,59.2905,422.5009],[7.3769,59.2888,471.7708],[7.3753,59.2932,562.4575],[7.3666,59.2923,555.0411],[7.3649,59.2968,437.3013],[7.3563,59.2959,506.1094],[7.3546,59.3003,556.802],[7.346,59.2994,534.087],[7.3443,59.3039,614.009],[7.3357,59.303,477.3059],[7.334,59.3074,492.8331],[7.3253,59.3065,531.413],[7.327,59.3021,525.0199],[7.3011,59.2996,631.6409],[7.3061,59.2864,750.0737],[7.2801,59.2838,963.0813],[7.2785,59.2882,886.4332],[7.2698,59.2873,928.479],[7.2715,59.2829,964.0712],[7.2456,59.2804,1122.3916],[7.2472,59.276,1109.6637],[7.2386,59.2751,1192.0403],[7.2369,59.2795,1143.0911],[7.2283,59.2786,1275.0258],[7.2232,59.2918,979.6918],[7.2146,59.291,923.1087],[7.2129,59.2954,823.9871],[7.187,59.2928,914.1533],[7.1886,59.2884,949.1307],[7.18,59.2875,955.8011],[7.1817,59.2831,966.5801],[7.173,59.2823,969.8452],[7.1764,59.2735,1065.849],[7.1505,59.2709,1271.3953],[7.1522,59.2665,1250.0161],[7.109,59.2621,1293.9559],[7.1056,59.2709,1288.2043],[7.097,59.2701,1220.0381],[7.0953,59.2745,1227.2336],[7.0866,59.2736,1218.2039],[7.0849,59.278,1222.4673],[7.0504,59.2745,1049.6287],[7.0538,59.2657,1066.9639],[7.0452,59.2648,1042.4734],[7.0503,59.2516,966.3503],[7.0416,59.2508,977.8521],[7.0467,59.2376,1031.9404],[7.0381,59.2367,960.8093],[7.0432,59.2235,948.1925],[7.0346,59.2226,929.0662],[7.038,59.2138,883.0],[7.0207,59.2121,883.0],[7.0224,59.2077,883.0],[7.0138,59.2068,883.0],[7.0155,59.2024,911.4724],[7.0069,59.2015,883.0],[7.012,59.1883,1039.6882],[7.0206,59.1892,1091.4531],[7.0223,59.1848,984.837],[7.0309,59.1857,1009.5446],[7.0326,59.1813,991.7205],[7.0499,59.183,1033.5631],[7.0516,59.1786,1088.335],[7.0688,59.1804,1146.4668],[7.0705,59.176,1186.9955],[7.0877,59.1777,1204.0044],[7.0894,59.1733,1262.0698],[7.1066,59.1751,1281.0175],[7.1083,59.1707,1317.0634],[7.1342,59.1733,1288.3318],[7.1358,59.1689,1277.1041],[7.1531,59.1706,1355.9675],[7.1548,59.1662,1396.7172],[7.172,59.1679,1236.4418],[7.1737,59.1635,1321.1841],[7.1823,59.1644,1226.3816],[7.1839,59.16,1293.7174],[7.1926,59.1609,1237.1215],[7.1959,59.1521,1206.2218],[7.2045,59.1529,1141.4349],[7.2079,59.1441,952.451],[7.1648,59.1398,976.8406],[7.1699,59.1266,913.0],[7.1613,59.1257,913.0],[7.1663,59.1125,913.0],[7.1577,59.1117,913.0],[7.1627,59.0985,913.0],[7.1541,59.0976,913.0],[7.1575,59.0888,913.0],[7.1489,59.0879,913.0],[7.1539,59.0747,913.0],[7.1453,59.0739,936.5023],[7.1504,59.0607,913.0],[7.1418,59.0598,913.0],[7.1468,59.0466,921.4742],[7.1382,59.0457,913.9458],[7.1416,59.0369,869.8501],[7.1502,59.0378,867.3508],[7.1518,59.0334,867.425],[7.1604,59.0343,898.0886],[7.1621,59.0299,895.6345],[7.1707,59.0307,999.024],[7.1723,59.0263,893.7706],[7.1809,59.0272,896.9236],[7.1843,59.0184,916.0953],[7.1757,59.0175,873.7687],[7.1807,59.0043,873.3002],[7.1721,59.0035,838.0197],[7.1704,59.0079,837.3688],[7.1447,59.0053,876.5226],[7.1431,59.0097,927.1355],[7.1173,59.0071,847.6025],[7.119,59.0027,832.5],[7.1104,59.0018,832.5],[7.1121,58.9974,832.5],[7.1035,58.9965,832.5],[7.1052,58.9921,832.5],[7.1138,58.993,832.5],[7.1171,58.9842,832.5],[7.1257,58.9851,882.1036],[7.1291,58.9763,857.4525],[7.1376,58.9771,908.7854],[7.141,58.9683,816.2327],[7.1495,58.9692,868.2278],[7.1529,58.9604,840.7235],[7.1614,58.9613,836.3198],[7.1631,58.9569,813.6953],[7.1717,58.9577,827.2395],[7.1733,58.9533,862.8141],[7.1819,58.9542,841.8419],[7.1836,58.9498,853.0514],[7.2264,58.9541,869.48],[7.2247,58.9585,942.0865],[7.2418,58.9602,965.7869],[7.2402,58.9646,972.3887],[7.2573,58.9663,972.2048],[7.2556,58.9707,906.6556],[7.2642,58.9716,931.8221],[7.2626,58.976,932.7025],[7.2797,58.9777,1080.2877],[7.278,58.9821,1042.7375],[7.2866,58.983,1048.9308],[7.285,58.9874,1047.8593],[7.2935,58.9882,1043.5242],[7.2919,58.9926,1059.6481],[7.309,58.9943,1040.3615],[7.3074,58.9987,1053.8915],[7.3159,58.9996,1063.7467],[7.3143,59.004,1050.479],[7.34,59.0066,1004.41],[7.3417,59.0022,983.3182],[7.3931,59.0073,913.9042],[7.3948,59.0029,898.6164],[7.4377,59.0071,913.7263],[7.436,59.0115,897.0214],[7.4618,59.014,897.3425],[7.4601,59.0184,977.4326],[7.4945,59.0218,849.7772],[7.4929,59.0262,817.0488],[7.5616,59.033,293.6454],[7.5632,59.0285,277.2958],[7.5546,59.0277,230.2137],[7.5595,59.0145,372.4039],[7.5852,59.017,673.091],[7.5836,59.0214,688.3196],[7.5922,59.0222,684.509],[7.5906,59.0267,668.3101],[7.5991,59.0275,757.1779],[7.5975,59.0319,773.9022],[7.6061,59.0327,803.1726],[7.6029,59.0415,770.7266],[7.6115,59.0424,809.397],[7.6099,59.0468,817.12],[7.6185,59.0476,771.335],[7.6201,59.0432,796.6967],[7.7576,59.0565,826.6684],[7.756,59.0609,823.7745],[7.7732,59.0625,793.2505],[7.7716,59.067,825.5783],[7.7802,59.0678,756.6594],[7.7786,59.0722,826.2034],[7.7958,59.0738,858.1515],[7.7942,59.0782,887.7744],[7.8028,59.0791,897.777],[7.8013,59.0835,918.8752],[7.8099,59.0843,920.6188],[7.8083,59.0887,963.164],[7.8169,59.0895,901.3459],[7.8153,59.0939,909.1578],[7.8239,59.0948,855.5796]]]]}
,"properties": {"GID_2": "NOR.3.14_1","GID_0": "NOR","country": "Norway","GID_1": "NOR.3_1","province": "Aust-Agder","NL_NAME_1": "NA","county": "Valle","VARNAME_2": "NA","NL_NAME_2": "NA","TYPE_2": "Kommuner","ENGTYPE_2": "Municipality","CC_2": "NA","HASC_2": "NO.AA.VA","name": "Valle.county","area_km2": 1268.6405,"hist_schema_id": "Elevation0-9000","hist_area_km2": {"225": 0.4255,"250": 8.5628,"275": 5.6379,"300": 5.3509,"325": 6.3906,"350": 8.3071,"375": 6.6257,"400": 6.9057,"425": 6.5491,"450": 6.5369,"475": 6.094,"500": 5.7665,"525": 5.3981,"550": 6.8123,"575": 8.4462,"600": 9.7183,"625": 10.8995,"650": 12.5182,"675": 16.9211,"700": 28.2489,"725": 28.9742,"750": 40.3545,"775": 44.609,"800": 54.8336,"825": 56.5262,"850": 58.9951,"875": 65.2241,"900": 60.191,"925": 81.0355,"950": 57.2483,"975": 58.5392,"1000": 58.2363,"1025": 65.1215,"1050": 52.3849,"1075": 51.5314,"1100": 43.7356,"1125": 39.3419,"1150": 32.5639,"1175": 31.4736,"1200": 26.4462,"1225": 22.3214,"1250": 18.4923,"1275": 16.5439,"1300": 14.5715,"1325": 9.2326,"1350": 5.0567,"1375": 2.4199,"1400": 0.5209}}}