{"type": "Feature","bbox": [7.5384,58.1079,7.9087,58.3651],"geometry": {"type": "MultiPolygon","coordinates": [[[[7.8543,58.2402,245.0497],[7.8512,58.249,263.5826],[7.8428,58.2482,250.5757],[7.8413,58.2526,212.291],[7.8245,58.251,210.8777],[7.8229,58.2554,169.871],[7.7977,58.253,196.8981],[7.7962,58.2574,212.159],[7.7878,58.2565,179.0748],[7.7893,58.2521,201.696],[7.7809,58.2513,243.9396],[7.7887,58.2293,201.7955],[7.7383,58.2243,134.5523],[7.7274,58.2552,281.9238],[7.719,58.2544,253.5714],[7.7174,58.2588,283.831],[7.709,58.2579,192.8732],[7.7075,58.2624,223.5345],[7.6991,58.2615,311.4337],[7.6944,58.2747,230.033],[7.7028,58.2756,240.7405],[7.7012,58.28,231.42],[7.7096,58.2808,287.8472],[7.7081,58.2852,261.1354],[7.7165,58.286,283.9775],[7.7134,58.2949,318.0211],[7.7218,58.2957,320.4211],[7.7202,58.3001,320.0559],[7.7286,58.3009,308.6077],[7.7255,58.3097,368.0858],[7.7171,58.3089,352.783],[7.7124,58.3222,350.6326],[7.7208,58.323,347.6772],[7.7193,58.3274,332.347],[7.7277,58.3282,346.8411],[7.7246,58.337,392.2061],[7.7162,58.3362,378.3353],[7.7146,58.3406,390.1186],[7.6893,58.3381,274.7139],[7.6925,58.3293,309.0631],[7.6756,58.3277,345.3454],[7.6772,58.3232,271.5713],[7.6604,58.3216,325.6858],[7.6588,58.326,337.7306],[7.6504,58.3252,321.5786],[7.6488,58.3296,315.0453],[7.6404,58.3287,323.4229],[7.6372,58.3376,314.0864],[7.6288,58.3367,354.3318],[7.6241,58.3499,336.5164],[7.6325,58.3508,360.2554],[7.6278,58.364,357.0762],[7.5941,58.3607,337.3131],[7.5925,58.3651,342.1772],[7.5672,58.3626,255.2422],[7.572,58.3493,289.9663],[7.5551,58.3477,324.1716],[7.5583,58.3389,217.6209],[7.5667,58.3397,220.4765],[7.5699,58.3309,310.0388],[7.5615,58.33,264.3972],[7.563,58.3256,266.5317],[7.5462,58.324,214.5673],[7.5494,58.3152,213.4861],[7.5409,58.3143,193.2754],[7.5473,58.2967,290.0792],[7.5389,58.2958,208.0087],[7.5468,58.2738,206.8698],[7.5384,58.273,164.8224],[7.5399,58.2686,217.6567],[7.5567,58.2702,290.6303],[7.5599,58.2614,273.539],[7.5935,58.2648,229.0771],[7.5951,58.2604,223.4334],[7.6035,58.2612,229.5379],[7.6051,58.2568,263.3311],[7.6066,58.2524,252.829],[7.5982,58.2516,211.2545],[7.6014,58.2427,226.593],[7.6182,58.2444,191.8949],[7.6197,58.24,173.2644],[7.6365,58.2417,301.8595],[7.6381,58.2373,292.7172],[7.6549,58.2389,298.7938],[7.6565,58.2345,299.8174],[7.6733,58.2362,310.0247],[7.6748,58.2318,306.5955],[7.6916,58.2334,288.442],[7.6932,58.229,289.4438],[7.7016,58.2298,281.1554],[7.7047,58.221,277.6763],[7.7131,58.2218,266.0158],[7.7146,58.2174,259.0981],[7.723,58.2183,249.0802],[7.7246,58.2139,255.9077],[7.733,58.2147,239.4947],[7.7376,58.2014,191.0419],[7.7292,58.2006,247.3691],[7.7308,58.1962,209.873],[7.7224,58.1954,200.8526],[7.7239,58.191,231.8846],[7.7156,58.1902,206.2362],[7.7171,58.1857,224.5966],[7.7087,58.1849,260.9998],[7.7118,58.1761,228.9468],[7.7034,58.1753,240.448],[7.705,58.1709,268.6381],[7.7302,58.1733,222.8448],[7.7333,58.1645,186.6237],[7.7416,58.1653,173.4821],[7.7463,58.1521,88.9858],[7.7547,58.1529,40.5],[7.7578,58.1441,40.5],[7.7661,58.1449,47.2028],[7.7677,58.1405,102.6713],[7.7761,58.1414,194.6316],[7.7776,58.1369,207.5587],[7.786,58.1378,205.4321],[7.7875,58.1334,183.3389],[7.8043,58.135,182.8272],[7.8058,58.1306,165.531],[7.8142,58.1314,155.5326],[7.8157,58.127,159.9251],[7.8241,58.1278,160.1476],[7.8256,58.1234,163.5195],[7.8424,58.125,16.3752],[7.8439,58.1206,17.3515],[7.8607,58.1223,67.2434],[7.8622,58.1179,55.9933],[7.879,58.1195,51.7006],[7.8805,58.1151,26.5],[7.8889,58.1159,123.1631],[7.8904,58.1115,26.5],[7.8988,58.1123,66.7406],[7.9003,58.1079,57.7388],[7.9087,58.1087,70.4865],[7.898,58.1396,76.9736],[7.8896,58.1388,101.3001],[7.8865,58.1476,154.9213],[7.8949,58.1484,172.3387],[7.8934,58.1528,184.0476],[7.9018,58.1536,152.4649],[7.8941,58.1757,86.6377],[7.8857,58.1749,87.1258],[7.8811,58.1881,207.2502],[7.8644,58.1865,160.9141],[7.8628,58.1909,210.4373],[7.8544,58.1901,205.6401],[7.8452,58.2165,246.6841],[7.8536,58.2174,266.311],[7.849,58.2306,249.8675],[7.8574,58.2314,267.9279],[7.8543,58.2402,245.0497]]]]}
,"properties": {"GID_2": "NOR.18.14_1","GID_0": "NOR","country": "Norway","GID_1": "NOR.18_1","province": "Vest-Agder","NL_NAME_1": "NA","county": "Songdalen","VARNAME_2": "NA","NL_NAME_2": "NA","TYPE_2": "Kommuner","ENGTYPE_2": "Municipality","CC_2": "NA","HASC_2": "NO.VA.SD","name": "Songdalen.county","area_km2": 215.496,"hist_schema_id": "Elevation0-9000","hist_area_km2": {"0": 0.0336,"25": 8.1871,"50": 6.7772,"75": 6.3867,"100": 10.1649,"125": 13.864,"150": 17.6421,"175": 17.5444,"200": 17.3506,"225": 21.3925,"250": 16.9281,"275": 23.7746,"300": 25.9328,"325": 15.9042,"350": 9.5954,"375": 3.2388,"400": 0.7346,"425": 0.0445}}}