{"type": "Feature","bbox": [5.138,60.7083,5.8601,60.9868],"geometry": {"type": "MultiPolygon","coordinates": [[[[5.2526,60.7745,15.404],[5.2542,60.7729,19.9696],[5.2599,60.7734,44.6841],[5.2583,60.775,52.7522],[5.2526,60.7745,15.404]]],
[[[5.2161,60.787,11.5241],[5.2188,60.7854,0.0],[5.2245,60.7859,0.0],[5.2245,60.7911,17.8127],[5.2188,60.7938,20.7517],[5.213,60.7911,0.0],[5.213,60.788,0.0],[5.2161,60.787,11.5241]]],
[[[5.138,60.8224,12.4043],[5.138,60.8214,11.4427],[5.1411,60.8214,13.2294],[5.1411,60.8224,13.3789],[5.138,60.8224,12.4043]]],
[[[5.1984,60.8307,23.7215],[5.2021,60.8333,0.0],[5.1958,60.8354,13.1721],[5.1875,60.8312,0.0],[5.1818,60.8339,2.0983],[5.1807,60.837,0.0],[5.1766,60.8391,0.0],[5.1708,60.8396,7.1575],[5.1651,60.837,0.0],[5.1641,60.8339,8.6782],[5.1568,60.8349,7.0722],[5.1542,60.8271,22.3108],[5.1583,60.8229,0.0],[5.1568,60.8172,13.6385],[5.1771,60.8146,0.0],[5.1792,60.8167,0.0],[5.1755,60.8193,4.6191],[5.1755,60.8224,8.9855],[5.1813,60.8229,0.0],[5.187,60.8203,0.0],[5.1875,60.8187,23.7642],[5.1818,60.813,0.0],[5.1849,60.812,0.0],[5.1875,60.8083,9.2526],[5.1958,60.8083,3.9024],[5.1974,60.8089,0.0],[5.2,60.8146,0.0],[5.1995,60.8161,0.0],[5.1922,60.8193,6.2391],[5.1917,60.825,0.0],[5.1922,60.8266,0.0],[5.1974,60.8276,0.0],[5.1984,60.8307,23.7215]]],
[[[5.2609,60.7714,15.5944],[5.2631,60.771,0.0],[5.2641,60.7724,0.0],[5.2609,60.7724,32.3846],[5.2609,60.7714,15.5944]]],
[[[5.2766,60.8182,0.0],[5.2729,60.8187,21.0318],[5.2729,60.8208,0.0],[5.2625,60.825,15.3301],[5.2458,60.825,0.0],[5.2401,60.8224,4.3599],[5.2432,60.8193,22.6788],[5.2375,60.8146,0.0],[5.2411,60.812,7.289],[5.2422,60.8089,19.8433],[5.2453,60.8078,25.492],[5.2484,60.7984,26.2847],[5.2568,60.7943,9.4327],[5.2625,60.7938,0.0],[5.2651,60.7974,0.0],[5.2682,60.7984,0.0],[5.2651,60.8016,43.3931],[5.2703,60.8026,0.0],[5.2714,60.8141,0.0],[5.2766,60.8151,0.0],[5.2766,60.8182,0.0]]],
[[[5.7081,60.8478,598.0232],[5.7061,60.8522,614.224],[5.7241,60.8541,891.8786],[5.7221,60.8585,705.6064],[5.7312,60.8595,867.1763],[5.7292,60.8639,635.0],[5.7472,60.8658,703.0762],[5.7452,60.8702,691.0],[5.7723,60.873,716.0125],[5.7664,60.8862,902.5831],[5.7844,60.8881,886.2505],[5.7904,60.875,773.4836],[5.7994,60.8759,806.3826],[5.7974,60.8803,767.3344],[5.8065,60.8813,867.1686],[5.8045,60.8856,745.5],[5.8135,60.8866,745.5],[5.8115,60.891,770.3892],[5.8206,60.8919,745.5],[5.8166,60.9007,764.0],[5.8256,60.9017,745.5],[5.8217,60.9104,861.65],[5.8307,60.9114,779.0],[5.8268,60.9201,894.1061],[5.8449,60.9221,805.8999],[5.8429,60.9264,864.1588],[5.8519,60.9274,870.6938],[5.8499,60.9318,905.9871],[5.859,60.9327,806.7606],[5.8511,60.9502,1013.2452],[5.8601,60.9512,917.4324],[5.8582,60.9556,965.8436],[5.8491,60.9546,1007.007],[5.8451,60.9634,1013.0034],[5.8361,60.9624,872.1379],[5.8321,60.9712,898.6273],[5.8231,60.9702,954.3842],[5.8171,60.9834,817.4875],[5.808,60.9824,904.6574],[5.8061,60.9868,958.3948],[5.7517,60.981,727.5284],[5.7537,60.9766,711.5255],[5.7356,60.9747,809.6567],[5.7396,60.966,634.0872],[5.7305,60.965,663.0641],[5.7325,60.9606,553.0009],[5.7235,60.9596,661.7077],[5.7215,60.964,570.7463],[5.6943,60.9611,586.5495],[5.6923,60.9655,732.4506],[5.6742,60.9636,684.5725],[5.6662,60.9811,822.3851],[5.6299,60.9772,683.246],[5.632,60.9728,694.7894],[5.6138,60.9709,744.1011],[5.6159,60.9665,750.7002],[5.5978,60.9645,728.6495],[5.5998,60.9602,697.5],[5.5817,60.9582,697.5],[5.5837,60.9538,727.9915],[5.5656,60.9519,719.9235],[5.5676,60.9475,766.227],[5.5495,60.9456,725.3624],[5.5516,60.9412,723.358],[5.5335,60.9392,606.2172],[5.5355,60.9349,735.1705],[5.5265,60.9339,712.6123],[5.5285,60.9295,695.0634],[5.5104,60.9276,668.6476],[5.5124,60.9232,644.1423],[5.5034,60.9222,517.6958],[5.4953,60.9397,251.1824],[5.4772,60.9377,624.6412],[5.4792,60.9334,578.857],[5.434,60.9284,574.8057],[5.4361,60.9241,641.1416],[5.418,60.9221,520.5],[5.4201,60.9177,652.9781],[5.3749,60.9128,517.0862],[5.3729,60.9172,449.7979],[5.3548,60.9152,647.773],[5.3527,60.9196,528.5004],[5.3437,60.9186,389.6582],[5.3335,60.9404,559.4679],[5.3244,60.9394,259.5439],[5.3224,60.9438,296.03],[5.3043,60.9418,564.0647],[5.3084,60.9331,374.6116],[5.2994,60.9321,349.0044],[5.3014,60.9277,274.0419],[5.2563,60.9227,302.1352],[5.2542,60.9271,457.3226],[5.2452,60.9261,493.2018],[5.2473,60.9218,522.8388],[5.2382,60.9208,359.7722],[5.2403,60.9164,555.2592],[5.2222,60.9144,207.5658],[5.2243,60.91,273.6939],[5.2063,60.908,381.4208],[5.2083,60.9037,166.0978],[5.1813,60.9007,392.3357],[5.1854,60.8919,217.0349],[5.1764,60.8909,149.4397],[5.1826,60.8778,100.45],[5.1736,60.8768,139.5025],[5.1777,60.8681,236.832],[5.1687,60.8671,161.9197],[5.1708,60.8627,62.47],[5.1617,60.8617,66.3871],[5.1638,60.8573,33.8169],[5.1548,60.8563,45.4919],[5.1569,60.852,6.6058],[5.1479,60.851,107.0516],[5.1525,60.8411,0.0],[5.1771,60.8417,0.0],[5.1813,60.8458,0.0],[5.1911,60.8453,15.2794],[5.1922,60.8401,0.0],[5.1943,60.838,16.562],[5.212,60.837,9.251],[5.2104,60.8354,5.3017],[5.2026,60.8349,0.0],[5.2021,60.8333,0.0],[5.2141,60.8328,0.0],[5.2182,60.8307,0.0],[5.2193,60.8255,15.1965],[5.2208,60.825,9.2393],[5.225,60.825,0.0],[5.2292,60.8271,0.0],[5.2333,60.825,11.2067],[5.2375,60.825,16.2707],[5.2391,60.8255,16.4891],[5.2401,60.8307,0.0],[5.2417,60.8312,0.0],[5.2521,60.8292,0.0],[5.2563,60.8312,0.0],[5.2604,60.8312,0.0],[5.2724,60.8245,0.0],[5.2729,60.8208,0.0],[5.2807,60.8203,0.0],[5.2818,60.8151,6.5695],[5.2875,60.8146,45.9367],[5.2958,60.8104,0.0],[5.3042,60.8104,10.7124],[5.3083,60.8083,11.172],[5.3125,60.8083,0.0],[5.3146,60.8104,0.0],[5.3109,60.813,0.0],[5.3146,60.8167,0.0],[5.3109,60.8193,31.9818],[5.313,60.8307,0.0],[5.3188,60.8292,0.0],[5.3333,60.8292,0.0],[5.3391,60.8318,0.0],[5.3401,60.8391,11.7817],[5.3432,60.8401,0.0],[5.3417,60.8438,0.0],[5.3417,60.8521,0.0],[5.3438,60.8563,0.0],[5.3443,60.8641,9.8333],[5.3646,60.875,0.0],[5.3833,60.8771,0.0],[5.3875,60.8792,0.0],[5.3917,60.8792,32.2978],[5.3958,60.8771,120.4773],[5.4208,60.8771,0.0],[5.4354,60.8812,39.5218],[5.4479,60.8812,0.0],[5.4604,60.8854,0.0],[5.4708,60.8854,0.0],[5.4766,60.888,0.0],[5.4734,60.8911,0.0],[5.4807,60.8922,0.0],[5.4818,60.8953,20.721],[5.4937,60.9,0.0],[5.4979,60.9,0.0],[5.5036,60.8974,54.4694],[5.5036,60.8943,184.4051],[5.4943,60.8911,79.7941],[5.4859,60.8859,0.0],[5.4891,60.8849,94.488],[5.4922,60.8797,21.5248],[5.5021,60.8771,0.0],[5.512,60.8766,24.7336],[5.513,60.8714,48.3637],[5.5146,60.8708,46.3161],[5.5271,60.8708,0.0],[5.5313,60.8729,0.0],[5.5354,60.8729,0.0],[5.5396,60.8708,0.0],[5.55,60.875,22.493],[5.5625,60.8729,0.0],[5.5667,60.875,0.0],[5.5708,60.8708,0.0],[5.575,60.8708,0.0],[5.5792,60.8729,0.0],[5.5891,60.8724,0.0],[5.5891,60.8693,125.8787],[5.5833,60.8667,404.026],[5.5604,60.8667,37.0605],[5.5563,60.8646,95.7888],[5.5521,60.8667,0.0],[5.5438,60.8667,126.5865],[5.5396,60.8688,37.5502],[5.5354,60.8688,37.767],[5.5297,60.8661,0.0],[5.5271,60.8625,28.1914],[5.5083,60.8625,138.7083],[5.5042,60.8604,188.2721],[5.4875,60.8688,195.9699],[5.475,60.8667,576.0433],[5.4708,60.8688,550.6438],[5.4458,60.8688,42.1369],[5.4443,60.8672,141.1774],[5.4479,60.8646,279.6192],[5.4458,60.8625,668.1343],[5.4396,60.8646,415.6877],[5.4333,60.8646,248.4276],[5.4292,60.8667,38.372],[5.4146,60.8625,300.1479],[5.3938,60.8646,116.7397],[5.3896,60.8667,0.0],[5.3854,60.8667,87.6155],[5.3813,60.8646,187.6378],[5.3729,60.8646,73.3604],[5.3693,60.862,27.5974],[5.3682,60.8568,154.9649],[5.3651,60.8557,89.5496],[5.3641,60.8505,112.1383],[5.3589,60.8495,14.9701],[5.3578,60.8464,107.6032],[5.3547,60.8453,44.9037],[5.3521,60.8375,0.0],[5.3526,60.8359,0.0],[5.3641,60.8307,125.8795],[5.3651,60.8276,0.0],[5.3714,60.8234,0.0],[5.3786,60.8224,0.0],[5.3786,60.8172,0.0],[5.3563,60.8187,26.3962],[5.3521,60.8167,48.2588],[5.3417,60.8167,99.7158],[5.3318,60.8141,59.4932],[5.3313,60.8083,54.5907],[5.3349,60.8047,88.6886],[5.3297,60.8036,11.0998],[5.3286,60.8005,107.0309],[5.3188,60.7979,80.7658],[5.3062,60.8,43.5752],[5.3005,60.7974,57.5926],[5.2943,60.7932,0.0],[5.2932,60.7901,20.3643],[5.2797,60.7828,14.4015],[5.2786,60.7797,15.3158],[5.2755,60.7786,7.7008],[5.2786,60.7755,0.0],[5.2734,60.7745,0.0],[5.2724,60.7714,9.8817],[5.2693,60.7703,16.4571],[5.2693,60.7651,23.4923],[5.2724,60.7641,37.9933],[5.2714,60.7609,18.7168],[5.2771,60.7583,5.5349],[5.2896,60.7562,0.0],[5.2979,60.7521,8.1834],[5.3062,60.7521,34.5367],[5.3104,60.75,0.0],[5.3188,60.75,28.5197],[5.3229,60.7479,0.0],[5.3271,60.7521,13.2526],[5.3438,60.7521,42.2246],[5.3495,60.7495,9.2534],[5.3505,60.7443,0.0],[5.3646,60.7396,28.2569],[5.3745,60.7401,0.0],[5.3771,60.7438,0.0],[5.3828,60.7432,0.0],[5.387,60.7411,0.0],[5.3839,60.7391,0.0],[5.3813,60.7313,74.0313],[5.3833,60.7292,45.9087],[5.3917,60.7292,0.0],[5.3953,60.7318,0.0],[5.3964,60.7349,0.0],[5.4036,60.7349,59.9934],[5.4036,60.7318,21.9231],[5.3984,60.7307,0.0],[5.3984,60.7214,31.6014],[5.412,60.7141,38.1514],[5.413,60.7109,15.3511],[5.4188,60.7083,0.0],[5.4271,60.7083,0.0],[5.4354,60.7125,35.39],[5.4396,60.7104,0.0],[5.4497,60.7096,0.0],[5.4861,60.7136,723.7299],[5.4841,60.718,689.7993],[5.4931,60.719,755.1985],[5.4911,60.7233,681.1786],[5.509,60.7253,539.2197],[5.507,60.7297,448.0],[5.516,60.7306,448.0],[5.512,60.7394,601.2406],[5.521,60.7404,495.748],[5.517,60.7491,436.9146],[5.508,60.7481,461.2837],[5.506,60.7525,370.9967],[5.497,60.7515,467.1031],[5.495,60.7559,418.8821],[5.504,60.7569,365.1422],[5.4939,60.7788,691.4519],[5.5029,60.7797,613.4809],[5.5009,60.7841,530.1909],[5.5099,60.7851,496.6551],[5.5079,60.7895,504.7124],[5.5259,60.7914,751.2883],[5.5238,60.7958,741.6852],[5.5508,60.7987,610.5993],[5.5529,60.7944,727.0102],[5.5709,60.7963,742.6596],[5.5729,60.7919,727.0559],[5.5819,60.7929,773.8806],[5.5799,60.7973,736.2764],[5.5979,60.7992,807.1406],[5.5959,60.8036,829.8556],[5.6049,60.8046,719.1373],[5.6029,60.809,776.2213],[5.6209,60.8109,583.0115],[5.6189,60.8153,454.7034],[5.6279,60.8163,748.6713],[5.6259,60.8206,824.7307],[5.6439,60.8226,795.0854],[5.6419,60.8269,764.2614],[5.669,60.8299,755.8477],[5.667,60.8342,815.0092],[5.676,60.8352,815.9346],[5.674,60.8396,698.0901],[5.683,60.8405,729.8208],[5.681,60.8449,527.0],[5.7081,60.8478,598.0232]]]]}
,"properties": {"GID_2": "NOR.7.17_1","GID_0": "NOR","country": "Norway","GID_1": "NOR.7_1","province": "Hordaland","NL_NAME_1": "NA","county": "Masfjorden","VARNAME_2": "NA","NL_NAME_2": "NA","TYPE_2": "Kommuner","ENGTYPE_2": "Municipality","CC_2": "NA","HASC_2": "NO.HO.MA","name": "Masfjorden.county","area_km2": 554.8479,"hist_schema_id": "Elevation0-9000","hist_area_km2": {"0": 16.3783,"25": 23.4222,"50": 22.0609,"75": 16.5767,"100": 16.0852,"125": 14.0007,"150": 12.4108,"175": 11.6676,"200": 12.8892,"225": 11.3711,"250": 11.7401,"275": 11.9596,"300": 10.9271,"325": 12.1464,"350": 12.5796,"375": 12.9954,"400": 12.6536,"425": 12.7583,"450": 12.8912,"475": 13.5783,"500": 14.3141,"525": 14.7755,"550": 15.7025,"575": 15.1757,"600": 16.8891,"625": 18.6659,"650": 20.4377,"675": 23.1644,"700": 23.5008,"725": 22.0343,"750": 19.7291,"775": 13.6469,"800": 9.7127,"825": 9.3912,"850": 8.6856,"875": 7.8491,"900": 6.8203,"925": 6.027,"950": 3.1942,"975": 2.0613,"1000": 1.3295,"1025": 0.5252,"1050": 0.1029,"1075": 0.0206}}}