{"type": "Feature","bbox": [11.1538,63.8641,12.3749,64.3313],"geometry": {"type": "MultiPolygon","coordinates": [[[[11.3464,64.0172,38.0996],[11.3542,64.0167,0.0],[11.3557,64.0182,0.0],[11.3479,64.0188,11.2297],[11.3464,64.0172,38.0996]]],
[[[11.3505,64.0255,14.192],[11.3536,64.0255,0.0],[11.3536,64.0266,7.2359],[11.3505,64.0266,14.1967],[11.3505,64.0255,14.192]]],
[[[11.3568,64.0276,7.3952],[11.3599,64.0276,20.9648],[11.3599,64.0286,15.9483],[11.3568,64.0286,7.008],[11.3568,64.0276,7.3952]]],
[[[11.5096,63.8682,241.8319],[11.5148,63.8685,286.0524],[11.5162,63.8641,388.424],[11.5263,63.8647,331.5351],[11.525,63.8691,261.4112],[11.5553,63.8709,222.0684],[11.554,63.8753,205.6999],[11.6146,63.8788,67.5],[11.6107,63.8921,67.5],[11.6208,63.8927,118.1815],[11.6221,63.8882,140.7909],[11.6626,63.8905,493.9512],[11.6613,63.895,489.6089],[11.7018,63.8973,468.4974],[11.7005,63.9017,502.2673],[11.822,63.9085,329.9136],[11.8233,63.904,354.8158],[12.0158,63.9145,487.6618],[12.0171,63.9101,523.1254],[12.0475,63.9117,368.466],[12.0462,63.9162,350.5991],[12.1172,63.92,635.6544],[12.116,63.9244,576.922],[12.1464,63.926,616.777],[12.1451,63.9305,619.0179],[12.1756,63.9321,551.0656],[12.1743,63.9366,578.1843],[12.1946,63.9376,589.3999],[12.1934,63.9421,624.2558],[12.2137,63.9432,588.559],[12.2125,63.9476,611.2065],[12.3749,63.9561,649.0262],[12.3725,63.965,500.8574],[12.3624,63.9645,470.4268],[12.3599,63.9734,467.9967],[12.3498,63.9729,435.0],[12.3485,63.9773,435.0],[12.3384,63.9768,435.0],[12.3359,63.9857,460.1685],[12.3258,63.9852,508.962],[12.3233,63.9941,449.9733],[12.3132,63.9936,442.4859],[12.3107,64.0025,468.777],[12.3005,64.002,471.8699],[12.2981,64.0109,483.2959],[12.2879,64.0104,445.3552],[12.2855,64.0193,600.9323],[12.2753,64.0188,543.1113],[12.2741,64.0232,694.7876],[12.2639,64.0227,657.7679],[12.2626,64.0272,615.0208],[12.2525,64.0266,568.5927],[12.2512,64.0311,574.7102],[12.2309,64.03,428.9068],[12.2296,64.0345,433.332],[12.2194,64.034,406.8534],[12.2182,64.0384,387.8409],[12.208,64.0379,437.75],[12.2068,64.0423,447.5475],[12.1864,64.0413,489.4533],[12.1852,64.0457,463.1061],[12.175,64.0452,417.5632],[12.1737,64.0497,377.2646],[12.1533,64.0486,343.3711],[12.1521,64.053,310.5611],[12.1419,64.0525,268.2565],[12.1394,64.0614,272.5638],[12.1496,64.062,270.4209],[12.1471,64.0709,402.1931],[12.1573,64.0714,381.1575],[12.1535,64.0848,631.2183],[12.1637,64.0853,691.8353],[12.16,64.0987,630.3437],[12.1294,64.0971,580.0],[12.1281,64.1015,580.0],[12.0975,64.0999,679.9482],[12.0962,64.1044,632.244],[12.0656,64.1028,516.1732],[12.0643,64.1072,431.6094],[12.0541,64.1067,399.7799],[12.0503,64.12,318.9172],[12.0401,64.1195,292.6082],[12.0337,64.1418,265.3801],[12.0439,64.1423,270.3184],[12.0427,64.1468,258.5383],[12.0529,64.1473,264.0623],[12.0503,64.1563,183.8671],[12.0299,64.1552,137.193],[12.012,64.2176,204.5955],[12.0017,64.217,163.7031],[12.0005,64.2215,224.1886],[11.98,64.2204,250.3272],[11.9787,64.2249,323.4481],[11.9582,64.2237,256.5015],[11.9556,64.2327,411.882],[11.9658,64.2332,403.7677],[11.9607,64.251,365.4102],[11.9709,64.2516,360.5477],[11.9502,64.3229,543.0854],[11.9399,64.3224,521.0245],[11.9373,64.3313,553.164],[11.9168,64.3302,400.1682],[11.9181,64.3257,350.5219],[11.8872,64.3241,249.1868],[11.8885,64.3196,260.0747],[11.868,64.3185,368.8882],[11.8693,64.314,308.055],[11.8384,64.3123,347.2834],[11.8397,64.3079,276.895],[11.8192,64.3068,259.172],[11.8205,64.3023,271.5419],[11.8102,64.3018,255.3565],[11.8116,64.2973,230.9756],[11.791,64.2962,233.5459],[11.7923,64.2917,319.2628],[11.7718,64.2906,188.1718],[11.7731,64.2861,428.507],[11.7629,64.2856,359.0158],[11.7642,64.2811,432.3083],[11.7437,64.28,373.455],[11.745,64.2755,391.1277],[11.7347,64.275,397.1242],[11.7361,64.2705,399.7226],[11.7155,64.2694,357.026],[11.7169,64.2649,306.0164],[11.6964,64.2638,299.3614],[11.6977,64.2593,240.2813],[11.6669,64.2576,156.716],[11.6683,64.2532,155.9301],[11.6273,64.2509,197.5293],[11.6286,64.2464,194.5695],[11.5876,64.2441,236.0139],[11.589,64.2397,224.1254],[11.548,64.2374,366.769],[11.5493,64.2329,394.1574],[11.5186,64.2312,212.12],[11.52,64.2267,237.7939],[11.4995,64.2256,162.6285],[11.5009,64.2211,231.6092],[11.4701,64.2194,174.0819],[11.4715,64.2149,231.3048],[11.4408,64.2131,299.6476],[11.4422,64.2087,315.5267],[11.4115,64.2069,196.2303],[11.4129,64.2025,170.7888],[11.3924,64.2013,167.7528],[11.3938,64.1968,163.4039],[11.3733,64.1957,257.0426],[11.3747,64.1912,356.3153],[11.3645,64.1906,162.2777],[11.37,64.1728,162.5553],[11.3496,64.1716,236.7013],[11.351,64.1672,267.0751],[11.2386,64.1606,65.4307],[11.2414,64.1517,69.4487],[11.2312,64.1511,107.2293],[11.2326,64.1467,98.0157],[11.2224,64.1461,141.3622],[11.2238,64.1416,92.1436],[11.1626,64.138,269.8326],[11.164,64.1336,234.0276],[11.1538,64.1329,273.2148],[11.1567,64.1241,340.8484],[11.1669,64.1247,326.2103],[11.1683,64.1202,346.4654],[11.1887,64.1214,394.5479],[11.1901,64.117,422.9501],[11.2105,64.1182,363.0404],[11.2119,64.1137,373.3729],[11.2221,64.1143,331.464],[11.2235,64.1099,309.968],[11.2438,64.1111,233.9958],[11.2452,64.1066,219.9086],[11.3124,64.1105,0.0],[11.3117,64.1069,21.9169],[11.3034,64.1035,39.0153],[11.3221,64.1024,0.0],[11.3273,64.1001,16.5071],[11.3227,64.0971,80.9023],[11.2767,64.0832,56.2617],[11.2318,64.0766,69.7161],[11.2227,64.0731,0.0],[11.2333,64.075,15.9962],[11.2396,64.0729,0.0],[11.2542,64.0771,9.8803],[11.2599,64.0745,0.0],[11.2583,64.0729,29.3484],[11.2521,64.0729,10.7218],[11.2339,64.0682,0.0],[11.2297,64.0599,0.0],[11.2333,64.0563,0.9322],[11.2292,64.0458,0.0],[11.2328,64.0432,5.0985],[11.2318,64.038,0.0],[11.2349,64.037,0.0],[11.2339,64.0339,0.0],[11.237,64.0328,6.9777],[11.238,64.0297,0.0],[11.2422,64.0276,0.0],[11.2521,64.0271,38.4594],[11.2583,64.025,0.0],[11.2714,64.0328,18.2939],[11.2792,64.0354,5.3194],[11.3,64.0354,0.0],[11.3042,64.0375,2.8321],[11.3141,64.0349,2.7827],[11.3208,64.0313,0.0],[11.3417,64.0375,0.0],[11.3479,64.0354,0.0],[11.3521,64.0375,0.0],[11.3563,64.0375,0.0],[11.3661,64.0349,0.0],[11.3672,64.0318,2.6851],[11.3745,64.0286,14.1549],[11.3734,64.0255,0.0],[11.3766,64.0234,10.0551],[11.3714,64.0203,3.6875],[11.3729,64.0188,10.8967],[11.3875,64.0188,0.0],[11.3917,64.0208,17.9129],[11.3979,64.0208,0.0],[11.4042,64.025,0.0],[11.4229,64.025,0.0],[11.4271,64.0271,13.1712],[11.4375,64.0271,13.5644],[11.4401,64.0234,0.0],[11.4474,64.0193,7.3355],[11.438,64.0182,0.0],[11.4359,64.0162,0.0],[11.4375,64.0146,25.0956],[11.4479,64.0146,0.0],[11.4604,64.0104,0.0],[11.4661,64.0109,5.3647],[11.4651,64.0141,0.0],[11.4667,64.0146,0.0],[11.475,64.0146,4.3855],[11.4792,64.0125,2.6901],[11.487,64.012,4.2097],[11.4901,64.0068,0.0],[11.4932,64.0047,0.0],[11.4813,64.0,70.7103],[11.4672,63.9995,0.0],[11.4661,63.9964,4.8067],[11.4443,63.9891,2.2123],[11.4432,63.9859,59.4461],[11.4354,63.9854,2.5973],[11.4214,63.9807,0.0],[11.4203,63.9776,0.0],[11.4151,63.9766,0.0],[11.4125,63.9729,0.0],[11.4047,63.9734,3.4495],[11.4057,63.9766,0.0],[11.3958,63.9813,0.0],[11.3896,63.9813,0.0],[11.3839,63.9786,13.7082],[11.3813,63.975,0.0],[11.3849,63.9724,9.8136],[11.3828,63.9693,3.6788],[11.3709,63.9689,8.0956],[11.375,63.9556,13.4403],[11.3649,63.955,56.3245],[11.369,63.9416,0.0],[11.3588,63.9411,-0.5976],[11.3616,63.9322,0.0],[11.3515,63.9316,0.0],[11.3542,63.9227,0.0],[11.3441,63.9221,0.0],[11.3468,63.9132,0.0],[11.3367,63.9126,0.0],[11.3408,63.8992,0.0],[11.3307,63.8986,0.0],[11.3348,63.8853,0.0],[11.4258,63.8906,60.167],[11.4272,63.8861,91.9605],[11.4373,63.8867,156.6629],[11.4387,63.8823,88.1864],[11.4589,63.8834,180.5587],[11.4602,63.879,173.6942],[11.4906,63.8807,222.3429],[11.4919,63.8763,254.544],[11.502,63.8769,263.8396],[11.5047,63.868,292.7983],[11.5096,63.8682,241.8319]]]]}
,"properties": {"GID_2": "NOR.9.20_1","GID_0": "NOR","country": "Norway","GID_1": "NOR.9_1","province": "Nord-Trøndelag","NL_NAME_1": "NA","county": "Steinkjer","VARNAME_2": "NA","NL_NAME_2": "NA","TYPE_2": "Kommuner","ENGTYPE_2": "Municipality","CC_2": "NA","HASC_2": "NO.NT.ST","name": "Steinkjer.county","area_km2": 1578.53,"hist_schema_id": "Elevation0-9000","hist_area_km2": {"0": 28.041,"25": 119.667,"50": 84.319,"75": 106.821,"100": 111.272,"125": 84.696,"150": 69.212,"175": 77.284,"200": 79.622,"225": 78.622,"250": 73.14,"275": 88.766,"300": 79.322,"325": 95.426,"350": 86.249,"375": 65.826,"400": 58.475,"425": 46.47,"450": 31.233,"475": 21.126,"500": 16.941,"525": 15.481,"550": 14.964,"575": 15.534,"600": 11.816,"625": 7.297,"650": 3.874,"675": 2.954,"700": 1.883,"725": 1.066,"750": 0.455,"775": 0.352,"800": 0.306,"825": 0.019}}}