{"type": "Feature","bbox": [5.9963,58.8476,6.9345,59.191],"geometry": {"type": "MultiPolygon","coordinates": [[[[6.1108,58.9357,0.0],[6.1064,58.9337,16.8756],[6.1064,58.9313,13.8316],[6.1108,58.9299,0.0],[6.1153,58.9329,0.0],[6.1108,58.9357,0.0]]],
[[[6.8465,59.1897,1158.1327],[6.7468,59.1794,1082.7255],[6.7485,59.175,951.9207],[6.7399,59.1741,944.0507],[6.7382,59.1785,1016.9337],[6.6952,59.174,964.8232],[6.6934,59.1784,948.2201],[6.6762,59.1766,983.6476],[6.6745,59.181,890.5588],[6.6401,59.1774,728.9905],[6.6418,59.173,776.0206],[6.6332,59.1721,727.5],[6.6349,59.1677,727.5],[6.6177,59.1659,728.3966],[6.623,59.1528,723.4094],[6.6144,59.1519,671.0],[6.6162,59.1475,673.6277],[6.5646,59.142,1044.3805],[6.5681,59.1333,1045.5916],[6.5595,59.1324,1055.2617],[6.5648,59.1192,1021.4603],[6.5562,59.1183,1027.3417],[6.5597,59.1095,1049.639],[6.5511,59.1086,1030.6809],[6.5546,59.0998,668.0],[6.546,59.0989,668.0],[6.5478,59.0945,668.0],[6.4877,59.0882,672.9084],[6.486,59.0925,668.0],[6.4602,59.0898,935.6689],[6.462,59.0854,867.3431],[6.4363,59.0827,610.3028],[6.4345,59.0871,619.7349],[6.4259,59.0862,609.5],[6.4242,59.0905,609.5],[6.3899,59.0869,609.5],[6.3881,59.0913,609.5],[6.3795,59.0904,609.5],[6.3813,59.086,609.5],[6.3127,59.0786,576.4262],[6.3145,59.0742,552.1077],[6.3059,59.0733,668.2759],[6.3113,59.0601,690.5157],[6.2856,59.0574,771.1738],[6.2874,59.053,703.5463],[6.2788,59.0521,627.6708],[6.2806,59.0477,644.9062],[6.2463,59.044,555.4531],[6.2481,59.0396,619.3657],[6.2396,59.0387,500.4757],[6.2414,59.0343,529.1724],[6.2328,59.0333,500.497],[6.2346,59.029,620.4507],[6.226,59.028,520.28],[6.2278,59.0236,692.4933],[6.2193,59.0227,564.101],[6.2229,59.0139,549.0381],[6.2143,59.013,469.6098],[6.2161,59.0086,516.8137],[6.1905,59.0058,574.8165],[6.1923,59.0015,545.8306],[6.1837,59.0005,572.8535],[6.1855,58.9961,495.4711],[6.177,58.9952,461.0026],[6.1787,58.9908,420.2009],[6.1617,58.989,445.5019],[6.1635,58.9846,448.648],[6.1464,58.9827,236.0],[6.1482,58.9783,246.0315],[6.1396,58.9774,353.339],[6.1414,58.973,344.6364],[6.1329,58.9721,314.4133],[6.1347,58.9677,301.6887],[6.1005,58.964,212.4493],[6.0987,58.9683,178.6022],[6.0902,58.9674,299.0923],[6.0884,58.9718,266.6808],[6.0713,58.9699,333.0782],[6.0695,58.9743,328.9166],[6.061,58.9734,301.067],[6.0591,58.9777,234.6039],[6.0506,58.9768,203.1563],[6.0524,58.9724,263.4074],[6.0163,58.9684,138.5959],[5.9995,58.9683,46.0748],[5.9963,58.9674,2.9229],[5.9964,58.9657,0.0],[6.0047,58.9624,4.9576],[6.0053,58.9604,6.4815],[6.0003,58.9601,1.6661],[6.0003,58.9582,0.0],[6.0025,58.9568,0.0],[6.0014,58.9554,0.0],[6.0092,58.9535,0.0],[6.0092,58.9499,0.0],[6.0114,58.9493,1.399],[6.0086,58.9479,0.0],[6.0147,58.9476,14.6965],[6.0181,58.9432,0.0],[6.0203,58.9429,7.1511],[6.0181,58.9424,0.0],[6.0181,58.941,0.0],[6.0225,58.9396,14.7044],[6.0236,58.9371,5.4605],[6.0264,58.936,3.8278],[6.0264,58.9304,0.0],[6.0353,58.931,1.9681],[6.0392,58.9324,0.0],[6.0397,58.934,9.8483],[6.0414,58.934,9.8483],[6.0425,58.9318,0.0],[6.0486,58.9307,28.9105],[6.0431,58.9265,0.0],[6.0492,58.9221,27.6214],[6.0553,58.9212,3.1284],[6.0547,58.9174,0.0],[6.0619,58.9135,29.445],[6.0631,58.909,6.8418],[6.0747,58.9035,0.0],[6.0797,58.911,0.0],[6.0786,58.9157,6.7744],[6.0836,58.9199,0.0],[6.0836,58.9218,3.4962],[6.0908,58.9229,0.0],[6.0975,58.9263,0.0],[6.0986,58.9326,14.0875],[6.1003,58.934,0.0],[6.0981,58.9388,6.2105],[6.1003,58.9426,2.3291],[6.1047,58.9426,0.0],[6.1075,58.9451,0.0],[6.1153,58.9465,0.0],[6.1186,58.9493,31.7959],[6.1325,58.9538,31.6002],[6.1475,58.9629,191.9255],[6.1497,58.9615,0.0],[6.1503,58.964,8.6822],[6.1475,58.9646,230.2324],[6.1553,58.9649,0.0],[6.1558,58.9674,17.4554],[6.1592,58.9682,0.0],[6.1581,58.969,36.3803],[6.1697,58.9715,17.438],[6.173,58.9746,53.7885],[6.1803,58.9765,0.0],[6.1925,58.9843,167.2227],[6.2064,58.9882,0.0],[6.2025,58.9885,10.2842],[6.2042,58.9896,41.7263],[6.2153,58.9915,0.0],[6.2264,58.9985,78.0167],[6.2297,58.9976,18.477],[6.2342,58.9999,0.0],[6.2331,58.9982,0.0],[6.2353,58.9982,0.0],[6.2364,59.0024,0.0],[6.2353,59.0032,12.0016],[6.2369,59.0043,101.0834],[6.2525,59.0074,41.5801],[6.2653,59.0126,33.603],[6.2775,59.0118,0.0],[6.2886,59.014,144.5379],[6.2953,59.0129,0.0],[6.2969,59.0146,66.1086],[6.3086,59.0163,71.6605],[6.3125,59.0151,0.0],[6.3158,59.0165,10.8564],[6.3297,59.016,0.0],[6.3481,59.0174,17.0552],[6.3458,59.0179,27.1638],[6.3492,59.0187,9.9535],[6.3542,59.0179,0.0],[6.3786,59.024,50.103],[6.3908,59.0235,0.0],[6.3947,59.0257,27.8161],[6.4508,59.0315,0.0],[6.4558,59.0343,97.6346],[6.4736,59.0363,4.6687],[6.4853,59.0399,40.7094],[6.4914,59.0388,91.8665],[6.4892,59.0385,5.6775],[6.4881,59.0388,83.2761],[6.4892,59.0379,5.6775],[6.4953,59.0382,0.0],[6.4997,59.0404,0.0],[6.5125,59.0418,19.1561],[6.5131,59.0399,0.0],[6.5169,59.0388,2.6955],[6.5292,59.0385,0.0],[6.5364,59.0399,0.0],[6.5436,59.0435,12.0049],[6.5508,59.044,36.0316],[6.5481,59.0449,28.883],[6.5592,59.0438,67.1751],[6.5753,59.0463,16.3402],[6.5869,59.0501,56.5113],[6.6047,59.0496,23.0265],[6.6103,59.0515,81.8115],[6.6453,59.0563,42.1599],[6.6442,59.0532,1.7051],[6.6469,59.0515,3.6688],[6.6397,59.0496,37.9133],[6.6047,59.0446,5.6916],[6.5919,59.041,25.8674],[6.5825,59.0426,0.0],[6.5769,59.0371,0.0],[6.5508,59.0349,18.1093],[6.5353,59.029,11.3978],[6.5208,59.0307,0.0],[6.5069,59.0296,0.0],[6.5031,59.0276,18.3595],[6.4886,59.0268,19.2931],[6.4769,59.0235,135.487],[6.4364,59.0176,0.0],[6.4281,59.0149,9.4723],[6.4203,59.0168,9.3605],[6.4169,59.014,0.0],[6.4053,59.0126,0.0],[6.3997,59.0098,23.6591],[6.3847,59.0071,0.0],[6.3769,59.0074,0.0],[6.3614,59.0038,0.0],[6.3347,59.0038,0.0],[6.3031,58.9982,20.4754],[6.2803,58.9996,12.1262],[6.2709,58.9946,5.0773],[6.2619,58.9938,0.0],[6.2425,58.9874,3.8379],[6.2336,58.986,0.0],[6.2297,58.9818,10.6377],[6.2219,58.9774,17.7949],[6.2086,58.9768,0.0],[6.1964,58.9732,3.5184],[6.1881,58.9693,3.9617],[6.1858,58.9651,21.7335],[6.1747,58.9635,12.7395],[6.1708,58.9576,0.2144],[6.1558,58.9549,8.4649],[6.1486,58.9554,30.1309],[6.1458,58.954,0.0],[6.1475,58.9504,6.8506],[6.1442,58.9488,6.8506],[6.1397,58.9501,10.8609],[6.1331,58.9496,4.5155],[6.1319,58.9476,12.969],[6.1347,58.946,2.2397],[6.1342,58.9443,0.0],[6.1264,58.9463,0.0],[6.1269,58.9443,0.0],[6.1186,58.9426,0.0],[6.1186,58.9407,0.0],[6.1147,58.9365,15.763],[6.1158,58.9343,0.0],[6.1203,58.9335,8.7315],[6.1192,58.9313,27.2234],[6.1014,58.9226,0.0],[6.1019,58.9212,4.3052],[6.0997,58.9193,0.0],[6.1031,58.9179,13.187],[6.1019,58.9165,0.0],[6.1031,58.9154,34.1189],[6.0997,58.9132,0.0],[6.1019,58.9071,0.0],[6.1007999999999996,58.9057,0.552],[6.0964,58.9065,0.0],[6.0853,58.9007,0.0],[6.0869,58.8979,0.0],[6.1025,58.8943,2.0675],[6.1031,58.8932,0.8382],[6.1007999999999996,58.8913,0.0],[6.1042,58.8907,0.7451],[6.1047,58.8871,18.2934],[6.1081,58.8835,0.0],[6.1158,58.8796,5.6364],[6.1164,58.8754,0.0],[6.1231,58.8737,0.0],[6.1297,58.8693,7.1102],[6.1347,58.871,7.2082],[6.1364,58.8671,0.0],[6.1464,58.8643,6.4772],[6.1464,58.861,0.0],[6.1492,58.8607,1.1375],[6.1542,58.8568,0.0],[6.1608,58.8557,38.5026],[6.1719,58.8488,8.2096],[6.1792,58.8476,0.0],[6.2036,58.8488,13.1627],[6.2103,58.8504,0.0],[6.2153,58.8493,0.0],[6.2361,58.8501,0.0],[6.2306,58.8636,663.4995],[6.2817,58.8692,556.1794],[6.28,58.8735,595.0327],[6.2885,58.8745,501.0],[6.2867,58.8789,548.3203],[6.3038,58.8807,501.0],[6.302,58.8851,541.2699],[6.4128,58.897,970.0909],[6.4111,58.9014,1008.7554],[6.4196,58.9023,1004.9438],[6.4178,58.9067,963.8506],[6.469,58.9122,762.1887],[6.4673,58.9166,951.7814],[6.4843,58.9184,682.5326],[6.4826,58.9228,787.4678],[6.4997,58.9246,748.9044],[6.4979,58.929,798.3994],[6.5064,58.9299,719.5031],[6.5047,58.9343,787.5247],[6.5132,58.9352,833.3333],[6.5115,58.9396,888.738],[6.5286,58.9414,732.9393],[6.5268,58.9458,823.4637],[6.5354,58.9467,835.2065],[6.5319,58.9555,922.2583],[6.5404,58.9564,875.6476],[6.5387,58.9608,989.007],[6.5472,58.9617,949.6523],[6.5455,58.9661,995.4615],[6.554,58.967,980.466],[6.5505,58.9758,855.9388],[6.5591,58.9767,877.6116],[6.5573,58.9811,1036.0004],[6.6172,58.9874,1078.8031],[6.6189,58.983,1047.0758],[6.6617,58.9875,1093.2001],[6.66,58.9919,956.887],[6.6685,58.9928,958.2549],[6.6668,58.9972,970.3119],[6.6754,58.9981,950.0],[6.6736,59.0025,950.0],[6.6822,59.0034,971.7173],[6.6787,59.0122,934.0895],[6.7301,59.0176,947.0658],[6.7284,59.0219,950.7563],[6.7455,59.0237,943.5169],[6.7438,59.0281,958.3322],[6.7609,59.0299,934.5026],[6.7592,59.0343,888.4276],[6.7678,59.0352,878.0955],[6.7661,59.0396,872.7083],[6.7746,59.0405,858.2566],[6.7729,59.0449,857.9802],[6.7815,59.0458,942.855],[6.778,59.0546,1082.5117],[6.7866,59.0555,1080.6024],[6.7832,59.0642,837.8499],[6.7918,59.0651,992.3236],[6.79,59.0695,645.3778],[6.8072,59.0713,912.9758],[6.8055,59.0757,616.7758],[6.8226,59.0775,828.8703],[6.8209,59.0819,625.3087],[6.8381,59.0836,891.6577],[6.8364,59.088,659.772],[6.8535,59.0898,895.6322],[6.8518,59.0942,786.3655],[6.869,59.096,899.4753],[6.8673,59.1004,806.2786],[6.8845,59.1021,999.8221],[6.8828,59.1065,943.4951],[6.8999,59.1083,865.614],[6.8982,59.1127,759.1567],[6.9068,59.1136,757.9126],[6.8965,59.14,883.0],[6.8879,59.1391,883.0],[6.8845,59.1479,883.0],[6.8759,59.147,883.0],[6.8742,59.1514,883.0],[6.8828,59.1523,883.0],[6.8811,59.1567,895.7249],[6.8983,59.1584,883.0],[6.8966,59.1628,883.0],[6.9052,59.1637,883.0],[6.9035,59.1681,910.9099],[6.9121,59.169,924.5153],[6.9104,59.1734,963.6018],[6.919,59.1743,883.0],[6.9173,59.1787,958.121],[6.9345,59.1804,883.0],[6.9311,59.1892,883.0],[6.8966,59.1857,1137.557],[6.8949,59.1901,987.4483],[6.8604,59.1866,1017.1134],[6.8587,59.191,1196.1996],[6.8465,59.1897,1158.1327]]]]}
,"properties": {"GID_2": "NOR.13.5_1","GID_0": "NOR","country": "Norway","GID_1": "NOR.13_1","province": "Rogaland","NL_NAME_1": "NA","county": "Forsand","VARNAME_2": "NA","NL_NAME_2": "NA","TYPE_2": "Kommuner","ENGTYPE_2": "Municipality","CC_2": "NA","HASC_2": "NO.RO.FO","name": "Forsand.county","area_km2": 768.3154,"hist_schema_id": "Elevation0-9000","hist_area_km2": {"0": 8.0694,"25": 9.833,"50": 12.8181,"75": 8.6717,"100": 10.3925,"125": 10.4465,"150": 8.6601,"175": 8.0247,"200": 7.7182,"225": 7.9903,"250": 8.3077,"275": 8.0351,"300": 8.2973,"325": 7.7071,"350": 8.5605,"375": 9.9372,"400": 9.5206,"425": 8.5905,"450": 9.6049,"475": 12.3659,"500": 12.5669,"525": 11.5929,"550": 13.2801,"575": 13.7804,"600": 18.8797,"625": 17.8857,"650": 19.8085,"675": 24.2055,"700": 23.7382,"725": 23.9594,"750": 23.5071,"775": 28.0346,"800": 27.6348,"825": 26.719,"850": 29.1934,"875": 38.9926,"900": 28.3122,"925": 25.981,"950": 24.1039,"975": 24.1607,"1000": 21.6677,"1025": 23.2065,"1050": 21.1112,"1075": 19.5512,"1100": 15.8494,"1125": 9.3567,"1150": 6.4045,"1175": 4.3825,"1200": 3.2745,"1225": 2.1762,"1250": 0.9467,"1275": 0.4135,"1300": 0.0871}}}