{"type": "Feature","id": 95220.0,"bbox": [5.4639998707087329,59.438177801556577,5.6296492847712329,59.510504461712827],"geometry": {"type": "Polygon","coordinates": [[[5.5921736988337329,59.473150946087827,1.2246],[5.5921736988337329,59.473150946087827,1.2246],[5.6015731128962329,59.459479071087827,0.0],[5.6140242847712329,59.460394598431577,0.0],[5.6176863941462329,59.482550360150327,38.0482],[5.6235457691462329,59.498663641400327,0.0],[5.6296492847712329,59.504400946087827,5.3797],[5.6252547535212329,59.510504461712827,40.8262],[5.5991317066462329,59.508978582806577,53.7654],[5.5715438160212329,59.505011297650327,23.3824],[5.5617781910212329,59.491949774212827,9.1622],[5.5481063160212329,59.481634832806577,54.2186],[5.5305281910212329,59.467047430462827,47.45],[5.5141707691462329,59.455511785931577,96.6631],[5.4891463550837329,59.463385321087827,198.9863],[5.4699813160212329,59.469183660931577,86.3745],[5.4639998707087329,59.461310125775327,60.6219],[5.4819442066462329,59.446417547650327,3.1372],[5.5105086597712329,59.438177801556577,0.0],[5.5293074878962329,59.441229559369077,0.0],[5.5420028003962329,59.450690008587827,0.0],[5.5535994800837329,59.457342840619077,0.0],[5.5644637378962329,59.468573309369077,38.1343],[5.5797225269587329,59.481329657025327,37.6759],[5.5921736988337329,59.473150946087827,1.2246]]]}
,"properties": {"name": null,"lge_id": null,"pfafstette": 1.0,"lke_type": null,"altitude": 0,"objectid": 51845,"scalerank": 12,"featurecla": "Lake","note": "_untitled_51845","funkyname": 0,"min_zoom": 7.0,"min_label": 8.0,"area_km2": 26.309,"hist_schema_id": "Elevation0-9000","hist_area_km2": {"0": 17.8991,"25": 3.56414,"50": 3.09039,"75": 0.96912,"100": 0.4092,"125": 0.05387,"150": 0.10773,"175": 0.06464,"200": 0.04309,"225": 0.07541,"250": 0.02154,"275": 0.01077}}}