{"type":"Feature","properties":{"GID_2":"NOR.18.10_1","GID_0":"NOR","country":"Norway","GID_1":"NOR.18_1","province":"Vest-Agder","NL_NAME_1":"NA","county":"Mandal","VARNAME_2":"NA","NL_NAME_2":"NA","TYPE_2":"Kommuner","ENGTYPE_2":"Municipality","CC_2":"NA","HASC_2":"NO.VA.MN","name":"Mandal.county"},
"geometry":{"type": "MultiPolygon","coordinates": [[[[7.5008,57.9629,0.0],[7.4892,57.9643,0.0],[7.4931,57.9615,0.0],[7.4975,57.9607,1.2092],[7.5014,57.9615,0.0],[7.5008,57.9629,0.0]]],
[[[7.5342,57.9679,2.0379],[7.5336,57.9693,0.0],[7.5292,57.9693,0.0],[7.5242,57.9657,2.0261],[7.5242,57.964,2.9716],[7.5308,57.9635,0.0],[7.5342,57.9679,2.0379]]],
[[[7.5425,57.9665,0.0],[7.5419,57.9707,0.0],[7.5381,57.9701,0.0],[7.5397,57.9668,0.0],[7.5425,57.9665,0.0]]],
[[[7.5003,57.9718,1.9583],[7.4903,57.9721,0.0],[7.4869,57.9671,0.0],[7.5014,57.966,0.0],[7.5008,57.9676,0.0],[7.5036,57.9704,0.0],[7.5003,57.9718,1.9583]]],
[[[7.5653,57.9743,1.2959],[7.5614,57.9754,5.3442],[7.5619,57.9732,6.2349],[7.5597,57.9718,0.0],[7.5614,57.971,5.4073],[7.5558,57.9693,0.0],[7.5575,57.9665,6.4036],[7.5519,57.9671,0.0],[7.5508,57.9699,1.6192],[7.5464,57.9688,0.0],[7.5469,57.9646,0.0],[7.5553,57.9624,0.5466],[7.5592,57.9632,0.0],[7.5636,57.959,0.0],[7.5714,57.9593,0.2386],[7.5681,57.9618,0.7156],[7.5675,57.9649,0.0],[7.5653,57.9654,1.0294],[7.5664,57.9735,2.249],[7.5653,57.9743,1.2959]]],
[[[7.6142,57.981,6.008],[7.6086,57.9818,9.8639],[7.6075,57.9801,1.7182],[7.6097,57.979,5.9155],[7.6081,57.9785,6.1367],[7.6036,57.9807,0.0],[7.6014,57.9801,0.0],[7.6003,57.9754,0.0],[7.6047,57.9757,2.6151],[7.6047,57.9674,2.0951],[7.6119,57.9676,1.3369],[7.6108,57.9696,0.0],[7.6147,57.9718,0.0],[7.6142,57.976,0.4178],[7.6125,57.9771,8.7681],[7.6186,57.9768,0.0],[7.6186,57.9796,0.9683],[7.6142,57.981,6.008]]],
[[[7.6375,57.9813,0.0],[7.6364,57.9829,0.7912],[7.6314,57.9815,1.7981],[7.6303,57.9765,0.0],[7.6342,57.9771,0.9308],[7.6342,57.9787,0.9308],[7.6369,57.9793,0.5285],[7.6375,57.9813,0.0]]],
[[[7.5786,57.9874,0.0],[7.5742,57.9885,7.5625],[7.5675,57.9871,0.0],[7.5692,57.9868,0.0],[7.5686,57.9846,0.0],[7.5819,57.9807,1.5836],[7.5858,57.9776,0.4193],[7.5881,57.9782,0.0],[7.5842,57.9818,0.0],[7.5919,57.9813,0.0],[7.5897,57.9793,0.0],[7.5908,57.9768,0.0],[7.5958,57.9779,0.0],[7.5931,57.9807,2.095],[7.6008,57.9815,0.0],[7.5981,57.9865,2.5142],[7.5942,57.9871,0.0],[7.5942,57.986,1.7287],[7.5869,57.9849,5.4853],[7.5786,57.9874,0.0]]],
[[[7.6125,57.9857,0.0],[7.6064,57.9863,4.3741],[7.6075,57.989,0.0],[7.6058,57.989,0.0],[7.6014,57.984,0.0],[7.6025,57.9829,0.8063],[7.6058,57.9829,0.0],[7.6064,57.9843,5.3581],[7.6131,57.9835,0.0],[7.6125,57.9857,0.0]]],
[[[7.6197,57.991,0.0],[7.6169,57.9921,0.0],[7.6147,57.991,1.5633],[7.6158,57.9888,0.0],[7.6186,57.9885,2.4402],[7.6158,57.9874,0.0],[7.6158,57.9857,0.0],[7.6231,57.986,0.0],[7.6231,57.9882,0.0],[7.6214,57.9882,0.0],[7.6219,57.9901,0.0],[7.6197,57.991,0.0]]],
[[[7.6425,57.9918,1.7659],[7.6392,57.9926,0.0],[7.6381,57.9912,0.0],[7.6419,57.9868,0.9467],[7.6469,57.9863,0.3963],[7.6475,57.9899,2.3678],[7.6425,57.9918,1.7659]]],
[[[7.5647,57.9982,15.5636],[7.5636,58.0015,0.8539],[7.5597,58.001,0.3517],[7.5569,57.9963,0.0],[7.5592,57.9951,9.1514],[7.5581,57.9929,0.0],[7.5597,57.9915,4.9387],[7.5558,57.991,0.0],[7.5553,57.9888,0.0],[7.5614,57.9882,3.6322],[7.5608,57.9854,0.0],[7.5669,57.9876,2.4548],[7.5664,57.9918,2.1393],[7.5631,57.9924,3.0627],[7.5675,57.9921,0.0],[7.5681,57.9938,2.3741],[7.5708,57.9932,0.6773],[7.5703,57.9915,0.0],[7.5725,57.9904,0.0],[7.5775,57.9915,0.0],[7.5886,57.9888,3.6939],[7.6008,57.9885,0.0],[7.6064,57.9899,0.0],[7.5958,57.9951,4.853],[7.5886,57.9938,0.929],[7.5819,57.9974,0.0],[7.5836,57.9999,1.1661],[7.5814,58.0004,11.4725],[7.5697,57.9999,10.7839],[7.5692,57.9965,0.0],[7.5675,57.9957,0.0],[7.5647,57.9982,15.5636]]],
[[[7.6619,57.9999,4.9814],[7.6564,58.0004,0.0],[7.6558,57.9965,0.0],[7.6619,57.9954,0.0],[7.6619,57.9965,2.13],[7.6647,57.9965,0.0],[7.6653,57.9979,0.0],[7.6619,57.9999,4.9814]]],
[[[7.6519,58.0,0.0],[7.6447,58.0007,0.0],[7.6436,57.9987,0.0],[7.6492,57.9968,0.0],[7.6542,57.9971,0.0],[7.6519,57.9982,0.0],[7.6519,58.0,0.0]]],
[[[7.6214,58.0013,0.0],[7.6153,58.0024,0.0],[7.6097,58.001,0.6971],[7.6092,57.9996,0.0],[7.6242,57.9999,0.0],[7.6214,58.0013,0.0]]],
[[[7.5642,57.9785,2.2832],[7.5558,57.9804,5.2233],[7.5508,57.9782,0.0],[7.5514,57.976,20.5015],[7.5497,57.974,2.3544],[7.5536,57.9732,0.0],[7.5575,57.9768,0.0],[7.5636,57.9763,0.0],[7.5642,57.9785,2.2832]]],
[[[7.4381,57.9943,3.3427],[7.4325,57.9957,0.0213],[7.4331,57.9926,0.5856],[7.4364,57.9921,6.5084],[7.4342,57.9876,3.391],[7.4381,57.9874,1.7718],[7.4414,57.991,3.3115],[7.4381,57.9943,3.3427]]],
[[[7.4947,57.9963,4.334],[7.4953,57.9976,0.0],[7.4892,57.9976,0.0],[7.4869,57.9951,3.3947],[7.4847,57.9951,0.0],[7.4831,57.9921,0.0],[7.4869,57.9912,0.0],[7.4892,57.9885,0.0],[7.4919,57.9885,0.0],[7.4947,57.9912,0.7776],[7.4947,57.9963,4.334]]],
[[[7.5508,58.004,0.0],[7.5436,58.0049,2.7858],[7.5408,58.0038,0.0],[7.5531,58.0015,4.3112],[7.5508,57.9996,0.0],[7.5525,57.9982,0.0],[7.5564,57.9982,0.0],[7.5597,58.0026,0.0],[7.5581,58.0043,0.0],[7.5531,58.0029,2.9093],[7.5508,58.004,0.0]]],
[[[7.4264,57.9946,1.273],[7.4208,57.9957,0.0],[7.4203,57.9929,0.0],[7.4264,57.991,0.5717],[7.4281,57.9938,0.0],[7.4264,57.9946,1.273]]],
[[[7.4058,57.9982,0.1265],[7.3975,57.9987,6.758],[7.3942,57.9976,0.0],[7.3942,57.9963,0.0],[7.4019,57.9946,0.0],[7.4042,57.9957,4.4242],[7.4036,57.9971,0.0],[7.4064,57.9968,0.0],[7.4058,57.9982,0.1265]]],
[[[7.4253,57.999,2.6431],[7.4214,57.9999,2.6431],[7.4192,57.9976,0.8007],[7.4247,57.9968,0.0],[7.4253,57.999,2.6431]]],
[[[7.3086,58.0004,0.1783],[7.3097,58.0015,4.8638],[7.3042,58.001,7.0449],[7.3069,57.9993,0.1783],[7.3086,58.0004,0.1783]]],
[[[7.3864,58.0038,0.0],[7.3858,58.0051,1.5356],[7.3803,58.0051,3.9436],[7.3786,58.0035,0.0],[7.3825,58.0038,5.0209],[7.3869,58.0018,0.0],[7.3864,58.0038,0.0]]],
[[[7.3992,58.004,0.0],[7.3975,58.0049,0.2005],[7.3975,58.0068,0.0],[7.3931,58.0049,1.1071],[7.3969,58.004,0.2005],[7.3969,58.0024,1.3775],[7.4003,58.0004,0.0],[7.4053,58.0004,0.0],[7.4053,58.0018,0.0],[7.3992,58.004,0.0]]],
[[[7.3364,58.0215,2.1591],[7.3303,58.0224,0.0],[7.3253,58.0201,0.0],[7.3281,58.0179,0.0],[7.3325,58.0187,0.0],[7.3414,58.0163,12.0544],[7.3442,58.0121,0.0],[7.3397,58.0118,1.1981],[7.3392,58.0096,2.2933],[7.3442,58.0088,8.8909],[7.3442,58.006,0.0],[7.3497,58.0033,13.5035],[7.3453,58.0021,0.0],[7.3414,58.0043,0.0],[7.3381,58.004,0.0],[7.3369,58.0026,1.0864],[7.3414,58.001,8.0094],[7.3408,57.9993,1.5181],[7.3342,58.0021,0.0],[7.3247,58.0026,0.0],[7.3286,58.0004,4.6953],[7.3231,57.9982,0.0],[7.3231,57.9963,0.0],[7.3275,57.9974,2.3965],[7.3292,57.9951,0.0],[7.3369,57.994,3.9432],[7.3381,57.9935,0.7617],[7.3375,57.9899,0.0],[7.3397,57.9879,0.0],[7.3453,57.9871,0.0],[7.3508,57.9896,0.0],[7.3492,57.9912,2.6483],[7.3408,57.9932,0.9722],[7.3481,57.9943,0.0],[7.3486,57.9971,0.3359],[7.3558,57.9965,0.0],[7.3558,57.9996,0.0],[7.3514,57.9996,1.2419],[7.3531,58.0004,1.2419],[7.3525,58.0018,0.0],[7.3547,58.0018,5.7962],[7.3647,57.9979,1.4595],[7.3686,57.9943,0.0],[7.3808,57.9899,0.0],[7.3881,57.9915,0.0],[7.3875,57.9932,0.0],[7.3825,57.9949,4.93],[7.3742,57.9949,3.9461],[7.3753,57.9976,0.0],[7.3736,57.9985,9.5671],[7.3731,58.0038,0.0],[7.3675,58.0035,21.3763],[7.3647,58.0051,13.7462],[7.3669,58.0057,4.3459],[7.3775,58.0043,0.0],[7.3758,58.0057,1.2164],[7.3769,58.0082,0.0],[7.3753,58.0101,0.4384],[7.3564,58.016,4.8251],[7.3553,58.0176,1.1452],[7.3592,58.0179,0.0],[7.3542,58.021,0.0],[7.3431,58.0196,7.7062],[7.3364,58.0215,2.1591]]],
[[[7.4342,58.0085,3.1973],[7.4336,58.0096,0.0],[7.4275,58.0088,0.0],[7.4397,58.0051,0.0],[7.4397,58.0065,2.2305],[7.4342,58.0085,3.1973]]],
[[[7.3892,58.0118,2.5128],[7.3875,58.0132,0.7307],[7.3864,58.011,2.5128],[7.3903,58.0104,0.0],[7.3892,58.0118,2.5128]]],
[[[7.3325,58.0163,1.0863],[7.3281,58.0174,0.0],[7.3281,58.0157,0.0],[7.3308,58.0143,0.0],[7.3331,58.0146,0.0],[7.3325,58.0163,1.0863]]],
[[[7.3292,58.0254,0.0],[7.3319,58.0262,0.4826],[7.3253,58.0268,0.0],[7.3281,58.0251,0.0],[7.3292,58.0254,0.0]]],
[[[7.4481,58.004,0.4655],[7.4436,58.0032,0.0],[7.4453,58.0015,0.0],[7.4503,58.0015,0.0],[7.4508,58.0035,0.0],[7.4481,58.004,0.4655]]],
[[[7.4881,58.0093,0.0],[7.4881,58.0104,0.0],[7.4808,58.0101,0.0],[7.4808,58.0088,0.0],[7.4831,58.0085,0.0],[7.4831,58.0054,8.4403],[7.4797,58.0035,0.0],[7.4892,58.0024,0.0],[7.4881,58.0038,8.1492],[7.4919,58.0057,0.0],[7.4858,58.0076,0.3627],[7.4881,58.0093,0.0]]],
[[[7.3401,58.0521,89.1952],[7.3234,58.0504,132.8899],[7.325,58.046,123.5368],[7.3197,58.0455,9.8231],[7.3236,58.0446,17.01],[7.3242,58.0385,0.0],[7.3269,58.0379,15.2649],[7.3275,58.0363,0.0],[7.3347,58.0374,2.6523],[7.3314,58.0349,0.0],[7.3325,58.0307,0.0],[7.3419,58.0265,0.0],[7.3497,58.0268,7.8404],[7.3542,58.0246,0.0],[7.3608,58.024,2.7123],[7.3603,58.0229,0.0],[7.3647,58.0238,23.5227],[7.3653,58.0201,0.0],[7.3697,58.0187,0.0],[7.3803,58.0185,15.0854],[7.3819,58.0168,0.0],[7.3897,58.0174,7.5667],[7.3914,58.0149,3.5393],[7.3892,58.0143,0.0],[7.4008,58.011,6.7084],[7.4042,58.0074,0.0],[7.4114,58.0071,0.0],[7.4142,58.009,7.3296],[7.4225,58.0079,0.9224],[7.4236,58.0101,5.6295],[7.4264,58.0107,2.177],[7.4208,58.0143,4.0353],[7.4097,58.0154,29.3424],[7.4081,58.0168,9.8294],[7.4047,58.0165,5.3307],[7.4108,58.0135,2.0986],[7.4097,58.0115,16.6929],[7.4025,58.0121,9.3224],[7.4042,58.0126,1.5514],[7.4036,58.016,5.3307],[7.3953,58.0201,8.979],[7.3975,58.0204,0.0],[7.4008,58.0199,0.8268],[7.4058,58.0176,7.4172],[7.4142,58.0168,0.0],[7.4186,58.0196,3.133],[7.4236,58.0196,1.3572],[7.4258,58.0213,0.7736],[7.4231,58.0229,0.2977],[7.4125,58.0232,3.0874],[7.4047,58.0268,31.7633],[7.4092,58.0274,12.1647],[7.4097,58.0257,10.4127],[7.4131,58.0249,0.0],[7.4203,58.0254,0.0],[7.4097,58.0293,13.2558],[7.4192,58.0296,4.8092],[7.4236,58.0279,0.0],[7.4247,58.0301,2.6583],[7.4281,58.0296,2.5681],[7.4286,58.0285,1.6737],[7.4236,58.0254,0.0],[7.4331,58.0224,10.7111],[7.4314,58.0207,1.2827],[7.4275,58.0215,4.0365],[7.4258,58.0201,0.0],[7.4303,58.0196,3.9349],[7.4308,58.0143,0.0],[7.4408,58.014,4.0974],[7.4397,58.0121,0.0],[7.4414,58.0107,2.2129],[7.4447,58.0113,0.0],[7.4408,58.0154,4.0974],[7.4453,58.0163,0.0],[7.4425,58.0182,26.0472],[7.4525,58.0207,3.6092],[7.4575,58.0207,2.0398],[7.4564,58.0185,0.0],[7.4614,58.0163,0.0],[7.4636,58.0163,0.6634],[7.4642,58.0187,13.038],[7.4686,58.0176,0.0],[7.4703,58.019,7.4578],[7.4764,58.0185,0.0],[7.4769,58.0171,1.7387],[7.4742,58.0169,0.0],[7.4708,58.0118,0.0],[7.4725,58.011,0.0],[7.4853,58.0121,0.0],[7.4814,58.0135,1.9428],[7.4831,58.0179,0.0],[7.4775,58.0185,1.7387],[7.4781,58.0213,0.0],[7.4825,58.019,23.9642],[7.4886,58.019,15.314],[7.4892,58.0165,6.7948],[7.4936,58.0157,13.0942],[7.5031,58.0187,12.5799],[7.5025,58.0174,12.5799],[7.5042,58.0163,44.7182],[7.5008,58.0157,0.0],[7.4992,58.0121,0.0],[7.5025,58.0093,11.9451],[7.4992,58.0088,0.0],[7.4986,58.0062,0.0],[7.5092,58.0049,0.0],[7.5114,58.0029,4.1855],[7.5053,58.0038,0.0],[7.5025,58.0026,0.0],[7.5014,57.9999,4.5254],[7.4981,57.9999,1.2245],[7.4958,57.994,0.0],[7.4964,57.9915,0.0],[7.4981,57.9901,0.0],[7.5042,57.9907,3.0438],[7.5025,57.9868,0.0],[7.5053,57.9846,0.0],[7.5092,57.9854,0.0],[7.5075,57.9813,0.0],[7.5114,57.9771,0.0],[7.5203,57.979,6.5172],[7.5186,57.9771,0.0],[7.5192,57.9743,0.0],[7.5258,57.9746,0.0],[7.5264,57.9735,0.0],[7.5347,57.974,0.0],[7.5331,57.9768,0.0],[7.5419,57.9785,0.0],[7.5425,57.9815,7.1552],[7.5375,57.9826,9.6396],[7.5414,57.9829,1.0858],[7.5436,57.9868,0.0],[7.5458,57.9871,0.0],[7.5431,57.9893,0.0],[7.5353,57.9893,1.2935],[7.5336,57.9871,0.6523],[7.5347,57.9901,1.2935],[7.5419,57.9912,0.0],[7.5436,57.9893,0.0],[7.5464,57.9893,0.0],[7.5508,57.9918,1.1268],[7.5414,57.9957,0.0],[7.5469,57.9968,0.0],[7.5453,57.9979,0.0],[7.5331,57.9987,8.5027],[7.5297,58.001,0.8359],[7.5242,58.0004,29.7011],[7.5147,58.0038,4.3784],[7.5192,58.0046,1.8863],[7.5186,58.0068,0.0],[7.5225,58.0051,0.0],[7.5303,58.0051,0.0],[7.5308,58.0076,6.3984],[7.5331,58.0076,1.8221],[7.5331,58.0057,0.9108],[7.5347,58.0054,0.0],[7.5369,58.0079,2.3508],[7.5392,58.0057,6.2364],[7.5486,58.0057,8.1708],[7.5525,58.0076,0.0],[7.5442,58.0088,6.3273],[7.5508,58.0093,11.8719],[7.5575,58.0093,2.817],[7.5619,58.0074,7.0403],[7.5825,58.0079,3.6722],[7.5803,58.0065,2.1496],[7.5808,58.0043,0.6506],[7.5753,58.0068,27.3885],[7.5697,58.0065,8.4104],[7.5692,58.0051,0.0],[7.5708,58.0032,0.0],[7.5814,58.0029,0.7556],[7.5847,58.0007,7.6076],[7.5981,58.0007,0.795],[7.5986,58.0021,0.0],[7.5964,58.0038,13.0736],[7.6042,58.0051,0.0],[7.6047,58.0065,0.0],[7.5964,58.0068,18.915],[7.5936,58.0046,16.4648],[7.5925,58.0065,0.0],[7.5953,58.0082,0.0],[7.5925,58.0093,1.0085],[7.6008,58.011,6.526],[7.6053,58.0101,0.0],[7.6081,58.0121,11.5414],[7.6186,58.0082,0.0],[7.6269,58.0101,0.0],[7.6258,58.0082,0.0],[7.6269,58.0074,0.0],[7.6331,58.0074,0.0],[7.6369,58.0099,0.7905],[7.6375,58.0124,2.8537],[7.6408,58.0124,0.2568],[7.6392,58.014,0.8796],[7.6286,58.0126,2.2143],[7.6297,58.0146,1.1589],[7.6342,58.0143,3.9718],[7.6364,58.016,3.1316],[7.6275,58.0182,4.2167],[7.6225,58.0168,2.9174],[7.6231,58.0151,3.742],[7.6203,58.0146,0.9622],[7.6186,58.0124,9.1201],[7.6136,58.0151,11.9692],[7.6308,58.021,7.014],[7.6347,58.0176,2.9598],[7.6458,58.0171,4.4396],[7.6475,58.0143,0.0],[7.6525,58.0165,8.1946],[7.6519,58.0154,0.0],[7.6553,58.0151,2.0579],[7.6569,58.0132,0.0],[7.6603,58.0146,1.679],[7.6631,58.0124,0.0],[7.6669,58.0132,0.0],[7.6692,58.0118,0.0],[7.6703,58.0129,0.0],[7.6686,58.0149,3.7661],[7.6731,58.0151,0.0],[7.6731,58.0165,0.0],[7.6675,58.0168,1.4001],[7.6531,58.0246,0.8696],[7.6581,58.0249,0.7246],[7.6597,58.0229,0.0],[7.6631,58.0232,0.0],[7.6719,58.0187,0.0],[7.6769,58.0207,0.0],[7.6775,58.0268,0.0],[7.6753,58.0265,5.9907],[7.6758,58.0282,0.0],[7.6814,58.0285,0.0],[7.6814,58.0296,0.0],[7.6753,58.0313,11.8458],[7.6799,58.0349,0.0],[7.679,58.036,19.5548],[7.6663,58.0347,42.5489],[7.6648,58.0391,77.4407],[7.6481,58.0375,104.0086],[7.6465,58.0419,76.6366],[7.6382,58.041,56.1562],[7.6378,58.0422,15.0194],[7.64,58.0425,26.0787],[7.6369,58.0446,5.4047],[7.6304,58.0631,75.4559],[7.622,58.0623,73.6068],[7.6205,58.0667,108.1976],[7.6288,58.0675,126.4184],[7.6273,58.0719,135.2944],[7.644,58.0736,140.4545],[7.6378,58.0912,134.5969],[7.6461,58.092,163.4344],[7.643,58.1008,135.2285],[7.6347,58.1,109.6424],[7.6315,58.1088,154.767],[7.6232,58.108,214.7028],[7.6216,58.1124,220.8117],[7.6132,58.1116,208.723],[7.6117,58.116,195.8763],[7.5949,58.1143,170.8051],[7.5934,58.1187,171.5429],[7.585,58.1179,167.4753],[7.5819,58.1267,117.2502],[7.5735,58.1259,131.5468],[7.5625,58.1567,94.7142],[7.5542,58.1559,26.1511],[7.5526,58.1603,20.085],[7.5358,58.1586,124.371],[7.5343,58.163,153.6897],[7.4672,58.1563,251.8555],[7.4688,58.1519,262.8184],[7.4604,58.1511,250.9308],[7.4668,58.1334,272.3079],[7.4584,58.1326,261.3078],[7.46,58.1282,251.4919],[7.4516,58.1273,298.83],[7.4532,58.1229,239.2127],[7.4448,58.1221,256.4051],[7.4464,58.1177,271.3548],[7.4046,58.1134,195.4252],[7.4094,58.1002,257.1293],[7.401,58.0994,164.1787],[7.4042,58.0906,242.8975],[7.3958,58.0897,183.2327],[7.3974,58.0853,179.0674],[7.4057,58.0862,174.0859],[7.4089,58.0774,203.0829],[7.4006,58.0765,128.4235],[7.4022,58.0721,95.8362],[7.3938,58.0713,90.7082],[7.3954,58.0669,114.9879],[7.3703,58.0643,55.026],[7.3719,58.0599,60.1759],[7.3636,58.0591,17.0],[7.362,58.0635,74.5884],[7.3453,58.0618,85.194],[7.3469,58.0574,126.3621],[7.3385,58.0565,112.458],[7.3401,58.0521,89.1952]]]]}}