{"type": "Feature","bbox": [21.1813,69.4736,22.8833,70.2232],"geometry": {"type": "MultiPolygon","coordinates": [[[[21.9917,69.8021,0.0],[21.9854,69.8021,0.0],[21.9813,69.8042,0.0],[21.9729,69.8042,0.0],[21.9687,69.8021,9.7344],[21.9625,69.8042,0.0],[21.9589,69.8036,0.0],[21.962,69.8016,4.2844],[21.9609,69.7984,0.0],[21.975,69.7917,0.0],[21.9917,69.7917,0.0],[22.0062,69.7875,0.0],[22.0161,69.788,0.0],[22.012,69.7911,12.0127],[22.0042,69.7917,10.1618],[21.9943,69.7963,0.0],[21.9922,69.7984,0.0],[21.9932,69.8016,0.0],[21.9917,69.8021,0.0]]],
[[[22.2008,70.0247,179.6562],[22.2032,70.0472,435.4558],[22.1901,70.0474,348.2852],[22.191,70.0564,555.0545],[22.1779,70.0566,629.8543],[22.1793,70.0701,928.9702],[22.1662,70.0702,863.1138],[22.1671,70.0792,844.6166],[22.154,70.0794,863.7178],[22.1549,70.0884,669.4991],[22.1418,70.0886,640.0844],[22.1427,70.0976,495.5147],[22.1295,70.0977,483.2264],[22.1304,70.1067,799.3524],[22.1173,70.1069,715.0389],[22.1187,70.1204,1028.5408],[22.1055,70.1205,937.925],[22.1082,70.1476,995.9274],[22.0951,70.1477,983.6804],[22.0955,70.1522,1031.8324],[22.0823,70.1524,1010.3134],[22.0832,70.1614,1097.9087],[22.0437,70.1618,1120.5035],[22.0441,70.1663,1160.4707],[22.031,70.1665,1121.891],[22.0301,70.1575,1079.7512],[22.0169,70.1576,1071.516],[22.0161,70.1486,964.9282],[22.0029,70.1487,788.0963],[22.0025,70.1442,836.6684],[21.9893,70.1444,669.3947],[21.9889,70.1399,616.0934],[21.9625,70.1401,493.6937],[21.963,70.1446,776.72],[21.9235,70.1451,858.2101],[21.9239,70.1496,816.0988],[21.9107,70.1497,949.2469],[21.9099,70.1407,985.0858],[21.8967,70.1408,735.5842],[21.8959,70.1318,213.075],[21.8827,70.1319,263.63869999999997],[21.8819,70.1229,593.4853],[21.8688,70.123,611.7162],[21.868,70.114,887.7438],[21.8548,70.1142,564.6869],[21.8544,70.1097,597.111],[21.8413,70.1098,428.5113],[21.8409,70.1053,415.2165],[21.8146,70.1055,743.0299],[21.8142,70.101,604.1448],[21.8011,70.1012,475.0406],[21.8019,70.1102,787.4461],[21.7887,70.1103,483.0942],[21.7895,70.1193,788.4124],[21.75,70.1197,927.512],[21.7504,70.1242,752.9192],[21.7241,70.1244,873.2197],[21.7248,70.1334,971.459],[21.7117,70.1336,966.7712],[21.7124,70.1426,1013.1378],[21.6992,70.1427,938.5943],[21.6996,70.1472,748.8761],[21.6864,70.1473,743.7955],[21.6868,70.1518,852.8134],[21.6736,70.1519,843.9961],[21.674,70.1565,466.9808],[21.6608,70.1566,860.4708],[21.6612,70.1611,879.0943],[21.648,70.1612,790.0094],[21.6483,70.1657,535.3246],[21.622,70.1659,397.6138],[21.6223,70.1704,444.8343],[21.6091,70.1705,262.4954],[21.6109,70.1931,257.396],[21.5317,70.1937,739.1258],[21.5314,70.1892,558.0804],[21.5182,70.1893,175.932],[21.5178,70.1848,159.6093],[21.4123,70.1857,638.489],[21.4126,70.1902,625.9038],[21.3862,70.1904,651.7761],[21.3865,70.1949,664.5096],[21.3601,70.1951,540.1959],[21.3604,70.1996,385.542],[21.334,70.1998,175.3253],[21.3343,70.2043,155.9382],[21.3078,70.2045,288.5475],[21.3081,70.209,337.0809],[21.2685,70.2092,421.6413],[21.2688,70.2137,324.4107],[21.2423,70.2139,97.2472],[21.2426,70.2184,153.5079],[21.203,70.2187,98.5712],[21.2032,70.2232,0.0],[21.1813,70.2229,0.0],[21.1896,70.2229,0.0],[21.1953,70.2203,41.0483],[21.1901,70.2141,28.0876],[21.1932,70.2109,41.369],[21.1901,70.2068,17.9628],[21.1958,70.2042,41.5351],[21.2042,70.2042,0.0],[21.2104,70.2083,0.0],[21.2203,70.2078,53.6312],[21.2172,70.2047,0.0],[21.2286,70.1995,0.0],[21.2276,70.1964,39.1188],[21.2333,70.1937,0.0],[21.25,70.1917,31.6153],[21.2557,70.1891,18.3408],[21.2526,70.1839,10.059],[21.2599,70.1797,15.1137],[21.2578,70.1776,181.7314],[21.2521,70.1771,67.717],[21.2505,70.1755,0.0],[21.2563,70.1729,0.0],[21.262,70.1724,53.5219],[21.2609,70.1693,0.0],[21.2687,70.1687,0.0],[21.2771,70.1646,38.1609],[21.2849,70.1641,89.2949],[21.2839,70.1609,0.0],[21.2854,70.1604,0.0],[21.2979,70.1604,0.0],[21.3021,70.1583,0.0],[21.3208,70.1583,33.9216],[21.325,70.1563,0.0],[21.3563,70.1563,0.0],[21.3625,70.1583,29.79],[21.3688,70.1563,0.0],[21.3729,70.1583,12.2817],[21.3958,70.1583,0.0],[21.4167,70.1646,0.0],[21.4396,70.1646,0.0],[21.4458,70.1687,0.0],[21.4562,70.1687,0.0],[21.4708,70.1729,0.0],[21.4724,70.1724,0.0],[21.4714,70.1693,0.0],[21.4724,70.1672,0.0],[21.462,70.1568,0.0],[21.4396,70.1521,0.0],[21.4333,70.1479,152.7957],[21.4214,70.1474,65.6297],[21.4255,70.1443,374.3755],[21.4333,70.1438,333.9456],[21.4349,70.1422,417.725],[21.425,70.1417,450.9662],[21.4208,70.1438,367.0099],[21.4125,70.1438,173.344],[21.4089,70.1412,0.0],[21.4328,70.1286,66.3554],[21.4318,70.1255,0.0],[21.4495,70.1162,67.7001],[21.4484,70.113,0.0],[21.4557,70.1099,100.3408],[21.4505,70.1036,0.0],[21.4547,70.1005,0.0],[21.4625,70.1,59.2129],[21.4708,70.0958,13.1497],[21.4813,70.0958,35.9893],[21.4896,70.0917,0.0],[21.4979,70.0938,53.9877],[21.5042,70.0917,0.0],[21.5104,70.0938,30.2346],[21.5146,70.0917,0.0],[21.5333,70.0917,59.8273],[21.5396,70.0896,0.0],[21.5438,70.0917,28.6953],[21.562,70.0922,0.0],[21.5672,70.0974,1.7061],[21.5745,70.0984,0.0],[21.5818,70.1057,0.0],[21.5854,70.1062,0.0],[21.5974,70.0995,0.0],[21.5953,70.0964,0.0],[21.588,70.0953,0.0],[21.5859,70.0922,0.0],[21.5891,70.0911,0.0],[21.588,70.088,0.0],[21.5911,70.087,107.1466],[21.5901,70.0839,0.0],[21.5995,70.0828,70.3035],[21.5984,70.0797,0.0],[21.6063,70.0792,0.0],[21.6292,70.0729,0.0],[21.6354,70.0729,0.0],[21.6396,70.0708,0.0],[21.6458,70.0708,29.2472],[21.6542,70.0667,0.0],[21.6667,70.0667,14.1999],[21.6792,70.0625,0.0],[21.6854,70.0625,0.0],[21.6938,70.0583,0.0],[21.7,70.0583,0.0],[21.7068,70.0547,0.0],[21.7146,70.0542,0.0],[21.7188,70.0521,0.0],[21.7583,70.0542,0.0],[21.7792,70.0604,0.0],[21.8021,70.0604,0.0],[21.8203,70.0651,0.0],[21.8224,70.0682,0.0],[21.8141,70.0724,0.0],[21.8063,70.0729,66.1507],[21.8005,70.0755,31.2815],[21.8057,70.0797,0.0],[21.8026,70.0828,0.0],[21.8099,70.0839,0.0],[21.8068,70.0859,0.0],[21.8083,70.0875,0.0],[21.8161,70.0849,0.0],[21.8151,70.0776,0.0],[21.8229,70.0771,0.0],[21.8297,70.0734,0.0],[21.8375,70.0729,0.0],[21.8417,70.0708,0.0],[21.8771,70.0729,0.0],[21.8813,70.075,0.0],[21.8958,70.075,0.0],[21.9,70.0771,7.1252],[21.9063,70.075,0.0],[21.9521,70.075,0.0],[21.9568,70.0787,0.0],[21.9641,70.0797,0.0],[21.9693,70.0849,0.0],[21.9766,70.0859,0.0],[21.9786,70.0891,0.0],[21.9755,70.0911,0.0],[21.987,70.0901,0.0],[21.9953,70.0984,0.0],[21.9922,70.1016,4.3426],[21.9958,70.1021,0.0],[22.0042,70.0979,0.0],[22.0125,70.0979,0.0],[22.025,70.1021,0.0],[22.0354,70.1021,0.0],[22.0516,70.1172,0.0],[22.0505,70.1203,0.0],[22.0625,70.1229,0.0],[22.0661,70.1203,0.0],[22.0526,70.1057,0.0],[22.0557,70.1026,0.0],[22.0255,70.0974,0.0],[22.0203,70.0922,0.0],[22.013,70.0911,0.0],[22.0057,70.0839,0.0],[21.9984,70.0828,0.0],[21.9922,70.0787,0.0],[21.9953,70.0755,0.0],[21.9917,70.0729,0.0],[21.9833,70.075,0.0],[21.975,70.0687,10.2788],[21.9646,70.0687,0.0],[21.9604,70.0667,0.0],[21.9458,70.0667,0.0],[21.9417,70.0646,0.0],[21.9354,70.0667,0.0],[21.9271,70.0667,0.0],[21.9255,70.0651,0.0],[21.9286,70.0641,0.0],[21.9271,70.0625,0.0],[21.9063,70.0646,0.0],[21.9,70.0625,0.0],[21.8833,70.0708,0.0],[21.8771,70.0687,0.0],[21.8667,70.0687,0.0],[21.8604,70.0646,0.0],[21.8438,70.0687,0.0],[21.8422,70.0672,0.0],[21.8474,70.0641,0.0],[21.8453,70.0609,0.0],[21.8297,70.0578,0.0],[21.837,70.0537,0.0],[21.8349,70.0505,0.0],[21.8104,70.05,0.0],[21.8089,70.0484,0.0],[21.8167,70.0479,0.0],[21.8182,70.0463,0.0],[21.8,70.0458,0.0],[21.7984,70.0443,0.0],[21.8016,70.0422,21.2917],[21.7896,70.0417,0.0],[21.7849,70.038,90.7448],[21.7776,70.037,15.6124],[21.7755,70.0349,0.0],[21.7854,70.0292,0.0],[21.7979,70.0292,155.1261],[21.8089,70.0234,0.0],[21.8161,70.0224,0.0],[21.8255,70.0172,0.0],[21.8333,70.0167,3.5004],[21.8401,70.013,0.0],[21.8479,70.0125,0.0],[21.8521,70.0104,0.0],[21.8583,70.0125,27.7455],[21.8625,70.0104,0.0],[21.8896,70.0104,0.0],[21.8958,70.0125,30.4396],[21.9,70.0104,0.0],[21.9208,70.0104,0.0],[21.9333,70.0146,0.0],[21.9667,70.0146,0.0],[21.9766,70.0172,0.0],[21.9833,70.0229,0.0],[21.9896,70.0208,0.0],[21.9979,70.0229,0.0],[22.0042,70.0208,0.0],[22.0104,70.025,0.0],[22.0208,70.025,0.0],[22.0333,70.0292,19.6273],[22.0396,70.0271,0.0],[22.0604,70.0271,0.0],[22.0646,70.0292,0.0],[22.0828,70.0307,4.78],[22.0786,70.0276,0.0],[22.0714,70.0266,0.0],[22.0682,70.0234,0.0],[22.0583,70.0208,0.0],[22.0229,70.0188,0.0],[22.0047,70.0141,0.0],[22.0026,70.012,0.0],[22.0042,70.0104,0.0],[22.012,70.0099,0.0],[22.0089,70.0068,0.0],[22.0172,70.0026,0.0],[22.0266,70.0016,0.0],[22.0255,69.9984,0.0],[22.0349,69.9974,8.4918],[22.0318,69.9922,0.0],[22.0375,69.9917,0.0],[22.0432,69.9891,0.0],[22.0422,69.9859,3.245],[22.0453,69.9849,20.0241],[22.0438,69.9833,24.340699999999998],[22.038,69.9828,0.0],[22.0339,69.9786,0.0],[22.037,69.9766,0.0],[22.0339,69.9714,0.0],[22.037,69.9703,0.0],[22.0359,69.9672,0.0],[22.037,69.9651,0.0],[22.0318,69.9599,0.0],[22.0349,69.9568,13.6736],[22.0318,69.9526,0.0],[22.0453,69.9453,0.0],[22.037,69.9359,0.0],[22.0333,69.9354,0.0],[22.025,69.9396,0.0],[22.0083,69.9396,7.9089],[22.0042,69.9417,0.0],[21.9859,69.9443,0.0],[21.9875,69.9458,0.0],[21.9979,69.9458,0.0],[22.0026,69.9495,2.7968],[22.0099,69.9505,0.0],[22.0005,69.9537,17.3768],[22.0078,69.9547,0.0],[22.0099,69.9568,0.0],[22.0089,69.9599,1.3706],[22.0182,69.9703,0.0],[22.0089,69.9714,16.2805],[22.012,69.9755,0.0],[22.0089,69.9786,10.2415],[22.012,69.9828,0.0],[22.0057,69.987,0.0],[21.9979,69.9875,121.8252],[21.9938,69.9896,89.9991],[21.9688,69.9896,216.6977],[21.9646,69.9917,78.1269],[21.9583,69.9896,169.1733],[21.9521,69.9917,0.0],[21.9479,69.9896,125.2091],[21.9375,69.9896,12.0546],[21.9146,69.9812,405.1426],[21.8693,69.9786,0.0],[21.8724,69.9755,0.0],[21.8693,69.9714,0.0],[21.8807,69.9661,0.0],[21.888,69.9609,0.0],[21.8958,69.9604,25.4632],[21.9,69.9583,0.0],[21.9125,69.9583,41.9331],[21.9141,69.9578,12.3719],[21.913,69.9547,0.0],[21.9208,69.9542,0.0],[21.9224,69.9526,5.2842],[21.9151,69.9516,0.0],[21.9104,69.9479,1.88],[21.9042,69.95,0.0],[21.8896,69.95,0.0],[21.888,69.9484,0.0],[21.8911,69.9464,0.0],[21.8891,69.9443,88.0661],[21.8708,69.9437,20.2442],[21.863,69.937,8.1531],[21.8661,69.9349,22.1451],[21.8651,69.9276,0.0],[21.8745,69.9266,36.8825],[21.8734,69.9234,0.0],[21.8766,69.9224,0.0],[21.8755,69.9193,0.0],[21.8786,69.9182,23.4154],[21.8755,69.913,0.0],[21.8786,69.9109,9.4575],[21.8729,69.9104,0.0],[21.8714,69.9089,0.0],[21.8833,69.9083,50.9096],[21.8891,69.9057,20.6405],[21.888,69.9026,0.0],[21.8911,69.9005,0.0],[21.8859,69.8943,0.0],[21.8932,69.8912,1.4592],[21.8901,69.8859,8.4294],[21.8937,69.8833,0.0],[21.9016,69.8828,18.7704],[21.9005,69.8797,0.0],[21.9078,69.8766,30.2255],[21.9068,69.8734,0.0],[21.9146,69.8729,0.0],[21.9188,69.8708,0.0],[21.9292,69.8708,0.0],[21.9333,69.8688,0.0],[21.9583,69.8688,16.0397],[21.9708,69.8646,0.0],[21.9792,69.8667,0.0],[21.9938,69.8625,0.0],[22.0,69.8625,0.0],[22.0224,69.8536,0.0],[22.0214,69.8505,0.0],[22.0245,69.8495,0.0],[22.0224,69.8464,0.0],[22.0151,69.8453,0.0],[22.0104,69.8417,5.0842],[21.9896,69.8417,0.0],[21.9854,69.8438,0.0],[21.9792,69.8438,0.0],[21.9776,69.8432,0.0],[21.9786,69.8401,0.0],[21.9771,69.8396,0.0],[21.9396,69.8396,0.0],[21.9313,69.8438,0.0],[21.9146,69.8438,2.0108],[21.8937,69.85,0.0],[21.8922,69.8484,0.0],[21.8953,69.8464,0.0],[21.8859,69.8359,0.0],[21.8917,69.8333,0.0],[21.8974,69.8328,0.0],[21.8964,69.8297,0.0],[21.8979,69.8292,0.0],[21.9042,69.8292,1.4219],[21.9083,69.8271,0.0],[21.9266,69.8245,24.7937],[21.9286,69.8224,27.0727],[21.9276,69.8193,0.0],[21.937,69.8182,15.4866],[21.9359,69.8151,0.0],[21.9375,69.8146,0.0],[21.95,69.8146,21.0954],[21.9562,69.8125,0.0],[21.9661,69.8151,0.0],[21.9682,69.8182,0.0],[21.9651,69.8203,0.0],[21.9672,69.8224,0.0],[21.9708,69.8229,0.0],[21.988,69.813,0.0],[21.9958,69.8125,7.7218],[22.0016,69.8099,14.302],[22.0005,69.8068,0.0],[22.0078,69.8057,0.0],[22.0146,69.8021,0.0],[22.0208,69.8021,5.5552],[22.0292,69.7979,0.0],[22.037,69.7974,26.0314],[22.0443,69.7922,0.0],[22.0536,69.7911,17.1498],[22.0526,69.788,0.0],[22.0604,69.7875,20.759],[22.0672,69.7839,0.0],[22.0745,69.7828,32.4318],[22.0734,69.7797,0.0],[22.0812,69.7792,9.3225],[22.0911,69.7745,34.1072],[22.0896,69.7729,59.527],[22.0776,69.7724,0.0],[22.0807,69.7693,36.2417],[22.0708,69.7667,54.9922],[22.0646,69.7688,0.0],[22.0521,69.7688,28.4713],[22.0458,69.7708,0.0],[22.0417,69.7688,10.0933],[22.0318,69.7682,0.0],[22.0339,69.7651,0.0],[22.0375,69.7646,0.0],[22.0437,69.7667,0.0],[22.0583,69.7625,0.0],[22.0854,69.7604,50.2279],[22.0922,69.7568,0.0],[22.1,69.7562,0.0],[22.1068,69.7526,0.0],[22.1167,69.75,0.0],[22.1292,69.75,9.7699],[22.1391,69.7453,0.0],[22.1375,69.7438,0.0],[22.1318,69.7432,0.0],[22.1286,69.7401,3.442],[22.1188,69.7375,0.0],[22.1042,69.7375,26.9447],[22.1,69.7396,0.0],[22.0917,69.7396,0.0],[22.0875,69.7375,15.2211],[22.0729,69.7375,0.0],[22.0682,69.7338,0.0],[22.0609,69.7328,0.0],[22.0568,69.7286,0.0],[22.0589,69.7255,0.0],[22.062,69.7245,0.0],[22.0604,69.7229,5.282],[22.0526,69.7234,21.5249],[22.0417,69.7292,2.3097],[22.0333,69.7292,0.0],[22.0271,69.725,77.2924],[22.0062,69.725,102.4175],[21.9938,69.7292,0.0],[21.9875,69.7292,43.8597],[21.9833,69.7312,0.0],[21.9688,69.7333,25.5146],[21.9589,69.738,6.138],[21.9604,69.7396,2.1182],[21.9688,69.7396,18.1174],[21.9729,69.7375,0.0],[21.9938,69.7333,0.0],[21.9979,69.7354,0.0],[22.025,69.7354,0.0],[22.0292,69.7375,0.0],[22.0458,69.7375,0.0],[22.0495,69.7412,4.9261],[22.0359,69.7422,0.0],[22.038,69.7453,0.0],[22.0453,69.7464,0.0],[22.0474,69.7495,34.4848],[22.0417,69.7521,0.0],[22.0234,69.7547,39.1067],[22.013,69.7609,12.611],[22.0141,69.7641,1.1351],[22.0109,69.7662,0.0],[22.0139,69.7685,0.0],[22.0203,69.7693,0.0],[22.0224,69.7714,5.6012],[22.0208,69.7729,0.0],[21.9979,69.7708,0.0],[21.9771,69.7646,73.1233],[21.9708,69.7646,85.1796],[21.9693,69.7651,87.2954],[21.9703,69.7682,0.0],[21.9688,69.7688,0.0],[21.9521,69.7708,89.3259],[21.9276,69.7776,77.5164],[21.9328,69.7849,0.0],[21.925,69.7854,24.4758],[21.9193,69.788,22.262],[21.9203,69.7911,0.0],[21.9151,69.7943,48.0706],[21.9161,69.7974,0.0],[21.9089,69.8005,0.0],[21.9099,69.8037,0.0],[21.8953,69.812,0.0],[21.8859,69.813,36.4317],[21.887,69.8161,0.0],[21.8828,69.8182,18.1293],[21.875,69.8187,131.2585],[21.8693,69.8214,142.7048],[21.8745,69.8266,0.0],[21.8714,69.8276,0.0],[21.8724,69.8307,0.0],[21.8693,69.8318,1.9356],[21.8703,69.8349,0.0],[21.8672,69.837,0.0],[21.8813,69.8396,0.0],[21.8828,69.8411,0.0],[21.875,69.8417,1.2785],[21.8708,69.8438,0.0],[21.8417,69.8438,0.0],[21.8333,69.8479,0.0],[21.8208,69.8479,21.2054],[21.8193,69.8484,16.4678],[21.8203,69.8516,0.0],[21.813,69.8526,32.5814],[21.8141,69.8557,0.0],[21.8109,69.8568,0.0],[21.812,69.8599,0.0],[21.7953,69.8682,0.0],[21.788,69.8693,37.7332],[21.7813,69.8729,0.0],[21.7672,69.8734,112.8528],[21.7682,69.8766,5.5331],[21.7625,69.8792,0.0],[21.75,69.8792,52.9911],[21.7443,69.8807,4.9037],[21.7464,69.8776,116.0413],[21.7542,69.8771,65.3463],[21.7599,69.8745,121.1643],[21.7563,69.8729,266.7358],[21.7521,69.875,213.3229],[21.7458,69.875,281.498],[21.7333,69.8792,215.7349],[21.7167,69.8812,204.9012],[21.7125,69.8833,69.6304],[21.7,69.8833,120.2538],[21.6917,69.8875,0.0],[21.6755,69.8901,45.055],[21.6688,69.8938,0.0],[21.6563,69.8938,76.8956],[21.6547,69.8943,76.8956],[21.6557,69.8974,0.0],[21.6396,69.9,0.0],[21.6354,69.9021,0.0],[21.6292,69.9021,35.416],[21.6208,69.9063,0.0],[21.5979,69.9063,7.9543],[21.5896,69.9104,0.0],[21.5818,69.9109,33.2292],[21.5651,69.9193,148.9294],[21.563,69.9213,101.4495],[21.5641,69.9245,20.54],[21.5609,69.9255,26.3723],[21.5661,69.9318,0.0],[21.563,69.9349,3.6136],[21.5651,69.937,0.0],[21.5724,69.938,0.0],[21.5766,69.9422,0.0],[21.5651,69.9484,0.0],[21.5661,69.9516,0.0],[21.5542,69.9521,5.8999],[21.55,69.9542,5.6097],[21.5333,69.9563,0.0],[21.5276,69.9589,0.0],[21.5286,69.962,0.0],[21.5172,69.9682,0.0],[21.5193,69.9703,0.0],[21.5266,69.9714,0.0],[21.5255,69.9745,0.0],[21.5286,69.9786,0.0],[21.5161,69.9849,0.0],[21.4979,69.9875,107.7292],[21.487,69.9932,0.0],[21.4797,69.9943,93.4303],[21.4729,69.9979,0.0],[21.4547,70.0005,7.8231],[21.4505,70.0026,0.0],[21.4516,70.0057,0.0],[21.4443,70.0089,0.0],[21.4474,70.012,0.0],[21.4417,70.0146,0.0],[21.4104,70.0146,0.0],[21.4021,70.0188,0.0],[21.3792,70.0188,0.0],[21.375,70.0208,0.0],[21.3688,70.0188,15.7735],[21.3604,70.0208,23.072],[21.3563,70.0188,44.5488],[21.3292,70.0188,38.2861],[21.3229,70.0208,0.0],[21.3167,70.0167,81.5675],[21.3,70.0167,0.0],[21.2953,70.013,0.0],[21.2854,70.0104,19.2265],[21.2583,70.0104,0.0],[21.2542,70.0083,13.2362],[21.2359,70.0078,0.0],[21.2318,70.0026,0.0],[21.2375,70.0,177.0591],[21.2438,70.0,311.7583],[21.2453,69.9984,376.0387],[21.2255,69.9974,31.6988],[21.2234,69.9943,0.0],[21.2266,69.9922,10.2545],[21.2182,69.9838,0.0],[21.2161,69.9818,11.9069],[21.2089,69.9807,0.0],[21.212,69.9786,0.0],[21.2109,69.9755,4.2398],[21.2141,69.9745,51.1969],[21.2112,69.9706,45.4688],[21.4109,69.9692,848.0212],[21.4106,69.9647,607.4042],[21.4237,69.9646,685.1428],[21.4234,69.9601,538.4869],[21.4495,69.9599,563.4163],[21.448,69.9373,864.3577],[21.461,69.9372,752.1342],[21.4604,69.9282,663.1689],[21.4734,69.9281,904.181],[21.4731,69.9236,790.7863],[21.4861,69.9235,917.6592],[21.4858,69.919,923.6306],[21.4988,69.9189,948.3752],[21.4985,69.9144,828.0233],[21.5116,69.9143,941.4166],[21.5112,69.9098,840.0793],[21.5243,69.9097,969.2686],[21.5239,69.9052,995.7592],[21.537,69.9051,753.0507],[21.5366,69.9006,486.753],[21.5496,69.9005,375.6246],[21.5493,69.8959,393.9097],[21.5884,69.8956,467.8983],[21.588,69.8911,618.6099],[21.601,69.891,501.1596],[21.5997,69.873,638.4873],[21.5867,69.8731,618.6577],[21.5863,69.8686,493.384],[21.5734,69.8687,543.1467],[21.5724,69.8552,596.7893],[21.5594,69.8553,501.6116],[21.5584,69.8418,738.569],[21.5714,69.8416,693.7749],[21.571,69.8371,592.5276],[21.6359,69.8366,548.5577],[21.6356,69.8321,577.5356],[21.6485,69.832,622.8561],[21.6482,69.8275,541.0665],[21.6741,69.8272,638.1188],[21.6738,69.8227,672.8093],[21.7386,69.8221,740.1534],[21.7383,69.8176,650.3908],[21.7512,69.8175,664.4474],[21.7505,69.8085,591.3343],[21.7635,69.8084,699.6415],[21.7612,69.7813,783.903],[21.7353,69.7816,770.2468],[21.735,69.7771,708.083],[21.7091,69.7773,523.4673],[21.7077,69.7593,741.2955],[21.7206,69.7592,793.8997],[21.7195,69.7456,570.0345],[21.7324,69.7455,556.3764],[21.7306,69.723,673.8239],[21.7177,69.7231,635.0396],[21.7173,69.7186,537.002],[21.7044,69.7187,540.4193],[21.7037,69.7097,501.3605],[21.6908,69.7098,620.5809],[21.6905,69.7053,892.1368],[21.6776,69.7054,933.7518],[21.6751,69.6739,1157.097],[21.6622,69.674,1109.6619],[21.6619,69.6695,899.0665],[21.649,69.6696,911.1913],[21.6487,69.6651,878.4745],[21.6358,69.6652,850.9376],[21.6355,69.6607,916.7546],[21.6226,69.6608,1106.0875],[21.6222,69.6563,1060.6926],[21.6094,69.6564,1188.7838],[21.609,69.6519,1263.0016],[21.5962,69.6521,1284.5034],[21.5955,69.643,1233.7499],[21.6084,69.6429,1242.6772],[21.6067,69.6204,907.1999],[21.6195,69.6203,872.2804],[21.6175,69.5933,874.3587],[21.6303,69.5931,860.2722],[21.629,69.5751,849.5512],[21.6418,69.575,886.8007],[21.6415,69.5705,845.3243],[21.6543,69.5704,820.3641],[21.6539,69.5659,789.2586],[21.6668,69.5658,761.3618],[21.6664,69.5613,753.2749],[21.6792,69.5611,740.076],[21.6789,69.5566,741.7762],[21.6917,69.5565,757.0002],[21.6913,69.552,744.5289],[21.717,69.5518,732.3046],[21.7166,69.5473,743.8611],[21.7294,69.5472,799.1132],[21.729,69.5426,888.304],[21.7802,69.5422,1014.0499],[21.7806,69.5467,1023.6202],[21.7934,69.5465,1080.2717],[21.793,69.542,1037.651],[21.8314,69.5416,1000.3612],[21.8311,69.5371,974.632],[21.8695,69.5368,1005.0184],[21.8691,69.5322,1001.2224],[21.9075,69.5319,1220.663],[21.9071,69.5274,1273.7382],[21.9326,69.5271,1214.5908],[21.933,69.5316,1195.0504],[21.9586,69.5313,1081.1056],[21.959,69.5358,1024.4066],[21.9846,69.5355,916.4483],[21.985,69.5401,987.5264],[22.0106,69.5398,975.2166],[22.0111,69.5443,937.2173],[22.0367,69.544,972.3395],[22.0371,69.5485,936.8243],[22.0755,69.5481,911.4548],[22.0759,69.5526,940.3188],[22.1015,69.5523,831.3014],[22.102,69.5568,825.3274],[22.1916,69.5557,991.6055],[22.1912,69.5512,984.6938],[22.2168,69.5509,1079.0382],[22.2122,69.5059,881.9943],[22.225,69.5057,961.7984],[22.224,69.4967,863.7418],[22.2368,69.4966,812.184],[22.2359,69.4876,733.6823],[22.2486,69.4874,716.1345],[22.2477,69.4784,740.4973],[22.2605,69.4782,745.1106],[22.26,69.4737,707.1252],[22.2728,69.4736,716.9764],[22.2737,69.4826,816.3016],[22.363,69.4815,604.6495],[22.3635,69.486,619.4308],[22.3763,69.4858,735.2766],[22.3768,69.4903,699.9467],[22.4023,69.49,594.9046],[22.4028,69.4945,606.3593],[22.4156,69.4943,549.7961],[22.4161,69.4988,555.8959],[22.4416,69.4985,538.8383],[22.4421,69.503,521.5062],[22.4549,69.5028,532.6816],[22.4554,69.5073,547.7736],[22.4682,69.5071,562.3771],[22.4687,69.5116,572.4578],[22.5198,69.5109,726.8622],[22.5203,69.5154,708.2936],[22.5842,69.5145,630.2645],[22.6737,69.5133,706.5916],[22.6731,69.5088,617.4435],[22.7115,69.5082,618.4849],[22.7131,69.5217,615.9366],[22.7004,69.5219,615.4835],[22.702,69.5354,636.174],[22.6892,69.5356,630.649],[22.6904,69.5446,630.0134],[22.716,69.5442,627.4225],[22.7165,69.5487,625.9379],[22.7421,69.5483,634.8838],[22.7467,69.5844,618.2253],[22.7595,69.5842,618.4578],[22.7624,69.6067,624.4997],[22.7752,69.6065,632.7659],[22.7758,69.611,635.712],[22.7886,69.6108,649.8641],[22.7892,69.6153,657.3267],[22.8149,69.6149,684.3704],[22.8155,69.6194,700.9449],[22.8283,69.6192,713.7245],[22.8289,69.6237,717.8999],[22.8417,69.6235,733.1857],[22.8423,69.628,727.6364],[22.8552,69.6278,739.4325],[22.8558,69.6323,756.2747],[22.8686,69.6321,760.3443],[22.8698,69.6411,794.3401],[22.8827,69.6409,782.9692],[22.8833,69.6454,778.379],[22.8704,69.6456,770.0463],[22.871,69.6501,770.1749],[22.8581,69.6503,763.8694],[22.8587,69.6548,776.7947],[22.8459,69.655,755.8076],[22.8465,69.6595,758.5206],[22.8336,69.6597,780.3835],[22.8342,69.6642,785.1105],[22.8085,69.6646,752.4355],[22.8079,69.6601,756.1162],[22.7822,69.6605,712.3484],[22.7816,69.656,702.5151],[22.7687,69.6562,696.1103],[22.7681,69.6517,673.9991],[22.7424,69.6521,696.4297],[22.7418,69.6476,698.6183],[22.729,69.6478,674.9907],[22.7296,69.6523,676.2505],[22.7167,69.6525,656.5695],[22.7173,69.657,657.5053],[22.6915,69.6574,651.245],[22.6921,69.6619,639.4358],[22.6792,69.662,654.0946],[22.6798,69.6666,641.8622],[22.6541,69.6669,625.1083],[22.6546,69.6714,624.2885],[22.6417,69.6716,616.1895],[22.6423,69.6761,619.3601],[22.6165,69.6765,614.9034],[22.6171,69.681,625.085],[22.6042,69.6812,628.4073],[22.6048,69.6857,634.2151],[22.579,69.686,697.1018],[22.5795,69.6905,711.6159],[22.5667,69.6907,683.6049],[22.5672,69.6952,706.4752],[22.5543,69.6954,673.0204],[22.5554,69.7044,659.751],[22.5425,69.7046,638.9181],[22.5441,69.7181,625.4297],[22.5312,69.7183,618.4737],[22.5333,69.7363,695.28],[22.5204,69.7365,693.7619],[22.5252,69.777,634.2663],[22.4734,69.7777,681.3856],[22.4739,69.7822,642.6072],[22.461,69.7824,590.408],[22.4615,69.7869,615.5654],[22.4486,69.787,608.8506],[22.4506,69.8051,718.854],[22.4636,69.8049,735.2548],[22.4651,69.8184,751.7668],[22.4781,69.8182,754.8192],[22.4797,69.8317,793.9927],[22.4926,69.8316,830.2405],[22.4932,69.8361,801.4475],[22.5061,69.8359,792.4004],[22.5067,69.8404,821.3314],[22.5326,69.8401,838.7507],[22.5347,69.8581,940.3689],[22.5218,69.8582,928.4838],[22.5223,69.862799999999993,908.938],[22.4574,69.8636,818.8694],[22.4579,69.8681,914.5107],[22.4449,69.8683,852.693],[22.4454,69.8728,834.3412],[22.4324,69.873,766.4627],[22.4329,69.8775,803.4337],[22.4459,69.8773,782.8984],[22.4464,69.8818,624.3179],[22.4594,69.8816,636.4833],[22.4599,69.8861,605.5218],[22.473,69.886,633.135],[22.4735,69.8905,665.7551],[22.4865,69.8903,616.3275],[22.487,69.8948,661.1521],[22.5,69.8946,631.2025],[22.5005,69.8991,666.752],[22.5136,69.899,653.9514],[22.5151,69.9125,689.8706],[22.5021,69.9127,677.8819],[22.5027,69.9172,699.7366],[22.4766,69.9175,658.003],[22.4771,69.922,710.9761],[22.4511,69.9223,644.1132],[22.4516,69.9269,663.9987],[22.3604,69.928,650.1027],[22.3609,69.9325,671.8061],[22.3348,69.9329,652.2634],[22.3353,69.9374,656.6661],[22.3093,69.9377,645.4563],[22.3098,69.9422,605.4604],[22.2837,69.9425,627.6705],[22.2842,69.947,630.9082],[22.2581,69.9473,617.0694],[22.2586,69.9519,664.1314],[22.2455,69.952,635.6838],[22.246,69.9565,603.7516],[22.233,69.9567,624.1532],[22.2358,69.9837,667.9254],[22.2227,69.9839,597.0696],[22.2232,69.9884,579.0737],[22.2101,69.9885,542.1168],[22.2111,69.9975,557.9034],[22.198,69.9977,445.9398],[22.1989,70.0067,445.6451],[22.1859,70.0068,445.9808],[22.1877,70.0249,182.501],[22.2008,70.0247,179.6562]]],
[[[21.8042,69.925,4.2439],[21.7854,69.9271,0.0],[21.7797,69.9213,0.0],[21.787,69.9182,27.6918],[21.7859,69.9151,0.0],[21.7901,69.913,0.0],[21.7979,69.9125,0.0],[21.8036,69.9099,61.8511],[21.8026,69.9068,0.0],[21.8047,69.9047,0.0],[21.812,69.9016,15.3087],[21.8109,69.8984,0.0],[21.8266,69.8912,8.979],[21.8255,69.888,0.0],[21.8276,69.8859,0.0],[21.8333,69.8833,0.0],[21.837,69.8839,12.4457],[21.8391,69.887,0.0],[21.8359,69.8891,7.5619],[21.838,69.8912,2.2441],[21.8453,69.8922,0.0],[21.8443,69.8953,0.0],[21.8474,69.8995,0.0],[21.838,69.9005,10.5956],[21.8391,69.9036,0.0],[21.8375,69.9042,0.0],[21.8208,69.9063,134.6026],[21.8151,69.9089,95.3874],[21.8203,69.9141,0.0],[21.813,69.9172,63.3096],[21.8141,69.9203,0.0],[21.8042,69.925,4.2439]]],
[[[21.8182,69.9464,0.0],[21.8172,69.9443,0.0],[21.825,69.9437,0.0],[21.8307,69.9474,10.2353],[21.8208,69.9479,0.0],[21.8182,69.9464,0.0]]],
[[[21.7229,69.9417,0.0],[21.7188,69.9417,8.5578],[21.7146,69.9437,4.7841],[21.6708,69.9437,0.0],[21.6661,69.9401,71.2351],[21.6589,69.9391,0.0],[21.662,69.9359,127.7722],[21.6547,69.9349,59.6277],[21.6516,69.9318,32.0927],[21.6417,69.9292,69.9296],[21.625,69.9292,0.0],[21.6234,69.9276,0.0],[21.6333,69.9229,0.0],[21.6625,69.9229,0.0],[21.6771,69.9187,0.0],[21.6917,69.9187,0.0],[21.6958,69.9208,6.2054],[21.7104,69.9167,0.0],[21.7328,69.9172,19.4299],[21.737,69.9213,0.0],[21.7339,69.9245,31.6776],[21.737,69.9287,0.0],[21.7297,69.9318,0.0],[21.7307,69.9349,0.0],[21.7255,69.938,12.4402],[21.7266,69.9411,0.0],[21.7229,69.9417,0.0]]],
[[[21.5286,69.9672,6.7265],[21.5276,69.9651,0.0],[21.5292,69.9646,0.0],[21.5391,69.9651,0.0],[21.5333,69.9688,0.0],[21.5286,69.9672,6.7265]]],
[[[21.4792,70.0062,0.0],[21.4776,70.0047,0.0],[21.4828,70.0047,0.0],[21.4828,70.0057,0.0],[21.4792,70.0062,0.0]]],
[[[21.6458,70.0396,0.0],[21.6354,70.0437,6.8459],[21.6271,70.0437,53.0283],[21.6208,70.0417,75.5993],[21.6146,70.0437,0.0],[21.6083,70.0396,39.1432],[21.6,70.0396,0.0],[21.5901,70.037,53.8236],[21.5911,70.0339,32.1544],[21.5896,70.0333,6.8081],[21.5771,70.0313,0.0],[21.5729,70.0292,35.6783],[21.563,70.0286,64.4086],[21.5609,70.0255,0.0],[21.5729,70.025,37.3508],[21.5745,70.0234,0.0],[21.5672,70.0224,0.0],[21.5703,70.0203,0.0],[21.5688,70.0188,0.0],[21.5521,70.0188,0.0],[21.5484,70.0151,0.0],[21.5688,70.0146,7.6113],[21.5729,70.0125,0.0],[21.5917,70.0125,8.3749],[21.5958,70.0104,0.0],[21.6063,70.0104,0.0],[21.6208,70.0062,0.0],[21.6375,70.0042,0.0],[21.6417,70.0021,0.0],[21.6604,70.0021,44.3972],[21.6651,69.9984,0.0],[21.6729,69.9979,0.0],[21.6786,69.9953,0.0],[21.6776,69.9922,0.0],[21.6854,69.9917,16.2116],[21.6896,69.9896,0.0],[21.7099,69.9943,0.0],[21.712,69.9974,0.0],[21.7089,69.9995,0.0],[21.7161,70.0005,0.0],[21.7208,70.0042,0.0],[21.7266,70.0047,0.0],[21.7328,70.0109,36.952],[21.7313,70.0125,65.7437],[21.7234,70.013,82.1977],[21.7245,70.0162,23.3807],[21.7188,70.0188,0.0],[21.7042,70.0208,0.0],[21.6958,70.025,0.0],[21.6792,70.0271,0.0],[21.6734,70.0297,0.0],[21.6745,70.0328,0.0],[21.6672,70.0339,0.0],[21.6604,70.0375,0.0],[21.6458,70.0396,0.0]]],
[[[21.8057,69.9474,31.5356],[21.8083,69.9458,0.0],[21.812,69.9464,0.0],[21.8161,69.9516,0.0],[21.8125,69.9521,0.0],[21.8026,69.9495,0.0],[21.8057,69.9474,31.5356]]],
[[[21.75,69.9792,18.7196],[21.7484,69.9776,0.0],[21.7599,69.9776,0.0],[21.7583,69.9792,3.9608],[21.75,69.9792,18.7196]]],
[[[21.8021,70.0521,0.0],[21.8005,70.0505,0.0],[21.8057,70.0505,0.0],[21.8057,70.0516,0.0],[21.8021,70.0521,0.0]]],
[[[21.288,70.0224,3.8472],[21.2896,70.0208,4.2117],[21.2932,70.0214,0.0],[21.2917,70.0229,0.0],[21.288,70.0224,3.8472]]],
[[[21.3411,70.1182,17.9939],[21.3312,70.1208,0.0],[21.325,70.1188,55.7007],[21.3188,70.1208,0.0],[21.3125,70.1188,70.4595],[21.3063,70.1208,0.0],[21.3026,70.1203,0.0],[21.2984,70.1151,0.0],[21.3063,70.1146,59.9666],[21.3078,70.113,106.0469],[21.3005,70.112,20.0501],[21.2964,70.1078,0.0],[21.2995,70.1047,98.2292],[21.2964,70.1026,0.0],[21.3021,70.1,0.0],[21.3146,70.1,51.6258],[21.3188,70.0979,0.0],[21.3375,70.0979,0.0],[21.3417,70.0958,0.0],[21.3625,70.0958,0.0],[21.3682,70.1005,0.0],[21.3651,70.1026,22.3903],[21.3661,70.1057,0.0],[21.3589,70.1088,42.3106],[21.3599,70.112,0.0],[21.3505,70.113,88.6168],[21.3411,70.1182,17.9939]]],
[[[21.1979,70.2021,0.0],[21.1964,70.2005,0.0],[21.2016,70.2005,0.0],[21.2016,70.2016,0.0],[21.1979,70.2021,0.0]]]]}
,"properties": {"GID_2": "NOR.17.12_1","GID_0": "NOR","country": "Norway","GID_1": "NOR.17_1","province": "Troms","NL_NAME_1": "NA","county": "Kvænangen","VARNAME_2": "NA","NL_NAME_2": "NA","TYPE_2": "Kommuner","ENGTYPE_2": "Municipality","CC_2": "NA","HASC_2": "NO.TR.KN","name": "Kvænangen.county","area_km2": 2088.7,"hist_schema_id": "Elevation0-9000","hist_area_km2": {"0": 42.856,"25": 35.163,"50": 32.508,"75": 34.259,"100": 34.744,"125": 32.918,"150": 31.972,"175": 33.474,"200": 34.944,"225": 32.87,"250": 34.454,"275": 34.022,"300": 33.788,"325": 36.094,"350": 37.578,"375": 40.132,"400": 42.59,"425": 50.889,"450": 50.434,"475": 48.641,"500": 57.331,"525": 71.564,"550": 70.928,"575": 86.851,"600": 119.485,"625": 135.422,"650": 100.399,"675": 91.926,"700": 79.487,"725": 72.182,"750": 60.711,"775": 46.809,"800": 40.686,"825": 43.294,"850": 43.702,"875": 40.387,"900": 37.865,"925": 31.415,"950": 30.294,"975": 20.478,"1000": 14.823,"1025": 12.089,"1050": 8.788,"1075": 6.48,"1100": 3.396,"1125": 2.256,"1150": 1.746,"1175": 1.05,"1200": 0.569,"1225": 0.421,"1250": 0.606,"1275": 0.679,"1300": 0.222,"1325": 0.03}}}