{"type":"Feature","properties":{"GID_2":"NOR.4.1_1","GID_0":"NOR","country":"Norway","GID_1":"NOR.4_1","province":"Buskerud","NL_NAME_1":"NA","county":"Ål","VARNAME_2":"NA","NL_NAME_2":"NA","TYPE_2":"Kommuner","ENGTYPE_2":"Municipality","CC_2":"NA","HASC_2":"NO.BU.AL","name":"Ål.county"},
"geometry":{"type": "MultiPolygon","coordinates": [[[[8.7136,60.7605,1013.9482],[8.7045,60.7597,1041.8771],[8.7029,60.7641,1016.4995],[8.6939,60.7634,1030.1639],[8.6923,60.7678,1012.1988],[8.6832,60.767,1026.6241],[8.6817,60.7714,988.9658],[8.6635,60.7699,1032.4933],[8.6651,60.7655,1054.8999],[8.6379,60.7632,1072.6543],[8.6363,60.7676,1083.0245],[8.6272,60.7668,1080.422],[8.6256,60.7712,1075.2998],[8.6166,60.7705,1074.4738],[8.615,60.7749,1085.0902],[8.6059,60.7741,1091.8903],[8.6043,60.7785,1124.1783],[8.5952,60.7778,1155.0842],[8.5937,60.7822,1341.6029],[8.5846,60.7814,1316.3627],[8.583,60.7858,1373.3367],[8.5739,60.785,1435.5139],[8.5723,60.7895,1369.2957],[8.5632,60.7887,1306.04],[8.5601,60.7975,1429.2649],[8.551,60.7968,1351.6334],[8.5494,60.8012,1506.7747],[8.5312,60.7996,1387.2627],[8.5328,60.7952,1271.6547],[8.5147,60.7936,1233.8162],[8.5131,60.7981,1234.1584],[8.4949,60.7965,1259.0417],[8.4917,60.8053,1326.8455],[8.4826,60.8046,1381.587],[8.481,60.809,1284.3732],[8.4719,60.8082,1335.4366],[8.4703,60.8126,1345.5649],[8.4613,60.8118,1347.9717],[8.4597,60.8163,1419.0854],[8.4506,60.8155,1336.7421],[8.4473,60.8243,1286.9332],[8.4383,60.8235,1256.7454],[8.4367,60.8279,1178.7209],[8.4276,60.8272,1154.4594],[8.426,60.8316,1121.458],[8.4169,60.8308,1097.0758],[8.4153,60.8352,1075.0303],[8.3789,60.8321,1106.0],[8.3805,60.8276,1117.8761],[8.3624,60.8261,1106.0],[8.3607,60.8305,1106.0],[8.3426,60.8289,1106.0],[8.3393,60.8377,1106.0],[8.3302,60.8369,1106.0],[8.3286,60.8414,1106.0],[8.3377,60.8422,1115.6404],[8.3296,60.8642,1271.9294],[8.3205,60.8634,1273.3549],[8.3188,60.8679,1311.6716],[8.3006,60.8663,1308.0931],[8.299,60.8707,1331.7734],[8.2808,60.8691,1289.3031],[8.2792,60.8735,1353.7412],[8.2246,60.8687,1583.2992],[8.223,60.8732,1659.5887],[8.2048,60.8716,1482.735],[8.2032,60.876,1584.0222],[8.185,60.8744,1645.3445],[8.1833,60.8788,1618.4924],[8.1651,60.8772,1629.2762],[8.1635,60.8816,1561.021],[8.1453,60.88,1592.7705],[8.1436,60.8844,1541.7255],[8.1255,60.8828,1600.9314],[8.1238,60.8872,1542.6871],[8.1056,60.8856,1626.403],[8.104,60.89,1552.8314],[8.0949,60.8892,1574.3094],[8.0932,60.8936,1514.7571],[8.075,60.892,1603.2603],[8.0733,60.8964,1516.277],[8.0552,60.8948,1627.7262],[8.0535,60.8992,1675.6661],[8.0171,60.896,1718.0557],[8.0188,60.8916,1673.098],[8.0006,60.8899,1634.6279],[7.9989,60.8943,1618.7737],[7.9898,60.8935,1722.2068],[7.9881,60.8979,1759.6388],[7.97,60.8963,1621.616],[7.9683,60.9007,1662.558],[7.9592,60.8999,1629.1249],[7.9575,60.9043,1665.4792],[7.9484,60.9035,1529.3907],[7.9467,60.9079,1567.2053],[7.9285,60.9063,1542.2526],[7.9268,60.9107,1562.561],[7.9177,60.9099,1667.8258],[7.9161,60.9143,1635.8145],[7.907,60.9135,1636.264],[7.9053,60.9179,1578.6991],[7.8689,60.9146,1585.186],[7.8706,60.9102,1618.2828],[7.8524,60.9085,1669.0184],[7.8541,60.9041,1665.4539],[7.845,60.9033,1595.6993],[7.8467,60.8989,1571.7701],[7.8285,60.8973,1579.0829],[7.8302,60.8928,1497.0779],[7.8211,60.892,1530.9613],[7.8228,60.8876,1619.4879],[7.8138,60.8868,1619.3309],[7.8155,60.8824,1601.1996],[7.7973,60.8807,1522.916],[7.799,60.8763,1534.6871],[7.7899,60.8755,1524.4297],[7.7916,60.8711,1524.5472],[7.7825,60.8703,1500.579],[7.7842,60.8658,1487.0436],[7.7933,60.8667,1491.8013],[7.795,60.8623,1486.8964],[7.8041,60.8631,1489.863],[7.8058,60.8587,1553.9153],[7.8149,60.8595,1537.3767],[7.8166,60.8551,1602.37],[7.8257,60.8559,1618.5956],[7.8274,60.8515,1573.3506],[7.8364,60.8523,1518.6454],[7.8381,60.8479,1646.9612],[7.8472,60.8488,1589.1675],[7.8489,60.8443,1667.3075],[7.858,60.8452,1715.915],[7.8614,60.8363,1602.9816],[7.8704,60.8372,1565.2379],[7.8721,60.8328,1609.8362],[7.8812,60.8336,1602.0531],[7.8829,60.8292,1591.024],[7.892,60.83,1597.1006],[7.8903,60.8344,1465.858],[7.8994,60.8352,1445.2078],[7.8977,60.8396,1418.3773],[7.9158,60.8413,1173.5],[7.9175,60.8369,1173.5],[7.9266,60.8377,1230.6742],[7.9299,60.8289,1232.6997],[7.9209,60.828,1178.1122],[7.9259,60.8148,1170.3041],[7.935,60.8156,1169.6268],[7.9384,60.8068,1088.476],[7.9474,60.8076,1087.858],[7.9491,60.8032,1097.4113],[7.9672,60.8048,1088.9738],[7.9689,60.8004,1087.4717],[7.987,60.8021,1086.8134],[7.9904,60.7932,1086.5991],[7.9995,60.7941,1086.7645],[8.0045,60.7808,1091.0331],[8.0135,60.7816,1099.9556],[8.0202,60.764,1118.4935],[8.0383,60.7656,1089.8696],[8.04,60.7612,1094.3604],[8.049,60.762,1087.4999],[8.0507,60.7576,1088.5635],[8.0688,60.7592,1088.6847],[8.0721,60.7504,1097.3036],[8.0631,60.7496,1087.3499],[8.0664,60.7408,1090.0969],[8.0845,60.7424,1087.7979],[8.0862,60.738,1087.8086],[8.1043,60.7396,1088.7075],[8.1092,60.7263,1088.4805],[8.1183,60.7271,1088.9374],[8.1232,60.7139,1084.5488],[8.1413,60.7155,1085.0614],[8.1397,60.7199,1094.8833],[8.1487,60.7207,1098.0243],[8.152,60.7119,1093.2543],[8.161,60.7127,1094.2289],[8.1643,60.7039,1089.3713],[8.1915,60.7063,1076.1294],[8.1931,60.7019,1109.6696],[8.2021,60.7027,1084.209],[8.2038,60.6982,1070.2094],[8.2399,60.7014,1019.5],[8.2416,60.697,1019.5],[8.2506,60.6978,1019.5],[8.2637,60.6625,1010.8779],[8.2817,60.6641,988.049],[8.2833,60.6597,1047.368],[8.3105,60.662,1010.792],[8.3121,60.6576,1037.0505],[8.3301,60.6592,983.4421],[8.3318,60.6548,1012.9199],[8.3408,60.6556,981.7188],[8.3424,60.6512,1030.1766],[8.3514,60.652,1009.2629],[8.3547,60.6431,1043.3463],[8.3637,60.6439,1067.2758],[8.3669,60.6351,937.1698],[8.3759,60.6359,951.4075],[8.3792,60.627,979.6241],[8.3882,60.6278,961.3792],[8.3898,60.6234,1046.7925],[8.3988,60.6242,1028.0787],[8.4004,60.6198,1104.3165],[8.4095,60.6206,1124.3357],[8.4159,60.6029,1032.6952],[8.4068,60.6021,1033.5186],[8.4117,60.5889,835.0441],[8.4026,60.5881,764.1602],[8.4058,60.5792,478.4348],[8.3968,60.5785,450.1998],[8.3984,60.574,499.5077],[8.3894,60.5733,551.5756],[8.391,60.5688,684.6384],[8.382,60.5681,852.3702],[8.3852,60.5592,1047.571],[8.3942,60.56,1001.8672],[8.3958,60.5556,1064.1454],[8.4048,60.556399999999996,1055.6566],[8.4064,60.552,1103.5594],[8.4155,60.5527,1095.4338],[8.4171,60.5483,1120.718],[8.408,60.5475,1097.1967],[8.4096,60.5431,1098.1803],[8.4006,60.5423,1075.6339],[8.4022,60.5379,1073.9265],[8.3662,60.5348,1067.7764],[8.3646,60.5392,1065.1703],[8.3556,60.5384,1066.3235],[8.3588,60.5296,1105.0586],[8.3498,60.5288,1081.8865],[8.3547,60.5155,1060.4539],[8.3457,60.5148,1045.7056],[8.3537,60.4927,1082.8385],[8.3627,60.4935,1020.4918],[8.3691,60.4758,1086.5227],[8.3781,60.4766,1092.1727],[8.3813,60.4678,1048.4623],[8.3903,60.4685,1043.8331],[8.3887,60.473,1105.2347],[8.4066,60.4745,1060.0769],[8.405,60.4789,1086.3616],[8.4949,60.4868,795.1602],[8.4933,60.4912,851.3106],[8.5203,60.4935,914.7723],[8.5187,60.4979,1012.4811],[8.5457,60.5003,935.5015],[8.5441,60.5047,967.0679],[8.5711,60.507,990.622],[8.5695,60.5114,952.5],[8.5785,60.5122,952.5],[8.5801,60.5078,1038.2102],[8.5981,60.5093,952.5],[8.5997,60.5049,952.5],[8.6087,60.5057,952.5],[8.6103,60.5013,952.5],[8.6192,60.502,952.5],[8.6208,60.4976,1009.295],[8.6298,60.4984,952.5],[8.6282,60.5028,952.5],[8.6552,60.5051,1007.5819],[8.6537,60.5095,1014.8329],[8.6807,60.5118,1118.3373],[8.6791,60.5162,1070.9391],[8.6881,60.517,1047.793],[8.685,60.5258,1013.3302],[8.694,60.5266,998.8262],[8.6909,60.5355,990.8963],[8.6999,60.5362,991.9033],[8.6968,60.5451,1100.937],[8.7238,60.5474,1080.2667],[8.7222,60.5518,1073.0116],[8.7313,60.5525,1072.7306],[8.7297,60.557,1096.5483],[8.7387,60.5577,1072.1749],[8.7372,60.5621,1088.2406],[8.7281,60.5614,1097.7826],[8.7266,60.5658,1096.4248],[8.7176,60.565,1133.8989],[8.7145,60.5739,1145.3544],[8.7235,60.5746,1112.3729],[8.7219,60.5791,1053.8037],[8.74,60.5806,1008.7241],[8.7384,60.585,1017.5638],[8.7564,60.5865,1024.1672],[8.7549,60.591,1000.8547],[8.791,60.594,1025.2834],[8.7925,60.5896,1003.0896],[8.8016,60.5903,977.0977],[8.7985,60.5992,1044.2814],[8.8075,60.5999,1038.1943],[8.8044,60.6088,996.5664],[8.8134,60.6095,990.9191],[8.8119,60.614,998.5098],[8.8209,60.6147,994.3782],[8.8194,60.6191,976.0836],[8.8284,60.6199,983.4904],[8.8269,60.6243,955.4869],[8.8359,60.6251,937.5647],[8.8297,60.6428,825.0439],[8.8207,60.642,813.582],[8.816,60.6553,560.551],[8.807,60.6545,530.0452],[8.8023,60.6678,294.1383],[8.7933,60.667,285.1963],[8.773,60.7245,975.1834],[8.7639,60.7237,980.0944],[8.7608,60.7326,945.9954],[8.7518,60.7318,951.6675],[8.7486,60.7407,933.9427],[8.7396,60.7399,950.7487],[8.738,60.7443,943.2785],[8.7289,60.7435,957.1463],[8.7274,60.748,929.4686],[8.7183,60.7472,948.403],[8.7136,60.7605,1013.9482]]]]}}