{"type": "Feature","bbox": [17.175,68.5967,17.8345,68.8167],"geometry": {"type": "MultiPolygon","coordinates": [[[[17.7656,68.5995,937.8796],[17.7642,68.613,622.8332],[17.7765,68.6131,738.9825],[17.7761,68.6176,696.7498],[17.7884,68.6178,839.0567],[17.7879,68.6223,619.176],[17.8002,68.6225,911.7084],[17.7989,68.636,533.9006],[17.7866,68.6358,481.5901],[17.7862,68.6403,468.7979],[17.7984,68.6405,540.8856],[17.798,68.645,641.6872],[17.8226,68.6453,813.4318],[17.8222,68.6498,937.0129],[17.8345,68.6499,967.6859],[17.8306,68.6904,1151.7306],[17.7813,68.6898,871.5923],[17.7809,68.6943,802.099],[17.7686,68.6942,666.1165],[17.7681,68.6987,629.0424],[17.7435,68.6984,416.8318],[17.743,68.7029,404.6157],[17.7184,68.7025,625.5384],[17.7179,68.707,791.299],[17.681,68.7066,666.1353],[17.6814,68.7021,897.3801],[17.6568,68.7017,873.7626],[17.6563,68.7062,1022.2351],[17.607,68.7056,891.126],[17.6065,68.7101,963.9832],[17.5942,68.7099,906.8278],[17.5894,68.7549,488.132],[17.5771,68.7548,496.3132],[17.5766,68.7593,549.6407],[17.5642,68.7591,599.1968],[17.5638,68.7636,605.1159],[17.5267,68.7631,827.2972],[17.5262,68.7676,718.853],[17.4891,68.7671,734.4674],[17.4886,68.7716,949.8797],[17.4763,68.7714,962.8416],[17.4758,68.7759,984.1508],[17.4634,68.7757,844.582],[17.4629,68.7802,713.8357],[17.4505,68.78,618.8926],[17.45,68.7845,530.1836],[17.4377,68.7844,469.5132],[17.4356,68.8024,559.3218],[17.448,68.8025,574.6944],[17.4469,68.8125,396.4354],[17.4333,68.8125,233.5464],[17.4318,68.813,162.3322],[17.4328,68.8161,54.2411],[17.4312,68.8167,15.2843],[17.425,68.8146,21.368],[17.4151,68.8141,0.0],[17.413,68.812,0.0],[17.4161,68.8099,48.7538],[17.4146,68.8083,115.6468],[17.4,68.8083,0.0],[17.3922,68.8057,0.0],[17.3891,68.8026,4.6806],[17.3818,68.8016,0.0],[17.3807,68.7984,0.0],[17.3687,68.7979,0.0],[17.3609,68.7953,0.0],[17.3542,68.7896,7.7129],[17.3396,68.7896,0.0],[17.3297,68.787,0.0],[17.3286,68.7839,0.0],[17.3229,68.7833,0.0],[17.3042,68.7771,4.3175],[17.2896,68.7771,0.0],[17.2854,68.775,15.6871],[17.2708,68.775,0.0],[17.2667,68.7729,29.8264],[17.2625,68.7729,0.0],[17.2536,68.763,0.0],[17.2484,68.7609,0.0],[17.2516,68.7599,0.0],[17.2505,68.7568,0.0],[17.2563,68.7542,0.0],[17.2875,68.75,0.0],[17.3,68.7438,0.0],[17.3078,68.7453,0.0],[17.312,68.7432,0.0],[17.313,68.7401,0.0],[17.3229,68.7354,0.0],[17.3354,68.7354,0.0],[17.3458,68.7396,26.4107],[17.3667,68.7396,0.0],[17.3766,68.7422,0.0],[17.3813,68.7458,32.1368],[17.4104,68.7458,13.9625],[17.4146,68.7438,0.0],[17.4271,68.7438,26.5692],[17.4339,68.7401,0.0],[17.4438,68.7375,0.0],[17.4578,68.737,9.5489],[17.4568,68.7338,0.0],[17.4641,68.7307,0.0],[17.463,68.7276,0.0],[17.4703,68.7245,0.0],[17.4651,68.7161,0.0],[17.4682,68.7141,0.0],[17.4672,68.7109,0.0],[17.4766,68.7099,33.9153],[17.4755,68.7068,0.0],[17.4786,68.7057,0.0],[17.4776,68.7005,0.0],[17.4849,68.6995,5.1555],[17.4958,68.6937,0.0],[17.5042,68.6937,0.0],[17.5083,68.6958,24.6716],[17.5125,68.6917,0.0],[17.5292,68.6917,0.0],[17.5333,68.6896,0.0],[17.55,68.6875,0.0],[17.5583,68.6937,0.0],[17.5938,68.6937,0.0],[17.5979,68.6917,0.0],[17.6083,68.6917,0.0],[17.6125,68.6896,0.0],[17.6292,68.6875,0.0],[17.6333,68.6854,0.0],[17.6437,68.6854,0.0],[17.6521,68.6813,0.0],[17.6688,68.6792,15.7302],[17.6828,68.6713,0.0],[17.6625,68.6708,0.0],[17.6583,68.6729,0.0],[17.6313,68.6771,23.7272],[17.6187,68.6813,0.0],[17.6021,68.6813,52.2625],[17.5875,68.6854,0.0],[17.5521,68.6854,8.4426],[17.5422,68.6828,0.0],[17.5391,68.6797,0.0],[17.5312,68.6771,44.6332],[17.5229,68.6771,17.3385],[17.5167,68.6792,0.0],[17.5125,68.6771,36.9293],[17.5083,68.6792,0.0],[17.4792,68.6792,19.5798],[17.475,68.6813,0.0],[17.4589,68.6839,0.0],[17.4562,68.6875,0.0],[17.4438,68.6875,0.0],[17.4375,68.6854,21.534],[17.4276,68.6901,8.9863],[17.4307,68.6953,0.0],[17.4276,68.6974,9.2034],[17.4318,68.7016,4.9625],[17.437,68.7026,0.0],[17.4339,68.7057,9.7615],[17.437,68.7099,0.0],[17.4297,68.713,0.0],[17.4286,68.7161,0.0],[17.4255,68.7172,47.563],[17.4224,68.7224,0.0],[17.4167,68.7229,0.0],[17.4099,68.7266,0.0],[17.4021,68.7271,25.1372],[17.3979,68.7292,0.0],[17.3896,68.7292,0.0],[17.3854,68.7271,37.9409],[17.3771,68.7271,20.7264],[17.3729,68.725,170.5712],[17.3646,68.725,57.2074],[17.3458,68.7188,314.703],[17.3375,68.7188,299.4813],[17.3312,68.7208,216.2344],[17.3271,68.7188,364.3892],[17.325,68.7208,320.2637],[17.3286,68.7255,43.3331],[17.3271,68.7271,0.0],[17.3234,68.7266,54.1731],[17.3188,68.7229,312.9994],[17.3042,68.7229,389.3012],[17.3,68.7208,513.326],[17.2938,68.7208,521.3099],[17.2854,68.725,406.7344],[17.2776,68.7255,278.169],[17.2812,68.7292,58.0309],[17.2974,68.7297,0.0],[17.2891,68.7349,13.9988],[17.2812,68.7354,18.1055],[17.275,68.7333,50.2385],[17.2708,68.7354,0.0],[17.2521,68.7354,0.0],[17.2484,68.7328,26.8083],[17.2516,68.7297,152.2042],[17.2479,68.7271,364.6875],[17.2396,68.7271,223.5144],[17.2271,68.7229,504.0188],[17.2208,68.725,154.8938],[17.2146,68.7208,445.7168],[17.1896,68.7208,64.1761],[17.1851,68.7174,209.8924],[17.1862,68.7146,352.3474],[17.1988,68.7131,417.8108],[17.2042,68.7104,662.9999],[17.2104,68.7104,808.2786],[17.212,68.7089,820.1838],[17.2042,68.7063,878.9866],[17.1958,68.7063,864.0756],[17.1917,68.7083,808.0261],[17.1792,68.7083,906.545],[17.175,68.7063,966.9111],[17.1769,68.6902,805.5073],[17.2015,68.6906,933.5026],[17.2021,68.6861,739.7757],[17.2144,68.6863,886.1413],[17.2161,68.6728,472.2921],[17.2776,68.6738,884.9973],[17.2781,68.6693,606.0762],[17.3273,68.67,968.4504],[17.3284,68.661,610.4883],[17.3161,68.6608,610.3677],[17.3177,68.6473,618.4981],[17.3423,68.6477,622.3855],[17.3428,68.6432,681.0455],[17.3551,68.6434,786.9553],[17.3556,68.6389,816.5538],[17.3679,68.6391,832.2661],[17.3684,68.6346,922.1138],[17.4544,68.6358,1058.3083],[17.4549,68.6313,876.5319],[17.4795,68.6317,880.7482],[17.4815,68.6137,627.9664],[17.4937,68.6139,676.9918],[17.4942,68.6094,524.1115],[17.5065,68.6095,515.8451],[17.507,68.605,544.4246],[17.5315,68.6054,693.5654],[17.532,68.6009,746.2509],[17.5566,68.6012,873.149],[17.557,68.5967,988.6111],[17.7656,68.5995,937.8796]]]]}
,"properties": {"GID_2": "NOR.17.6_1","GID_0": "NOR","country": "Norway","GID_1": "NOR.17_1","province": "Troms","NL_NAME_1": "NA","county": "Gratangen","VARNAME_2": "NA","NL_NAME_2": "NA","TYPE_2": "Kommuner","ENGTYPE_2": "Municipality","CC_2": "NA","HASC_2": "NO.TR.GR","name": "Gratangen.county","area_km2": 305.9778,"hist_schema_id": "Elevation0-9000","hist_area_km2": {"0": 7.4567,"25": 5.8093,"50": 5.8718,"75": 6.1602,"100": 5.5595,"125": 6.687,"150": 6.1161,"175": 5.8704,"200": 8.1169,"225": 7.8084,"250": 7.4384,"275": 11.9581,"300": 9.7602,"325": 9.7578,"350": 9.3019,"375": 11.2424,"400": 11.4359,"425": 11.3642,"450": 12.8104,"475": 10.6416,"500": 10.6328,"525": 10.2466,"550": 9.8075,"575": 10.3951,"600": 9.7343,"625": 9.2058,"650": 8.7842,"675": 6.4889,"700": 6.2191,"725": 6.1301,"750": 5.7826,"775": 5.2967,"800": 5.0745,"825": 4.6653,"850": 4.4867,"875": 3.9473,"900": 3.747,"925": 3.1687,"950": 2.5139,"975": 2.0051,"1000": 1.5269,"1025": 1.1262,"1050": 1.0563,"1075": 0.9256,"1100": 0.6866,"1125": 0.4707,"1150": 0.2159,"1175": 0.2774,"1200": 0.1003,"1225": 0.0618,"1250": 0.0309}}}