{"type":"Feature","properties":{"GID_2":"NOR.16.1_1","GID_0":"NOR","country":"Norway","GID_1":"NOR.16_1","province":"Telemark","NL_NAME_1":"NA","county":"Bamble","VARNAME_2":"NA","NL_NAME_2":"NA","TYPE_2":"Kommuner","ENGTYPE_2":"Municipality","CC_2":"NA","HASC_2":"NO.TE.BA","name":"Bamble.county"},
"geometry":{"type": "MultiPolygon","coordinates": [[[[9.5336,58.9265,13.3884],[9.5297,58.9271,0.0],[9.5297,58.924,3.967],[9.5342,58.9232,0.0],[9.5353,58.9188,2.1334],[9.5492,58.9185,0.0],[9.5464,58.9218,19.8293],[9.5336,58.9265,13.3884]]],
[[[9.5575,58.926,0.0],[9.5514,58.9263,12.3685],[9.5514,58.924,6.811],[9.5547,58.9235,0.0],[9.5542,58.9215,0.0],[9.5603,58.9193,0.0],[9.5769,58.9196,2.0542],[9.5742,58.924,0.0],[9.5625,58.9243,6.5381],[9.5575,58.926,0.0]]],
[[[9.5464,58.9276,0.0],[9.5436,58.9279,0.0],[9.5436,58.9254,0.0],[9.5464,58.9235,0.0],[9.5497,58.9238,0.0],[9.5497,58.9257,0.0],[9.5464,58.9276,0.0]]],
[[[9.6481,58.9504,0.0],[9.6425,58.9504,9.7785],[9.6414,58.9479,1.8337],[9.6375,58.9468,1.5644],[9.6403,58.9429,0.0],[9.6353,58.9443,0.0],[9.6319,58.9429,0.3724],[9.6308,58.9404,0.0],[9.6347,58.9404,0.0],[9.6381,58.9374,0.0],[9.6492,58.941,3.5655],[9.6531,58.9449,0.0],[9.6514,58.9463,0.0],[9.6464,58.9451,1.1095],[9.6503,58.9468,0.0],[9.6492,58.9485,3.834],[9.6464,58.9479,3.4521],[9.6481,58.9504,0.0]]],
[[[9.6603,58.9532,0.0],[9.6564,58.9538,0.0],[9.6536,58.9507,0.0],[9.6597,58.9512,0.0],[9.6603,58.9532,0.0]]],
[[[9.6947,58.9632,4.7701],[9.6903,58.9643,0.0],[9.6869,58.9629,1.3937],[9.6881,58.9604,0.0],[9.6919,58.9599,0.0],[9.6947,58.9607,4.7283],[9.6947,58.9632,4.7701]]],
[[[9.6781,58.9646,1.3167],[9.6703,58.9654,0.0],[9.6681,58.9632,0.0],[9.6786,58.9607,0.0],[9.6797,58.9635,0.0],[9.6781,58.9646,1.3167]]],
[[[9.7125,58.9721,0.0],[9.7042,58.9712,0.0],[9.7025,58.9663,0.3617],[9.7092,58.9635,0.0],[9.7147,58.9651,0.0],[9.7097,58.9679,0.7965],[9.7136,58.9701,0.0],[9.7125,58.9721,0.0]]],
[[[9.7519,59.0118,5.1105],[9.7508,59.0121,0.6423],[9.7508,59.0076,0.9417],[9.7542,59.0035,0.0],[9.7547,58.9918,0.0],[9.7586,58.9907,0.8454],[9.7597,58.9912,0.0],[9.7592,58.9957,0.0],[9.7558,59.004,4.8491],[9.7603,59.0043,0.0],[9.7597,59.0068,0.0],[9.7558,59.0113,0.942],[9.7519,59.0118,5.1105]]],
[[[9.6964,59.0488,0.0],[9.6634,59.0502,0.0],[9.6551,59.0481,0.0],[9.6484,59.0489,0.0],[9.643,59.0526,12.4729],[9.6343,59.0539,27.783],[9.6355,59.0567,25.4493],[9.6461,59.0588,0.0],[9.6407,59.0621,0.0],[9.631,59.0627,0.0],[9.626,59.0651,10.3994],[9.6267,59.0798,7.9796],[9.6203,59.0829,5.6678],[9.6123,59.0833,40.5387],[9.5875,59.1022,0.5178],[9.583,59.104,2.098],[9.5656,59.1043,3.7162],[9.5588,59.1076,8.013],[9.5533,59.1114,26.3446],[9.558,59.1154,10.9157],[9.5512,59.1196,7.7816],[9.5278,59.1246,0.0],[9.5213,59.1221,2.3055],[9.504,59.1207,93.9823],[9.5053,59.1163,51.7832],[9.488,59.1149,174.0153],[9.4894,59.1104,190.24],[9.4808,59.1097,199.5709],[9.4821,59.1053,158.0219],[9.4735,59.1046,163.9781],[9.4762,59.0957,165.8638],[9.4676,59.095,113.6926],[9.4745,59.0729,95.7625],[9.4658,59.0722,150.7651],[9.4672,59.0677,72.1839],[9.4586,59.067,53.5],[9.46,59.0626,53.5],[9.4427,59.0612,53.5],[9.4441,59.0567,112.5597],[9.4354,59.056,83.82],[9.4368,59.0516,78.0],[9.4196,59.0502,78.0],[9.4209,59.0457,78.0],[9.395,59.0436,91.9805],[9.3923,59.0524,224.3566],[9.3836,59.0517,164.2355],[9.385,59.0473,159.5401],[9.3764,59.0466,184.2542],[9.3778,59.0422,187.7211],[9.3605,59.0407,254.8302],[9.3619,59.0363,207.9391],[9.3533,59.0356,182.2194],[9.3547,59.0311,157.7049],[9.3461,59.0304,121.4804],[9.3474,59.026,100.0219],[9.3388,59.0253,88.0264],[9.3402,59.0208,60.696],[9.323,59.0194,59.0],[9.3244,59.015,59.0],[9.3157,59.0143,59.0],[9.3171,59.0098,59.0],[9.3085,59.0091,76.3254],[9.3099,59.0047,207.1059],[9.3185,59.0054,166.4202],[9.3199,59.001,177.4348],[9.3285,59.0017,139.1651],[9.3313,58.9928,141.6736],[9.3399,58.9936,128.4163],[9.3427,58.9847,185.9937],[9.3513,58.9854,163.4169],[9.3541,58.9766,146.1371],[9.3627,58.9773,170.2593],[9.371,58.9507,138.9244],[9.4054,58.9536,137.9079],[9.4096,58.9403,38.5],[9.4182,58.941,38.5],[9.4196,58.9366,87.4532],[9.454,58.9394,49.6649],[9.4553,58.935,67.575],[9.4675,58.9363,10.2635],[9.4653,58.9374,0.0],[9.4664,58.9382,0.0],[9.4792,58.9382,0.0],[9.4858,58.9365,0.0],[9.4914,58.9374,27.5156],[9.4958,58.934,8.5687],[9.5019,58.9335,2.3732],[9.5186,58.9279,0.0],[9.5203,58.9293,4.8621],[9.5303,58.9299,0.0],[9.5314,58.9315,9.5275],[9.5342,58.9315,0.0],[9.5336,58.929,0.0],[9.5519,58.9287,0.0],[9.5481,58.9329,21.082],[9.5492,58.9332,4.4549],[9.5547,58.931,0.0],[9.5531,58.9304,2.452],[9.5536,58.9287,0.0],[9.5681,58.9296,3.6812],[9.5703,58.9265,0.0],[9.5758,58.9285,0.0],[9.5758,58.9265,0.0],[9.5786,58.9246,0.0],[9.5892,58.9246,0.0],[9.5908,58.9271,11.8222],[9.5964,58.9276,0.0],[9.6064,58.9324,2.1533],[9.6075,58.9307,0.0],[9.6125,58.9315,0.0],[9.6097,58.9257,0.8823],[9.6125,58.9257,0.8823],[9.6153,58.9265,0.0],[9.6131,58.929,0.0],[9.6164,58.9304,0.0],[9.6142,58.9335,2.6017],[9.6208,58.9332,0.0],[9.6236,58.931,0.0],[9.6269,58.9318,0.0],[9.6281,58.9335,0.0],[9.6219,58.9337,4.2352],[9.6231,58.9376,1.3545],[9.6258,58.9379,0.0],[9.6258,58.9399,0.0],[9.6303,58.9429,0.0],[9.6308,58.9454,0.0],[9.6364,58.9493,2.4156],[9.6414,58.9501,0.0],[9.6397,58.9529,0.0],[9.6375,58.9529,0.0],[9.6308,58.949,0.0],[9.6264,58.9493,0.7504],[9.6292,58.9524,9.0433],[9.6258,58.9562,3.6426],[9.6503,58.9604,0.0],[9.6503,58.9637,0.0],[9.6575,58.9654,0.0],[9.6575,58.9668,0.0],[9.6497,58.9679,32.8039],[9.6558,58.9688,0.0],[9.6508,58.9701,1.0023],[9.6525,58.9724,1.3381],[9.6564,58.9729,11.0486],[9.6569,58.9679,0.0],[9.6653,58.9679,0.0],[9.6775,58.9718,0.0],[9.6864,58.9718,0.0],[9.6869,58.9699,7.7744],[9.6842,58.9665,0.0],[9.6919,58.9649,1.5256],[9.7025,58.9721,0.0],[9.7031,58.9735,0.0],[9.6997,58.9751,0.0],[9.7047,58.9765,1.6477],[9.7047,58.9807,0.0],[9.7014,58.9824,0.0],[9.6869,58.9821,0.0],[9.6886,58.9835,0.0],[9.6881,58.9849,0.3744],[9.6825,58.9857,0.0],[9.6747,58.9854,2.946],[9.6731,58.9837,13.7627],[9.6658,58.9888,0.0],[9.6575,58.9901,0.0],[9.6631,58.9907,3.0672],[9.6653,58.9932,0.0],[9.6703,58.9949,0.6487],[9.6708,58.9929,6.5392],[9.6669,58.9924,6.492],[9.6664,58.9899,0.0],[9.6758,58.9904,0.0],[9.6775,58.9882,0.0],[9.6858,58.9874,5.6931],[9.6858,58.9863,0.0],[9.6914,58.9879,0.0],[9.6819,58.9901,25.513],[9.6931,58.9882,0.0],[9.6992,58.989,12.0913],[9.7025,58.9863,0.0],[9.7064,58.9868,0.0],[9.7069,58.989,14.8295],[9.7125,58.9901,0.0],[9.7136,58.9926,0.0],[9.7097,58.996,0.0],[9.7103,58.9987,0.0],[9.7042,59.001,10.829],[9.7036,59.004,8.2088],[9.7092,59.0062,0.0],[9.7203,59.0013,0.0],[9.7192,59.0082,23.5073],[9.7208,59.0088,14.5445],[9.7231,59.0054,0.0],[9.7281,59.0035,7.6581],[9.7281,59.0013,0.0],[9.7325,58.9976,5.4081],[9.7331,58.9954,0.0],[9.7375,58.9954,0.5765],[9.7397,58.9935,0.0],[9.7414,58.9957,0.3206],[9.7425,58.9935,0.0],[9.7458,58.9929,1.1477],[9.7458,58.9899,0.0],[9.7486,58.9876,10.1427],[9.7536,58.9876,0.0],[9.7542,58.9896,0.0],[9.7514,58.9924,8.1125],[9.7514,59.0035,0.0],[9.7492,59.0043,0.0],[9.7481,59.0079,0.0],[9.7486,59.0154,0.0],[9.7381,59.0201,2.4586],[9.7381,59.0235,0.8733],[9.7325,59.0262,5.325],[9.7319,59.0285,8.0146],[9.7281,59.0285,21.5523],[9.7169,59.034,6.755],[9.7153,59.0385,0.0],[9.7058,59.0418,5.2335],[9.7108,59.0432,0.0],[9.7064,59.0457,0.0],[9.7019,59.0443,0.0],[9.6997,59.0474,0.0],[9.6953,59.0482,0.0],[9.6964,59.0488,0.0]]]]}}