{"type": "Feature","bbox": [5.5469,59.5268,5.9145,59.7218],"geometry": {"type": "MultiPolygon","coordinates": [[[[5.8404,59.6464,74.4359],[5.8158,59.646,0.0],[5.7919,59.6429,11.2164],[5.7936,59.6399,26.8808],[5.7936,59.6321,39.3232],[5.7958,59.6271,0.0],[5.8008,59.6221,3.6662],[5.8008,59.619,0.0],[5.8092,59.6137,0.0],[5.8186,59.6118,0.0],[5.8186,59.6099,0.6937],[5.8153,59.6096,0.0],[5.8119,59.6068,1.9541],[5.8053,59.6068,1.0332],[5.8031,59.6046,5.5436],[5.7936,59.6029,4.3419],[5.7664,59.6001,9.3367],[5.7514,59.6004,0.6673],[5.7436,59.5985,2.3927],[5.7414,59.6001,1.1009],[5.7469,59.6035,0.0],[5.7669,59.604,0.0],[5.7669,59.606,1.197],[5.7703,59.6054,0.0],[5.7769,59.6087,2.6941],[5.7753,59.6101,2.7345],[5.7792,59.6104,0.0],[5.7847,59.6154,3.2261],[5.7886,59.6162,0.0],[5.7869,59.6185,12.3483],[5.7886,59.6196,2.0676],[5.7892,59.6251,10.6908],[5.7842,59.6299,24.163],[5.7842,59.6354,3.8424],[5.7753,59.6432,4.952],[5.7725,59.6485,0.3327],[5.7597,59.6518,4.7799],[5.7475,59.6515,15.9882],[5.7314,59.6551,32.7352],[5.7131,59.6624,0.0],[5.6981,59.6621,0.0],[5.6953,59.6629,5.1244],[5.6964,59.6649,3.0593],[5.6953,59.6654,3.0593],[5.6903,59.6646,4.7244],[5.6869,59.6668,1.6244],[5.6825,59.6665,10.6947],[5.6814,59.6688,0.0],[5.6719,59.6674,6.823],[5.6653,59.6685,9.0747],[5.6647,59.6649,0.683],[5.6564,59.6676,5.7387],[5.6497,59.666,2.1659],[5.6458,59.6685,11.2209],[5.6369,59.6688,4.3278],[5.6253,59.6738,1.4402],[5.6192,59.6783,0.0],[5.6125,59.6793,1.3909],[5.6125,59.681,6.5473],[5.6169,59.6815,2.489],[5.6147,59.6835,2.4388],[5.6081,59.6854,10.8344],[5.5942,59.6849,18.0391],[5.5914,59.6824,0.0],[5.5908,59.6787,40.0776],[5.5747,59.6712,6.4938],[5.5753,59.6693,7.3614],[5.5725,59.6679,3.6695],[5.5731,59.666,6.1253],[5.5669,59.6662,0.0],[5.5636,59.6635,0.0],[5.5636,59.6604,6.9842],[5.5586,59.6532,0.0],[5.5592,59.6485,23.0584],[5.5547,59.6479,0.0],[5.5564,59.6443,2.734],[5.5531,59.6385,0.0],[5.5653,59.6368,20.9348],[5.5608,59.6346,1.8606],[5.5614,59.6324,20.1875],[5.5525,59.6285,0.0],[5.5553,59.6265,12.8671],[5.5536,59.6243,0.0],[5.5542,59.6185,0.0],[5.5569,59.6168,0.0],[5.5592,59.6118,14.7113],[5.5564,59.6079,1.6635],[5.5531,59.6065,0.0],[5.5547,59.6049,0.0],[5.5525,59.6032,0.0],[5.5553,59.5996,0.0],[5.5597,59.5985,12.59],[5.5575,59.596,0.0],[5.5597,59.594,6.6166],[5.5669,59.5926,0.0],[5.5769,59.5943,4.332],[5.5831,59.5932,0.0],[5.5808,59.5921,0.0],[5.5819,59.5899,6.8542],[5.5808,59.5893,3.9473],[5.5697,59.5876,2.0837],[5.5636,59.5824,0.0],[5.5647,59.5788,0.0],[5.5603,59.5782,0.0],[5.5619,59.5749,0.0],[5.5653,59.5746,3.5701],[5.5658,59.5665,0.0],[5.5686,59.5657,0.5976],[5.5653,59.5624,0.0],[5.5669,59.5588,0.0],[5.5636,59.5563,0.0],[5.5625,59.5532,4.3123],[5.5569,59.5518,0.0],[5.5569,59.5499,0.0],[5.5614,59.546,10.2557],[5.5581,59.5465,4.1064],[5.5569,59.5488,0.0],[5.5514,59.5471,1.8329],[5.55,59.5496,5.5633],[5.5511,59.5515,1.634],[5.5492,59.5518,1.634],[5.5469,59.5496,7.2712],[5.5497,59.5462,4.1809],[5.5482,59.5435,4.5236],[5.5496,59.5404,14.6524],[5.5582,59.5414,47.1956],[5.5601,59.537,25.9277],[5.5688,59.538,50.937],[5.5707,59.5336,50.2294],[5.5794,59.5346,93.886],[5.5813,59.5302,159.8305],[5.59,59.5312,188.6186],[5.5919,59.5268,217.6227],[5.6179,59.5297,314.6779],[5.616,59.5341,256.5954],[5.6246,59.535,241.2812],[5.6227,59.5394,245.1899],[5.6314,59.5404,397.5721],[5.6295,59.5448,213.6887],[5.6642,59.5486,182.4252],[5.6528,59.5749,509.2722],[5.6614,59.5759,362.0605],[5.6595,59.5802,364.7454],[5.6769,59.5822,453.1589],[5.675,59.5866,378.3396],[5.6924,59.5885,455.3712],[5.6943,59.5841,415.0688],[5.7029,59.5851,184.7007],[5.7048,59.5807,112.1097],[5.7135,59.5816,52.0406],[5.7154,59.5773,57.963],[5.7241,59.5782,116.1581],[5.7298,59.5651,197.5648],[5.8426,59.5775,357.1145],[5.8445,59.5732,270.5402],[5.8706,59.576,241.1938],[5.8687,59.5804,288.6084],[5.8861,59.5823,279.9971],[5.8842,59.5867,304.636],[5.8929,59.5876,328.5653],[5.891,59.592,325.432],[5.8997,59.593,345.9501],[5.8978,59.5974,363.9739],[5.9065,59.5983,389.1777],[5.9028,59.6071,556.6458],[5.9115,59.608,492.2054],[5.9058,59.6212,476.6515],[5.9145,59.6221,451.0917],[5.9127,59.6265,382.7757],[5.904,59.6255,285.5017],[5.9021,59.6299,219.7776],[5.8847,59.628,229.0783],[5.8828,59.6324,125.7888],[5.8654,59.6305,268.1902],[5.8635,59.6349,199.451],[5.8548,59.6339,281.4221],[5.853,59.6383,304.449],[5.8443,59.6374,349.8631],[5.8404,59.6464,74.4359]]],
[[[5.7558,59.6715,9.7198],[5.7536,59.6718,1.1743],[5.7547,59.6685,14.3989],[5.7469,59.6676,7.5606],[5.7481,59.6654,0.0],[5.7514,59.6643,3.9125],[5.7481,59.6629,2.6143],[5.7625,59.6613,3.8317],[5.7575,59.6643,3.5952],[5.7608,59.6649,0.0],[5.7625,59.6671,5.0882],[5.7558,59.6715,9.7198]]],
[[[5.7303,59.6821,4.5825],[5.7286,59.6838,0.0],[5.7231,59.6824,0.0],[5.7219,59.6807,15.9783],[5.7303,59.6774,12.7945],[5.7331,59.674,13.838],[5.7308,59.6699,1.714],[5.7358,59.6685,0.0],[5.7419,59.6688,4.8505],[5.7381,59.671,4.1247],[5.7392,59.6751,24.4576],[5.7536,59.6768,0.7234],[5.7525,59.6815,0.0],[5.7503,59.6829,0.0],[5.7464,59.6801,39.8354],[5.7442,59.681,0.0],[5.7464,59.6835,0.0],[5.7392,59.6824,0.0],[5.7381,59.6782,11.2656],[5.7319,59.6785,26.6637],[5.7303,59.6821,4.5825]]],
[[[5.6214,59.6807,3.4274],[5.6175,59.6796,7.7825],[5.6197,59.6782,0.0],[5.6242,59.6785,0.0],[5.6214,59.6807,3.4274]]],
[[[5.5953,59.7079,4.0131],[5.5908,59.7076,0.0],[5.5942,59.7057,1.8656],[5.5975,59.7062,0.0],[5.5953,59.7079,4.0131]]],
[[[5.5975,59.7196,0.0],[5.5969,59.7218,0.0],[5.5914,59.7204,0.0],[5.5969,59.7185,0.0],[5.5975,59.7196,0.0]]]]}
,"properties": {"GID_2": "NOR.7.21_1","GID_0": "NOR","country": "Norway","GID_1": "NOR.7_1","province": "Hordaland","NL_NAME_1": "NA","county": "Oelen","VARNAME_2": "NA","NL_NAME_2": "NA","TYPE_2": "Kommuner","ENGTYPE_2": "Municipality","CC_2": "NA","HASC_2": "NO.HO.OL","name": "Oelen.county","area_km2": 191.8504,"hist_schema_id": "Elevation0-9000","hist_area_km2": {"0": 6.6585,"25": 11.9865,"50": 15.7739,"75": 11.8164,"100": 9.3819,"125": 7.7099,"150": 6.7561,"175": 6.9811,"200": 8.7737,"225": 6.736,"250": 6.8864,"275": 7.8515,"300": 8.3665,"325": 8.861,"350": 9.9561,"375": 9.389,"400": 6.9423,"425": 6.3199,"450": 7.081,"475": 6.1689,"500": 5.107,"525": 4.2596,"550": 3.7121,"575": 2.8432,"600": 1.8448,"625": 1.2757,"650": 1.3183,"675": 0.6323,"700": 0.3537,"725": 0.1072}}}