{"type":"Feature","properties":{"GID_2":"NOR.1.8_1","GID_0":"NOR","country":"Norway","GID_1":"NOR.1_1","province":"Akershus","NL_NAME_1":"NA","county":"Frogn","VARNAME_2":"NA","NL_NAME_2":"NA","TYPE_2":"Kommuner","ENGTYPE_2":"Municipality","CC_2":"NA","HASC_2":"NO.AK.FR","name":"Frogn.county"},
"geometry":{"type": "MultiPolygon","coordinates": [[[[10.5875,59.6757,4.2616],[10.5825,59.674,1.552],[10.5947,59.6726,0.0],[10.5936,59.6738,0.0],[10.5875,59.6757,4.2616]]],
[[[10.5653,59.7209,0.0],[10.5608,59.7215,11.9235],[10.5519,59.7196,4.1557],[10.5486,59.7168,3.4411],[10.5497,59.7132,0.0],[10.5547,59.7151,0.0],[10.5536,59.7096,0.0],[10.5586,59.7071,16.6832],[10.5525,59.7068,4.9516],[10.5536,59.6999,0.0],[10.5553,59.6982,0.0],[10.5592,59.6985,0.0],[10.5592,59.6954,0.0],[10.5625,59.6926,21.4431],[10.5647,59.686,23.3858],[10.5675,59.6832,0.0],[10.5864,59.6765,4.2616],[10.6003,59.6746,0.0],[10.5969,59.6832,0.0],[10.5925,59.6874,6.866],[10.5925,59.6913,0.0],[10.5864,59.6929,0.0],[10.5853,59.696,0.0],[10.5781,59.6979,36.2058],[10.5731,59.7015,3.9744],[10.5625,59.7032,0.8819],[10.5614,59.7054,0.0],[10.5631,59.7065,0.0],[10.5636,59.7107,0.0],[10.5625,59.7143,22.6918],[10.5669,59.7146,10.4433],[10.5703,59.7182,1.0924],[10.5653,59.7209,0.0]]],
[[[10.5925,59.7026,0.0],[10.5897,59.7032,0.0],[10.5886,59.7024,0.0],[10.5914,59.7001,0.0],[10.5925,59.7026,0.0]]],
[[[10.6081,59.6796,1.4042],[10.6036,59.6796,1.2594],[10.6058,59.6776,7.6398],[10.6042,59.6732,0.0],[10.6092,59.6718,0.0],[10.6092,59.6754,0.0],[10.6064,59.6763,7.186],[10.6092,59.6779,0.0],[10.6081,59.6796,1.4042]]],
[[[10.728,59.7179,16.1012],[10.7247,59.7243,0.0],[10.7208,59.7229,0.0],[10.7214,59.7215,3.2226],[10.7186,59.7204,2.8063],[10.7175,59.7179,0.0],[10.7131,59.7168,3.058],[10.7164,59.719,1.9394],[10.7131,59.7196,22.6173],[10.7136,59.7204,22.6173],[10.7208,59.7238,15.027],[10.7258,59.729,5.2325],[10.7219,59.7374,0.0],[10.7208,59.7457,6.1906],[10.7169,59.7504,48.1341],[10.7181,59.7513,0.0],[10.7136,59.7524,9.4763],[10.7147,59.7549,0.0],[10.7092,59.7565,7.4617],[10.7136,59.7599,3.8683],[10.7125,59.7654,0.0],[10.7108,59.7657,3.6987],[10.7114,59.7682,1.7737],[10.7153,59.7693,1.6038],[10.7136,59.7749,11.2208],[10.7097,59.7756,2.0523],[10.7057,59.7753,42.8593],[10.7069,59.7709,36.1759],[10.6804,59.769,74.1723],[10.6816,59.7645,108.7067],[10.6463,59.762,124.4399],[10.6475,59.7575,121.5729],[10.6387,59.7569,111.7614],[10.6412,59.748,115.5355],[10.6324,59.7474,118.2442],[10.6374,59.7296,118.4644],[10.6286,59.729,114.2567],[10.6298,59.7245,115.3477],[10.5864,59.7221,11.6537],[10.5892,59.7165,0.0],[10.5997,59.7118,12.7773],[10.5986,59.7088,26.9862],[10.6003,59.7065,14.1403],[10.5997,59.7038,25.0378],[10.6014,59.6996,0.0],[10.6031,59.699,19.9496],[10.6042,59.694,0.0],[10.6069,59.6926,25.8665],[10.6064,59.691,0.0],[10.6108,59.6849,1.6313],[10.6153,59.6824,4.261],[10.6231,59.6901,0.0],[10.6242,59.6982,29.0911],[10.6281,59.7007,5.4961],[10.6275,59.7018,5.4961],[10.6414,59.7043,4.4524],[10.6375,59.6982,16.3977],[10.6325,59.6982,7.6354],[10.6308,59.6988,2.7699],[10.6314,59.7001,0.0],[10.6264,59.6988,10.3072],[10.6264,59.6968,0.0],[10.6308,59.6957,9.7615],[10.6269,59.6943,0.0],[10.6242,59.6865,0.0],[10.6203,59.6851,6.0375],[10.6214,59.6826,0.6648],[10.6242,59.6829,0.6648],[10.6247,59.6804,0.0],[10.6214,59.6779,0.0],[10.6225,59.6749,19.7762],[10.6197,59.6749,2.2693],[10.6197,59.6726,8.4828],[10.6225,59.6715,14.881],[10.6236,59.6688,2.1012],[10.6258,59.6685,3.5709],[10.6247,59.6635,0.0],[10.6325,59.654,13.8558],[10.6325,59.6493,1.4216],[10.6375,59.6429,0.0],[10.6375,59.639,0.0],[10.6425,59.6382,6.5266],[10.6431,59.6282,0.0],[10.6486,59.6257,12.6774],[10.6481,59.6225,4.2641],[10.6674,59.623,78.312],[10.6662,59.6274,101.0769],[10.675,59.6281,77.6376],[10.6725,59.637,99.5887],[10.6813,59.6376,84.1408],[10.6751,59.6598,89.7033],[10.6839,59.6604,90.0799],[10.6826,59.6649,137.7861],[10.7091,59.6668,95.5735],[10.7078,59.6712,73.9483],[10.7254,59.6725,80.0758],[10.7242,59.6769,59.1306],[10.7418,59.6782,75.8947],[10.7394,59.687,54.2851],[10.7482,59.6877,32.5],[10.7432,59.7055,65.5022],[10.7344,59.7048,63.405],[10.7303,59.7193,40.0698],[10.728,59.7179,16.1012]]]]}}