{"type": "Feature","bbox": [10.3552,63.1564,10.7091,63.3411],"geometry": {"type": "MultiPolygon","coordinates": [[[[10.7,63.3113,410.3943],[10.6802,63.3101,346.1691],[10.6787,63.3145,453.913],[10.6589,63.3132,341.7034],[10.6575,63.3177,307.1822],[10.6278,63.3158,295.1118],[10.6263,63.3202,308.7119],[10.6065,63.3189,277.2881],[10.6051,63.3234,350.3007],[10.5853,63.3221,350.6906],[10.5838,63.3265,304.0679],[10.564,63.3252,290.2753],[10.5611,63.3341,274.8188],[10.5512,63.3335,252.0707],[10.5497,63.3379,209.4391],[10.5299,63.3366,285.5515],[10.5285,63.3411,272.5182],[10.4492,63.3359,111.6554],[10.4477,63.3403,142.5907],[10.4279,63.339,101.3765],[10.4294,63.3346,128.2192],[10.4096,63.3333,146.9492],[10.4111,63.3288,181.2748],[10.4012,63.3282,196.2604],[10.4041,63.3193,236.7576],[10.3942,63.3186,264.0432],[10.4002,63.3009,375.9038],[10.3903,63.3002,436.4815],[10.3918,63.2958,452.6461],[10.3819,63.2951,379.8333],[10.3834,63.2907,471.5111],[10.3636,63.2894,453.696],[10.3651,63.2849,517.0347],[10.3552,63.2843,524.7516],[10.3641,63.2576,535.1934],[10.374,63.2583,415.7541],[10.3755,63.2538,388.2641],[10.3853,63.2545,341.6884],[10.3868,63.25,358.7155],[10.3967,63.2507,304.9463],[10.3982,63.2463,263.7868],[10.408,63.2469,306.0059],[10.4095,63.2425,273.0503],[10.4194,63.2431,236.2767],[10.4209,63.2387,280.9363],[10.4406,63.24,193.8978],[10.4421,63.2355,170.1338],[10.4618,63.2369,174.0748],[10.4633,63.2324,168.6879],[10.483,63.2337,356.5783],[10.4845,63.2293,425.2834],[10.4944,63.2299,390.7592],[10.4958,63.2255,387.0432],[10.5156,63.2268,389.8542],[10.517,63.2223,402.1357],[10.5269,63.223,358.4856],[10.5283,63.2185,391.8391],[10.5382,63.2192,441.752],[10.5411,63.2103,568.8789],[10.551,63.2109,588.3948],[10.5524,63.2065,600.9645],[10.5623,63.2071,579.4832],[10.5652,63.1983,570.4984],[10.5751,63.1989,567.6356],[10.5765,63.1945,544.7635],[10.5864,63.1951,609.36],[10.5893,63.1862,580.5035],[10.5991,63.1869,549.1348],[10.602,63.178,586.434],[10.6119,63.1786,576.9136],[10.6133,63.1742,597.7048],[10.6232,63.1748,694.3459],[10.626,63.1659,778.4819],[10.6359,63.1666,735.9508],[10.6373,63.1621,765.7164],[10.6669,63.164,619.8655],[10.6683,63.1596,593.0897],[10.688,63.1609,636.7946],[10.6894,63.1564,687.6188],[10.7091,63.1577,788.9594],[10.7063,63.1666,712.241],[10.6964,63.1659,669.9009],[10.6864,63.1971,743.6662],[10.6766,63.1964,619.8906],[10.6622,63.2409,358.5033],[10.6424,63.2396,450.1643],[10.641,63.244,444.8254],[10.6509,63.2447,362.0725],[10.648,63.2535,321.2153],[10.6579,63.2542,335.5413],[10.6521,63.272,156.5],[10.6422,63.2713,156.5],[10.6408,63.2758,156.5],[10.6309,63.2751,156.5],[10.6295,63.2796,309.2271],[10.6196,63.2789,303.4272],[10.6152,63.2923,378.5917],[10.6251,63.2929,363.5267],[10.6237,63.2973,343.2387],[10.6336,63.298,432.7992],[10.6321,63.3024,356.7857],[10.7014,63.3069,320.8144],[10.7,63.3113,410.3943]]]]}
,"properties": {"GID_2": "NOR.15.8_1","GID_0": "NOR","country": "Norway","GID_1": "NOR.15_1","province": "Sør-Trøndelag","NL_NAME_1": "NA","county": "Klæbu","VARNAME_2": "NA","NL_NAME_2": "NA","TYPE_2": "Kommuner","ENGTYPE_2": "Municipality","CC_2": "NA","HASC_2": "NO.ST.KL","name": "Klæbu.county","area_km2": 186.5926,"hist_schema_id": "Elevation0-9000","hist_area_km2": {"75": 0.4377,"100": 2.8479,"125": 8.4002,"150": 19.5565,"175": 12.997,"200": 7.0554,"225": 6.587,"250": 6.8826,"275": 8.1214,"300": 8.8083,"325": 11.3149,"350": 13.5364,"375": 12.4539,"400": 11.4385,"425": 9.8953,"450": 9.333,"475": 6.0895,"500": 4.5443,"525": 3.8222,"550": 4.9131,"575": 6.5596,"600": 3.8443,"625": 2.4091,"650": 1.6923,"675": 0.9471,"700": 0.6698,"725": 0.8133,"750": 0.3923,"775": 0.1723,"800": 0.0574}}}