{"type":"Feature","properties":{"featurecla":"River","scalerank":6,"rivernum":337,"dissolve":"337River","name":"Glomma","name_alt":"Glma","note":null,"min_zoom":5.0,"strokeweig":0.2,"name_en":"Glma","min_label":6.0},
"geometry":{"type": "LineString","coordinates": [[11.483544921875023,62.68695709843162,690.0],[11.45654296875,62.684442449994123,709.3116],[11.42626953125,62.68402741093162,734.603],[11.414697265625023,62.680780340619123,671.2751],[11.407958984375,62.671502996869123,648.9678],[11.404199218750023,62.65021393436912,644.1639],[11.39794921875,62.646014715619117,672.8555],[11.374414062500023,62.640985418744123,679.3937],[11.349365234375,62.62860748905662,670.0076],[11.327294921875023,62.61298248905662,706.07],[11.312255859375,62.59821198124412,678.8332],[11.3076171875,62.588641668744117,735.3635],[11.309960937500023,62.57489655155662,735.5934],[11.304833984375023,62.563495184369117,697.7388],[11.298974609375023,62.558368231244117,682.1721],[11.284814453125023,62.554071356244123,665.9573],[11.278222656250023,62.549823309369117,655.9891],[11.273828125000023,62.54364655155662,670.095],[11.270751953125,62.532001043744117,656.2375],[11.267236328125023,62.52619049686912,659.004],[11.24560546875,62.513544012494123,668.8675],[11.186669921875023,62.50250885624412,619.8797],[11.160791015625023,62.49408600468162,675.2927],[11.119873046875,62.46735260624412,770.0078],[11.095458984375,62.436786199994117,630.5521],[11.089111328125,62.432001043744123,603.6074],[11.019287109375,62.424188543744123,718.4432],[10.908447265625,62.38739655155662,612.762],[10.884033203125,62.374530340619117,597.9703],[10.873437500000023,62.360614324994117,724.3421],[10.865234375,62.34625885624412,562.8257],[10.825341796875023,62.311639715619123,622.3042],[10.811425781250023,62.302264715619117,593.4362],[10.781494140625,62.29108307499412,572.6019],[10.67529296875,62.270868231244123,538.8657],[10.667236328125,62.26740143436912,523.8278],[10.661376953125,62.26080963749412,517.4656],[10.654296875,62.24762604374412,477.2066],[10.653710937500023,62.242792059369123,480.2216],[10.655419921875023,62.23114655155662,476.3228],[10.654296875,62.22650787968162,478.8822],[10.640771484375023,62.212909246869117,545.5441],[10.624169921875023,62.190692449994117,477.9214],[10.61962890625,62.178729559369117,474.5],[10.614501953125,62.156024481244117,477.6819],[10.61279296875,62.132098699994117,500.7733],[10.620361328125,62.106708074994117,480.7354],[10.638427734375,62.08978912968162,475.9191],[10.663476562500023,62.08038971561912,497.9298],[10.69189453125,62.07746002811912,486.0009],[10.71923828125,62.04645416874412,502.5332],[10.729736328125,62.037958074994123,506.156],[10.808740234375023,62.010760809369117,625.137],[10.821923828125023,62.00922272343162,562.8674],[10.83349609375,62.00580475468162,487.5457],[10.858642578125,61.99091217655662,506.0832],[10.869775390625023,61.98749420780662,488.9616],[10.8818359375,61.97846100468162,473.0103],[10.886962890625,61.95746491093162,444.8787],[10.885400390625023,61.933612371869117,460.3272],[10.876855468750023,61.915790106244117,437.3385],[10.862695312500023,61.90326569218162,401.5887],[10.865478515625,61.898797918744123,409.5061],[10.906982421875,61.86456940311912,389.2925],[10.888574218750023,61.849383856244117,416.2913],[10.863671875000023,61.83588287968162,375.9371],[10.841796875,61.82037994999412,380.2073],[10.83251953125,61.79938385624412,422.7188],[10.825341796875023,61.77619049686912,393.105],[10.813378906250023,61.76032135624412,377.5586],[10.810937500000023,61.746112371869117,368.4133],[10.83251953125,61.728045965619117,357.4618],[10.875146484375023,61.70722077030662,332.3199],[10.893212890625023,61.692157293744117,356.3328],[10.890283203125023,61.67645905155662,348.2692],[10.879150390625,61.654315496869117,301.0695],[10.89111328125,61.634149481244123,297.9973],[10.913720703125023,61.61896393436912,357.1346],[10.934228515625023,61.611346746869117,349.8676],[10.964257812500023,61.60382721561912,291.4114],[10.9833984375,61.594012762494117,289.81],[11.0205078125,61.56012604374412,267.5477],[11.03564453125,61.538446356244123,288.5688],[11.034570312500023,61.51947662968162,382.6618],[11.016845703125,61.48163483280662,452.0747],[11.017578125,61.46381256718162,280.3803],[11.028955078125023,61.44818756718162,308.6744],[11.047998046875023,61.43451569218162,298.2579],[11.072265625,61.42279694218162,252.5791]]}}