{"type":"Feature","properties":{"featurecla":"River","scalerank":6,"rivernum":228,"dissolve":"228River","name":"Dalälven6","name_alt":null,"note":"Version 1.2 edit in N. America and Europe","min_zoom":5.0,"strokeweig":0.15,"name_en":"Dalälven","min_label":6.0},
"geometry":{"type": "LineString","coordinates": [[11.980712890625,61.801629949994123,851.8865],[11.97216796875,61.809100653119117,812.2756],[11.967675781250023,61.819110418744117,810.7874],[11.968994140625,61.832879949994123,773.5372],[11.978271484375,61.849627996869117,728.3207],[11.993408203125,61.866815496869123,678.1884],[12.018212890625023,61.879510809369123,680.2596],[12.051171875000023,61.885370184369123,664.9334],[12.08984375,61.88641998905662,700.1171],[12.163232421875023,61.88068268436912,670.3947],[12.205712890625023,61.868280340619123,681.4184],[12.257470703125023,61.857294012494123,667.1287],[12.279052734375,61.85077545780662,672.0723]]}}