{"type":"Feature","properties":{"GID_2":"NOR.15.10_1","GID_0":"NOR","country":"Norway","GID_1":"NOR.15_1","province":"Sør-Trøndelag","NL_NAME_1":"NA","county":"Meldal","VARNAME_2":"NA","NL_NAME_2":"NA","TYPE_2":"Kommuner","ENGTYPE_2":"Municipality","CC_2":"NA","HASC_2":"NO.ST.MD","name":"Meldal.county"},
"geometry":{"type": "MultiPolygon","coordinates": [[[[9.4509,62.8527,819.7205],[9.4703,62.8541,731.4132],[9.4687,62.8586,740.912],[9.4784,62.8593,733.5133],[9.4768,62.8637,752.8801],[9.4963,62.8651,721.6763],[9.4947,62.8696,736.9877],[9.5044,62.8703,714.2042],[9.5028,62.8747,726.3578],[9.5223,62.8761,712.9521],[9.5239,62.8717,707.526],[9.5433,62.8731,710.7835],[9.5386,62.8864,717.6168],[9.5483,62.8871,678.4839],[9.5467,62.8916,671.5453],[9.5662,62.893,681.2842],[9.5646,62.8974,662.0287],[9.5841,62.8988,650.1241],[9.5825,62.9033,636.8651],[9.602,62.9047,668.6293],[9.6004,62.9091,680.1598],[9.6199,62.9105,661.5892],[9.6183,62.915,675.4073],[9.6281,62.9157,606.8585],[9.6265,62.9201,615.0876],[9.6363,62.9208,535.5156],[9.6331,62.9297,563.7499],[9.6429,62.9304,524.6695],[9.6413,62.9348,543.5326],[9.6608,62.9362,465.8513],[9.6592,62.9407,530.5504],[9.6787,62.9421,473.6152],[9.6772,62.9465,425.808],[9.6967,62.9479,537.4778],[9.6951,62.9523,454.0864],[9.7146,62.9538,482.8748],[9.7131,62.9582,378.172],[9.7326,62.9596,521.155],[9.731,62.964,392.8087],[9.7506,62.9654,379.0639],[9.749,62.9699,432.5824],[9.7978,62.9733,317.0866],[9.7994,62.9689,313.3019],[9.8287,62.971,609.2628],[9.8302,62.9666,613.6501],[9.9475,62.9748,829.253],[9.949,62.9704,850.337],[9.9686,62.9718,808.8455],[9.9701,62.9673,809.3052],[9.9799,62.968,780.5112],[9.9783,62.9724,781.9184],[9.9881,62.9731,777.2026],[9.9851,62.982,723.7206],[9.9948,62.9827,670.5429],[9.9918,62.9916,626.4102],[10.0016,62.9922,592.7476],[9.9985,63.0011,537.6244],[10.0083,63.0018,530.9802],[9.9885,63.0595,451.4427],[9.9787,63.0588,426.6582],[9.9756,63.0676,493.7229],[9.9658,63.067,498.0215],[9.9627,63.0758,494.2784],[9.9529,63.0752,499.8884],[9.9483,63.0885,427.1207],[9.9385,63.0878,419.5469],[9.9354,63.0966,348.0752],[9.9158,63.0953,359.1074],[9.9173,63.0908,353.6944],[9.9075,63.0901,334.866],[9.9106,63.0813,431.3732],[9.9008,63.0806,423.1022],[9.8791,63.1427,278.3524],[9.8693,63.142,301.4962],[9.8678,63.1464,275.2911],[9.8481,63.145,350.1914],[9.8466,63.1495,320.8016],[9.8269,63.1481,342.6167],[9.8253,63.1525,281.3974],[9.7959,63.1504,224.6874],[9.7974,63.146,182.8309],[9.7581,63.1432,274.3965],[9.7565,63.1476,327.2668],[9.7369,63.1462,350.0494],[9.7353,63.1507,329.9626],[9.7157,63.1493,138.0236],[9.7141,63.1537,154.0376],[9.6355,63.1481,189.8968],[9.6323,63.1569,368.8314],[9.6127,63.1555,372.1221],[9.6111,63.16,328.6659],[9.6012,63.1592,354.2544],[9.5965,63.1725,308.5731],[9.5866,63.1718,270.1872],[9.585,63.1763,252.0559],[9.5752,63.1756,219.83],[9.5736,63.18,205.8536],[9.5539,63.1786,203.9067],[9.5523,63.183,196.0],[9.5425,63.1823,244.5654],[9.5409,63.1867,281.1243],[9.5016,63.1839,470.0588],[9.5032,63.1794,457.0314],[9.454,63.1758,355.1735],[9.4556,63.1714,262.4342],[9.4458,63.1707,321.8149],[9.4474,63.1663,258.0851],[9.4376,63.1655,302.9474],[9.4425,63.1522,320.5576],[9.4523,63.153,303.4442],[9.4587,63.1352,399.3268],[9.4489,63.1345,377.3907],[9.4522,63.1257,482.7924],[9.4424,63.1249,450.3517],[9.4456,63.1161,480.7531],[9.4358,63.1154,455.4343],[9.439,63.1065,434.3834],[9.4292,63.1058,335.6888],[9.4341,63.0925,308.8237],[9.4537,63.0939,375.591],[9.4601,63.0762,541.4292],[9.4503,63.0755,556.3076],[9.4535,63.0666,633.1458],[9.4437,63.0659,561.2774],[9.4453,63.0615,554.8222],[9.4258,63.0601,503.2964],[9.4274,63.0556,562.7363],[9.4176,63.0549,494.3158],[9.4192,63.0505,539.6305],[9.429,63.0512,546.2089],[9.4322,63.0423,587.2906],[9.4518,63.0438,504.0634],[9.4534,63.0393,528.4529],[9.4827,63.0415,687.032],[9.4844,63.0371,637.7512],[9.4941,63.0378,680.7652],[9.4989,63.0245,563.8964],[9.5185,63.0259,542.3471],[9.5201,63.0215,600.8185],[9.5494,63.0236,596.0297],[9.551,63.0192,650.6526],[9.5706,63.0206,783.5944],[9.5738,63.0118,935.8918],[9.5835,63.0125,1023.0992],[9.5851,63.008,1021.2092],[9.546,63.0052,793.9681],[9.5476,63.0008,820.3915],[9.5183,62.9986,716.0229],[9.5199,62.9942,696.319],[9.4808,62.9913,565.6323],[9.4824,62.9869,540.8411],[9.4727,62.9862,497.3986],[9.4759,62.9773,502.9018],[9.4661,62.9766,493.3159],[9.4693,62.9677,507.2398],[9.4596,62.967,533.5704],[9.4612,62.9626,588.926],[9.4416,62.9612,766.2108],[9.4432,62.9567,846.3663],[9.4237,62.9553,907.6494],[9.427,62.9464,833.0128],[9.4172,62.9457,689.6915],[9.43,62.9103,844.638],[9.4398,62.911,854.865],[9.4558,62.8667,1043.7423],[9.4461,62.866,1122.6416],[9.4509,62.8527,819.7205]]]]}}