{"type": "Feature","bbox": [10.1247,60.3102,10.918,60.5692],"geometry": {"type": "MultiPolygon","coordinates": [[[[10.7037,60.5185,544.7498],[10.6766,60.5166,571.1128],[10.6779,60.5121,582.8763],[10.6508,60.5103,434.9144],[10.6495,60.5147,413.9807],[10.6404,60.5141,409.3169],[10.6392,60.5185,397.0],[10.6301,60.5179,453.7227],[10.6262,60.5312,448.0659],[10.5991,60.5293,613.2346],[10.5965,60.5382,612.5262],[10.5875,60.5375,607.53],[10.5849,60.5464,596.6398],[10.5758,60.5458,581.3481],[10.5745,60.5502,584.1362],[10.5654,60.5496,579.7086],[10.5641,60.554,558.8505],[10.5551,60.5534,504.3633],[10.5525,60.5623,488.5712],[10.5434,60.5616,502.8595],[10.5421,60.5661,505.2165],[10.524,60.5648,666.3768],[10.5227,60.5692,677.8612],[10.5046,60.5679,681.4536],[10.5059,60.5635,688.7025],[10.4697,60.5609,573.4483],[10.471,60.5565,528.722],[10.3986,60.5513,478.1757],[10.4,60.5469,492.8567],[10.3547,60.5436,475.2963],[10.3561,60.5392,451.7433],[10.347,60.5385,439.0784],[10.3484,60.5341,415.6778],[10.3303,60.5327,317.3798],[10.3316,60.5283,349.4782],[10.2955,60.5257,132.5],[10.2941,60.5301,132.5],[10.267,60.5281,298.0827],[10.2657,60.5326,335.258],[10.2476,60.5313,388.3683],[10.2462,60.5357,468.9347],[10.2191,60.5337,412.7185],[10.2178,60.5382,456.3247],[10.2087,60.5375,415.6331],[10.2074,60.5419,436.6675],[10.1893,60.5406,365.8762],[10.188,60.545,424.0702],[10.1789,60.5444,392.1643],[10.1776,60.5488,422.1513],[10.1323,60.5455,336.0518],[10.1337,60.541,361.8135],[10.1247,60.5404,234.0135],[10.126,60.5359,228.0],[10.1351,60.5366,281.6313],[10.1392,60.5233,263.7087],[10.1482,60.524,239.2931],[10.1577,60.4929,473.498],[10.1667,60.4936,436.5572],[10.1708,60.4802,418.3633],[10.1798,60.4809,371.6741],[10.1812,60.4765,358.7169],[10.1722,60.4758,396.3844],[10.1762,60.4625,399.899],[10.1672,60.4618,381.0],[10.1875,60.3953,404.0908],[10.2145,60.3973,420.4796],[10.2158,60.3928,414.0966],[10.2428,60.3948,422.0],[10.2442,60.3904,425.1768],[10.2622,60.3917,417.1967],[10.2635,60.3872,434.9536],[10.2725,60.3879,432.165],[10.2738,60.3835,437.4952],[10.2828,60.3841,443.7056],[10.2842,60.3797,443.7439],[10.2932,60.3803,433.2193],[10.2945,60.3759,441.0233],[10.3035,60.3766,426.7612],[10.3048,60.3721,441.4483],[10.3138,60.3728,465.6537],[10.3151,60.3683,456.1332],[10.3241,60.369,454.7049],[10.3255,60.3646,451.7969],[10.3524,60.3665,211.4193],[10.3511,60.371,200.8379],[10.3871,60.3736,132.5],[10.3897,60.3647,132.5],[10.3808,60.364,132.5],[10.3847,60.3507,132.5],[10.3757,60.3501,132.5],[10.3784,60.3412,132.5],[10.3694,60.3405,132.5],[10.3733,60.3272,132.5],[10.3643,60.3266,132.5],[10.367,60.3177,132.5],[10.4209,60.3216,334.5121],[10.4222,60.3172,404.4481],[10.4312,60.3178,427.627],[10.4325,60.3134,419.7161],[10.4505,60.3147,388.0438],[10.4518,60.3102,314.6647],[10.4697,60.3115,302.9048],[10.4684,60.3159,374.2236],[10.4774,60.3166,372.6794],[10.4761,60.321,430.6648],[10.4851,60.3217,426.8957],[10.4864,60.3172,386.1894],[10.5493,60.3217,432.2],[10.548,60.3262,416.1742],[10.557,60.3268,405.6152],[10.5583,60.3224,389.2203],[10.5762,60.3237,244.6303],[10.5775,60.3192,245.8406],[10.5955,60.3205,309.6244],[10.5968,60.316,270.816],[10.6237,60.318,389.7585],[10.6225,60.3224,365.2792],[10.6494,60.3243,504.1588],[10.6481,60.3287,543.0435],[10.6931,60.3319,552.0731],[10.6918,60.3363,636.0513],[10.7098,60.3376,422.5018],[10.7085,60.342,421.7422],[10.7175,60.3427,421.9817],[10.7188,60.3382,422.0919],[10.7278,60.3389,440.5259],[10.7291,60.3344,422.0486],[10.7201,60.3338,422.5978],[10.7239,60.3205,454.0107],[10.7329,60.3211,443.4527],[10.7341,60.3166,483.6891],[10.7521,60.3179,479.8953],[10.7534,60.3135,499.5632],[10.8073,60.3172,591.9921],[10.8086,60.3128,570.2945],[10.8445,60.3152,603.4581],[10.8458,60.3108,557.0681],[10.8728,60.3127,508.8044],[10.8715,60.3171,497.414],[10.8805,60.3177,465.3863],[10.8792,60.3222,525.0975],[10.8882,60.3228,622.3594],[10.887,60.3272,654.248],[10.896,60.3278,674.0369],[10.8947,60.3323,632.1785],[10.9037,60.3329,607.1204],[10.9025,60.3374,546.1152],[10.9115,60.338,535.6452],[10.909,60.3469,463.4577],[10.918,60.3475,511.1125],[10.9142,60.3608,440.4271],[10.9052,60.3602,448.4313],[10.894,60.4002,659.2048],[10.885,60.3996,695.1312],[10.8837,60.404,701.0242],[10.8747,60.4034,677.9923],[10.8735,60.4079,691.6971],[10.8644,60.4072,615.1784],[10.8632,60.4117,624.8406],[10.8542,60.4111,599.116],[10.8529,60.4155,622.2347],[10.8439,60.4149,543.0616],[10.8426,60.4193,561.0797],[10.8336,60.4187,573.3207],[10.8324,60.4232,586.3274],[10.8233,60.4225,615.7346],[10.8221,60.427,636.4226],[10.786,60.4245,651.8792],[10.7847,60.4289,655.9416],[10.7577,60.4271,598.886],[10.7564,60.4315,629.9639],[10.7203,60.429,739.1337],[10.719,60.4334,757.6201],[10.683,60.4309,743.2883],[10.6804,60.4398,681.0889],[10.6714,60.4392,694.6543],[10.6688,60.4481,663.8513],[10.6869,60.4493,652.3001],[10.6856,60.4538,609.2357],[10.7036,60.455,647.2756],[10.7023,60.4595,579.8858],[10.7114,60.4601,615.0609],[10.7101,60.4645,573.3531],[10.7191,60.4652,646.1759],[10.7114,60.4918,550.4969],[10.7205,60.4925,560.9755],[10.7166,60.5058,563.8584],[10.7141,60.5147,530.4673],[10.705,60.514,550.968],[10.7037,60.5185,544.7498]]]]}
,"properties": {"GID_2": "NOR.11.5_1","GID_0": "NOR","country": "Norway","GID_1": "NOR.11_1","province": "Oppland","NL_NAME_1": "NA","county": "Gran","VARNAME_2": "NA","NL_NAME_2": "NA","TYPE_2": "Kommuner","ENGTYPE_2": "Municipality","CC_2": "NA","HASC_2": "NO.OP.GR","name": "Gran.county","area_km2": 766.3696,"hist_schema_id": "Elevation0-9000","hist_area_km2": {"125": 64.8683,"150": 10.9394,"175": 11.1273,"200": 21.3904,"225": 21.8008,"250": 24.582,"275": 27.6415,"300": 27.2262,"325": 25.0302,"350": 21.5581,"375": 36.579,"400": 49.7139,"425": 48.855,"450": 44.0626,"475": 33.7706,"500": 33.0409,"525": 36.4118,"550": 44.5259,"575": 41.6913,"600": 38.4155,"625": 30.6907,"650": 26.2935,"675": 18.4708,"700": 16.3775,"725": 6.9403,"750": 3.1936,"775": 1.0469,"800": 0.1256}}}