{"type": "Feature","bbox": [11.3367,60.296,11.8342,60.584],"geometry": {"type": "MultiPolygon","coordinates": [[[[11.4127,60.3487,282.5138],[11.4217,60.3493,292.1198],[11.424,60.3404,364.079],[11.4331,60.3409,423.2831],[11.4342,60.3365,441.709],[11.4522,60.3376,453.1749],[11.4534,60.3332,424.5065],[11.4624,60.3338,473.1495],[11.4636,60.3293,454.6975],[11.4726,60.3299,476.5119],[11.4738,60.3255,434.9731],[11.4828,60.326,421.0085],[11.4851,60.3171,395.9609],[11.4941,60.3177,350.0177],[11.4964,60.3088,360.8326],[11.5054,60.3094,363.2379],[11.5089,60.296,283.2925],[11.5269,60.2972,253.5211],[11.5258,60.3016,319.1201],[11.5437,60.3028,337.4091],[11.5426,60.3072,387.1676],[11.5876,60.3101,293.631],[11.5887,60.3056,345.6536],[11.6157,60.3073,183.0354],[11.61,60.3296,137.5975],[11.619,60.3302,134.0228],[11.6178,60.3346,136.2686],[11.6088,60.3341,141.5299],[11.5985,60.3741,130.0],[11.6165,60.3753,130.0],[11.6177,60.3708,130.0],[11.6267,60.3714,130.0],[11.629,60.3625,133.9738],[11.647,60.3636,130.0],[11.6482,60.3592,130.0],[11.6932,60.362,130.0],[11.6944,60.3575,130.0],[11.7034,60.3581,130.0],[11.7045,60.3536,130.0],[11.7316,60.3553,170.2212],[11.7293,60.3642,191.9382],[11.7383,60.3648,214.6079],[11.736,60.3737,343.2338],[11.7451,60.3743,311.7818],[11.7439,60.3787,302.8921],[11.753,60.3793,274.1859],[11.7541,60.3748,263.1314],[11.7631,60.3754,283.946],[11.7642,60.3709,311.1333],[11.7823,60.372,331.9555],[11.7834,60.3676,313.8188],[11.7924,60.3681,335.3619],[11.7936,60.3637,353.2898],[11.8026,60.3642,337.0227],[11.8037,60.3598,392.1606],[11.8217,60.3609,358.0503],[11.8195,60.3698,368.2526],[11.8105,60.3692,361.457],[11.8071,60.3826,360.4156],[11.8161,60.3832,370.413],[11.815,60.3876,358.5],[11.824,60.3882,358.5],[11.8206,60.4015,373.8753],[11.8297,60.4021,372.0307],[11.8252,60.4199,454.5757],[11.8342,60.4205,454.7859],[11.8331,60.4249,464.5194],[11.824,60.4244,462.3456],[11.8229,60.4288,471.967],[11.8139,60.4283,439.0229],[11.8116,60.4372,441.511],[11.8026,60.4366,421.6939],[11.8015,60.4411,422.0011],[11.7924,60.4405,396.3571],[11.7834,60.4761,430.547],[11.7743,60.4756,440.2978],[11.7754,60.4711,418.2108],[11.7574,60.47,440.3265],[11.7505,60.4967,454.9752],[11.7415,60.4962,438.9544],[11.7358,60.5184,418.4525],[11.7176,60.5173,411.4363],[11.7165,60.5218,409.6152],[11.7074,60.5212,419.6672],[11.7051,60.5301,423.6135],[11.6961,60.5296,456.1759],[11.6926,60.5429,496.0589],[11.6836,60.5424,488.0325],[11.6824,60.5468,452.4973],[11.6643,60.5457,432.1098],[11.6597,60.5635,429.0],[11.6506,60.5629,428.4539],[11.6483,60.5718,460.6218],[11.6392,60.5713,510.1001],[11.6381,60.5757,489.5973],[11.629,60.5751,536.1782],[11.6267,60.584,555.7489],[11.5904,60.5818,551.6138],[11.5915,60.5773,535.2313],[11.5643,60.5756,446.2096],[11.5655,60.5712,470.8113],[11.5383,60.5694,404.1547],[11.5429,60.5516,397.9572],[11.5339,60.5511,356.5873],[11.5432,60.5154,376.7122],[11.5342,60.5149,334.4579],[11.533,60.5193,375.7859],[11.4877,60.5164,418.1659],[11.4889,60.512,356.6318],[11.4527,60.5097,502.9466],[11.4539,60.5052,522.7772],[11.4358,60.5041,388.1337],[11.4346,60.5085,390.4445],[11.3984,60.5062,259.1544],[11.3972,60.5106,283.7971],[11.361,60.5083,353.7774],[11.3598,60.5127,400.6509],[11.3507,60.5122,407.327],[11.3543,60.4988,296.5444],[11.3453,60.4982,323.4534],[11.35,60.4804,414.6335],[11.341,60.4798,371.8955],[11.3458,60.462,369.8539],[11.3367,60.4615,397.4964],[11.3391,60.4526,393.6219],[11.3481,60.4531,382.6567],[11.3505,60.4442,455.8853],[11.3596,60.4448,440.3872],[11.3631,60.4315,498.6155],[11.3722,60.4321,503.3351],[11.3864,60.3787,408.7543],[11.3954,60.3792,445.439],[11.399,60.3659,375.9761],[11.408,60.3665,316.4416],[11.4127,60.3487,282.5138]]]]}
,"properties": {"GID_2": "NOR.6.12_1","GID_0": "NOR","country": "Norway","GID_1": "NOR.6_1","province": "Hedmark","NL_NAME_1": "NA","county": "Nord-Odal","VARNAME_2": "NA","NL_NAME_2": "NA","TYPE_2": "Kommuner","ENGTYPE_2": "Municipality","CC_2": "NA","HASC_2": "NO.HE.NO","name": "Nord-Odal.county","area_km2": 497.7871,"hist_schema_id": "Elevation0-9000","hist_area_km2": {"125": 30.0048,"150": 28.5941,"175": 20.927,"200": 22.5035,"225": 28.4779,"250": 33.3834,"275": 33.181,"300": 33.1332,"325": 35.5786,"350": 41.8624,"375": 47.7507,"400": 42.3715,"425": 36.1748,"450": 30.6514,"475": 20.2367,"500": 7.4287,"525": 3.4233,"550": 0.9585,"575": 0.4583,"600": 0.4583,"625": 0.2291}}}