{"type": "Feature","bbox": [6.9755,62.6479,7.8208,62.8707],"geometry": {"type": "MultiPolygon","coordinates": [[[[7.2484,62.716,21.9959],[7.25,62.7146,18.9534],[7.2578,62.7151,7.0768],[7.2563,62.7167,32.3477],[7.2484,62.716,21.9959]]],
[[[7.2589,62.7182,22.8874],[7.2604,62.7167,42.5174],[7.262,62.7172,40.6926],[7.262,62.7182,28.6291],[7.2589,62.7182,22.8874]]],
[[[7.2729,62.7188,48.79],[7.275,62.7167,0.0],[7.2771,62.7188,41.1169],[7.275,62.7208,25.8579],[7.2729,62.7188,48.79]]],
[[[7.2296,62.7237,18.7643],[7.2354,62.7229,0.0],[7.2375,62.725,13.2872],[7.2354,62.7271,14.0963],[7.2313,62.7271,13.9158],[7.2297,62.7266,8.9513],[7.2296,62.7237,18.7643]]],
[[[7.3,62.675,12.1881],[7.2958,62.675,63.1986],[7.2917,62.6771,31.3415],[7.2875,62.675,171.9691],[7.2833,62.6771,78.2354],[7.2646,62.6771,22.4415],[7.2604,62.675,62.7652],[7.25,62.675,26.8832],[7.2458,62.6729,65.3864],[7.2417,62.675,0.0],[7.238,62.6724,11.6678],[7.237,62.6672,53.5278],[7.2318,62.6661,47.7613],[7.2276,62.663,44.5034],[7.2307,62.662,77.2066],[7.2318,62.6589,0.0],[7.2391,62.6557,58.8303],[7.238,62.6526,13.6259],[7.2479,62.65,0.0],[7.2667,62.65,66.3595],[7.2708,62.6479,0.0],[7.3021,62.6479,0.0],[7.3062,62.65,29.3155],[7.3125,62.65,7.0774],[7.3167,62.6479,0.0],[7.3292,62.6479,0.0],[7.3333,62.65,11.3781],[7.3438,62.65,0.0],[7.3583,62.6542,17.2113],[7.3729,62.6542,0.0],[7.3786,62.6568,9.5841],[7.3688,62.6625,125.8067],[7.3521,62.6625,221.6379],[7.3479,62.6667,28.4056],[7.325,62.6667,45.7268],[7.3208,62.6688,0.0],[7.3167,62.6646,170.5933],[7.3151,62.6651,191.1196],[7.3141,62.6703,5.712],[7.3057,62.6745,4.945],[7.3,62.675,12.1881]]],
[[[7.2818,62.7218,60.1182],[7.2854,62.7208,10.3117],[7.287,62.7224,44.6491],[7.2833,62.7229,27.8097],[7.2818,62.7218,60.1182]]],
[[[7.3333,62.7333,0.0],[7.3292,62.7333,4.0056],[7.325,62.7354,11.7269],[7.2917,62.7354,7.3884],[7.2875,62.7333,26.948],[7.2729,62.7313,26.7373],[7.2708,62.7292,21.1694],[7.2714,62.7276,16.7419],[7.2771,62.725,0.0],[7.3042,62.725,0.0],[7.3083,62.7271,31.4867],[7.3125,62.725,0.0],[7.3167,62.725,0.0],[7.3208,62.7271,19.0428],[7.3313,62.7271,0.0],[7.3354,62.7292,0.0],[7.3432,62.7297,0.0],[7.3333,62.7333,0.0]]],
[[[6.9964,62.7455,73.0436],[6.9849,62.738,45.6822],[6.9776,62.737,53.5016],[6.9755,62.7339,0.0],[6.9828,62.7307,0.0],[6.9839,62.7255,0.0],[6.9854,62.725,30.7032],[7.0,62.725,0.0],[7.0042,62.7271,51.9823],[7.0083,62.7271,44.7855],[7.0125,62.725,33.0285],[7.0167,62.725,19.3364],[7.0208,62.7271,38.8028],[7.0542,62.7292,0.0],[7.0583,62.7313,41.5274],[7.0688,62.7313,0.0],[7.0729,62.7333,8.9261],[7.1063,62.7333,0.0],[7.1104,62.7354,11.1128],[7.1146,62.7333,0.0],[7.125,62.7333,0.0],[7.1292,62.7354,9.0772],[7.1333,62.7354,5.6361],[7.1375,62.7333,0.0],[7.1521,62.7333,0.0],[7.1604,62.7375,6.7472],[7.1979,62.7375,0.0],[7.2021,62.7396,6.152],[7.225,62.7396,0.0],[7.2292,62.7417,2.4682],[7.2396,62.7417,0.0],[7.2438,62.7438,4.0517],[7.2667,62.7438,0.9776],[7.2708,62.7458,2.4776],[7.2813,62.7458,0.0],[7.2958,62.7521,22.2338],[7.3063,62.7521,0.0],[7.3104,62.7542,0.0],[7.325,62.7542,0.0],[7.3292,62.7562,5.9929],[7.3521,62.7562,0.0],[7.3562,62.7583,8.9413],[7.3667,62.7583,0.0],[7.3708,62.7604,7.4495],[7.3896,62.7604,0.0],[7.3938,62.7625,13.401],[7.4042,62.7625,0.0],[7.4083,62.7646,26.6593],[7.4229,62.7646,0.0],[7.4375,62.7687,0.0],[7.4458,62.7687,0.0],[7.45,62.7708,15.5772],[7.4604,62.7708,0.0],[7.4646,62.7729,0.0],[7.4708,62.7729,0.0],[7.4896,62.7792,5.7537],[7.5,62.7792,0.0],[7.5042,62.7813,9.2699],[7.5083,62.7792,0.0],[7.5167,62.7792,0.0],[7.5271,62.7833,22.4392],[7.5313,62.7813,0.0],[7.55,62.7813,0.0],[7.5542,62.7833,0.0],[7.5688,62.7833,0.0],[7.5771,62.7875,17.1527],[7.5833,62.7854,0.0],[7.5979,62.7896,21.862],[7.6021,62.7875,0.0],[7.6063,62.7896,7.302],[7.6208,62.7896,0.0],[7.6354,62.7938,9.774],[7.6396,62.7938,12.2771],[7.6438,62.7917,0.0],[7.6521,62.7917,0.0],[7.6563,62.7896,0.0],[7.6625,62.7896,0.0],[7.6667,62.7917,0.0],[7.6724,62.7911,6.2811],[7.6589,62.7849,14.9883],[7.6604,62.7833,9.3735],[7.6833,62.7854,0.0],[7.6875,62.7875,14.8525],[7.7036,62.787,0.0],[7.6984,62.7849,0.0],[7.6958,62.7813,20.0195],[7.6917,62.7833,0.0],[7.6813,62.7792,28.1977],[7.6708,62.7792,0.0],[7.6667,62.7771,30.7246],[7.6396,62.7771,29.5912],[7.6354,62.7792,0.0],[7.6042,62.7792,0.0],[7.6,62.7771,10.5458],[7.575,62.7771,0.0],[7.5708,62.775,22.6779],[7.5563,62.775,0.0],[7.5521,62.7729,40.8906],[7.5333,62.7729,0.0],[7.525,62.7687,51.4857],[7.5172,62.7682,0.0],[7.5104,62.7646,31.0781],[7.5,62.7646,0.0],[7.4958,62.7625,76.1764],[7.4813,62.7625,11.7019],[7.4771,62.7604,78.9262],[7.4693,62.7599,7.5412],[7.4625,62.7562,114.8899],[7.4479,62.7562,0.0],[7.4255,62.7495,0.0],[7.4229,62.7458,67.1526],[7.4125,62.7458,0.0],[7.4042,62.7417,28.9172],[7.3979,62.7438,0.0],[7.3854,62.7396,28.9056],[7.3708,62.7396,0.0],[7.3693,62.738,42.6597],[7.3766,62.7349,14.2382],[7.3755,62.7318,5.8577],[7.3771,62.7313,5.4722],[7.412,62.7307,0.0],[7.4141,62.7276,0.0],[7.4109,62.7266,0.0],[7.4099,62.7234,24.1039],[7.4047,62.7214,15.9148],[7.4167,62.7208,0.0],[7.4182,62.7203,6.2853],[7.4172,62.7172,0.0],[7.425,62.7167,0.0],[7.4266,62.7151,18.5862],[7.4172,62.7141,0.0],[7.4172,62.7109,0.0],[7.4203,62.7089,0.0],[7.4167,62.7062,56.8312],[7.4125,62.7062,22.0859],[7.4083,62.7042,33.8592],[7.375,62.7042,17.8792],[7.3708,62.7021,13.5978],[7.363,62.7016,13.9845],[7.3536,62.6964,14.9183],[7.3484,62.6953,3.5529],[7.3526,62.6922,0.0],[7.3625,62.6896,0.0],[7.3688,62.6896,0.0],[7.3729,62.6917,7.0526],[7.3771,62.6896,0.0],[7.3813,62.6917,2.4256],[7.4042,62.6917,3.7443],[7.4083,62.6896,0.0],[7.4125,62.6896,0.0],[7.4271,62.6958,7.7082],[7.4417,62.6958,0.0],[7.4443,62.6922,11.9482],[7.4484,62.6901,2.6374],[7.4557,62.6891,0.0],[7.4547,62.6859,33.277],[7.4563,62.6854,27.2424],[7.4896,62.6854,0.0],[7.4938,62.6875,10.8369],[7.5083,62.6875,0.0],[7.5167,62.6917,52.4183],[7.5313,62.6917,0.0],[7.5375,62.6958,17.1176],[7.5521,62.6979,0.0],[7.5563,62.7,5.9069],[7.5667,62.7,0.0],[7.5896,62.7062,0.0],[7.6,62.7062,0.0],[7.6125,62.7125,29.0864],[7.6271,62.7125,0.0],[7.6313,62.7146,20.1039],[7.6375,62.7146,0.0],[7.6458,62.7188,88.7209],[7.6563,62.7188,0.0],[7.6708,62.7229,0.0],[7.6813,62.7229,0.0],[7.685,62.7249,0.0],[7.6821,62.7287,227.935],[7.6725,62.7279,289.2616],[7.6687,62.7366,519.5932],[7.6783,62.7375,563.2363],[7.6765,62.7419,495.2727],[7.7054,62.7444,751.1188],[7.7037,62.7488,791.7193],[7.7229,62.7505,669.6037],[7.7211,62.7549,712.1336],[7.7307,62.7557,570.1791],[7.7271,62.7645,492.6381],[7.7945,62.7705,440.1694],[7.7927,62.7748,316.7234],[7.812,62.7765,341.8482],[7.8102,62.7808,398.7888],[7.8199,62.7817,358.0863],[7.8181,62.7861,367.6281],[7.8083,62.7853,397.0884],[7.7955,62.8161,41.8057],[7.8051,62.8171,50.3204],[7.8015,62.8257,87.0474],[7.8208,62.8274,73.4785],[7.8097,62.8539,411.8891],[7.7904,62.8522,440.2262],[7.7849,62.8654,478.365],[7.7945,62.8663,463.5965],[7.7927,62.8707,540.1072],[7.7733,62.869,612.5098],[7.7751,62.8646,495.9253],[7.7267,62.8605,506.108],[7.7286,62.8561,482.4103],[7.7093,62.8545,403.892],[7.7111,62.8499,385.6278],[7.6917,62.8483,286.1216],[7.6937,62.8439,277.7896],[7.6743,62.8423,301.0297],[7.6761,62.8378,346.695],[7.6568,62.8361,263.6031],[7.6586,62.8317,250.1739],[7.5813,62.8251,372.8994],[7.5795,62.8293,409.4999],[7.5505,62.8269,620.7903],[7.5485,62.8313,665.2309],[7.5293,62.8295,463.881],[7.5273,62.8339,517.3948],[7.5079,62.8323,287.72],[7.5061,62.8366,327.0457],[7.4674,62.8332,271.3809],[7.4655,62.8376,253.5998],[7.4365,62.8351,261.4182],[7.4384,62.8307,260.1663],[7.4191,62.8291,344.1749],[7.4229,62.8202,370.0009],[7.4132999999999996,62.8193,279.3898],[7.4171,62.8105,559.1558],[7.4074,62.8096,564.0823],[7.4112,62.8008,527.3477],[7.3243,62.7931,224.3759],[7.3224,62.7975,234.2685],[7.2741,62.7932,182.6342],[7.2761,62.7888,320.7078],[7.2665,62.7879,356.7642],[7.2683,62.7835,439.4721],[7.249,62.7818,683.9439],[7.2471,62.7862,273.738],[7.2085,62.7827,487.7894],[7.2066,62.7871,316.5281],[7.1874,62.7854,489.8919],[7.1893,62.7809,434.6275],[7.1603,62.7784,246.0419],[7.1623,62.774,436.1996],[7.1237,62.7705,566.7725],[7.1257,62.7661,488.6857],[7.0968,62.7634,295.3225],[7.0987,62.7591,363.5437],[6.9943,62.7495,42.048],[6.9985,62.7465,146.1159],[6.9964,62.7455,73.0436]]]]}
,"properties": {"GID_2": "NOR.8.16_1","GID_0": "NOR","country": "Norway","GID_1": "NOR.8_1","province": "MøreogRomsdal","NL_NAME_1": "NA","county": "Molde","VARNAME_2": "NA","NL_NAME_2": "NA","TYPE_2": "Kommuner","ENGTYPE_2": "Municipality","CC_2": "NA","HASC_2": "NO.MR.MO","name": "Molde.county","area_km2": 362.204,"hist_schema_id": "Elevation0-9000","hist_area_km2": {"0": 15.6,"25": 26.8363,"50": 24.3258,"75": 21.3902,"100": 16.5162,"125": 13.7925,"150": 13.9209,"175": 21.0485,"200": 24.5951,"225": 22.2699,"250": 21.897,"275": 17.3435,"300": 15.1658,"325": 12.9055,"350": 11.0248,"375": 10.4805,"400": 9.0465,"425": 8.3774,"450": 7.5049,"475": 7.1468,"500": 6.5752,"525": 5.5365,"550": 4.2671,"575": 4.0151,"600": 3.6374,"625": 2.6387,"650": 2.571,"675": 2.387,"700": 1.6495,"725": 1.4169,"750": 1.1066,"775": 0.8738,"800": 0.7768,"825": 0.6701,"850": 0.6022,"875": 0.5828,"900": 0.3982,"925": 0.1845,"950": 0.2428,"975": 0.1942,"1000": 0.2234,"1025": 0.1068,"1050": 0.1651,"1075": 0.0971,"1100": 0.0486,"1125": 0.0486}}}