{"type":"Feature","properties":{"GID_2":"NOR.6.20_1","GID_0":"NOR","country":"Norway","GID_1":"NOR.6_1","province":"Hedmark","NL_NAME_1":"NA","county":"Trysil","VARNAME_2":"NA","NL_NAME_2":"NA","TYPE_2":"Kommuner","ENGTYPE_2":"Municipality","CC_2":"NA","HASC_2":"NO.HE.TR","name":"Trysil.county"},
"geometry":{"type": "MultiPolygon","coordinates": [[[[11.735,61.2016,767.2061],[11.7443,61.2021,750.5427],[11.7454,61.1977,662.0486],[11.7547,61.1982,696.4739],[11.757,61.1893,649.2973],[11.7663,61.1899,664.4064],[11.7686,61.181,711.8245],[11.7779,61.1815,727.1068],[11.779,61.1771,744.811],[11.7883,61.1776,717.0091],[11.7895,61.1732,721.1786],[11.7987,61.1737,665.8331],[11.7999,61.1693,659.0524],[11.8091,61.1698,651.4439],[11.8114,61.1609,619.0784],[11.8207,61.1615,643.3215],[11.8218,61.157,622.4164],[11.8311,61.1576,669.5003],[11.8345,61.1442,602.3589],[11.8438,61.1448,636.6169],[11.8461,61.1359,598.7437],[11.8553,61.1364,623.9603],[11.8588,61.1231,608.0487],[11.868,61.1236,597.4095],[11.8703,61.1147,661.4135],[11.8796,61.1153,656.9169],[11.883,61.1019,681.9667],[11.8738,61.1013,676.6891],[11.8749,61.0969,686.6671],[11.8841,61.0974,677.0422],[11.8876,61.0841,670.0625],[11.8968,61.0846,641.3497],[11.898,61.0802,648.7382],[11.9072,61.0807,626.7687],[11.9083,61.0763,633.9797],[11.9175,61.0768,613.5803],[11.9198,61.0679,608.0012],[11.929,61.0685,590.0306],[11.9302,61.064,586.3559],[11.9394,61.0645,569.8869],[11.9405,61.0601,561.9763],[11.959,61.0612,553.7215],[11.9578,61.0656,559.3049],[11.9671,61.0662,546.4621],[11.9659,61.0706,534.821],[11.9751,61.0712,505.1024],[11.9729,61.0801,498.6583],[11.9821,61.0806,484.2581],[11.9832,61.0762,488.4724],[11.9925,61.0767,454.6589],[11.9936,61.0723,450.3807],[12.012,61.0734,481.9843],[12.0132,61.0689,473.261],[12.0224,61.0695,487.2209],[12.0235,61.065,485.0477],[12.0512,61.0666,593.196],[12.0478,61.08,650.8482],[12.057,61.0805,648.9377],[12.0548,61.0894,617.7072],[12.0732,61.0905,570.8668],[12.0721,61.095,565.5065],[12.0998,61.0966,632.1421],[12.1009,61.0921,624.0077],[12.1102,61.0927,583.257],[12.1113,61.0882,575.6068],[12.1205,61.0887,585.0812],[12.1216,61.0843,551.7822],[12.1308,61.0848,544.1364],[12.1319,61.0804,534.1335],[12.1412,61.0809,533.8743],[12.1434,61.072,525.6152],[12.1526,61.0725,531.0001],[12.1548,61.0636,531.3647],[12.1641,61.0641,529.5025],[12.1663,61.0552,577.6636],[12.1755,61.0558,509.3428],[12.1777,61.0468,665.6566],[12.1869,61.0474,607.3206],[12.1891,61.0385,656.4615],[12.1983,61.039,607.8921],[12.2005,61.0301,600.7798],[12.2097,61.0306,657.5298],[12.2119,61.0217,552.4385],[12.2212,61.0222,534.5131],[12.2233,61.0133,649.2009],[12.2325,61.0138,539.7811],[12.2315,61.0183,518.5496],[12.2499,61.0193,492.7328],[12.2488,61.0238,512.5554],[12.3041,61.0269,441.1387],[12.303,61.0314,469.2195],[12.3583,61.0345,563.2141],[12.3572,61.039,566.2961],[12.4033,61.0416,556.4261],[12.4022,61.046,504.3791],[12.4483,61.0486,331.0293],[12.4473,61.0531,351.1938],[12.4565,61.0536,371.6941],[12.4575,61.0491,372.2055],[12.5221,61.0527,562.0965],[12.5232,61.0482,552.0121],[12.5693,61.0508,396.8788],[12.5703,61.0463,406.0827],[12.6626,61.0513,426.9585],[12.6615,61.0558,404.9336],[12.68,61.0568,454.997],[12.679,61.0612,422.379],[12.6882,61.0617,406.1021],[12.684,61.0796,402.6121],[12.6933,61.0801,444.4229],[12.6892,61.0979,555.3167],[12.6984,61.0984,458.1034],[12.6953,61.1118,475.9543],[12.7045,61.1123,440.7372],[12.7004,61.1302,432.6695],[12.7097,61.1307,411.4311],[12.7066,61.144,396.4723],[12.7158,61.1445,390.4246],[12.7148,61.149,397.657],[12.724,61.1495,400.2825],[12.723,61.154,395.6219],[12.7323,61.1544,408.8826],[12.7312,61.1589,412.1825],[12.7405,61.1594,426.4487],[12.7384,61.1683,413.8883],[12.7477,61.1688,418.6447],[12.7467,61.1733,418.8275],[12.7559,61.1738,409.2715],[12.7549,61.1782,409.3028],[12.7642,61.1787,424.5023],[12.7631,61.1832,432.4062],[12.7724,61.1837,444.4294],[12.7714,61.1881,434.3672],[12.7806,61.1886,459.3752],[12.7796,61.1931,431.4291],[12.7889,61.1936,447.7787],[12.7879,61.1981,454.2396],[12.7971,61.1985,470.7354],[12.7951,61.2075,477.8905],[12.8044,61.208,482.1833],[12.8023,61.2169,508.7979],[12.8116,61.2174,579.7632],[12.8096,61.2263,552.3701],[12.8188,61.2268,667.3096],[12.8158,61.2402,431.6617],[12.8251,61.2407,431.5865],[12.823,61.2496,425.0355],[12.8323,61.2501,422.576],[12.8303,61.259,421.0225],[12.8395,61.2595,425.2769],[12.8365,61.2729,420.1431],[12.8458,61.2734,414.1641],[12.8417,61.2912,553.5298],[12.851,61.2917,502.5801],[12.8479,61.3051,752.4017],[12.8573,61.3056,653.1603],[12.8542,61.319,792.7969],[12.8635,61.3195,770.5309],[12.8594,61.3373,717.4586],[12.8687,61.3378,647.6036],[12.8657,61.3512,689.5955],[12.875,61.3517,868.6478],[12.873,61.3606,729.5656],[12.8636,61.3601,703.3367],[12.8616,61.369,629.9685],[12.8523,61.3685,604.6685],[12.8502,61.3775,569.899],[12.8409,61.377,538.8535],[12.8389,61.3859,544.2487],[12.8295,61.3854,570.6562],[12.8275,61.3943,607.6739],[12.8182,61.3939,657.2867],[12.8161,61.4028,835.2886],[12.8068,61.4023,914.9238],[12.8047,61.4112,928.6635],[12.7954,61.4107,915.2688],[12.7944,61.4152,930.4659],[12.785,61.4147,886.5952],[12.783,61.4236,946.5266],[12.7736,61.4231,919.7365],[12.7715,61.4321,963.3087],[12.7622,61.4316,914.7814],[12.7601,61.4405,798.9714],[12.7508,61.44,740.1227],[12.7487,61.4489,815.3387],[12.7394,61.4484,745.6701],[12.7373,61.4574,636.7139],[12.7279,61.4569,691.1666],[12.7259,61.4658,748.4509],[12.7165,61.4653,852.7567],[12.7144,61.4742,735.6898],[12.7051,61.4737,817.8138],[12.704,61.4782,806.7021],[12.6947,61.4777,903.748],[12.6926,61.4866,941.5224],[12.6832,61.4861,976.3914],[12.6811,61.495,981.3786],[12.6718,61.4945,1002.9575],[12.6697,61.5035,998.705],[12.6603,61.503,1014.6061],[12.6582,61.5119,1008.1477],[12.6488,61.5114,994.3829],[12.6467,61.5203,989.78],[12.6373,61.5198,972.7261],[12.6352,61.5287,940.9855],[12.6259,61.5282,922.0342],[12.6237,61.5372,909.4963],[12.6144,61.5367,862.2765],[12.6133,61.5411,843.5023],[12.6039,61.5406,753.9587],[12.6018,61.5495,809.8738],[12.5924,61.549,843.8524],[12.5903,61.5579,941.0381],[12.5809,61.5574,949.9429],[12.5788,61.5664,1000.9808],[12.5694,61.5659,1014.433],[12.5684,61.5703,1030.1467],[12.484,61.5657,613.4494],[12.4829,61.5702,633.6721],[12.436,61.5676,956.5242],[12.4371,61.5632,966.0684],[12.4184,61.5621,989.0186],[12.4162,61.5711,977.4988],[12.4068,61.5706,966.1964],[12.4057,61.575,966.3127],[12.3963,61.5745,964.5225],[12.3941,61.5834,961.9081],[12.3848,61.5829,954.7953],[12.3826,61.5918,915.5361],[12.3732,61.5913,892.8655],[12.371,61.6002,927.4702],[12.3616,61.5997,891.0591],[12.3594,61.6086,889.236],[12.35,61.6081,820.5505],[12.3489,61.6126,822.1959],[12.3395,61.612,773.8595],[12.3373,61.6209,779.1526],[12.3279,61.6204,775.2309],[12.3268,61.6249,819.6947],[12.3174,61.6244,867.3848],[12.3163,61.6288,873.6335],[12.3069,61.6283,855.8502],[12.3058,61.6328,868.3915],[12.2964,61.6322,860.218],[12.2953,61.6367,862.8033],[12.2859,61.6362,910.6251],[12.287,61.6317,898.2626],[12.2025,61.627,944.1151],[12.2036,61.6225,920.2178],[12.1567,61.6198,898.8481],[12.1556,61.6243,892.6729],[12.1086,61.6216,810.0434],[12.1098,61.6172,820.5458],[12.0722,61.615,765.9724],[12.0734,61.6106,765.0547],[12.0359,61.6084,472.5],[12.037,61.6039,472.5],[11.9807,61.6007,971.6938],[11.9796,61.6051,1042.2135],[11.9702,61.6046,1057.2627],[11.9679,61.6135,1146.2391],[11.9585,61.613,1080.8163],[11.9539,61.6308,1141.8436],[11.9445,61.6302,1131.2444],[11.9387,61.6525,953.3381],[11.9293,61.652,970.7651],[11.9246,61.6698,1040.3086],[11.9152,61.6692,1074.5042],[11.9105,61.687,1043.9537],[11.9011,61.6865,1078.8538],[11.8988,61.6954,1114.397],[11.8894,61.6949,1126.3417],[11.8905,61.6904,1104.4938],[11.8811,61.6898,1108.8453],[11.8823,61.6854,1107.3185],[11.8729,61.6848,1093.3734],[11.8741,61.6804,1097.7137],[11.8647,61.6798,1075.6261],[11.867,61.6709,1052.0562],[11.8577,61.6704,1003.2129],[11.8612,61.657,892.5873],[11.8518,61.6565,838.5653],[11.8577,61.6342,523.962],[11.8483,61.6336,534.9667],[11.8506,61.6247,601.2805],[11.8413,61.6242,717.6262],[11.8518,61.5841,1033.9269],[11.8425,61.5835,1055.8978],[11.8448,61.5746,1071.6509],[11.8354,61.5741,1136.7246],[11.8378,61.5651,1025.5298],[11.8284,61.5646,981.618],[11.8308,61.5557,902.0991],[11.8214,61.5551,895.6159],[11.8238,61.5462,857.8903],[11.8144,61.5457,854.7707],[11.8156,61.5412,830.9949],[11.8062,61.5406,838.4264],[11.8086,61.5317,815.6124],[11.7992,61.5312,803.715],[11.8004,61.5267,789.1271],[11.7911,61.5262,795.5775],[11.7934,61.5173,785.37],[11.7841,61.5167,795.5684],[11.7864,61.5078,781.7018],[11.7958,61.5084,788.4794],[11.8052,61.4727,733.2733],[11.8145,61.4733,742.5648],[11.8239,61.4376,737.3069],[11.8332,61.4382,721.3275],[11.8426,61.4026,696.3663],[11.8519,61.4031,683.781],[11.8612,61.3675,601.4176],[11.8705,61.368,598.3378],[11.8798,61.3324,513.4697],[11.889099999999999,61.333,499.7401],[11.8983,61.2973,514.064],[11.9076,61.2979,530.6376],[11.9145,61.2711,813.1719],[11.9052,61.2706,807.2231],[11.9064,61.2661,784.9783],[11.8971,61.2656,743.3146],[11.8983,61.2611,675.9994],[11.8797,61.26,587.5442],[11.8809,61.2556,545.604],[11.8623,61.2545,466.369],[11.8635,61.25,463.825],[11.8542,61.2495,447.9231],[11.8554,61.245,436.0],[11.8368,61.243899999999996,436.0],[11.838,61.2394,436.0],[11.8287,61.2389,436.0],[11.8299,61.2344,436.0],[11.8114,61.2333,578.1393],[11.8125,61.2289,532.8654],[11.8033,61.2283,570.1234],[11.8044,61.2239,537.1158],[11.7859,61.2227,598.8737],[11.7871,61.2183,660.3881],[11.7778,61.2177,680.8984],[11.779,61.2133,744.3044],[11.7419,61.211,757.5195],[11.7431,61.2066,773.4895],[11.7338,61.206,786.0],[11.735,61.2016,767.2061]]]]}}