{"type": "Feature","bbox": [14.0318,68.1417,15.2413,68.4063],"geometry": {"type": "MultiPolygon","coordinates": [[[[14.7083,68.1708,0.0],[14.7021,68.1687,0.0],[14.6938,68.1729,0.0],[14.6896,68.1708,0.0],[14.6812,68.1708,0.0],[14.6771,68.1687,17.8354],[14.6688,68.1687,2.5202],[14.6646,68.1708,0.0],[14.6604,68.1687,8.3332],[14.6563,68.1687,12.4014],[14.6547,68.1682,0.0],[14.6547,68.1651,0.0],[14.6625,68.1667,0.0],[14.6641,68.1651,4.6847],[14.662,68.1609,12.126],[14.6547,68.1599,0.0],[14.6526,68.1547,9.1368],[14.6729,68.1563,25.8961],[14.6792,68.1542,0.0],[14.6833,68.1563,32.24],[14.6917,68.1563,0.0],[14.6958,68.1604,41.0304],[14.712,68.1609,0.0],[14.7141,68.1641,17.1661],[14.7109,68.1661,0.0],[14.7224,68.1672,0.0],[14.7208,68.1687,4.1048],[14.7146,68.1687,8.5316],[14.7083,68.1708,0.0]]],
[[[14.7245,68.1828,12.2304],[14.7214,68.1828,7.4995],[14.7214,68.1818,0.0],[14.7245,68.1818,19.3505],[14.7245,68.1828,12.2304]]],
[[[14.7417,68.1854,7.9443],[14.738,68.1839,12.7906],[14.7495,68.1839,0.0],[14.7479,68.1854,0.0],[14.7417,68.1854,7.9443]]],
[[[14.7229,68.1896,0.0],[14.7193,68.1891,7.9055],[14.7193,68.188,9.6439],[14.7245,68.188,0.0],[14.7229,68.1896,0.0]]],
[[[15.0667,68.2521,0.0],[15.063,68.2516,0.0],[15.063,68.2505,0.0],[15.0682,68.2505,9.8176],[15.0667,68.2521,0.0]]],
[[[15.1286,68.2516,0.0],[15.1255,68.2516,0.1514],[15.1255,68.2505,2.6228],[15.1286,68.2505,0.0],[15.1286,68.2516,0.0]]],
[[[15.0734,68.2578,0.0],[15.0714,68.2547,0.2585],[15.0766,68.2547,1.962],[15.0766,68.2578,4.9258],[15.0734,68.2578,0.0]]],
[[[15.0536,68.263,0.9091],[15.0526,68.2589,0.0],[15.0604,68.2583,12.224],[15.0682,68.2609,0.0],[15.0703,68.2641,0.0],[15.0563,68.2646,0.0],[15.0536,68.263,0.9091]]],
[[[14.9521,68.3,0.0],[14.9292,68.3104,0.0],[14.9104,68.3104,0.0],[14.9063,68.3083,7.7324],[14.8938,68.3083,0.0],[14.889099999999999,68.3047,22.0435],[14.8813,68.3021,0.0],[14.8714,68.3016,0.0],[14.8661,68.2963,0.0],[14.8547,68.2932,0.0],[14.8516,68.2901,0.0],[14.8401,68.2891,0.0],[14.8349,68.2818,4.9403],[14.8214,68.2766,0.0],[14.8182,68.2734,10.6249],[14.813,68.2724,0.0],[14.8089,68.2682,0.0],[14.812,68.2662,0.0],[14.812,68.263,18.5083],[14.8005,68.262,0.0],[14.7943,68.2536,0.0],[14.7974,68.2516,0.0],[14.7964,68.2464,0.0],[14.7995,68.2453,0.8012],[14.7964,68.238,0.0],[14.7995,68.2359,17.3595],[14.7854,68.2375,0.0],[14.7818,68.2338,6.1785],[14.7849,68.2328,5.9418],[14.7875,68.2292,0.0],[14.7917,68.2312,3.1131],[14.8063,68.2312,0.0],[14.8104,68.2333,0.0],[14.8167,68.2333,15.2229],[14.8245,68.2307,1.2573],[14.8234,68.2276,34.8665],[14.825,68.2271,34.8665],[14.8438,68.2292,0.0],[14.8484,68.2328,0.0],[14.8563,68.2333,0.0],[14.8578,68.2318,0.0],[14.8526,68.2307,0.0],[14.8505,68.2276,0.0],[14.8583,68.2271,46.6329],[14.8625,68.225,21.1965],[14.8724,68.2255,0.0],[14.8745,68.2307,13.2923],[14.8714,68.2318,20.2602],[14.8714,68.2349,0.0],[14.8734,68.237,0.0],[14.8786,68.238,0.0],[14.8859,68.2474,19.6689],[14.8958,68.25,23.1789],[14.8974,68.2495,0.0],[14.8964,68.2443,6.235],[14.8979,68.2438,20.7944],[14.9042,68.2479,0.0],[14.9141,68.2484,0.0],[14.9172,68.2536,47.9648],[14.9245,68.2547,0.0],[14.9266,68.2599,15.9156],[14.9234,68.262,0.0],[14.9255,68.2641,15.9437],[14.9307,68.2651,0.0],[14.9349,68.2714,0.0],[14.9292,68.275,14.0478],[14.9104,68.275,7.5062],[14.9063,68.2729,131.8219],[14.9026,68.2734,96.9564],[14.9047,68.2766,0.0],[14.9438,68.2792,0.0],[14.9536,68.2818,0.0],[14.9547,68.2849,44.2953],[14.962,68.2859,4.2373],[14.9641,68.2911,0.0],[14.9609,68.2922,0.0],[14.962,68.2953,0.0],[14.9521,68.3,0.0]]],
[[[15.1068,68.2672,0.0],[15.1146,68.2646,0.0],[15.1245,68.2672,0.0],[15.125,68.2688,3.5974],[15.1229,68.2708,2.9457],[15.1104,68.2708,0.0],[15.1068,68.2672,0.0]]],
[[[14.7943,68.2703,0.0],[14.7922,68.2672,13.9633],[14.7958,68.2667,7.2877],[14.7995,68.2693,0.0],[14.7979,68.2708,0.0],[14.7943,68.2703,0.0]]],
[[[14.9179,68.3309,78.9934],[14.9109,68.3265,0.0],[14.9005,68.324,94.0375],[14.8997,68.3275,2.545],[14.8812,68.3269,5.2962],[14.8792,68.325,150.1116],[14.875,68.325,196.2643],[14.85,68.3167,623.5225],[14.8438,68.3167,783.9438],[14.8396,68.3187,580.9276],[14.8104,68.3187,765.0422],[14.8042,68.3167,893.8041],[14.7979,68.3187,634.8004],[14.7937,68.3167,736.0294],[14.775,68.3167,482.8276],[14.7625,68.3208,32.0286],[14.7542,68.3208,0.0],[14.7464,68.3182,0.0],[14.7432,68.3151,0.0],[14.738,68.3141,0.0],[14.7411,68.312,2.3419],[14.7396,68.3083,0.0],[14.7432,68.3047,56.7861],[14.7359,68.3037,0.0],[14.7318,68.2974,12.2401],[14.725,68.2854,0.0],[14.7286,68.2818,37.1492],[14.7188,68.2813,0.0],[14.7151,68.2776,2.905],[14.7245,68.2766,0.0],[14.7208,68.2708,0.0],[14.7245,68.2682,14.0193],[14.7214,68.262,0.0],[14.7245,68.2599,4.1654],[14.7234,68.2547,1.9418],[14.7375,68.2562,0.0],[14.7417,68.2583,6.7294],[14.75,68.2583,0.0],[14.7557,68.2641,0.0],[14.7484,68.2672,0.0],[14.7484,68.2703,0.0],[14.7583,68.2708,12.6448],[14.7646,68.275,18.2773],[14.7792,68.275,0.0],[14.7833,68.2771,42.0121],[14.7917,68.2771,0.0],[14.7995,68.2797,0.0],[14.8026,68.2828,0.0],[14.8141,68.2859,0.0],[14.8193,68.2911,0.0],[14.8417,68.2979,0.0],[14.8536,68.2943,0.0],[14.8609,68.3037,0.0],[14.8708,68.3042,0.0],[14.8786,68.3068,0.0],[14.8839,68.3141,0.0],[14.8911,68.3151,0.0],[14.8922,68.3182,8.8099],[14.9104,68.3208,0.0],[14.913,68.3245,22.5643],[14.9266,68.3277,0.0],[14.9179,68.3309,78.9934]]],
[[[15.2,68.3042,16.7055],[15.1984,68.3026,0.0],[15.2099,68.3026,0.0],[15.2083,68.3042,16.2612],[15.2,68.3042,16.7055]]],
[[[15.0333,68.3313,231.0629],[15.0318,68.3318,171.333],[15.0319,68.3352,40.9637],[15.0292,68.3354,25.7495],[15.0188,68.3313,14.8328],[15.0146,68.3313,0.0],[15.0099,68.3255,48.2171],[14.9964,68.3224,0.0],[14.9995,68.3193,0.0],[14.9917,68.3167,10.1797],[14.9833,68.3167,0.0],[14.9797,68.3141,0.0],[14.9776,68.3089,0.0],[14.9854,68.3083,0.0],[14.9938,68.3042,2.4674],[15.0016,68.3037,0.0],[14.9943,68.3005,2.3016],[15.0042,68.3,0.0],[15.0083,68.3021,18.1384],[15.0125,68.3,0.0],[15.0203,68.2995,0.0],[15.0182,68.2963,0.0],[15.0104,68.2937,99.8698],[15.0005,68.2932,0.0],[14.9974,68.288,13.1205],[14.9901,68.287,0.0],[14.9917,68.2854,37.7476],[15.0042,68.2854,245.2533],[15.0083,68.2875,111.4146],[15.012,68.287,126.5358],[15.0099,68.2839,337.1352],[14.9958,68.2792,250.8815],[14.9896,68.2813,0.0],[14.9859,68.2807,0.0],[14.9818,68.2734,0.0],[14.9875,68.2708,0.0],[15.0016,68.2703,1.1264],[15.0005,68.2672,22.586],[15.0063,68.2646,0.0],[15.0188,68.2646,0.0],[15.0271,68.2708,3.9236],[15.0479,68.2729,0.0],[15.0526,68.2786,56.7102],[15.0661,68.2818,0.0],[15.0672,68.2849,13.0346],[15.0833,68.2854,0.0],[15.0995,68.2901,0.0],[15.0964,68.2922,14.8121],[15.0974,68.2953,0.0],[15.0958,68.2958,0.0],[15.0896,68.2958,12.4205],[15.0854,68.2979,0.0],[15.0625,68.2979,1.8801],[15.0609,68.2995,0.0],[15.1104,68.3,23.1246],[15.1146,68.3021,4.6367],[15.1229,68.3021,0.0],[15.1266,68.3047,0.0],[15.1276,68.3078,0.0],[15.1349,68.3089,0.0],[15.1349,68.312,17.3989],[15.1318,68.3141,6.191],[15.139099999999999,68.3151,0.0],[15.1396,68.3167,21.6884],[15.1359,68.3203,0.0],[15.1458,68.3208,0.0],[15.1521,68.325,0.0],[15.1724,68.3245,0.0],[15.1708,68.3208,15.6014],[15.1745,68.3182,0.0],[15.1734,68.3151,25.481],[15.1813,68.3125,0.0],[15.1833,68.3146,0.0],[15.1797,68.3182,9.5055],[15.187,68.3193,0.0],[15.1922,68.3266,7.4773],[15.2146,68.3354,0.0],[15.2266,68.3359,9.5507],[15.2276,68.3391,27.259],[15.2349,68.3401,0.0],[15.2413,68.3507,5.7513],[15.2356,68.3505,77.543],[15.2347,68.355,184.733],[15.2105,68.3543,294.8137],[15.2114,68.3499,260.9272],[15.1509,68.3482,246.1304],[15.1499,68.3527,477.2204],[15.1378,68.3523,355.2984],[15.1388,68.3478,477.046],[15.1025,68.3468,334.2343],[15.1034,68.3423,550.8859],[15.0792,68.3417,375.186],[15.0802,68.3372,322.6614],[15.044,68.3354,319.6699],[15.0448,68.3317,353.5711],[15.0333,68.3313,231.0629]]],
[[[15.1563,68.3208,18.881],[15.1526,68.3203,21.9606],[15.1526,68.3193,29.8278],[15.1578,68.3193,17.4024],[15.1563,68.3208,18.881]]],
[[[14.2141,68.1432,6.6428],[14.2104,68.1438,0.0],[14.2089,68.1422,0.0],[14.2125,68.1417,0.0],[14.2141,68.1432,6.6428]]],
[[[14.1964,68.1516,14.4018],[14.2005,68.1484,9.7157],[14.2042,68.1479,0.0],[14.2083,68.1521,2.6516],[14.2063,68.1542,5.1532],[14.2,68.1542,9.6092],[14.1964,68.1516,14.4018]]],
[[[14.225,68.1563,0.0],[14.2286,68.1578,0.0],[14.2208,68.1604,3.0509],[14.2172,68.1578,0.0],[14.2188,68.1563,0.0],[14.225,68.1563,0.0]]],
[[[14.2536,68.1641,5.7758],[14.25,68.1646,0.0],[14.2484,68.163,0.0],[14.2521,68.1625,10.3286],[14.2536,68.1641,5.7758]]],
[[[14.8167,68.2167,9.4102],[14.8063,68.2167,14.6851],[14.7979,68.2208,0.0],[14.7917,68.2208,0.0],[14.788,68.2182,23.4827],[14.7911,68.2151,158.3562],[14.7833,68.2125,406.4255],[14.7771,68.2146,192.8188],[14.7646,68.2146,314.2685],[14.7604,68.2125,447.8311],[14.7542,68.2125,268.5629],[14.7521,68.2146,108.1179],[14.7542,68.2167,72.9551],[14.775,68.2167,73.4548],[14.7766,68.2182,51.6023],[14.7708,68.2208,0.0],[14.7417,68.2208,1.4531],[14.7318,68.2182,0.0],[14.7297,68.213,0.0],[14.7328,68.2109,0.0],[14.7307,68.2068,4.929],[14.7271,68.2042,8.7378],[14.7172,68.2037,0.0],[14.7203,68.2005,8.9155],[14.7151,68.1984,11.1498],[14.7208,68.1958,0.0],[14.7286,68.1953,3.2963],[14.7354,68.1917,0.0],[14.7458,68.1917,12.5318],[14.75,68.1896,0.0],[14.7563,68.1917,7.6632999999999996],[14.775,68.1917,0.0],[14.7828,68.1943,0.0],[14.7849,68.1974,0.0],[14.7818,68.1995,9.751],[14.787,68.2005,3.1458],[14.7964,68.212,18.0186],[14.8042,68.2146,30.5256],[14.8161,68.2099,0.0],[14.8146,68.2083,8.8049],[14.8089,68.2078,13.2229],[14.8089,68.2047,7.0663],[14.826599999999999,68.2068,0.0],[14.8286,68.212,85.651],[14.8255,68.213,19.0746],[14.8245,68.2161,21.8093],[14.8167,68.2167,9.4102]]],
[[[14.7104,68.2188,4.8863],[14.7063,68.2188,1.9005],[14.7047,68.2172,6.1988],[14.7141,68.2172,2.4757],[14.7104,68.2188,4.8863]]],
[[[14.5745,68.2276,2.1985],[14.5745,68.2286,2.124],[14.5714,68.2286,10.5009],[14.5714,68.2276,7.0287],[14.5745,68.2276,2.1985]]],
[[[14.7786,68.2484,10.6931],[14.7786,68.2495,0.0],[14.7755,68.2495,1.2072],[14.7755,68.2484,2.6914],[14.7786,68.2484,10.6931]]],
[[[14.7854,68.2521,0.0],[14.7818,68.2516,0.0],[14.7818,68.2505,0.0],[14.787,68.2505,0.0],[14.7854,68.2521,0.0]]],
[[[14.6818,68.2786,0.0],[14.6797,68.2755,0.0],[14.6833,68.275,0.0],[14.6911,68.2776,0.0],[14.6896,68.2792,0.0],[14.6818,68.2786,0.0]]],
[[[14.5859,68.3677,409.626],[14.5848,68.3722,245.2414],[14.5727,68.3718,161.2154],[14.5708,68.3801,20.4989],[14.5563,68.3792,6.0172],[14.5401,68.3839,15.6478],[14.5432,68.3891,0.0],[14.538,68.3912,3.1331],[14.5453,68.3953,0.0],[14.538,68.3964,0.0],[14.537,68.3995,0.0],[14.5286,68.4036,0.0],[14.5208,68.4042,0.0],[14.5167,68.4063,0.0],[14.5125,68.4042,5.4002],[14.4979,68.4042,0.0],[14.4932,68.4005,0.0],[14.4771,68.3958,0.0],[14.4354,68.3958,0.0],[14.4313,68.3938,1.8505],[14.4167,68.3938,0.0],[14.4089,68.3912,1.5656],[14.4057,68.3859,4.521],[14.3922,68.3828,2.1976],[14.3901,68.3807,0.0],[14.3901,68.3776,0.0],[14.4021,68.3771,0.0],[14.4063,68.3729,0.0],[14.4141,68.3734,0.0],[14.4188,68.3771,-0.0678],[14.4229,68.375,0.0],[14.437,68.3745,1.1818],[14.4349,68.3714,0.0],[14.4297,68.3703,0.0],[14.4271,68.3667,0.9382],[14.4276,68.3651,2.0147],[14.4391,68.3588,4.7269],[14.4339,68.3578,4.4858],[14.4297,68.3526,0.0],[14.4432,68.3464,0.0],[14.4333,68.3458,0.0],[14.4188,68.3521,0.0],[14.4109,68.3495,0.0],[14.4089,68.3464,0.0],[14.4182,68.3453,2.7422],[14.4172,68.3422,-0.0625],[14.4188,68.3417,0.0],[14.4391,68.3411,0.0],[14.438,68.338,0.0],[14.4411,68.337,0.0],[14.4401,68.3339,0.0],[14.4495,68.3307,14.0067],[14.4474,68.3276,19.0542],[14.4422,68.3255,0.0],[14.4536,68.3203,96.889],[14.451599999999999,68.3172,350.8839],[14.4438,68.3167,387.3512],[14.4396,68.3187,239.963],[14.4333,68.3187,172.0408],[14.4318,68.3193,71.9526],[14.4328,68.3224,0.0],[14.4313,68.3229,0.0],[14.4229,68.3208,14.4802],[14.4188,68.3229,1.0373],[14.4042,68.325,0.0],[14.3984,68.3276,3.458],[14.4036,68.3307,0.0],[14.3958,68.3313,0.0],[14.3875,68.3354,0.0],[14.3812,68.3354,27.7986],[14.3771,68.3375,7.3815],[14.3724,68.3339,240.8135],[14.3688,68.3333,319.9574],[14.3646,68.3354,439.2992],[14.3542,68.3354,554.1558],[14.35,68.3375,375.2003],[14.3422,68.338,239.9138],[14.3438,68.3417,2.9041],[14.3417,68.3438,0.4428],[14.3318,68.3411,0.0],[14.3286,68.338,2.0231],[14.3234,68.337,0.0],[14.3271,68.3333,0.0],[14.3214,68.3245,40.8868],[14.3245,68.3214,265.4808],[14.3208,68.3208,335.8495],[14.3167,68.3229,18.4553],[14.3047,68.3161,0.0],[14.3125,68.3104,0.0],[14.3083,68.3042,0.0],[14.312,68.3005,0.0],[14.3068,68.2922,0.0],[14.3313,68.2833,0.0],[14.3453,68.2828,0.0],[14.3443,68.2797,0.0],[14.3474,68.2786,0.0],[14.3474,68.2755,0.0],[14.3375,68.275,2.5426],[14.3229,68.2792,0.0],[14.3,68.2792,0.0],[14.2958,68.2771,0.0],[14.2875,68.2771,0.0],[14.2771,68.2729,-0.2337],[14.2729,68.2729,2.382],[14.2651,68.2703,0.0],[14.2682,68.2672,1.9057],[14.263,68.2662,0.0],[14.2661,68.2641,0.0],[14.2651,68.2589,0.0],[14.2682,68.2568,0.971],[14.2625,68.2521,1.4317],[14.2583,68.2542,0.0],[14.2547,68.2536,0.0],[14.2516,68.2484,0.0],[14.2443,68.2474,0.0],[14.2422,68.2422,0.0],[14.2458,68.2417,0.0],[14.2646,68.2479,0.0],[14.2708,68.2479,0.0],[14.2766,68.2453,0.0],[14.2745,68.2422,0.0],[14.2667,68.2396,7.26],[14.2604,68.2417,0.0],[14.2563,68.2396,1.7771],[14.2479,68.2396,0.0],[14.2438,68.2375,0.0],[14.2229,68.2375,0.0],[14.2188,68.2333,0.9388],[14.2104,68.2333,0.0],[14.2063,68.2312,0.0],[14.1979,68.2312,0.0],[14.188,68.2286,0.0],[14.187,68.2255,0.0],[14.1797,68.2245,0.0],[14.1776,68.2193,0.0],[14.187,68.2182,0.0],[14.1859,68.2151,0.0],[14.1875,68.2146,0.0],[14.1958,68.2146,0.0],[14.1979,68.2167,0.0],[14.1943,68.2203,0.0],[14.1995,68.2214,2.0502],[14.2047,68.2266,0.0],[14.2078,68.2266,0.0],[14.2068,68.2214,0.0],[14.2104,68.2188,0.0],[14.2089,68.2151,0.0],[14.2203,68.2099,4.1325],[14.2151,68.2068,0.0],[14.2208,68.2042,0.0],[14.2391,68.2016,82.1709],[14.2354,68.1979,357.1466],[14.2271,68.1979,244.0841],[14.2229,68.2,21.7375],[14.213,68.1974,0.0],[14.213,68.1943,0.0],[14.2161,68.1932,8.3218],[14.2151,68.188,0.0],[14.2229,68.1875,11.1857],[14.2333,68.1917,0.0],[14.2417,68.1917,11.8545],[14.2479,68.1937,28.5349],[14.2521,68.1917,77.5808],[14.2599,68.1911,181.0038],[14.2724,68.1849,517.7226],[14.2708,68.1833,674.5128],[14.2354,68.1833,418.513],[14.2229,68.1792,381.2111],[14.2146,68.1833,0.0],[14.2047,68.1828,12.0472],[14.2083,68.1792,0.0],[14.2047,68.1734,0.0],[14.2078,68.1724,7.7354],[14.2089,68.1693,0.0],[14.2182,68.1703,0.0],[14.2182,68.1672,0.0],[14.2109,68.1661,0.0],[14.2167,68.1625,0.0],[14.2266,68.163,0.0],[14.2234,68.1661,0.0],[14.2313,68.1687,0.0],[14.2396,68.1687,0.0],[14.2438,68.1708,0.0],[14.2583,68.1708,0.0],[14.275,68.1771,51.8038],[14.2833,68.1771,0.0],[14.2875,68.1792,38.3459],[14.3188,68.1792,0.0],[14.325,68.1813,2.7215],[14.3292,68.1792,0.0],[14.3354,68.1792,0.0],[14.3396,68.1813,9.3454],[14.3495,68.1818,0.0],[14.3464,68.1849,0.0],[14.3516,68.1859,0.0],[14.3563,68.1896,0.0],[14.3625,68.1896,0.0],[14.3688,68.1875,0.0],[14.3875,68.1937,0.0],[14.4,68.1937,0.0],[14.4099,68.1964,0.0],[14.3984,68.2047,0.0],[14.4005,68.2099,4.5792],[14.4021,68.2104,2.7409],[14.4083,68.2083,0.0],[14.4224,68.2078,0.0],[14.4193,68.2037,0.0],[14.4208,68.2021,4.1155],[14.4333,68.2021,0.0],[14.438,68.2057,0.0],[14.4417,68.2063,0.0],[14.4432,68.2057,0.0],[14.4422,68.2026,24.7989],[14.4479,68.2,0.0],[14.4604,68.2,0.0],[14.4646,68.2021,14.1854],[14.4729,68.2021,3.5743],[14.4771,68.2042,0.0],[14.4854,68.2042,0.0],[14.487,68.2057,0.0],[14.4839,68.2078,0.0],[14.4859,68.2099,0.0],[14.4974,68.2109,0.0],[14.4974,68.2141,0.0],[14.4943,68.2161,0.0],[14.5042,68.2167,0.0],[14.5104,68.2146,0.0],[14.5182,68.2172,8.3719],[14.5151,68.2203,0.0],[14.5229,68.2229,13.3507],[14.5266,68.2224,18.2154],[14.5255,68.2193,0.0],[14.5271,68.2188,0.0],[14.537,68.2214,0.0],[14.5411,68.2276,4.1772],[14.538,68.2307,0.0],[14.5474,68.2359,0.0],[14.5401,68.2412,0.0],[14.5479,68.2417,14.9492],[14.5536,68.2391,12.6171],[14.5526,68.2359,1.9968],[14.5557,68.2349,8.1081],[14.5583,68.2312,1.8694],[14.5682,68.2338,8.9667],[14.5703,68.2391,0.0],[14.5589,68.2443,0.0],[14.5625,68.2479,0.0],[14.575,68.2417,0.0],[14.6271,68.2438,0.0],[14.6297,68.2401,0.0],[14.6396,68.2354,1.9315],[14.6438,68.2375,6.1385],[14.6661,68.238,7.57],[14.6703,68.2443,2.8121],[14.6672,68.2474,0.0],[14.6724,68.2484,0.0],[14.6755,68.2536,0.0],[14.6828,68.2547,0.0],[14.6828,68.2578,0.0],[14.6797,68.2599,0.0],[14.687,68.2693,0.0],[14.6693,68.2776,0.0],[14.6703,68.2807,0.0],[14.6672,68.2828,0.0],[14.675,68.2833,0.0],[14.6792,68.2813,0.0],[14.6875,68.2813,0.0],[14.6953,68.2839,0.0],[14.7047,68.2974,0.0],[14.7068,68.2995,0.0],[14.712,68.3005,0.0],[14.7089,68.3037,26.219],[14.7141,68.3047,0.0],[14.7161,68.3068,0.0],[14.7214,68.3161,0.0],[14.7286,68.3172,0.0],[14.7271,68.3187,0.0],[14.7089,68.3193,0.0],[14.7104,68.3208,0.0],[14.7188,68.3208,0.0],[14.7208,68.3229,0.0],[14.7188,68.325,0.0],[14.7083,68.325,7.2727],[14.7063,68.3271,0.0],[14.7068,68.3287,0.0],[14.7141,68.3297,0.0],[14.7151,68.3328,0.0],[14.7224,68.3339,0.0],[14.7188,68.3375,0.0],[14.7224,68.3422,0.0],[14.7224,68.3453,0.0],[14.7193,68.3464,4.9152],[14.7203,68.3495,0.0],[14.7172,68.3505,0.0],[14.7182,68.3536,0.0],[14.713,68.3547,0.0],[14.7146,68.3562,0.0],[14.7333,68.3542,0.0],[14.7432,68.3495,0.0],[14.7422,68.3464,0.0],[14.7458,68.3438,0.0],[14.7422,68.3391,0.0],[14.7422,68.3359,0.0],[14.7557,68.3349,16.9104],[14.7599,68.3328,0.0],[14.7589,68.3297,0.0],[14.7792,68.3292,7.5543],[14.7854,68.3313,12.0559],[14.7911,68.3287,0.0],[14.7896,68.3271,0.0],[14.7813,68.3271,0.0],[14.7734,68.3245,0.0],[14.775,68.3229,53.8021],[14.8063,68.325,214.5758],[14.8104,68.3271,53.8983],[14.8146,68.3229,319.3073],[14.8375,68.3229,368.5195],[14.8417,68.325,171.3994],[14.8521,68.3261,68.0354],[14.8503,68.3305,78.7371],[14.8261,68.3298,383.3693],[14.8251,68.3343,538.9517],[14.8372,68.3347,492.4115],[14.8352,68.3436,853.316],[14.8231,68.3433,660.89],[14.8221,68.3478,931.5176],[14.81,68.3474,945.5259],[14.807,68.3609,671.6002],[14.7827,68.3601,627.7811],[14.7817,68.3646,158.4246],[14.7333,68.3632,281.3724],[14.7312,68.3721,505.3217],[14.7191,68.3718,477.6013],[14.7181,68.3763,267.8061],[14.6939,68.3755,434.7976],[14.6928,68.38,394.2275],[14.6686,68.3793,393.0111],[14.6707,68.3703,560.7444],[14.6586,68.3699,696.2502],[14.6596,68.3654,721.1735],[14.5991,68.3636,384.8442],[14.598,68.3681,132.2957],[14.5859,68.3677,409.626]]],
[[[14.1641,68.2349,0.0],[14.1604,68.2354,0.0],[14.1589,68.2338,0.0],[14.1625,68.2333,0.0],[14.1641,68.2349,0.0]]],
[[[14.0786,68.2974,0.0],[14.075,68.2979,0.0],[14.0734,68.2963,0.0],[14.0771,68.2958,2.6272],[14.0786,68.2974,0.0]]],
[[[14.1583,68.275,0.0],[14.1599,68.2745,0.175],[14.1585,68.2714,0.0],[14.1657,68.2667,0.0],[14.1708,68.2667,13.0847],[14.1792,68.2625,0.0],[14.1896,68.2625,16.2918],[14.2021,68.2562,0.0],[14.2104,68.2562,0.0],[14.2146,68.2583,4.0599],[14.2333,68.2583,0.0],[14.2411,68.2609,0.0],[14.2464,68.2662,23.8749],[14.2516,68.2672,0.0],[14.2589,68.2786,5.841],[14.2641,68.2797,0.0],[14.2693,68.2849,1.8676],[14.2745,68.2859,0.0],[14.2672,68.2911,14.6839],[14.2724,68.2922,0.0],[14.275,68.2958,0.0],[14.2745,68.2974,0.0],[14.263,68.3026,13.35],[14.2641,68.3057,0.0],[14.2547,68.3068,13.3899],[14.2557,68.3099,0.0],[14.2464,68.313,29.6655],[14.2474,68.3161,0.0],[14.2443,68.3172,5.3321],[14.2453,68.3203,0.0],[14.2422,68.3214,0.0],[14.2438,68.3229,0.0],[14.2536,68.3234,0.0],[14.2547,68.3266,1.0389],[14.2604,68.3271,0.0],[14.262,68.3287,0.0],[14.2542,68.3292,0.0],[14.25,68.3313,0.0],[14.2417,68.3313,0.0],[14.2391,68.3276,0.0],[14.2333,68.3271,0.0],[14.2229,68.3229,0.0],[14.2104,68.3229,1.0386],[14.1958,68.3271,0.0],[14.1854,68.3271,0.0],[14.1828,68.3307,0.0],[14.1734,68.3318,0.0],[14.1693,68.3339,0.0],[14.1724,68.338,0.0],[14.1724,68.3411,0.3798],[14.1646,68.3417,0.0],[14.1563,68.3458,0.0],[14.1271,68.3458,0.0],[14.1208,68.3417,0.0],[14.0917,68.3417,6.1417],[14.0875,68.3438,0.0],[14.0833,68.3417,3.0154],[14.0729,68.3417,0.0],[14.0714,68.3401,0.0],[14.076599999999999,68.3391,0.0],[14.0755,68.3359,0.0],[14.0786,68.3349,0.0],[14.0776,68.3318,0.0],[14.0938,68.3271,0.0],[14.1,68.3271,13.9785],[14.1016,68.3255,0.0],[14.0979,68.3229,0.0],[14.0917,68.3229,0.0],[14.0875,68.325,0.0],[14.0771,68.325,0.0],[14.0729,68.3271,0.0],[14.0646,68.325,0.3022],[14.0604,68.3271,0.0],[14.0542,68.3271,0.0],[14.0505,68.3245,0.0],[14.0542,68.3208,3.5766],[14.0505,68.3151,0.0],[14.0599,68.312,0.0],[14.0589,68.3089,0.0],[14.0682,68.3078,2.4239],[14.0651,68.3037,0.0],[14.0667,68.3021,0.0],[14.0854,68.3021,0.0],[14.0896,68.3,0.2146],[14.1125,68.3,0.0],[14.1167,68.3021,0.0],[14.1375,68.3021,0.0],[14.1417,68.3063,0.0],[14.1516,68.3057,0.0],[14.1453,68.2963,0.0],[14.1339,68.2932,0.0],[14.1318,68.2911,0.0],[14.1359,68.288,0.0],[14.1438,68.2875,0.0],[14.1453,68.2859,0.0],[14.1354,68.2854,7.7823],[14.1306,68.2872,0.0],[14.1322,68.2807,0.0],[14.1401,68.2821,8.6353],[14.1583,68.275,0.0]]],
[[[14.0339,68.3349,0.0],[14.0318,68.3297,0.0],[14.0417,68.3292,0.0],[14.0432,68.3297,0.0],[14.0458,68.3354,0.0],[14.0411,68.3391,0.0],[14.0333,68.3396,0.0],[14.0318,68.338,0.0],[14.0349,68.337,0.0],[14.0339,68.3349,0.0]]],
[[[14.3693,68.3391,25.8406],[14.3708,68.3375,66.3605],[14.3745,68.338,5.8095],[14.3729,68.3396,0.0],[14.3693,68.3391,25.8406]]],
[[[14.3938,68.3479,5.5552],[14.3922,68.3464,0.0],[14.4036,68.3464,0.0],[14.4021,68.3479,4.8123],[14.3938,68.3479,5.5552]]],
[[[14.4083,68.3688,0.0],[14.3917,68.3708,0.1508],[14.3839,68.3682,0.0],[14.388,68.3651,0.0],[14.3938,68.3646,0.0],[14.3953,68.363,0.0],[14.3839,68.362,0.0],[14.3875,68.3583,1.7118],[14.387,68.3568,7.2892],[14.3818,68.3547,0.0],[14.3938,68.3542,2.9264],[14.4,68.3521,0.0],[14.4078,68.3547,0.0],[14.4099,68.3578,1.1499],[14.4068,68.3599,0.0],[14.412,68.3609,0.0],[14.4161,68.3672,0.0],[14.4146,68.3688,0.0],[14.4083,68.3688,0.0]]]]}
,"properties": {"GID_2": "NOR.10.41_1","GID_0": "NOR","country": "Norway","GID_1": "NOR.10_1","province": "Nordland","NL_NAME_1": "NA","county": "Vågan","VARNAME_2": "NA","NL_NAME_2": "NA","TYPE_2": "Kommuner","ENGTYPE_2": "Municipality","CC_2": "NA","HASC_2": "NO.NO.VA","name": "Vågan.county","area_km2": 496.7232,"hist_schema_id": "Elevation0-9000","hist_area_km2": {"0": 108.503,"25": 70.4483,"50": 27.6109,"75": 21.6426,"100": 18.5522,"125": 16.4413,"150": 15.7824,"175": 14.5589,"200": 14.1351,"225": 15.2029,"250": 15.4584,"275": 14.9173,"300": 15.4662,"325": 14.7923,"350": 14.2094,"375": 12.8065,"400": 12.4909,"425": 11.5814,"450": 9.974,"475": 9.5272,"500": 8.8286,"525": 6.5856,"550": 6.0914,"575": 4.7111,"600": 3.4719,"625": 2.9539,"650": 2.3038,"675": 1.7389,"700": 1.0892,"725": 0.9633,"750": 0.799,"775": 0.4935,"800": 0.462,"825": 0.3994,"850": 0.3759,"875": 0.423,"900": 0.2192,"925": 0.2114,"950": 0.1643,"975": 0.1174,"1000": 0.0939,"1025": 0.0705,"1050": 0.0235,"1075": 0.0156,"1100": 0.0156}}}