{"type": "Feature","bbox": [15.413,68.76,16.1807,69.325],"geometry": {"type": "MultiPolygon","coordinates": [[[[15.8558,68.9621,102.231],[15.8542,68.9688,0.0],[15.8292,68.9604,29.4555],[15.8083,68.9604,0.0],[15.8021,68.9563,2.7347],[15.7771,68.9563,2.1901],[15.7755,68.9568,3.118],[15.7766,68.9599,-0.0037],[15.7688,68.9604,0.0],[15.7562,68.9563,0.0],[15.75,68.9563,-0.2112],[15.7396,68.9604,0.0],[15.7339,68.9609,0.798],[15.737,68.9703,-0.2239],[15.725,68.9729,0.0],[15.7151,68.9703,0.0],[15.7182,68.9672,0.0],[15.7104,68.9646,0.0],[15.6771,68.9625,0.0],[15.6708,68.9583,0.5795],[15.6479,68.9563,0.0],[15.6375,68.9521,0.5039],[15.6313,68.9542,0.0],[15.6188,68.9542,0.0],[15.6151,68.9505,0.0],[15.6193,68.9484,0.0],[15.6396,68.9479,0.0],[15.6411,68.9464,4.3409],[15.637,68.9401,2.4766],[15.6297,68.9391,0.0],[15.6245,68.9318,0.6788],[15.6172,68.9307,0.0],[15.6151,68.9255,0.0],[15.6182,68.9234,2.7299],[15.613,68.9224,0.0],[15.6099,68.9193,2.5999],[15.6026,68.9182,0.0],[15.6057,68.9161,0.0],[15.6068,68.913,0.0],[15.6099,68.912,0.0],[15.6068,68.9068,0.0],[15.6104,68.9042,0.0],[15.6099,68.9026,0.8943],[15.6026,68.9016,0.0],[15.6057,68.8984,0.0],[15.6005,68.8964,0.0],[15.6036,68.8953,3.0024],[15.6026,68.8922,0.0],[15.6099,68.8891,0.0],[15.6099,68.8859,0.0],[15.5938,68.8854,0.0],[15.5813,68.8896,0.0],[15.5776,68.8891,1.4274],[15.5745,68.8859,24.1548],[15.5693,68.8849,0.0],[15.5672,68.8828,0.0],[15.5557,68.8672,-0.5791],[15.5484,68.8662,0.0],[15.5479,68.8646,0.0],[15.5484,68.863,0.0],[15.5557,68.8599,5.1399],[15.5526,68.8547,0.0],[15.562,68.8536,7.3916],[15.5943,68.838,0.0],[15.6271,68.8333,-0.0658],[15.6354,68.8292,0.0],[15.6495,68.8287,-0.0599],[15.6464,68.8234,0.0],[15.6547,68.8193,0.0],[15.6625,68.8187,0.0],[15.6682,68.8161,0.0],[15.662,68.813,0.0],[15.6844,68.8136,2.3657],[15.6853,68.8091,7.1597],[15.6977,68.8094,3.7637],[15.6994,68.8004,31.979],[15.7117,68.8007,11.2266],[15.7152,68.7827,9.5311],[15.7028,68.7824,48.4091],[15.7071,68.76,136.172],[15.7318,68.7606,247.9082],[15.7309,68.7651,157.1768],[15.7432,68.7654,487.8642],[15.7424,68.7698,364.7523],[15.7547,68.7701,516.2388],[15.7539,68.7746,412.5787],[15.7662,68.7749,381.048],[15.7654,68.7794,417.1285],[15.7777,68.7797,770.5364],[15.7744,68.7977,733.7063],[15.762,68.7974,377.8416],[15.7603,68.8064,576.1558],[15.7727,68.8067,480.7481],[15.7718,68.8112,326.1341],[15.7966,68.8118,202.5833],[15.7957,68.8163,366.8895],[15.8081,68.8166,566.3403],[15.8073,68.821,522.9991],[15.8196,68.8213,607.8577],[15.8163,68.8393,546.0446],[15.8287,68.8396,554.5693],[15.8253,68.8576,536.5051],[15.8129,68.8573,527.3497],[15.8113,68.8663,535.9547],[15.8236,68.8666,539.2357],[15.822,68.8756,293.1933],[15.8344,68.8758,313.8687],[15.8327,68.8848,214.2432],[15.8451,68.8851,407.6703],[15.8401,68.9121,483.8309],[15.8277,68.9118,146.1373],[15.8243,68.9298,423.8731],[15.8368,68.9301,600.7054],[15.8351,68.9391,657.6614],[15.8475,68.9394,597.2271],[15.8459,68.9483,658.764],[15.8583,68.9486,671.0754],[15.8575,68.9531,510.5782],[15.8699,68.9534,475.8404],[15.8691,68.9579,447.4536],[15.8566,68.9576,535.4371],[15.8558,68.9621,102.231]]],
[[[15.6498,68.9596,0.0],[15.6542,68.9583,0.0],[15.6583,68.9604,0.0],[15.6667,68.9604,0.0],[15.6682,68.962,0.0],[15.6464,68.962,-0.2382],[15.6498,68.9596,0.0]]],
[[[15.6797,69.1474,0.1144],[15.6813,69.1458,0.0],[15.6849,69.1464,0.0],[15.6833,69.1479,0.8857],[15.6797,69.1474,0.1144]]],
[[[15.7458,69.1563,-0.2731],[15.7339,69.1578,-0.6669],[15.7396,69.1542,0.0],[15.7495,69.1547,0.0],[15.7458,69.1563,-0.2731]]],
[[[16.1521,69.2979,3.8273],[16.1443,69.3005,0.0],[16.1453,69.3037,0.0],[16.1339,69.3089,0.0],[16.1328,69.312,0.0],[16.1297,69.313,0.0],[16.137,69.3161,0.0],[16.1297,69.3193,0.0],[16.1286,69.3224,0.0],[16.1245,69.3245,0.0],[16.1167,69.325,0.0],[16.1099,69.3193,0.0],[16.1047,69.3182,1.6202],[16.1078,69.3161,0.0],[16.1063,69.3146,0.0],[16.0833,69.3125,0.0],[16.05,69.3021,0.0],[16.0172,69.2953,0.0],[16.0245,69.2911,55.5821],[16.0229,69.2896,135.7656],[16.0083,69.2896,329.7692],[15.9984,69.2943,158.284],[15.9995,69.2974,55.1045],[15.9958,69.2979,36.043],[15.9901,69.2932,0.0],[15.987,69.288,0.0],[15.9734,69.2849,0.0],[15.9682,69.2797,0.0],[15.963,69.2786,0.0],[15.9599,69.2755,0.0],[15.9521,69.2729,8.4559],[15.9417,69.2729,0.0],[15.9313,69.2688,14.2274],[15.9083,69.2667,0.0],[15.9016,69.2609,233.062],[15.8917,69.2604,179.5285],[15.8818,69.2578,0.0],[15.887,69.2547,46.1703],[15.875,69.2542,0.0],[15.8688,69.25,30.0955],[15.8625,69.25,166.5208],[15.8521,69.2542,5.3323],[15.8505,69.2526,4.7594],[15.8589,69.2484,0.0],[15.8667,69.2479,77.0111],[15.8682,69.2464,122.0127],[15.8625,69.2417,316.5984],[15.8401,69.2391,0.0],[15.8417,69.2375,0.0],[15.8521,69.2375,0.0],[15.8563,69.2354,0.0],[15.8641,69.2349,0.0],[15.863,69.2297,0.0],[15.8661,69.2286,6.8864],[15.8563,69.225,148.6075],[15.8401,69.2245,0.0],[15.8458,69.2208,0.0],[15.8536,69.2203,0.0],[15.8526,69.2151,0.0],[15.8557,69.213,0.0],[15.8526,69.2089,0.0],[15.8578,69.2068,0.0],[15.8526,69.2016,-0.0765],[15.8516,69.1984,-0.5371],[15.8417,69.1979,1.8888],[15.8354,69.2,0.0],[15.8104,69.1917,0.0],[15.7984,69.1911,1.3288],[15.8,69.1896,1.3975],[15.8063,69.1896,2.1122],[15.8104,69.1875,0.0],[15.8245,69.187,0.0],[15.8229,69.1854,0.0],[15.8109,69.1828,0.5588],[15.8141,69.1797,0.0],[15.8068,69.1755,1.338],[15.8125,69.1729,0.0],[15.8203,69.1724,6.2996],[15.8188,69.1708,4.3223],[15.813,69.1703,0.0],[15.8161,69.1682,0.0],[15.8151,69.163,7.0361],[15.8313,69.1667,6.3812],[15.8411,69.162,5.2974],[15.8391,69.1568,6.3477],[15.8208,69.1521,7.1908],[15.8125,69.1521,5.3596],[15.8021,69.1479,8.5195],[15.7917,69.1479,5.2587],[15.7854,69.1438,5.201],[15.7792,69.1438,5.7955],[15.7776,69.1453,5.2493],[15.7797,69.1495,6.4261],[15.787,69.1505,5.0276],[15.7891,69.1526,7.3603],[15.7875,69.1542,-0.539],[15.7729,69.1542,-0.5845],[15.7667,69.15,-0.0644],[15.7604,69.1521,0.0],[15.7589,69.1505,-0.321],[15.762,69.1484,-0.0457],[15.7583,69.1479,0.0602],[15.7521,69.15,0.0],[15.7417,69.1458,-0.7695],[15.7354,69.1479,-0.2624],[15.7292,69.1479,-0.1048],[15.725,69.15,0.0],[15.6979,69.1479,0.0],[15.6964,69.1464,0.0],[15.7042,69.1458,-0.7121],[15.7099,69.1432,-0.3079],[15.7099,69.1401,-1.0],[15.6688,69.1396,-0.1499],[15.6646,69.1354,0.0],[15.6682,69.1328,0.0],[15.6667,69.1312,3.534],[15.6521,69.1292,7.5526],[15.6479,69.1312,0.0],[15.6396,69.1312,0.0],[15.6208,69.125,3.1027],[15.6125,69.125,0.0],[15.6078,69.1214,-0.096],[15.6005,69.1203,0.0],[15.6005,69.1172,2.9821],[15.6083,69.1167,0.0],[15.6099,69.1151,0.0],[15.6063,69.1125,0.2221],[15.5979,69.1125,-0.1606],[15.5818,69.1078,2.0437],[15.5797,69.1057,0.0],[15.5828,69.1036,39.1242],[15.5807,69.1005,174.0507],[15.563,69.0995,22.4404],[15.5661,69.0974,33.1514],[15.5651,69.0943,0.0],[15.5745,69.0932,241.9848],[15.5729,69.0917,255.7216],[15.563,69.0911,2.5212],[15.5661,69.088,69.9058],[15.5521,69.0896,0.0],[15.5484,69.087,0.0],[15.5599,69.0807,0.0],[15.5599,69.0776,6.6338],[15.5526,69.0766,0.0],[15.5495,69.0734,0.205],[15.5417,69.0708,1.0073],[15.5318,69.0703,0.284],[15.5271,69.0667,-1.0],[15.5208,69.0687,0.0],[15.5172,69.0682,0.0],[15.5172,69.0651,-0.1224],[15.5229,69.0646,0.733],[15.5307,69.0609,0.0],[15.5255,69.0557,0.0],[15.5245,69.0526,0.0],[15.5042,69.0479,0.0],[15.5005,69.0453,0.0],[15.5057,69.0432,-0.4486],[15.5026,69.038,0.0],[15.5057,69.0359,-0.7935],[15.5005,69.0349,0.0],[15.4964,69.0307,-0.3387],[15.4995,69.0286,0.0],[15.4995,69.0255,-1.5],[15.4896,69.0229,-0.0616],[15.4688,69.0229,0.0],[15.4609,69.0203,0.0],[15.4568,69.0162,0.0],[15.4547,69.0109,-0.049],[15.4578,69.0099,0.0],[15.4568,69.0068,0.0],[15.462,69.0057,-0.9662],[15.4661,69.0026,3.9117],[15.4641,69.0005,2.5251],[15.4568,68.9995,0.6645],[15.4505,68.9974,0.0],[15.4474,68.9943,0.0],[15.4422,68.9932,0.0],[15.437,68.988,0.0],[15.4318,68.987,0.0],[15.4276,68.9828,0.0],[15.4234,68.9755,0.0],[15.4313,68.975,3.8239],[15.437,68.9724,0.0],[15.4359,68.9672,0.0],[15.4391,68.9661,3.5568],[15.438,68.9609,0.0],[15.4411,68.9599,14.0488],[15.4396,68.9583,6.0795],[15.4339,68.9578,0.0],[15.4417,68.9521,4.1616],[15.4375,68.9458,0.0],[15.4411,68.9422,31.7032],[15.4375,68.9375,0.0],[15.4411,68.9349,3.7961],[15.438,68.9297,0.0],[15.4417,68.9271,0.0],[15.4359,68.9193,0.0],[15.4411,68.9182,14.9268],[15.4536,68.9109,343.4358],[15.4438,68.9104,430.5244],[15.4396,68.9125,264.6468],[15.4359,68.912,52.6239],[15.4349,68.9089,103.8113],[15.4276,68.9078,0.0],[15.4245,68.9026,2.5105],[15.413,68.9016,0.0],[15.4161,68.8995,0.5296],[15.4151,68.8964,0.0],[15.4208,68.8938,0.0],[15.4286,68.8932,6.6778],[15.4276,68.8901,0.0],[15.4349,68.887,0.0],[15.4359,68.8839,0.0],[15.4443,68.8797,0.0],[15.4521,68.8792,0.0],[15.4563,68.8771,0.0],[15.4667,68.8771,30.3245],[15.475,68.8729,0.0],[15.4813,68.8729,0.0],[15.4875,68.8708,0.0],[15.4911,68.8734,0.0],[15.4943,68.8786,0.0],[15.5078,68.8818,0.0],[15.5193,68.8891,0.9515],[15.5328,68.8922,0.0],[15.5359,68.8953,0.0],[15.5411,68.8964,0.0],[15.5464,68.9036,0.0],[15.5536,68.9047,0.0],[15.5609,68.9161,2.8037],[15.5682,68.9172,0.0],[15.5693,68.9203,0.0],[15.5745,68.9255,0.0],[15.5786,68.9318,0.0],[15.5755,68.9349,3.92],[15.5807,68.9359,0.0],[15.5828,68.938,0.0],[15.5792,68.9417,0.9124],[15.587,68.9526,0.0],[15.5839,68.9557,0.0],[15.5859,68.9599,0.0],[15.5932,68.9609,0.0],[15.5901,68.963,2.3004],[15.5901,68.9661,0.0],[15.5953,68.9714,0.0],[15.6016,68.9828,0.0],[15.5984,68.9839,0.983],[15.5995,68.987,0.0],[15.5979,68.9875,0.0],[15.5813,68.9896,5.6072],[15.5729,68.9938,0.0],[15.5604,68.9938,0.0],[15.5563,68.9958,0.0],[15.5484,68.9964,-0.0104],[15.5443,68.9984,0.5871],[15.5453,69.0016,0.0],[15.5422,69.0026,-0.3644],[15.5438,69.0042,-0.4018],[15.5625,69.0042,4.1093],[15.5667,69.0021,0.0],[15.5958,69.0021,6.0814],[15.6,69.0,0.0],[15.6182,68.9974,1.0718],[15.6172,68.9943,0.0],[15.6203,68.9932,0.0],[15.6193,68.9901,0.0],[15.6245,68.9891,0.9203],[15.6234,68.9859,0.0],[15.6307,68.9828,1.6173],[15.6297,68.9797,0.0],[15.6328,68.9786,0.0],[15.6313,68.9771,0.0],[15.6229,68.9771,0.0],[15.6193,68.9745,0.0],[15.6193,68.9714,0.0],[15.6224,68.9703,0.0],[15.6214,68.9672,0.0],[15.6354,68.9667,6.8281],[15.6443,68.9745,0.0],[15.6495,68.9755,0.0],[15.6516,68.9776,0.0],[15.6516,68.9807,0.0],[15.6484,68.9818,0.0],[15.65,68.9833,0.0],[15.6599,68.9828,0.0],[15.6589,68.9797,0.0],[15.6604,68.9792,0.0],[15.6807,68.9786,0.0],[15.6792,68.9771,0.0],[15.6734,68.9766,0.0],[15.6714,68.9745,0.0],[15.6729,68.9729,0.0],[15.6875,68.9729,0.0],[15.6974,68.9776,0.0],[15.6901,68.9818,0.0],[15.6917,68.9833,0.0],[15.7125,68.9833,0.0],[15.7172,68.9891,0.0],[15.7229,68.9896,0.0],[15.7333,68.9938,0.0],[15.737,68.9932,0.0],[15.7359,68.9901,0.0],[15.7401,68.988,0.5183],[15.7453,68.988,0.0],[15.7422,68.9912,0.0],[15.7464,68.9974,0.0],[15.7536,68.9984,0.0],[15.7547,69.0016,2.4816],[15.762,69.0026,0.0],[15.7667,69.0083,0.0],[15.7771,69.0083,0.0],[15.7813,69.0104,0.0],[15.8021,69.0104,0.0],[15.8063,69.0125,0.0],[15.8208,69.0125,0.0],[15.8313,69.0167,0.0],[15.837,69.0172,0.0],[15.8396,69.0208,0.9451],[15.8438,69.0208,0.0],[15.8479,69.0229,0.0],[15.8625,69.0229,0.0],[15.8724,69.0255,0.0],[15.8745,69.0307,0.0],[15.8688,69.0333,0.0],[15.8609,69.0339,0.0],[15.8568,69.037,0.0],[15.8703,69.0401,0.0],[15.875,69.0458,0.0],[15.887,69.0463,0.0],[15.8901,69.0516,0.0],[15.8974,69.0526,0.0],[15.9005,69.0578,0.0],[15.9078,69.0589,0.0],[15.912,69.0661,0.0],[15.9042,69.0667,0.0],[15.9026,69.0682,0.0],[15.9161,69.0714,0.0],[15.9255,69.0828,0.0],[15.9307,69.0839,0.0],[15.9339,69.087,0.0],[15.9417,69.0896,0.0],[15.95,69.0875,0.0],[15.9547,69.0911,0.0],[15.9599,69.0922,0.0],[15.962,69.0943,0.0],[15.9589,69.0964,0.0],[15.9609,69.1016,0.0],[15.9682,69.1026,0.0],[15.9703,69.1047,0.0],[15.9703,69.1078,0.0],[15.9672,69.1099,0.0],[15.9807,69.1109,0.0],[15.9818,69.1141,4.2777],[15.9974,69.1172,0.0],[16.0,69.1208,0.0],[16.0083,69.1188,0.0],[16.0161,69.1214,0.0],[16.013,69.1234,-0.4743],[16.0141,69.1266,0.0],[16.0109,69.1276,0.0],[16.0125,69.1292,0.0],[16.0167,69.1292,0.0],[16.0208,69.1312,0.0],[16.0292,69.1312,0.0],[16.0333,69.1333,0.0],[16.0417,69.1333,0.0],[16.0458,69.1354,0.0],[16.0578,69.1359,0.0],[16.0589,69.1391,0.0],[16.0661,69.1401,0.0],[16.0714,69.1474,0.0],[16.0786,69.1484,0.0],[16.0849,69.1505,0.0],[16.088,69.1536,1.0198],[16.0932,69.1547,0.0],[16.0901,69.1578,1.9384],[16.0922,69.1599,1.8523],[16.0995,69.1609,0.0],[16.0995,69.1641,0.0],[16.0964,69.1661,2.2352],[16.1021,69.1729,1.5584],[16.1016,69.1745,0.0],[16.0943,69.1776,3.3957],[16.0979,69.1833,0.0],[16.0943,69.1859,0.0],[16.0953,69.1891,0.0],[16.0922,69.1911,0.0],[16.0974,69.1922,0.0],[16.1104,69.2083,0.4664],[16.1099,69.2099,0.0],[16.1042,69.2104,0.0],[16.0964,69.2141,4.2619],[16.1036,69.2151,0.0],[16.1182,69.2338,0.0],[16.1151,69.2359,0.0],[16.1151,69.2391,3.0771],[16.1172,69.2412,1.2555],[16.1245,69.2422,0.0],[16.1255,69.2453,0.0],[16.1542,69.2521,0.0],[16.162,69.2547,0.0],[16.1651,69.2578,0.5149],[16.175,69.2583,0.0],[16.1786,69.2609,0.0],[16.1755,69.263,0.0],[16.1766,69.2662,0.0],[16.1693,69.2703,0.2896],[16.1745,69.2714,0.0],[16.1786,69.2755,0.0],[16.1786,69.2786,0.0],[16.1755,69.2807,0.0362],[16.1807,69.287,0.2697],[16.1651,69.288,4.1362],[16.1703,69.2911,0.0],[16.1609,69.2922,0.0],[16.1568,69.2943,3.7422],[16.1578,69.2974,0.0],[16.1521,69.2979,3.8273]]],
[[[15.7901,69.1557,-0.4937],[15.7917,69.1542,2.6291],[15.8,69.1542,5.1785],[15.8047,69.1578,5.3867],[15.8099,69.1589,5.4332],[15.812,69.162,8.3776],[15.8021,69.1625,0.0],[15.7974,69.1568,0.0],[15.7901,69.1557,-0.4937]]],
[[[15.8714,69.2745,0.0],[15.8729,69.2729,1.2682],[15.8766,69.2734,15.5979],[15.875,69.275,50.1877],[15.8714,69.2745,0.0]]]]}
,"properties": {"GID_2": "NOR.10.2_1","GID_0": "NOR","country": "Norway","GID_1": "NOR.10_1","province": "Nordland","NL_NAME_1": "NA","county": "Andøy","VARNAME_2": "NA","NL_NAME_2": "NA","TYPE_2": "Kommuner","ENGTYPE_2": "Municipality","CC_2": "NA","HASC_2": "NO.NO.AN","name": "Andøy.county","area_km2": 663.8398,"hist_schema_id": "Elevation0-9000","hist_area_km2": {"0": 131.7519,"25": 190.3272,"50": 48.3101,"75": 24.6649,"100": 24.2379,"125": 19.797,"150": 21.9006,"175": 21.6669,"200": 21.0549,"225": 20.7933,"250": 17.0281,"275": 17.9138,"300": 16.4435,"325": 15.2128,"350": 13.3517,"375": 11.7884,"400": 8.8006,"425": 7.6659,"450": 6.6927,"475": 5.6211,"500": 4.9368,"525": 3.8847,"550": 2.8713,"575": 1.9937,"600": 1.6355,"625": 1.177,"650": 1.1775,"675": 0.4819,"700": 0.2984,"725": 0.1914,"750": 0.0995,"775": 0.0537,"800": 0.0153}}}