{"type": "Feature","bbox": [6.4034,61.9295,6.7963,62.0725],"geometry": {"type": "MultiPolygon","coordinates": [[[[6.5095,62.035,1125.2625],[6.5135,62.0262,836.8375],[6.4384,62.0189,814.9011],[6.4404,62.0145,777.3042],[6.431,62.0136,716.3821],[6.433,62.0092,582.8353],[6.4236,62.0083,767.3448],[6.4275,61.9995,666.0247],[6.4182,61.9986,860.0056],[6.4202,61.9942,853.6824],[6.4108,61.9933,1032.8005],[6.4128,61.9889,1022.708],[6.4034,61.988,1062.4172],[6.4054,61.9836,1040.1058],[6.4147,61.9845,1030.2112],[6.4187,61.9757,682.6454],[6.4281,61.9767,612.9106],[6.436,61.9591,52.5],[6.4266,61.9582,52.5],[6.4286,61.9538,52.5],[6.438,61.9547,52.5],[6.4439,61.9415,52.5],[6.4532,61.9425,52.5],[6.4572,61.9337,259.1371],[6.4946,61.9374,69.4008],[6.4966,61.933,230.1934],[6.5059,61.9339,144.4711],[6.5079,61.9295,153.766],[6.5734,61.9359,297.8093],[6.5715,61.9403,473.8685],[6.5808,61.9412,551.6249],[6.5789,61.9456,780.9784],[6.5882,61.9465,740.8707],[6.5843,61.9553,843.8749],[6.6593,61.9625,1232.5847],[6.6573,61.9669,1181.9443],[6.6761,61.9687,831.9806],[6.678,61.9643,975.1327],[6.6874,61.9652,1131.7906],[6.6893,61.9608,1130.4225],[6.6987,61.9618,859.4285],[6.7006,61.9574,858.4081],[6.7381,61.961,850.23],[6.7401,61.9566,1069.1025],[6.7963,61.962,869.6727],[6.7924,61.9707,1440.5616],[6.7831,61.9698,983.0],[6.7754,61.9874,1072.2284],[6.766,61.9865,899.272],[6.7582,62.0041,710.3062],[6.7489,62.0032,1075.4045],[6.7431,62.0164,507.938],[6.7337,62.0155,506.9153],[6.7259,62.033,495.346],[6.7165,62.0321,628.3373],[6.7107,62.0453,1037.0933],[6.7013,62.0444,1034.7571],[6.6935,62.062,917.1499],[6.6841,62.0611,1206.0896],[6.6802,62.0699,1024.1113],[6.6614,62.0681,1223.1694],[6.6595,62.0725,1453.3347],[6.6407,62.0706,633.0],[6.6426,62.0663,705.7863],[6.6332,62.0653,675.2483],[6.6352,62.061,1024.2866],[6.6258,62.06,837.0164],[6.6277,62.0557,1248.7332],[6.5901,62.052,1311.9104],[6.5882,62.056399999999996,1328.8392],[6.5318,62.0509,1040.9407],[6.5338,62.0466,1038.2522],[6.515,62.0447,833.9158],[6.5189,62.0359,911.9282],[6.5095,62.035,1125.2625]]]]}
,"properties": {"GID_2": "NOR.14.13_1","GID_0": "NOR","country": "Norway","GID_1": "NOR.14_1","province": "SognogFjordane","NL_NAME_1": "NA","county": "Hornindal","VARNAME_2": "NA","NL_NAME_2": "NA","TYPE_2": "Kommuner","ENGTYPE_2": "Municipality","CC_2": "NA","HASC_2": "NO.SF.HR","name": "Hornindal.county","area_km2": 184.9943,"hist_schema_id": "Elevation0-9000","hist_area_km2": {"50": 11.6712,"75": 2.0729,"100": 2.3914,"125": 2.5206,"150": 2.3711,"175": 2.4109,"200": 2.6203,"225": 3.3272,"250": 2.6992,"275": 3.2566,"300": 2.9578,"325": 3.9331,"350": 5.2559,"375": 4.9767,"400": 4.7279,"425": 3.9917,"450": 3.8621,"475": 4.1308,"500": 4.529,"525": 3.9619,"550": 3.992,"575": 4.1412,"600": 4.3702,"625": 4.5193,"650": 4.8378,"675": 4.9271,"700": 5.8625,"725": 5.0562,"750": 4.9565,"775": 5.594,"800": 4.6684,"825": 5.6639,"850": 4.4988,"875": 4.3192,"900": 4.2196,"925": 4.0199,"950": 3.4927,"975": 3.9606,"1000": 3.6025,"1025": 3.1244,"1050": 2.667,"1075": 2.3783,"1100": 2.3282,"1125": 2.1186,"1150": 1.8701,"1175": 1.721,"1200": 1.0942,"1225": 1.0445,"1250": 0.7463,"1275": 0.4974,"1300": 0.3479,"1325": 0.2982,"1350": 0.2882,"1375": 0.0497,"1400": 0.01,"1450": 0.0299,"1475": 0.0099}}}