{"type":"Feature","properties":{"GID_2":"NOR.9.22_1","GID_0":"NOR","country":"Norway","GID_1":"NOR.9_1","province":"Nord-Trøndelag","NL_NAME_1":"NA","county":"Verdal","VARNAME_2":"NA","NL_NAME_2":"NA","TYPE_2":"Kommuner","ENGTYPE_2":"Municipality","CC_2":"NA","HASC_2":"NO.NT.VD","name":"Verdal.county"},
"geometry":{"type": "MultiPolygon","coordinates": [[[[11.7375,63.6001,426.8533],[11.7374,63.6004,426.8533],[11.7379,63.5988,425.0641],[11.7375,63.6001,426.8533]]],
[[[11.3998,63.8477,0.0],[11.4078,63.8432,0.0],[11.4109,63.838,0.0],[11.425,63.8333,0.0],[11.4328,63.8328,2.5162],[11.4396,63.8271,0.0],[11.4391,63.8255,0.0],[11.4312,63.8229,0.0],[11.4063,63.8229,0.0],[11.3984,63.8193,7.1452],[11.4083,63.8146,0.0],[11.4354,63.8125,0.0],[11.4411,63.8099,0.8235],[11.4422,63.8068,0.0],[11.4521,63.8042,0.0],[11.4667,63.8042,14.904],[11.4766,63.8016,24.5336],[11.4745,63.7964,0.0],[11.4729,63.7958,0.0],[11.4604,63.8021,0.0],[11.4563,63.8,0.0],[11.438,63.7974,0.0],[11.4333,63.7896,3.3757],[11.437,63.787,0.0],[11.437,63.7839,4.0398],[11.4318,63.7828,3.4477],[11.4349,63.7797,0.0],[11.4328,63.7755,1.4905],[11.4274,63.7738,0.0],[11.4348,63.7742,1.8818],[11.4391,63.7793,0.0],[11.4422,63.7692,1.8356],[11.4522,63.7698,2.138],[11.4563,63.7564,49.1735],[11.4663,63.757,91.6342],[11.469,63.7481,106.3502],[11.4992,63.7499,202.571],[11.5006,63.7454,148.7656],[11.5207,63.7466,187.7589],[11.5234,63.7377,151.0719],[11.5334,63.7382,165.9627],[11.5348,63.7338,163.252],[11.5448,63.7344,164.2543],[11.5462,63.7299,168.123],[11.5562,63.7305,241.2594],[11.5576,63.726,189.1799],[11.5777,63.7272,216.7339],[11.5817,63.7138,448.5451],[11.5917,63.7144,447.8498],[11.597,63.6966,445.9838],[11.5869,63.696,434.6339],[11.5962,63.6648,598.9728],[11.5861,63.6643,511.361],[11.5875,63.6598,582.2027],[11.5975,63.6604,590.1418],[11.5988,63.6559,550.7806],[11.6088,63.6565,584.7991],[11.6115,63.6476,508.7401],[11.6215,63.6482,508.329],[11.6228,63.6437,486.7428],[11.6329,63.6443,502.1641],[11.6355,63.6354,477.6549],[11.6455,63.636,504.9473],[11.6481,63.6271,459.0018],[11.6582,63.6276,468.8761],[11.6595,63.6232,481.6553],[11.6695,63.6237,535.4566],[11.6721,63.6148,583.9193],[11.7022,63.6165,655.86],[11.7035,63.6121,663.6774],[11.7135,63.6127,657.1861],[11.7148,63.6082,597.5361],[11.7248,63.6088,640.6013],[11.7261,63.6043,541.6549],[11.7361,63.6049,540.2558],[11.7374,63.6004,426.8533],[11.7474,63.601,431.3241],[11.7462,63.6054,517.863],[11.7562,63.606,617.4237],[11.7549,63.6105,683.3543],[11.7749,63.6116,746.3168],[11.7737,63.616,815.1783],[11.7837,63.6166,823.1699],[11.7824,63.6211,807.5731],[11.7924,63.6216,813.0832],[11.7911,63.6261,720.376],[11.8012,63.6266,782.7157],[11.7999,63.6311,749.9855],[11.8099,63.6317,996.0214],[11.8086,63.6361,986.8965],[11.8187,63.6367,921.0038],[11.8199,63.6322,875.3965],[11.84,63.6333,672.2235],[11.8413,63.6289,652.8341],[11.8513,63.6294,614.8793],[11.8526,63.625,614.7737],[11.8727,63.6261,651.5419],[11.8739,63.6216,635.795],[11.894,63.6227,678.2994],[11.8953,63.6183,639.0704],[11.9053,63.6188,668.0387],[11.9066,63.6144,644.7526],[11.9266,63.6155,740.9412],[11.9279,63.611,813.1651],[11.9379,63.6116,829.3226],[11.9392,63.6071,845.0001],[11.9592,63.6082,770.8886],[11.9605,63.6038,724.5193],[11.9805,63.6049,643.7563],[11.9818,63.6004,638.5875],[11.9918,63.601,640.3483],[11.9931,63.5965,645.1202],[12.0332,63.5987,600.6012],[12.0344,63.5942,648.2576],[12.0745,63.5964,665.0486],[12.0758,63.5919,706.2225],[12.1159,63.5941,645.9704],[12.1171,63.5897,730.9627],[12.1572,63.5918,644.0516],[12.156,63.5963,683.8964],[12.166,63.5968,711.0767],[12.1648,63.6013,786.9646],[12.1748,63.6018,752.7113],[12.1736,63.6063,822.8145],[12.1836,63.6068,716.4696],[12.1824,63.6112,674.1234],[12.1924,63.6118,645.1733],[12.1912,63.6162,628.6092],[12.2012,63.6168,615.8384],[12.2,63.6212,702.6269],[12.21,63.6218,696.7532],[12.2088,63.6262,700.3132],[12.2289,63.6273,650.2136],[12.2277,63.6317,624.7128],[12.2377,63.6323,587.9384],[12.2365,63.6367,528.2513],[12.2465,63.6373,551.3566],[12.2453,63.6417,552.7544],[12.2554,63.6423,488.7289],[12.2542,63.6467,492.1272],[12.2642,63.6472,468.7098],[12.263,63.6517,473.8584],[12.273,63.6522,453.3576],[12.2718,63.6567,432.1044],[12.2819,63.6572,496.3919],[12.2807,63.6617,498.1926],[12.2907,63.6622,563.098],[12.2895,63.6667,606.8247],[12.2996,63.6672,640.1075],[12.2971,63.6761,637.2241],[12.3072,63.6766,646.1589],[12.3048,63.6856,553.9509],[12.3148,63.6861,543.6176],[12.3124,63.695,530.7581],[12.3225,63.6955,499.9674],[12.3201,63.7045,504.7645],[12.3302,63.705,508.7597],[12.3277,63.7139,490.5],[12.3378,63.7144,518.9349],[12.3354,63.7233,563.549],[12.3455,63.7239,547.2565],[12.3443,63.7283,518.5897],[12.3543,63.7289,527.5127],[12.3531,63.7333,501.7215],[12.3632,63.7338,567.0063],[12.362,63.7383,565.0034],[12.3721,63.7388,563.7147],[12.3709,63.7433,541.8655],[12.381,63.7438,552.983],[12.3786,63.7527,539.6037],[12.3887,63.7532,561.201],[12.3875,63.7577,519.5265],[12.3976,63.7582,509.9477],[12.3964,63.7627,440.1349],[12.4065,63.7632,435.1502],[12.4053,63.7677,456.7437],[12.4153,63.7682,488.0543],[12.4141,63.7726,469.5695],[12.4242,63.7732,525.9996],[12.4219,63.7821,488.9135],[12.432,63.7826,494.2401],[12.4308,63.7871,457.5399],[12.4409,63.7876,422.1659],[12.4397,63.792,383.0],[12.4498,63.7926,419.0973],[12.4486,63.797,399.4232],[12.4587,63.7975,412.2979],[12.4563,63.8065,394.0111],[12.4664,63.807,402.0981],[12.4652,63.8114,438.004],[12.4753,63.812,434.9727],[12.4741,63.8164,508.0333],[12.4842,63.8169,479.5823],[12.4831,63.8214,496.1628],[12.4932,63.8219,444.9951],[12.4908,63.8308,460.7466],[12.5009,63.8313,452.7898],[12.4997,63.8358,456.3047],[12.5098,63.8363,453.3376],[12.5087,63.8408,434.5],[12.5188,63.8413,437.1988],[12.5164,63.8502,495.4437],[12.5265,63.8507,490.1185],[12.5253,63.8552,533.7159],[12.5355,63.8557,496.86],[12.5343,63.8602,516.7905],[12.5444,63.8607,492.2671],[12.5421,63.8696,504.5542],[12.5522,63.8701,496.3535],[12.551,63.8746,518.9172],[12.5611,63.8751,502.3363],[12.56,63.8795,525.7086],[12.5701,63.8801,508.0689],[12.5677,63.889,612.1111],[12.5779,63.8895,590.1066],[12.5767,63.894,649.1656],[12.5868,63.8945,619.0565],[12.5857,63.8989,681.4416],[12.5958,63.8994,672.3968],[12.5935,63.9084,779.9955],[12.6036,63.9089,763.5326],[12.6024,63.9133,827.7728],[12.6126,63.9138,789.4446],[12.6102,63.9228,714.4566],[12.6204,63.9233,720.0828],[12.6192,63.9277,610.8868],[12.6294,63.9282,580.0243],[12.6282,63.9327,573.9185],[12.6384,63.9332,550.0837],[12.636,63.9421,660.1005],[12.6462,63.9426,634.5618],[12.645,63.9471,730.1815],[12.6552,63.9476,718.3811],[12.654,63.9521,724.313],[12.6642,63.9526,702.934],[12.6618,63.9615,639.4049],[12.672,63.962,646.0867],[12.6708,63.9665,635.236],[12.5692,63.9614,494.9786],[12.568,63.9659,498.1035],[12.2125,63.9476,611.2065],[12.2137,63.9432,588.559],[12.1934,63.9421,624.2558],[12.1946,63.9376,589.3999],[12.1743,63.9366,578.1843],[12.1756,63.9321,551.0656],[12.1451,63.9305,619.0179],[12.1464,63.926,616.777],[12.116,63.9244,576.922],[12.1172,63.92,635.6544],[12.0462,63.9162,350.5991],[12.0475,63.9117,368.466],[12.0171,63.9101,523.1254],[12.0158,63.9145,487.6618],[11.8233,63.904,354.8158],[11.822,63.9085,329.9136],[11.7005,63.9017,502.2673],[11.7018,63.8973,468.4974],[11.6613,63.895,489.6089],[11.6626,63.8905,493.9512],[11.6221,63.8882,140.7909],[11.6208,63.8927,118.1815],[11.6107,63.8921,67.5],[11.6146,63.8788,67.5],[11.554,63.8753,205.6999],[11.5553,63.8709,222.0684],[11.525,63.8691,261.4112],[11.5263,63.8647,331.5351],[11.5061,63.8635,300.1479],[11.5074,63.8591,310.0933],[11.4771,63.8573,292.7375],[11.4784,63.8529,302.7872],[11.438,63.8505,243.7972],[11.4394,63.8461,243.256],[11.4192,63.8449,153.4265],[11.4205,63.8404,150.6959],[11.4133,63.84,60.5971],[11.4062,63.8471,18.3114],[11.4005,63.8487,6.9743],[11.3998,63.8477,0.0]]]]}}