{"type": "Feature","bbox": [9.2132,59.0436,9.7676,59.4872],"geometry": {"type": "MultiPolygon","coordinates": [[[[9.4714,59.4815,777.9924],[9.4626,59.4808,729.9133],[9.464,59.4764,685.4554],[9.4553,59.4757,760.0099],[9.4567,59.4713,645.4924],[9.448,59.4705,638.965],[9.4494,59.4661,629.9973],[9.4406,59.4654,629.4121],[9.442,59.461,653.8604],[9.4071,59.4581,716.8167],[9.4085,59.4537,744.1048],[9.3997,59.453,691.9763],[9.4011,59.4485,716.5931],[9.3924,59.4478,604.0861],[9.3966,59.4345,743.5767],[9.3879,59.4338,716.3198],[9.3907,59.425,755.6282],[9.382,59.4242,699.6151],[9.3848,59.4154,704.3334],[9.3761,59.4147,514.2806],[9.3803,59.4014,714.9829],[9.3716,59.4007,492.8791],[9.373,59.3962,572.9435],[9.3817,59.397,525.592],[9.3845,59.3881,530.5142],[9.3873,59.3792,614.5437],[9.3786,59.3785,484.5344],[9.38,59.3741,510.6521],[9.3713,59.3734,459.5632],[9.3741,59.3645,528.8464],[9.3828,59.3652,501.2233],[9.3856,59.3564,498.513],[9.3421,59.3528,245.8314],[9.3407,59.3572,312.5498],[9.3058,59.3543,427.4982],[9.3072,59.3499,464.7415],[9.2898,59.3485,367.0816],[9.2912,59.344,361.5595],[9.2303,59.3389,15.5],[9.2317,59.3345,15.5],[9.2404,59.3352,15.5],[9.2419,59.3308,15.5],[9.2506,59.3315,19.7854],[9.252,59.3271,29.5593],[9.2607,59.3278,15.5],[9.2649,59.3146,15.5],[9.2736,59.3153,15.5],[9.2765,59.306399999999996,28.4705],[9.2851,59.3072,15.5],[9.288,59.2983,15.5],[9.2967,59.299,15.5],[9.2995,59.2902,15.5],[9.3256,59.2923,24.9269],[9.327,59.2879,15.5],[9.3443,59.2893,15.5],[9.3457,59.2849,15.5],[9.3544,59.2856,15.5],[9.3558,59.2812,15.5],[9.3645,59.2819,15.5],[9.3673,59.2731,25.4429],[9.376,59.2738,15.5],[9.3774,59.2694,15.5],[9.3861,59.2701,15.5],[9.3875,59.2656,15.5],[9.3962,59.2664,15.5],[9.399,59.2575,15.5],[9.4077,59.2582,15.5],[9.4104,59.2494,15.5],[9.4191,59.2501,15.5],[9.4205,59.2456,15.5],[9.4292,59.2464,15.5],[9.432,59.2375,15.5],[9.4407,59.2382,15.5],[9.4421,59.2338,15.5],[9.2946,59.2216,101.5187],[9.2932,59.226,120.7443],[9.2585,59.2231,114.6625],[9.2627,59.2098,192.4544],[9.2714,59.2105,167.421],[9.2728,59.2061,246.7274],[9.2901,59.2076,155.0823],[9.2943,59.1943,360.3572],[9.277,59.1928,283.4463],[9.2784,59.1884,317.0434],[9.2697,59.1877,316.4559],[9.2712,59.1833,259.0565],[9.2625,59.1825,213.3624],[9.2639,59.1781,246.6264],[9.2552,59.1774,275.8185],[9.2566,59.173,168.4844],[9.248,59.1722,172.2226],[9.2494,59.1678,189.0021],[9.2581,59.1685,194.6915],[9.2595,59.1641,195.374],[9.2681,59.1648,225.9613],[9.2695,59.1604,190.3087],[9.2868,59.1618,311.7371],[9.2883,59.1574,206.5815],[9.2623,59.1552,176.3635],[9.2637,59.1508,161.9949],[9.2204,59.1472,138.2608],[9.2218,59.1428,185.6062],[9.2132,59.142,180.3185],[9.2146,59.1376,201.3679],[9.2232,59.1383,151.9053],[9.2247,59.1339,128.5031],[9.2333,59.1346,141.1192],[9.2361,59.1258,140.6013],[9.2448,59.1265,113.0],[9.2462,59.1221,116.8071],[9.2548,59.1228,153.4907],[9.2647,59.0918,282.021],[9.2819,59.0932,278.5267],[9.2833,59.0888,187.6788],[9.292,59.0895,252.0975],[9.2934,59.0851,232.2826],[9.302,59.0858,119.4079],[9.3034,59.0814,233.8697],[9.3121,59.0821,135.3222],[9.3135,59.0777,183.849],[9.3221,59.0784,154.4559],[9.3235,59.074,151.6246],[9.3321,59.0747,109.261],[9.3335,59.0703,127.6791],[9.3422,59.071,167.7874],[9.3436,59.0666,154.6924],[9.3522,59.0673,183.8101],[9.3536,59.0629,180.7961],[9.3622,59.0636,196.4616],[9.3636,59.0592,185.0698],[9.3722,59.0599,174.8007],[9.3736,59.0554,148.7957],[9.3823,59.0562,188.2924],[9.3836,59.0517,164.2355],[9.3923,59.0524,224.3566],[9.395,59.0436,91.9805],[9.4209,59.0457,78.0],[9.4196,59.0502,78.0],[9.4368,59.0516,78.0],[9.4354,59.056,83.82],[9.4441,59.0567,112.5597],[9.4427,59.0612,53.5],[9.46,59.0626,53.5],[9.4586,59.067,53.5],[9.4672,59.0677,72.1839],[9.4658,59.0722,150.7651],[9.4745,59.0729,95.7625],[9.4676,59.095,113.6926],[9.4762,59.0957,165.8638],[9.4735,59.1046,163.9781],[9.4821,59.1053,158.0219],[9.4808,59.1097,199.5709],[9.4894,59.1104,190.24],[9.488,59.1149,174.0153],[9.5053,59.1163,51.7832],[9.504,59.1207,93.9823],[9.5213,59.1221,2.3055],[9.5278,59.1246,0.0],[9.5512,59.1196,7.7816],[9.558,59.1154,10.9157],[9.5533,59.1114,26.3446],[9.5588,59.1076,8.013],[9.5656,59.1043,3.7162],[9.583,59.104,2.098],[9.5875,59.1022,0.5178],[9.6123,59.0833,40.5387],[9.6225,59.0818,15.4748],[9.6092,59.1247,0.0],[9.6178,59.1255,2.3092],[9.6124,59.1432,62.2727],[9.6297,59.1446,30.1713],[9.6283,59.149,23.6698],[9.6457,59.1504,16.2948],[9.6443,59.1548,15.1849],[9.6789,59.1576,87.4222],[9.6803,59.1532,14.6336],[9.6976,59.1546,54.8319],[9.699,59.1502,90.9982],[9.7163,59.1516,150.3709],[9.715,59.156,156.5017],[9.7236,59.1567,194.321],[9.7223,59.1611,185.4934],[9.7309,59.1618,186.6816],[9.7282,59.1707,170.125],[9.7369,59.1714,195.1928],[9.7356,59.1758,235.2797],[9.7529,59.1772,170.8319],[9.7516,59.1816,186.7465],[9.7602,59.1823,162.1241],[9.7589,59.1867,163.4359],[9.7676,59.1874,116.7245],[9.7649,59.1963,105.4344],[9.7562,59.1956,129.1829],[9.7495,59.2178,184.8459],[9.7408,59.2171,210.5194],[9.7381,59.226,310.7111],[9.7294,59.2253,385.193],[9.7254,59.2386,278.3457],[9.7167,59.2379,342.7002],[9.7126,59.2512,280.9524],[9.7039,59.2505,283.0878],[9.7026,59.2549,300.6591],[9.6765,59.2528,298.5205],[9.6751,59.2572,273.0321],[9.6665,59.2565,281.1917],[9.6637,59.2654,257.6574],[9.655,59.2647,398.2438],[9.651,59.278,447.135],[9.6336,59.2766,459.7924],[9.6322,59.281,387.6642],[9.6235,59.2803,462.3214],[9.6194,59.2936,289.716],[9.6107,59.2929,370.0156],[9.608,59.3018,486.9662],[9.5993,59.3011,407.0916],[9.5979,59.3055,522.0164],[9.5892,59.3048,450.9298],[9.5865,59.3137,406.3121],[9.5778,59.313,313.3669],[9.5736,59.3263,384.7393],[9.5823,59.327,283.629],[9.5768,59.3447,387.5115],[9.5855,59.3454,535.592],[9.5842,59.3498,568.732],[9.6277,59.3534,539.5679],[9.6264,59.3578,425.9364],[9.6351,59.3585,448.963],[9.631,59.3718,551.3961],[9.6397,59.3725,517.9326],[9.6369,59.3814,590.0427],[9.6282,59.3806,541.3949],[9.6255,59.3895,588.8958],[9.6168,59.3888,640.3441],[9.614,59.3977,581.5842],[9.6053,59.397,581.74],[9.6012,59.4103,627.5807],[9.6099,59.411,624.0312],[9.6071,59.4198,582.8882],[9.6246,59.4212,605.0746],[9.6205,59.4345,625.2169],[9.6117,59.4338,545.4927],[9.609,59.4427,576.1485],[9.6002,59.442,542.5549],[9.5975,59.4509,549.8266],[9.5887,59.4502,515.0305],[9.5846,59.4634,558.7701],[9.5759,59.4627,543.2985],[9.5703,59.4805,656.8607],[9.5616,59.4798,705.4652],[9.5602,59.4842,744.7332],[9.5427,59.4828,570.0423],[9.5413,59.4872,530.6703],[9.4714,59.4815,777.9924]]]]}
,"properties": {"GID_2": "NOR.16.15_1","GID_0": "NOR","country": "Norway","GID_1": "NOR.16_1","province": "Telemark","NL_NAME_1": "NA","county": "Skien","VARNAME_2": "NA","NL_NAME_2": "NA","TYPE_2": "Kommuner","ENGTYPE_2": "Municipality","CC_2": "NA","HASC_2": "NO.TE.SK","name": "Skien.county","area_km2": 793.7005,"hist_schema_id": "Elevation0-9000","hist_area_km2": {"0": 15.7066,"25": 63.7814,"50": 42.5122,"75": 52.944,"100": 67.2778,"125": 68.5551,"150": 57.9033,"175": 45.8637,"200": 39.2229,"225": 31.5603,"250": 27.3008,"275": 25.8496,"300": 20.0318,"325": 16.6492,"350": 15.572,"375": 13.9467,"400": 13.0967,"425": 13.4155,"450": 11.121,"475": 17.8708,"500": 15.4814,"525": 13.4806,"550": 16.6315,"575": 18.529,"600": 14.3624,"625": 12.9668,"650": 11.9721,"675": 8.6684,"700": 7.9769,"725": 7.1885,"750": 4.2246,"775": 1.7351,"800": 0.3017}}}