{"type": "Feature","bbox": [8.4876,61.3871,9.435,62.0215],"geometry": {"type": "MultiPolygon","coordinates": [[[[9.0252,62.0149,1350.1232],[9.0158,62.0142,1324.325],[9.0142,62.0186,1379.0117],[8.9953,62.0171,1313.8645],[8.9937,62.0215,1260.7141],[8.9842,62.0208,1222.0498],[8.9858,62.0163,1234.4696],[8.948,62.0133,1194.1605],[8.9497,62.0089,1139.2146],[8.893,62.0044,1255.125],[8.8914,62.0088,1203.1919],[8.8725,62.0073,1271.4342],[8.8936,61.9498,1040.8029],[8.903,61.9506,1184.5178],[8.9063,61.9417,904.8319],[8.8969,61.941,865.9669],[8.8985,61.9366,793.8559],[8.8891,61.9358,790.6594],[8.8923,61.9269,956.4498],[8.8829,61.9262,1009.0959],[8.8861,61.9174,1250.9781],[8.8767,61.9166,1275.9691],[8.8799,61.9077,1389.5411],[8.8705,61.907,1502.0533],[8.8738,61.8981,1373.4974],[8.8644,61.8974,1386.0317],[8.866,61.893,1337.9513],[8.8566,61.8922,1365.3745],[8.8728,61.848,361.0],[8.8634,61.8472,361.0],[8.8699,61.8295,932.2208],[8.8605,61.8288,897.3721],[8.8637,61.8199,1003.3344],[8.8731,61.8207,1020.8876],[8.8747,61.8163,1013.303],[8.9028,61.8185,930.8195],[8.9045,61.8141,890.725],[8.942,61.8171,803.6788],[8.9436,61.8127,853.0],[8.9342,61.812,855.6346],[8.9374,61.8031,853.0],[8.9468,61.8039,853.0],[8.9484,61.7994,853.0],[8.9578,61.8002,853.0],[8.9626,61.7869,877.5884],[8.9532,61.7862,853.0],[8.958,61.7729,853.0],[8.9674,61.7736,894.182],[8.969,61.7692,853.0],[8.9783,61.77,859.0447],[8.9895,61.739,853.0],[8.9427,61.7353,920.5903],[8.9443,61.7308,913.7422],[8.9162,61.7286,1103.455],[8.9178,61.7242,1110.1646],[8.8991,61.7227,1288.5979],[8.9007,61.7182,1234.8888],[8.8914,61.7175,1252.0889],[8.893,61.7131,1259.9412],[8.8836,61.7123,1383.1936],[8.8852,61.7079,1330.0793],[8.8759,61.7071,1357.996],[8.8791,61.6983,1290.3188],[8.8698,61.6975,1290.2593],[8.8746,61.6843,1209.5823],[8.8652,61.6835,1202.3406],[8.8717,61.6658,1225.6624],[8.8623,61.6651,1252.4259],[8.8655,61.6562,1459.007],[8.8562,61.6554,1512.2467],[8.8578,61.651,1596.5643],[8.8485,61.6503,1708.3553],[8.8501,61.6459,1814.1022],[8.8408,61.6451,1816.7267],[8.8424,61.6407,1842.8137],[8.8237,61.6392,1935.5704],[8.8253,61.6347,1935.6315],[8.8067,61.6332,1966.3361],[8.8083,61.6288,1845.155],[8.799,61.628,2097.0156],[8.8006,61.6236,1931.275],[8.7912,61.6228,2012.506],[8.7929,61.6184,1724.0658],[8.7835,61.6177,1811.0289],[8.7851,61.6132,1796.0544],[8.7758,61.6125,2158.6372],[8.7774,61.6081,2097.6721],[8.7681,61.6073,2145.7581],[8.7697,61.6029,2015.6154],[8.7418,61.6006,1948.3228],[8.7402,61.605,1970.0208],[8.7122,61.6027,1648.6719],[8.7106,61.6071,1911.6141],[8.692,61.6056,1773.7341],[8.6936,61.6012,1839.1603],[8.675,61.5996,1806.495],[8.6766,61.5952,1816.0345],[8.658,61.5937,1749.4658],[8.6596,61.5893,1590.5983],[8.5386,61.5792,2001.1174],[8.5469,61.5571,2062.1753],[8.5562,61.5579,1970.7455],[8.5611,61.5446,2122.4922],[8.5704,61.5454,1918.6057],[8.5769,61.5277,2221.1953],[8.5862,61.5285,2136.3721],[8.5911,61.5153,1611.2577],[8.6004,61.516,1530.2313],[8.6053,61.5028,1424.3051],[8.6146,61.5035,1432.9856],[8.6228,61.4815,983.3416],[8.6042,61.4799,983.3589],[8.6058,61.4755,983.4044],[8.5873,61.4739,983.3943],[8.5889,61.4695,983.4606],[8.5611,61.4672,983.4022],[8.5627,61.4628,983.327],[8.5349,61.4604,983.1027],[8.5366,61.456,987.9472],[8.5088,61.4537,983.5182],[8.5104,61.4493,987.481],[8.4919,61.4477,984.6718],[8.4968,61.4345,1548.5326],[8.4876,61.4337,1601.7343],[8.4892,61.4293,1580.7235],[8.4985,61.43,1692.9161],[8.5067,61.408,1855.4331],[8.4974,61.4072,1588.4979],[8.4991,61.4028,1751.2615],[8.5176,61.4043,1936.2943],[8.5192,61.3999,1918.8795],[8.5285,61.4007,2043.5571],[8.5301,61.3963,1832.2172],[8.5486,61.3978,1999.9634],[8.5502,61.3934,1981.4163],[8.5687,61.395,1684.4324],[8.5704,61.3905,1792.4231],[8.5981,61.3929,1727.217],[8.5997,61.3884,1756.6918],[8.6367,61.3915,1865.9447],[8.6383,61.3871,2096.5195],[8.7031,61.3925,2023.8674],[8.7015,61.3969,2056.5056],[8.7107,61.3977,1989.7615],[8.7091,61.4021,1817.1287],[8.7184,61.4029,1945.5032],[8.7168,61.4073,1877.7582],[8.726,61.408,1829.4918],[8.7244,61.4125,1718.6742],[8.7337,61.4132,1764.9393],[8.7321,61.4177,1651.7494],[8.7413,61.4184,1542.4595],[8.7397,61.4228,1416.4615],[8.749,61.4236,1402.0043],[8.7474,61.428,1331.6381],[8.7566,61.4288,1311.8032],[8.755,61.4332,1215.4982],[8.7643,61.434,1204.9586],[8.7627,61.4384,1212.6875],[8.772,61.4392,1175.5244],[8.7704,61.4436,1168.9897],[8.826,61.4481,1326.9431],[8.8276,61.4437,1356.3934],[8.8368,61.4445,1283.7452],[8.8384,61.44,1273.882],[8.857,61.4416,1355.0973],[8.8586,61.4371,1283.2135],[8.8678,61.4379,1293.3347],[8.8694,61.4335,1276.6921],[8.888,61.435,1346.896],[8.8896,61.4306,1323.6016],[8.9081,61.4321,1373.1985],[8.9097,61.4276,1364.4281],[8.9189,61.4284,1331.6674],[8.9205,61.424,1166.5549],[8.9391,61.4255,1083.4348],[8.9406,61.4211,1051.8157],[8.9499,61.4218,1051.9365],[8.9515,61.4174,1060.1256],[8.97,61.4189,1077.4008],[8.9716,61.4145,1210.8774],[8.9901,61.4159,1275.1389],[8.9917,61.4115,1332.2551],[9.001,61.4123,1305.8638],[9.0025,61.4078,1352.0449],[9.0211,61.4093,1257.1918],[9.0226,61.4049,1214.0637],[9.0319,61.4057,1180.0247],[9.0335,61.4012,1171.0184],[9.0427,61.402,1163.1302],[9.0443,61.3976,1158.7802],[9.0535,61.3983,1188.8435],[9.0551,61.3939,1181.2644],[9.0644,61.3946,1292.6792],[9.0659,61.3902,1253.0607],[9.0844,61.3917,1431.3829],[9.0829,61.3961,1516.1505],[9.0921,61.3968,1490.2797],[9.0906,61.4013,1551.3077],[9.0999,61.402,1526.8563],[9.0983,61.4064,1417.8833],[9.1168,61.4079,1232.5204],[9.1153,61.4123,1194.2174],[9.1245,61.4131,1145.9749],[9.123,61.4175,1130.4198],[9.1323,61.4182,1124.5905],[9.1307,61.4227,1125.1942],[9.14,61.4234,1177.4495],[9.1384,61.4278,1164.885],[9.1477,61.4286,1174.818],[9.1446,61.4374,1410.3011],[9.1539,61.4381,1301.4554],[9.1477,61.4559,1223.2953],[9.1569,61.4566,1220.579],[9.1538,61.4654,1073.6533],[9.1446,61.4647,1041.9845],[9.1414,61.4736,1036.3986],[9.1322,61.4728,1071.8523],[9.1306,61.4772,1048.7546],[9.112,61.4758,1253.8691],[9.1136,61.4713,1182.4772],[9.095,61.4699,1379.3751],[9.0966,61.4654,1275.0769],[9.0687,61.4632,1537.7854],[9.0703,61.4588,1467.778],[9.0332,61.4558,1483.1033],[9.0316,61.4602,1564.9618],[8.9852,61.4565,1372.9806],[8.9836,61.4609,1442.109],[8.9744,61.4602,1405.5016],[8.9728,61.4646,1462.13],[8.9635,61.4639,1459.5681],[8.9604,61.4727,1566.8151],[8.9511,61.472,1608.9545],[8.9495,61.4764,1454.1213],[8.9402,61.4756,1672.538],[8.9418,61.4712,1728.3463],[8.9325,61.4705,1757.5453],[8.9341,61.466,1683.2543],[8.9155,61.4645,1806.2821],[8.9171,61.4601,1746.717],[8.9078,61.4594,1746.9962],[8.9094,61.4549,1795.0498],[8.9002,61.4542,1822.2588],[8.889,61.4851,1242.1655],[8.8983,61.4859,1370.36],[8.8967,61.4903,1217.3041],[8.906,61.4911,1173.2239],[8.9044,61.4955,1141.943],[8.9137,61.4962,1143.1931],[8.9121,61.5007,1185.2366],[8.9214,61.5014,1227.8953],[8.9198,61.5058,1328.8312],[8.9384,61.5073,1530.9716],[8.9368,61.5118,1541.6116],[8.9461,61.5125,1668.066],[8.9445,61.5169,1620.6785],[8.9724,61.5192,1582.2234],[8.9708,61.5236,1467.0125],[8.9987,61.5259,1534.053],[9.0003,61.5214,1661.0365],[9.0375,61.5244,1224.8667],[9.0391,61.52,1532.1488],[9.0484,61.5207,1307.0669],[9.0499,61.5163,1550.1689],[9.0592,61.5171,1366.8694],[9.0608,61.5126,1520.7321],[9.0701,61.5134,1398.5161],[9.0717,61.5089,1488.1592],[9.0902,61.5104,1412.1576],[9.0918,61.506,1458.2949],[9.1104,61.5075,1282.6561],[9.1088,61.5119,1201.6875],[9.1181,61.5126,1100.9036],[9.1166,61.5171,1066.0614],[9.1352,61.5185,997.8678],[9.1336,61.523,955.4651],[9.1429,61.5237,946.7413],[9.1414,61.5281,958.6968],[9.16,61.5296,923.3658],[9.1584,61.534,939.9634],[9.1677,61.5348,924.3828],[9.1646,61.5436,918.6653],[9.1739,61.5444,913.6583],[9.1724,61.5488,956.5721],[9.191,61.5503,974.1344],[9.1894,61.5547,1000.3427],[9.1987,61.5554,986.1732],[9.1956,61.5643,1001.7068],[9.1863,61.5635,1043.4919],[9.1848,61.568,1058.6108],[9.1754,61.5672,1078.9978],[9.1739,61.5716,1095.0203],[9.1646,61.5709,1103.7354],[9.1615,61.5798,1135.7411],[9.1521,61.579,1149.5781],[9.1506,61.5835,1155.7948],[9.1413,61.5827,1166.3656],[9.1397,61.5871,1158.8033],[9.1304,61.5864,1163.3507],[9.1273,61.5953,1156.9229],[9.1179,61.5945,1158.2955],[9.1101,61.6166,1202.3336],[9.1194,61.6174,1198.2771],[9.1147,61.6307,1560.5665],[9.1241,61.6314,1528.1024],[9.1209,61.6403,1434.6096],[9.1303,61.641,1396.2224],[9.1224,61.6631,914.9797],[9.1318,61.6639,913.4124],[9.1286,61.6727,810.3839],[9.138,61.6734,806.0489],[9.1286,61.7,985.4476],[9.1192,61.6993,918.0468],[9.1113,61.7214,759.202],[9.1207,61.7221,704.9817],[9.1128,61.7443,837.9765],[9.1222,61.745,886.3292],[9.119,61.7538,910.5117],[9.1471,61.7561,908.3144],[9.1456,61.7605,958.3353],[9.1737,61.7627,979.7295],[9.1721,61.7671,1018.8661],[9.2002,61.7693,912.2567],[9.1987,61.7737,931.5229],[9.2081,61.7745,1003.7816],[9.2018,61.7922,731.8994],[9.2299,61.7944,737.5654],[9.2315,61.79,707.7102],[9.2409,61.7907,829.5601],[9.2425,61.7863,802.4954],[9.2518,61.787,998.9655],[9.2534,61.7826,904.212],[9.2628,61.7833,1118.422],[9.2643,61.7789,911.5628],[9.2925,61.7811,1110.6283],[9.294,61.7766,986.0645],[9.3409,61.7803,879.5568],[9.3394,61.7847,704.6184],[9.3488,61.7854,588.5504],[9.3472,61.7898,446.7858],[9.366,61.7913,334.1752],[9.3675,61.7869,322.105],[9.3863,61.7883,398.1077],[9.3848,61.7927,714.8417],[9.3941,61.7934,927.7136],[9.3926,61.7979,960.4943],[9.402,61.7986,918.7008],[9.4005,61.803,825.8173],[9.4099,61.8037,746.2203],[9.4083,61.8082,688.152],[9.4271,61.8096,654.5315],[9.4256,61.814,659.4046],[9.435,61.8148,815.6022],[9.4334,61.8192,899.059],[9.424,61.8185,699.7627],[9.4225,61.8229,811.3329],[9.4131,61.8222,648.6768],[9.4116,61.8266,703.7875],[9.3928,61.8252,605.762],[9.3943,61.8207,611.7904],[9.3849,61.82,640.5558],[9.3803,61.8333,647.6065],[9.3709,61.8326,750.0231],[9.3693,61.837,748.5223],[9.3505,61.8356,897.7403],[9.349,61.84,654.968],[9.3302,61.8385,987.8586],[9.3286,61.843,523.2328],[9.3098,61.8415,935.5502],[9.3083,61.8459,589.217],[9.2989,61.8452,832.2098],[9.2958,61.8541,541.6426],[9.3052,61.8548,643.4194],[9.299,61.8725,1073.5244],[9.3084,61.8732,1039.0044],[9.3021,61.8909,1383.1361],[9.2927,61.8902,1336.3461],[9.2912,61.8946,1484.1243],[9.2818,61.8939,1436.9022],[9.2802,61.8983,1595.7838],[9.2708,61.8976,1461.2375],[9.2692,61.902,1471.9451],[9.2504,61.9006,1444.219],[9.2488,61.905,1530.636],[9.2206,61.9028,1351.5096],[9.2159,61.9161,1337.1909],[9.2064,61.9154,1337.4142],[9.2049,61.9198,1215.0302],[9.1954,61.9191,1221.2444],[9.1939,61.9235,1023.8623],[9.1844,61.9228,1053.4031],[9.1829,61.9272,1224.2029],[9.1734,61.9264,1304.8995],[9.1656,61.9486,1205.0894],[9.1467,61.9471,810.8905],[9.1451,61.9515,1050.3162],[9.1357,61.9508,1007.2761],[9.1341,61.9552,1218.7991],[9.1152,61.9537,1188.7521],[9.1136,61.9582,1393.6946],[9.1042,61.9574,1354.3234],[9.101,61.9663,1429.4722],[9.0916,61.9655,1431.1299],[9.09,61.97,1454.2268],[9.0806,61.9692,1392.937],[9.0774,61.9781,1376.3867],[9.068,61.9773,1348.5406],[9.0664,61.9817,1422.4293],[9.0569,61.981,1367.5029],[9.0553,61.9854,1337.2463],[9.0459,61.9847,1257.3329],[9.0427,61.9935,1325.5317],[9.0332,61.9928,1295.1589],[9.0252,62.0149,1350.1232]]]]}
,"properties": {"GID_2": "NOR.11.23_1","GID_0": "NOR","country": "Norway","GID_1": "NOR.11_1","province": "Oppland","NL_NAME_1": "NA","county": "Vågå","VARNAME_2": "NA","NL_NAME_2": "NA","TYPE_2": "Kommuner","ENGTYPE_2": "Municipality","CC_2": "NA","HASC_2": "NO.OP.VG","name": "Vågå.county","area_km2": 1306.107,"hist_schema_id": "Elevation0-9000","hist_area_km2": {"325": 0.892,"350": 17.605,"375": 8.822,"400": 6.232,"425": 5.772,"450": 5.371,"475": 5.211,"500": 4.961,"525": 5.411,"550": 5.67,"575": 5.67,"600": 5.57,"625": 7.141,"650": 7.313,"675": 7.694,"700": 9.257,"725": 10.598,"750": 16.146,"775": 23.258,"800": 23.816,"825": 28.6,"850": 33.577,"875": 32.268,"900": 30.885,"925": 31.763,"950": 41.377,"975": 52.03,"1000": 42.884,"1025": 37.656,"1050": 46.322,"1075": 43.169,"1100": 41.209,"1125": 39.392,"1150": 36.145,"1175": 45.499,"1200": 37.947,"1225": 35.441,"1250": 31.551,"1275": 30.975,"1300": 29.86,"1325": 25.843,"1350": 26.467,"1375": 29.657,"1400": 20.845,"1425": 18.228,"1450": 17.655,"1475": 20.172,"1500": 17.313,"1525": 14.691,"1550": 13.525,"1575": 12.427,"1600": 13.559,"1625": 12.295,"1650": 11.681,"1675": 12.28,"1700": 10.853,"1725": 10.258,"1750": 9.683,"1775": 8.651,"1800": 7.71,"1825": 7.174,"1850": 6.202,"1875": 6.063,"1900": 5.434,"1925": 5.03,"1950": 4.473,"1975": 4.1,"2000": 3.928,"2025": 4.039,"2050": 3.31,"2075": 3.23,"2100": 2.672,"2125": 2.105,"2150": 1.376,"2175": 0.951,"2200": 0.729,"2225": 0.304,"2250": 0.152,"2275": 0.061,"2300": 0.02}}}