{"type":"Feature","properties":{"ISO3166-1-Alpha-3":"NOR","country":"Norway","fill":"#FF0","id":"916","name":"Vest-Agder"},
"geometry":{"type": "MultiPolygon","coordinates": [[[[6.62021,58.23078,22.3115],[6.61297,58.23623,0.0],[6.52459,58.24425,3.0739],[6.51987,58.24201,0.0],[6.52223,58.23436,2.3081],[6.52451,58.23257,5.1217],[6.52841,58.23204,0.0],[6.53069,58.23017,0.0885],[6.53297,58.21837,0.0],[6.53468,58.21503,0.0],[6.54176,58.21214,0.0],[6.55177,58.21133,6.9438],[6.56039,58.21707,112.5739],[6.55909,58.22313,49.3152],[6.55527,58.22671,64.7365],[6.55926,58.22793,0.0],[6.58318,58.20291,0.0],[6.58937,58.201,0.0],[6.61411,58.20205,79.5077],[6.61834,58.20034,16.5435],[6.62241,58.19628,0.0],[6.62867,58.20047,82.3211],[6.6325,58.21096,3.7231],[6.63201,58.2204,28.6931],[6.62705,58.22594,17.2088],[6.62021,58.23078,22.3115]]],
[[[7.11097,58.83985,853.6306],[7.07169,58.84726,707.0],[7.06472,58.8608,769.2966],[7.07045,58.86974,726.3123],[7.07991,58.88178,811.2665],[7.15226,58.93341,822.1887],[7.1645,58.94891,828.1761],[7.16683,58.96141,867.537],[7.16109,58.97038,910.7849],[7.14228,58.99309,946.0865],[7.11841,59.01919,954.4097],[7.13081,59.02477,963.2292],[7.14559,59.02624,916.5974],[7.1583,59.03304,912.7451],[7.1614,59.041,916.5381],[7.15768,59.05174,913.0],[7.15117,59.06298,913.0],[7.14621,59.0811,913.0],[7.14683,59.0975,959.2365],[7.15443,59.1258,913.0],[7.15722,59.14569,1190.9626],[7.16326,59.15644,1269.86],[7.17163,59.16264,1324.7238],[7.18202,59.16869,1231.3108],[7.18342,59.17355,1032.5275],[7.1797,59.17768,1085.7445],[7.16993,59.18042,1103.7234],[7.0225,59.20584,895.3181],[6.94261,59.20858,883.0],[6.91341,59.1875,1070.907],[6.88984,59.17753,1005.0026],[6.88194,59.16921,965.2191],[6.88116,59.1607,907.8063],[6.88705,59.14884,883.0],[6.88147,59.13515,994.1027],[6.86504,59.12394,920.8731],[6.83135,59.10934,949.2476],[6.80153,59.09298,1037.179],[6.78525,59.07986,830.3367],[6.77145,59.06255,968.5109],[6.75905,59.05242,892.0508],[6.57343,58.94054,1003.524],[6.56242,58.93118,859.152],[6.56041,58.92276,893.2794],[6.56506,58.91467,793.1017],[6.57575,58.90369,801.1076],[6.58196,58.89341,751.3812],[6.58118,58.87579,650.9301],[6.57777,58.86452,841.1758],[6.53188,58.80915,813.3275],[6.51664,58.78571,609.0174],[6.52253,58.77959,770.1578],[6.53157,58.77357,743.7858],[6.56335,58.76029,665.4785],[6.57591,58.74505,767.8703],[6.60185,58.72174,765.3138],[6.5986,58.70804,772.8215],[6.5848,58.70024,491.0782],[6.5542,58.68732,792.1208],[6.4555,58.66707,658.5097],[6.44543,58.65807,572.1214],[6.47075,58.63182,503.7247],[6.48749,58.62448,428.1804],[6.54056,58.62761,563.3745],[6.57389,58.62035,472.4485],[6.5848,58.61146,528.7683],[6.58728,58.5996,535.64],[6.58774,58.58831,525.8943],[6.59673,58.55891,503.119],[6.59782,58.54893,500.1016],[6.59239,58.53147,551.1359],[6.59084,58.52023,465.6985],[6.5941,58.50294,559.4868],[6.62898,58.40145,95.6237],[6.631,58.38434,166.7436],[6.62728,58.3668,249.5813],[6.61425,58.35225,172.4161],[6.59813,58.33851,294.8368],[6.57715,58.32662,53.3531],[6.56351,58.3213,297.8934],[6.5494,58.31737,50.3898],[6.43891,58.29303,4.4124],[6.40786,58.28001,151.414],[6.39763,58.273,132.2145],[6.40063,58.27223,150.0224],[6.49928,58.26288,172.0781],[6.56235,58.24311,0.0],[6.62623,58.2447,193.0237],[6.6198,58.26463,281.4913],[6.61997,58.31916,329.6834],[6.64088,58.31635,296.8791],[6.66407,58.32372,86.7898],[6.68727,58.32734,89.3797],[6.70875,58.31297,32.0],[6.69508,58.2919,131.834],[6.67644,58.30219,64.7876],[6.65626,58.3028,156.742],[6.64015,58.29377,112.8728],[6.63364,58.27485,54.0],[6.63933,58.26411,167.3226],[6.66871,58.23151,43.0945],[6.68141,58.22305,32.3475],[6.6985,58.22455,0.0],[6.75685,58.25434,205.8843],[6.80299,58.27045,127.7217],[6.82846,58.27473,102.5375],[6.84596,58.27139,197.9226],[6.76588,58.24628,176.0103],[6.72527,58.22163,0.0],[6.67514,58.20698,0.0],[6.65406,58.18944,0.0],[6.66033,58.18814,0.0],[6.67457,58.18203,0.0],[6.65301,58.17792,21.8632],[6.59702,58.1765,0.0],[6.58579,58.16527,0.0],[6.5809,58.14631,0.0],[6.56813,58.13178,0.0],[6.5503,58.12287,0.0],[6.53053,58.12055,0.0],[6.542,58.10765,0.0],[6.59588,58.07587,0.0],[6.6185,58.0683,0.0],[6.72267,58.06599,0.0],[6.73365,58.06428,0.0],[6.75408,58.05809,0.0],[6.76393,58.05854,0.0],[6.78256,58.06533,0.9252],[6.78321,58.06981,6.4455],[6.77426,58.07396,24.0579],[6.75359,58.08657,7.1274],[6.73316,58.09414,13.8833],[6.72242,58.10008,22.4431],[6.71534,58.1079,12.4124],[6.71062,58.11546,105.74],[6.70338,58.12043,81.488],[6.68824,58.12055,86.4147],[6.69947,58.13646,199.6553],[6.72242,58.18944,299.8909],[6.72332,58.17227,72.5105],[6.72731,58.15754,274.702],[6.72731,58.14521,182.5],[6.71559,58.13483,130.6659],[6.73146,58.11986,71.5245],[6.75733,58.11636,173.5242],[6.80795,58.12055,211.5847],[6.81284,58.12824,242.4899],[6.7776,58.18203,172.6963],[6.80152,58.17935,0.0],[6.84897,58.14753,0.0],[6.87379,58.13483,0.0],[6.90414,58.13105,0.0],[6.95899,58.14008,212.4699],[6.98927,58.14106,197.3434],[6.97478,58.12678,0.0],[6.94996,58.12092,15.8308],[6.87078,58.11921,0.0],[6.84816,58.11518,0.0],[6.80421,58.10008,0.0],[6.81446,58.09125,0.0],[6.8322,58.0843,0.0],[6.85133,58.08006,16.8345],[6.86638,58.07958,0.0],[6.87908,58.08373,15.6753],[6.89584,58.09589,69.2333],[6.90797,58.10008,132.7958],[6.91285,58.08641,103.2355],[6.91212,58.07502,92.4614],[6.9074,58.06415,0.0],[6.90056,58.05231,0.0],[6.92368,58.06525,17.8608],[6.98032,58.10537,166.2206],[6.9961,58.10008,198.6406],[6.9795,58.08893,160.657],[6.95248,58.05809,71.8835],[6.93531,58.04548,0.0],[6.95875,58.04511,0.0],[7.03492,58.06232,94.6095],[7.05144,58.06904,127.5217],[7.06471,58.07811,104.8378],[7.12761,58.09756,191.2869],[7.14747,58.10008,125.196],[7.14747,58.09325,88.2856],[7.14031,58.08625,107.1391],[7.12452,58.06338,144.7145],[7.11622,58.05854,56.6711],[7.10621,58.06208,0.0],[7.09742,58.06843,3.6444],[7.08774,58.07062,161.2972],[7.07521,58.06224,143.7496],[7.05388,58.05264,0.0],[7.02247,58.04336,61.4786],[6.99936,58.03071,21.6598],[7.00359,58.01138,0.0],[6.99724,57.99714,0.0],[7.0066,57.99315,0.0],[7.02312,57.99482,0.0],[7.06031,58.00324,60.2207],[7.06837,58.00389,58.7669],[7.07602,58.00654,54.5976],[7.07748,58.01264,92.9196],[7.07691,58.01968,101.9095],[7.07862,58.02497,105.3009],[7.07895,58.02806,102.1679],[7.07879,58.03266,110.6286],[7.08277,58.03685,104.3648],[7.15553,58.05028,29.3235],[7.16635,58.04609,7.8655],[7.17498,58.0312,33.8957],[7.19044,58.04198,0.0],[7.24985,58.05854,128.4215],[7.25343,58.04365,0.0],[7.26759,58.03596,0.0],[7.39064,58.01752,21.6813],[7.57887,58.01752,132.1792],[7.57521,58.02607,118.4317],[7.57488,58.03205,91.7766],[7.57887,58.04548,12.1398],[7.59409,58.02635,76.2467],[7.61476,58.02212,26.9708],[7.62924,58.03124,20.5776],[7.62672,58.05231,69.0031],[7.63461,58.0478,30.7885],[7.64275,58.04584,86.4461],[7.6609,58.04548,20.273],[7.65358,58.06464,52.3798],[7.66391,58.06729,118.1829],[7.69597,58.05854,79.2922],[7.71518,58.06061,67.3172],[7.75522,58.07001,0.0],[7.91578,58.08185,18.5442],[7.95631,58.09325,48.9435],[7.93409,58.10944,64.3017],[7.95362,58.1247,19.65],[8.0075,58.14448,0.0532],[8.02231,58.16376,24.1952],[8.0276,58.18317,14.6236],[8.02215,58.20283,46.6419],[8.00408,58.22305,212.9996],[8.02955,58.22484,55.7276],[8.04575,58.20401,84.289],[8.06007,58.17739,0.0],[8.07984,58.1621,41.6429],[8.06756,58.15363,50.4415],[8.05348,58.14818,30.5186],[8.02459,58.14106,0.0],[8.03549,58.13011,0.0],[8.04705,58.11689,0.0],[8.0525,58.11319,1.0197],[8.06577,58.11034,0.0],[8.09848,58.10838,0.0],[8.10987,58.10346,20.7199],[8.12289,58.10204,0.0],[8.13673,58.11498,29.0722],[8.15797,58.14448,65.1565],[8.1727,58.14614,79.2409],[8.18629,58.13288,0.0],[8.20191,58.12299,0.0],[8.22316,58.13483,33.2792],[8.22242,58.14012,25.3077],[8.2225,58.15168,8.0565],[8.22462,58.15693,11.1791],[8.22463,58.15695,11.1791],[8.21488,58.16947,33.4242],[8.18553,58.19118,93.3229],[8.18475,58.19627,31.3576],[8.18553,58.20262,57.5573],[8.19188,58.20764,94.6876],[8.19715,58.21477,116.2549],[8.20165,58.21877,120.6889],[8.20491,58.22074,145.6942],[8.20961,58.22254,144.0021],[8.21581,58.22637,151.955],[8.22573,58.23484,122.743],[8.22868,58.24616,133.6178],[8.22883,58.25381,119.8724],[8.22465,58.26466,129.9435],[8.21069,58.28869,177.8617],[8.11261,58.30321,221.7605],[8.09272,58.3122,260.9097],[8.09675,58.31499,277.2422],[8.10253,58.31753,315.7079],[8.10672,58.32107,303.9131],[8.10672,58.32579,240.2295],[8.10207,58.33143,221.3129],[8.09804,58.3351,248.0295],[8.09597,58.34197,280.3578],[8.0921,58.35654,279.1149],[8.03546,58.36781,264.5685],[8.00941,58.36135,234.5635],[8.0043,58.35571,304.0818],[7.99965,58.3476,271.6082],[7.98833,58.3428,248.1834],[7.97541,58.34512,182.0253],[7.96347,58.35308,253.7249],[7.95557,58.36429,277.3732],[7.94735,58.38155,324.7691],[7.93076,58.39489,222.4419],[7.90218,58.40786,167.2105],[7.82756,58.42605,188.828],[7.81371,58.43093,166.5],[7.81154,58.43504,166.5],[7.81092,58.4494,166.5],[7.8055,58.45896,166.5],[7.79062,58.47111,174.4689],[7.76504,58.48077,215.3703],[7.7239,58.48615,311.592],[7.7132,58.48485,399.6048],[7.6837,58.46873,420.7993],[7.61621,58.46935,371.0372],[7.59466,58.47395,321.259],[7.5805,58.48041,291.0583],[7.56562,58.50335,294.6791],[7.55771,58.51837,339.1681],[7.54624,58.54583,585.2568],[7.55135,58.5586,517.642],[7.55864,58.56252,467.0403],[7.59481,58.57467,486.082],[7.60443,58.58056,513.3162],[7.61636,58.59074,493.9933],[7.619,58.60007,413.9704],[7.61729,58.60779,421.1138],[7.59807,58.62758,520.6241],[7.58639,58.64391,546.7133],[7.58329,58.6774,553.6765],[7.58577,58.69091,405.8142],[7.59073,58.69776,547.8974],[7.60256,58.69748,540.9089],[7.60923,58.69807,650.2327],[7.61543,58.69947,693.7445],[7.62814,58.70458,675.5598],[7.63528,58.70629,704.2205],[7.6438,58.71047,713.5486],[7.65657,58.72156,683.1518],[7.66881,58.74572,575.4197],[7.67796,58.76928,621.4432],[7.67843,58.78801,798.3528],[7.62241,58.84277,657.9471],[7.60179,58.87232,788.317],[7.59404,58.87842,910.2891],[7.58127,58.88219,924.3607],[7.54097,58.88666,686.2123],[7.42268,58.88643,945.2129],[7.34775,58.87005,820.0237],[7.19861,58.85537,900.066],[7.18202,58.84674,908.729],[7.18016,58.83966,997.0217],[7.17039,58.83677,935.7009],[7.15768,58.83589,908.434],[7.11097,58.83985,853.6306]]]]}}