{"type":"Feature","properties":{"GID_2":"NOR.5.10_1","GID_0":"NOR","country":"Norway","GID_1":"NOR.5_1","province":"Finnmark","NL_NAME_1":"NA","county":"Lebesby","VARNAME_2":"NA","NL_NAME_2":"NA","TYPE_2":"Kommuner","ENGTYPE_2":"Municipality","CC_2":"NA","HASC_2":"NO.FI.LE","name":"Lebesby.county"},
"geometry":{"type": "MultiPolygon","coordinates": [[[[26.9807,70.4714,0.0],[26.9776,70.4693,0.0],[26.9828,70.4693,0.0],[26.987,70.4724,0.0],[26.9833,70.4729,0.0],[26.9807,70.4714,0.0]]],
[[[26.9557,70.4901,0.0],[26.9526,70.488,0.0],[26.9578,70.488,0.0],[26.962,70.4912,0.0],[26.9583,70.4917,0.0],[26.9557,70.4901,0.0]]],
[[[26.9542,70.5542,0.0],[26.9599,70.5547,5.6427],[26.9568,70.5578,23.5466],[26.9599,70.5599,0.0],[26.9318,70.5578,5.897],[26.9333,70.5563,8.6113],[26.9458,70.5563,42.4897],[26.95,70.5542,0.0],[26.9542,70.5542,0.0]]],
[[[26.9589,70.6047,0.0],[26.9646,70.6021,0.0],[26.9729,70.6021,0.0],[26.9786,70.6078,0.0],[26.9724,70.612,14.6217],[26.9688,70.6125,14.931],[26.9641,70.6088,55.1435],[26.9547,70.6078,7.7445],[26.9589,70.6047,0.0]]],
[[[26.8854,70.4875,0.0],[26.8818,70.487,0.0],[26.8818,70.4859,0.0],[26.887,70.4859,0.0],[26.8854,70.4875,0.0]]],
[[[26.7646,70.5021,0.0],[26.7438,70.5042,55.8968],[26.738,70.5005,1.5315],[26.7521,70.5,9.3157],[26.7667,70.4917,0.0],[26.7786,70.4943,0.0],[26.7776,70.4974,4.9951],[26.7786,70.4995,4.5216],[26.7646,70.5021,0.0]]],
[[[26.8958,70.5167,7.5811],[26.8875,70.5167,38.4437],[26.8812,70.5188,0.0],[26.8688,70.5146,9.5509],[26.8625,70.5146,0.0],[26.8583,70.5125,0.0],[26.8458,70.5104,0.0],[26.8443,70.5089,3.4454],[26.8479,70.5062,0.0],[26.8563,70.5062,0.0],[26.8604,70.5083,6.6466],[26.8854,70.5083,0.0],[26.8953,70.5109,9.4504],[26.9016,70.5151,0.0],[26.9,70.5167,0.0],[26.8958,70.5167,7.5811]]],
[[[27.7255,70.7888,323.1232],[27.7296,70.7995,2.3955],[27.7396,70.8,0.0],[27.7443,70.8021,0.0],[27.7482,70.8124,188.7802],[27.7347,70.8129,186.4981],[27.7433,70.8353,232.5007],[27.7298,70.8358,250.7778],[27.735,70.8493,240.8495],[27.7214,70.8498,247.695],[27.7266,70.8632,247.7171],[27.7131,70.8638,306.895],[27.7148,70.8682,257.7843],[27.7012,70.8688,259.9111],[27.7047,70.8777,266.7067],[27.6911,70.8783,256.4813],[27.6945,70.8872,263.5332],[27.681,70.8878,287.2164],[27.6844,70.8967,334.3244],[27.6708,70.8972,323.5166],[27.6777,70.9151,320.9761],[27.6641,70.9157,299.9433],[27.6864,70.9739,266.3904],[27.6728,70.9744,294.6227],[27.678,70.9878,274.1154],[27.6644,70.9884,264.3728],[27.6695,71.0018,292.393],[27.6559,71.0024,234.9983],[27.6628,71.0203,252.3525],[27.6491,71.0208,254.9654],[27.6526,71.0297,293.6315],[27.6389,71.0303,289.6021],[27.6423,71.0392,211.6374],[27.6287,71.0398,274.8423],[27.6407,71.0711,232.7475],[27.6544,71.0706,212.0518],[27.6561,71.0751,199.8227],[27.6698,71.0745,271.9861],[27.6733,71.0835,196.1308],[27.687,71.0829,244.4459],[27.6887,71.0874,226.0418],[27.675,71.088,251.2323],[27.6837,71.1103,295.3299],[27.6699,71.1109,302.6108],[27.6744,71.1224,6.2788],[27.6703,71.1245,8.2387],[27.6614,71.1248,86.372],[27.6563,71.1292,103.4718],[27.6505,71.1286,189.9393],[27.6458,71.125,225.4181],[27.638,71.1245,87.8653],[27.6297,71.1172,0.0],[27.6388,71.1162,6.9541],[27.6453,71.112,0.0],[27.6422,71.1078,0.0],[27.6432,71.1047,0.0],[27.6422,71.1026,0.0],[27.6453,71.1005,2.7752],[27.6396,71.0979,7.0632],[27.6188,71.0979,0.0],[27.6104,71.1021,5.2582],[27.5917,71.1021,254.0739],[27.5875,71.1042,271.6192],[27.5812,71.1021,259.9848],[27.5729,71.1042,104.5555],[27.5688,71.1021,251.6917],[27.5563,71.1021,66.7693],[27.5422,71.0974,0.0],[27.5401,71.0943,17.0942],[27.5432,71.0922,239.2451],[27.5354,71.0917,101.3269],[27.5313,71.0896,161.2828],[27.5208,71.0896,70.2381],[27.5193,71.0891,153.0594],[27.5203,71.0859,274.9449],[27.5026,71.0828,0.0],[27.5099,71.0776,151.99],[27.5005,71.0766,26.7382],[27.4943,71.0724,0.0],[27.4958,71.0708,0.0],[27.5036,71.0703,201.8064],[27.5026,71.0672,23.7784],[27.5036,71.0651,170.065],[27.4943,71.0578,78.5315],[27.4974,71.0547,121.7812],[27.488,71.0537,0.0],[27.4938,71.05,0.0],[27.5016,71.0495,94.8317],[27.4984,71.0463,6.8272],[27.5016,71.0443,57.1414],[27.4984,71.0432,0.0],[27.4964,71.0401,0.0],[27.5104,71.0396,0.0],[27.5187,71.0354,0.0],[27.5307,71.0349,15.5959],[27.5297,71.0318,0.0],[27.5391,71.0307,0.0],[27.5411,71.0286,5.0907],[27.5401,71.0255,0.0],[27.5516,71.0266,0.0],[27.5505,71.0234,0.0],[27.5526,71.0214,0.0],[27.5625,71.0167,0.0],[27.5703,71.0162,0.0],[27.5724,71.0141,0.0],[27.5703,71.0109,1.7855],[27.5589,71.0036,0.0],[27.562,71.0005,27.5505],[27.5589,70.9984,0.0],[27.562,70.9964,0.0],[27.5568,70.9922,0.0],[27.5661,70.9912,7.1526],[27.5651,70.988,29.4042],[27.5661,70.9859,55.123],[27.5568,70.9786,0.0],[27.5578,70.9755,9.2285],[27.5547,70.9724,11.2766],[27.5557,70.9693,0.0],[27.5547,70.9672,0.0],[27.5578,70.9661,0.0],[27.5599,70.963,0.0],[27.5563,70.9604,20.5889],[27.5484,70.9599,0.0],[27.5438,70.9563,0.0],[27.5354,70.9563,15.4709],[27.5313,70.9583,0.0],[27.5187,70.9583,1.7708],[27.5109,70.963,34.649],[27.5161,70.9682,0.0],[27.5089,70.9714,0.0],[27.512,70.9745,0.0],[27.5047,70.9776,7.174],[27.5099,70.9828,0.0],[27.5068,70.9838,20.5462],[27.5047,70.987,0.0],[27.512,70.9922,0.0],[27.5068,70.9974,64.6071],[27.5161,71.0057,0.0],[27.5068,71.0068,89.5355],[27.5099,71.0089,4.2627],[27.5085,71.0104,6.3211],[27.5,71.0083,134.3046],[27.4917,71.0125,0.0],[27.4833,71.0104,155.8078],[27.4672,71.0151,2.4482],[27.4703,71.0172,0.0],[27.4688,71.0188,0.0],[27.4458,71.0167,199.3302],[27.4229,71.0229,64.0745],[27.4167,71.0208,138.2187],[27.4042,71.0208,0.0],[27.4,71.0188,5.0429],[27.3792,71.0188,0.0],[27.3688,71.025,27.5549],[27.3396,71.0271,127.8409],[27.3354,71.0292,78.7911],[27.3229,71.0292,105.0166],[27.3172,71.0318,19.4534],[27.3203,71.0339,0.0],[27.3188,71.0354,0.9068],[27.3125,71.0333,48.4713],[27.3042,71.0333,9.008],[27.3026,71.0339,6.8804],[27.3036,71.037,0.0],[27.3021,71.0375,0.0],[27.288,71.038,240.9965],[27.2911,71.0401,12.9599],[27.2896,71.0417,0.0],[27.2729,71.0417,267.4057],[27.2604,71.0375,156.4842],[27.2526,71.037,21.1573],[27.2557,71.0349,54.8373],[27.2536,71.0318,207.8953],[27.2396,71.0313,190.3535],[27.2349,71.0276,236.1967],[27.2255,71.0266,179.975],[27.2234,71.0234,228.8081],[27.2266,71.0214,136.5956],[27.2224,71.0193,218.5057],[27.2104,71.0188,82.7384],[27.2089,71.0172,150.4251],[27.2141,71.0141,238.5001],[27.213,71.0109,14.5293],[27.2151,71.0089,0.0],[27.2208,71.0062,0.0],[27.2286,71.0057,41.2315],[27.2255,71.0036,0.0],[27.2271,71.0021,0.0],[27.2313,71.0021,0.0],[27.2354,71.0042,25.2177],[27.2438,71.0042,11.001],[27.2563,71.0,0.0],[27.2703,70.9995,156.6282],[27.2693,70.9964,72.5341],[27.2755,70.9922,0.0],[27.2849,70.9912,68.3506],[27.3057,70.9786,38.9992],[27.3047,70.9714,0.0],[27.3078,70.9693,40.6051],[27.3047,70.9672,21.7933],[27.312,70.9641,133.9382],[27.3089,70.9609,0.0],[27.3208,70.9542,0.0],[27.3333,70.9542,19.7157],[27.3375,70.9521,0.0],[27.3453,70.9516,13.0368],[27.3495,70.9495,0.0],[27.3516,70.9464,0.0],[27.3417,70.9458,3.1157],[27.3375,70.9479,0.0],[27.3292,70.9479,11.2478],[27.325,70.9458,17.5439],[27.2917,70.9458,26.9291],[27.2901,70.9464,34.3355],[27.2911,70.9495,0.0],[27.2833,70.95,47.9324],[27.2786,70.9537,18.4596],[27.2708,70.9542,69.8389],[27.2625,70.9583,40.0167],[27.2563,70.9583,79.1343],[27.2516,70.962,0.0],[27.2438,70.9625,39.852],[27.2354,70.9667,99.7006],[27.2167,70.9667,196.6902],[27.2068,70.9693,261.705],[27.1958,70.975,239.9161],[27.1771,70.975,249.4724],[27.1646,70.9792,75.7644],[27.1563,70.9792,185.9242],[27.1547,70.9776,231.6098],[27.1604,70.9771,239.4749],[27.162,70.9755,274.6008],[27.1547,70.9745,265.841],[27.1505,70.9724,34.816],[27.1484,70.9693,0.0],[27.1563,70.9688,35.9817],[27.1578,70.9672,105.3756],[27.1422,70.9661,175.2136],[27.1401,70.963,86.4428],[27.1432,70.9609,191.1908],[27.138,70.9578,70.5949],[27.1411,70.9547,274.4997],[27.1333,70.9542,274.1448],[27.1297,70.9516,268.9185],[27.1349,70.9464,236.5353],[27.1255,70.9391,0.0],[27.1266,70.9359,117.8939],[27.1146,70.9354,223.4784],[27.1104,70.9333,194.7431],[27.1026,70.9328,0.0],[27.1099,70.9287,40.5552],[27.1068,70.9255,0.0],[27.1125,70.9229,0.0],[27.1203,70.9224,177.5686],[27.1193,70.9193,113.9731],[27.1229,70.9167,0.0],[27.1292,70.9167,3.2318],[27.1333,70.9146,0.0],[27.1536,70.9141,8.2283],[27.1714,70.9026,0.0],[27.1792,70.9021,10.3624],[27.1875,70.8979,0.0],[27.1958,70.9,14.9224],[27.2,70.8979,0.0],[27.2125,70.8979,26.5474],[27.2188,70.8958,0.0],[27.2286,70.8984,0.0],[27.2255,70.9016,87.6993],[27.2375,70.9021,0.0],[27.2505,70.8943,0.0],[27.2604,70.8917,0.0],[27.2687,70.8917,0.0],[27.2833,70.8958,3.4257],[27.3042,70.8958,22.8106],[27.3125,70.8917,0.0],[27.3271,70.8917,0.0],[27.3333,70.8938,33.1202],[27.3396,70.8917,0.0],[27.3521,70.8958,0.0],[27.3599,70.8964,0.0],[27.363,70.8995,0.0],[27.3688,70.9021,0.0],[27.3745,70.9026,0.0],[27.3833,70.9083,0.0],[27.3995,70.9109,0.0],[27.3964,70.9141,0.0],[27.4042,70.9187,0.0],[27.4104,70.9167,0.0],[27.4167,70.9167,0.0],[27.4203,70.913,0.0],[27.4172,70.9099,0.0],[27.4182,70.9026,123.7186],[27.4109,70.9016,0.0],[27.4141,70.8984,98.1227],[27.4047,70.8974,74.0207],[27.3932,70.888,22.0248],[27.3854,70.8875,0.0],[27.3839,70.8859,18.9334],[27.3896,70.8833,3.0206],[27.4021,70.8833,62.0493],[27.4063,70.8812,0.0],[27.4208,70.8854,0.0],[27.4354,70.8854,0.0],[27.437,70.8849,0.0],[27.4359,70.8818,0.0],[27.4396,70.8812,0.0],[27.4479,70.8854,0.0],[27.4562,70.8833,0.0],[27.4625,70.8854,0.0],[27.4688,70.8833,0.0],[27.475,70.8854,0.0],[27.4766,70.8839,0.0],[27.4708,70.8812,35.6973],[27.4651,70.8807,13.2286],[27.463,70.8786,0.0],[27.4641,70.8755,43.3184],[27.4583,70.875,0.0],[27.4568,70.8734,0.0],[27.4646,70.8729,71.8492],[27.4688,70.8708,0.0],[27.4792,70.8708,0.0],[27.4833,70.8688,0.0],[27.5083,70.8688,2.9357],[27.5125,70.8667,0.0],[27.5328,70.8662,41.863],[27.5307,70.863,8.2003],[27.525,70.8604,143.506],[27.513,70.8599,0.0],[27.5141,70.8568,10.526],[27.5099,70.8526,36.1761],[27.5005,70.8516,0.0],[27.5036,70.8495,11.9763],[27.5021,70.8479,102.4165],[27.4896,70.8479,17.9051],[27.4854,70.8458,91.6447],[27.475,70.8458,28.1904],[27.4708,70.8438,18.7095],[27.4646,70.8438,3.9222],[27.4604,70.8417,17.1639],[27.4484,70.8411,0.0],[27.45,70.8396,0.0],[27.4578,70.8391,12.5869],[27.4547,70.8359,0.0],[27.4688,70.8354,0.0],[27.4703,70.8349,0.0],[27.4693,70.8318,0.0],[27.4828,70.8307,91.1385],[27.4818,70.8276,0.0],[27.4833,70.8271,0.0],[27.5125,70.825,10.5519],[27.5354,70.8187,0.0],[27.5542,70.8187,0.0],[27.5583,70.8167,0.0],[27.5896,70.8167,0.0],[27.5911,70.8151,0.0],[27.588,70.8141,0.0],[27.5896,70.8125,0.0],[27.5979,70.8125,0.0],[27.6042,70.8146,13.624],[27.6083,70.8125,0.0],[27.6208,70.8125,0.0],[27.6333,70.8063,0.0],[27.6729,70.8042,0.0],[27.6771,70.8021,2.6073],[27.6854,70.8042,35.0199],[27.6896,70.8021,0.0],[27.7062,70.8,10.1688],[27.7078,70.7984,92.0904],[27.6896,70.7979,287.4604],[27.6833,70.8,142.3978],[27.6792,70.7979,299.7023],[27.6646,70.7979,169.1189],[27.663,70.7995,70.6414],[27.6708,70.8,190.385],[27.6724,70.8016,51.735],[27.6333,70.8021,126.5821],[27.6292,70.8042,0.0],[27.6229,70.8021,120.1828],[27.6167,70.8042,12.4795],[27.6083,70.8021,182.755],[27.6042,70.8042,31.7821],[27.5958,70.8042,31.4276],[27.5917,70.8021,104.2493],[27.575,70.8021,268.1813],[27.5688,70.8063,10.157],[27.5604,70.8042,265.5202],[27.5563,70.8063,26.8971],[27.5375,70.8063,129.9024],[27.5333,70.8083,112.0238],[27.5021,70.8083,0.0],[27.4979,70.8104,0.0],[27.4901,70.8109,58.4025],[27.4932,70.813,0.0],[27.4917,70.8146,0.0],[27.4708,70.8146,14.7718],[27.4667,70.8125,116.9395],[27.45,70.8125,162.6044],[27.4401,70.8151,92.5341],[27.4292,70.8208,0.0],[27.4146,70.8229,148.4656],[27.4078,70.8266,0.0],[27.3979,70.8292,0.0],[27.3792,70.8292,186.3121],[27.375,70.8313,185.4621],[27.288,70.8307,30.4148],[27.2818,70.8255,1.6982],[27.2911,70.8245,167.0525],[27.2901,70.8214,103.8733],[27.2911,70.8193,140.7359],[27.2839,70.8141,14.8006],[27.287,70.8109,48.4755],[27.2818,70.8068,10.2777],[27.2891,70.8037,0.0],[27.2953,70.7984,19.7615],[27.2891,70.7943,68.1571],[27.2833,70.7937,56.351],[27.2776,70.7911,10.8071],[27.2807,70.788,98.8862],[27.2755,70.7839,0.0],[27.2786,70.7828,56.2457],[27.2776,70.7755,0.0],[27.287,70.7745,37.6953],[27.2891,70.7714,157.604],[27.2854,70.7688,64.8427],[27.275,70.7688,0.0],[27.2693,70.7651,0.0],[27.2833,70.7646,29.1508],[27.2875,70.7625,0.0],[27.3063,70.7625,0.0],[27.3125,70.7583,0.0],[27.3375,70.7583,0.0],[27.3417,70.7562,0.0],[27.3557,70.7557,5.5418],[27.3521,70.7521,0.0],[27.3333,70.7521,0.0],[27.3234,70.7495,0.0],[27.3245,70.7464,0.0],[27.3234,70.7443,0.0],[27.3266,70.7422,0.0],[27.3234,70.7401,0.0],[27.3307,70.7359,67.0575],[27.3229,70.7354,0.0],[27.3188,70.7333,0.0],[27.2979,70.7292,3.8091],[27.2964,70.7307,5.911],[27.2995,70.7328,0.0],[27.2818,70.7422,0.0],[27.2786,70.7453,0.0],[27.2708,70.7458,0.0],[27.2625,70.75,0.0],[27.2542,70.75,23.512],[27.25,70.7479,187.6235],[27.2333,70.7479,294.7386],[27.2271,70.7458,258.0081],[27.2229,70.7479,142.2683],[27.1917,70.7479,66.9516],[27.1875,70.75,5.9851],[27.1812,70.7479,71.6189],[27.1354,70.7479,29.5917],[27.1313,70.75,0.0],[27.1104,70.75,4.657],[27.1089,70.7495,0.0],[27.1099,70.7464,0.0],[27.1089,70.7443,0.0],[27.112,70.7432,26.6189],[27.1141,70.7401,119.3387],[27.1047,70.7328,64.3505],[27.1057,70.7297,164.8311],[27.1016,70.7255,19.2341],[27.0797,70.7099,0.0],[27.0828,70.7068,34.5009],[27.0714,70.6995,0.0],[27.075,70.6979,0.0],[27.0812,70.7,40.2376],[27.0854,70.6979,0.0],[27.0979,70.6979,0.0],[27.1021,70.6958,0.0],[27.1333,70.6958,29.1684],[27.1396,70.6917,0.0],[27.1563,70.6896,24.5495],[27.162,70.687,0.0],[27.1589,70.6839,0.0],[27.162,70.6818,11.3785],[27.1458,70.6813,0.0],[27.1313,70.6854,0.0],[27.0984,70.687,77.8224],[27.0901,70.6797,0.0],[27.0938,70.6792,0.0],[27.1,70.6813,50.4112],[27.1042,70.6792,0.0],[27.1125,70.6792,0.0],[27.1188,70.6813,28.8374],[27.1229,70.6792,0.0],[27.1307,70.6787,15.645],[27.1297,70.6755,0.0],[27.137,70.6745,0.0],[27.1411,70.6713,0.0],[27.1391,70.6693,0.0],[27.1354,70.6687,22.6012],[27.1313,70.6708,0.0],[27.125,70.6708,28.5627],[27.1188,70.6729,4.8123],[27.1042,70.6625,151.1354],[27.0958,70.6646,44.5927],[27.0917,70.6625,165.5706],[27.0755,70.6599,0.0],[27.0766,70.6568,0.0],[27.0755,70.6547,0.0],[27.0786,70.6526,18.7888],[27.0755,70.6505,0.0],[27.0786,70.6484,38.6516],[27.0734,70.6443,0.0],[27.0792,70.6417,0.0],[27.0953,70.6391,0.0],[27.0943,70.6359,0.0],[27.1021,70.6354,0.0],[27.1104,70.6312,0.0],[27.1458,70.6312,0.0],[27.15,70.6292,0.0],[27.1563,70.6292,5.6829],[27.1786,70.6203,0.0],[27.1807,70.6182,0.0],[27.1797,70.6151,0.0],[27.1812,70.6146,0.0],[27.2,70.6146,6.0874],[27.2062,70.6104,0.0],[27.2188,70.6104,0.0],[27.2255,70.6068,0.0],[27.2328,70.6057,0.0],[27.2411,70.6016,0.0],[27.238,70.5984,0.0],[27.2453,70.5953,0.0],[27.2484,70.5922,0.0],[27.2542,70.5896,0.0],[27.2667,70.5896,4.406],[27.2703,70.5859,4.6254],[27.2542,70.5854,8.3416],[27.2479,70.5875,0.0],[27.2417,70.5854,9.6206],[27.237,70.5891,0.0],[27.2292,70.5896,0.0],[27.2099,70.5974,0.0],[27.2021,70.5979,5.254],[27.1979,70.6,0.0],[27.1917,70.5979,50.9307],[27.1854,70.6,14.2823],[27.1771,70.6,0.0],[27.1729,70.5979,154.3362],[27.1396,70.5979,247.5732],[27.138,70.5984,235.3401],[27.1391,70.6016,36.6557],[27.1375,70.6021,4.6486],[27.1208,70.6021,100.0368],[27.1063,70.6062,15.9291],[27.0938,70.6062,70.0656],[27.0833,70.6125,0.0],[27.0646,70.6125,0.0],[27.063,70.6141,0.0],[27.0661,70.6151,0.0],[27.0682,70.6182,53.0679],[27.0625,70.6208,0.0],[27.0417,70.6208,10.3105],[27.0375,70.6188,62.2602],[27.0333,70.6188,32.7922],[27.0297,70.6151,0.0],[27.037,70.6141,0.0],[27.0359,70.6109,10.3463],[27.0391,70.6088,9.3037],[27.025,70.6083,0.0],[27.0208,70.6062,30.1578],[27.0104,70.6062,54.5047],[27.0063,70.6042,33.5456],[27.0021,70.6042,6.1244],[26.9964,70.6016,2.9986],[26.9911,70.5964,40.3531],[26.9818,70.5953,0.0],[26.9724,70.588,41.1656],[26.9609,70.5891,0.0],[26.9641,70.587,34.3051],[26.963,70.5839,0.0],[26.9688,70.5833,9.1369],[26.9703,70.5818,17.4402],[26.963,70.5766,2.8519],[26.9589,70.5714,0.0],[26.9625,70.5708,0.0],[26.9688,70.5729,20.0612],[26.9813,70.5687,0.0],[27.0021,70.5708,0.0],[27.0078,70.5682,0.0],[27.0068,70.5651,0.0],[27.012,70.562,32.0555],[27.0109,70.5589,0.0],[27.012,70.5568,0.0],[27.0083,70.5542,5.1711],[26.9979,70.5542,0.0],[26.9833,70.55,11.3593],[26.9729,70.55,0.0],[26.9604,70.5458,27.1218],[26.9542,70.5458,16.4494],[26.9526,70.5443,0.0],[26.9583,70.5417,0.0],[26.9661,70.5411,57.0008],[26.9839,70.5297,0.0],[26.9932,70.5286,47.1278],[26.9901,70.5255,0.0],[26.9974,70.5224,13.624],[26.9922,70.5182,9.8718],[26.9974,70.5141,3.7753],[26.9964,70.5109,13.9804],[27.0104,70.5104,45.0591],[27.0146,70.5083,0.0],[27.0391,70.5078,49.526],[27.037,70.5047,50.4621],[27.0297,70.5036,0.0],[27.0307,70.5005,27.9481],[27.0297,70.4984,14.4284],[27.0391,70.4932,14.9111],[27.038,70.4901,0.0],[27.0479,70.4875,0.0],[27.0563,70.4896,9.5266],[27.0578,70.4891,0.0],[27.0568,70.4859,21.5785],[27.0708,70.4854,80.3017],[27.075,70.4833,0.0],[27.0833,70.4833,0.0],[27.0875,70.4854,0.0],[27.0891,70.4849,0.0],[27.088,70.4818,0.0],[27.0896,70.4812,0.0],[27.1036,70.4807,12.5528],[27.0901,70.4703,0.0],[27.0932,70.4672,0.1752],[27.0896,70.4667,0.561],[27.0839,70.4693,0.0],[27.0849,70.4724,0.0],[27.0771,70.4771,0.0],[27.0729,70.4771,0.0],[27.0688,70.4792,0.0],[27.0604,70.4771,36.043],[27.0563,70.4792,44.1586],[27.0438,70.4792,72.6394],[27.0333,70.4833,39.1038],[27.0318,70.4818,25.8753],[27.0349,70.4797,37.2207],[27.0333,70.4792,125.4482],[27.0063,70.4771,0.0],[26.9995,70.4714,42.4857],[26.9937,70.4688,78.5937],[26.988,70.4682,16.8203],[26.9849,70.4651,58.9923],[26.9693,70.4641,7.0299],[26.9672,70.4609,0.0],[26.9703,70.4589,17.1827],[26.9646,70.4563,0.0],[26.9438,70.4563,0.0],[26.9313,70.4604,0.0],[26.9151,70.4589,8.7966],[26.9182,70.463,0.0],[26.9172,70.4661,0.0],[26.9193,70.4682,3.1465],[26.9453,70.4734,0.0],[26.9422,70.4766,0.0],[26.9453,70.4786,0.0],[26.9422,70.4797,28.8192],[26.9432,70.4828,36.6379],[26.9396,70.4854,5.3549],[26.9313,70.4854,7.7862],[26.9297,70.4849,2.6221],[26.9307,70.4818,2.4158],[26.9125,70.4771,10.205],[26.8667,70.4771,78.4143],[26.8604,70.4792,0.0],[26.8563,70.4771,51.6097],[26.8479,70.4771,42.364],[26.8438,70.4792,0.0],[26.8359,70.4797,2.0386],[26.838,70.4828,0.0],[26.8411,70.4838,0.0],[26.8339,70.488,35.8798],[26.837,70.4912,0.0],[26.8292,70.4917,28.023],[26.825,70.4938,16.9076],[26.8151,70.4932,16.5675],[26.813,70.4912,0.0],[26.8141,70.488,18.2147],[26.8068,70.487,0.0],[26.7979,70.4812,0.0],[26.7729,70.4812,40.8042],[26.7714,70.4818,38.9963],[26.7724,70.4849,0.0],[26.7708,70.4854,7.7171],[26.7583,70.4854,29.6657],[26.7521,70.4875,19.6641],[26.7505,70.4859,6.1902],[26.7578,70.4828,16.5601],[26.7526,70.4786,26.7815],[26.7557,70.4755,0.0],[26.7526,70.4734,0.0],[26.7646,70.4667,0.0],[26.7708,70.4688,0.0],[26.7745,70.4672,0.0],[26.7703,70.463,55.037],[26.7609,70.462,0.0],[26.7682,70.4578,113.247],[26.7568,70.4495,0.0],[26.7599,70.4474,1.9466],[26.7589,70.4443,0.0],[26.7641,70.4411,1.5899],[26.762,70.438,0.9494],[26.7479,70.4333,45.9694],[26.7396,70.4333,38.9149],[26.7354,70.4354,46.9187],[26.7208,70.4354,0.0],[26.7172,70.4328,0.0],[26.7188,70.4313,0.0],[26.7266,70.4307,0.0],[26.7234,70.4276,0.0],[26.7328,70.4266,0.0],[26.7307,70.4234,0.0],[26.7276,70.4224,0.0],[26.7307,70.4193,0.0],[26.7234,70.4182,0.0],[26.7167,70.4146,0.0],[26.7083,70.4146,0.0],[26.7021,70.4167,11.168],[26.6974,70.413,8.3989],[26.6937,70.4125,0.0],[26.688,70.4151,0.0],[26.6911,70.4182,0.0],[26.6818,70.4193,15.9071],[26.6828,70.4224,4.257],[26.6813,70.4229,0.0],[26.675,70.4208,0.0],[26.6667,70.4208,0.0],[26.6625,70.4229,0.0],[26.6521,70.4229,17.197],[26.6396,70.4292,0.0],[26.6333,70.4271,56.4953],[26.6229,70.4313,0.0],[26.6151,70.4266,0.0],[26.6182,70.4245,19.121],[26.6161,70.4213,32.9293],[26.6068,70.4203,0.0],[26.6099,70.4182,0.0],[26.6078,70.4151,64.1188],[26.6047,70.4141,27.7003],[26.5995,70.4089,150.7569],[26.5901,70.4078,95.7832],[26.5859,70.4026,52.5357],[26.5917,70.4,0.0],[26.6021,70.4,1.8578],[26.6104,70.3958,0.0],[26.6167,70.3979,8.0735],[26.6266,70.3974,0.0],[26.6286,70.3943,142.674],[26.6266,70.3922,113.3485],[26.6208,70.3917,27.0528],[26.6193,70.3901,0.0],[26.6245,70.387,0.0],[26.6234,70.3839,0.0],[26.6313,70.3833,35.8534],[26.6328,70.3818,29.311],[26.625,70.3812,14.5858],[26.6208,70.3792,20.4946],[26.6063,70.3792,15.7869],[26.6021,70.3812,40.0134],[26.5917,70.3812,95.5586],[26.5875,70.3833,10.4751],[26.5812,70.3833,34.9468],[26.5797,70.3839,42.7519],[26.5807,70.387,42.027],[26.5771,70.3875,80.6696],[26.5724,70.3839,117.7675],[26.5651,70.3828,92.8039],[26.5604,70.3792,114.3224],[26.5417,70.3792,0.0],[26.538,70.3766,3.931],[26.5411,70.3734,41.3694],[26.5354,70.3708,21.1928],[26.5297,70.3703,3.5531],[26.5255,70.3662,22.914],[26.5266,70.363,42.4881],[26.5151,70.3536,0.0],[26.5161,70.3505,0.0],[26.5141,70.3484,0.0],[26.5104,70.3479,1.6245],[26.4974,70.3557,0.0],[26.4896,70.3562,0.9329],[26.4797,70.3599,0.0],[26.4828,70.363,0.0],[26.4818,70.3662,0.0],[26.4859,70.3703,0.0],[26.4953,70.3714,0.0],[26.4995,70.3755,0.0],[26.4964,70.3776,62.7133],[26.4995,70.3807,0.0],[26.4964,70.3828,12.6491],[26.5016,70.3859,0.0],[26.4984,70.3891,33.6847],[26.5167,70.3896,0.0],[26.5208,70.3917,0.0],[26.5271,70.3917,0.0],[26.5328,70.3964,0.0],[26.5286,70.3995,57.3652],[26.5229,70.4,73.2106],[26.5172,70.4026,45.9887],[26.5224,70.4078,0.0],[26.5151,70.412,115.0217],[26.5182,70.413,13.6938],[26.5224,70.4182,0.0],[26.5203,70.4203,0.0],[26.5125,70.4208,12.4345],[26.5068,70.4234,24.269],[26.5089,70.4266,0.0],[26.513,70.4287,0.0],[26.5271,70.4313,0.0],[26.5286,70.4328,0.0],[26.5125,70.4354,59.9245],[26.5109,70.437,9.5307],[26.5172,70.4411,8.4356],[26.5245,70.4422,0.0],[26.5214,70.4453,19.3321],[26.5307,70.4464,0.0],[26.5328,70.4495,0.0],[26.5297,70.4516,0.0],[26.5458,70.4542,0.0],[26.5505,70.4578,16.6823],[26.5563,70.4583,0.0],[26.562,70.4609,0.0],[26.5641,70.4641,0.0],[26.5609,70.4661,0.0],[26.5641,70.4672,10.8024],[26.5714,70.4745,0.0],[26.5792,70.475,0.0],[26.5828,70.4776,9.7236],[26.5797,70.4807,25.5872],[26.5828,70.4828,2.6194],[26.5786,70.4849,0.0],[26.5646,70.4854,104.2057],[26.5505,70.4901,0.0],[26.5526,70.4932,11.4072],[26.5604,70.4938,0.0],[26.5641,70.4964,0.0],[26.5625,70.4979,0.0],[26.5547,70.4984,18.4922],[26.5578,70.5016,0.0],[26.5505,70.5047,0.0],[26.5516,70.5078,0.0],[26.5505,70.5099,15.9346],[26.5536,70.513,0.0],[26.5526,70.5162,0.0],[26.5609,70.5224,0.0],[26.5682,70.5234,0.0],[26.5797,70.5328,0.0],[26.5891,70.5339,0.0],[26.5943,70.5391,0.0],[26.6,70.5396,0.0],[26.6057,70.5422,0.0],[26.6099,70.5463,0.0],[26.6089,70.5495,5.3037],[26.6161,70.5505,0.0],[26.612,70.5537,3.2134],[26.6063,70.5542,23.3018],[26.6005,70.5568,29.6244],[26.6057,70.562,0.0],[26.6026,70.563,9.0714],[26.6036,70.5703,0.0],[26.6005,70.5724,14.9978],[26.6224,70.588,0.0],[26.6193,70.5901,0.0],[26.6203,70.5932,0.0],[26.6193,70.5953,0.0],[26.6224,70.5984,0.0],[26.6214,70.6016,8.2497],[26.6245,70.6047,0.0],[26.6234,70.6078,0.0],[26.6245,70.6099,0.0],[26.6214,70.612,47.1319],[26.6266,70.6151,0.0],[26.6286,70.6182,0.0],[26.6193,70.6193,33.3574],[26.613,70.6245,0.0],[26.6167,70.6271,6.0543],[26.6328,70.6297,0.0],[26.6349,70.6318,0.0],[26.6339,70.6349,81.3296],[26.6411,70.6359,0.0],[26.638,70.6391,0.0],[26.6411,70.6412,0.0],[26.638,70.6432,45.9492],[26.6432,70.6474,0.0],[26.6375,70.65,0.0],[26.625,70.65,4.9279],[26.6161,70.6557,0.0],[26.6068,70.6568,0.0],[26.6026,70.6589,1.5448],[26.6057,70.662,0.0],[26.6,70.6646,0.0],[26.5964,70.6641,0.0],[26.5917,70.6604,1.0015],[26.5854,70.6625,0.7225],[26.5771,70.6625,0.177],[26.5729,70.6604,9.0755],[26.5646,70.6604,16.6762],[26.5578,70.6641,0.0],[26.55,70.6646,8.119],[26.5432,70.6682,0.0],[26.5333,70.6708,0.0],[26.5021,70.6687,1.0448],[26.4922,70.6661,21.1135],[26.4953,70.663,177.2195],[26.4875,70.6625,198.4645],[26.4833,70.6604,302.2792],[26.4625,70.6667,0.0],[26.4562,70.6625,74.9046],[26.4375,70.6625,0.0],[26.425,70.6583,73.8893],[26.4125,70.6583,6.7203],[26.4,70.6542,39.9644],[26.3917,70.6542,7.0385],[26.3854,70.6563,0.0],[26.3755,70.6536,0.0],[26.3688,70.65,39.6048],[26.3604,70.6521,0.0],[26.3563,70.65,3.7687],[26.3479,70.65,0.0],[26.3432,70.6536,0.0],[26.3396,70.6542,0.0],[26.338,70.6536,0.0],[26.3391,70.6505,0.0],[26.3354,70.65,1.1539],[26.3318,70.6536,0.0],[26.3339,70.6557,0.0],[26.3438,70.6583,0.3025],[26.35,70.6583,0.0],[26.3542,70.6604,0.0],[26.3646,70.6604,0.0],[26.3771,70.6646,0.0],[26.3849,70.6651,0.0],[26.4005,70.6787,1.8384],[26.4063,70.6813,0.0],[26.4167,70.6813,0.0],[26.4292,70.6854,9.4697],[26.4521,70.6854,0.0],[26.4583,70.6833,0.0],[26.463,70.687,0.0],[26.4792,70.6896,0.0],[26.4833,70.6917,0.0],[26.4917,70.6896,0.0],[26.5229,70.6979,0.0],[26.5313,70.6979,0.0],[26.5375,70.6958,0.0],[26.5391,70.6974,0.0],[26.5359,70.6995,0.0],[26.538,70.7016,0.0],[26.5474,70.7026,0.0],[26.5542,70.7083,0.0],[26.5667,70.7083,0.0],[26.5792,70.7125,0.0],[26.5896,70.7125,0.0],[26.6,70.7188,31.2786],[26.6125,70.7188,0.0],[26.6167,70.7208,0.0],[26.6208,70.7208,0.0],[26.6224,70.7224,0.0],[26.6193,70.7245,7.3457],[26.6349,70.7255,0.0],[26.6464,70.7349,6.7541],[26.65,70.7354,0.0],[26.6563,70.7333,0.0],[26.6578,70.7349,0.0],[26.6547,70.737,4.3328],[26.6589,70.7391,0.0],[26.6771,70.7438,0.0],[26.6849,70.7443,0.0],[26.6891,70.7495,0.0],[26.6839,70.7526,0.0],[26.6849,70.7557,0.0],[26.6797,70.7589,30.2511],[26.6807,70.762,17.871],[26.6755,70.7651,19.8765],[26.6766,70.7682,0.0],[26.6734,70.7703,0.0],[26.6766,70.7724,0.0],[26.6693,70.7766,24.8378],[26.675,70.7792,0.587],[26.6807,70.7797,0.0],[26.6828,70.7818,0.0],[26.6818,70.7849,0.0],[26.6839,70.787,0.0],[26.6911,70.788,0.0],[26.7005,70.7953,0.0],[26.7062,70.7979,0.0],[26.712,70.7984,0.0],[26.7203,70.8047,0.0],[26.7172,70.8078,4.9466],[26.7203,70.8099,0.0],[26.713,70.813,34.7277],[26.7182,70.8182,0.0],[26.7151,70.8193,0.0],[26.713,70.8224,0.0],[26.7229,70.8229,0.0],[26.7292,70.8208,0.0],[26.7349,70.8266,0.0],[26.7297,70.8297,35.3573],[26.7307,70.837,0.0],[26.725,70.8396,98.16],[26.7167,70.8396,0.0],[26.7042,70.8354,12.7676],[26.6917,70.8354,0.0],[26.6854,70.8313,4.8418],[26.675,70.8313,10.7167],[26.6708,70.8292,14.6277],[26.6609,70.8297,0.0],[26.6651,70.8349,0.0],[26.6703,70.838,0.0],[26.6651,70.8432,0.0],[26.6724,70.8495,0.0],[26.6646,70.85,38.8956],[26.6589,70.8536,0.0],[26.6693,70.862,0.0],[26.6786,70.863,0.0],[26.6755,70.8662,0.0],[26.6849,70.8672,0.0],[26.6984,70.8786,0.0],[26.7141,70.8797,0.0],[26.7161,70.8828,0.0],[26.713,70.8849,48.3615],[26.7161,70.887,0.0],[26.713,70.8891,20.12],[26.7182,70.8922,0.0],[26.7151,70.8953,0.0],[26.7234,70.9016,0.0],[26.7307,70.9026,0.0],[26.7349,70.9057,0.0],[26.7255,70.9068,79.0456],[26.7307,70.912,2.7532],[26.7193,70.9109,84.0944],[26.7068,70.9172,0.0],[26.7047,70.9193,0.0],[26.7057,70.9224,0.0],[26.7026,70.9234,26.4132],[26.7042,70.925,73.4393],[26.7203,70.9276,0.0],[26.7172,70.9307,54.4084],[26.7203,70.9328,55.9749],[26.7172,70.9349,65.6693],[26.7224,70.9391,0.0],[26.7047,70.9484,0.0],[26.7026,70.9505,1.7458],[26.7036,70.9537,0.0],[26.6943,70.9547,20.6861],[26.688,70.9589,0.0],[26.6897,70.9616,0.0],[26.6761,70.9671,156.6687],[26.6741,70.9613,30.8527],[26.6601,70.9604,145.2627],[26.6531,70.9393,222.609],[26.6394,70.9398,242.3712],[26.6305,70.9128,313.3271],[26.6169,70.9133,322.2599],[26.6096,70.8909,246.5658],[26.596,70.8913,311.6823],[26.5886,70.8689,386.2633],[26.575,70.8694,384.8573],[26.5736,70.8649,367.1987],[26.56,70.8653,349.3366],[26.5586,70.8609,312.9943],[26.545,70.8613,330.1965],[26.5435,70.8568,302.3551],[26.53,70.8573,301.7361],[26.5285,70.8528,338.6263],[26.5149,70.8533,394.3578],[26.5135,70.8488,420.2362],[26.4999,70.8492,440.6671],[26.4985,70.8447,453.3024],[26.4849,70.8452,439.7798],[26.482,70.8362,418.3981],[26.4685,70.8367,412.4712],[26.4671,70.8322,438.5822],[26.4535,70.8326,423.2924],[26.4506,70.8237,388.6942],[26.4371,70.8241,418.3809],[26.4342,70.8152,442.1551],[26.4207,70.8156,387.6842],[26.4178,70.8066,287.4031],[26.4043,70.8071,288.5126],[26.4015,70.7981,173.1037],[26.3879,70.7986,299.3003],[26.3851,70.7896,288.9094],[26.3716,70.79,283.7917],[26.3673,70.7766,379.2354],[26.3538,70.777,332.596],[26.351,70.768,302.3297],[26.3375,70.7685,333.6605],[26.3347,70.7595,433.02],[26.3212,70.7599,447.9586],[26.3184,70.751,495.3036],[26.3049,70.7514,494.1495],[26.3021,70.7424,521.9989],[26.2886,70.7429,513.1766],[26.2844,70.7294,555.0063],[26.2709,70.7299,559.1227],[26.2696,70.7254,557.6181],[26.2561,70.7258,549.0419],[26.2533,70.7168,446.1517],[26.2398,70.7173,449.9167],[26.2371,70.7083,460.1286],[26.2236,70.7087,465.6738],[26.2195,70.6953,472.4853],[26.2329,70.6948,492.2537],[26.2288,70.6814,450.9023],[26.2154,70.6818,440.2995],[26.214,70.6773,413.5289],[26.2005,70.6778,372.9792],[26.1992,70.6733,356.2431],[26.1857,70.6737,336.9723],[26.1844,70.6692,377.1066],[26.1575,70.6701,359.346],[26.1561,70.6656,316.8295],[26.1427,70.666,255.8327],[26.1413,70.6615,227.1241],[26.1144,70.6624,286.6052],[26.1104,70.6489,377.9191],[26.1238,70.6485,369.0276],[26.1171,70.626,77.5204],[26.1305,70.6256,57.467],[26.1238,70.6032,216.9611],[26.1372,70.6027,211.7862],[26.1318,70.5848,47.5],[26.1452,70.5844,87.2146],[26.1384,70.5619,320.0016],[26.1518,70.5615,351.6284],[26.1451,70.5391,437.5415],[26.1585,70.5386,428.8287],[26.1544,70.5252,417.2238],[26.1411,70.5256,407.6351],[26.1117,70.4269,307.9853],[26.0984,70.4273,289.3967],[26.0917,70.4048,335.9706],[26.0785,70.4053,293.9023],[26.0732,70.3873,182.2839],[26.0599,70.3877,201.2284],[26.0586,70.3833,149.9602],[26.0453,70.3837,149.0727],[26.0427,70.3747,150.0183],[26.0295,70.3751,226.986],[26.028199999999998,70.3706,244.8717],[26.0149,70.3711,245.0626],[26.0136,70.3666,274.4592],[26.0003,70.367,241.0486],[25.9926,70.3401,218.6322],[26.0058,70.3396,199.6664],[25.9967,70.3082,413.5574],[26.0099,70.3078,380.3907],[26.0008,70.2764,500.6259],[26.014,70.276,520.1032],[26.0127,70.2715,523.2916],[26.0259,70.2711,443.0168],[26.0233,70.2621,364.9402],[26.0365,70.2617,345.449],[26.0326,70.2482,296.4312],[26.0195,70.2486,293.6638],[26.0182,70.2441,309.5671],[26.0313,70.2437,353.0074],[26.0287,70.2347,404.2368],[26.0419,70.2343,551.6259],[26.0406,70.2298,562.5305],[26.0538,70.2294,562.7916],[26.0499,70.216,538.5142],[26.0367,70.2164,489.0627],[26.0341,70.2074,516.6632],[26.021,70.2078,515.2745],[26.0197,70.2033,597.2139],[26.0065,70.2038,581.5624],[25.9975,70.1723,597.0703],[25.9844,70.1728,611.9905],[25.9792,70.1548,655.0144],[25.9924,70.1544,662.5477],[25.9911,70.1499,664.9765],[25.978,70.1503,661.3548],[25.9741,70.1368,656.3942],[25.961,70.1373,652.9024],[25.9572,70.1238,602.783],[25.9441,70.1242,587.0942],[25.9403,70.1108,619.5029],[25.9272,70.1112,612.5225],[25.9234,70.0977,646.2021],[25.9103,70.0981,662.5063],[25.9078,70.0891,660.3505],[25.9208,70.0887,680.2668],[25.912,70.0573,649.2072],[25.9251,70.0569,644.352],[25.9225,70.0479,601.3428],[25.9356,70.0475,586.9094],[25.9331,70.0385,562.4065],[25.9461,70.0381,563.5745],[25.9436,70.0292,602.7484],[25.9566,70.0287,613.8726],[25.9554,70.0242,637.2799],[25.9684,70.0238,634.4719],[25.9545,69.9745,902.1522],[25.9805,69.9736,938.1733],[25.9818,69.9781,908.9909],[26.0208,69.9769,749.0147],[26.0221,69.9814,675.0835],[26.0481,69.9805,714.9415],[26.0611,69.9801,702.7661],[26.0598,69.9756,626.0092],[26.0989,69.9743,545.5198],[26.0976,69.9698,553.0297],[26.1236,69.969,778.017],[26.1249,69.9735,792.8944],[26.1379,69.9731,770.4126],[26.1392,69.9775,857.4434],[26.1652,69.9767,858.0861],[26.1665,69.9812,974.858],[26.1795,69.9807,986.1315],[26.1808,69.9852,882.6872],[26.2069,69.9844,586.1648],[26.2082,69.9888,493.5714],[26.2212,69.9884,458.8974],[26.2225,69.9929,586.0755],[26.2485,69.992,695.5378],[26.2499,69.9965,877.9797],[26.2629,69.9961,957.9531],[26.2642,70.0006,962.74],[26.2512,70.001,906.2672],[26.2565,70.0189,826.1722],[26.2435,70.0194,916.4381],[26.2488,70.0373,625.5757],[26.2358,70.0377,622.2538],[26.2411,70.0557,734.4306],[26.228,70.0561,684.4132],[26.2333,70.0741,750.2141],[26.2203,70.0745,738.754],[26.2216,70.079,749.0303],[26.2347,70.0786,771.9769],[26.236,70.083,710.8327],[26.2621,70.0822,770.9043],[26.2635,70.0866,723.1807],[26.2896,70.0858,785.744],[26.291,70.0903,766.9705],[26.3302,70.0889,756.1602],[26.3315,70.0934,751.2429],[26.3577,70.0925,710.8807],[26.3591,70.097,705.285],[26.3852,70.0961,675.3543],[26.3866,70.1006,706.895],[26.4127,70.0997,647.1281],[26.4141,70.1042,660.0628],[26.4403,70.1033,626.9704],[26.4416,70.1078,652.2864],[26.4678,70.1069,600.1013],[26.4692,70.1114,596.1037],[26.4954,70.1105,575.3374],[26.4967,70.115,582.0215],[26.5229,70.1141,653.214],[26.5243,70.1185,650.4282],[26.5505,70.1176,633.5985],[26.5519,70.1221,644.6058],[26.5912,70.1207,536.0338],[26.5926,70.1252,547.0513],[26.6188,70.1243,485.8713],[26.6202,70.1288,486.6602],[26.6464,70.1278,525.7565],[26.6478,70.1323,522.8627],[26.674,70.1314,521.2089],[26.6754,70.1359,516.1776],[26.7016,70.1349,544.3408],[26.703,70.1394,534.4597],[26.7292,70.1385,569.15],[26.7307,70.143,569.0422],[26.783,70.1411,440.338],[26.7845,70.1456,410.5511],[26.8369,70.1437,299.8711],[26.8384,70.1481,294.1251],[26.8908,70.1462,290.6675],[26.8922,70.1507,290.7737],[26.9315,70.1493,385.9376],[26.933,70.1537,365.9053],[26.9854,70.1518,372.9153],[27.0079,70.219,324.4807],[27.0211,70.2185,327.9352],[27.0226,70.223,289.4298],[27.0489,70.222,280.3795],[27.0504,70.2265,267.5419],[27.0635,70.226,267.2952],[27.065,70.2305,261.9229],[27.0782,70.23,262.2415],[27.0797,70.2345,268.82],[27.0929,70.234,277.6356],[27.0944,70.2384,281.5581],[27.1207,70.2375,292.5578],[27.1222,70.2419,296.6774],[27.1354,70.2414,282.0104],[27.1369,70.2459,283.257],[27.1501,70.2454,284.3556],[27.1516,70.2499,284.2314],[27.1648,70.2494,288.1096],[27.1663,70.2539,287.752],[27.1926,70.2529,298.7674],[27.1942,70.2574,313.1096],[27.2073,70.2569,299.426],[27.2089,70.2613,312.0915],[27.222,70.2608,299.6829],[27.2236,70.2653,315.2097],[27.2368,70.2648,315.3793],[27.2383,70.2693,314.3108],[27.2515,70.2688,332.7214],[27.2531,70.2732,325.5341],[27.2794,70.2722,344.0287],[27.281,70.2767,345.2388],[27.2941,70.2762,357.6862],[27.2957,70.2807,343.361],[27.3089,70.2802,339.7148],[27.3105,70.2847,358.9755],[27.3236,70.2841,331.5773],[27.3252,70.2886,334.3895],[27.3516,70.2876,351.7081],[27.3531,70.2921,355.856],[27.3663,70.2916,368.041],[27.3775,70.3229,358.7928],[27.3643,70.3234,358.74],[27.3834,70.3771,430.3335],[27.3967,70.3766,436.0726],[27.4015,70.3901,393.823],[27.4147,70.3895,417.0198],[27.4163,70.394,432.8426],[27.4296,70.3935,421.4001],[27.4328,70.4025,435.1158],[27.4195,70.403,454.5441],[27.4228,70.4119,433.7672],[27.4095,70.4124,442.9091],[27.4143,70.4259,409.6908],[27.4011,70.4264,397.1677],[27.4123,70.4577,210.1305],[27.3991,70.4582,206.8092],[27.4087,70.4851,288.6346],[27.3954,70.4856,177.0817],[27.4003,70.4991,164.6644],[27.387,70.4996,170.4494],[27.3918,70.513,158.5408],[27.3785,70.5135,186.1241],[27.3833,70.527,188.2512],[27.37,70.5275,149.6006],[27.3748,70.5409,176.6308],[27.3615,70.5414,124.3165],[27.3647,70.5504,97.7564],[27.3514,70.5509,118.2213],[27.353,70.5554,92.4117],[27.3663,70.5549,92.3097],[27.3712,70.5683,158.3099],[27.3845,70.5678,71.3374],[27.3959,70.5991,168.1067],[27.3825,70.5996,150.4662],[27.3906,70.622,281.5348],[27.3772,70.6225,170.5833],[27.3805,70.6315,302.1007],[27.3939,70.631,435.6036],[27.3955,70.6355,341.6171],[27.4089,70.6349,368.7024],[27.4105,70.6394,324.9874],[27.4239,70.6389,336.4821],[27.4255,70.6434,370.9173],[27.4389,70.6429,370.8609],[27.4406,70.6473,366.4746],[27.454,70.6468,369.2356],[27.4556,70.6513,354.7303],[27.469,70.6508,363.977],[27.4707,70.6553,379.0267],[27.4841,70.6547,395.5896],[27.4874,70.6637,366.0436],[27.5008,70.6632,369.103],[27.5041,70.6721,368.985],[27.5175,70.6716,373.1426],[27.5308,70.7074,383.8846],[27.5442,70.7069,399.4691],[27.5492,70.7203,384.0623],[27.5627,70.7198,409.8592],[27.5644,70.7243,369.9207],[27.5778,70.7237,380.6205],[27.5795,70.7282,377.5659],[27.5929,70.7277,385.1634],[27.5963,70.7366,379.724],[27.6098,70.7361,395.9135],[27.6114,70.7406,347.076],[27.6249,70.74,365.5131],[27.6266,70.7445,341.414],[27.6401,70.744,344.3377],[27.6417,70.7485,364.5247],[27.6552,70.7479,364.035],[27.6586,70.7569,353.799],[27.6721,70.7563,367.2806],[27.6755,70.7653,365.9937],[27.6889,70.7648,326.4056],[27.6924,70.7737,388.2467],[27.7058,70.7732,350.9953],[27.711,70.7866,316.6416],[27.7244,70.7861,285.8033],[27.7255,70.7888,323.1232]]],
[[[26.6437,70.5792,0.0],[26.6401,70.5776,0.0],[26.65,70.5771,0.0],[26.6536,70.5807,0.0],[26.65,70.5813,0.0],[26.6437,70.5792,0.0]]],
[[[26.9297,70.5849,5.4005],[26.9276,70.5818,10.573],[26.9313,70.5813,12.3947],[26.9349,70.5839,51.7114],[26.9333,70.5854,19.3939],[26.9297,70.5849,5.4005]]],
[[[26.8922,70.5839,13.9889],[26.9,70.5813,0.0],[26.9089,70.587,0.0],[26.9161,70.588,0.0],[26.9224,70.5932,0.0],[26.9151,70.5964,6.8383],[26.912,70.5995,3.2356],[26.9021,70.6,8.7396],[26.8964,70.5964,0.0],[26.9036,70.5932,0.0],[26.9057,70.5901,9.8289],[26.9036,70.588,11.5984],[26.8964,70.587,46.5532],[26.8922,70.5839,13.9889]]],
[[[26.7328,70.7766,0.0],[26.725,70.7771,0.0],[26.7208,70.7792,0.5089],[26.7109,70.7786,0.0],[26.7167,70.775,2.8745],[26.7313,70.775,17.5712],[26.7328,70.7766,0.0]]],
[[[27.3083,70.7562,0.0],[27.3068,70.7547,0.0],[27.3182,70.7547,0.0],[27.3167,70.7562,0.0],[27.3083,70.7562,0.0]]],
[[[27.212,70.7984,0.0],[27.2021,70.8021,23.0079],[27.1875,70.8021,54.5503],[27.1786,70.7963,103.051],[27.1693,70.7953,31.4655],[27.1651,70.7911,42.5293],[27.1661,70.788,74.4192],[27.163,70.7839,138.2366],[27.1708,70.7792,0.0],[27.1833,70.7792,59.0529],[27.1875,70.7771,0.0],[27.1958,70.7771,0.0],[27.2,70.7792,3.8444],[27.2042,70.7792,0.0],[27.2057,70.7797,0.0],[27.2047,70.7828,0.0],[27.2141,70.7901,0.0],[27.2089,70.7943,6.3782],[27.212,70.7984,0.0]]],
[[[27.5,70.8625,0.0],[27.4964,70.862,13.1414],[27.4964,70.8609,5.7255],[27.5016,70.8609,0.0],[27.5,70.8625,0.0]]],
[[[26.6203,70.4453,20.3296],[26.6125,70.4458,9.6161],[26.6083,70.4479,0.0],[26.6,70.4479,0.0],[26.5901,70.4453,12.2651],[26.5771,70.4354,59.3193],[26.5589,70.4349,20.8638],[26.5599,70.4318,16.2299],[26.5589,70.4297,0.0],[26.562,70.4276,126.1786],[26.5526,70.4266,29.1154],[26.5484,70.4224,7.4498],[26.5495,70.4193,8.2475],[26.5484,70.4172,0.0],[26.5708,70.4167,0.0],[26.5833,70.4208,19.2459],[26.5911,70.4213,0.0],[26.5854,70.425,0.0],[26.5776,70.4255,67.7595],[26.5792,70.4271,29.4941],[26.587,70.4276,0.0],[26.5911,70.4318,0.0],[26.5839,70.4349,0.0],[26.5938,70.4375,19.0608],[26.6042,70.4375,0.0],[26.6104,70.4417,30.7474],[26.6167,70.4396,0.0],[26.6266,70.4401,0.0],[26.6245,70.4432,12.7056],[26.6203,70.4453,20.3296]]],
[[[26.5646,70.4417,0.0],[26.5609,70.4411,0.0],[26.5609,70.4401,0.0],[26.5661,70.4401,0.0],[26.5646,70.4417,0.0]]],
[[[26.5854,70.4542,0.0],[26.5818,70.4537,0.0],[26.5818,70.4526,0.0],[26.587,70.4526,0.0],[26.5854,70.4542,0.0]]],
[[[26.475,70.6667,0.0],[26.4734,70.6651,19.3182],[26.4849,70.6651,42.6688],[26.4833,70.6667,0.0],[26.475,70.6667,0.0]]],
[[[26.4172,70.6661,0.0],[26.4208,70.6625,0.0],[26.4286,70.6651,0.0],[26.4229,70.6687,0.0],[26.4193,70.6682,0.0],[26.4172,70.6661,0.0]]],
[[[26.4,70.6708,0.0],[26.3964,70.6693,0.0],[26.4078,70.6693,0.0],[26.4063,70.6708,0.0],[26.4,70.6708,0.0]]],
[[[26.5729,70.6729,0.6334],[26.5693,70.6724,4.2371],[26.5693,70.6713,0.0],[26.5745,70.6713,0.0],[26.5729,70.6729,0.6334]]],
[[[26.4672,70.6766,0.0],[26.4651,70.6734,0.0],[26.4688,70.6729,0.0],[26.4724,70.6755,0.0],[26.4708,70.6771,0.0],[26.4672,70.6766,0.0]]],
[[[26.6152,70.6689,0.0],[26.6245,70.6713,0.0],[26.6234,70.6745,0.0],[26.6245,70.6766,0.0],[26.6214,70.6787,40.3299],[26.6286,70.6839,0.0],[26.6266,70.687,0.0],[26.613,70.687,0.0],[26.6099,70.6839,0.0],[26.6042,70.6833,0.0],[26.5984,70.6807,0.0],[26.5943,70.6766,0.0],[26.5974,70.6734,5.9075],[26.5833,70.6729,0.7318],[26.5797,70.6703,0.1882],[26.5812,70.6687,0.069],[26.5958,70.6687,0.0],[26.6,70.6708,0.0],[26.6083,70.6708,3.2521],[26.6152,70.6689,0.0]]],
[[[26.7672,70.8349,4.6501],[26.7687,70.8333,0.0],[26.7833,70.8333,0.0],[26.7911,70.8391,0.0],[26.7854,70.8417,4.7396],[26.7771,70.8417,0.0],[26.7672,70.8349,4.6501]]]]}}