{"type":"Feature","properties":{"GID_2":"NOR.10.3_1","GID_0":"NOR","country":"Norway","GID_1":"NOR.10_1","province":"Nordland","NL_NAME_1":"NA","county":"Ballangen","VARNAME_2":"NA","NL_NAME_2":"NA","TYPE_2":"Kommuner","ENGTYPE_2":"Municipality","CC_2":"NA","HASC_2":"NO.NO.BA","name":"Ballangen.county"},
"geometry":{"type": "MultiPolygon","coordinates": [[[[16.6167,68.1979,150.8343],[16.6151,68.1964,202.4776],[16.6245,68.1964,95.5416],[16.6229,68.1979,87.8093],[16.6167,68.1979,150.8343]]],
[[[17.0699,68.3729,222.556],[17.0693,68.3774,137.9059],[17.0571,68.3772,140.8212],[17.0562,68.3843,0.0],[17.0479,68.3833,4.6973],[17.0417,68.3854,0.0],[17.0401,68.3839,0.0],[17.0432,68.3818,0.0],[17.0411,68.3797,0.0],[17.0276,68.3766,0.0],[17.0307,68.3734,0.0],[17.0255,68.3724,0.0],[17.0271,68.3708,0.0],[17.0349,68.3703,0.0],[17.0339,68.3672,0.0],[17.037,68.3662,0.0],[17.0328,68.3588,0.0],[17.0292,68.3562,16.9729],[17.0167,68.3562,0.0],[17.0021,68.3604,0.0],[16.9896,68.3562,31.9584],[16.9813,68.3583,0.0],[16.9771,68.3562,21.6502],[16.9646,68.3562,0.0],[16.9604,68.3583,0.0],[16.9479,68.3542,0.0],[16.9396,68.3542,0.0],[16.9349,68.3505,0.0],[16.925,68.35,0.0],[16.9208,68.3479,3.5788],[16.9021,68.3479,2.7267],[16.9005,68.3484,0.0],[16.9016,68.3516,0.0],[16.8917,68.3521,0.0],[16.8849,68.3443,6.5853],[16.8771,68.3417,25.0837],[16.8625,68.3417,0.0],[16.8563,68.3396,0.0],[16.8521,68.3417,0.0],[16.8458,68.3417,0.0],[16.8396,68.3396,0.0],[16.838,68.3411,0.0],[16.8422,68.3453,0.0],[16.8563,68.3458,0.0],[16.8604,68.3479,0.0],[16.8646,68.3479,0.0],[16.8693,68.3516,0.0],[16.8745,68.3526,0.0],[16.8714,68.3557,9.3991],[16.8813,68.3583,15.8251],[16.8875,68.3562,0.0],[16.8911,68.3588,0.0],[16.8922,68.362,0.0],[16.8995,68.363,0.0],[16.9036,68.3703,0.0],[16.8964,68.3734,0.0],[16.8974,68.3766,0.0],[16.8943,68.3786,63.7814],[16.8995,68.3797,0.0],[16.9016,68.3828,0.0],[16.8833,68.3917,1.5507],[16.8667,68.3917,16.6688],[16.8568,68.3943,0.0],[16.85,68.3979,1.0323],[16.8271,68.3979,24.0567],[16.8229,68.4,0.0],[16.8104,68.4,12.1012],[16.8036,68.4036,0.0],[16.7938,68.4063,0.0],[16.7875,68.4042,0.0],[16.775,68.4042,0.0],[16.7734,68.4057,0.0],[16.7786,68.4068,0.0],[16.7828,68.412,11.0106],[16.7646,68.4146,0.0],[16.763,68.4151,0.0],[16.7641,68.4182,0.0],[16.7599,68.4203,16.5257],[16.7479,68.4208,7.3771],[16.7438,68.4229,0.0],[16.7375,68.4208,52.1507],[16.6938,68.4187,0.0],[16.6891,68.4151,5.9202],[16.6755,68.412,0.0],[16.6724,68.4068,2.0947],[16.6688,68.4063,0.0],[16.6589,68.4109,0.0],[16.6599,68.4141,0.0],[16.6557,68.4161,1.2024],[16.6464,68.4172,0.0],[16.6474,68.4203,0.0],[16.6417,68.4229,0.0],[16.6292,68.4229,0.0],[16.625,68.4208,0.0],[16.6063,68.4208,0.0],[16.6021,68.4229,0.0],[16.5938,68.4229,0.0],[16.5896,68.4208,18.8257],[16.5797,68.4203,0.0],[16.5828,68.4172,0.0],[16.5792,68.4146,0.0],[16.575,68.4167,0.0],[16.5604,68.4167,0.0],[16.5563,68.4146,9.1033],[16.5479,68.4146,0.0],[16.5438,68.4125,72.4707],[16.5354,68.4125,15.3786],[16.525,68.4083,0.0],[16.5125,68.4083,14.4476],[16.5083,68.4104,0.0],[16.4896,68.4104,0.0],[16.4797,68.4078,0.0],[16.475,68.4042,68.2909],[16.4667,68.4042,0.0],[16.4589,68.4016,12.8421],[16.4557,68.3984,0.0],[16.4479,68.3958,43.0468],[16.4172,68.3912,9.525],[16.412,68.3839,5.2035],[16.4021,68.3812,0.0],[16.3875,68.3854,0.0],[16.375,68.3854,4.4305],[16.3708,68.3833,12.9248],[16.3438,68.3833,0.0],[16.3359,68.3807,0.0],[16.3312,68.3771,0.0],[16.2958,68.3771,0.0],[16.2917,68.375,28.552],[16.2771,68.375,0.0],[16.2734,68.3724,0.0],[16.2766,68.3703,3.5911],[16.2755,68.3651,1.4092],[16.2786,68.363,0.0],[16.2766,68.3609,4.3897],[16.2693,68.3599,0.0],[16.2693,68.3568,0.0],[16.2807,68.3516,0.0],[16.2797,68.3484,0.658],[16.2917,68.3479,0.0],[16.2974,68.3453,3.4891],[16.2979,68.3438,15.7584],[16.2958,68.3417,19.8958],[16.2875,68.3417,0.0],[16.2776,68.3391,0.0],[16.2755,68.3359,0.0],[16.2833,68.3354,0.0],[16.2917,68.3313,0.0],[16.2995,68.3307,0.0],[16.2984,68.3276,0.0],[16.3,68.3271,0.0],[16.3141,68.3276,0.0],[16.3161,68.3297,0.0],[16.313,68.3318,15.2366],[16.3146,68.3333,0.0],[16.3229,68.3333,0.0],[16.3271,68.3354,0.0],[16.3396,68.3354,0.0],[16.3411,68.3349,0.0],[16.3401,68.3318,0.0],[16.3458,68.3292,0.0],[16.3828,68.3287,0.0],[16.3792,68.325,32.0961],[16.3401,68.3245,0.0],[16.3417,68.3229,0.0],[16.3479,68.3229,15.0011],[16.3521,68.3208,0.0],[16.375,68.3208,9.3622],[16.3792,68.3187,11.5954],[16.387,68.3182,41.2601],[16.3859,68.3151,0.0],[16.3937,68.3146,1.5887],[16.4063,68.3104,0.0],[16.425,68.3104,0.0],[16.4312,68.3125,18.2459],[16.4354,68.3104,0.0],[16.4458,68.3104,0.0],[16.4474,68.3099,0.0],[16.4464,68.3047,0.0],[16.4521,68.3021,0.0],[16.4688,68.3021,62.9079],[16.4729,68.3,0.0],[16.4958,68.3,32.2937],[16.5,68.2979,0.0],[16.5167,68.2979,33.8113],[16.5208,68.2958,0.0],[16.5313,68.2958,36.7571],[16.538,68.2922,0.0],[16.5458,68.2917,44.9669],[16.55,68.2896,9.2539],[16.5604,68.2896,39.9918],[16.5688,68.2854,0.0],[16.575,68.2875,46.2059],[16.5896,68.2833,0.0],[16.6063,68.2833,113.788],[16.6104,68.2813,0.0],[16.6182,68.2807,35.4434],[16.6224,68.2786,-0.1516],[16.6214,68.2755,0.0],[16.637,68.2682,35.1641],[16.6359,68.2651,0.0],[16.6391,68.2641,14.4129],[16.6391,68.2609,45.4084],[16.6271,68.2604,0.0],[16.625,68.2583,27.8604],[16.6255,68.2568,76.5779],[16.6328,68.2557,154.3576],[16.637,68.2526,324.6778],[16.6104,68.2521,0.0],[16.6026,68.2484,0.0],[16.6083,68.2458,0.0],[16.6141,68.2453,0.0],[16.6208,68.2417,0.0],[16.6391,68.2391,41.4917],[16.638,68.2359,0.0],[16.6495,68.2307,29.6834],[16.6443,68.2224,0.0],[16.6474,68.2193,36.1927],[16.6401,68.2182,31.7709],[16.6401,68.2151,78.3962],[16.6432,68.2141,81.2056],[16.6422,68.2109,0.0],[16.6479,68.2083,0.0],[16.6557,68.2078,12.892],[16.6547,68.2047,0.0],[16.6563,68.2042,0.0],[16.6625,68.2042,0.0],[16.6854,68.1979,0.0],[16.6917,68.1979,45.1903],[16.6964,68.1943,0.0],[16.7057,68.1932,27.5187],[16.7047,68.1901,0.0],[16.7062,68.1896,0.0],[16.7125,68.1896,10.3792],[16.7167,68.1875,0.0],[16.7328,68.1849,21.2481],[16.7339,68.1818,0.0],[16.7396,68.1813,11.7338],[16.7453,68.1787,0.0],[16.7484,68.1713,0.0],[16.7542,68.1687,0.0],[16.7646,68.1687,16.6185],[16.7687,68.1667,0.0],[16.7792,68.1667,10.8616],[16.7833,68.1646,0.0],[16.8,68.1625,0.0],[16.8099,68.1599,0.0],[16.8141,68.1578,0.0],[16.8151,68.1547,0.0],[16.8182,68.1536,0.0],[16.8167,68.1521,0.0],[16.7896,68.1521,46.2329],[16.788,68.1505,161.0149],[16.7911,68.1484,274.0775],[16.7833,68.1458,604.4529],[16.7771,68.1458,789.5527],[16.7708,68.1479,692.5575],[16.7646,68.1458,717.6078],[16.7604,68.1479,582.97],[16.7526,68.1484,371.8085],[16.7536,68.1516,226.7638],[16.7505,68.1536,117.7429],[16.7563,68.1542,82.0061],[16.7578,68.1557,30.064],[16.7521,68.1583,0.0],[16.7354,68.1583,2.4157],[16.7313,68.1604,0.0],[16.7234,68.1609,13.2162],[16.7109,68.1672,35.1049],[16.712,68.1703,0.0],[16.7047,68.1734,17.1085],[16.7057,68.1766,0.0],[16.6964,68.1776,26.9216],[16.6974,68.1807,0.0],[16.6958,68.1813,0.0],[16.6776,68.1839,10.5113],[16.6745,68.187,0.0],[16.6646,68.1917,0.0],[16.6479,68.1937,17.5003],[16.6437,68.1958,0.0],[16.6313,68.1958,67.0917],[16.625,68.1917,369.4967],[16.6208,68.1937,314.2996],[16.5979,68.1937,430.2402],[16.5922,68.1964,204.611],[16.6,68.2,43.8996],[16.6057,68.2005,5.5509],[16.6078,68.2037,0.0],[16.6047,68.2047,12.6929],[16.6047,68.2078,65.6692],[16.6068,68.2099,40.3045],[16.6141,68.2109,0.0],[16.6104,68.2146,7.8944],[16.6161,68.2245,0.0],[16.613,68.2255,72.0182],[16.6141,68.2286,0.0],[16.6109,68.2297,42.8422],[16.612,68.2328,0.0],[16.6089,68.2338,2.8426],[16.6078,68.237,0.0],[16.6036,68.2391,2.4199],[16.5917,68.2396,16.7677],[16.5849,68.2432,0.0],[16.5771,68.2438,1.809],[16.5714,68.2464,23.4472],[16.5724,68.2495,0.0],[16.5693,68.2516,17.0841],[16.5724,68.2557,0.0],[16.5693,68.2568,0.0],[16.5682,68.2599,0.0],[16.5609,68.2609,0.0],[16.5599,68.2641,0.0],[16.5526,68.2651,10.9746],[16.5458,68.2688,0.0],[16.5276,68.2714,7.9884],[16.5214,68.2755,4.2172],[16.5203,68.2786,0.0],[16.5146,68.2813,0.0],[16.5042,68.2813,21.8586],[16.4979,68.2833,19.189],[16.4917,68.2813,143.5709],[16.4901,68.2818,143.5709],[16.4911,68.2849,1.3373],[16.4854,68.2875,0.0],[16.4797,68.288,0.0],[16.4875,68.2917,4.2382],[16.4974,68.2922,5.714],[16.4995,68.2943,16.2514],[16.4979,68.2958,0.0],[16.4729,68.2958,0.0],[16.4651,68.2932,3.6215],[16.4724,68.2891,0.0],[16.4667,68.2833,59.3487],[16.4604,68.2833,50.9274],[16.4562,68.2854,18.7124],[16.4438,68.2854,0.0],[16.4375,68.2833,9.4152],[16.4292,68.2875,0.0],[16.4146,68.2896,0.0],[16.413,68.2911,0.0],[16.4271,68.2917,14.2579],[16.4417,68.2875,0.0],[16.4516,68.2901,0.0],[16.4536,68.2953,0.0],[16.4479,68.2979,7.3875],[16.4375,68.2979,12.5561],[16.4333,68.3,0.0],[16.4167,68.3,25.7783],[16.4125,68.3021,0.0],[16.4063,68.3021,46.2887],[16.4047,68.3026,60.8388],[16.4057,68.3057,0.0],[16.4042,68.3063,0.0],[16.3771,68.3083,39.9988],[16.3755,68.3089,41.8082],[16.3766,68.312,0.0],[16.3688,68.3125,12.5102],[16.3646,68.3146,0.0],[16.3609,68.3141,0.0],[16.3609,68.3109,53.475],[16.3724,68.3047,7.3402],[16.3604,68.3042,7.5113],[16.3589,68.3026,0.0],[16.3786,68.2995,0.0],[16.3766,68.2963,25.1062],[16.3625,68.2958,46.1719],[16.3479,68.3,0.0],[16.3375,68.3,13.8796],[16.3359,68.3016,0.0],[16.338,68.3057,23.8115],[16.3453,68.3068,0.0],[16.3474,68.312,0.0],[16.3396,68.3125,0.0],[16.3167,68.3187,0.0],[16.3063,68.3187,3.0044],[16.3021,68.3208,0.0],[16.2922,68.3203,0.0],[16.2922,68.3172,23.4081],[16.2953,68.3151,12.0578],[16.2896,68.3146,0.0],[16.2792,68.3104,5.3975],[16.2708,68.3104,0.0],[16.2568,68.3151,0.0],[16.2578,68.3203,3.929],[16.2563,68.3208,2.1196],[16.25,68.3187,0.0],[16.2422,68.3193,14.7529],[16.2443,68.3245,0.0],[16.2479,68.3271,0.0],[16.2667,68.325,0.0],[16.2703,68.3276,0.0],[16.2687,68.3292,0.0],[16.2609,68.3297,21.7644],[16.2641,68.337,0.0],[16.2521,68.3417,0.0],[16.2443,68.3391,0.0],[16.2375,68.3333,0.0],[16.2109,68.3328,0.0],[16.2203,68.3297,0.0],[16.213,68.3287,0.0],[16.212,68.3255,0.0],[16.2083,68.3229,55.7333],[16.2021,68.325,0.0],[16.1979,68.3229,0.0],[16.1755,68.3224,5.8313],[16.1724,68.3193,5.9919],[16.1672,68.3182,0.0],[16.1703,68.3151,0.0],[16.1682,68.313,6.8279],[16.163,68.312,0.0],[16.1568,68.3037,0.0],[16.1599,68.3016,0.0],[16.1589,68.2984,7.9138],[16.1661,68.2943,206.4603],[16.15,68.2937,112.3755],[16.1422,68.2901,0.0],[16.1453,68.2891,13.4795],[16.1443,68.287,14.2382],[16.2315,68.2892,270.5671],[16.2323,68.2847,241.0963],[16.2806,68.2857,720.7208],[16.2813,68.2812,423.8942],[16.3176,68.282,446.517],[16.3183,68.2775,526.6495],[16.3425,68.278,285.7105],[16.3432,68.2735,49.8925],[16.3553,68.2738,201.5156],[16.356,68.2693,97.1033],[16.3681,68.2695,395.3111],[16.3688,68.265,603.8247],[16.3809,68.2653,599.0066],[16.3816,68.2608,463.7822],[16.3936,68.261,235.2048],[16.3943,68.2565,260.4838],[16.4064,68.2568,243.1501],[16.4071,68.2523,293.371],[16.4313,68.2528,359.5636],[16.432,68.2483,729.6583],[16.4802,68.2493,205.7418],[16.4809,68.2448,26.0683],[16.493,68.245,226.4568],[16.4943,68.236,631.2656],[16.5064,68.2363,796.4993],[16.5071,68.2318,519.9722],[16.5192,68.232,905.4242],[16.5198,68.2275,555.4562],[16.5439,68.228,645.8069],[16.548,68.201,634.5776],[16.56,68.2013,605.2156],[16.5607,68.1968,500.6284],[16.5727,68.197,551.2421],[16.5734,68.1925,553.6552],[16.5854,68.1927,535.5828],[16.5861,68.1883,367.8768],[16.6222,68.189,282.9651],[16.6235,68.18,410.3934],[16.6356,68.1802,610.9288],[16.6362,68.1757,445.9711],[16.6482,68.1759,663.4219],[16.6495,68.1669,457.1769],[16.6616,68.1672,708.1719],[16.6622,68.1627,548.2713],[16.6502,68.1625,380.8219],[16.6534,68.14,866.8985],[16.6654,68.1402,769.5616],[16.6667,68.1312,803.9141],[16.7028,68.1319,920.0372],[16.7034,68.1274,666.6842],[16.7394,68.1281,789.7648],[16.7401,68.1236,676.0359],[16.7521,68.1238,954.1983],[16.7527,68.1193,657.7583],[16.7647,68.1195,939.8472],[16.7659,68.1106,577.8126],[16.7899,68.111,1125.3826],[16.7881,68.1245,970.8751],[16.8001,68.1247,1078.4113],[16.7995,68.1292,1155.8859],[16.8355,68.1299,1256.9651],[16.8349,68.1344,1026.6255],[16.919,68.1359,1308.8973],[16.9196,68.1314,1281.9025],[16.9436,68.1318,1145.285],[16.9442,68.1273,1133.3926],[16.9562,68.1275,975.2057],[16.958,68.114,823.6203],[16.97,68.1143,875.509],[16.9712,68.1053,945.9781],[17.0072,68.1059,897.5375],[17.0078,68.1014,859.5886],[17.0198,68.1016,913.0656],[17.0203,68.0971,820.1102],[17.0323,68.0973,929.0569],[17.0329,68.0928,788.1226],[17.0449,68.093,928.8776],[17.0455,68.0885,821.9598],[17.0695,68.0889,894.953],[17.07,68.0844,802.4096],[17.082,68.0846,878.0714],[17.0826,68.0801,778.5],[17.1066,68.0805,927.2769],[17.1071,68.076,821.0173],[17.1191,68.0762,973.0432],[17.1197,68.0717,835.9468],[17.1316,68.0719,1076.3407],[17.1322,68.0674,886.6519],[17.1442,68.0676,1200.7712],[17.1447,68.0631,1062.4099],[17.1567,68.0633,1168.2007],[17.1578,68.0543,1087.272],[17.1698,68.0545,1154.3452],[17.1703,68.05,1099.0885],[17.1823,68.0502,1209.8485],[17.1818,68.0547,1237.9458],[17.1937,68.0549,1191.0378],[17.1926,68.0639,1081.5839],[17.2046,68.0641,996.688],[17.2041,68.0686,1129.0433],[17.2161,68.0688,1146.2238],[17.215,68.0778,946.8738],[17.227,68.078,731.6578],[17.2265,68.0825,677.0828],[17.2385,68.0827,668.6926],[17.2374,68.0917,656.0933],[17.2494,68.0919,608.5],[17.2483,68.1009,742.8129],[17.2603,68.1011,840.2458],[17.2598,68.1056,971.6765],[17.2718,68.1058,1199.4966],[17.2708,68.1147,1302.6576],[17.2828,68.1149,1376.7334],[17.2817,68.1239,1308.5931],[17.2697,68.1237,1145.2317],[17.2692,68.1282,1018.0991],[17.2572,68.1281,868.0438],[17.2561,68.1371,865.9849],[17.2441,68.1369,941.4268],[17.2435,68.1414,1088.5732],[17.2315,68.1412,1222.3405],[17.2305,68.1502,1374.7419],[17.2184,68.15,1415.5958],[17.2125,68.1995,994.6895],[17.2005,68.1993,968.21],[17.1999,68.2038,1034.2903],[17.1879,68.2036,1151.1338],[17.1857,68.2216,1227.309],[17.1977,68.2217,1223.5537],[17.1967,68.2307,1263.9681],[17.2087,68.2309,1264.1151],[17.2071,68.2444,1393.9697],[17.2192,68.2446,1354.0109],[17.2176,68.2581,1118.7203],[17.2055,68.2579,780.2039],[17.2044,68.2669,870.8642],[17.1923,68.2667,729.9348],[17.1912,68.2757,565.4058],[17.1791,68.2755,436.1488],[17.1775,68.289,720.8539],[17.1654,68.2888,394.1956],[17.1643,68.2978,889.9898],[17.1522,68.2976,370.7264],[17.1505,68.3111,916.8861],[17.1384,68.3109,557.9086],[17.1378,68.3154,723.3307],[17.1257,68.3152,573.5208],[17.1252,68.3197,844.4323],[17.1131,68.3195,646.6871],[17.1125,68.324,908.759],[17.1004,68.3238,783.4941],[17.0998,68.3283,1043.6149],[17.0877,68.3281,866.3379],[17.0866,68.3371,960.5093],[17.0744,68.3369,940.1278],[17.0739,68.3414,985.5046],[17.0617,68.3412,875.6337],[17.0612,68.3457,745.5231],[17.0733,68.3459,741.0563],[17.0699,68.3729,222.556]]],
[[[16.3229,68.3292,0.0],[16.3214,68.3276,0.0],[16.3266,68.3276,1.4305],[16.3266,68.3287,3.7285],[16.3229,68.3292,0.0]]],
[[[16.913,68.3516,7.4672],[16.9167,68.35,0.0],[16.9203,68.3536,0.0],[16.9167,68.3542,1.2833],[16.913,68.3516,7.4672]]],
[[[16.0042,68.3187,0.0],[16.0026,68.3172,0.0],[16.0078,68.3172,0.0],[16.0078,68.3182,0.0],[16.0042,68.3187,0.0]]],
[[[16.1708,68.3333,0.0],[16.1646,68.3333,8.033],[16.1583,68.3354,0.0],[16.1484,68.3328,1.5114],[16.1479,68.3313,0.0],[16.15,68.3292,0.0],[16.187,68.3297,0.0],[16.1813,68.3333,0.0],[16.1708,68.3333,0.0]]],
[[[16.1729,68.3396,4.0604],[16.1714,68.338,0.0],[16.1745,68.338,0.0],[16.1745,68.3391,2.9275],[16.1729,68.3396,4.0604]]],
[[[16.1646,68.3542,3.2838],[16.1542,68.3583,0.0],[16.1458,68.3583,0.0],[16.1396,68.3562,19.466],[16.1354,68.3583,0.0],[16.1,68.3583,0.0],[16.0958,68.3562,10.9568],[16.0875,68.3562,0.0],[16.0771,68.3521,0.0],[16.0714,68.3516,0.0],[16.0688,68.3479,19.5965],[16.0589,68.3474,0.0],[16.0536,68.3422,36.6968],[16.0484,68.3411,5.9391],[16.0438,68.3354,0.0],[16.0443,68.3339,0.0],[16.0542,68.3292,0.0],[16.0583,68.3313,17.2461],[16.0667,68.3313,0.0],[16.0708,68.3333,0.0],[16.0792,68.3333,14.4662],[16.0854,68.3313,0.0],[16.0896,68.3333,39.3903],[16.1021,68.3333,0.0],[16.1063,68.3354,32.4019],[16.1333,68.3354,0.0],[16.1375,68.3375,28.433],[16.1625,68.3375,0.0],[16.1813,68.3438,0.0],[16.1891,68.3432,7.6169],[16.1917,68.3396,5.2883],[16.2161,68.3401,4.1635],[16.213,68.3422,11.5986],[16.2141,68.3453,0.0],[16.2125,68.3458,0.0],[16.2062,68.3438,14.7653],[16.1938,68.3438,1.372],[16.1896,68.3458,0.0],[16.1818,68.3464,0.0],[16.1828,68.3495,0.0],[16.1786,68.3516,0.0],[16.1646,68.3542,3.2838]]],
[[[16.2104,68.3562,13.0072],[16.2021,68.3583,0.0],[16.1984,68.3547,0.0],[16.2125,68.3521,0.0],[16.2161,68.3547,0.0],[16.2146,68.3562,0.0],[16.2104,68.3562,13.0072]]],
[[[16.0693,68.3609,0.0],[16.0724,68.3609,0.0],[16.0745,68.3641,0.0],[16.0693,68.3641,0.0],[16.0693,68.3609,0.0]]]]}}