{"type": "Feature","bbox": [16.3154,68.8995,16.762,69.0854],"geometry": {"type": "MultiPolygon","coordinates": [[[[16.5775,68.9007,174.9436],[16.6024,68.9012,57.6615],[16.6017,68.9057,44.1563],[16.6132,68.9059,0.0],[16.6167,68.9104,0.0],[16.613,68.9141,9.7471],[16.6193,68.9203,0.0],[16.6391,68.9255,0.0],[16.6411,68.9287,0.0],[16.638,68.9307,21.8602],[16.6437,68.9313,0.0],[16.6453,68.9328,0.0],[16.6375,68.9333,0.0],[16.6318,68.9359,0.0],[16.6307,68.9391,0.0],[16.6188,68.9396,6.3678],[16.6089,68.9443,5.3432],[16.6109,68.9495,7.117],[16.6182,68.9505,0.0],[16.6151,68.9537,10.4824],[16.6182,68.9599,0.0],[16.6125,68.9625,6.5134],[16.6047,68.963,15.1303],[16.5938,68.9688,7.2955],[16.5812,68.9688,0.0],[16.5771,68.9667,25.6071],[16.5651,68.9661,0.0],[16.563,68.9609,0.0],[16.5661,68.9599,0.0],[16.5651,68.9568,0.0],[16.5682,68.9557,10.1276],[16.5693,68.9526,0.0],[16.5766,68.9495,8.0306],[16.5724,68.9443,6.5129],[16.5583,68.9437,45.6971],[16.5458,68.95,0.0],[16.5375,68.95,29.5234],[16.5359,68.9484,102.5808],[16.5391,68.9464,183.4345],[16.537,68.9422,380.2638],[16.525,68.9396,589.9388],[16.5234,68.9411,520.5874],[16.5286,68.9474,273.8434],[16.5234,68.9474,379.8699],[16.5187,68.9437,487.0603],[16.5063,68.9437,515.5847],[16.5047,68.9453,424.2654],[16.5099,68.9464,414.7051],[16.512,68.9495,280.1635],[16.4979,68.95,457.1236],[16.4917,68.9479,494.4901],[16.4901,68.9484,468.9693],[16.4911,68.9516,342.6932],[16.4896,68.9521,328.2216],[16.4833,68.95,535.2719],[16.4688,68.95,644.2288],[16.4578,68.9557,441.2467],[16.4479,68.9583,247.2158],[16.4354,68.9583,363.786],[16.4271,68.9625,165.1038],[16.4146,68.9625,582.7021],[16.4104,68.9646,596.3806],[16.3958,68.9667,604.0213],[16.3901,68.9703,305.322],[16.4036,68.9734,78.5315],[16.4036,68.9766,0.0],[16.3854,68.9854,16.3289],[16.3792,68.9854,73.4384],[16.3776,68.9838,85.0337],[16.3891,68.9786,159.979],[16.3854,68.975,480.5725],[16.3542,68.975,588.0707],[16.3526,68.9755,514.6977],[16.3536,68.9786,396.9854],[16.3479,68.9812,254.4639],[16.3229,68.9812,721.7432],[16.3188,68.9792,777.9656],[16.3154,68.9796,756.8069],[16.3166,68.9722,718.233],[16.329,68.9725,594.7522],[16.3298,68.968,684.8963],[16.3547,68.9685,493.1873],[16.3554,68.964,650.4179],[16.3803,68.9645,421.7793],[16.3811,68.96,429.7251],[16.3935,68.9602,598.2625],[16.3942,68.9557,337.6077],[16.4067,68.956,393.8417],[16.4074,68.9515,458.1805],[16.4199,68.9517,508.2126],[16.4206,68.9472,581.1483],[16.4579,68.948,604.6215],[16.4586,68.9435,725.6584],[16.496,68.9442,436.9186],[16.4967,68.9397,534.8813],[16.5091,68.94,750.907],[16.5098,68.9355,835.2094],[16.5222,68.9357,586.3641],[16.5236,68.9267,547.5083],[16.5361,68.927,876.4523],[16.5368,68.9225,732.0846],[16.5243,68.9222,464.2222],[16.5264,68.9087,555.3654],[16.514,68.9085,338.8481],[16.5154,68.8995,340.5546],[16.5775,68.9007,174.9436]]],
[[[16.4557,69.0141,1.254],[16.4583,69.0125,0.0],[16.462,69.013,4.5143],[16.4641,69.0151,0.0],[16.4641,69.0182,0.0],[16.4547,69.0182,0.0],[16.4526,69.0151,0.0],[16.4557,69.0141,1.254]]],
[[[16.3818,69.0151,11.7357],[16.3828,69.0182,0.0],[16.3729,69.0229,7.7703],[16.3693,69.0224,0.0],[16.3693,69.0193,3.3863],[16.3766,69.0182,0.0],[16.3771,69.0167,0.0],[16.3766,69.0151,21.0851],[16.3708,69.0146,0.0],[16.3693,69.013,5.7441],[16.375,69.0104,0.0],[16.3911,69.0109,9.1789],[16.3818,69.0151,11.7357]]],
[[[16.5182,69.0484,0.0],[16.5104,69.0521,0.0],[16.4792,69.05,0.0],[16.4693,69.0474,0.0],[16.4688,69.0458,0.0],[16.4693,69.0443,0.0],[16.4766,69.0432,0.0],[16.4766,69.0401,0.0],[16.4646,69.0396,0.0],[16.4625,69.0375,0.9802],[16.4646,69.0354,0.0],[16.4688,69.0375,6.0957],[16.4896,69.0375,0.0],[16.4995,69.0401,3.9706],[16.5042,69.0437,0.2489],[16.5141,69.0443,0.0],[16.5182,69.0484,0.0]]],
[[[16.7182,68.9672,0.0],[16.7203,68.9714,0.0],[16.7188,68.9729,0.0],[16.7125,68.9708,11.0942],[16.7062,68.9708,10.745],[16.7,68.9729,0.0],[16.6958,68.9708,8.5746],[16.6859,68.9703,10.0142],[16.6818,68.9661,0.0],[16.6849,68.9641,14.8007],[16.6833,68.9625,32.6013],[16.675,68.9625,0.0],[16.6708,68.9604,5.4005],[16.6625,68.9604,0.0],[16.6583,68.9583,0.0],[16.6479,68.9583,0.0],[16.6464,68.9568,0.0],[16.6495,68.9557,1.1233],[16.6484,68.9526,0.0],[16.6578,68.9516,0.0],[16.6526,68.9495,0.0],[16.6505,68.9464,0.0],[16.6563,68.9437,2.3129],[16.6688,68.9437,1.5574],[16.6745,68.9411,10.4936],[16.6724,68.938,16.2851],[16.6667,68.9375,0.0],[16.6651,68.9359,0.0],[16.6682,68.9349,4.8683],[16.6693,68.9318,21.2188],[16.6734,68.9297,8.8164],[16.6813,68.9292,0.0],[16.6974,68.9339,0.0],[16.7021,68.9375,12.7879],[16.7224,68.9422,0.0],[16.7234,68.9453,7.5373],[16.7391,68.9484,0.0],[16.7401,68.9516,3.1332],[16.762,68.9568,0.0],[16.7563,68.9604,0.0],[16.7422,68.9609,1.0762],[16.7432,68.9641,0.0],[16.7417,68.9646,0.0],[16.7188,68.9646,0.0],[16.7172,68.9651,4.2454],[16.7182,68.9672,0.0]]],
[[[16.5271,68.9542,6.9],[16.5151,68.9589,0.0],[16.5161,68.962,0.0],[16.5104,68.9646,0.0],[16.4896,68.9625,0.0],[16.4839,68.9578,31.6988],[16.4854,68.9563,59.9015],[16.4979,68.9563,94.6804],[16.5021,68.9542,159.6551],[16.5083,68.9542,111.5364],[16.5125,68.9521,153.9988],[16.5328,68.9526,9.802],[16.5313,68.9542,4.1426],[16.5271,68.9542,6.9]]],
[[[16.5667,69.0042,3.6658],[16.5651,69.0026,0.0],[16.5703,69.0026,7.1839],[16.5703,69.0037,18.4802],[16.5667,69.0042,3.6658]]],
[[[16.5557,69.0234,5.9699],[16.562,69.0307,0.0],[16.5521,69.0354,5.4024],[16.5083,69.0354,0.0],[16.5005,69.0328,1.5507],[16.5036,69.0297,0.0],[16.5,69.0271,0.0],[16.4875,69.0313,0.0],[16.4849,69.0276,0.0],[16.4792,69.0271,0.0],[16.4714,69.0234,0.0],[16.4917,69.0229,0.0],[16.4958,69.025,0.0],[16.5,69.0229,0.0],[16.5125,69.0229,0.0],[16.5141,69.0214,0.0],[16.5042,69.0208,0.0],[16.5,69.0188,9.8267],[16.4813,69.0188,0.0],[16.4771,69.0208,0.0],[16.4734,69.0203,0.0],[16.4766,69.0172,0.0],[16.4745,69.0151,13.273],[16.4693,69.0141,0.0],[16.4651,69.0099,0.0],[16.4682,69.0078,0.0],[16.4661,69.0047,20.1711],[16.4562,69.0042,0.0],[16.4464,69.0016,0.0],[16.4432,68.9964,34.8867],[16.4375,68.9958,0.0],[16.4359,68.9943,0.0],[16.4495,68.9912,3.8252],[16.4484,68.9859,0.0],[16.4604,68.9854,0.0],[16.4688,68.9812,0.0],[16.4771,68.9812,0.0],[16.4818,68.9849,0.0],[16.4917,68.9854,0.0],[16.4958,68.9875,2.7884],[16.5375,68.9875,73.3188],[16.5417,68.9854,0.0],[16.5495,68.9849,0.0],[16.5536,68.9828,1.5744],[16.5563,68.9792,0.0],[16.5766,68.9818,0.0],[16.5807,68.987,0.0],[16.5776,68.988,14.0347],[16.5786,68.9932,0.8269],[16.5714,68.9964,18.5202],[16.5724,68.9995,1.1215],[16.5521,69.0,0.0],[16.5479,68.9979,8.3482],[16.5396,68.9979,10.7555],[16.5297,69.0005,3.1243],[16.5297,69.0036,14.2957],[16.5349,69.0089,4.0541],[16.5359,69.012,9.2762],[16.5432,69.013,0.0],[16.5453,69.0151,0.0],[16.5453,69.0182,0.0],[16.5422,69.0203,0.0],[16.5557,69.0234,5.9699]]],
[[[16.5495,69.0609,0.0],[16.5516,69.0641,0.0],[16.5484,69.0651,0.0],[16.5495,69.0682,1.0419],[16.5396,69.0687,0.0],[16.538,69.0672,0.0],[16.5453,69.063,1.0914],[16.5187,69.0646,0.0],[16.5109,69.062,1.3588],[16.5141,69.0589,0.0],[16.5109,69.0547,0.0],[16.5187,69.0542,35.4609],[16.5229,69.0521,11.1218],[16.5354,69.0521,17.0797],[16.5396,69.05,0.0],[16.5464,69.0557,0.0],[16.5536,69.0568,0.0],[16.5484,69.0589,0.0],[16.5495,69.0609,0.0]]],
[[[16.4797,69.0745,0.0],[16.4813,69.0729,0.0],[16.4891,69.0734,0.0],[16.4875,69.075,2.1188],[16.4797,69.0745,0.0]]],
[[[16.5187,69.0792,0.0],[16.513,69.0797,2.6677],[16.5141,69.0828,0.0],[16.5099,69.0849,0.0],[16.5,69.0854,0.0],[16.4901,69.0828,0.0],[16.488,69.0776,0.0],[16.4958,69.0771,1.3552],[16.5016,69.0745,6.0165],[16.5,69.0729,1.4623],[16.4943,69.0724,0.0],[16.5,69.0687,0.0],[16.5187,69.0687,0.0],[16.5224,69.0714,1.1182],[16.5193,69.0745,0.0],[16.5224,69.0787,0.0],[16.5187,69.0792,0.0]]]]}
,"properties": {"GID_2": "NOR.17.4_1","GID_0": "NOR","country": "Norway","GID_1": "NOR.17_1","province": "Troms","NL_NAME_1": "NA","county": "Bjarkøy","VARNAME_2": "NA","NL_NAME_2": "NA","TYPE_2": "Kommuner","ENGTYPE_2": "Municipality","CC_2": "NA","HASC_2": "NO.TR.BJ","name": "Bjarkøy.county","area_km2": 72.61691,"hist_schema_id": "Elevation0-9000","hist_area_km2": {"0": 14.40135,"25": 12.31208,"50": 8.4011,"75": 5.08171,"100": 3.49999,"125": 2.64074,"150": 2.39003,"175": 1.81893,"200": 1.11857,"225": 0.80746,"250": 0.52591,"275": 0.64797,"300": 0.83836,"325": 0.66312,"350": 0.88397,"375": 0.78477,"400": 1.02064,"425": 1.16555,"450": 1.01326,"475": 1.36356,"500": 1.36368,"525": 1.21893,"550": 1.05904,"575": 0.8913,"600": 0.76192,"625": 0.7923,"650": 0.6172,"675": 0.8077,"700": 0.61707,"725": 0.62475,"750": 0.59439,"775": 0.47227,"800": 0.47229,"825": 0.28951,"850": 0.21338,"875": 0.1067,"900": 0.17532,"925": 0.09909,"950": 0.03812,"975": 0.02287}}}