{"type":"Feature","properties":{"GID_2":"NOR.7.18_1","GID_0":"NOR","country":"Norway","GID_1":"NOR.7_1","province":"Hordaland","NL_NAME_1":"NA","county":"Meland","VARNAME_2":"NA","NL_NAME_2":"NA","TYPE_2":"Kommuner","ENGTYPE_2":"Municipality","CC_2":"NA","HASC_2":"NO.HO.ME","name":"Meland.county"},
"geometry":{"type": "MultiPolygon","coordinates": [[[[4.9688,60.6125,24.5126],[4.9646,60.6146,6.3448],[4.9563,60.6146,7.9745],[4.9505,60.612,32.8601],[4.95,60.6083,44.2152],[4.9536,60.6057,16.2401],[4.9526,60.6026,0.0],[4.9599,60.6016,1.2213],[4.9693,60.5964,16.3595],[4.975,60.5958,28.7395],[4.9833,60.5917,0.0],[4.9932,60.5911,0.0],[4.9943,60.588,0.0],[5.0016,60.5849,22.1303],[5.0047,60.5818,0.0],[5.012,60.5807,29.6412],[5.013,60.5776,0.0],[5.0161,60.5766,17.1138],[5.0161,60.5714,1.8461],[5.0104,60.5729,20.7822],[5.0078,60.5693,7.8263],[5.0,60.5687,17.2494],[4.9984,60.5672,20.6935],[5.0068,60.563,0.0],[5.0141,60.562,16.8086],[5.0151,60.5568,0.0],[5.0208,60.5542,0.0],[5.025,60.5563,9.3773],[5.0349,60.5557,6.2176],[5.0297,60.5526,7.1832],[5.0354,60.55,0.0],[5.0411,60.5495,10.321],[5.0453,60.5474,13.949],[5.0464,60.5443,0.0],[5.0521,60.5417,21.2875],[5.0563,60.5417,26.0757],[5.0604,60.5396,16.1577],[5.0688,60.5396,23.2257],[5.0729,60.5375,0.0],[5.0854,60.5375,0.0],[5.0896,60.5396,14.4995],[5.0995,60.537,19.7239],[5.1104,60.5313,0.0],[5.1146,60.5333,34.7112],[5.1188,60.5313,0.0],[5.1286,60.5307,32.4048],[5.1333,60.5271,0.0],[5.1375,60.5292,40.4119],[5.1417,60.5271,0.0],[5.1625,60.525,53.2756],[5.1734,60.5193,0.0],[5.1875,60.5167,78.7619],[5.2,60.5104,0.0],[5.2083,60.5104,40.3226],[5.2208,60.5062,0.0],[5.2432,60.5089,0.0],[5.2443,60.512,0.0],[5.2474,60.513,4.474],[5.2495,60.5172,0.0],[5.2464,60.5193,21.4681],[5.2458,60.5229,56.3876],[5.2495,60.5255,0.0],[5.2505,60.5286,0.0],[5.2625,60.5333,14.1117],[5.2667,60.5313,0.0],[5.2724,60.5339,0.0],[5.2729,60.5354,0.0],[5.2723,60.5412,10.2585],[5.2646,60.5458,30.7666],[5.2563,60.5458,23.336],[5.2521,60.5479,15.7325],[5.2354,60.5479,119.0642],[5.2313,60.55,0.0],[5.2214,60.5505,36.5569],[5.2203,60.5557,0.0],[5.2146,60.5583,8.5665],[5.2089,60.5589,55.2827],[5.2057,60.562,11.2595],[5.1807,60.5745,0.0],[5.1734,60.5755,32.7977],[5.1745,60.5786,0.0],[5.1578,60.587,17.0809],[5.1521,60.5875,37.2223],[5.1438,60.5917,41.5794],[5.1229,60.5938,16.1329],[5.1188,60.5958,0.0],[5.1146,60.5938,49.2206],[5.1104,60.5958,25.2624],[5.0979,60.5958,25.7765],[5.0938,60.5979,25.8867],[5.0771,60.5979,17.5303],[5.0672,60.6005,0.0],[5.0641,60.6057,0.0],[5.05,60.6125,19.7761],[5.0417,60.6125,47.0336],[5.0333,60.6083,21.6489],[5.0188,60.6083,12.9795],[5.0146,60.6042,10.3446],[5.0104,60.6063,0.0],[5.0062,60.6042,13.4984],[5.0021,60.6063,0.0],[4.9896,60.6063,0.0],[4.9797,60.6089,19.4178],[4.9729,60.6125,11.6304],[4.9688,60.6125,24.5126]]],
[[[5.0813,60.6104,22.3638],[5.0813,60.6125,0.0],[5.075,60.6125,8.5469],[5.0693,60.6099,33.0175],[5.0688,60.6083,42.6151],[5.0708,60.6063,0.0],[5.0849,60.6047,21.6912],[5.0849,60.6078,24.2721],[5.0813,60.6104,22.3638]]]]}}