{"type": "Feature","bbox": [12.1464,65.7169,12.9134,66.0271],"geometry": {"type": "MultiPolygon","coordinates": [[[[12.2516,65.7536,7.5401],[12.2479,65.7542,4.0596],[12.2464,65.7526,0.0],[12.25,65.7521,11.9818],[12.2516,65.7536,7.5401]]],
[[[12.263,65.7786,5.2089],[12.2609,65.7734,0.0],[12.2688,65.7729,0.0],[12.2724,65.7755,8.9264],[12.2682,65.7786,5.7128],[12.263,65.7786,5.2089]]],
[[[12.2354,65.7896,5.361],[12.2318,65.7859,0.0],[12.237,65.7859,0.0],[12.237,65.7891,0.0],[12.2354,65.7896,5.361]]],
[[[12.2318,65.7974,0.0],[12.2375,65.7937,3.1216],[12.2453,65.7963,0.0],[12.2396,65.8,1.5292],[12.2339,65.7995,0.0],[12.2318,65.7974,0.0]]],
[[[12.2083,65.7667,3.5065],[12.2042,65.7667,20.4782],[12.2026,65.7651,0.0],[12.212,65.7651,0.0],[12.2083,65.7667,3.5065]]],
[[[12.2224,65.7901,8.7411],[12.2286,65.8016,0.0],[12.2255,65.8026,10.7088],[12.2266,65.8078,0.0],[12.2188,65.8083,5.1817],[12.2151,65.8057,0.0],[12.213,65.8016,0.0],[12.2161,65.7984,4.3164],[12.2083,65.7979,7.19],[12.2068,65.7963,10.5754],[12.2141,65.7953,10.3838],[12.2089,65.7922,4.1809],[12.2224,65.7901,8.7411]]],
[[[12.2146,65.8146,7.8629],[12.2151,65.813,0.0],[12.2208,65.8104,8.4485],[12.225,65.8146,0.0],[12.2229,65.8167,4.0398],[12.2167,65.8167,11.5563],[12.2146,65.8146,7.8629]]],
[[[12.1896,65.8229,2.666],[12.1859,65.8193,0.0],[12.1953,65.8193,0.0],[12.1995,65.8255,0.0],[12.1995,65.8287,3.8426],[12.1964,65.8287,1.3697],[12.1932,65.8234,4.8324],[12.1896,65.8229,2.666]]],
[[[12.2432,65.8026,0.0],[12.2432,65.8037,0.0],[12.2401,65.8037,0.0],[12.2401,65.8026,0.0],[12.2432,65.8026,0.0]]],
[[[12.2495,65.8141,0.0],[12.2458,65.8146,11.1416],[12.2443,65.813,0.0],[12.2479,65.8125,0.0],[12.2495,65.8141,0.0]]],
[[[12.2516,65.8182,0.0],[12.2479,65.8187,2.029],[12.2464,65.8172,6.3831],[12.25,65.8167,0.0],[12.2516,65.8182,0.0]]],
[[[12.2224,65.8214,0.0],[12.2224,65.8224,15.3994],[12.2193,65.8224,3.681],[12.2193,65.8214,0.0],[12.2224,65.8214,0.0]]],
[[[12.212,65.8307,9.4923],[12.2083,65.8313,0.0],[12.2068,65.8297,0.0],[12.2104,65.8292,0.0],[12.212,65.8307,9.4923]]],
[[[12.2,65.8417,0.0],[12.1964,65.8411,0.0],[12.1964,65.838,0.0],[12.2057,65.838,0.0],[12.2057,65.8411,0.0],[12.2,65.8417,0.0]]],
[[[12.1495,65.8505,8.449],[12.1495,65.8516,9.7229],[12.1464,65.8516,11.8225],[12.1464,65.8505,10.3594],[12.1495,65.8505,8.449]]],
[[[12.187,65.863,0.0],[12.1854,65.8646,0.0],[12.1792,65.8646,0.0],[12.175,65.8667,2.5708],[12.1609,65.862,1.157],[12.1604,65.8604,0.0],[12.163,65.8526,6.8413],[12.175,65.8521,8.0188],[12.1786,65.8568,15.4587],[12.1755,65.8599,2.4157],[12.1833,65.8604,0.0],[12.187,65.863,0.0]]],
[[[12.337,65.7307,6.7639],[12.3333,65.7312,3.8727],[12.3318,65.7297,0.0],[12.3354,65.7292,0.0],[12.337,65.7307,6.7639]]],
[[[12.3688,65.7396,0.0],[12.3651,65.7359,5.5524],[12.3703,65.7359,0.0],[12.3703,65.7391,0.0],[12.3688,65.7396,0.0]]],
[[[12.2974,65.8193,4.8912],[12.2974,65.8203,0.0],[12.2943,65.8203,0.0],[12.2943,65.8193,0.0],[12.2974,65.8193,4.8912]]],
[[[12.2875,65.825,0.0],[12.2839,65.8214,1.5526],[12.2932,65.8214,0.0],[12.2964,65.8245,0.0],[12.3016,65.8255,0.0],[12.3036,65.8328,0.0],[12.2943,65.8307,0.0],[12.2911,65.8255,0.0],[12.2875,65.825,0.0]]],
[[[12.3203,65.8141,0.0],[12.3255,65.8109,0.0],[12.3286,65.8109,0.0],[12.3313,65.8146,0.0],[12.3276,65.8182,24.21],[12.3411,65.8234,0.0],[12.3453,65.8318,13.5116],[12.3422,65.8339,25.8705],[12.3422,65.837,4.4365],[12.3474,65.838,0.0],[12.3495,65.8401,2.0236],[12.3521,65.8479,0.0],[12.3484,65.8516,3.1697],[12.3505,65.8536,7.6065],[12.3557,65.8547,0.0],[12.3557,65.8578,0.0],[12.3526,65.8599,3.2781],[12.3557,65.8662,4.4902],[12.3521,65.8667,7.4189],[12.3443,65.8641,0.0],[12.3432,65.8588,0.0],[12.338,65.8578,0.0],[12.3359,65.8557,0.0],[12.3396,65.8521,0.0],[12.3391,65.8505,6.9283],[12.3339,65.8495,0.0],[12.3318,65.8474,0.0],[12.3349,65.8443,0.0],[12.3297,65.8432,0.0],[12.3276,65.8391,0.0],[12.3307,65.837,3.3015],[12.3307,65.8339,20.4114],[12.3255,65.8328,14.4543],[12.3203,65.8255,5.9497],[12.3151,65.8245,0.0],[12.3188,65.8208,6.8006],[12.3172,65.8151,4.499],[12.3203,65.8141,0.0]]],
[[[12.2958,65.8396,1.6698],[12.2974,65.8391,0.0],[12.2964,65.8359,0.0],[12.2979,65.8354,0.0],[12.3078,65.838,0.0],[12.3021,65.8417,0.0],[12.2943,65.8411,2.5138],[12.2958,65.8396,1.6698]]],
[[[12.3089,65.8432,5.2545],[12.313,65.8401,1.615],[12.3167,65.8396,0.0],[12.3182,65.8401,0.0],[12.3208,65.8458,15.877],[12.3188,65.8479,0.0],[12.3125,65.8479,3.0024],[12.3109,65.8464,0.0],[12.3141,65.8443,0.0],[12.3089,65.8432,5.2545]]],
[[[12.3229,65.8604,8.8222],[12.3208,65.8562,0.0],[12.3229,65.8542,5.3848],[12.3276,65.8578,0.0],[12.3391,65.8609,0.0],[12.3359,65.8641,0.0],[12.3411,65.8651,0.0],[12.3411,65.8682,2.4128],[12.3318,65.8682,0.0],[12.3286,65.863,8.0225],[12.3234,65.862,0.0],[12.3229,65.8604,8.8222]]],
[[[12.4583,65.7625,0.0],[12.4641,65.763,0.0],[12.4651,65.7662,7.099],[12.4703,65.7672,0.0],[12.4734,65.7724,10.088],[12.4849,65.7755,0.0],[12.487,65.7776,0.0],[12.4901,65.7849,0.0],[12.4953,65.788,0.0],[12.4932,65.7932,0.0],[12.4901,65.7943,1.7082],[12.4911,65.7974,0.0],[12.488,65.7984,0.0],[12.488,65.8016,0.0],[12.4958,65.8021,0.0],[12.4974,65.8037,3.6965],[12.4917,65.8063,3.0501],[12.4875,65.8063,17.7086],[12.4734,65.8016,0.0],[12.4703,65.7963,29.2048],[12.4625,65.7937,20.7266],[12.45,65.7937,4.4683],[12.4458,65.7917,6.272],[12.4396,65.7917,0.0],[12.4349,65.788,21.6022],[12.4068,65.7786,0.0],[12.4016,65.7714,0.0],[12.3964,65.7703,0.0],[12.3958,65.7688,0.0],[12.3964,65.7672,4.3796],[12.4036,65.7662,0.0],[12.4016,65.7589,0.0],[12.3901,65.7578,0.0],[12.387,65.7505,0.0],[12.3755,65.7464,3.1352],[12.3786,65.7453,2.526],[12.3797,65.7422,0.0],[12.3854,65.7417,11.2904],[12.3995,65.7464,4.0491],[12.4026,65.7495,0.0],[12.4089,65.7516,16.8607],[12.4182,65.7526,0.0],[12.4214,65.7578,8.3958],[12.4328,65.7609,0.0],[12.4354,65.7646,8.0772],[12.4458,65.7604,0.0],[12.4521,65.7604,0.0],[12.4583,65.7625,0.0]]],
[[[12.5995,65.7797,132.0578],[12.5974,65.7776,138.8268],[12.592,65.7764,22.7574],[12.6029,65.7769,289.3488],[12.6017,65.7811,154.0597],[12.5995,65.7797,132.0578]]],
[[[12.575,65.8021,0.0],[12.5792,65.8125,7.3944],[12.5771,65.8167,4.7445],[12.5792,65.8229,0.0],[12.5771,65.8292,0.0],[12.5813,65.8375,0.0],[12.5792,65.8396,0.0],[12.575,65.8375,9.7651],[12.5672,65.837,90.2719],[12.562,65.8297,210.0997],[12.5401,65.8245,56.1345],[12.5328,65.8193,118.9162],[12.5276,65.8182,18.9396],[12.5234,65.8109,0.0],[12.5292,65.8083,0.0],[12.5396,65.8104,0.0],[12.5411,65.8099,0.0],[12.5411,65.8068,18.965],[12.5255,65.8057,21.6067],[12.5234,65.8005,0.0],[12.5266,65.7995,5.8019],[12.5266,65.7963,20.4389],[12.5245,65.7922,26.1741],[12.5193,65.7911,7.6513],[12.5167,65.7875,0.0],[12.5172,65.7859,0.0],[12.5271,65.7833,25.0662],[12.5333,65.7833,7.2376],[12.5411,65.7859,0.0],[12.5443,65.7932,10.4261],[12.5495,65.7943,0.0],[12.5526,65.7974,2.7101],[12.5557,65.7974,0.0],[12.5583,65.7937,5.8945],[12.5646,65.7937,4.9401],[12.5693,65.7995,12.3734],[12.5745,65.8005,0.0],[12.575,65.8021,0.0]]],
[[[12.7587,65.7208,722.5378],[12.7725,65.7214,817.0843],[12.7737,65.7169,774.8606],[12.7954,65.7179,747.4304],[12.7917,65.7313,670.4167],[12.8025,65.7318,602.1944],[12.8013,65.7363,656.3816],[12.823,65.7373,570.204],[12.8218,65.7417,576.0781],[12.8543,65.7432,327.9389],[12.8531,65.7477,546.079],[12.8965,65.7496,320.3797],[12.8953,65.7541,369.7745],[12.9062,65.7546,331.4748],[12.9025,65.768,523.697],[12.9134,65.7685,378.7588],[12.906,65.7953,276.561],[12.8952,65.7948,378.7188],[12.8927,65.8037,484.7346],[12.8818,65.8033,502.5722],[12.8794,65.8122,526.9989],[12.8685,65.8117,559.609],[12.8648,65.8251,629.6758],[12.8539,65.8246,567.4103],[12.8527,65.8291,591.9365],[12.8418,65.8286,511.4816],[12.8406,65.8331,515.1497],[12.8188,65.8321,405.8368],[12.8175,65.8365,465.3472],[12.8066,65.836,347.6572],[12.8054,65.8405,526.7805],[12.7945,65.84,286.9786],[12.792,65.8489,553.9621],[12.8029,65.8494,622.4773],[12.8004,65.8584,656.0709],[12.8113,65.8589,452.8779],[12.8088,65.8678,543.3426],[12.8198,65.8683,331.7528],[12.8173,65.8772,361.4053],[12.8609,65.8792,526.8963],[12.8622,65.8747,447.4461],[12.9058,65.8767,286.9594],[12.9009,65.8946,252.8376],[12.89,65.8941,346.4079],[12.8887,65.8986,299.8379],[12.8778,65.8981,152.519],[12.8766,65.9025,260.4223],[12.8657,65.902,117.4442],[12.8644,65.9065,139.0477],[12.8535,65.906,120.5421],[12.8523,65.9105,438.6485],[12.8632,65.911,447.0229],[12.8619,65.9154,465.7953],[12.8729,65.9159,476.6736],[12.8704,65.9249,266.9218],[12.8813,65.9254,273.6933],[12.8801,65.9298,302.1426],[12.891,65.9303,405.3072],[12.8886,65.9393,157.444],[12.8776,65.9388,186.6056],[12.8739,65.9522,78.2266],[12.8849,65.9527,121.8001],[12.8833,65.9584,132.8872],[12.8792,65.9604,51.0662],[12.875,65.9583,7.0354],[12.8672,65.9589,25.7511],[12.8672,65.962,15.4448],[12.8745,65.9661,0.0],[12.8714,65.9672,0.0],[12.8724,65.9703,0.0],[12.8641,65.9745,0.0],[12.8604,65.975,0.0],[12.85,65.9708,0.0],[12.8474,65.9745,0.0],[12.8396,65.975,0.0],[12.825,65.9708,108.1348],[12.8167,65.9708,0.0],[12.8047,65.9661,0.0],[12.8016,65.963,0.0],[12.7901,65.9599,2.3659],[12.7891,65.9568,120.9917],[12.7813,65.9542,72.5539],[12.7714,65.9537,0.0],[12.7745,65.9505,165.9154],[12.7604,65.9458,294.1543],[12.7479,65.9458,64.5445],[12.7396,65.9417,118.4439],[12.7297,65.9411,0.0],[12.7297,65.938,9.0216],[12.7328,65.9359,10.3211],[12.7292,65.9333,115.5641],[12.7214,65.9339,0.0],[12.7224,65.937,0.0],[12.7208,65.9375,3.577],[12.7146,65.9375,0.0],[12.7042,65.9333,16.5253],[12.6943,65.9328,0.0],[12.6932,65.9297,166.6566],[12.6755,65.9245,91.1675],[12.6745,65.9213,191.3793],[12.6693,65.9203,109.5037],[12.6641,65.913,44.047],[12.6589,65.912,17.4893],[12.6578,65.9089,42.5854],[12.6464,65.9057,0.0],[12.6443,65.9036,0.0],[12.6443,65.9005,17.1574],[12.6474,65.8984,14.9427],[12.6422,65.8974,0.0],[12.6396,65.8938,0.0],[12.6432,65.8912,14.8357],[12.6422,65.8859,1.7413],[12.6479,65.8854,58.6296],[12.6495,65.8839,100.7566],[12.6401,65.8828,0.0],[12.6318,65.8682,0.0],[12.6354,65.8646,8.3323],[12.6339,65.8609,0.0],[12.6417,65.8604,0.0],[12.6458,65.8583,68.5708],[12.6604,65.8583,65.2936],[12.662,65.8568,108.4499],[12.6542,65.8542,364.7227],[12.6479,65.8542,272.6496],[12.6396,65.8583,38.1174],[12.6318,65.8557,28.5835],[12.6286,65.8526,0.0],[12.6234,65.8516,27.117],[12.6224,65.8484,44.4119],[12.6068,65.8474,0.0],[12.6068,65.8443,7.2212],[12.6099,65.8422,27.3939],[12.6047,65.8401,5.6775],[12.6078,65.838,37.6937],[12.6026,65.837,0.0],[12.5984,65.8307,0.0],[12.6016,65.8287,27.2689],[12.6,65.8229,0.0],[12.6036,65.8203,11.7172],[12.6026,65.8172,0.0],[12.6042,65.8167,0.0],[12.6182,65.8172,0.0],[12.6193,65.8203,0.0],[12.6245,65.8214,0.0],[12.6271,65.825,12.9446],[12.6333,65.8229,0.0],[12.6438,65.8229,0.0],[12.6479,65.825,0.0],[12.6646,65.825,0.0],[12.6661,65.8245,0.0],[12.6651,65.8214,0.0],[12.6729,65.8187,0.0],[12.6797,65.8287,0.0],[12.6849,65.8297,0.0],[12.6813,65.8333,0.0],[12.6839,65.8391,0.0],[12.6875,65.8396,0.0],[12.6932,65.837,9.7211],[12.6917,65.8333,0.0],[12.6953,65.8297,9.9306],[12.6922,65.8245,6.9733],[12.6922,65.8214,0.0],[12.7036,65.8161,11.3751],[12.7026,65.813,0.0],[12.7151,65.8068,0.0],[12.7286,65.8057,12.9095],[12.7266,65.8005,36.958],[12.7188,65.7979,74.9411],[12.7068,65.8005,49.8702],[12.7,65.8042,0.0],[12.6922,65.8037,5.9472],[12.6901,65.7995,11.025],[12.6984,65.7943,0.0],[12.7042,65.7937,11.632],[12.7099,65.7911,20.8811],[12.7068,65.7818,0.0],[12.7104,65.7813,6.7824],[12.7146,65.7833,7.4572],[12.7203,65.7807,6.2586],[12.7203,65.7776,21.8274],[12.7063,65.7771,0.0],[12.688,65.7818,8.7827],[12.687,65.7849,0.0],[12.6839,65.7859,32.0698],[12.6849,65.7891,0.0],[12.6818,65.7901,0.0],[12.6833,65.7958,0.0],[12.6797,65.7984,4.3393],[12.6807,65.8016,0.0],[12.6734,65.8068,0.0],[12.6745,65.812,2.8354],[12.6688,65.8146,0.0],[12.6646,65.8125,45.6998],[12.6464,65.8141,5.1749],[12.6464,65.8109,80.879],[12.6495,65.8089,159.0514],[12.6443,65.8078,216.2498],[12.6396,65.8021,303.1022],[12.6271,65.8021,191.3068],[12.6229,65.8042,125.1171],[12.6188,65.8021,141.4772],[12.6109,65.8016,2.5852],[12.6068,65.7953,27.1714],[12.6099,65.7922,37.2235],[12.6047,65.7901,0.0],[12.612,65.787,203.8369],[12.6125,65.7854,314.4868],[12.612,65.7839,368.5971],[12.6049,65.7815,240.6019],[12.6125,65.7818,398.8664],[12.6138,65.7774,428.374],[12.6246,65.7779,514.2606],[12.6259,65.7734,315.8433],[12.6476,65.7744,499.2874],[12.6489,65.77,618.2642],[12.6597,65.7705,556.5574],[12.661,65.766,701.0606],[12.6719,65.7665,696.7294],[12.6744,65.7576,477.4483],[12.6853,65.7581,471.1853],[12.6878,65.7492,430.4334],[12.6986,65.7497,480.2604],[12.7011,65.7407,546.8738],[12.712,65.7412,578.911],[12.7145,65.7323,463.558],[12.7253,65.7328,517.489],[12.7278,65.7239,681.5826],[12.7495,65.7249,692.5519],[12.7508,65.7204,611.4793],[12.7587,65.7208,722.5378]]],
[[[12.3359,65.8734,0.0],[12.3417,65.8708,0.0],[12.3495,65.8745,0.0],[12.3464,65.8755,0.0],[12.3438,65.8792,10.5066],[12.3359,65.8766,0.0],[12.3359,65.8734,0.0]]],
[[[12.375,65.9333,6.1169],[12.3651,65.9339,0.0],[12.3625,65.9375,0.0],[12.3458,65.9375,0.0],[12.3417,65.9333,7.8857],[12.3229,65.9333,0.0],[12.3188,65.9292,6.3204],[12.3109,65.9307,0.0],[12.3078,65.9255,7.2392],[12.3026,65.9245,0.0],[12.3005,65.9193,8.3323],[12.3099,65.9182,0.0],[12.3047,65.9151,0.0],[12.3104,65.9125,0.0],[12.3146,65.9146,5.5434],[12.3224,65.9141,0.0],[12.3224,65.9109,3.5346],[12.3203,65.9089,3.2376],[12.3151,65.9078,2.3058],[12.3141,65.9047,7.635],[12.3026,65.9016,0.0],[12.2995,65.8964,2.4668],[12.2818,65.8912,0.0],[12.2807,65.888,0.0],[12.2568,65.8807,0.0],[12.2495,65.8672,0.0],[12.2417,65.8667,0.0],[12.238,65.8641,0.0],[12.2359,65.8588,0.0],[12.2396,65.8562,0.0],[12.2349,65.8464,0.0],[12.2234,65.8432,0.0],[12.2214,65.8411,0.0],[12.2193,65.8339,0.0],[12.2474,65.8401,0.0],[12.2495,65.8453,0.0],[12.2464,65.8474,10.7974],[12.2557,65.8505,4.306],[12.2609,65.8599,0.0],[12.2661,65.8609,0.0],[12.2682,65.863,0.0],[12.2651,65.8662,10.7736],[12.2729,65.8667,0.0],[12.2771,65.8646,0.4967],[12.2833,65.8646,13.2419],[12.2911,65.8672,0.0],[12.2943,65.8766,2.789],[12.2995,65.8776,0.9572],[12.3016,65.8797,0.0],[12.3,65.8812,2.7099],[12.2922,65.8818,1.4534],[12.2984,65.8932,0.0],[12.3063,65.8958,0.0],[12.3182,65.8953,0.0],[12.313,65.8932,0.0],[12.3104,65.8875,0.0],[12.3125,65.8854,7.4953],[12.3172,65.8891,0.0],[12.3224,65.8901,0.0],[12.3234,65.8932,0.0],[12.3349,65.8964,0.0],[12.3234,65.9026,4.9589],[12.3255,65.9057,0.0],[12.3286,65.9068,0.0],[12.3255,65.9099,0.0],[12.3391,65.9151,0.0],[12.3417,65.9187,2.6905],[12.3453,65.9182,0.0],[12.3443,65.9151,0.0],[12.3484,65.913,2.3246],[12.3536,65.913,0.0],[12.3547,65.9161,3.6848],[12.3599,65.9172,0.0],[12.362,65.9193,0.0],[12.3651,65.9245,0.0],[12.3703,65.9255,0.0],[12.3714,65.9287,0.0],[12.3766,65.9297,0.0],[12.3766,65.9328,0.0],[12.375,65.9333,6.1169]]],
[[[12.3354,65.8917,0.0],[12.3318,65.888,10.4014],[12.3349,65.888,0.0],[12.337,65.8901,11.2546],[12.3354,65.8917,0.0]]],
[[[12.2495,65.8234,0.0],[12.2484,65.8214,0.0],[12.2536,65.8214,0.0],[12.2547,65.8245,15.2764],[12.2599,65.8255,0.0],[12.262,65.8276,0.0],[12.2646,65.8333,13.6201],[12.263,65.8391,26.6483],[12.2661,65.8401,0.0],[12.2682,65.8432,0.0],[12.2563,65.8438,0.0],[12.2526,65.8411,0.0],[12.25,65.8354,0.0],[12.2536,65.8318,0.0],[12.2516,65.8297,0.0],[12.2464,65.8287,0.0],[12.2458,65.8271,0.0],[12.2495,65.8234,0.0]]],
[[[12.2292,65.9104,0.9606],[12.2276,65.9068,0.7884],[12.2354,65.9063,0.0],[12.2432,65.9089,0.0],[12.2458,65.9125,2.835],[12.2438,65.9146,6.4136],[12.2375,65.9146,0.0],[12.2297,65.912,0.0],[12.2292,65.9104,0.9606]]],
[[[12.2935,65.9208,6.9597],[12.2875,65.9187,10.5257],[12.2854,65.9208,0.0],[12.2859,65.9224,0.0],[12.2911,65.9234,0.0],[12.2995,65.9287,8.2302],[12.2854,65.9292,0.0],[12.2776,65.9266,0.0],[12.2724,65.9172,0.0],[12.2604,65.9187,0.0],[12.2589,65.9182,0.3307],[12.2568,65.913,3.4105],[12.2703,65.912,0.0],[12.2703,65.9089,2.6993],[12.2651,65.9078,0.0],[12.263,65.9047,0.0],[12.2708,65.9042,0.0],[12.2797,65.9099,0.0],[12.2849,65.9109,0.0],[12.288,65.9141,0.0],[12.2995,65.9172,0.0],[12.2935,65.9208,6.9597]]],
[[[12.1693,65.8703,0.0],[12.1693,65.8672,1.284],[12.1708,65.8667,0.0],[12.1745,65.8693,3.7956],[12.1729,65.8708,0.7427],[12.1693,65.8703,0.0]]],
[[[12.2057,65.8849,11.2158],[12.2026,65.8849,0.0],[12.2026,65.8839,0.0],[12.2057,65.8839,6.118],[12.2057,65.8849,11.2158]]],
[[[12.2083,65.8917,0.0],[12.2047,65.8912,3.927],[12.2047,65.8901,1.1117],[12.2099,65.8901,0.0],[12.2083,65.8917,0.0]]],
[[[12.5229,65.8562,3.1174],[12.5193,65.8557,2.6621],[12.5193,65.8547,10.584],[12.5245,65.8547,2.0989],[12.5229,65.8562,3.1174]]],
[[[12.6078,65.8588,23.1049],[12.6063,65.8563,0.0],[12.6083,65.8542,0.0],[12.613,65.8578,0.0],[12.6182,65.8588,0.0],[12.6193,65.862,6.1259],[12.6245,65.8641,0.0],[12.6047,65.8641,0.0],[12.6078,65.862,0.0],[12.6078,65.8588,23.1049]]],
[[[12.5932,65.862,14.4483],[12.5974,65.8609,0.0],[12.6005,65.8662,25.5073],[12.6083,65.8688,0.0],[12.6224,65.8693,0.0],[12.6193,65.8724,0.0],[12.6224,65.8786,23.0748],[12.6172,65.8786,10.5205],[12.6141,65.8714,13.048],[12.5938,65.8688,0.0],[12.5891,65.8651,-1.0],[12.5839,65.8641,2.7468],[12.5854,65.8625,3.9273],[12.5932,65.862,14.4483]]],
[[[12.6917,65.9583,0.0],[12.6983,65.9619,0.0],[12.6829,65.9616,165.1456],[12.6803,65.9705,264.7927],[12.6913,65.971,494.8746],[12.69,65.9755,624.0302],[12.701,65.976,538.5413],[12.6997,65.9805,636.1155],[12.7216,65.9815,327.963],[12.7203,65.9859,537.1172],[12.7313,65.9864,379.3591],[12.73,65.9909,559.4985],[12.7519,65.9919,538.5182],[12.7507,65.9964,683.8859],[12.7616,65.9969,291.2068],[12.7604,66.0013,461.8907],[12.7823,66.0023,455.6656],[12.7798,66.0113,494.6077],[12.7688,66.0108,367.5484],[12.7676,66.015,193.0334],[12.7646,66.0167,43.5181],[12.7583,66.0104,447.6843],[12.7521,66.0125,244.2999],[12.7443,66.0099,419.3285],[12.7396,66.0062,621.9891],[12.7255,66.0057,411.1948],[12.7229,66.0021,554.3166],[12.7146,66.0021,438.0133],[12.7104,66.0,505.6349],[12.6938,66.0,104.0099],[12.6833,65.9958,120.7083],[12.6771,65.9958,53.4336],[12.6693,65.9932,45.7642],[12.6672,65.9901,82.1743],[12.6708,65.9896,172.9515],[12.675,65.9917,148.0146],[12.6766,65.9912,161.0424],[12.6766,65.988,324.4105],[12.6745,65.9859,476.6156],[12.6604,65.9812,736.7053],[12.6458,65.9833,256.4353],[12.6443,65.9838,180.9864],[12.6453,65.987,19.3223],[12.6375,65.9875,3.1278],[12.6359,65.9859,0.0],[12.639099999999999,65.9838,88.9746],[12.6354,65.9812,219.272],[12.6312,65.9833,16.2747],[12.6208,65.9833,0.0],[12.6188,65.9854,0.0],[12.6208,65.9875,9.582],[12.6292,65.9875,0.0],[12.637,65.9901,0.0],[12.6333,65.9938,3.9942],[12.6359,65.9995,0.0],[12.6474,66.0026,0.0],[12.6547,66.0078,3.6982],[12.6599,66.0089,0.0],[12.663,66.0141,4.6569],[12.6995,66.0266,4.7825],[12.6875,66.0271,0.0],[12.6813,66.025,0.0],[12.6771,66.0271,0.0],[12.6729,66.025,3.945],[12.6604,66.025,0.0],[12.65,66.0208,6.9355],[12.6458,66.0229,0.0],[12.6292,66.0229,0.0],[12.625,66.0208,9.4223],[12.6063,66.0208,0.0],[12.6021,66.0188,7.8701],[12.5943,66.0182,0.0],[12.587,66.013,0.0],[12.5542,66.0021,25.8549],[12.5443,66.0016,0.0],[12.5417,65.9979,31.6558],[12.5318,65.9974,0.0],[12.5307,65.9943,34.6422],[12.5214,65.9932,0.0],[12.5182,65.988,19.8536],[12.5083,65.9875,0.0],[12.5057,65.9838,4.4441],[12.488,65.9786,0.0],[12.4849,65.9735,7.9219],[12.4797,65.9724,0.0],[12.4776,65.9703,0.0],[12.4766,65.9672,0.0],[12.4714,65.9661,0.0],[12.4682,65.9609,18.7736],[12.4568,65.9578,0.0],[12.4542,65.9521,0.0],[12.4578,65.9484,-0.3559],[12.4536,65.9422,-0.2807],[12.4484,65.9411,0.0],[12.4479,65.9396,0.0],[12.4484,65.938,0.5765],[12.4557,65.9349,3.2784],[12.4547,65.9318,0.0],[12.4583,65.9292,0.0],[12.4557,65.9255,0.0],[12.45,65.9271,0.0],[12.4333,65.9271,0.0],[12.4271,65.9208,3.7924],[12.4234,65.9213,7.8187],[12.4245,65.9245,9.7654],[12.4229,65.925,11.2087],[12.4125,65.925,0.0],[12.4047,65.9224,0.0],[12.4078,65.9193,4.5523],[12.4057,65.9172,11.5973],[12.4005,65.9161,0.0],[12.3995,65.913,11.9702],[12.3943,65.912,0.0],[12.3911,65.9089,0.0],[12.3797,65.9057,0.0],[12.3797,65.9026,0.0],[12.3828,65.9016,14.6505],[12.3818,65.8964,0.0],[12.3953,65.8953,7.7081],[12.3901,65.8922,0.0],[12.3974,65.8891,34.6673],[12.3859,65.8839,0.0],[12.3917,65.8812,4.2058],[12.4021,65.8854,1.2682],[12.412,65.8859,0.0],[12.4146,65.8896,0.3387],[12.4229,65.8896,0.1125],[12.4375,65.8938,2.088],[12.4542,65.8938,2.5206],[12.4583,65.8958,5.6456],[12.5167,65.8979,0.0],[12.5224,65.8943,0.9688],[12.5005,65.8891,0.0],[12.5036,65.887,0.0],[12.5016,65.8818,0.0],[12.4833,65.8812,0.0],[12.4818,65.8807,0.0],[12.4828,65.8776,0.0],[12.4771,65.875,0.0],[12.4688,65.875,0.2467],[12.4583,65.8708,9.084],[12.4542,65.8729,0.4476],[12.4401,65.8724,0.0],[12.437,65.8651,1.9183],[12.4255,65.862,0.0],[12.4286,65.8599,0.0],[12.4271,65.8583,0.0],[12.4146,65.8583,0.0],[12.4042,65.8542,3.6107],[12.3958,65.8583,0.0],[12.3922,65.8578,0.0],[12.3917,65.8542,0.0],[12.3932,65.8505,0.0],[12.3901,65.8495,0.0],[12.3875,65.8458,0.0],[12.3911,65.8432,10.6152],[12.3896,65.8396,3.8922],[12.3932,65.8359,6.5827],[12.388,65.8339,0.0],[12.3953,65.8297,11.5478],[12.3932,65.8276,0.0],[12.388,65.8266,0.0],[12.3911,65.8234,3.4526],[12.3859,65.8214,0.0],[12.3958,65.8167,0.0],[12.4021,65.8167,3.1148],[12.4063,65.8146,0.0],[12.4167,65.8146,0.0],[12.4208,65.8167,9.9028],[12.4286,65.8172,0.0],[12.4255,65.8203,9.1509],[12.4333,65.8229,0.0],[12.4396,65.8229,2.1117],[12.4438,65.8208,0.0],[12.4542,65.825,0.0],[12.4604,65.8229,0.0],[12.4651,65.8266,13.4718],[12.4703,65.8276,0.0],[12.4672,65.8307,0.0],[12.4828,65.8318,0.0],[12.4901,65.837,1.4848],[12.4953,65.838,0.0],[12.4953,65.8411,0.0],[12.488,65.8453,0.0],[12.5083,65.8458,11.4646],[12.5104,65.8479,12.3524],[12.5099,65.8495,2.3098],[12.5026,65.8505,0.0],[12.5078,65.8526,0.0],[12.5099,65.8578,4.1441],[12.5042,65.8604,1.1965],[12.4875,65.8583,0.0],[12.4859,65.8588,0.0],[12.4859,65.862,0.0],[12.488,65.8641,0.7081],[12.4932,65.8651,0.0],[12.4943,65.8682,3.421],[12.5203,65.8776,0.0],[12.5234,65.8849,0.0],[12.5411,65.8901,0.0],[12.5432,65.8953,0.0],[12.5401,65.8974,0.0],[12.5516,65.9005,0.0],[12.5542,65.9042,0.0],[12.5641,65.9047,0.0],[12.5651,65.9078,3.7181],[12.5703,65.9089,0.0],[12.5734,65.912,0.0],[12.5839,65.9161,15.191],[12.5953,65.9172,0.0],[12.5964,65.9203,6.0216],[12.6016,65.9213,0.0],[12.5984,65.9245,2.9751],[12.6036,65.9255,0.0],[12.6068,65.9287,0.0],[12.6161,65.9297,0.0],[12.6208,65.9333,0.0],[12.6286,65.9339,0.0],[12.6359,65.9391,0.0],[12.6536,65.9443,0.0],[12.6568,65.9474,0.0],[12.6807,65.9547,0.0],[12.6818,65.9578,33.1301],[12.6917,65.9583,0.0]]],
[[[12.3984,65.9537,0.0],[12.3984,65.9505,4.4763],[12.4,65.95,0.0],[12.4036,65.9526,2.0856],[12.4021,65.9542,6.9063],[12.3984,65.9537,0.0]]],
[[[12.4042,65.9646,0.0],[12.4026,65.9609,9.5676],[12.4063,65.9604,0.0],[12.4078,65.9609,0.0],[12.4099,65.9661,7.4903],[12.4063,65.9667,0.0],[12.4042,65.9646,0.0]]],
[[[12.7208,66.0104,64.1445],[12.7172,66.0099,0.0],[12.7172,66.0089,0.0],[12.7224,66.0089,116.1511],[12.7208,66.0104,64.1445]]]]}
,"properties": {"GID_2": "NOR.10.1_1","GID_0": "NOR","country": "Norway","GID_1": "NOR.10_1","province": "Nordland","NL_NAME_1": "NA","county": "Alstahaug","VARNAME_2": "NA","NL_NAME_2": "NA","TYPE_2": "Kommuner","ENGTYPE_2": "Municipality","CC_2": "NA","HASC_2": "NO.NO.AL","name": "Alstahaug.county","area_km2": 437.0499,"hist_schema_id": "Elevation0-9000","hist_area_km2": {"0": 72.043,"25": 48.0398,"50": 28.4532,"75": 18.8294,"100": 19.276,"125": 13.4685,"150": 10.1953,"175": 9.1154,"200": 10.446,"225": 9.186,"250": 10.2779,"275": 10.3894,"300": 11.2456,"325": 10.7941,"350": 10.191,"375": 9.7146,"400": 9.8454,"425": 10.4775,"450": 10.8731,"475": 10.2978,"500": 9.6477,"525": 9.6247,"550": 8.1731,"575": 8.1941,"600": 6.9078,"625": 7.1509,"650": 6.6309,"675": 5.7359,"700": 5.6576,"725": 5.5112,"750": 5.3736,"775": 4.0101,"800": 3.0811,"825": 3.1945,"850": 1.8916,"875": 0.9794,"900": 0.546,"925": 0.4338,"950": 0.3904,"975": 0.2606,"1000": 0.1478,"1025": 0.087,"1050": 0.0696,"1075": 0.0522,"1100": 0.0609,"1125": 0.0783}}}