{"type": "Feature","bbox": [4.6943,60.75,4.7474,60.7849],"geometry": {"type": "MultiPolygon","coordinates": [[[[4.7006,60.7838,11.6989],[4.6964,60.7849,2.1086],[4.6943,60.7776,13.4816],[4.7016,60.7745,15.5508],[4.7021,60.7687,16.2575],[4.7005,60.7651,16.1949],[4.7078,60.7599,0.9442],[4.713,60.7526,6.6548],[4.7229,60.7521,11.2815],[4.7271,60.75,0.0],[4.7411,60.7547,0.0],[4.7422,60.7599,9.6049],[4.7474,60.7609,5.8886],[4.7443,60.763,4.6409],[4.7432,60.7682,0.0],[4.7401,60.7693,0.0],[4.7401,60.7724,3.5841],[4.7432,60.7734,0.0],[4.7411,60.7786,0.0],[4.7354,60.7792,11.9829],[4.7271,60.7833,9.5913],[4.7146,60.7833,2.1054],[4.7104,60.7813,2.8017],[4.7006,60.7838,11.6989]]]]}
,"properties": {"GID_2": "NOR.7.8_1","GID_0": "NOR","country": "Norway","GID_1": "NOR.7_1","province": "Hordaland","NL_NAME_1": "NA","county": "Fedje","VARNAME_2": "NA","NL_NAME_2": "NA","TYPE_2": "Kommuner","ENGTYPE_2": "Municipality","CC_2": "NA","HASC_2": "NO.HO.FE","name": "Fedje.county","area_km2": 7.113175,"hist_schema_id": "Elevation0-9000","hist_area_km2": {"0": 3.074879,"25": 4.038296}}}