{"type":"Feature","properties":{"GID_2":"NOR.15.14_1","GID_0":"NOR","country":"Norway","GID_1":"NOR.15_1","province":"Sør-Trøndelag","NL_NAME_1":"NA","county":"Orkdal","VARNAME_2":"NA","NL_NAME_2":"NA","TYPE_2":"Kommuner","ENGTYPE_2":"Municipality","CC_2":"NA","HASC_2":"NO.ST.OK","name":"Orkdal.county"},
"geometry":{"type": "MultiPolygon","coordinates": [[[[9.4639,63.1766,260.5493],[9.5032,63.1794,457.0314],[9.5016,63.1839,470.0588],[9.5409,63.1867,281.1243],[9.5425,63.1823,244.5654],[9.5523,63.183,196.0],[9.5539,63.1786,203.9067],[9.5736,63.18,205.8536],[9.5752,63.1756,219.83],[9.585,63.1763,252.0559],[9.5866,63.1718,270.1872],[9.5965,63.1725,308.5731],[9.6012,63.1592,354.2544],[9.6111,63.16,328.6659],[9.6127,63.1555,372.1221],[9.6323,63.1569,368.8314],[9.6355,63.1481,189.8968],[9.7141,63.1537,154.0376],[9.7157,63.1493,138.0236],[9.7353,63.1507,329.9626],[9.7369,63.1462,350.0494],[9.7565,63.1476,327.2668],[9.7581,63.1432,274.3965],[9.7974,63.146,182.8309],[9.7959,63.1504,224.6874],[9.8253,63.1525,281.3974],[9.8269,63.1481,342.6167],[9.8466,63.1495,320.8016],[9.8481,63.145,350.1914],[9.8678,63.1464,275.2911],[9.8693,63.142,301.4962],[9.8791,63.1427,278.3524],[9.876,63.1515,280.5593],[9.8859,63.1522,330.6068],[9.8843,63.1567,353.0568],[9.8942,63.1574,355.391],[9.8926,63.1618,384.1378],[9.9024,63.1625,424.7455],[9.9009,63.1669,501.2949],[9.9107,63.1676,502.1455],[9.9076,63.1765,456.9337],[9.9175,63.1772,496.3478],[9.9128,63.1905,418.5046],[9.9227,63.1912,434.3354],[9.9103,63.2266,390.7087],[9.9004,63.226,441.1889],[9.888,63.2614,325.157],[9.8978,63.2621,333.1468],[9.8947,63.271,337.4271],[9.9046,63.2717,321.8669],[9.9015,63.2806,322.7075],[9.9114,63.2813,306.1573],[9.9082,63.2901,276.9405],[9.9181,63.2908,269.4253],[9.9054,63.3271,72.1105],[9.8958,63.3271,0.0],[9.8932,63.3234,66.6863],[9.8813,63.3208,6.2104],[9.8646,63.3146,1.7609],[9.8417,63.3167,2.3873],[9.8391,63.313,3.2014],[9.8354,63.3125,5.1287],[9.8339,63.313,0.0],[9.8349,63.3161,3.3556],[9.8307,63.3182,0.0],[9.8229,63.3167,0.0],[9.8214,63.3182,0.0],[9.8234,63.3224,0.0],[9.8443,63.3307,12.0164],[9.8687,63.3396,56.4732],[9.875,63.3396,0.0],[9.8833,63.3437,0.0],[9.8896,63.3437,0.0],[9.9042,63.35,10.6498],[9.912,63.3505,0.0],[9.913,63.3536,8.9534],[9.9182,63.3547,0.0],[9.9193,63.3578,0.0],[9.9245,63.3589,0.0],[9.9255,63.3641,36.7622],[9.9307,63.3651,0.0],[9.9318,63.3682,0.0],[9.937,63.3693,0.0],[9.938,63.3724,2.8118],[9.9432,63.3734,0.0],[9.9464,63.3828,19.5292],[9.9515999999999991,63.3839,0.0],[9.9547,63.3953,7.2889],[9.962,63.4005,0.0],[9.9651,63.412,0.0],[9.9724,63.4172,0.0],[9.9688,63.4208,8.0042],[9.9714,63.4286,26.5686],[9.9766,63.4297,0.0],[9.9807,63.4411,0.0],[9.9667,63.4458,0.0],[9.9521,63.4458,148.1957],[9.9495,63.4495,20.4527],[9.9413,63.4514,0.0],[9.9329,63.4509,135.5792],[9.9345,63.4464,165.7125],[9.9047,63.4444,112.8086],[9.9062,63.4399,69.221],[9.8864,63.4386,192.4672],[9.8895,63.4297,115.8119],[9.8796,63.429,169.4331],[9.8812,63.4246,119.7138],[9.8712,63.4239,126.7367],[9.8744,63.415,289.763],[9.8645,63.4143,147.5446],[9.866,63.4099,241.5099],[9.8561,63.4092,186.6469],[9.8577,63.4047,207.9695],[9.8279,63.4027,258.2082],[9.8295,63.3982,311.9926],[9.8097,63.3968,315.3017],[9.8113,63.3924,369.789],[9.7419,63.3875,397.439],[9.7403,63.392,308.2334],[9.7304,63.3913,341.9623],[9.7257,63.4046,367.2811],[9.7356,63.4053,374.5125],[9.7308,63.4186,372.7975],[9.7209,63.4179,307.1232],[9.7225,63.4134,376.0994],[9.7026,63.412,320.4006],[9.7042,63.4076,278.534],[9.6943,63.4069,182.7076],[9.6959,63.4024,286.2174],[9.686,63.4017,152.8612],[9.6876,63.3973,199.945],[9.6777,63.3966,243.0487],[9.6793,63.3922,285.7118],[9.6595,63.3908,333.114],[9.6611,63.3863,381.7454],[9.6512,63.3856,447.0303],[9.6528,63.3812,430.5185],[9.6429,63.3805,463.3937],[9.6445,63.376,520.5753],[9.6346,63.3753,475.7335],[9.6362,63.3709,560.8561],[9.6164,63.3695,426.3368],[9.618,63.3651,478.3568],[9.6081,63.3644,443.0871],[9.6097,63.3599,535.9137],[9.5998,63.3592,507.868],[9.6014,63.3548,594.339],[9.5915,63.3541,519.4673],[9.5931,63.3496,546.5452],[9.5734,63.3482,397.0183],[9.575,63.3438,443.0111],[9.5651,63.3431,360.1566],[9.5667,63.3386,415.5723],[9.5568,63.3379,308.1767],[9.56,63.3291,296.0],[9.5501,63.3284,296.0],[9.5518,63.3239,296.0],[9.5419,63.3232,296.0],[9.5435,63.3188,296.0],[9.5336,63.3181,333.1075],[9.5352,63.3136,374.0919],[9.5254,63.3129,406.5241],[9.527,63.3085,446.5539],[9.5171,63.3078,467.1501],[9.5187,63.3033,483.413],[9.5088,63.3026,501.3572],[9.5105,63.2982,544.5031],[9.5006,63.2975,554.304],[9.5022,63.2931,609.1222],[9.4923,63.2923,623.799],[9.494,63.2879,689.4308],[9.4742,63.2865,760.2907],[9.4758,63.282,800.1623],[9.3476,63.2726,440.7015],[9.3493,63.2682,388.8705],[9.3394,63.2675,370.6401],[9.3493,63.2409,414.395],[9.3591,63.2416,446.9032],[9.3624,63.2328,477.1114],[9.3525,63.2321,395.4346],[9.3607,63.2099,277.4147],[9.3706,63.2106,277.4673],[9.3722,63.2062,354.9778],[9.382,63.2069,340.5072],[9.3837,63.2025,387.7681],[9.3935,63.2032,342.2401],[9.3951,63.1988,367.4191],[9.405,63.1995,334.646],[9.4066,63.1951,404.7171],[9.4164,63.1958,358.8516],[9.418,63.1914,413.5674],[9.4279,63.1921,349.7754],[9.4295,63.1877,498.6476],[9.4393,63.1884,410.7419],[9.441,63.184,568.2283],[9.4508,63.1847,438.3793],[9.4524,63.1803,414.4504],[9.4622,63.181,277.5734],[9.4639,63.1766,260.5493]]]]}}