{"type": "Feature","bbox": [9.5736,59.1919,9.875,59.4264],"geometry": {"type": "MultiPolygon","coordinates": [[[[9.6232,59.4257,619.2715],[9.6246,59.4212,605.0746],[9.6071,59.4198,582.8882],[9.6099,59.411,624.0312],[9.6012,59.4103,627.5807],[9.6053,59.397,581.74],[9.614,59.3977,581.5842],[9.6168,59.3888,640.3441],[9.6255,59.3895,588.8958],[9.6282,59.3806,541.3949],[9.6369,59.3814,590.0427],[9.6397,59.3725,517.9326],[9.631,59.3718,551.3961],[9.6351,59.3585,448.963],[9.6264,59.3578,425.9364],[9.6277,59.3534,539.5679],[9.5842,59.3498,568.732],[9.5855,59.3454,535.592],[9.5768,59.3447,387.5115],[9.5823,59.327,283.629],[9.5736,59.3263,384.7393],[9.5778,59.313,313.3669],[9.5865,59.3137,406.3121],[9.5892,59.3048,450.9298],[9.5979,59.3055,522.0164],[9.5993,59.3011,407.0916],[9.608,59.3018,486.9662],[9.6107,59.2929,370.0156],[9.6194,59.2936,289.716],[9.6235,59.2803,462.3214],[9.6322,59.281,387.6642],[9.6336,59.2766,459.7924],[9.651,59.278,447.135],[9.655,59.2647,398.2438],[9.6637,59.2654,257.6574],[9.6665,59.2565,281.1917],[9.6751,59.2572,273.0321],[9.6765,59.2528,298.5205],[9.7026,59.2549,300.6591],[9.7039,59.2505,283.0878],[9.7126,59.2512,280.9524],[9.7167,59.2379,342.7002],[9.7254,59.2386,278.3457],[9.7294,59.2253,385.193],[9.7381,59.226,310.7111],[9.7408,59.2171,210.5194],[9.7495,59.2178,184.8459],[9.7562,59.1956,129.1829],[9.7649,59.1963,105.4344],[9.7662,59.1919,127.1884],[9.7749,59.1926,158.1453],[9.7722,59.2014,182.7689],[9.7809,59.2021,139.8887],[9.7795,59.2066,149.6034],[9.8056,59.2086,233.6385],[9.8083,59.1997,273.9879],[9.8256,59.2011,261.2974],[9.8269,59.1967,198.8837],[9.8703,59.2001,64.4297],[9.8663,59.2134,111.3224],[9.875,59.2141,232.4344],[9.8617,59.2585,243.769],[9.853,59.2578,146.2064],[9.8503,59.2666,178.3402],[9.8416,59.266,210.5919],[9.839,59.2748,292.4227],[9.8303,59.2741,245.6815],[9.8289,59.2786,324.8517],[9.8202,59.2779,218.7123],[9.8175,59.2868,254.4391],[9.8088,59.2861,206.3556],[9.8062,59.2949,265.7944],[9.7975,59.2942,249.8831],[9.7961,59.2987,271.4805],[9.7874,59.298,257.5647],[9.7847,59.3069,304.6507],[9.776,59.3062,319.5968],[9.7733,59.315,395.4141],[9.7646,59.3143,399.6473],[9.7633,59.3188,568.3134],[9.7546,59.3181,509.4641],[9.7505,59.3314,563.075],[9.7592,59.3321,564.8283],[9.7579,59.3365,552.5566],[9.7666,59.3372,507.1179],[9.7639,59.3461,541.6965],[9.7726,59.3468,582.5674],[9.7631,59.3778,463.4191],[9.7718,59.3785,451.1461],[9.7664,59.3962,473.1286],[9.7751,59.3969,463.7651],[9.7711,59.4102,439.9844],[9.7536,59.4088,428.498],[9.7523,59.4133,428.3837],[9.7174,59.4105,465.2798],[9.716,59.4149,480.8722],[9.6636,59.4107,488.0579],[9.665,59.4063,468.634],[9.6563,59.4056,472.7722],[9.6549,59.41,499.6599],[9.6462,59.4093,534.3114],[9.6434,59.4182,597.0057],[9.6347,59.4175,592.3878],[9.6319,59.4264,559.3823],[9.6232,59.4257,619.2715]]]]}
,"properties": {"GID_2": "NOR.16.14_1","GID_0": "NOR","country": "Norway","GID_1": "NOR.16_1","province": "Telemark","NL_NAME_1": "NA","county": "Siljan","VARNAME_2": "NA","NL_NAME_2": "NA","TYPE_2": "Kommuner","ENGTYPE_2": "Municipality","CC_2": "NA","HASC_2": "NO.TE.SI","name": "Siljan.county","area_km2": 217.684,"hist_schema_id": "Elevation0-9000","hist_area_km2": {"25": 2.6147,"50": 2.115,"75": 5.8323,"100": 9.8191,"125": 9.4493,"150": 10.937,"175": 13.0047,"200": 10.8144,"225": 11.549,"250": 12.1543,"275": 10.3755,"300": 9.1725,"325": 7.2094,"350": 9.5601,"375": 8.2377,"400": 8.3785,"425": 8.1504,"450": 9.824,"475": 14.3732,"500": 13.1406,"525": 12.2638,"550": 9.075,"575": 5.531,"600": 2.9041,"625": 1.0255,"650": 0.1727}}}