{"type": "Feature","bbox": [4.7417,61.475,5.7237,61.7454],"geometry": {"type": "MultiPolygon","coordinates": [[[[4.9245,61.4974,1.9197],[4.9214,61.4974,17.5368],[4.9214,61.4964,9.561],[4.9229,61.4958,11.5791],[4.9245,61.4974,1.9197]]],
[[[4.9479,61.5292,0.0],[4.9474,61.5307,0.0],[4.9401,61.5318,70.1399],[4.9333,61.5354,75.4486],[4.9292,61.5354,72.2846],[4.9214,61.5328,5.5013],[4.9214,61.5297,6.89],[4.9245,61.5286,127.5175],[4.925,61.525,9.4876],[4.9245,61.5234,0.0],[4.9193,61.5224,8.5546],[4.9188,61.5208,6.7796],[4.9208,61.5187,0.0],[4.9266,61.5203,0.0],[4.9276,61.5151,3.9573],[4.9366,61.5107,0.0],[4.9432,61.5099,20.2348],[4.9458,61.5062,0.0],[4.9557,61.5057,7.5834],[4.9641,61.5016,0.0],[4.9646,61.5,0.0],[4.9625,61.4979,29.7325],[4.938,61.4995,3.1259],[4.9422,61.4964,0.0],[4.9604,61.4917,4.9607],[4.9682,61.4943,4.1903],[4.9693,61.4995,0.0],[4.9911,61.5089,3.7213],[4.9917,61.5125,8.9846],[4.9891,61.5161,11.4781],[4.9771,61.5167,4.5353],[4.9729,61.5146,0.0],[4.9703,61.5182,8.4157],[4.9578,61.5245,0.0],[4.9505,61.5255,14.7711],[4.9479,61.5292,0.0]]],
[[[4.9333,61.5771,10.1132],[4.9297,61.5755,5.7156],[4.937,61.5755,13.515],[4.937,61.5766,13.9975],[4.9333,61.5771,10.1132]]],
[[[4.9891,61.5786,23.2455],[4.9875,61.5792,16.1328],[4.9859,61.5776,13.9064],[4.9875,61.5771,18.4822],[4.9891,61.5786,23.2455]]],
[[[4.7724,61.5641,4.3933],[4.7625,61.5667,48.6736],[4.7568,61.5641,149.7133],[4.7557,61.5609,270.5303],[4.7464,61.5599,11.9748],[4.7417,61.5563,49.0597],[4.7438,61.5542,34.4687],[4.7563,61.5542,0.0],[4.7604,61.5521,0.0],[4.7646,61.5542,4.1898],[4.7708,61.5542,1.7279],[4.7729,61.5563,6.0207],[4.7724,61.5641,4.3933]]],
[[[4.8557,61.5641,7.2129],[4.8583,61.5625,0.0],[4.8708,61.5667,5.032],[4.8813,61.5667,0.0],[4.8833,61.5687,33.7132],[4.8828,61.5703,12.9021],[4.8729,61.575,0.0],[4.8646,61.575,5.0128],[4.8604,61.5729,140.0809],[4.825,61.5729,6.307],[4.8167,61.5687,3.8033],[4.8021,61.5687,5.5152],[4.7979,61.5667,30.7197],[4.7938,61.5667,5.8091],[4.7911,61.563,3.4121],[4.7859,61.5609,2.561],[4.7958,61.5604,0.0],[4.8,61.5583,13.8077],[4.8104,61.5583,0.0],[4.8229,61.5625,8.8453],[4.8271,61.5604,0.0],[4.8354,61.5604,0.0],[4.8396,61.5625,6.2179],[4.85,61.5625,0.8668],[4.8557,61.5641,7.2129]]],
[[[4.875,61.6104,1.7204],[4.8667,61.6104,23.962],[4.8625,61.6125,2.8197],[4.8479,61.6125,7.3173],[4.8458,61.6104,0.0],[4.8495,61.6068,2.3673],[4.8453,61.6047,5.3161],[4.8276,61.6036,4.3266],[4.8224,61.5964,59.9024],[4.8146,61.5938,5.6547],[4.8063,61.5938,13.0592],[4.8036,61.5901,46.0774],[4.7958,61.5896,4.3894],[4.7938,61.5875,17.2302],[4.7958,61.5854,0.0],[4.8146,61.5854,0.0],[4.8188,61.5833,0.0],[4.8271,61.5875,20.1081],[4.8417,61.5875,0.0],[4.8458,61.5896,113.185],[4.85,61.5896,104.5863],[4.8542,61.5875,0.0],[4.8583,61.5875,0.0],[4.8625,61.5896,29.4614],[4.8708,61.5896,0.0],[4.875,61.5917,0.0],[4.8854,61.5917,1.7069],[4.8911,61.5943,2.2507],[4.8911,61.5995,9.5337],[4.888,61.6005,9.3518],[4.8891,61.6036,0.0],[4.875,61.6104,1.7204]]],
[[[4.8411,61.6099,0.0],[4.8396,61.6104,5.5656],[4.838,61.6089,8.0578],[4.8396,61.6083,0.0],[4.8411,61.6099,0.0]]],
[[[4.9609,61.5818,5.9124],[4.9667,61.5792,5.168],[4.9724,61.5797,4.8412],[4.9667,61.5833,9.8934],[4.9625,61.5833,8.0159],[4.9609,61.5818,5.9124]]],
[[[4.9339,61.5818,0.0],[4.9396,61.5792,0.0],[4.9417,61.5812,8.7183],[4.9411,61.5828,11.2282],[4.9354,61.5854,7.1412],[4.9339,61.5849,7.1412],[4.9339,61.5818,0.0]]],
[[[4.9229,61.5979,5.8119],[4.9193,61.5964,7.9043],[4.9307,61.5964,3.7751],[4.9292,61.5979,10.8633],[4.9229,61.5979,5.8119]]],
[[[4.9943,61.6283,4.8121],[4.9943,61.6276,0.0],[4.9979,61.6271,3.8624],[4.9979,61.6292,18.8218],[4.9943,61.6283,4.8121]]],
[[[4.8682,61.6203,10.4216],[4.8651,61.6203,3.6018],[4.8651,61.6193,0.0],[4.8667,61.6188,7.2599],[4.8682,61.6203,10.4216]]],
[[[4.8208,61.625,3.5087],[4.8146,61.625,6.581],[4.8099,61.6286,19.8871],[4.8063,61.6292,11.7694],[4.8045,61.6281,11.1779],[4.8042,61.6229,20.2526],[4.8063,61.6208,0.0],[4.8188,61.6208,2.6141],[4.8224,61.6234,0.0],[4.8208,61.625,3.5087]]],
[[[4.8359,61.6234,0.0],[4.8417,61.6208,2.82],[4.8516,61.6214,2.2336],[4.8526,61.6245,6.2313],[4.8578,61.6255,0.0],[4.8578,61.6328,0.0],[4.8479,61.6375,11.9322],[4.8422,61.637,7.8041],[4.838,61.6349,0.0],[4.8411,61.6318,0.0],[4.8391,61.6276,4.5738],[4.8359,61.6266,0.0],[4.8359,61.6234,0.0]]],
[[[4.8068,61.6359,0.0],[4.8125,61.6354,0.0],[4.8146,61.6375,0.0],[4.8109,61.6401,10.7777],[4.812,61.6432,0.0],[4.8036,61.6474,96.5487],[4.7979,61.6479,237.922],[4.7938,61.6458,353.9044],[4.7818,61.6453,197.0552],[4.7818,61.6401,14.8887],[4.7859,61.638,31.7378],[4.8042,61.6375,15.1855],[4.8068,61.6359,0.0]]],
[[[5.1229,61.4958,11.0967],[5.1146,61.4958,26.0481],[5.1089,61.4984,5.8127],[5.1078,61.5057,15.3733],[5.1021,61.5083,12.6534],[5.0979,61.5083,14.4889],[5.0958,61.5062,6.7759],[5.0964,61.5047,0.0],[5.1036,61.5016,17.1],[5.1036,61.4964,6.0],[5.0958,61.4938,6.0],[5.0901,61.4943,21.0266],[5.0792,61.5,3.3233],[5.0667,61.5,11.9358],[5.0568,61.4974,14.8893],[5.0599,61.4953,46.0694],[5.0583,61.4896,55.9553],[5.062,61.487,24.1846],[5.0625,61.4813,36.8167],[5.0609,61.4776,20.9107],[5.0625,61.4771,32.4788],[5.1021,61.4771,8.1564],[5.1063,61.475,0.0],[5.1224,61.4797,4.6553],[5.1234,61.4891,0.0],[5.1271,61.4917,11.9087],[5.1313,61.4896,0.0],[5.1578,61.4901,13.0269],[5.1563,61.4917,3.9036],[5.1505,61.4922,0.0],[5.1516,61.4953,0.0],[5.1417,61.4979,15.8448],[5.1313,61.4979,24.6253],[5.1271,61.4958,5.2757],[5.1229,61.4958,11.0967]]],
[[[5.2958,61.55,15.6768],[5.2922,61.5495,46.0106],[5.2922,61.5484,30.5638],[5.2958,61.5479,25.7804],[5.2958,61.55,15.6768]]],
[[[5.1974,61.5693,31.4238],[5.1958,61.5708,59.5264],[5.1943,61.5703,29.376],[5.1958,61.5687,0.0],[5.1974,61.5693,31.4238]]],
[[[5.1516,61.5734,0.0],[5.1557,61.5766,19.3272],[5.1458,61.5812,9.4781],[5.1229,61.5812,23.7755],[5.113,61.5786,76.3387],[5.1125,61.5771,56.7619],[5.1146,61.575,0.0],[5.1188,61.5771,89.1984],[5.1229,61.575,0.0],[5.1438,61.575,20.5237],[5.1479,61.5729,0.0],[5.1516,61.5734,0.0]]],
[[[5.0271,61.6104,19.1803],[5.0229,61.6104,22.1894],[5.0214,61.6089,30.9253],[5.0286,61.6089,23.3835],[5.0271,61.6104,19.1803]]],
[[[5.1644,61.6125,0.0],[5.1771,61.6146,3.9124],[5.1786,61.6161,0.0],[5.1729,61.6188,5.5622],[5.1688,61.6167,43.0712],[5.1276,61.6161,10.5243],[5.1292,61.6146,6.2556],[5.1417,61.6125,60.6533],[5.1458,61.6104,0.0],[5.15,61.6125,16.7495],[5.1644,61.6125,0.0]]],
[[[5.0132,61.7056,323.4895],[5.004,61.7046,444.5349],[5.0018,61.7089,289.0828],[4.9833,61.7069,81.065],[4.9812,61.7113,302.5851],[4.9755,61.7099,2.6691],[4.9786,61.7078,10.0876],[4.9797,61.7047,0.0],[4.9828,61.7036,0.0],[4.9839,61.6984,0.0],[4.987,61.6964,24.5939],[4.9776,61.6953,9.623],[4.9766,61.6922,5.443],[4.9734,61.6911,0.0],[4.9708,61.6813,10.6358],[4.9714,61.6734,0.0],[4.9745,61.6724,15.0648],[4.9776,61.6672,6.9728],[4.9891,61.662,13.3589],[4.9901,61.6589,0.0],[4.9974,61.6578,34.3603],[5.0016,61.6557,0.0],[5.0026,61.6526,2.5362],[5.0099,61.6495,7.0371],[5.0042,61.6458,0.0],[4.9964,61.6453,0.0],[4.9995,61.6432,0.0],[5.0005,61.6359,0.0],[5.0036,61.6349,0.0],[4.9984,61.6328,10.1726],[4.9979,61.6292,18.8218],[5.0104,61.6292,17.3481],[5.0146,61.6333,16.8991],[5.0188,61.6312,0.0],[5.0354,61.6312,0.0],[5.0396,61.6333,13.3011],[5.0438,61.6312,0.0],[5.05,61.6312,0.0],[5.0625,61.6354,13.3248],[5.0667,61.6354,7.266],[5.0708,61.6333,0.0],[5.0854,61.6375,12.9069],[5.0979,61.6375,0.0],[5.1021,61.6396,49.2584],[5.1271,61.6312,0.0],[5.15,61.6312,36.3304],[5.1542,61.6292,0.0],[5.1583,61.6292,0.0],[5.1625,61.6312,19.3491],[5.1813,61.6312,0.0],[5.1854,61.6333,65.9807],[5.2021,61.6333,0.0],[5.2063,61.6354,18.2423],[5.2125,61.6354,29.063],[5.2167,61.6333,0.0],[5.2349,61.6328,15.1354],[5.2292,61.6292,65.784],[5.2214,61.6286,0.0],[5.2229,61.6271,13.5849],[5.25,61.6271,0.0],[5.2542,61.6292,21.4979],[5.2688,61.6292,85.4326],[5.2813,61.625,0.0],[5.2896,61.625,0.0],[5.2938,61.6271,0.0],[5.2953,61.6266,0.0],[5.2958,61.6229,114.1299],[5.2938,61.6208,46.0344],[5.2875,61.6208,45.9817],[5.275,61.6167,86.3546],[5.2646,61.6167,129.0479],[5.2604,61.6146,215.6925],[5.2563,61.6146,118.9139],[5.2521,61.6167,0.0],[5.2479,61.6146,61.0654],[5.2438,61.6167,55.1026],[5.2396,61.6167,95.9804],[5.2354,61.6146,155.6307],[5.225,61.6146,34.5893],[5.2208,61.6167,0.0],[5.2167,61.6146,0.0],[5.2125,61.6146,9.8059],[5.2083,61.6167,0.0],[5.2,61.6167,15.5929],[5.1958,61.6125,76.9571],[5.1896,61.6125,35.6241],[5.1771,61.6083,111.1044],[5.1667,61.6083,10.7101],[5.1625,61.6063,54.9558],[5.1375,61.6063,0.0],[5.1333,61.6104,6.2817],[5.1146,61.6104,31.2724],[5.1104,61.6083,203.0181],[5.1021,61.6083,175.3426],[5.0979,61.6104,15.2798],[5.075,61.6104,4.3235],[5.0693,61.6078,12.241],[5.0682,61.6047,11.9064],[5.0583,61.6021,8.4967],[5.0438,61.6021,7.5654],[5.0396,61.6,9.7111],[5.0109,61.5995,9.3715],[5.0026,61.5953,0.0],[5.0,61.5917,10.6277],[5.0005,61.5859,5.3595],[5.0036,61.5849,11.4294],[5.0047,61.5818,3.4871],[5.0104,61.5792,9.9421],[5.0188,61.5792,0.0],[5.0271,61.5833,3.3203],[5.0375,61.5833,0.0],[5.0432,61.5859,1.9042],[5.0458,61.5896,2.739],[5.0646,61.5917,0.8164],[5.0688,61.5938,54.7174],[5.0875,61.5938,0.0],[5.0917,61.5958,17.0783],[5.1,61.5958,0.0],[5.1146,61.6,15.4052],[5.1188,61.5979,0.0],[5.1229,61.5979,0.0],[5.1271,61.6,3.7267],[5.1396,61.6,0.0],[5.1438,61.6021,17.5076],[5.1542,61.6021,0.0],[5.1583,61.6042,19.6125],[5.1771,61.6042,0.0],[5.1813,61.6063,117.9097],[5.1896,61.6063,0.0],[5.1937,61.6083,36.3755],[5.2083,61.6083,0.0],[5.2125,61.6104,26.7122],[5.2167,61.6083,0.0],[5.2208,61.6104,13.0955],[5.2333,61.6104,0.0],[5.2375,61.6083,0.0],[5.2479,61.6083,0.0],[5.2604,61.6125,178.7853],[5.2729,61.6125,89.7485],[5.2771,61.6104,0.0],[5.2833,61.6104,0.0],[5.2875,61.6125,89.7975],[5.2917,61.6104,0.0],[5.3125,61.6083,0.0],[5.3167,61.6104,0.0],[5.3479,61.6125,4.9622],[5.3521,61.6104,0.0],[5.3646,61.6104,0.0],[5.3688,61.6083,0.0],[5.3917,61.6083,99.6411],[5.4125,61.6,0.0],[5.4224,61.5995,38.386],[5.4208,61.5938,0.0],[5.4229,61.5917,0.0],[5.4271,61.5917,8.6246],[5.4313,61.5896,0.0],[5.4599,61.5891,0.0],[5.4599,61.5859,3.3874],[5.4505,61.5828,3.7805],[5.4505,61.5755,6.2743],[5.4536,61.5745,0.0],[5.4516,61.5714,0.0],[5.4401,61.5703,64.2543],[5.4557,61.5651,215.6393],[5.4188,61.5646,580.8716],[5.413,61.5672,297.386],[5.4161,61.5703,209.252],[5.412,61.5724,80.1825],[5.4021,61.575,25.7916],[5.3938,61.575,40.7295],[5.3896,61.5771,0.0],[5.3542,61.5771,10.739],[5.35,61.575,0.0],[5.3458,61.575,8.0904],[5.3401,61.5776,23.1793],[5.3391,61.5807,0.0],[5.3359,61.5828,8.2529],[5.3438,61.5875,40.8777],[5.3521,61.5833,0.0],[5.3646,61.5833,0.0],[5.375,61.5896,46.557],[5.3875,61.5896,13.6483],[5.3953,61.5922,33.7592],[5.3938,61.5938,47.977],[5.3854,61.5938,120.9089],[5.3771,61.5979,0.0],[5.3667,61.5979,91.7548],[5.3542,61.6021,0.0],[5.3333,61.6021,116.7024],[5.3292,61.6042,0.0],[5.3167,61.6042,169.7844],[5.3125,61.6063,0.0],[5.3083,61.6042,198.3315],[5.3042,61.6063,0.0],[5.2979,61.6063,14.3446],[5.2854,61.6021,369.8751],[5.2771,61.6063,18.4926],[5.2729,61.6063,22.1019],[5.2688,61.6042,274.8786],[5.2646,61.6063,12.4657],[5.2583,61.6063,15.6615],[5.2542,61.6042,168.8296],[5.2359,61.6036,4.2364],[5.2359,61.6005,0.0],[5.2411,61.5974,0.0],[5.2396,61.5958,87.2884],[5.2271,61.5958,135.144],[5.2229,61.5979,70.809],[5.2104,61.6,0.0],[5.2063,61.5979,22.9793],[5.1958,61.5979,20.4022],[5.1859,61.5953,33.6581],[5.1859,61.5922,20.7676],[5.1891,61.5911,7.2911],[5.1901,61.588,0.0],[5.1937,61.5854,0.0],[5.2125,61.5833,5.9923],[5.2167,61.5854,40.0262],[5.2292,61.5854,0.0],[5.25,61.5792,0.0],[5.2583,61.5792,22.1591],[5.2625,61.5771,0.0],[5.2667,61.5771,0.0],[5.2682,61.5755,0.0],[5.2651,61.5734,5.1842],[5.275,61.5708,11.9414],[5.2833,61.5708,31.5636],[5.2875,61.5687,0.0],[5.2958,61.5687,12.406],[5.3,61.5667,0.0],[5.3104,61.5667,31.3189],[5.3172,61.563,0.0],[5.3245,61.562,10.4707],[5.3292,61.5583,0.0],[5.3354,61.5583,0.0],[5.3396,61.5604,10.5176],[5.3521,61.5604,0.0],[5.3646,61.5542,0.0],[5.3896,61.5542,27.0651],[5.3995,61.5516,12.8662],[5.4,61.55,0.0],[5.3979,61.5479,75.1069],[5.3896,61.5479,60.8098],[5.3813,61.5521,0.0],[5.3604,61.5521,87.0829],[5.3563,61.5542,33.3343],[5.3458,61.5542,206.6986],[5.3391,61.5505,51.7976],[5.3333,61.55,29.2879],[5.3229,61.5458,9.4453],[5.2958,61.5479,25.7804],[5.2958,61.5458,0.0],[5.2995,61.5453,0.0],[5.2995,61.5422,8.1505],[5.2708,61.5417,0.0],[5.2667,61.5396,12.4227],[5.2479,61.5396,52.618899999999996],[5.2396,61.5438,0.0],[5.2297,61.5443,52.8542],[5.2214,61.5484,32.4245],[5.2203,61.5516,15.3574],[5.2104,61.5521,29.5285],[5.2063,61.5542,18.1507],[5.1813,61.5542,36.6128],[5.1708,61.55,0.0],[5.1609,61.5526,41.3959],[5.1599,61.5557,0.0],[5.1557,61.5578,0.0],[5.1458,61.5583,63.9422],[5.1432,61.562,23.8042],[5.1359,61.563,35.2253],[5.1292,61.5667,0.0],[5.1167,61.5667,72.5088],[5.1057,61.5724,0.0],[5.0958,61.575,7.4311],[5.0917,61.5729,64.1618],[5.0792,61.5729,25.3591],[5.0688,61.5687,22.9889],[5.0464,61.5682,14.2981],[5.0547,61.563,0.0],[5.062,61.562,11.3571],[5.0688,61.5583,0.0],[5.0813,61.5563,12.8686],[5.0854,61.5542,0.0],[5.1021,61.5542,6.4678],[5.1229,61.5479,0.0],[5.1313,61.5479,0.0],[5.1438,61.5438,4.5111],[5.1667,61.5438,33.8366],[5.1734,61.5474,0.0],[5.1766,61.5474,0.0],[5.1807,61.5453,9.8592],[5.1807,61.538,15.1451],[5.1786,61.5359,0.0],[5.1714,61.5349,4.925],[5.1714,61.5318,25.7778],[5.187,61.5234,20.0426],[5.1734,61.5224,11.971],[5.1766,61.5193,13.7295],[5.1734,61.5172,1.2803],[5.1875,61.5125,4.1869],[5.2,61.5125,49.7967],[5.2042,61.5104,0.0],[5.2083,61.5125,75.6848],[5.2125,61.5104,0.0],[5.2167,61.5104,0.0],[5.2276,61.5047,0.0],[5.2333,61.5042,0.0],[5.2443,61.4984,0.0],[5.2542,61.4958,0.0],[5.2667,61.4979,17.7197],[5.2708,61.4958,0.0],[5.2806,61.4958,0.0],[5.2786,61.4999,28.2465],[5.2878,61.5009,31.6156],[5.2836,61.5096,150.442],[5.2928,61.5106,157.9709],[5.2949,61.5063,220.6624],[5.3409,61.5112,491.5222],[5.343,61.5069,489.6055],[5.3982,61.5128,661.9404],[5.4003,61.5084,600.6238],[5.4463,61.5134,326.1956],[5.4484,61.509,435.0936],[5.4576,61.51,418.922],[5.4596,61.5056,479.3695],[5.5241,61.5125,430.5074],[5.5261,61.5081,539.2987],[5.5814,61.514,737.6277],[5.5793,61.5183,648.0925],[5.6069,61.5213,671.9915],[5.6049,61.5256,563.8228],[5.6141,61.5266,545.6221],[5.61,61.5354,458.0462],[5.6192,61.5363,357.3846],[5.6171,61.5407,356.9239],[5.654,61.5446,376.0201],[5.6499,61.5534,556.2062],[5.7237,61.5611,588.0151],[5.7114,61.5874,846.6389],[5.7022,61.5864,823.8969],[5.7001,61.5908,669.8335],[5.6816,61.5889,766.004],[5.6796,61.5932,710.8091],[5.6703,61.5923,690.7076],[5.6518,61.6316,248.1273],[5.6611,61.6326,332.304],[5.6569,61.6414,511.061],[5.6662,61.6423,519.988],[5.6641,61.6467,687.8701],[5.6734,61.6477,690.8219],[5.6713,61.6521,745.5284],[5.6806,61.653,669.1816],[5.6785,61.6574,584.0134],[5.6878,61.6584,605.619],[5.6857,61.6628,525.4785],[5.695,61.6637,589.1467],[5.6929,61.6681,612.247],[5.7022,61.6691,649.9612],[5.698,61.6778,650.9119],[5.7073,61.6788,553.4918],[5.7011,61.6919,759.605],[5.7104,61.6929,741.4313],[5.7083,61.6973,945.6407],[5.6991,61.6963,1018.5803],[5.6908,61.7138,586.3862],[5.6816,61.7128,904.4821],[5.6671,61.7435,1277.4716],[5.5558,61.7318,1167.946],[5.5537,61.7362,895.66],[5.5259,61.7332,554.799],[5.5238,61.7376,581.9709],[5.5146,61.7366,613.2898],[5.5104,61.7454,762.884],[5.4455,61.7385,1274.3597],[5.4476,61.7341,1226.0497],[5.4383,61.7331,844.1037],[5.4404,61.7287,653.8293],[5.4311,61.7278,788.4296],[5.4332,61.7234,790.2339],[5.3962,61.7194,1003.4417],[5.3983,61.7151,1023.2043],[5.3705,61.7121,853.5907],[5.3684,61.7165,836.4684],[5.3591,61.7155,915.5484],[5.357,61.7198,874.6608],[5.3292,61.7169,1063.6167],[5.3271,61.7212,1041.6788],[5.3179,61.7202,704.4338],[5.3284,61.6984,766.0],[5.3377,61.6994,992.0016],[5.3419,61.6906,868.1699],[5.3512,61.6916,814.0314],[5.3554,61.6829,743.0862],[5.3461,61.6819,538.627],[5.3482,61.6775,526.887],[5.2373,61.6656,690.9457],[5.2352,61.67,581.7982],[5.2259,61.669,711.8709],[5.2238,61.6733,639.8502],[5.2146,61.6723,648.4222],[5.2103,61.6811,594.8196],[5.1918,61.6791,536.5464],[5.1897,61.6834,527.429],[5.1805,61.6824,544.2327],[5.1826,61.6781,575.9226],[5.1733,61.6771,512.0231],[5.1755,61.6727,479.5443],[5.1478,61.6697,616.351],[5.1456,61.674,583.8292],[5.1179,61.671,688.6912],[5.1115,61.6841,588.9587],[5.1022,61.6831,547.9501],[5.1001,61.6875,477.2903],[5.0631,61.6834,433.728],[5.061,61.6878,539.2316],[5.0517,61.6868,502.3768],[5.0453,61.6999,528.9444],[5.036,61.6989,296.2673],[5.0339,61.7032,261.6442],[5.0246,61.7022,245.3578],[5.0225,61.7066,230.6753],[5.0132,61.7056,323.4895]]],
[[[5.1167,61.6229,5.7314],[5.1125,61.6229,9.6608],[5.1109,61.6214,12.8113],[5.1182,61.6214,13.9271],[5.1167,61.6229,5.7314]]],
[[[5.1078,61.6286,24.6529],[5.1021,61.6292,19.5721],[5.0938,61.6333,26.2021],[5.0776,61.6328,0.0],[5.0807,61.6297,35.8814],[5.0776,61.6276,6.4997],[5.0875,61.6229,0.0],[5.0958,61.6229,0.0],[5.1,61.625,35.0652],[5.1042,61.625,0.0],[5.1078,61.6286,24.6529]]],
[[[4.9547,61.6266,16.1697],[4.9547,61.6234,7.3592],[4.9563,61.6229,4.3564],[4.9703,61.6234,0.0],[4.9766,61.6276,0.0],[4.9766,61.6307,2.0802],[4.9734,61.6328,0.0],[4.9766,61.6339,2.9349],[4.9766,61.637,5.0171],[4.9708,61.6396,7.6831],[4.9651,61.6391,10.0735],[4.9646,61.6333,2.1921],[4.9661,61.6297,0.0],[4.9604,61.6292,0.0],[4.9547,61.6266,16.1697]]],
[[[4.8813,61.7042,0.0],[4.8828,61.7047,0.0],[4.8828,61.7078,11.0455],[4.8771,61.7104,132.4875],[4.8646,61.7104,128.4048],[4.8568,61.7078,4.409],[4.8583,61.7062,0.0],[4.8641,61.7057,3.6281],[4.8641,61.7005,12.1359],[4.8583,61.6979,189.6363],[4.8464,61.6995,43.681399999999996],[4.8453,61.6964,273.9364],[4.838,61.6953,145.3484],[4.837,61.6922,106.397],[4.8339,61.6911,9.7126],[4.8307,61.6859,20.5258],[4.8276,61.6839,6.2711],[4.8307,61.6828,17.5285],[4.8318,61.6797,4.4504],[4.8391,61.6745,4.8209],[4.838,61.6714,3.3052],[4.8411,61.6703,6.3776],[4.8422,61.6672,5.7143],[4.8521,61.6625,2.3735],[4.8578,61.662,0.0],[4.8688,61.6563,0.9783],[4.8703,61.6568,0.0],[4.8714,61.662,3.6076],[4.8792,61.6646,0.0],[4.8875,61.6646,0.0],[4.8958,61.6604,3.9051],[4.9016,61.6609,0.0],[4.9036,61.6682,0.0],[4.9005,61.6693,3.967],[4.8995,61.6807,0.0],[4.8859,61.688,7.1155],[4.8859,61.6911,0.0],[4.8891,61.6932,0.0],[4.8859,61.6943,7.2565],[4.8849,61.6974,2.9346],[4.8792,61.6979,24.0294],[4.8693,61.7026,0.0],[4.8729,61.7062,75.7578],[4.8771,61.7042,0.0],[4.8813,61.7042,0.0]]]]}
,"properties": {"GID_2": "NOR.14.8_1","GID_0": "NOR","country": "Norway","GID_1": "NOR.14_1","province": "SognogFjordane","NL_NAME_1": "NA","county": "Flora","VARNAME_2": "NA","NL_NAME_2": "NA","TYPE_2": "Kommuner","ENGTYPE_2": "Municipality","CC_2": "NA","HASC_2": "NO.SF.FL","name": "Flora.county","area_km2": 669.947,"hist_schema_id": "Elevation0-9000","hist_area_km2": {"0": 38.3735,"25": 49.6074,"50": 35.916,"75": 24.9635,"100": 29.2018,"125": 25.812,"150": 23.2232,"175": 19.523,"200": 16.4343,"225": 15.1152,"250": 14.0847,"275": 13.756,"300": 17.9283,"325": 16.889,"350": 17.5089,"375": 19.5619,"400": 17.8519,"425": 17.1437,"450": 17.1536,"475": 16.908,"500": 17.7451,"525": 16.4351,"550": 17.2398,"575": 15.5339,"600": 16.3718,"625": 15.9463,"650": 15.2916,"675": 13.4542,"700": 11.1957,"725": 10.2383,"750": 9.5835,"775": 8.0506,"800": 5.935,"825": 6.064,"850": 5.38,"875": 4.4844,"900": 3.6497,"925": 3.8001,"950": 3.579,"975": 2.7639,"1000": 2.3915,"1025": 2.0796,"1050": 2.3307,"1075": 1.9287,"1100": 1.3962,"1125": 1.7074,"1150": 1.7575,"1175": 1.3356,"1200": 0.9842,"1225": 0.9138,"1250": 0.9439,"1275": 0.9438,"1300": 0.7931,"1325": 0.4919,"1350": 0.2409,"1375": 0.01}}}