{"type":"Feature","properties":{"GID_2":"NOR.6.4_1","GID_0":"NOR","country":"Norway","GID_1":"NOR.6_1","province":"Hedmark","NL_NAME_1":"NA","county":"Eidskog","VARNAME_2":"NA","NL_NAME_2":"NA","TYPE_2":"Kommuner","ENGTYPE_2":"Municipality","CC_2":"NA","HASC_2":"NO.HE.EI","name":"Eidskog.county"},
"geometry":{"type": "MultiPolygon","coordinates": [[[[11.8421,59.842,262.7641],[11.851,59.8426,278.6408],[11.8499,59.847,276.5724],[11.8677,59.8481,259.6263],[11.8666,59.8526,265.133],[11.8843,59.8537,263.0182],[11.8832,59.8581,225.2131],[11.8921,59.8587,223.2245],[11.891,59.8631,218.3204],[11.8821,59.8626,216.8741],[11.88,59.8715,178.9716],[11.9244,59.8742,167.5],[11.9222,59.8831,167.5],[11.9311,59.8837,190.4347],[11.93,59.8881,179.1153],[11.9478,59.8892,205.7614],[11.9467,59.8937,210.715],[11.9734,59.8953,186.8879],[11.9723,59.8998,197.5703],[11.9901,59.9009,159.8777],[11.9912,59.8964,181.5515],[12.0001,59.897,195.9949],[12.0012,59.8925,188.6342],[12.0189,59.8936,217.299],[12.02,59.8891,181.1016],[12.0378,59.8902,163.5],[12.0389,59.8857,164.2385],[12.11,59.89,197.7661],[12.109,59.8945,180.1418],[12.1268,59.8956,208.1835],[12.1278,59.8911,175.876],[12.1456,59.8922,189.5474],[12.1467,59.8877,197.051],[12.1823,59.8898,166.2864],[12.1812,59.8943,183.6077],[12.1901,59.8948,216.4139],[12.188,59.9037,198.3412],[12.1969,59.9043,217.5881],[12.1958,59.9087,237.9658],[12.2047,59.9093,258.0979],[12.2037,59.9137,237.0272],[12.2126,59.9142,247.3759],[12.2115,59.9187,217.7996],[12.2204,59.9192,216.2453],[12.2194,59.9237,170.176],[12.2283,59.9242,135.6156],[12.2272,59.9287,124.5678],[12.2451,59.9297,137.6777],[12.244,59.9342,141.7624],[12.2618,59.9352,134.1569],[12.2608,59.9397,135.6759],[12.2786,59.9407,171.026],[12.2776,59.9452,204.6263],[12.2954,59.9462,190.7156],[12.2943,59.9507,182.0],[12.3122,59.9517,165.3951],[12.3111,59.9562,196.7335],[12.32,59.9567,219.3552],[12.319,59.9612,231.2829],[12.3368,59.9622,159.9994],[12.3358,59.9667,175.2934],[12.3447,59.9672,158.4994],[12.3437,59.9717,157.2085],[12.3526,59.9722,172.8222],[12.3516,59.9766,165.0044],[12.3605,59.9771,241.9175],[12.3584,59.9861,159.7066],[12.3495,59.9855,198.3388],[12.3485,59.99,199.9695],[12.3395,59.9895,188.1332],[12.3375,59.9984,188.69],[12.3285,59.9979,253.0288],[12.3223,60.0246,306.5203],[12.3312,60.0252,254.6365],[12.3291,60.0341,317.2586],[12.3202,60.0336,304.1006],[12.3139,60.0603,358.5359],[12.2782,60.0582,195.5],[12.2771,60.0627,212.412],[12.2682,60.0622,195.5],[12.2671,60.0666,207.3604],[12.2582,60.0661,195.5],[12.2561,60.075,233.4196],[12.2471,60.0745,196.6866],[12.2461,60.0789,222.3102],[12.255,60.0795,249.3145],[12.254,60.0839,245.3763],[12.2719,60.085,242.0982],[12.2708,60.0894,246.4048],[12.2798,60.09,271.536],[12.2714,60.1256,334.7095],[12.2624,60.1251,360.5357],[12.2603,60.134,377.4243],[12.2513,60.1335,358.4206],[12.2503,60.1379,362.4211],[12.2323,60.1369,354.2334],[12.2313,60.1413,349.8607],[12.2044,60.1398,341.2957],[12.2033,60.1442,356.2149],[12.1675,60.1421,302.0003],[12.1664,60.1466,349.0828],[12.1395,60.145,344.8118],[12.1406,60.1405,318.0819],[12.1316,60.14,324.2374],[12.1338,60.1311,267.3477],[12.1248,60.1305,263.9205],[12.127,60.1216,241.6876],[12.109,60.1205,151.6012],[12.1101,60.1161,150.241],[12.0922,60.115,287.3463],[12.0933,60.1106,318.7552],[12.0843,60.11,312.1391],[12.0865,60.1011,270.9709],[12.0775,60.1006,297.1454],[12.0786,60.0961,345.3726],[12.0697,60.0956,185.5279],[12.0707,60.0911,214.2226],[12.0439,60.0895,346.6837],[12.045,60.0851,282.03],[12.0271,60.084,300.2454],[12.026,60.0884,296.756],[11.9455,60.0835,303.6896],[11.9466,60.0791,328.3949],[11.9108,60.0769,309.3008],[11.9097,60.0814,307.5],[11.8918,60.0803,334.6187],[11.8929,60.0758,345.8264],[11.8393,60.0725,330.526],[11.8426,60.0591,310.7256],[11.8337,60.0586,332.7734],[11.8359,60.0497,306.2962],[11.827,60.0491,344.4733],[11.8281,60.0447,361.179],[11.8191,60.0441,355.2454],[11.8202,60.0397,354.6872],[11.8113,60.0391,320.8315],[11.8213,59.999,280.4095],[11.8124,59.9985,273.6168],[11.8146,59.9896,231.3885],[11.8057,59.989,244.5511],[11.8079,59.9801,226.0028],[11.799,59.9795,205.1076],[11.8001,59.9751,194.5],[11.7912,59.9745,194.5],[11.7934,59.9656,194.5],[11.7845,59.9651,199.567],[11.7867,59.9562,204.1327],[11.7956,59.9567,194.5],[11.799,59.9433,217.8981],[11.8079,59.9439,195.9403],[11.8134,59.9216,257.017],[11.8045,59.9211,243.4118],[11.8078,59.9077,243.1681],[11.7989,59.9072,261.7353],[11.8033,59.8893,228.2688],[11.8122,59.8899,240.756],[11.8178,59.8676,288.0782],[11.826599999999999,59.8682,310.1906],[11.831,59.8504,277.6398],[11.8399,59.8509,287.8679],[11.8421,59.842,262.7641]]]]}}