{"type": "Feature","id": "925","bbox": [10.16334,63.19687,14.33207,65.1322],"geometry": {"type": "MultiPolygon","coordinates": [[[[10.84132,64.51858,0.0],[10.83749,64.51899,0.0],[10.82976,64.52424,0.0],[10.82016,64.52733,0.0],[10.81479,64.53107,0.0],[10.81153,64.53364,0.0],[10.80608,64.53482,31.0502],[10.7999,64.54011,1.4055],[10.79086,64.54357,4.5494],[10.78541,64.5408,0.0],[10.78598,64.53856,0.0],[10.77866,64.53482,0.0],[10.77312,64.53449,0.0],[10.77752,64.52867,6.7023],[10.78614,64.52428,0.0],[10.78452,64.52196,0.0],[10.77613,64.52196,0.0],[10.78419,64.51822,17.7804],[10.79884,64.51687,0.0],[10.82537,64.51549,32.72],[10.83481,64.51512,22.0855],[10.84132,64.51858,0.0]]],
[[[11.36647,64.63443,35.7835],[11.36134,64.62775,0.0],[11.3685,64.60358,0.0],[11.36883,64.59101,0.0],[11.35426,64.58735,0.0],[11.34791,64.58259,0.0],[11.34449,64.57368,42.4951],[11.35133,64.5644,109.5362],[11.386,64.5528,0.0],[11.4144,64.54597,62.0094],[11.43287,64.54243,86.9988],[11.43735,64.54365,38.7174],[11.43393,64.54735,0.0],[11.43784,64.54987,37.2664],[11.46567,64.55117,72.2431],[11.48024,64.55606,42.993899999999996],[11.4817,64.56342,0.0],[11.47291,64.56948,0.0],[11.46551,64.58784,29.906],[11.45436,64.59317,16.6856],[11.44402,64.5954,0.0],[11.40268,64.62275,0.0],[11.39308,64.62592,69.3709],[11.38885,64.62027,0.0],[11.39145,64.61103,0.0],[11.36647,64.63443,35.7835]]],
[[[11.22926,64.61127,0.0],[11.14234,64.63101,8.9052],[11.10597,64.64631,8.8915],[11.08579,64.65204,4.9864],[11.06658,64.65143,0.0],[11.05397,64.64395,5.8932],[11.04265,64.63036,20.4809],[11.03736,64.61445,24.3901],[11.04298,64.59992,187.2146],[11.08399,64.58828,0.0],[11.19174,64.59561,236.6339],[11.22486,64.56953,21.8397],[11.16993,64.57404,0.0],[11.14161,64.57128,0.0],[11.12867,64.55585,0.0],[11.18019,64.50747,0.0],[11.24692,64.51529,0.0],[11.28386,64.51325,9.0618],[11.29998,64.49689,23.7794],[11.31577,64.48798,35.5646],[11.39145,64.48273,0.0],[11.41676,64.47272,0.0],[11.43067,64.49677,0.0],[11.43898,64.5069,60.4473],[11.45143,64.51496,0.0],[11.42563,64.53974,0.0],[11.31219,64.54011,0.0],[11.28631,64.55899,0.0],[11.26938,64.59223,11.576599999999999],[11.22926,64.61127,0.0]]],
[[[11.35076,64.65156,24.2063],[11.35572,64.6673,15.4328],[11.34262,64.67768,78.1536],[11.31642,64.68081,0.0],[11.31666,64.68976,18.7865],[11.30397,64.69208,0.0],[11.18556,64.67381,0.0],[11.174,64.66885,0.0],[11.17123,64.66372,0.0],[11.16798,64.65974,21.0997],[11.18165,64.65754,1.0191],[11.18181,64.65351,0.0],[11.16993,64.6446,1.8925],[11.17311,64.63736,8.1477],[11.22047,64.63345,17.7795],[11.22926,64.63422,11.544],[11.23129,64.63646,2.2781],[11.23658,64.63911,2.4341],[11.24545,64.63939,0.0],[11.25506,64.63369,12.3824],[11.26539,64.6225,0.0],[11.2798,64.61176,0.0],[11.29786,64.60346,0.0],[11.31227,64.59968,51.8522],[11.32114,64.60334,23.1179],[11.32602,64.60952,33.9592],[11.32887,64.61384,5.2292],[11.33424,64.61664,21.692],[11.3401,64.62043,26.3691],[11.34213,64.62324,26.5718],[11.34148,64.62865,3.9374],[11.34376,64.63898,9.9766],[11.35076,64.65156,24.2063]]],
[[[10.73032,64.82026,22.3311],[10.72731,64.8238,0.0],[10.71518,64.82518,0.0],[10.70224,64.82091,12.8855],[10.69955,64.8179,0.0],[10.69964,64.81599,0.0],[10.70452,64.81306,3.7111],[10.70761,64.81501,14.8557],[10.70525,64.81599,12.6435],[10.70737,64.81696,29.382],[10.71241,64.81603,24.9486],[10.71616,64.81411,0.0],[10.71754,64.81253,0.0],[10.7208,64.81265,7.8215],[10.72429,64.81399,4.3867],[10.72731,64.81513,3.5025],[10.73032,64.82026,22.3311]]],
[[[11.20688,64.90913,28.9238],[11.1976,64.91523,24.1656],[11.19264,64.92398,28.3581],[11.18084,64.93179,10.8314],[11.16717,64.93732,28.7648],[11.14096,64.9416,16.9772],[11.11638,64.95108,37.7054],[11.10133,64.95311,0.0],[11.08904,64.95043,8.6152],[10.82691,64.85757,9.2316],[10.82691,64.85008,0.0],[10.85011,64.84931,16.6877],[10.87916,64.85163,0.0],[10.90691,64.85741,12.8639],[10.94028,64.87482,11.5698],[11.00571,64.8985,41.5627],[11.08131,64.89834,8.7177],[11.09108,64.9016,8.1395],[11.09205,64.88963,0.0],[11.08025,64.87507,20.3979],[11.06251,64.8627,0.0],[11.04607,64.85757,1.461],[11.04607,64.85008,0.0],[11.05665,64.85322,0.0],[11.06756,64.85472,5.4094],[11.07789,64.85395,1.5091],[11.08774,64.85008,3.1342],[11.08497,64.8461,2.3971],[11.0809,64.83584,0.0],[11.13217,64.83885,11.1256],[11.17628,64.84862,37.2999],[11.21713,64.86579,78.0426],[11.25904,64.89106,30.1488],[11.26238,64.89199,30.2136],[11.26515,64.89216,30.4274],[11.26637,64.8937,29.3269],[11.2658,64.8985,26.468],[11.20688,64.90913,28.9238]]],
[[[10.81691,64.86856,102.9296],[10.84116,64.87739,33.0728],[10.89894,64.90827,86.8454],[10.96502,64.91869,73.1634],[11.10524,64.96768,61.5987],[11.10865,64.96821,75.1611],[11.11183,64.96955,76.646],[11.115,64.97297,31.2222],[11.09246,64.98387,15.1489],[11.05934,64.99042,0.0],[11.03346,64.98823,0.0],[11.03248,64.97297,4.5986],[10.96339,64.95746,1.9019],[10.92449,64.9418,3.0895],[10.87176,64.92768,0.0],[10.85141,64.9252,6.0595],[10.78386,64.92402,0.0],[10.76564,64.91836,74.607],[10.7505,64.90396,0.0],[10.74122,64.88711,0.0],[10.73048,64.87222,0.0],[10.71095,64.86371,0.0],[10.74513,64.86371,8.2279],[10.7422,64.85985,5.426],[10.73813,64.85008,0.0],[10.81691,64.86856,102.9296]]],
[[[10.93198,64.99075,0.0],[10.93474,64.99262,6.8093],[10.93352,64.99588,11.8958],[10.93735,64.99624,8.4992],[10.93857,64.99702,8.8512],[10.92954,64.99836,0.0],[10.92164,64.99641,0.0],[10.91822,64.99372,0.0],[10.90903,64.9892,3.3462],[10.91025,64.98688,0.0],[10.91009,64.98501,1.3966],[10.90512,64.98253,3.4214],[10.89926,64.98107,7.5087],[10.89706,64.98652,8.0127],[10.89047,64.98554,24.2187],[10.89137,64.98664,27.3818],[10.89902,64.98835,8.6401],[10.90382,64.99075,4.5284],[10.90154,64.99144,5.3867],[10.89715,64.9912,3.731],[10.8956,64.99343,3.9941],[10.89226,64.99372,5.7755],[10.85743,64.98859,2.3934],[10.85532,64.98953,4.1218],[10.86663,64.99278,6.5673],[10.86622,64.99592,0.0],[10.85776,64.99795,0.0],[10.85231,64.99734,0.0],[10.83782,64.9912,0.0],[10.83595,64.98688,7.6819],[10.83579,64.98497,2.5492],[10.81634,64.98273,0.0],[10.81609,64.98338,2.3848],[10.81601,64.99258,2.116],[10.81121,64.99449,0.0],[10.80161,64.99421,0.0],[10.79868,64.99246,0.0],[10.79762,64.9892,0.0],[10.79339,64.98749,3.2627],[10.77963,64.98688,18.4997],[10.78273,64.99042,0.0],[10.77744,64.99201,0.0],[10.76165,64.98949,0.0],[10.76173,64.98623,0.0],[10.7645,64.98347,1.3041],[10.76889,64.98119,2.663],[10.77394,64.97993,4.4209],[10.77971,64.97972,9.6397],[10.78069,64.97858,0.0],[10.76189,64.97659,0.0],[10.75733,64.97753,0.0],[10.74252,64.97118,0.0],[10.73959,64.96902,0.0],[10.73471,64.96723,0.0],[10.73211,64.96487,0.0],[10.73284,64.96263,0.0],[10.73992,64.96422,0.2552],[10.74383,64.96418,0.0],[10.74578,64.96691,1.129],[10.75294,64.96922,0.0],[10.78321,64.96788,0.0],[10.78533,64.96959,21.1895],[10.78517,64.97236,3.7184],[10.78679,64.97504,15.1188],[10.78997,64.97659,2.241],[10.79282,64.97712,1.9555],[10.79363,64.97476,0.0],[10.79192,64.97142,10.0282],[10.79135,64.96711,3.7118],[10.79501,64.95893,0.0],[10.79957,64.95718,0.0],[10.81259,64.95726,1.2101],[10.80755,64.95466,1.9184],[10.80161,64.94929,0.0],[10.80486,64.94408,0.0],[10.81056,64.94514,2.1898],[10.81568,64.94501,3.7757],[10.82,64.94579,1.6053],[10.82309,64.94916,3.2916],[10.82651,64.95018,3.7218],[10.82936,64.94957,2.3792],[10.83326,64.9534,3.0765],[10.83749,64.95608,2.0274],[10.85475,64.96263,0.7061],[10.85629,64.96695,1.2462],[10.85165,64.96674,0.0],[10.84571,64.96471,3.8375],[10.84742,64.96906,7.6756],[10.865,64.97932,0.5],[10.86272,64.98058,5.9035],[10.86508,64.98216,14.156],[10.87216,64.98261,5.3134],[10.87517,64.98001,6.282],[10.86378,64.96756,0.0],[10.86655,64.96227,2.4189],[10.87517,64.96125,5.0505],[10.91741,64.97118,6.951],[10.924,64.96922,0.0],[10.9319,64.96849,8.2408],[10.94646,64.97024,10.8421],[10.94964,64.97297,16.0604],[10.94768,64.97594,9.4666],[10.94809,64.97704,9.3719],[10.95411,64.97553,0.0],[10.96013,64.97667,0.0],[10.95509,64.9805,0.0],[10.93898,64.98135,14.071],[10.93588,64.9844,9.5498],[10.93889,64.98668,10.1166],[10.94321,64.98481,2.5301],[10.96152,64.98884,0.0],[10.96022,64.9914,0.0],[10.94467,64.99193,0.0],[10.93165,64.98973,0.0],[10.93198,64.99075,0.0]]],
[[[11.77719,65.11005,11.2373],[11.77687,65.11848,1.2452],[11.76173,65.11937,0.0],[11.74293,65.11538,0.0],[11.73292,65.11188,0.0],[11.73113,65.10871,0.0],[11.72576,65.10663,0.0],[11.71876,65.10838,1.0058],[11.70729,65.11392,9.3426],[11.68898,65.11799,0.0],[11.66179,65.11835,2.9768],[11.58033,65.10969,0.0],[11.56568,65.10391,2.1683],[11.5547,65.09626,1.741],[11.54086,65.0917,0.0],[11.53102,65.08519,3.7928],[11.52882,65.07543,5.989],[11.52508,65.06542,0.4556],[11.52817,65.06379,0.5191],[11.52662,65.06196,0.0],[11.51922,65.05878,0.0],[11.51881,65.05459,4.3367],[11.5586,65.04206,7.8171],[11.57984,65.04255,9.2493],[11.60353,65.04816,27.0027],[11.62696,65.05805,16.9941],[11.64991,65.06509,1.1971],[11.65797,65.06468,0.0],[11.65219,65.06,0.0],[11.65268,65.05756,0.0],[11.65358,65.05146,0.0],[11.65187,65.04572,0.0],[11.65724,65.04243,17.9563],[11.66944,65.04491,26.7067],[11.68442,65.0506,21.85],[11.6985,65.05744,16.0365],[11.70086,65.06476,15.7873],[11.68816,65.06855,0.0],[11.67351,65.06851,0.0],[11.67359,65.07172,25.466],[11.68881,65.07713,32.9661],[11.70965,65.08161,24.2868],[11.74545,65.09512,14.5657],[11.76531,65.10212,23.1991],[11.77719,65.11005,11.2373]]],
[[[14.33207,65.11396,1043.3059],[14.33151,65.11406,1043.3059],[14.22702,65.1322,1350.5056],[13.67847,65.10641,665.7402],[13.64369,65.10582,838.5957],[13.55559,65.11373,1027.8922],[13.32408,65.10528,366.4351],[13.15835,65.11998,830.4501],[13.14342,65.11907,842.0355],[13.13086,65.11566,608.4986],[13.12125,65.11168,566.93],[13.10481,65.09675,584.8564],[13.09365,65.08481,503.4367],[13.08104,65.07794,488.5994],[13.0244,65.05267,717.508],[12.98844,65.04032,865.2694],[12.95149,65.03489,859.2079],[12.9394,65.03017,773.6363],[12.93227,65.02037,685.2898],[12.9349,65.01221,753.671],[12.94234,65.0003,709.9816],[12.94172,64.99903,681.6486],[12.93986,64.99634,827.8227],[12.93397,64.99128,857.4016],[12.91935,64.98521,894.3461],[12.89625,64.9795,601.5571],[12.80442,64.97198,787.2025],[12.78824,64.96516,765.8344],[12.77987,64.95782,781.8311],[12.76793,64.95257,702.4287],[12.75925,64.94983,680.1959],[12.70696,64.95268,824.5302],[12.62469,64.95017,852.0397],[12.59151,64.96182,799.6908],[12.57472,64.97185,756.7766],[12.55952,64.97756,590.6151],[12.41989,64.98792,670.3828],[12.35111,64.98229,485.7956],[12.31034,64.97213,441.3112],[12.29246,64.97221,512.4208],[12.27448,64.97691,483.0],[12.25479,64.98875,481.936],[12.24094,64.99536,311.6548],[12.22295,64.99841,260.6237],[12.20167,64.99925,0.0],[12.20151,64.99917,0.0],[12.19402,64.99486,0.0],[12.18434,64.99409,0.0],[12.17319,64.99779,146.2186],[12.17262,65.00361,236.8148],[12.17604,65.00975,208.8513],[12.17634,65.01111,225.1512],[12.16709,65.02019,332.8576],[12.15578,65.02177,371.4319],[12.12642,65.01908,259.2607],[12.10875,65.01929,211.1081],[12.0934,65.02316,273.6898],[12.07898,65.03138,130.6289],[12.05893,65.04151,292.3715],[12.05103,65.05851,168.8644],[12.04545,65.06011,81.9944],[12.04538,65.06013,81.9944],[12.04347,65.05899,67.8308],[12.03875,65.05158,48.0],[12.03142,65.03636,114.4839],[12.02613,65.03132,153.062],[12.01547,65.02961,277.2701],[12.0101,65.03596,80.3824],[12.00929,65.04609,205.5427],[12.01246,65.05549,180.0122],[11.97853,65.06883,20.6072],[11.94313,65.06245,7.1199],[11.90756,65.04914,71.269],[11.87257,65.0419,0.0],[11.81422,65.01801,55.6251],[11.80152,65.00764,80.9385],[11.80454,64.9986,149.9884],[11.81772,64.9914,165.384],[11.83497,64.98664,48.8402],[11.82016,64.98119,16.736],[11.77638,64.97671,171.8315],[11.76677,64.97089,159.2421],[11.71062,64.95726,12.4257],[11.6631,64.95311,6.1246],[11.65016,64.95649,157.8962],[11.63982,64.9628,201.5662],[11.62908,64.96589,30.3285],[11.6159,64.95995,0.0],[11.62241,64.95645,0.0],[11.63071,64.94892,0.0],[11.63575,64.94562,0.0],[11.6211,64.9444,227.0841],[11.58009,64.95283,0.0],[11.56007,64.95311,180.4652],[11.49537,64.94086,19.0813],[11.47739,64.9326,0.0],[11.52198,64.90815,0.0],[11.53395,64.90473,84.6835],[11.54933,64.90795,85.6106],[11.57789,64.92255,133.5215],[11.59474,64.9252,45.8828],[11.59474,64.91836,0.0],[11.57447,64.90693,96.889],[11.55421,64.89907,0.0],[11.53338,64.8959,0.0],[11.51222,64.8985,234.5522],[11.45021,64.92231,160.9496],[11.42319,64.9252,4.4048],[11.40138,64.92227,0.0],[11.26726,64.86982,0.0],[11.24537,64.85757,0.0],[11.60157,64.89106,64.0325],[11.67254,64.9123,121.9372],[11.69711,64.91218,63.4324],[11.66489,64.89326,0.0],[11.52377,64.86253,19.4272],[11.28199,64.84455,15.3455],[11.2527,64.83784,0.0],[11.2317,64.82274,0.0],[11.25506,64.8166,5.3618],[11.30242,64.82197,17.4045],[11.34636,64.805,0.0],[11.4297,64.8159,40.4188],[11.4214,64.80829,0.0],[11.36052,64.77123,0.0],[11.35141,64.76752,0.0],[11.3379,64.76537,0.0],[11.31007,64.75601,9.1848],[11.25099,64.74535,104.7561],[11.23854,64.74022,79.0332],[11.261,64.73436,94.178],[11.37859,64.75243,31.3569],[11.40333,64.75971,39.6638],[11.42677,64.77025,0.0],[11.44744,64.7849,55.6657],[11.46485,64.80121,7.7491],[11.47828,64.81061,18.0836],[11.49497,64.81489,69.9853],[11.52247,64.8159,-0.3394],[11.54762,64.81965,38.6858],[11.62208,64.84321,189.2606],[11.62208,64.85008,91.4928],[11.60841,64.86197,51.7039],[11.61704,64.86961,66.2988],[11.73878,64.89106,81.7675],[11.91163,64.94941,181.8761],[11.98219,64.95311,90.2937],[11.99806,64.9562,59.5229],[12.03346,64.96992,95.9041],[12.05348,64.97297,41.5117],[12.14389,64.96943,48.0379],[12.18629,64.95954,40.3576],[12.22486,64.93944,0.0],[12.06373,64.95995,0.0],[12.05095,64.95734,0.0],[12.0193,64.94318,0.0],[12.0088,64.93602,0.0],[11.99195,64.93024,206.3226],[11.91684,64.9252,0.0],[11.81446,64.89509,48.5],[11.76645,64.88923,65.7782],[11.74545,64.88418,0.0],[11.72608,64.87661,104.9262],[11.70851,64.8583,224.6544],[11.64942,64.84321,0.0],[11.6836,64.83706,12.7887],[11.71892,64.84125,28.2413],[11.78728,64.85757,0.0],[11.7798,64.85008,0.0],[11.78549,64.84382,84.098],[11.78679,64.84073,0.0],[11.78728,64.83584,28.4773],[11.67709,64.8321,11.5342],[11.64324,64.82274,0.0],[11.67091,64.82062,47.9446],[11.71656,64.81122,69.631],[11.74562,64.80915,15.2725],[11.73878,64.80231,0.0],[11.84181,64.80231,66.7346],[11.84181,64.79487,0.0],[11.82325,64.79377,0.0],[11.79038,64.78364,17.6822],[11.55323,64.76752,0.0],[11.56772,64.76333,0.0],[11.58416,64.76203,96.925],[11.59523,64.75849,0.0],[11.59474,64.74771,15.3906],[11.61004,64.74152,0.0],[11.6159,64.74022,0.0],[11.58855,64.7364,106.7943],[11.56039,64.74234,149.6737],[11.53175,64.74457,0.0],[11.47983,64.71955,30.0467],[11.42107,64.71381,0.0],[11.39617,64.70673,0.0],[11.40333,64.70563,0.0],[11.41261,64.70295,18.4557],[11.42066,64.69941,0.0],[11.42408,64.69587,0.0],[11.42018,64.6861,0.0],[11.41139,64.6861,0.0],[11.40203,64.6883,0.0],[11.39617,64.68561,8.7585],[11.39568,64.67284,151.0427],[11.40203,64.66315,358.8967],[11.41261,64.65599,196.2391],[11.42408,64.65143,101.7762],[11.42408,64.64399,44.2036],[11.42066,64.63638,37.6618],[11.42954,64.63158,221.439],[11.44337,64.62714,192.9846],[11.45444,64.62043,115.3648],[11.46388,64.61127,102.9408],[11.48552,64.59528,221.0685],[11.49488,64.58633,207.7291],[11.51677,64.57294,21.6398],[11.54762,64.56818,28.5581],[11.57716,64.57502,0.0],[11.59474,64.59687,90.1206],[11.58351,64.59601,118.4415],[11.57276,64.59638,78.9588],[11.56267,64.59854,104.0772],[11.55323,64.60301,15.0469],[11.56788,64.61253,89.3533],[11.58912,64.62295,213.7865],[11.61118,64.62861,164.326],[11.62892,64.62417,37.1888],[11.63356,64.61298,91.3337],[11.62794,64.60261,96.0099],[11.62452,64.5926,47.711],[11.63575,64.58259,24.6346],[11.65952,64.59431,176.0592],[11.7798,64.59687,269.3183],[11.7505,64.58568,0.0],[11.65626,64.56953,145.9377],[11.57008,64.53726,19.6768],[11.54705,64.54157,0.0],[11.55445,64.5445,5.1506],[11.57374,64.55585,27.9448],[11.50603,64.54841,0.0],[11.51043,64.53937,95.8966],[11.51808,64.53315,13.3176],[11.52809,64.52936,0.0],[11.53956,64.52798,10.8657],[11.53956,64.52114,34.9191],[11.52133,64.51822,0.0],[11.47527,64.51724,0.0],[11.4607,64.51118,60.5965],[11.45167,64.49628,24.9903],[11.44776,64.477,178.5351],[11.43775,64.46589,0.0],[11.65626,64.48017,10.2663],[11.61264,64.46955,93.6489],[11.52027,64.46247,0.0],[11.47739,64.45222,0.0],[11.45387,64.43993,0.0],[11.44337,64.43854,0.0],[11.43458,64.4409,0.0],[11.41676,64.45063,0.0],[11.40984,64.45222,0.0],[11.39723,64.44575,0.0],[11.36964,64.42015,25.4263],[11.36207,64.41128,0.0],[11.36997,64.41071,26.2511],[11.38933,64.4051,105.7144],[11.37761,64.39716,22.13],[11.29998,64.37031,0.0],[11.26734,64.3395,23.7319],[11.24741,64.32559,17.176],[11.22486,64.32246,0.0],[11.26873,64.36664,95.4509],[11.32032,64.39867,0.0],[11.3318,64.4121,0.0],[11.34156,64.43171,0.0],[11.31772,64.44212,0.0],[11.29396,64.44916,21.1863],[11.26979,64.45258,9.3596],[11.24537,64.45222,0.0],[11.18507,64.4416,0.0],[11.16277,64.44599,66.6125],[11.17612,64.46548,272.5157],[11.17807,64.47866,73.0195],[11.16725,64.48916,127.1201],[11.10133,64.52114,36.6011],[11.08432,64.52147,0.0],[11.07618,64.52363,0.0],[11.06349,64.53815,83.4553],[11.05974,64.54743,133.8951],[11.06349,64.56615,12.5106],[11.06031,64.57575,0.0],[11.05193,64.57982,0.0],[10.99537,64.5926,85.379],[10.9712,64.60261,21.5798],[10.95672,64.60301,3.42],[10.95704,64.6013,0.0],[10.95574,64.59724,23.7442],[10.95346,64.59276,15.9382],[10.95045,64.59003,35.1181],[10.93483,64.58356,108.1836],[10.92677,64.58198,44.3097],[10.91635,64.58259,0.0],[10.91635,64.57575,127.0058],[10.92644,64.57241,136.3073],[10.93995,64.56611,0.0],[10.95167,64.55878,32.0849],[10.95672,64.55219,104.5544],[10.95362,64.53921,0.0],[10.94874,64.52871,0.0],[10.94988,64.52049,16.1775],[10.96412,64.51496,133.157],[10.96412,64.50747,0.0],[10.93881,64.51293,0.0],[10.92791,64.51337,0.0],[10.92262,64.50747,0.0],[10.92628,64.50202,38.8877],[10.95672,64.48701,215.0746],[10.94549,64.48404,49.8476],[10.93621,64.48745,81.9483],[10.92726,64.49217,72.4426],[10.91635,64.49315,48.9189],[10.90846,64.48835,200.0029],[10.90024,64.48041,0.0],[10.89226,64.47468,12.9695],[10.88543,64.47647,115.1458],[10.86931,64.49201,104.1369],[10.8484,64.50487,0.0],[10.82472,64.51138,0.0],[10.8003,64.50747,80.3651],[10.81471,64.4982,27.9922],[10.82748,64.49189,112.4496],[10.83692,64.4829,43.5613],[10.84116,64.46589,0.0],[10.82732,64.46727,0.0],[10.80584,64.47651,0.0],[10.79282,64.48017,0.0],[10.76222,64.48017,0.0],[10.75733,64.47793,0.0],[10.75441,64.47305,0.0],[10.75278,64.46817,0.0],[10.75261,64.46589,6.5429],[10.74,64.4667,0.0],[10.7151,64.47248,15.8013],[10.70411,64.47272,35.7979],[10.69215,64.46792,0.0],[10.67042,64.45429,100.8402],[10.65642,64.45222,11.6415],[10.65642,64.44599,3.1258],[10.67994,64.43903,22.5779],[10.75261,64.44599,60.0506],[10.77459,64.44188,101.7093],[10.79664,64.43232,0.0],[10.80519,64.4208,0.0],[10.78663,64.41128,0.0],[10.79933,64.40078,104.1433],[10.85499,64.37775,168.7269],[10.83497,64.36913,0.0],[10.81511,64.37027,0.0],[10.75375,64.39305,66.2958],[10.74513,64.39765,172.8036],[10.73976,64.40339,199.4196],[10.73666,64.4101,80.6115],[10.73194,64.41576,0.0],[10.7212,64.41812,0.0],[10.66627,64.41812,162.4412],[10.65886,64.42129,68.7848],[10.64625,64.43537,86.5087],[10.63893,64.43854,42.5647],[10.63111,64.44074,124.8343],[10.61524,64.4501,42.0311],[10.60475,64.45222,24.8233],[10.59929,64.4488,0.0],[10.59327,64.44139,17.3774],[10.58546,64.43431,74.0639],[10.58766,64.43277,39.9175],[10.59197,64.43012,44.6284],[10.59425,64.42487,17.3135],[10.60222,64.4265,34.5606],[10.61313,64.4208,112.0118],[10.62322,64.41035,8.4444],[10.62522,64.40531,102.0625],[10.62553,64.40522,102.0625],[10.66145,64.39473,103.2267],[10.70894,64.38039,343.7521],[10.76092,64.34667,221.7699],[10.78966,64.33385,267.9557],[10.88598,64.30489,351.3454],[10.96406,64.2937,233.769],[10.90898,64.2229,258.641],[10.83276,64.19665,497.0475],[10.81183,64.14355,344.506],[10.84536,64.1289,525.7409],[10.87901,64.1274,517.8517],[10.91688,64.10642,528.4073],[10.87451,64.07469,459.1471],[10.82299,64.04149,341.8416],[10.81803,64.03433,305.2279],[10.81756,64.02263,293.5132],[10.82624,64.01364,318.071],[10.82764,64.00643,275.2873],[10.82299,64.00085,317.0215],[10.80733,63.99429,285.1675],[10.80082,63.98865,318.3898],[10.80128,63.98015,362.4114],[10.79834,63.9684,422.8847],[10.78247,63.95532,396.9171],[10.6416,63.89783,553.1254],[10.58109,63.85822,401.3427],[10.52554,63.80458,403.7318],[10.50254,63.76081,467.2102],[10.50022,63.75373,390.2991],[10.49836,63.75104,395.3997],[10.49665,63.74831,389.8299],[10.48223,63.73771,369.5823],[10.41552,63.71376,326.6369],[10.23972,63.65456,169.6283],[10.20137,63.63493,134.2448],[10.18106,63.6125,127.9179],[10.17254,63.60532,132.9732],[10.16551,63.59782,134.3235],[10.16334,63.58785,196.9345],[10.16845,63.57341,234.6857],[10.17641,63.55987,248.0874],[10.19781,63.54237,108.1377],[10.19792,63.54228,108.1377],[10.20484,63.54434,65.2386],[10.22836,63.55882,151.4899],[10.24138,63.5622,256.235],[10.32016,63.5622,40.0771],[10.33546,63.56415,0.0],[10.36671,63.57319,0.0],[10.40162,63.57636,92.9666],[10.41578,63.57941,20.2089],[10.52963,63.61945,0.0],[10.56666,63.62519,0.0],[10.60231,63.63593,0.0],[10.61158,63.64033,0.0],[10.63356,63.66962,0.0],[10.64275,63.67764,65.1185],[10.67172,63.68684,190.2127],[10.74073,63.69038,0.0],[10.81105,63.72016,323.1739],[10.91,63.73102,0.0],[10.94703,63.75019,229.1594],[10.9546,63.75593,161.7501],[10.97169,63.76317,45.9914],[10.97788,63.76756,0.0],[10.98227,63.77578,111.3571],[10.98715,63.79438,225.3377],[10.99147,63.8017,107.6159],[11.0075,63.81314,0.0],[11.0298,63.82343,0.0],[11.05348,63.83149,0.0],[11.07399,63.83588,0.0],[11.056,63.86127,0.0],[11.03028,63.87198,100.1594],[11.00066,63.87743,152.6605],[10.93491,63.89814,32.1626],[10.90024,63.89472,0.0],[10.77003,63.85029,0.0],[10.70069,63.84272,0.0],[10.68914,63.84016,0.0],[10.6316,63.81631,0.0],[10.61313,63.81147,0.0],[10.59376,63.80878,135.4451],[10.57374,63.80915,354.382],[10.59539,63.82026,409.2794],[10.64617,63.83324,292.4124],[10.68865,63.8603,332.7965],[10.72006,63.86982,338.3234],[10.83806,63.88727,304.9744],[10.87135,63.8972,317.0412],[10.89226,63.90754,336.3353],[10.91098,63.9217,469.7721],[10.93629,63.93635,297.697],[10.96274,63.94794,193.7412],[11.17514,64.00703,164.4235],[11.1976,64.02082,175.1989],[11.20346,64.02741,178.7312],[11.22535,64.07197,0.0],[11.29998,64.10716,173.6373],[11.32838,64.11441,78.0595],[11.36207,64.11709,119.998],[11.34506,64.10489,0.0],[11.28004,64.07612,60.3781],[11.25245,64.06806,92.7027],[11.24049,64.06102,21.1701],[11.24195,64.05158,62.2347],[11.25424,64.03791,111.0427],[11.26205,64.03612,116.299],[11.36655,64.02729,0.0],[11.42628,64.02879,16.4689],[11.44174,64.0257,3.5583],[11.45444,64.0174,43.9133],[11.49789,64.02082,35.2764],[11.48683,64.00666,0.0],[11.46315,63.99323,34.09],[11.43686,63.98314,33.7822],[11.29998,63.96556,38.0208],[11.22332,63.94546,0.0],[11.21062,63.93521,15.8604],[11.20037,63.91975,0.0],[11.17661,63.90925,21.1373],[11.11232,63.89411,40.1133],[11.1019,63.8935,39.4743],[11.09645,63.88963,113.1912],[11.09449,63.87686,117.8994],[11.09457,63.86689,184.5826],[11.09653,63.8581,242.2823],[11.10174,63.85187,97.9754],[11.11158,63.84955,117.4077],[11.2518,63.86717,17.0694],[11.27711,63.86738,0.0],[11.30193,63.86294,17.5688],[11.32732,63.85297,56.493],[11.35475,63.84813,161.9481],[11.41521,63.85008,77.4398],[11.43775,63.83588,107.3972],[11.43426,63.83267,2.7596],[11.42758,63.82526,0.0],[11.42408,63.82221,3.0695],[11.43637,63.82184,6.3756],[11.44939,63.81892,29.2279],[11.45973,63.81245,36.2026],[11.46388,63.8017,0.0],[11.45769,63.78998,8.0806],[11.44304,63.78608,7.7671],[11.33725,63.78417,0.0],[11.2658,63.7744,0.0],[11.2422,63.76508,0.0],[11.20582,63.73371,0.0],[11.18385,63.71979,0.0],[11.15675,63.71113,15.6054],[11.11964,63.70449,118.5704],[11.08302,63.70458,0.0],[11.0569,63.71605,0.0],[11.03346,63.71918,0.0],[10.90545,63.68448,0.0],[10.86427,63.65152,52.3746],[10.84457,63.64411,0.0],[10.78777,63.63483,0.0],[10.75571,63.62507,38.5008],[10.73471,63.61335,99.8246],[10.72934,63.60883,125.0749],[10.71974,63.6035,127.2932],[10.71437,63.59907,63.5922],[10.71062,63.59333,31.2133],[10.70851,63.58784,92.4199],[10.70509,63.58369,114.9091],[10.69728,63.58198,102.9581],[10.68605,63.57746,49.4716],[10.68002,63.56761,17.9449],[10.67262,63.55817,7.2335],[10.65642,63.55475,12.0237],[10.65642,63.54853,44.6867],[10.67164,63.54877,8.7361],[10.68751,63.55195,8.889],[10.70216,63.55744,0.0],[10.71437,63.56493,36.0545],[10.73015,63.57176,4.5974],[10.76832,63.57404,34.7655],[10.78598,63.5786,43.2037],[10.81756,63.59077,102.2566],[10.85133,63.59809,41.8083],[10.92262,63.60248,0.0],[10.91236,63.58853,0.0],[10.89698,63.58438,16.3202],[10.87916,63.58332,71.9934],[10.8615,63.5786,6.8984],[10.85694,63.56932,0.0],[10.87729,63.5644,52.1714],[10.92262,63.5622,50.7085],[10.92262,63.55475,68.0807],[10.83107,63.55036,0.0],[10.78077,63.53901,0.0],[10.7588,63.51748,22.2277],[10.77768,63.48749,7.0466],[10.82252,63.4759,138.6622],[10.91635,63.46654,7.8965],[10.90805,63.45624,6.0406],[10.89308,63.44953,0.0],[10.87599,63.44595,0.0],[10.87591,63.44591,0.0],[10.87588,63.44591,0.0],[10.88443,63.3867,315.8997],[10.89714,63.37365,294.2553],[10.91533,63.36016,401.1374],[10.93254,63.35427,382.4919],[10.96298,63.34895,383.7833],[11.45907,63.33673,856.5323],[11.64247,63.19687,868.5765],[12.05983,63.20477,713.6879],[11.99243,63.2889,741.4659],[12.20492,63.45463,689.2308],[12.2198,63.47427,792.4133],[12.21949,63.49659,754.0948],[12.1703,63.59813,725.1407],[12.29318,63.65699,523.421],[12.48252,63.80949,401.9233],[12.68189,63.95636,621.0276],[12.75527,63.99139,605.5481],[12.98244,64.05883,471.1033],[13.23411,64.09087,717.8124],[13.58677,64.0502,801.0143],[13.93944,64.00953,512.1887],[13.96424,64.00953,386.4646],[13.98233,64.0195,373.5087],[14.1478,64.169,652.2383],[14.16051,64.18725,833.8364],[14.16144,64.20544,909.1936],[14.11555,64.44124,585.3102],[14.09695,64.46532,311.3739],[14.06088,64.47663,311.1672],[13.98233,64.48439,339.7565],[13.94006,64.49131,341.1895],[13.64276,64.58402,670.0697],[13.90758,64.7877,673.1754],[14.1724,64.99138,669.7278],[14.1726,64.99154,669.7278],[14.31068,65.08414,862.404],[14.33207,65.11396,1043.3059]]]]}
,"properties": {"ISO3166-1-Alpha-3": "NOR","country": "Norway","fill": "#F0F","name": "Nord-Trøndelag","area_km2": 21718.0,"hist_schema_id": "Elevation0-9000","hist_area_km2": {"0": 529.81,"25": 673.67,"50": 518.95,"75": 566.67,"100": 561.4,"125": 597.05,"150": 622.75,"175": 647.77,"200": 663.2,"225": 711.76,"250": 674.26,"275": 694.55,"300": 689.18,"325": 728.8,"350": 865.21,"375": 735.71,"400": 878.1,"425": 743.34,"450": 799.31,"475": 733.49,"500": 748.25,"525": 729.99,"550": 720.69,"575": 684.89,"600": 665.19,"625": 619.77,"650": 572.89,"675": 505.93,"700": 452.19,"725": 400.44,"750": 348.96,"775": 306.05,"800": 248.45,"825": 201.6,"850": 173.68,"875": 135.49,"900": 114.23,"925": 89.7,"950": 77.71,"975": 62.33,"1000": 53.22,"1025": 40.24,"1050": 31.99,"1075": 25.01,"1100": 18.9,"1125": 14.27,"1150": 11.54,"1175": 9.19,"1200": 7.23,"1225": 4.96,"1250": 3.3,"1275": 1.6,"1300": 1.15,"1325": 0.7,"1350": 0.63,"1375": 0.35,"1400": 0.2}}}