{"type": "Feature","bbox": [11.271,59.5934,11.9273,60.0289],"geometry": {"type": "MultiPolygon","coordinates": [[[[11.3428,59.7511,234.9225],[11.3451,59.7422,241.344],[11.354,59.7428,236.2921],[11.3575,59.7295,201.6452],[11.3663,59.73,259.6645],[11.3675,59.7256,260.0111],[11.3586,59.725,222.0509],[11.3621,59.7117,300.5828],[11.3533,59.7111,309.1007],[11.3556,59.7022,305.2864],[11.3644,59.7027,316.3202],[11.3667,59.6938,225.838],[11.3755,59.6944,236.1494],[11.3779,59.6855,212.4669],[11.3867,59.6861,236.6797],[11.3878,59.6817,201.4336],[11.3967,59.6822,163.5362],[11.3978,59.6778,146.0773],[11.4066,59.6784,145.0954],[11.4078,59.6739,146.9565],[11.4166,59.6745,152.1629],[11.4178,59.6701,165.9608],[11.4531,59.6724,131.8895],[11.4542,59.6679,173.243],[11.463,59.6685,131.8279],[11.4676,59.6507,185.7733],[11.4764,59.6513,134.8002],[11.4799,59.6379,146.4632],[11.4887,59.6385,141.966],[11.4898,59.634,163.7645],[11.4986,59.6346,138.4675],[11.5009,59.6257,206.5904],[11.4833,59.6246,256.7064],[11.4844,59.6201,267.5811],[11.4668,59.619,220.778],[11.4679,59.6145,238.7857],[11.4767,59.6151,236.6457],[11.4801,59.6017,186.2417],[11.489,59.6023,213.2489],[11.4912,59.5934,177.0149],[11.5,59.594,204.3595],[11.4989,59.5984,193.1481],[11.5165,59.5996,199.3329],[11.5154,59.604,204.4398],[11.5242,59.6046,212.6115],[11.5231,59.6091,204.0695],[11.5319,59.6096,181.103],[11.5307,59.6141,196.1489],[11.5396,59.6147,192.3394],[11.5328,59.6414,245.3571],[11.5681,59.6437,126.6385],[11.5692,59.6392,125.3878],[11.578,59.6398,143.6045],[11.5769,59.6442,142.5335],[11.5857,59.6448,181.1454],[11.5846,59.6493,185.011],[11.5934,59.6498,268.4256],[11.5923,59.6543,273.2994],[11.6099,59.6554,251.2539],[11.6088,59.6599,281.9099],[11.6176,59.6604,272.4186],[11.6165,59.6649,291.4361],[11.6253,59.6655,261.4694],[11.6242,59.6699,283.6138],[11.633,59.6705,271.0634],[11.6319,59.6749,276.1688],[11.6408,59.6755,259.839],[11.6419,59.671,268.4811],[11.6507,59.6716,190.7683],[11.6496,59.6761,199.9324],[11.6584,59.6766,201.1795],[11.6573,59.6811,200.5603],[11.6661,59.6816,233.3097],[11.6628,59.695,237.738],[11.6716,59.6956,243.6116],[11.6694,59.7045,226.7578],[11.6871,59.7056,237.9034],[11.686,59.71,234.0252],[11.6948,59.7106,227.9586],[11.6937,59.7151,258.016],[11.7025,59.7156,251.0795],[11.697,59.7379,244.4319],[11.6881,59.7373,245.0895],[11.687,59.7418,244.2349],[11.6958,59.7423,262.1566],[11.6947,59.7468,245.3972],[11.7124,59.7479,295.5794],[11.7113,59.7524,255.158],[11.729,59.7535,228.9266],[11.7279,59.7579,209.4602],[11.7633,59.7602,300.3014],[11.7611,59.7691,277.3828],[11.77,59.7696,230.1919],[11.7689,59.7741,232.073],[11.7777,59.7747,234.6649],[11.7766,59.7791,220.4183],[11.9273,59.7885,242.2872],[11.9251,59.7974,272.5861],[11.9163,59.7969,260.6256],[11.9141,59.8058,273.6704],[11.9052,59.8052,286.6256],[11.903,59.8141,268.094],[11.8942,59.8136,304.7297],[11.8909,59.8269,269.4802],[11.882,59.8264,261.6897],[11.8809,59.8308,268.7693],[11.8543,59.8292,269.7359],[11.8532,59.8336,290.9297],[11.8443,59.8331,323.9397],[11.8399,59.8509,287.8679],[11.831,59.8504,277.6398],[11.826599999999999,59.8682,310.1906],[11.8178,59.8676,288.0782],[11.8122,59.8899,240.756],[11.8033,59.8893,228.2688],[11.7989,59.9072,261.7353],[11.8078,59.9077,243.1681],[11.8045,59.9211,243.4118],[11.8134,59.9216,257.017],[11.8079,59.9439,195.9403],[11.799,59.9433,217.8981],[11.7956,59.9567,194.5],[11.7867,59.9562,204.1327],[11.7845,59.9651,199.567],[11.7934,59.9656,194.5],[11.7912,59.9745,194.5],[11.8001,59.9751,194.5],[11.799,59.9795,205.1076],[11.8079,59.9801,226.0028],[11.8057,59.989,244.5511],[11.8146,59.9896,231.3885],[11.8124,59.9985,273.6168],[11.8213,59.999,280.4095],[11.8202,60.0035,285.4298],[11.7934,60.0018,198.5],[11.7945,59.9973,217.7072],[11.7856,59.9968,198.5],[11.7845,60.0012,198.5],[11.7756,60.0007,212.7292],[11.7745,60.0051,215.9631],[11.7656,60.0046,288.1202],[11.7644,60.009,282.4264],[11.7466,60.0079,346.8899],[11.7455,60.0124,321.6312],[11.7009,60.0096,355.9895],[11.6997,60.014,362.2153],[11.6641,60.0118,269.015],[11.6652,60.0073,257.9912],[11.6384,60.0056,322.4391],[11.6373,60.0101,312.8703],[11.6284,60.0095,331.5622],[11.6272,60.014,324.7276],[11.6094,60.0128,367.5589],[11.6083,60.0173,317.2889],[11.5993,60.0167,312.3532],[11.5982,60.0212,313.0503],[11.5893,60.0206,289.8326],[11.5881,60.025,299.8864],[11.5792,60.0245,289.6301],[11.5781,60.0289,292.4309],[11.5602,60.0278,239.3832],[11.5156,60.0249,205.0947],[11.5179,60.016,200.7067],[11.509,60.0154,217.7733],[11.5102,60.011,234.9638],[11.4834,60.0093,309.2662],[11.4846,60.0048,315.8034],[11.4578,60.0031,335.0711],[11.459,59.9986,320.0281],[11.4501,59.998,310.7112],[11.4512,59.9936,338.619],[11.4423,59.993,307.1165],[11.4435,59.9886,296.3335],[11.4345,59.988,291.9998],[11.4357,59.9835,304.6913],[11.4268,59.983,280.6093],[11.428,59.9785,294.4626],[11.419,59.9779,288.623],[11.4202,59.9735,283.1896],[11.4113,59.9729,269.4482],[11.4125,59.9684,222.7769],[11.4036,59.9679,258.9789],[11.4047,59.9634,228.4127],[11.3958,59.9628,269.3925],[11.397,59.9584,211.0394],[11.3614,59.956,143.7212],[11.3637,59.9471,141.2017],[11.3548,59.9466,137.5152],[11.356,59.9421,134.9504],[11.3471,59.9415,139.9424],[11.3494,59.9326,178.2036],[11.3405,59.932,251.4007],[11.3429,59.9231,184.2855],[11.334,59.9226,271.1523],[11.3363,59.9137,239.8802],[11.3274,59.9131,257.5695],[11.3286,59.9086,234.458],[11.3197,59.908,262.217],[11.3244,59.8902,272.0091],[11.3155,59.8896,272.2744],[11.319,59.8763,248.5131],[11.3279,59.8769,253.0085],[11.3291,59.8724,281.4659],[11.338,59.873,253.957],[11.345,59.8463,218.6635],[11.3272,59.8451,232.1683],[11.3284,59.8407,277.3668],[11.3018,59.8389,276.4579],[11.3029,59.8345,311.4929],[11.2941,59.8339,249.7716],[11.2952,59.8294,243.2298],[11.2864,59.8289,243.3566],[11.2876,59.8244,210.8945],[11.2787,59.8238,204.9455],[11.2799,59.8194,208.3043],[11.271,59.8188,160.6133],[11.2733,59.8099,275.5142],[11.2822,59.8105,178.877],[11.2857,59.7971,217.7062],[11.2946,59.7977,237.525],[11.2958,59.7933,233.158],[11.3046,59.7938,216.1304],[11.3069,59.785,277.7562],[11.3158,59.7855,246.9575],[11.3181,59.7766,281.2567],[11.327,59.7772,227.0265],[11.3281,59.7728,230.7183],[11.337,59.7734,180.4459],[11.3393,59.7645,233.0882],[11.3482,59.765,192.0581],[11.3493,59.7606,242.1831],[11.3405,59.76,256.7448],[11.3428,59.7511,234.9225]]]]}
,"properties": {"GID_2": "NOR.1.3_1","GID_0": "NOR","country": "Norway","GID_1": "NOR.1_1","province": "Akershus","NL_NAME_1": "NA","county": "Aurskog-Høland","VARNAME_2": "NA","NL_NAME_2": "NA","TYPE_2": "Kommuner","ENGTYPE_2": "Municipality","CC_2": "NA","HASC_2": "NO.AK.AH","name": "Aurskog-Høland.county","area_km2": 967.0441,"hist_schema_id": "Elevation0-9000","hist_area_km2": {"125": 67.2776,"150": 89.6926,"175": 123.5306,"200": 128.4899,"225": 118.731,"250": 112.0751,"275": 130.2521,"300": 107.1194,"325": 58.4528,"350": 24.5983,"375": 6.708,"400": 0.1167}}}