{"type": "Feature","bbox": [8.7534,58.763,9.1855,58.9953],"geometry": {"type": "MultiPolygon","coordinates": [[[[9.0183,58.7844,142.0],[9.0239,58.7667,153.4566],[9.0325,58.7674,147.5159],[9.0339,58.763,151.9174],[9.051,58.7644,137.3094],[9.0496,58.7689,140.9785],[9.0582,58.7696,149.1747],[9.0553,58.7785,125.3461],[9.0639,58.7792,152.7355],[9.0625,58.7836,131.5766],[9.1395,58.7902,86.2028],[9.1381,58.7947,96.8647],[9.1638,58.7969,171.7701],[9.161,58.8057,125.3989],[9.1696,58.8064,114.2671],[9.1682,58.8109,125.925],[9.1767,58.8116,148.5944],[9.1753,58.816,75.5],[9.1839,58.8168,160.7317],[9.1769,58.8389,175.4026],[9.1855,58.8396,171.5764],[9.1757,58.8706,210.2898],[9.1671,58.8699,205.9187],[9.1643,58.8787,174.8049],[9.1557,58.878,200.6837],[9.1529,58.8869,154.7786],[9.1443,58.8861,192.0584],[9.1429,58.8906,227.1985],[9.1343,58.8898,272.3326],[9.1329,58.8942,231.4319],[9.1243,58.8935,241.5014],[9.1229,58.8979,195.0667],[9.1143,58.8972,216.3076],[9.1129,58.9016,187.7454],[9.0957,58.9002,177.4841],[9.0943,58.9046,192.2236],[9.0857,58.9039,130.0574],[9.0843,58.9083,115.5],[9.0757,58.9075,138.257],[9.0743,58.912,124.7565],[9.0657,58.9112,130.4348],[9.0643,58.9157,147.1753],[9.0557,58.9149,157.3468],[9.0528,58.9238,168.3255],[9.0442,58.923,154.3064],[9.0428,58.9275,171.6686],[9.0342,58.9267,180.1153],[9.0314,58.9356,169.1232],[9.0228,58.9348,214.9824],[9.0156,58.957,294.7598],[9.007,58.9562,244.4017],[8.997,58.9872,228.9514],[8.9884,58.9864,230.9645],[8.9855,58.9953,239.2306],[8.865,58.9848,384.1572],[8.8636,58.9893,401.0949],[8.8291,58.9862,380.1499],[8.8321,58.9774,283.4528],[8.8235,58.9767,326.8468],[8.8249,58.9722,478.8019],[8.8077,58.9707,440.4095],[8.8092,58.9663,461.5462],[8.792,58.9648,567.6363],[8.7934,58.9604,562.8094],[8.7676,58.9581,642.6205],[8.7691,58.9537,565.0129],[8.7605,58.9529,619.2178],[8.762,58.9485,562.7312],[8.7534,58.9477,570.4738],[8.7578,58.9345,449.7633],[8.7663,58.9352,467.2654],[8.7678,58.9308,464.9325],[8.7764,58.9316,474.2758],[8.7779,58.9271,346.124],[8.7864,58.9279,303.6337],[8.7879,58.9235,407.0975],[8.7965,58.9242,410.1258],[8.7979,58.9198,411.3274],[8.8151,58.9213,287.9313],[8.8166,58.9169,321.4026],[8.8252,58.9176,343.085],[8.8281,58.9088,385.3466],[8.8195,58.908,483.1779],[8.8209,58.9036,365.1209],[8.8123,58.9029,370.8747],[8.8152,58.894,403.514],[8.8067,58.8933,484.1983],[8.8081,58.8888,472.8103],[8.7995,58.8881,486.4416],[8.801,58.8837,474.7842],[8.7924,58.8829,456.8684],[8.7939,58.8785,422.8588],[8.7853,58.8777,444.8601],[8.7897,58.8645,379.957],[8.8068,58.866,399.8086],[8.8053,58.8704,386.5952],[8.8225,58.8719,381.1899],[8.8254,58.8631,342.0885],[8.834,58.8638,325.7403],[8.8354,58.8594,320.5446],[8.8526,58.8609,217.1529],[8.854,58.8565,217.1915],[8.8626,58.8572,229.2311],[8.864,58.8528,220.4394],[8.8812,58.8543,328.1252],[8.8826,58.8499,379.3444],[8.9083,58.8521,320.9665],[8.9098,58.8477,385.5644],[8.9269,58.8492,268.7099],[8.9283,58.8448,259.0225],[8.9369,58.8455,219.3516],[8.9398,58.8367,239.6002],[8.9484,58.8374,244.8171],[8.9512,58.8286,236.2926],[8.9598,58.8293,247.2416],[8.9612,58.8249,240.7014],[8.9698,58.8256,233.3245],[8.9712,58.8212,240.1844],[8.9883,58.8227,263.4669],[8.9898,58.8183,266.8054],[8.9983,58.819,239.6719],[9.0012,58.8102,202.3662],[8.9926,58.8094,211.959],[8.994,58.805,207.1754],[8.9855,58.8043,198.1792],[8.9883,58.7954,163.8397],[9.0055,58.7969,212.2787],[9.0069,58.7925,208.2857],[9.0154,58.7932,187.167],[9.0183,58.7844,142.0]]]]}
,"properties": {"GID_2": "NOR.3.8_1","GID_0": "NOR","country": "Norway","GID_1": "NOR.3_1","province": "Aust-Agder","NL_NAME_1": "NA","county": "Gjerstad","VARNAME_2": "NA","NL_NAME_2": "NA","TYPE_2": "Kommuner","ENGTYPE_2": "Municipality","CC_2": "NA","HASC_2": "NO.AA.GJ","name": "Gjerstad.county","area_km2": 325.9722,"hist_schema_id": "Elevation0-9000","hist_area_km2": {"0": 0.011,"25": 5.1464,"50": 5.9462,"75": 8.807,"100": 17.8456,"125": 24.8917,"150": 29.6014,"175": 25.4316,"200": 26.4971,"225": 27.477,"250": 28.5121,"275": 20.1677,"300": 19.3,"325": 19.3555,"350": 16.5186,"375": 17.3591,"400": 13.1208,"425": 8.3368,"450": 4.7024,"475": 3.1937,"500": 1.2466,"525": 0.7435,"550": 0.7654,"575": 0.5576,"600": 0.2515,"625": 0.1531,"650": 0.0328}}}