{"type":"Feature","properties":{"GID_2":"NOR.9.1_1","GID_0":"NOR","country":"Norway","GID_1":"NOR.9_1","province":"Nord-Trøndelag","NL_NAME_1":"NA","county":"Flatanger","VARNAME_2":"NA","NL_NAME_2":"NA","TYPE_2":"Kommuner","ENGTYPE_2":"Municipality","CC_2":"NA","HASC_2":"NO.NT.FL","name":"Flatanger.county"},
"geometry":{"type": "MultiPolygon","coordinates": [[[[10.7896,64.3896,25.9687],[10.7859,64.3891,35.8286],[10.7859,64.388,0.0],[10.7911,64.388,0.0],[10.7896,64.3896,25.9687]]],
[[[10.7745,64.3995,9.8971],[10.7714,64.3995,16.6209],[10.7714,64.3984,19.4567],[10.7745,64.3984,7.2713],[10.7745,64.3995,9.8971]]],
[[[10.563,64.4464,0.0],[10.5688,64.4437,0.0],[10.5729,64.4479,0.0],[10.5708,64.45,0.0],[10.563,64.4464,0.0]]],
[[[10.5786,64.4526,4.6353],[10.5755,64.4505,2.3224],[10.5875,64.45,0.0],[10.5891,64.4505,0.0],[10.5896,64.4542,9.061],[10.5875,64.4563,0.0],[10.5786,64.4526,4.6353]]],
[[[10.8063,64.4167,3.6413],[10.8026,64.4161,15.0297],[10.8026,64.4151,0.0],[10.8063,64.4146,19.5155],[10.8063,64.4167,3.6413]]],
[[[10.8,64.4187,30.3577],[10.7984,64.4182,30.3577],[10.7984,64.4172,15.8732],[10.8016,64.4172,24.89],[10.8,64.4187,30.3577]]],
[[[10.8161,64.4151,0.0],[10.8063,64.4146,19.5155],[10.8036,64.4089,126.5382],[10.7854,64.4063,0.0],[10.7839,64.4047,18.8013],[10.7911,64.4036,66.4557],[10.7922,64.4005,47.4396],[10.7953,64.3995,73.0678],[10.7943,64.3964,0.0],[10.7984,64.3943,0.0],[10.8229,64.3917,77.2572],[10.8286,64.3891,127.4623],[10.8193,64.3849,69.9243],[10.8172,64.3818,0.0],[10.826599999999999,64.3807,26.876],[10.838,64.3734,0.0],[10.8458,64.3729,61.9959],[10.8474,64.3714,69.5022],[10.8396,64.3688,10.9935],[10.8146,64.3688,0.0],[10.8089,64.3714,0.0],[10.8141,64.3734,10.235],[10.8141,64.3766,107.2529],[10.8083,64.3792,0.0],[10.8026,64.3797,0.0],[10.8036,64.3849,0.0],[10.8021,64.3854,0.0],[10.7813,64.3792,54.0629],[10.775,64.3792,43.0928],[10.7646,64.375,138.8204],[10.7568,64.3755,189.2378],[10.7578,64.3807,0.0],[10.7505,64.3839,133.6547],[10.7557,64.3974,0.0],[10.7484,64.3984,67.1852],[10.7479,64.4,25.6099],[10.7484,64.4036,23.4115],[10.7578,64.4047,0.0],[10.7547,64.4068,91.896],[10.7557,64.4099,37.9321],[10.7458,64.4146,18.5374],[10.7396,64.4146,0.0],[10.7354,64.4125,61.2139],[10.7063,64.4125,289.1744],[10.7021,64.4146,90.7539],[10.6979,64.4125,237.3997],[10.6917,64.4125,7.5197],[10.6875,64.4146,0.0],[10.6776,64.4151,18.589],[10.6766,64.4182,0.0],[10.6693,64.4193,38.032],[10.6703,64.4245,0.0],[10.6672,64.4255,15.8617],[10.6661,64.4287,19.5092],[10.663,64.4297,76.1586],[10.6599,64.4349,27.7122],[10.6542,64.4375,0.0],[10.6464,64.438,107.8347],[10.6422,64.4401,0.0],[10.6432,64.4432,0.0],[10.6307,64.4495,0.0],[10.6234,64.4505,0.0],[10.6224,64.4537,0.0],[10.6125,64.4583,0.0],[10.6083,64.4563,1.786],[10.6005,64.4557,0.0],[10.5974,64.4484,0.0],[10.5922,64.4474,0.0],[10.5891,64.4401,0.0],[10.5875,64.4396,0.0],[10.5771,64.4396,0.0],[10.5729,64.4417,0.0],[10.5438,64.4417,0.0],[10.5422,64.4401,2.324],[10.5479,64.4375,0.0],[10.5536,64.437,0.0],[10.5661,64.4307,19.0316],[10.5651,64.4276,0.0],[10.5667,64.4271,0.0],[10.5771,64.4292,0.0],[10.5797,64.4255,0.0],[10.5896,64.4229,0.0],[10.6057,64.4224,0.0],[10.6068,64.4193,28.0655],[10.6099,64.4182,41.9849],[10.6089,64.4151,0.0],[10.6104,64.4146,0.0],[10.6146,64.4167,0.0],[10.625,64.4167,0.0],[10.6307,64.4141,10.3385],[10.6307,64.4089,33.8558],[10.6271,64.4083,94.8139],[10.6229,64.4104,9.0684],[10.6151,64.4078,21.9962],[10.6146,64.4063,0.0],[10.6193,64.4026,0.0],[10.6292,64.4021,0.0],[10.6349,64.3995,23.511],[10.6339,64.3943,0.0],[10.637,64.3932,0.0],[10.637,64.3901,25.5522],[10.6292,64.3896,9.6754],[10.6208,64.3938,0.0],[10.6109,64.3943,0.0],[10.6099,64.3974,0.0],[10.6026,64.4005,0.0],[10.6036,64.4057,0.0],[10.5964,64.4068,23.7376],[10.588,64.4109,62.2731],[10.5891,64.4161,0.0],[10.5833,64.4187,0.0],[10.5729,64.4187,67.2416],[10.5661,64.4224,6.2586],[10.5589,64.4234,68.0175],[10.5599,64.4266,0.0],[10.5391,64.437,0.0],[10.5318,64.438,3.862],[10.5307,64.4432,0.0],[10.5292,64.4437,0.0],[10.5172,64.4411,0.0],[10.5172,64.438,0.0],[10.5245,64.4349,4.6229],[10.5224,64.4318,0.0],[10.513,64.4307,0.0],[10.5028,64.425,4.2105],[10.5134,64.4249,77.7589],[10.5165,64.416,68.227],[10.5268,64.4167,186.4733],[10.5283,64.4122,58.8532],[10.5386,64.4129,228.8859],[10.5401,64.4084,113.3973],[10.5504,64.4091,205.5461],[10.5517,64.4054,155.3863],[10.5683,64.4014,20.2734],[10.5693,64.3984,0.0],[10.575,64.3979,0.0],[10.5807,64.3953,0.0],[10.5792,64.3938,0.0],[10.5729,64.3938,0.0],[10.5651,64.3912,0.0],[10.5651,64.388,0.0],[10.5667,64.3875,0.0],[10.5771,64.3854,0.0],[10.5813,64.3875,4.6354],[10.6063,64.3896,0.0],[10.6078,64.388,7.6766],[10.6026,64.3839,6.4357],[10.6127,64.3833,7.0824],[10.6109,64.3859,30.6209],[10.6212,64.3863,28.3083],[10.6245,64.382,31.5581],[10.6433,64.3831,112.0007],[10.6448,64.3787,210.8222],[10.6551,64.3793,198.2184],[10.6566,64.3749,392.0689],[10.6669,64.3755,372.3548],[10.6684,64.3711,201.2808],[10.6787,64.3717,231.6376],[10.6817,64.3628,45.1165],[10.692,64.3635,189.0048],[10.6935,64.359,149.0362],[10.7037,64.3597,398.3323],[10.7112,64.3374,281.624],[10.7215,64.3381,400.9657],[10.7245,64.3292,425.8469],[10.7347,64.3298,409.6586],[10.7362,64.3254,443.1797],[10.7465,64.326,394.8891],[10.7495,64.3171,372.0162],[10.7597,64.3177,428.9484],[10.7612,64.3133,434.7863],[10.7715,64.3139,448.0417],[10.773,64.3095,440.6059],[10.7832,64.3101,412.9953],[10.7862,64.3012,362.4336],[10.7964,64.3018,349.0948],[10.7979,64.2974,292.0532],[10.8082,64.298,328.5045],[10.8097,64.2936,486.0574],[10.8302,64.2948,422.7289],[10.8316,64.2904,414.3322],[10.8521,64.2916,494.4541],[10.8536,64.2872,490.0753],[10.8741,64.2885,436.8182],[10.8756,64.284,416.4997],[10.8961,64.2853,326.3048],[10.8975,64.2808,282.712],[10.918,64.2821,354.2951],[10.9195,64.2776,453.7094],[10.94,64.2788,465.9401],[10.9385,64.2833,425.5787],[10.9488,64.2839,446.4137],[10.9459,64.2928,350.7578],[10.9561,64.2934,287.4644],[10.9547,64.2979,349.9422],[10.9649,64.2985,237.7068],[10.9635,64.3029,195.2367],[10.9737,64.3036,273.3912],[10.9723,64.308,311.4251],[10.9825,64.3086,288.3654],[10.9811,64.3131,384.2146],[10.9913,64.3137,363.2507],[10.9884,64.3226,504.3766],[10.9987,64.3232,553.7648],[10.9972,64.3277,528.7523],[11.0075,64.3283,499.4014],[11.0032,64.3416,335.5],[11.0134,64.3422,338.9558],[11.0091,64.3556,485.0936],[11.0194,64.3562,452.5559],[11.015,64.3695,501.4835],[11.0253,64.3701,512.4259],[11.0209,64.3835,495.42],[11.0312,64.3841,522.8696],[11.0298,64.3886,468.0891],[11.0401,64.3892,273.1758],[11.043,64.3803,575.0472],[11.0532,64.3809,432.8239],[11.0547,64.3764,562.7975],[11.065,64.3771,405.3803],[11.0693,64.3637,443.0573],[11.1002,64.3655,438.5672],[11.0973,64.3744,490.7865],[11.1076,64.375,432.1054],[11.1004,64.3973,341.3635],[11.1107,64.3979,400.9335],[11.102,64.4246,184.3522],[11.0505,64.4215,114.4735],[11.0491,64.426,88.4759],[11.0388,64.4254,70.5],[11.033,64.4432,219.5135],[11.0433,64.4438,351.4016],[11.0418,64.4482,310.6733],[11.0521,64.4488,254.5046],[11.0478,64.4622,196.0309],[11.0375,64.4616,228.28],[11.0331,64.4749,217.8199],[11.0228,64.4743,411.6547],[11.0155,64.4966,358.9928],[11.0258,64.4972,459.5898],[11.0243,64.5016,456.3813],[11.0347,64.5022,272.4058],[11.0318,64.5111,360.7992],[11.0421,64.5117,222.9355],[11.0377,64.5251,159.6249],[11.0274,64.5245,157.3425],[11.0245,64.5334,121.1385],[11.0348,64.534,176.4548],[11.0319,64.5429,232.9586],[11.0422,64.5435,253.805],[11.0408,64.548,231.2342],[11.0653,64.5494,71.4108],[11.0665,64.545,29.3026],[11.0699,64.5418,31.4238],[11.0724,64.5495,0.0],[11.0693,64.5516,12.3237],[11.0745,64.5526,0.0],[11.0755,64.5578,0.0],[11.0776,64.5599,0.0],[11.087,64.563,13.7582],[11.0891,64.5661,0.0],[11.0792,64.5687,0.0],[11.0687,64.5667,0.0],[11.0646,64.5687,12.4383],[11.0583,64.5687,7.3505],[11.0568,64.5693,4.1981],[11.0578,64.5724,0.0],[11.0487,64.5768,37.3395],[11.0422,64.5776,24.6364],[11.0271,64.5854,6.3076],[11.0005,64.5859,0.0],[11.0016,64.5891,0.0],[10.9979,64.5917,0.0],[10.9995,64.5974,0.0],[10.987,64.6036,1.0706],[10.9771,64.6062,0.0],[10.9625,64.6062,0.0],[10.9578,64.6026,5.759],[10.9526,64.6016,0.0],[10.9516,64.5964,21.5479],[10.9495,64.5943,0.0],[10.9443,64.5932,0.0],[10.9432,64.588,0.0],[10.925,64.5875,0.0],[10.9208,64.5854,0.0],[10.913,64.5849,0.0],[10.9161,64.5818,9.9114],[10.9109,64.5807,0.0],[10.9089,64.5734,0.0],[10.9161,64.5724,93.2896],[10.9188,64.5687,0.0],[10.9229,64.5708,93.0551],[10.9349,64.5703,0.0],[10.9359,64.5672,0.0],[10.9391,64.5661,0.0],[10.938,64.563,0.0],[10.9411,64.562,0.0],[10.9422,64.5589,19.561],[10.9557,64.5516,61.1791],[10.9568,64.5484,0.0],[10.9641,64.5474,0.0],[10.963,64.5422,15.889],[10.9745,64.537,0.0],[10.9745,64.5339,0.0],[10.9651,64.5328,0.0],[10.963,64.5307,0.0],[10.962,64.5255,6.961],[10.9526,64.5245,7.6844],[10.95,64.5208,16.1775],[10.9536,64.5182,41.6233],[10.9526,64.5151,0.0],[10.9682,64.5078,19.6041],[10.9672,64.5005,0.0],[10.9729,64.5021,28.8272],[10.9833,64.5021,0.0],[10.9854,64.5,69.7938],[10.9833,64.4979,215.5784],[10.9667,64.4958,73.2521],[10.9641,64.4995,10.5968],[10.9495,64.5078,0.0],[10.9375,64.5083,32.1794],[10.9307,64.512,43.8986],[10.9208,64.5146,0.0],[10.9104,64.5146,11.9931],[10.9083,64.5125,0.0],[10.912,64.512,0.0],[10.9109,64.5089,0.0],[10.9125,64.5083,0.0],[10.9245,64.5078,9.5325],[10.9245,64.5047,0.0],[10.9229,64.5042,9.845],[10.9063,64.5021,0.0],[10.8938,64.5083,0.0],[10.8859,64.5057,0.0751],[10.8932,64.5016,25.6777],[10.8917,64.4979,0.0],[10.8958,64.4938,1.5231],[10.8938,64.4896,5.5831],[10.8974,64.487,0.0],[10.8964,64.4818,0.0],[10.9036,64.4807,32.871],[10.9026,64.4755,0.0],[10.9063,64.4729,0.0],[10.9057,64.4714,0.0],[10.8943,64.4682,0.0],[10.8979,64.4646,0.0],[10.8958,64.4625,15.9487],[10.888,64.463,22.6145],[10.8932,64.4786,0.0],[10.8859,64.4818,81.4897],[10.887,64.4849,0.0],[10.8839,64.4859,48.1166],[10.8828,64.4891,27.2346],[10.8771,64.4917,53.3925],[10.8714,64.4922,119.2937],[10.8729,64.4938,0.0],[10.8854,64.4938,11.9858],[10.8854,64.4958,0.0],[10.8818,64.4964,5.2116],[10.8828,64.4995,0.0],[10.8813,64.5,0.0],[10.8708,64.5,0.0],[10.8583,64.5042,0.0],[10.8521,64.5,0.0],[10.8495,64.5036,6.8043],[10.8438,64.5062,4.6229],[10.8396,64.5042,4.0732],[10.8313,64.5083,0.0],[10.8167,64.5083,0.0],[10.8125,64.5104,0.0],[10.8021,64.5104,13.246],[10.7979,64.5125,0.0],[10.7938,64.5125,0.0],[10.7859,64.5099,0.0],[10.7859,64.5068,0.0],[10.7891,64.5057,0.0],[10.7875,64.5042,11.3108],[10.7755,64.5078,1.9006],[10.7729,64.5021,0.0],[10.7766,64.4995,4.2983],[10.7745,64.4943,5.8764],[10.7625,64.4938,28.3902],[10.7609,64.4943,31.8718],[10.7609,64.4974,0.0],[10.7661,64.4984,0.0],[10.7651,64.5036,0.0],[10.7682,64.5057,0.0],[10.7625,64.5083,0.0],[10.7547,64.5057,0.0],[10.7521,64.5021,14.3351],[10.7396,64.5083,0.0],[10.7188,64.5083,0.0],[10.713,64.5068,13.0715],[10.7047,64.512,0.0],[10.7271,64.5125,0.5786],[10.7313,64.5104,0.0],[10.7354,64.5104,0.0],[10.7396,64.5125,2.7275],[10.7458,64.5125,6.0664],[10.75,64.5104,0.0],[10.7578,64.5162,0.0],[10.7547,64.5172,18.5351],[10.7557,64.5203,0.0],[10.75,64.5229,0.0],[10.7443,64.5234,0.0],[10.7276,64.5318,0.0],[10.7266,64.5349,0.0],[10.7234,64.5359,16.0712],[10.7245,64.5411,0.0],[10.7188,64.5396,0.0],[10.7068,64.5401,0.0],[10.7068,64.5432,0.0],[10.7141,64.5484,5.9629],[10.7125,64.55,0.0],[10.7063,64.55,4.5165],[10.7021,64.5521,0.0],[10.6833,64.5521,0.0],[10.6729,64.5479,9.7205],[10.6609,64.5474,0.0],[10.6589,64.5453,0.0],[10.6589,64.5422,0.0],[10.6646,64.5396,0.2464],[10.675,64.5417,0.0],[10.6766,64.5411,0.0],[10.6755,64.538,0.0],[10.6786,64.5359,0.0],[10.6604,64.5333,0.0],[10.6521,64.5292,0.0],[10.6438,64.5292,5.2094],[10.6417,64.5271,0.0],[10.6453,64.5245,0.0],[10.6453,64.5214,0.0],[10.6333,64.5229,1.8496],[10.6297,64.5203,0.0],[10.6328,64.5182,0.0],[10.6297,64.5162,0.0],[10.6313,64.5146,0.0],[10.6396,64.5146,0.0],[10.6458,64.5188,0.0],[10.65,64.5167,0.0],[10.6646,64.5167,0.0],[10.6688,64.5146,0.0],[10.6807,64.5162,0.0],[10.6818,64.513,0.0],[10.6859,64.5109,1.012],[10.6958,64.5104,0.0],[10.701599999999999,64.5078,0.0],[10.7,64.5062,6.6998],[10.6922,64.5057,0.0],[10.6922,64.5026,0.0],[10.6964,64.5005,0.0],[10.7224,64.4974,9.1532],[10.7214,64.4943,1.1742],[10.7286,64.4901,1.24],[10.7151,64.4912,0.0],[10.7208,64.4875,0.0],[10.7391,64.488,0.0],[10.7401,64.4912,0.0],[10.7453,64.4932,0.0],[10.7396,64.4958,0.0],[10.7333,64.4958,0.0],[10.7318,64.4974,0.0],[10.7339,64.4995,0.0],[10.7417,64.5,0.0],[10.7458,64.5021,0.0],[10.7557,64.4974,0.0],[10.7505,64.4953,0.0],[10.75,64.4917,0.0],[10.7526,64.488,0.0],[10.7703,64.4828,3.1142],[10.7682,64.4797,0.0],[10.7589,64.4786,0.0],[10.7568,64.4745,0.0],[10.7599,64.4724,0.0],[10.7609,64.4693,0.0],[10.7641,64.4682,0.0],[10.762,64.4651,0.0],[10.7563,64.4667,0.0],[10.7484,64.4661,0.0],[10.7484,64.463,0.0],[10.7557,64.462,0.0],[10.7557,64.4568,0.0],[10.7438,64.4563,4.0904],[10.738,64.4589,0.0],[10.7349,64.4682,0.0],[10.7276,64.4724,0.0],[10.7328,64.4734,0.0],[10.7354,64.4771,0.0],[10.7438,64.4729,0.0],[10.7516,64.4734,0.0],[10.7536,64.4786,0.0],[10.7438,64.4833,9.6823],[10.7396,64.4812,0.0],[10.7292,64.4812,0.0],[10.7146,64.4854,0.0],[10.7104,64.4833,0.0],[10.7,64.4833,0.914],[10.6958,64.4854,0.0],[10.688,64.4828,0.0],[10.6854,64.4792,0.0],[10.6708,64.4812,2.0877],[10.6625,64.4854,0.0],[10.6547,64.4828,0.0],[10.6578,64.4807,0.0],[10.6568,64.4776,2.4436],[10.6604,64.475,21.1799],[10.6589,64.4672,0.0],[10.6661,64.4661,0.0],[10.6729,64.4625,0.0],[10.6792,64.4625,0.0],[10.6849,64.4651,0.0],[10.6818,64.4672,0.0],[10.6839,64.4724,0.0],[10.6891,64.4755,11.422],[10.6938,64.4812,0.0],[10.6958,64.4792,0.0],[10.6943,64.4714,0.0],[10.6974,64.4703,6.7567],[10.6953,64.4672,16.4071],[10.6901,64.4641,0.0],[10.6891,64.4609,3.8177],[10.675,64.4563,55.4681],[10.6589,64.4557,0.0],[10.6568,64.4537,4.6288],[10.6547,64.4464,0.0],[10.6578,64.4453,0.0],[10.6589,64.4422,0.0],[10.6729,64.4375,0.0],[10.6875,64.4375,0.0],[10.6974,64.4349,0.0],[10.6964,64.4297,0.0],[10.6995,64.4287,0.0],[10.7021,64.425,0.0],[10.7167,64.425,0.0],[10.7313,64.4292,0.0],[10.7417,64.4292,0.0],[10.75,64.4375,0.0],[10.7557,64.4349,21.3843],[10.7547,64.4318,0.0],[10.7563,64.4313,0.0],[10.7771,64.4313,0.0],[10.7917,64.4354,0.0],[10.8021,64.4354,0.0],[10.8042,64.4333,0.0],[10.8026,64.4276,0.0],[10.8057,64.4255,31.6267],[10.8005,64.4234,0.0],[10.8063,64.4229,0.0],[10.812,64.4203,24.5247],[10.813,64.4172,0.0],[10.8161,64.4151,0.0]]],
[[[10.8214,64.5255,0.0],[10.8089,64.5318,35.7718],[10.8099,64.5349,0.0],[10.7958,64.5417,0.0],[10.7922,64.5391,9.2962],[10.7911,64.5359,15.8742],[10.7714,64.5328,0.0],[10.7755,64.5297,11.429],[10.7828,64.5286,10.2047],[10.7911,64.5245,0.0],[10.7891,64.5214,0.0],[10.7797,64.5203,7.1049],[10.7797,64.5172,0.0],[10.7813,64.5167,0.0],[10.8,64.5167,0.0],[10.8042,64.5146,0.0],[10.8333,64.5146,22.0855],[10.8375,64.5125,0.0],[10.8453,64.5151,11.3452],[10.8438,64.5167,0.0],[10.838,64.5172,47.7028],[10.837,64.5203,0.0],[10.8286,64.5245,0.0],[10.8214,64.5255,0.0]]],
[[[10.5849,64.4578,3.2325],[10.5818,64.4578,0.0],[10.5818,64.4568,0.0],[10.5849,64.4568,0.0],[10.5849,64.4578,3.2325]]],
[[[10.6755,64.488,0.0],[10.6813,64.4854,2.3765],[10.6849,64.4859,0.0],[10.6854,64.4875,0.0],[10.6833,64.4896,2.7326],[10.6771,64.4896,3.0944],[10.6755,64.488,0.0]]],
[[[10.6703,64.5016,0.0],[10.6672,64.5016,0.0],[10.6672,64.5005,0.0],[10.6703,64.5005,7.0918],[10.6703,64.5016,0.0]]],
[[[10.6641,64.537,3.4243],[10.6609,64.537,2.3786],[10.6609,64.5359,0.0],[10.6641,64.5359,0.0],[10.6641,64.537,3.4243]]],
[[[10.7667,64.5542,0.0],[10.7708,64.5521,0.0],[10.7771,64.5521,4.383],[10.7792,64.5542,0.0],[10.7786,64.5557,0.0],[10.7688,64.5604,0.0],[10.7651,64.5578,12.9533],[10.7651,64.5547,0.0],[10.7667,64.5542,0.0]]],
[[[10.7589,64.5641,1.7789],[10.7589,64.5609,0.0],[10.7604,64.5604,0.0],[10.7661,64.5609,4.6693],[10.7682,64.563,2.7796],[10.7667,64.5646,6.1016],[10.7589,64.5641,1.7789]]],
[[[10.8854,64.4938,11.9858],[10.8854,64.4917,0.0],[10.889099999999999,64.4922,0.0],[10.889099999999999,64.4932,0.0],[10.8854,64.4938,11.9858]]],
[[[10.9083,64.5167,0.0],[10.9047,64.5162,0.0],[10.9047,64.5151,13.384],[10.9078,64.5151,11.6078],[10.9083,64.5167,0.0]]],
[[[10.8917,64.5188,0.0],[10.8833,64.5188,0.0],[10.8776,64.5214,1.782],[10.8792,64.5229,6.335],[10.8932,64.5234,0.9715],[10.8833,64.5292,0.0],[10.8771,64.5271,0.0],[10.8563,64.5271,0.0],[10.8547,64.5255,0.0],[10.8578,64.5234,4.9173],[10.8484,64.5224,0.0],[10.8682,64.512,0.0],[10.8693,64.5089,0.0],[10.8792,64.5062,0.0],[10.887,64.5089,0.0],[10.888,64.512,0.0],[10.8958,64.5146,0.0],[10.9,64.5125,0.0],[10.9036,64.513,0.0],[10.8953,64.5182,9.4152],[10.8917,64.5188,0.0]]],
[[[10.884,64.5484,86.2413],[10.8714,64.5516,2.726],[10.8734,64.5463,0.0],[10.8776,64.5443,0.0],[10.8875,64.5417,0.0],[10.8995,64.5422,0.0],[10.8911,64.5474,47.5897],[10.884,64.5484,86.2413]]],
[[[10.8536,64.562,2.0858],[10.8526,64.5568,2.313],[10.8542,64.5563,0.0],[10.8604,64.5563,0.0],[10.8682,64.5589,0.0],[10.8609,64.563,19.3626],[10.8583,64.5667,0.0],[10.8526,64.5661,15.2413],[10.8505,64.5641,8.2989],[10.8536,64.562,2.0858]]],
[[[10.8188,64.5625,0.0],[10.825,64.5625,0.0],[10.8292,64.5646,14.9458],[10.8438,64.5646,0.0],[10.8474,64.5672,0.0],[10.8495,64.5724,0.0],[10.8464,64.5734,2.715],[10.8453,64.5787,2.5648],[10.8391,64.5828,0.0],[10.8354,64.5833,0.0],[10.825,64.5792,0.0],[10.8172,64.5787,0.0],[10.8104,64.575,11.6332],[10.8042,64.575,3.0908],[10.7964,64.5724,9.6928],[10.7953,64.5693,0.0],[10.7901,64.5682,15.6693],[10.7958,64.5646,16.0207],[10.8188,64.5625,0.0]]],
[[[10.7943,64.5776,0.0],[10.8099,64.5818,0.0],[10.8099,64.5849,7.6634],[10.8042,64.5875,13.949],[10.7859,64.5828,0.0],[10.7859,64.5797,17.682],[10.7943,64.5776,0.0]]],
[[[10.8229,64.5875,12.3193],[10.8208,64.5854,29.2015],[10.8229,64.5833,5.374],[10.8349,64.5859,7.6022],[10.8333,64.5875,0.0],[10.8229,64.5875,12.3193]]],
[[[10.9167,64.5521,0.0],[10.9068,64.5547,0.0],[10.9057,64.5578,3.3114],[10.9,64.5604,8.1723],[10.8922,64.5599,0.0],[10.8859,64.5557,0.0],[10.889099999999999,64.5537,0.0],[10.8901,64.5505,0.0],[10.9,64.5458,0.0],[10.9146,64.5458,15.2134],[10.9188,64.5437,0.0],[10.9307,64.5443,4.0994],[10.9276,64.5463,18.7056],[10.9266,64.5495,0.0],[10.9167,64.5521,0.0]]],
[[[10.8714,64.5641,10.0401],[10.8771,64.5604,0.0],[10.8828,64.5609,0.0],[10.8771,64.5646,0.0],[10.8714,64.5641,10.0401]]],
[[[10.8589,64.5703,0.0],[10.863,64.5672,11.9957],[10.8688,64.5667,0.0],[10.8786,64.5724,0.0],[10.8625,64.5792,0.0],[10.8609,64.5776,0.0],[10.8641,64.5766,15.6619],[10.8641,64.5714,9.8115],[10.8589,64.5703,0.0]]],
[[[10.9063,64.6062,7.5194],[10.9042,64.6083,8.7856],[10.9,64.6062,0.0],[10.8917,64.6104,4.7069],[10.875,64.6104,4.3118],[10.8708,64.6083,0.0],[10.863,64.6078,23.3475],[10.8703,64.6026,0.0],[10.8625,64.6021,13.1857],[10.8609,64.6005,0.0],[10.8682,64.5995,0.0],[10.875,64.5958,25.8989],[10.8854,64.5958,0.0],[10.8995,64.6005,0.0],[10.8964,64.6036,4.4007],[10.9042,64.6042,0.0],[10.9063,64.6062,7.5194]]],
[[[10.9193,64.6026,0.0962],[10.925,64.6,0.0],[10.937,64.6005,18.0535],[10.9292,64.6083,7.7101],[10.9193,64.6026,0.0962]]],
[[[10.9266,64.6099,8.7444],[10.9234,64.6099,21.6338],[10.9234,64.6088,30.9076],[10.9266,64.6088,3.4053],[10.9266,64.6099,8.7444]]],
[[[10.8292,64.5958,21.4628],[10.8313,64.5938,3.2187],[10.8375,64.5938,33.7388],[10.8391,64.5943,33.7388],[10.8396,64.5979,4.5032],[10.8375,64.6,0.0],[10.8297,64.5974,4.7461],[10.8292,64.5958,21.4628]]],
[[[10.8125,64.6021,5.9403],[10.8146,64.6,0.0],[10.825,64.6,3.3185],[10.826599999999999,64.6005,24.1636],[10.8292,64.6062,2.6493],[10.8271,64.6083,2.1021],[10.813,64.6036,11.6787],[10.8125,64.6021,5.9403]]]]}}