{"type": "Feature","bbox": [21.9401,70.2821,22.8858,70.7625],"geometry": {"type": "MultiPolygon","coordinates": [[[[22.665,70.3797,190.6794],[22.6658,70.3854,327.7871],[22.6583,70.3875,114.9202],[22.6547,70.387,0.0],[22.6484,70.3828,0.0],[22.6516,70.3807,0.0],[22.6505,70.3776,0.0],[22.6536,70.3766,0.0],[22.6526,70.3734,0.0],[22.6557,70.3724,0.0],[22.6526,70.3682,0.0],[22.6536,70.3651,0.0],[22.65,70.3646,0.0],[22.6464,70.3672,27.8478],[22.6474,70.3703,0.0],[22.6443,70.3714,14.7742],[22.6453,70.3745,0.0],[22.638,70.3776,58.4271],[22.6391,70.3807,0.0],[22.6333,70.3833,81.385],[22.6208,70.3833,351.7926],[22.6193,70.3828,382.3578],[22.6203,70.3797,523.4337],[22.6188,70.3792,535.4383],[22.6125,70.3812,451.9593],[22.5979,70.3812,0.0],[22.5901,70.3745,0.0],[22.5974,70.3693,104.6033],[22.5901,70.3682,0.0],[22.5932,70.3651,34.7765],[22.5854,70.3604,0.0],[22.5797,70.3641,0.0],[22.5854,70.3646,0.0],[22.587,70.3662,0.0],[22.5797,70.3693,6.7468],[22.5807,70.3724,0.0],[22.5776,70.3734,37.4392],[22.5849,70.3807,0.0],[22.5646,70.3812,25.0709],[22.5583,70.3833,0.0],[22.5401,70.3786,63.3098],[22.5318,70.3724,0.0],[22.5474,70.363,0.0],[22.5453,70.3609,0.0],[22.538,70.3599,0.0],[22.5313,70.3562,2.9654],[22.5255,70.3588,0.0],[22.5286,70.3641,0.0],[22.5193,70.3651,0.0],[22.5203,70.3682,0.0],[22.5125,70.3688,74.0962],[22.5042,70.3729,90.7562],[22.5005,70.3724,90.7562],[22.4953,70.3672,365.6815],[22.488,70.3662,381.8385],[22.4849,70.363,563.822],[22.475,70.3604,543.2186],[22.4688,70.3625,295.7686],[22.4479,70.3625,0.0],[22.4443,70.3599,19.7147],[22.4526,70.3547,0.0],[22.462,70.3536,0.0],[22.4651,70.3505,0.0],[22.4724,70.3474,4.4342],[22.4693,70.3422,0.0],[22.4766,70.3391,0.0],[22.475,70.3375,0.0],[22.4651,70.338,0.0],[22.4661,70.3411,0.0],[22.4568,70.3422,0.0],[22.4578,70.3453,0.0],[22.4479,70.35,0.0],[22.4396,70.35,0.0],[22.4333,70.3479,8.1481],[22.4286,70.3516,0.0],[22.4193,70.3526,0.0],[22.4203,70.3557,0.0],[22.4104,70.3562,0.0],[22.3979,70.3521,274.4659],[22.375,70.3521,0.0],[22.3688,70.3479,130.0239],[22.3583,70.3479,0.0],[22.3542,70.3458,0.0],[22.35,70.3458,0.0],[22.3422,70.3411,0.0],[22.338,70.3359,0.0],[22.3438,70.3333,0.0],[22.3516,70.3328,12.3179],[22.3495,70.3297,0.0],[22.3438,70.3292,0.0],[22.3422,70.3276,0.0],[22.3516,70.3266,0.0],[22.3672,70.3172,0.0],[22.3766,70.3161,0.0],[22.3755,70.313,0.0],[22.3786,70.312,0.0],[22.3776,70.3089,0.0],[22.387,70.3078,0.0],[22.3839,70.3047,0.0],[22.3875,70.3042,0.0],[22.3958,70.3083,265.68],[22.4036,70.3078,373.0404],[22.4026,70.3047,291.783],[22.4057,70.3026,326.7255],[22.4036,70.3005,210.723],[22.3979,70.3,79.2833],[22.3964,70.2984,13.9872],[22.4047,70.2943,0.0],[22.4188,70.2937,0.0],[22.4229,70.2917,0.0],[22.4333,70.2917,0.0],[22.4375,70.2896,0.0],[22.4458,70.2917,10.8933],[22.4474,70.2911,0.0],[22.4464,70.288,0.0],[22.4479,70.2875,0.0],[22.4667,70.2875,54.9034],[22.4735,70.2838,0.9478],[22.4744,70.2875,163.3077],[22.4807,70.2875,222.8837],[22.4812,70.292,548.0255],[22.5077,70.2916,736.8715],[22.5072,70.2871,770.4426],[22.5204,70.2869,740.699],[22.5199,70.2824,581.1843],[22.5464,70.2821,473.0097],[22.5469,70.2866,542.2075],[22.5602,70.2864,498.9587],[22.5613,70.2954,390.3022],[22.6408,70.2943,731.9138],[22.6431,70.3123,649.1539],[22.6564,70.3121,748.6295],[22.657,70.3167,876.92],[22.6437,70.3168,713.4333],[22.6443,70.3214,800.2183],[22.631,70.3215,741.3625],[22.6321,70.3305,545.2534],[22.6587,70.3302,667.7175],[22.6593,70.3347,478.9511],[22.6725,70.3345,461.9276],[22.6731,70.339,859.656],[22.6864,70.3388,703.1218],[22.6882,70.3523,747.2855],[22.6749,70.3525,454.175],[22.6783,70.3795,534.6852],[22.665,70.3797,190.6794]]],
[[[22.463,70.3662,58.1414],[22.4646,70.3646,112.94],[22.4792,70.3646,318.8636],[22.4828,70.3682,110.1747],[22.4729,70.3688,0.0],[22.463,70.3662,58.1414]]],
[[[22.7688,70.7575,229.3548],[22.7695,70.762,210.9286],[22.7583,70.7625,37.0938],[22.75,70.7583,202.575],[22.7359,70.7557,13.5637],[22.7313,70.7521,455.5522],[22.7151,70.7536,237.472],[22.7109,70.7495,422.8354],[22.712,70.7464,367.0363],[22.7104,70.7458,329.0755],[22.6938,70.7458,225.5255],[22.6922,70.7443,293.9344],[22.6953,70.7422,459.7055],[22.6938,70.7417,288.4509],[22.6875,70.7438,35.2803],[22.6792,70.7438,0.0],[22.6776,70.7422,1.0135],[22.6854,70.7417,153.5623],[22.687,70.7412,178.8334],[22.6859,70.738,0.0],[22.6953,70.737,253.5341],[22.6901,70.7318,0.0],[22.6995,70.7307,331.8798],[22.6979,70.7292,248.6295],[22.6859,70.7286,0.3571],[22.6932,70.7245,0.0],[22.688,70.7172,26.6044],[22.6938,70.7146,0.0],[22.7036,70.7151,0.0],[22.7104,70.7208,0.0],[22.7271,70.7208,0.0],[22.7318,70.7245,0.0],[22.737,70.7245,0.0],[22.7318,70.7182,21.2711],[22.7349,70.7161,44.8217],[22.7339,70.713,60.3524],[22.7359,70.7109,0.0],[22.7542,70.7083,74.8637],[22.7557,70.7068,179.5825],[22.7458,70.7042,143.9797],[22.7292,70.7042,21.4826],[22.7276,70.7026,0.0],[22.7333,70.7,0.0],[22.7396,70.7021,26.9967],[22.7682,70.7016,3.3945],[22.763,70.6943,0.0],[22.7786,70.6932,62.4125],[22.7755,70.6901,6.7306],[22.7786,70.688,106.7673],[22.7604,70.6875,96.9138],[22.7547,70.6818,0.0],[22.7641,70.6807,6.9549],[22.7714,70.6755,0.0],[22.7911,70.6661,17.6623],[22.7901,70.663,0.0],[22.7995,70.662,75.6273],[22.7984,70.6589,0.0],[22.8005,70.6568,0.0],[22.8271,70.6563,4.907],[22.8328,70.6536,0.0],[22.8307,70.6505,11.2637],[22.8223,70.6484,138.6429],[22.8621,70.6478,177.4569],[22.864,70.6613,157.6142],[22.8505,70.6615,165.975],[22.8511,70.666,199.1055],[22.8376,70.6662,253.1401],[22.8382,70.6707,304.2741],[22.8247,70.6709,238.9342],[22.826,70.6799,239.7628],[22.8395,70.6797,230.1475],[22.840699999999998,70.6887,271.322],[22.8542,70.6885,180.3171],[22.8555,70.6975,399.6857],[22.869,70.6973,187.8607],[22.8697,70.7018,349.7961],[22.8561,70.702,375.4824],[22.8574,70.711,436.1749],[22.8168,70.7116,327.7928],[22.8174,70.7161,299.6415],[22.7904,70.7165,313.678],[22.7916,70.7256,469.0601],[22.7781,70.7257,408.3685],[22.7787,70.7303,382.977],[22.7652,70.7305,180.3146],[22.7664,70.7395,201.8541],[22.7529,70.7397,526.2285],[22.7541,70.7487,501.2914],[22.7676,70.7485,509.9137],[22.7688,70.7575,229.3548]]],
[[[22.088,70.5807,0.9357],[22.0896,70.5792,0.0],[22.0932,70.5797,0.0],[22.0917,70.5813,101.8652],[22.088,70.5807,0.9357]]],
[[[22.8338,70.6391,249.4168],[22.8345,70.6437,255.7033],[22.821,70.6439,198.0114],[22.8215,70.6475,168.512],[22.8188,70.6458,100.0421],[22.8125,70.6479,0.0],[22.7917,70.6479,112.7952],[22.7875,70.6458,112.5206],[22.7667,70.6458,3.8984],[22.7542,70.6521,37.2211],[22.7396,70.6521,0.0],[22.738,70.6505,0.0],[22.7411,70.6484,6.0244],[22.737,70.6443,0.0],[22.7276,70.6432,0.0],[22.7208,70.6375,29.3192],[22.7167,70.6375,0.0],[22.7125,70.6354,9.4887],[22.7021,70.6354,3.4412],[22.6984,70.6328,0.0],[22.7042,70.6292,0.0],[22.7203,70.6266,0.0],[22.7125,70.6188,0.0],[22.6964,70.6193,7.3037],[22.6974,70.6224,0.0],[22.6901,70.6255,4.0285],[22.6911,70.6286,10.6719],[22.6901,70.6307,0.0],[22.6932,70.6349,0.0],[22.6901,70.637,0.0],[22.6932,70.6412,0.0],[22.6818,70.6464,29.4098],[22.687,70.6516,0.0],[22.6792,70.6521,180.5868],[22.675,70.6542,172.7516],[22.6714,70.6536,198.0839],[22.6667,70.65,273.523],[22.6563,70.65,11.7171],[22.6479,70.6458,76.3651],[22.6396,70.6458,20.4326],[22.638,70.6474,2.3375],[22.6458,70.6479,0.0],[22.6474,70.6495,0.0],[22.6417,70.6521,0.0],[22.6292,70.6521,9.2039],[22.625,70.6542,0.0],[22.6167,70.6542,0.0],[22.6125,70.6521,16.8038],[22.5979,70.6521,0.0],[22.5917,70.6542,0.0],[22.5859,70.6516,0.0],[22.5891,70.6495,0.0],[22.588,70.6464,0.0],[22.5964,70.6422,0.0],[22.6042,70.6417,0.0],[22.6057,70.6401,0.0],[22.5958,70.6375,58.93],[22.5792,70.6375,0.0],[22.5729,70.6354,0.0],[22.5714,70.6359,0.0],[22.5724,70.6391,0.0],[22.5693,70.6401,0.0],[22.5703,70.6432,0.0],[22.5672,70.6443,0.0],[22.5703,70.6495,0.0],[22.5646,70.6521,0.0],[22.5568,70.6526,25.5731],[22.5547,70.6557,0.0],[22.5703,70.6589,0.0],[22.5792,70.6667,0.0],[22.5833,70.6667,0.0],[22.5875,70.6687,0.0],[22.6078,70.6693,0.0],[22.6047,70.6713,0.0],[22.6063,70.6729,0.0],[22.6292,70.6729,0.0],[22.6333,70.675,18.0749],[22.6437,70.675,0.0],[22.6453,70.6766,0.0],[22.6422,70.6787,0.0],[22.6443,70.6807,49.6954],[22.65,70.6813,0.0],[22.6516,70.6828,0.0],[22.6359,70.6839,0.0],[22.6339,70.687,65.8107],[22.6396,70.6875,0.0],[22.6411,70.6891,0.0],[22.6354,70.6917,180.3741],[22.6125,70.6875,154.9701],[22.6042,70.6917,0.0],[22.5964,70.6922,203.0216],[22.5979,70.6937,172.7991],[22.6036,70.6943,12.1818],[22.6068,70.6974,6.515],[22.6141,70.6984,0.0],[22.6083,70.7021,164.7366],[22.6,70.7021,150.2545],[22.5875,70.6979,155.8839],[22.5729,70.6979,324.9948],[22.5646,70.7021,150.432],[22.5479,70.7042,340.1827],[22.5422,70.7068,285.235],[22.5474,70.712,33.1101],[22.5333,70.7188,89.3189],[22.5214,70.7161,32.6669],[22.5172,70.7109,54.353],[22.5224,70.7068,57.6959],[22.5187,70.7042,157.7971],[22.5068,70.7037,25.6512],[22.5099,70.7005,61.403],[22.4979,70.6979,184.6793],[22.4964,70.6984,189.5925],[22.4974,70.7016,35.1612],[22.4937,70.7021,0.0],[22.4875,70.6979,162.2656],[22.4693,70.6974,5.9299],[22.4849,70.6911,2.6049],[22.4839,70.688,0.0],[22.487,70.687,0.0],[22.4859,70.6839,16.6868],[22.4901,70.6818,0.0],[22.5042,70.6813,50.103],[22.5099,70.6787,7.8845],[22.4958,70.6729,115.4681],[22.4875,70.675,0.0],[22.4792,70.6687,13.0261],[22.4688,70.6729,32.8289],[22.4521,70.675,90.0545],[22.4391,70.6828,0.0],[22.4297,70.6839,95.9175],[22.4333,70.6875,0.0],[22.4453,70.688,8.1289],[22.4396,70.6917,0.0],[22.4333,70.6917,41.245],[22.4292,70.6937,27.1139],[22.4208,70.6937,16.8732],[22.4167,70.6917,0.0],[22.4068,70.6922,0.0],[22.4099,70.6974,42.3737],[22.4068,70.6995,46.6277],[22.4099,70.7005,0.0],[22.412,70.7037,0.0],[22.4026,70.7047,122.1268],[22.4036,70.7078,23.3851],[22.3964,70.7109,2.3721],[22.3995,70.7161,151.1377],[22.3937,70.7188,0.0],[22.3839,70.7182,129.917],[22.3818,70.7151,0.0],[22.3891,70.7109,109.5699],[22.3755,70.7099,58.8813],[22.3641,70.7005,282.453],[22.3568,70.6995,176.228],[22.3599,70.6964,345.362],[22.3484,70.6974,0.0],[22.3557,70.6932,0.0],[22.3526,70.688,0.0],[22.3557,70.6859,106.8702],[22.3464,70.6849,0.0],[22.3495,70.6828,19.3494],[22.3484,70.6797,0.0],[22.3625,70.6792,48.8482],[22.3641,70.6787,0.0],[22.363,70.6755,0.0],[22.3724,70.6745,0.0],[22.3849,70.6682,0.0],[22.3734,70.6641,34.9594],[22.3693,70.6589,11.1317],[22.3724,70.6578,32.2835],[22.3714,70.6547,0.0],[22.3745,70.6536,0.0],[22.3734,70.6505,0.0],[22.3911,70.6453,0.0],[22.388,70.6422,0.0],[22.3953,70.6391,43.4089],[22.3943,70.6359,89.101],[22.3974,70.6349,77.4312],[22.3964,70.6318,11.4647],[22.3995,70.6297,0.0],[22.3922,70.6286,0.0],[22.3875,70.625,12.4392],[22.3729,70.6312,22.2056],[22.3646,70.6292,98.7084],[22.3536,70.6349,22.703],[22.3458,70.6354,93.0694],[22.3375,70.6396,20.0672],[22.3312,70.6396,132.8346],[22.3271,70.6417,68.551],[22.3,70.6458,87.596],[22.2953,70.6495,119.9998],[22.2859,70.6505,129.0005],[22.275,70.6563,0.0],[22.2625,70.6563,219.3465],[22.2609,70.6568,237.2568],[22.262,70.6599,54.3129],[22.2542,70.6604,176.8619],[22.2443,70.6651,92.9298],[22.2453,70.6682,0.0],[22.237,70.6724,160.4741],[22.2208,70.675,201.6662],[22.2167,70.6771,40.8589],[22.2083,70.675,222.3166],[22.2042,70.6771,111.2615],[22.2,70.6771,45.0341],[22.1964,70.6734,0.0],[22.2104,70.6667,0.0],[22.2188,70.6687,0.0],[22.2203,70.6682,0.0],[22.2193,70.6651,0.0],[22.2271,70.6646,0.0],[22.2328,70.662,0.0],[22.2255,70.6526,0.0],[22.2307,70.6495,0.0],[22.2276,70.6443,0.0],[22.2354,70.6438,0.0],[22.237,70.6422,0.0],[22.2349,70.6401,11.5764],[22.2276,70.6391,0.0],[22.2229,70.6354,198.9827],[22.2125,70.6396,0.0],[22.2042,70.6375,204.2009],[22.1979,70.6396,140.7049],[22.1917,70.6375,235.0343],[22.1901,70.638,228.5956],[22.1911,70.6412,116.9043],[22.1875,70.6417,58.8703],[22.1833,70.6396,139.3997],[22.1458,70.6312,4.0028],[22.1417,70.6333,0.0],[22.1234,70.6359,0.0],[22.1266,70.6391,0.0],[22.1234,70.6412,27.3445],[22.1307,70.6422,0.0],[22.1328,70.6453,0.0],[22.1188,70.6458,136.5315],[22.1172,70.6464,120.021],[22.1182,70.6495,71.8893],[22.1167,70.65,0.0],[22.1,70.6458,252.405],[22.0917,70.65,0.0],[22.0833,70.6479,0.0],[22.0688,70.6521,0.0],[22.0583,70.6479,244.7503],[22.0568,70.6484,234.3406],[22.0578,70.6516,83.247],[22.0563,70.6521,29.9884],[22.05,70.65,8.2101],[22.0354,70.65,72.5162],[22.0292,70.6521,10.6934],[22.0245,70.6484,328.9467],[22.0208,70.6479,277.6425],[22.0167,70.65,100.2936],[22.0089,70.6505,41.0125],[21.988,70.6609,14.3671],[21.9891,70.6641,0.0],[21.9818,70.6672,42.4401],[21.9828,70.6703,0.0],[21.9813,70.6708,7.6914],[21.9776,70.6703,5.3903],[21.9714,70.6641,0.0],[21.9745,70.662,262.4625],[21.9724,70.6589,249.5273],[21.9688,70.6583,298.0804],[21.9625,70.6604,122.1038],[21.9609,70.6589,157.094],[21.9641,70.6578,317.1508],[21.9625,70.6563,328.4764],[21.9443,70.6557,76.1813],[21.9458,70.6542,13.7687],[21.9521,70.6542,162.9932],[21.9578,70.6516,101.5537],[21.9568,70.6484,94.7561],[21.9578,70.6464,232.3051],[21.9542,70.6458,317.1942],[21.9479,70.6479,52.8465],[21.9464,70.6464,8.796],[21.9495,70.6443,287.92],[21.9422,70.6432,27.0734],[21.9401,70.6412,35.5083],[21.9443,70.638,56.8202],[21.9521,70.6375,120.1523],[21.9562,70.6354,0.0],[21.9646,70.6375,6.74],[21.9688,70.6354,0.0],[21.9766,70.6349,12.9964],[21.9807,70.6328,10.992],[21.9776,70.6286,10.9795],[21.9792,70.6271,7.7452],[21.9891,70.6276,0.0],[21.9958,70.6333,1.7699],[22.0167,70.6333,0.0],[22.0313,70.6292,0.0],[22.0453,70.6286,5.2029],[22.0401,70.6224,0.0],[22.0432,70.6193,78.9946],[22.0339,70.6182,0.0],[22.0271,70.6125,8.5261],[22.0208,70.6146,0.0],[22.0146,70.6146,2.628],[22.0104,70.6167,0.0],[22.0005,70.6162,0.0],[21.9984,70.613,0.0],[22.0057,70.6088,0.0],[21.9938,70.6083,71.7693],[21.988,70.6036,4.206],[21.9911,70.6016,6.9871],[21.9901,70.5984,2.8804],[21.9995,70.5922,68.036],[21.9833,70.5917,0.7018],[21.9792,70.5938,0.0],[21.9755,70.5932,0.0],[21.9813,70.5896,0.0],[21.9938,70.5896,18.1948],[22.0021,70.5854,0.0],[22.0099,70.5849,73.2121],[22.0089,70.5818,0.0],[22.0104,70.5813,0.0],[22.0187,70.5833,36.8942],[22.0229,70.5813,0.0],[22.0313,70.5813,2.7652],[22.0411,70.5839,0.0],[22.038,70.587,0.0],[22.0453,70.588,0.0],[22.0495,70.5922,0.0],[22.0464,70.5943,31.4546],[22.0479,70.5958,18.3903],[22.0536,70.5953,0.0],[22.0583,70.5917,0.0],[22.0833,70.5917,1.4569],[22.0849,70.5901,0.0],[22.0818,70.5859,0.0],[22.0859,70.5839,0.3579],[22.1021,70.5833,0.0],[22.1078,70.588,0.0],[22.1047,70.5911,0.0],[22.113,70.5974,0.0],[22.125,70.5979,0.0],[22.1292,70.6,0.0],[22.1396,70.6,0.0],[22.1458,70.6042,5.1817],[22.1563,70.6042,0.0],[22.1646,70.6104,0.0],[22.1729,70.6104,0.0],[22.1745,70.6099,0.0],[22.1734,70.6068,3.8734],[22.1833,70.6062,0.0],[22.1958,70.6104,4.4198],[22.2292,70.6104,1.7915],[22.2333,70.6083,0.0],[22.2396,70.6083,9.2451],[22.2438,70.6062,0.0],[22.2563,70.6062,0.0],[22.2604,70.6042,0.0],[22.2938,70.6062,0.0],[22.3099,70.6016,0.0],[22.3057,70.5964,17.0986],[22.2984,70.5953,3.0238],[22.2938,70.5917,0.0],[22.2833,70.5917,0.0],[22.2771,70.5875,40.3785],[22.2396,70.5875,4.6043],[22.238,70.5859,0.0],[22.2458,70.5854,0.0],[22.2474,70.5839,0.0],[22.2354,70.5833,0.0],[22.2271,70.5771,52.3174],[22.2167,70.5771,9.8782],[22.2068,70.5745,0.0],[22.2047,70.5714,0.0],[22.2078,70.5693,53.1341],[22.2,70.5687,0.0],[22.1984,70.5672,0.0],[22.2083,70.5667,19.6603],[22.2146,70.5687,0.0],[22.2188,70.5667,0.0],[22.2229,70.5667,0.0],[22.2271,70.5687,0.0],[22.2354,70.5687,3.7618],[22.2417,70.5646,0.0],[22.2604,70.5646,29.2089],[22.2661,70.5609,192.7471],[22.2526,70.5599,0.0],[22.2557,70.5578,0.0],[22.2536,70.5547,0.0],[22.238,70.5516,0.0],[22.2328,70.5463,0.0],[22.2271,70.5437,5.9546],[22.2042,70.5437,0.0],[22.2,70.5417,14.1025],[22.175,70.5396,0.0],[22.1651,70.537,0.0],[22.163,70.5349,8.4034],[22.1703,70.5297,49.1223],[22.1521,70.5292,0.0],[22.1474,70.5255,48.8936],[22.138,70.5245,40.5441],[22.1328,70.5193,85.8891],[22.1255,70.5182,-1.4737],[22.1286,70.5162,118.7313],[22.1266,70.513,27.3366],[22.1146,70.5125,0.0],[22.1109,70.5099,0.0],[22.1125,70.5083,0.0],[22.1203,70.5078,7.9347],[22.1271,70.5042,0.0],[22.1333,70.5062,6.2211],[22.137,70.5057,9.9704],[22.1286,70.4984,12.8621],[22.1214,70.4974,5.0838],[22.1255,70.4943,0.0],[22.1333,70.4938,0.0],[22.1349,70.4922,0.0],[22.1214,70.4912,0.0],[22.1245,70.488,0.0],[22.1188,70.4833,23.8802],[22.1104,70.4833,24.9196],[22.1042,70.4854,13.2319],[22.0943,70.4828,54.6682],[22.0859,70.4766,0.0],[22.0875,70.475,0.0],[22.0958,70.475,0.0],[22.1005,70.4786,0.0],[22.1042,70.4792,0.0],[22.1083,70.4771,0.0],[22.1161,70.4766,99.5423],[22.1229,70.4729,0.0],[22.1292,70.4729,0.0],[22.1333,70.4708,0.0],[22.1458,70.4708,14.9537],[22.15,70.4688,0.0],[22.1703,70.4734,0.0],[22.1568,70.4818,1.798],[22.1583,70.4833,0.0],[22.1792,70.4833,0.0],[22.1833,70.4812,0.0],[22.1979,70.4812,0.0],[22.2026,70.4849,4.8323],[22.2062,70.4854,0.0],[22.2151,70.4797,0.0],[22.2229,70.4792,0.0],[22.2271,70.4771,0.0],[22.2307,70.4776,0.0],[22.2354,70.4812,4.7616],[22.2474,70.4818,0.0],[22.2516,70.4849,0.0],[22.2443,70.488,0.0],[22.2453,70.4912,0.0],[22.2422,70.4932,0.0],[22.2484,70.4995,0.0],[22.2557,70.5005,0.0],[22.2578,70.5026,0.0],[22.2568,70.5057,0.0],[22.2589,70.5078,15.8154],[22.2661,70.5089,0.0],[22.2745,70.5172,0.0],[22.2729,70.5188,0.0],[22.2651,70.5193,7.3962],[22.2661,70.5224,0.0],[22.263,70.5245,0.0],[22.2771,70.5292,0.0],[22.2917,70.5292,0.0],[22.2974,70.5266,0.0],[22.2901,70.5203,0.0],[22.2932,70.5182,0.0],[22.288,70.512,0.0],[22.2911,70.5089,32.8666],[22.2854,70.5083,0.0],[22.2839,70.5068,0.0],[22.287,70.5057,0.0],[22.2891,70.5036,0.0],[22.288,70.5005,0.0],[22.2911,70.4995,49.844],[22.288,70.4943,0.0],[22.3021,70.4875,0.0],[22.3146,70.4875,37.5174],[22.3188,70.4854,9.5697],[22.3271,70.4854,0.0],[22.3333,70.4875,26.1482],[22.3396,70.4854,0.0],[22.3464,70.4912,0.0],[22.3536,70.4922,0.0],[22.3578,70.4964,0.0],[22.3547,70.4995,0.0],[22.3682,70.5005,11.4561],[22.363,70.5057,0.0],[22.3729,70.5083,7.6457],[22.3813,70.5062,0.0],[22.3828,70.5078,4.5755],[22.3797,70.5099,0.0],[22.4,70.5146,0.0],[22.4016,70.513,0.0],[22.3964,70.5068,0.0],[22.4016,70.5036,0.0],[22.4005,70.5005,0.0],[22.4036,70.4995,0.0],[22.3984,70.4932,0.0],[22.4016,70.4912,67.9505],[22.4005,70.488,13.4497],[22.4063,70.4854,0.0],[22.4375,70.4854,0.0],[22.4417,70.4875,11.2925],[22.4479,70.4875,0.0],[22.4578,70.4901,0.0],[22.4599,70.4932,0.0],[22.4568,70.4953,13.6862],[22.4641,70.4964,0.0],[22.4625,70.4979,9.036],[22.4547,70.4984,0.0],[22.4505,70.5016,21.5325],[22.4578,70.5068,0.0],[22.4547,70.5089,0.0],[22.4578,70.5141,0.0],[22.4547,70.5162,0.0],[22.4568,70.5182,10.5536],[22.4641,70.5193,0.0],[22.4609,70.5224,0.0],[22.4688,70.5271,0.0],[22.4724,70.5266,0.0],[22.4839,70.5193,0.0],[22.4932,70.5182,0.0],[22.4922,70.5151,0.0],[22.4953,70.5141,0.0],[22.4943,70.5109,0.0],[22.5036,70.5057,0.0],[22.5026,70.5026,0.0],[22.5151,70.4964,0.0],[22.5187,70.4958,0.0],[22.5286,70.4984,0.0],[22.5214,70.5036,1.2419],[22.5313,70.5042,0.0],[22.5505,70.4943,0.0],[22.5604,70.4938,0.0],[22.5651,70.4974,2.0622],[22.5724,70.4984,0.0],[22.5693,70.5016,4.6558],[22.5734,70.5057,28.5459],[22.5828,70.5068,0.0],[22.5797,70.5099,33.2949],[22.5849,70.5162,0.0],[22.5776,70.5193,22.3922],[22.5812,70.5229,0.0],[22.5974,70.5162,0.0],[22.5964,70.513,0.0],[22.6063,70.5083,12.5357],[22.6161,70.5089,12.3619],[22.6203,70.513,2.342],[22.613,70.5182,156.8129],[22.6224,70.5266,0.0],[22.6193,70.5276,23.612],[22.6203,70.5307,0.0],[22.6109,70.5318,0.0],[22.612,70.5349,0.0],[22.6089,70.537,11.7847],[22.6141,70.5422,0.0],[22.613,70.5453,0.0],[22.6141,70.5474,0.0],[22.6068,70.5516,0.0],[22.6229,70.5521,38.5907],[22.6245,70.5516,53.0681],[22.6234,70.5484,0.0],[22.6328,70.5474,33.6365],[22.6318,70.5443,0.0],[22.6333,70.5437,0.0],[22.637,70.5443,18.2244],[22.6411,70.5484,0.0],[22.638,70.5505,2.5325],[22.6401,70.5537,0.0],[22.65,70.5563,0.0],[22.6536,70.5557,0.0],[22.6526,70.5526,0.0],[22.6604,70.5521,0.0],[22.6688,70.5479,0.0],[22.675,70.55,41.8082],[22.6917,70.55,0.0],[22.706,70.5552,7.9817],[22.7147,70.5551,42.2001],[22.7153,70.5596,35.8484],[22.7287,70.5594,121.0125],[22.7293,70.5639,88.3081],[22.7427,70.5637,210.483],[22.7433,70.5682,136.7746],[22.7567,70.568,393.1931],[22.758,70.577,227.6934],[22.7714,70.5769,211.528],[22.772,70.5814,387.9861],[22.7854,70.5812,282.0791],[22.786,70.5857,394.8782],[22.7995,70.5855,360.8273],[22.8007,70.5945,349.5259],[22.8276,70.5941,368.5169],[22.827,70.5896,371.307],[22.8539,70.5892,403.2439],[22.8551,70.5982,336.524],[22.8686,70.598,367.4085],[22.8705,70.6115,310.2094],[22.8839,70.6113,361.1956],[22.8858,70.6248,264.617],[22.8724,70.625,276.1881],[22.8743,70.6386,225.9447],[22.8338,70.6391,249.4168]]],
[[[21.9464,70.6286,0.0],[21.95,70.6271,0.0],[21.9536,70.6307,0.0],[21.95,70.6312,23.1564],[21.9464,70.6286,0.0]]],
[[[22.3714,70.7182,0.0],[22.3729,70.7167,0.0],[22.3766,70.7172,0.0],[22.375,70.7188,39.7392],[22.3714,70.7182,0.0]]]]}
,"properties": {"GID_2": "NOR.5.6_1","GID_0": "NOR","country": "Norway","GID_1": "NOR.5_1","province": "Finnmark","NL_NAME_1": "NA","county": "Hasvik","VARNAME_2": "NA","NL_NAME_2": "NA","TYPE_2": "Kommuner","ENGTYPE_2": "Municipality","CC_2": "NA","HASC_2": "NO.FI.HV","name": "Hasvik.county","area_km2": 551.255,"hist_schema_id": "Elevation0-9000","hist_area_km2": {"0": 38.846,"25": 29.6389,"50": 25.9019,"75": 26.7331,"100": 29.881,"125": 30.9509,"150": 35.1402,"175": 33.6735,"200": 32.338,"225": 34.5773,"250": 33.7004,"275": 29.6764,"300": 28.8257,"325": 23.0665,"350": 18.5304,"375": 13.8149,"400": 12.6132,"425": 12.6124,"450": 10.3856,"475": 8.7827,"500": 7.3956,"525": 6.8585,"550": 5.237,"575": 4.0426,"600": 3.0076,"625": 3.0097,"650": 2.3482,"675": 1.9778,"700": 1.5421,"725": 1.6064,"750": 1.2137,"775": 0.9994,"800": 0.8639,"825": 0.5855,"850": 0.307,"875": 0.2355,"900": 0.1855,"925": 0.0999,"950": 0.0499}}}