{"type":"Feature","properties":{"GID_2":"NOR.15.7_1","GID_0":"NOR","country":"Norway","GID_1":"NOR.15_1","province":"Sør-Trøndelag","NL_NAME_1":"NA","county":"Holtålen","VARNAME_2":"NA","NL_NAME_2":"NA","TYPE_2":"Kommuner","ENGTYPE_2":"Municipality","CC_2":"NA","HASC_2":"NO.ST.HO","name":"Holtålen.county"},
"geometry":{"type": "MultiPolygon","coordinates": [[[[10.8091,62.6834,991.4413],[10.8077,62.6879,991.3187],[10.798,62.6872,1002.2872],[10.7994,62.6828,1053.442],[10.8091,62.6834,991.4413]]],
[[[11.1349,62.6588,862.8822],[11.1426,62.6593,818.2071],[11.1412,62.6637,848.3169],[11.1509,62.6643,853.7639],[11.1496,62.6688,820.5107],[11.1593,62.6694,900.5519],[11.158,62.6738,871.6495],[11.1677,62.6744,1014.1075],[11.1663,62.6789,1000.0675],[11.176,62.6795,971.7389],[11.1747,62.6839,929.7913],[11.1844,62.6845,944.7501],[11.1831,62.689,936.6202],[11.1928,62.6896,918.1169],[11.1915,62.694,886.3997],[11.2012,62.6946,899.072],[11.1999,62.6991,890.597],[11.2096,62.6997,918.3922],[11.2082,62.7041,904.1301],[11.2277,62.7053,987.0952],[11.2263,62.7098,960.9882],[11.2458,62.711,911.9307],[11.2555,62.7116,913.2751],[11.2568,62.7071,905.9286],[11.2665,62.7077,880.7242],[11.2652,62.7122,918.9698],[11.2749,62.7127,925.1094],[11.2736,62.7172,941.9273],[11.2833,62.7178,909.9259],[11.282,62.7222,927.984],[11.2917,62.7228,886.2675],[11.2891,62.7317,894.8944],[11.2988,62.7323,808.1158],[11.2962,62.7412,818.2995],[11.3059,62.7418,773.6722],[11.3046,62.7463,758.6575],[11.324,62.7475,648.2664],[11.3253,62.743,657.9578],[11.374,62.746,874.5005],[11.3753,62.7415,902.5194],[11.3947,62.7427,907.6959],[11.3921,62.7516,912.2489],[11.4018,62.7522,895.35],[11.4005,62.7566,880.4072],[11.4297,62.7584,774.6732],[11.4284,62.7628,784.6853],[11.4479,62.764,709.3989],[11.4492,62.7595,777.8328],[11.4589,62.7601,819.572],[11.4602,62.7557,875.8685],[11.4797,62.7568,877.2761],[11.4784,62.7613,872.6669],[11.4979,62.7625,904.9491],[11.4966,62.7669,944.8346],[11.5842,62.7721,1076.2073],[11.5829,62.7766,1069.4393],[11.6803,62.7823,919.9559],[11.6791,62.7867,944.4041],[11.6888,62.7873,947.0731],[11.6876,62.7917,992.9331],[11.7071,62.7929,997.7462],[11.7058,62.7973,1026.155],[11.7253,62.7985,1017.3031],[11.7241,62.8029,1033.2147],[11.7338,62.8035,1014.595],[11.7326,62.8079,1018.5867],[11.7521,62.8091,986.2773],[11.7508,62.8135,962.0891],[11.7606,62.8141,929.5639],[11.7593,62.8185,925.9831],[11.7788,62.8196,923.728],[11.7776,62.8241,921.2371],[11.7874,62.8247,846.2896],[11.7861,62.8291,806.3372],[11.8056,62.8302,827.6937],[11.787,62.8971,850.4879],[11.6989,62.892,915.4147],[11.6977,62.8964,909.6201],[11.6586,62.8942,1080.0648],[11.6598,62.8897,1024.6741],[11.65,62.8891,1088.5784],[11.6513,62.8847,1129.8483],[11.622,62.883,1223.2892],[11.6233,62.8785,1222.6071],[11.6037,62.8774,1227.4672],[11.6024,62.8818,1254.676],[11.5829,62.8807,1254.821],[11.5816,62.8851,1135.7761],[11.5718,62.8846,1098.2107],[11.5693,62.8935,1012.0898],[11.5595,62.8929,1008.0391],[11.5582,62.8973,1077.0416],[11.5484,62.8968,1067.714],[11.5459,62.9057,1124.892],[11.5361,62.9051,1104.601],[11.5335,62.914,1095.8713],[11.5237,62.9134,1105.6228],[11.5212,62.9223,1090.662],[11.5114,62.9217,1119.6327],[11.5101,62.9262,1075.0952],[11.5003,62.9256,1002.0681],[11.4951,62.9434,1032.1622],[11.4853,62.9428,1044.806],[11.4788,62.9651,1152.9995],[11.469,62.9645,1170.8411],[11.4651,62.9779,1147.0254],[11.4455,62.9767,1086.9799],[11.4442,62.9812,984.1718],[11.4246,62.98,909.7785],[11.4233,62.9844,899.3441],[11.4037,62.9833,947.5776],[11.4024,62.9877,960.4939],[11.3828,62.9865,867.2003],[11.3815,62.991,840.2817],[11.3521,62.9892,835.0785],[11.3507,62.9937,870.2693],[11.3311,62.9925,855.731],[11.3298,62.997,860.3935],[11.3102,62.9958,861.2691],[11.3089,63.0002,868.0397],[11.2892,62.999,920.3804],[11.2879,63.0035,909.6645],[11.2585,63.0017,1023.843],[11.2572,63.0061,1019.9705],[11.2375,63.0049,947.0],[11.2362,63.0094,948.8416],[11.2166,63.0082,1021.3354],[11.2152,63.0126,1023.9183],[11.1956,63.0114,949.5048],[11.1943,63.0159,930.7737],[11.1845,63.0153,873.5845],[11.1831,63.0197,770.1435],[11.1733,63.0191,742.1288],[11.1598,63.0636,949.1898],[11.1402,63.0624,1010.1613],[11.1415,63.058,963.131],[11.112,63.0562,785.6731],[11.1134,63.0517,801.9527],[11.1036,63.0511,800.5153],[11.1022,63.0555,825.489],[11.0728,63.0537,721.1453],[11.0714,63.0582,684.509],[11.0517,63.0569,597.7149],[11.0504,63.0614,590.9521],[11.0111,63.0589,581.5447],[11.0138,63.0501,662.814],[11.004,63.0494,680.0776],[11.0081,63.0361,734.9477],[10.9983,63.0355,707.749],[11.0011,63.0266,739.8868],[10.9913,63.026,734.5579],[10.994,63.0171,760.6946],[10.9842,63.0165,704.1802],[10.9856,63.012,696.6639],[10.9758,63.0114,663.8531],[10.9785,63.0025,821.0362],[10.9687,63.0019,814.1381],[10.9701,62.9975,737.857],[10.9603,62.9968,673.3315],[10.963,62.9879,558.7448],[10.9533,62.9873,546.9735],[10.956,62.9784,394.2899],[10.9462,62.9778,264.7178],[10.949,62.9689,238.1605],[10.9392,62.9683,319.4365],[10.9474,62.9416,727.0521],[10.9377,62.941,751.1023],[10.939,62.9366,726.822],[10.9488,62.9372,755.0745],[10.9516,62.9283,754.6738],[10.9614,62.9289,780.8325],[10.9655,62.9156,767.236],[10.9557,62.9149,756.2266],[10.9612,62.8972,929.0438],[10.9514,62.8965,948.4185],[10.9528,62.8921,985.0792],[10.943,62.8915,990.2614],[10.9444,62.887,1037.8278],[10.9346,62.8864,1048.4873],[10.9374,62.8775,1055.6785],[10.9276,62.8769,1021.0507],[10.929,62.8725,1024.6433],[10.9192,62.8718,962.4907],[10.9206,62.8674,945.6741],[10.9109,62.8668,940.1854],[10.9122,62.8623,975.514],[10.9025,62.8617,1043.4751],[10.9121,62.8306,897.2889],[10.9219,62.8312,875.9485],[10.9356,62.7867,976.4938],[10.9259,62.7861,884.2929],[10.9272,62.7817,869.1488],[10.8981,62.7798,862.4062],[10.8967,62.7843,870.1469],[10.887,62.7836,896.732],[10.8897,62.7748,971.1118],[10.88,62.7741,903.0084],[10.8814,62.7697,927.3914],[10.8716,62.7691,910.7112],[10.8744,62.7602,968.4725],[10.8647,62.7595,937.5287],[10.866,62.7551,952.3587],[10.8563,62.7545,946.1191],[10.8591,62.7456,956.7271],[10.8494,62.745,949.9163],[10.8507,62.7405,945.7268],[10.841,62.7399,993.6072],[10.8438,62.731,983.4643],[10.8341,62.7304,1019.4872],[10.8355,62.7259,998.782],[10.8258,62.7253,1045.899],[10.8285,62.7164,964.5917],[10.8188,62.7158,995.4908],[10.8202,62.7113,1028.2108],[10.8105,62.7107,1085.798],[10.8133,62.7018,1067.088],[10.8036,62.7012,1083.2988],[10.8077,62.6879,991.3187],[10.8465,62.6904,1107.8477],[10.8451,62.6948,1122.1824],[10.8548,62.6954,1153.823],[10.9033,62.6986,895.7841],[10.9047,62.6941,920.4532],[10.9338,62.696,876.7282],[10.9352,62.6915,884.2144],[10.9546,62.6928,917.3785],[10.9559,62.6883,958.4274],[10.9753,62.6895,1114.2902],[10.9767,62.6851,1157.5549],[10.9961,62.6863,1054.2039],[10.9974,62.6819,1055.9445],[11.0168,62.6831,1031.8478],[11.0182,62.6787,1117.2325],[11.0279,62.6793,1073.611],[11.0292,62.6748,1166.3503],[11.0486,62.676,1138.0323],[11.05,62.6716,1145.3031],[11.0888,62.674,1049.5956],[11.0901,62.6696,1022.3533],[11.0998,62.6702,1018.7202],[11.1011,62.6657,987.848],[11.1205,62.667,994.5623],[11.1219,62.6625,946.3629],[11.1316,62.6631,918.2788],[11.1329,62.6587,871.5972],[11.1349,62.6588,862.8822]]]]}}