{"type": "Feature","bbox": [4.8447,59.2815,4.9147,59.3201],"geometry": {"type": "MultiPolygon","coordinates": [[[[4.8514,59.2849,0.7411],[4.8453,59.2849,1.1079],[4.8447,59.2829,0.0],[4.8492,59.2815,0.0],[4.8542,59.2832,0.0],[4.8542,59.2849,0.7411],[4.8514,59.2849,0.7411]]],
[[[4.8958,59.3201,3.5092],[4.8869,59.3193,0.5404],[4.8853,59.3168,0.0],[4.8864,59.314,1.9526],[4.8831,59.3149,3.8286],[4.8808,59.3193,0.1995],[4.8758,59.3196,1.1661],[4.8736,59.3185,0.3077],[4.8731,59.3149,4.3983],[4.8675,59.3157,0.0],[4.8597,59.3132,2.9808],[4.8547,59.3074,0.0],[4.8547,59.3049,0.0],[4.8653,59.301,3.1236],[4.8631,59.299,0.8608],[4.8664,59.2979,0.0],[4.8686,59.2949,0.0],[4.8769,59.2962,0.0],[4.8808,59.2993,1.2674],[4.8819,59.2954,0.0],[4.8875,59.2938,4.8057],[4.8875,59.2924,0.4056],[4.8914,59.2935,0.0],[4.8931,59.2951,0.0],[4.8925,59.2968,0.0],[4.8958,59.2971,0.8866],[4.8969,59.2949,3.145],[4.8953,59.2932,1.3414],[4.8969,59.291,0.0],[4.8992,59.291,0.0],[4.8975,59.2929,0.7858],[4.9008,59.2935,0.0],[4.8992,59.2954,0.3095],[4.9069,59.2985,0.0],[4.9069,59.3007,3.9302],[4.9114,59.2996,1.7915],[4.9125,59.3032,5.5314],[4.9147,59.304,0.9417],[4.9064,59.3087,6.9044],[4.9069,59.3124,1.123],[4.9108,59.3146,0.0],[4.9108,59.3165,0.0],[4.8958,59.3201,3.5092]]]]}
,"properties": {"GID_2": "NOR.13.25_1","GID_0": "NOR","country": "Norway","GID_1": "NOR.13_1","province": "Rogaland","NL_NAME_1": "NA","county": "Utsira","VARNAME_2": "NA","NL_NAME_2": "NA","TYPE_2": "Kommuner","ENGTYPE_2": "Municipality","CC_2": "NA","HASC_2": "NO.RO.UT","name": "Utsira.county","area_km2": 6.937269,"hist_schema_id": "Elevation0-9000","hist_area_km2": {"0": 3.171042,"25": 2.954534,"50": 0.800871,"75": 0.010822}}}