{"type": "Feature","bbox": [9.8047,63.4854,10.4418,63.8676],"geometry": {"type": "MultiPolygon","coordinates": [[[[10.4263,63.7383,257.0375],[10.4363,63.739,337.9048],[10.4318,63.7523,164.8611],[10.4418,63.753,169.6286],[10.4223,63.8107,410.0297],[10.4122,63.8101,457.6497],[10.4016,63.8412,349.4268],[10.3915,63.8405,327.7784],[10.3854,63.8583,288.9196],[10.3754,63.8576,283.262],[10.3738,63.862,367.929],[10.3537,63.8607,461.8877],[10.3521,63.8652,505.4636],[10.3219,63.8632,409.6335],[10.3204,63.8676,349.9184],[10.2699,63.8643,265.0562],[10.2715,63.8599,311.2713],[10.2614,63.8592,302.5026],[10.2599,63.8636,275.8976],[10.2094,63.8603,339.2386],[10.211,63.8559,376.0124],[10.2009,63.8552,388.3237],[10.2117,63.8241,238.8667],[10.2017,63.8235,293.3344],[10.2063,63.8101,267.3973],[10.1962,63.8095,185.3465],[10.1993,63.8006,138.8618],[10.1792,63.7992,167.9723],[10.1807,63.7948,190.0321],[10.1405,63.7921,143.9509],[10.1421,63.7877,66.8552],[10.122,63.7867,165.9177],[10.1123,63.7834,0.0],[10.1072,63.7778,27.6538],[10.0848,63.7766,0.0],[10.0792,63.7736,11.3425],[10.082,63.7683,40.8666],[10.0721,63.7667,0.0],[10.076599999999999,63.7661,16.2846],[10.0745,63.763,0.0],[10.0625,63.7625,0.0],[10.0542,63.7583,42.2776],[10.0479,63.7583,15.7395],[10.0401,63.7557,0.0],[10.037,63.7464,4.633],[10.0349,63.7443,32.5011],[10.0271,63.7438,0.0],[10.0188,63.7396,16.9721],[10.0083,63.7396,0.0],[10.0047,63.737,11.7485],[10.0188,63.7292,0.0],[10.0229,63.7292,0.0],[10.0271,63.7313,57.4941],[10.0438,63.7313,0.0],[10.0464,63.7349,0.0],[10.0568,63.7391,0.0],[10.0646,63.7396,0.0],[10.0786,63.7443,0.0],[10.0813,63.7479,0.0],[10.1078,63.7495,0.0],[10.1,63.7458,0.0],[10.0938,63.7458,0.0],[10.0818,63.7411,0.0],[10.0807,63.738,11.0704],[10.0755,63.737,0.0],[10.0792,63.7333,0.0],[10.076599999999999,63.7297,55.6935],[10.0667,63.7313,0.0],[10.0578,63.7255,0.0],[10.05,63.7229,24.1782],[10.0422,63.7224,0.0],[10.0453,63.7203,0.0],[10.0438,63.7188,0.0],[10.0146,63.7188,0.0],[10.0083,63.7146,0.0],[9.9979,63.7146,0.0],[9.9896,63.7104,21.9685],[9.9818,63.7109,0.0],[9.9828,63.7141,0.0],[9.9797,63.7161,0.0],[9.9828,63.7182,0.0],[9.9771,63.7208,0.0],[9.9729,63.7188,2.2376],[9.9563,63.7167,0.0],[9.9479,63.7125,0.0],[9.9401,63.712,0.0],[9.938,63.7068,0.0],[9.9557,63.7036,0.0],[9.9547,63.7005,0.0],[9.9583,63.6979,0.0],[9.9563,63.6958,26.9811],[9.95,63.6979,0.0],[9.9229,63.6979,0.0],[9.9203,63.7016,0.0],[9.9146,63.7042,0.0],[9.9063,63.7,33.2375],[9.9,63.7,0.0],[9.8818,63.6953,0.0],[9.8807,63.6922,25.6212],[9.8714,63.6891,0.0],[9.8745,63.6859,0.0],[9.8667,63.6813,0.0],[9.863,63.6818,0.0],[9.8641,63.687,0.0],[9.85,63.6917,0.0],[9.8458,63.6896,0.0],[9.8396,63.6896,0.0],[9.8354,63.6917,0.0],[9.8313,63.6917,0.0],[9.813,63.6849,0.0],[9.8161,63.6828,0.0],[9.8193,63.6776,8.9994],[9.8224,63.6766,4.7541],[9.8229,63.6729,0.0],[9.8203,63.6693,0.0],[9.8125,63.6688,0.0],[9.8068,63.6661,0.0],[9.8099,63.663,0.0],[9.8047,63.662,0.0],[9.8047,63.6589,7.2227],[9.8104,63.6563,6.2682],[9.8188,63.6563,0.0],[9.8286,63.6536,0.0],[9.8297,63.6484,18.1063],[9.8339,63.6464,0.0],[9.8438,63.6437,0.0],[9.8521,63.6437,0.0],[9.8536,63.6422,0.4872],[9.8313,63.6333,38.6293],[9.8208,63.6333,7.4211],[9.8146,63.6292,29.9368],[9.8089,63.6307,0.0],[9.8068,63.6286,0.0],[9.8062,63.625,0.0],[9.8068,63.6234,0.0],[9.8141,63.6224,5.5361],[9.8265999999999991,63.6161,22.5984],[9.8214,63.6109,0.0],[9.837,63.6057,0.0],[9.8354,63.6021,0.0],[9.8359,63.5984,29.2459],[9.8536,63.5891,49.882],[9.8563,63.5854,0.0],[9.8646,63.5854,0.0],[9.8688,63.5875,58.2677],[9.8854,63.5875,0.0],[9.8896,63.5896,17.4296],[9.8938,63.5875,0.0],[9.9042,63.5917,13.9593],[9.9188,63.5917,0.0],[9.9245,63.5891,5.1117],[9.9224,63.5859,5.688],[9.9193,63.5849,0.0],[9.9224,63.5818,0.0],[9.9042,63.575,4.2704],[9.8964,63.5745,0.0],[9.8938,63.5687,0.0],[9.8974,63.5661,2.7144],[9.8984,63.563,4.8241],[9.9036,63.5599,0.0],[9.9047,63.5568,0.0],[9.9203,63.5495,2.4155],[9.9161,63.538,40.6135],[9.9109,63.537,0.0],[9.9109,63.5318,0.0],[9.9141,63.5307,91.3088],[9.913,63.5276,0.0],[9.9203,63.5224,52.7891],[9.9193,63.5193,0.0],[9.9229,63.5167,0.0],[9.9214,63.513,0.0],[9.9286,63.5099,0.0],[9.9297,63.5047,0.0],[9.9318,63.5026,0.0],[9.9443,63.4964,0.0],[9.9563,63.4958,0.0],[9.9604,63.4979,30.0353],[9.9646,63.4958,0.0],[9.9688,63.4979,0.0],[9.975,63.4979,0.9542],[9.9849,63.4953,0.0],[9.9859,63.4922,0.0],[9.9891,63.4911,6.6078],[9.9875,63.4875,4.8961],[9.9896,63.4854,0.0],[9.9937,63.4854,0.0],[10.0042,63.4896,0.0],[10.0104,63.4896,0.0],[10.0188,63.4938,0.8126],[10.0375,63.4917,0.0],[10.0417,63.4896,0.0],[10.0563,63.4896,0.0],[10.0708,63.4938,36.1968],[10.0958,63.4938,0.0],[10.1,63.4958,10.0201],[10.1104,63.4958,0.0],[10.1172,63.4995,0.0],[10.1286,63.5026,0.0],[10.1297,63.5057,51.9931],[10.1453,63.5109,0.0],[10.1464,63.5161,0.0],[10.1578,63.5193,0.0],[10.1589,63.5224,2.0932],[10.1692,63.5265,25.3262],[10.1615,63.5255,67.0693],[10.1507,63.5566,240.9599],[10.1408,63.5559,219.8475],[10.13,63.587,143.8858],[10.14,63.5877,141.5575],[10.1384,63.5921,150.5181],[10.1484,63.5928,131.7852],[10.1469,63.5972,231.554],[10.1569,63.5979,135.2232],[10.1553,63.6023,188.0135],[10.1653,63.603,128.5939],[10.1638,63.6074,146.4522],[10.1738,63.6081,206.122],[10.1707,63.617,128.6842],[10.1807,63.6177,127.9847],[10.1776,63.6265,142.4935],[10.1876,63.6272,153.0972],[10.1861,63.6317,144.7649],[10.1961,63.6323,129.3309],[10.193,63.6412,131.0545],[10.203,63.6419,127.76],[10.2,63.6508,185.4546],[10.21,63.6514,188.1344],[10.2069,63.6603,241.112],[10.2369,63.6623,222.6283],[10.2354,63.6667,285.7097],[10.2554,63.6681,331.7465],[10.2539,63.6725,228.596],[10.2739,63.6738,406.5175],[10.2724,63.6783,368.6283],[10.2924,63.6796,457.6242],[10.2909,63.6841,365.6056],[10.311,63.6854,458.8987],[10.3095,63.6898,335.8727],[10.3295,63.6911,491.9483],[10.328,63.6956,301.4478],[10.348,63.6969,397.5133],[10.3465,63.7013,304.0026],[10.3666,63.7027,389.2207],[10.3651,63.7071,319.1882],[10.3751,63.7078,283.6958],[10.3736,63.7122,326.874],[10.3836,63.7129,342.5406],[10.3821,63.7173,224.7585],[10.4022,63.7186,251.7508],[10.4007,63.7231,233.5753],[10.4107,63.7237,301.7831],[10.4092,63.7282,279.5075],[10.4192,63.7288,345.8192],[10.4177,63.7332,407.3065],[10.4278,63.7339,433.3981],[10.4263,63.7383,257.0375]]],
[[[9.9964,63.7255,0.0],[10.0042,63.725,0.0],[10.0063,63.7271,2.8255],[10.0057,63.7286,7.32],[10.0,63.7292,0.0],[9.9964,63.7255,0.0]]],
[[[9.9859,63.7318,3.598],[9.9792,63.7354,0.0],[9.9729,63.7354,0.0],[9.9708,63.7333,13.2525],[9.9729,63.7313,0.0],[9.9771,63.7333,0.0],[9.9854,63.7292,0.0],[9.987,63.7297,8.6338],[9.9859,63.7318,3.598]]],
[[[9.9443,63.7359,0.0],[9.95,63.7354,0.0],[9.9578,63.7391,30.0713],[9.95,63.7396,0.0],[9.9443,63.7359,0.0]]]]}
,"properties": {"GID_2": "NOR.15.18_1","GID_0": "NOR","country": "Norway","GID_1": "NOR.15_1","province": "Sør-Trøndelag","NL_NAME_1": "NA","county": "Rissa","VARNAME_2": "NA","NL_NAME_2": "NA","TYPE_2": "Kommuner","ENGTYPE_2": "Municipality","CC_2": "NA","HASC_2": "NO.ST.RI","name": "Rissa.county","area_km2": 622.3902,"hist_schema_id": "Elevation0-9000","hist_area_km2": {"0": 27.6823,"25": 33.0634,"50": 23.7671,"75": 24.4977,"100": 28.2264,"125": 32.6563,"150": 37.1682,"175": 43.5938,"200": 46.9402,"225": 46.0048,"250": 44.7876,"275": 45.4464,"300": 44.5452,"325": 35.9703,"350": 28.9785,"375": 21.1481,"400": 17.3044,"425": 14.3587,"450": 9.0327,"475": 7.7371,"500": 4.7352,"525": 2.0071,"550": 1.6135,"575": 0.8909,"600": 0.225,"625": 0.0094}}}