{"type": "Feature","bbox": [15.595,68.4425,16.414,68.9688],"geometry": {"type": "MultiPolygon","coordinates": [[[[15.7318,68.7606,247.9082],[15.7071,68.76,136.172],[15.7079,68.7555,74.7765],[15.6956,68.7552,259.0156],[15.7025,68.7192,550.3026],[15.6901,68.7189,482.2637],[15.691,68.7144,310.2819],[15.7033,68.7147,689.96],[15.7042,68.7102,419.347],[15.7411,68.7111,183.974],[15.7419,68.7066,200.7593],[15.7788,68.7075,407.3074],[15.7797,68.703,261.3474],[15.792,68.7033,333.6875],[15.7928,68.6988,376.739],[15.7805,68.6985,311.5728],[15.7872,68.6626,177.4462],[15.7749,68.6623,119.545],[15.7758,68.6578,340.8606],[15.7635,68.6575,156.0495],[15.7652,68.6485,806.1827],[15.7529,68.6482,359.3412],[15.7537,68.6437,672.9112],[15.7415,68.6434,549.4461],[15.7423,68.6389,705.9385],[15.73,68.6386,409.4506],[15.7292,68.6431,623.4022],[15.7169,68.6428,558.8734],[15.7161,68.6473,472.0156],[15.6915,68.6467,540.4193],[15.6924,68.6422,596.4218],[15.6801,68.6419,787.8165],[15.681,68.6374,736.5705],[15.6564,68.6368,261.9312],[15.6573,68.6324,436.8347],[15.645,68.6321,492.6325],[15.6493,68.6096,261.6248],[15.6616,68.6099,275.0238],[15.6659,68.5874,401.336],[15.6536,68.5871,547.3447],[15.6545,68.5826,455.8718],[15.6422,68.5823,579.5062],[15.644,68.5733,717.4763],[15.595,68.5721,630.2479],[15.5968,68.5631,551.0074],[15.609,68.5634,701.8412],[15.6142,68.5365,589.071],[15.6264,68.5368,641.3518],[15.6272,68.5323,778.5566],[15.6395,68.5326,584.8553],[15.6403,68.5281,734.4227],[15.6525,68.5284,634.3499],[15.6568,68.506,545.459],[15.6446,68.5056,401.802],[15.6497,68.4787,294.7367],[15.6375,68.4784,254.6297],[15.6384,68.4739,508.4841],[15.6262,68.4736,543.1409],[15.6279,68.4646,658.2502],[15.6158,68.4643,718.3647],[15.6183,68.4508,383.5699],[15.6062,68.4505,307.7698],[15.607,68.446,447.9336],[15.6435,68.4469,648.4089],[15.6444,68.4425,841.5126],[15.6687,68.4431,628.4946],[15.6679,68.4475,526.7211],[15.68,68.4478,529.9597],[15.6783,68.4568,761.7531],[15.6905,68.4571,477.5525],[15.6888,68.4661,579.293],[15.701,68.4664,457.3541],[15.6993,68.4754,323.8498],[15.7115,68.4757,248.7832],[15.7106,68.4802,289.2299],[15.7228,68.4805,257.0842],[15.722,68.485,465.5936],[15.7342,68.4853,181.4568],[15.7325,68.4943,527.5124],[15.7447,68.4946,658.9583],[15.7439,68.4991,642.5181],[15.7561,68.4994,728.8837],[15.7552,68.5038,768.9704],[15.7674,68.5041,815.9409],[15.7666,68.5086,520.8506],[15.7788,68.5089,653.3641],[15.778,68.5134,701.4536],[15.7902,68.5137,636.4902],[15.7893,68.5182,598.6892],[15.8015,68.5185,483.3664],[15.8007,68.523,285.4342],[15.8129,68.5233,133.3259],[15.8121,68.5278,63.0474],[15.8243,68.5281,72.2812],[15.8235,68.5326,211.3955],[15.8357,68.5329,280.8658],[15.8349,68.5373,222.6741],[15.896,68.5388,251.8895],[15.8943,68.5478,309.0803],[15.9066,68.5481,286.8145],[15.9041,68.5615,571.0076],[15.9164,68.5618,427.9034],[15.9132,68.5798,650.5418],[15.9254,68.5801,688.7128],[15.923,68.5936,764.7628],[15.9352,68.5938,743.3207],[15.9336,68.6028,580.4954],[15.9459,68.6031,489.6747],[15.9443,68.6121,433.1948],[15.9565,68.6124,571.4932],[15.9557,68.6169,701.9482],[15.968,68.6172,539.1677],[15.9696,68.6082,575.2691],[15.9818,68.6085,610.2198],[15.9842,68.595,444.7324],[15.9965,68.5952,549.6839],[15.998,68.5863,483.6556],[16.0103,68.5865,463.7412],[16.0127,68.5731,705.645],[16.0249,68.5733,836.3339],[16.0241,68.5778,852.6953],[16.0363,68.5781,799.9935],[16.0356,68.5826,677.7032],[16.0478,68.5829,756.6597],[16.0462,68.5919,504.7941],[16.0585,68.5921,485.4583],[16.0577,68.5966,457.8919],[16.07,68.5969,509.3669],[16.0692,68.6014,506.9781],[16.1305,68.6028,319.3673],[16.1297,68.6072,445.6559],[16.142,68.6075,545.7993],[16.1412,68.612,496.9014],[16.1535,68.6123,627.2001],[16.1527,68.6168,689.8638],[16.214,68.6181,645.1614],[16.2133,68.6226,781.9185],[16.2378,68.6231,613.6599],[16.237,68.6276,440.6142],[16.2861,68.6287,529.6301],[16.2854,68.6332,751.6653],[16.2977,68.6334,569.5778],[16.2969,68.6379,549.3725],[16.3215,68.6384,287.8237],[16.3208,68.6429,351.077],[16.333,68.6432,340.9808],[16.3323,68.6477,265.21],[16.3569,68.6482,277.8336],[16.3561,68.6527,266.6313],[16.3684,68.6529,281.4864],[16.3677,68.6574,268.6718],[16.3923,68.6579,208.3672],[16.3916,68.6624,244.8455],[16.4039,68.6627,315.8521],[16.4017,68.6762,478.5048],[16.414,68.6764,523.2902],[16.4105,68.6989,431.8994],[16.3982,68.6986,377.9193],[16.3974,68.7031,321.6169],[16.3851,68.7029,281.2661],[16.3844,68.7074,286.9989],[16.3721,68.7071,322.6795],[16.3714,68.7116,308.0887],[16.3591,68.7114,304.6783],[16.3583,68.7159,305.0966],[16.3706,68.7161,342.4519],[16.3605,68.7791,168.0089],[16.3482,68.7788,170.5015],[16.3474,68.7833,191.7339],[16.3351,68.7831,214.569],[16.3336,68.7921,318.0191],[16.3213,68.7918,381.8886],[16.3205,68.7963,540.0106],[16.3082,68.7961,574.0779],[16.3067,68.805,546.2797],[16.282,68.8045,534.9938],[16.2812,68.809,433.0328],[16.2565,68.8085,372.4248],[16.2557,68.813,495.6548],[16.231,68.8125,454.8179],[16.228,68.8305,366.1705],[16.2156,68.8302,652.1158],[16.2148,68.8347,245.2167],[16.2272,68.835,245.2814],[16.2257,68.844,227.0034],[16.2381,68.8442,234.0538],[16.235,68.8625,13.2987],[16.225,68.8625,22.4718],[16.2104,68.8667,0.0],[16.1979,68.8667,0.0],[16.1901,68.8641,2.2142],[16.187,68.8609,17.1022],[16.1797,68.8599,0.0],[16.1766,68.8547,8.0967],[16.1693,68.8536,0.0],[16.1682,68.8505,13.4395],[16.1646,68.8479,24.003],[16.1563,68.8479,7.8691],[16.1521,68.8458,50.1517],[16.1234,68.8453,0.0],[16.1203,68.8422,0.0],[16.1151,68.8411,0.0],[16.1182,68.838,6.2118],[16.1141,68.8318,11.6296],[16.1068,68.8307,0.0],[16.1036,68.8276,0.0],[16.0958,68.825,0.0],[16.0859,68.8245,0.0],[16.0891,68.8224,5.2783],[16.088,68.8193,0.0],[16.0911,68.8182,13.8828],[16.0901,68.813,0.0],[16.0974,68.8099,17.5348],[16.0964,68.8068,0.0],[16.1036,68.8037,0.0],[16.1026,68.7984,0.0],[16.1099,68.7953,0.0],[16.1089,68.7922,0.0],[16.112,68.7911,0.0],[16.1109,68.788,0.0],[16.1234,68.7818,0.0],[16.1583,68.7771,0.0],[16.175,68.7688,0.0],[16.2021,68.7667,2.525],[16.2062,68.7646,0.0],[16.2167,68.7646,20.5513],[16.225,68.7604,0.0],[16.2417,68.7583,0.0],[16.2516,68.7536,2.7372],[16.2495,68.7505,33.4952],[16.2443,68.7495,7.5712],[16.2422,68.7464,0.0],[16.25,68.7458,0.0],[16.2542,68.7438,0.0],[16.2646,68.7438,12.478],[16.2661,68.7432,0.0],[16.2661,68.7401,12.5972],[16.2563,68.7375,35.595],[16.2354,68.7375,0.0],[16.2313,68.7354,34.4935],[16.2083,68.7354,13.4506],[16.2021,68.7375,0.0],[16.1896,68.7333,3.6387],[16.1604,68.7333,20.0893],[16.1458,68.7375,0.0],[16.1188,68.7396,5.4035],[16.1146,68.7417,0.0],[16.1021,68.7417,46.4363],[16.0953,68.7453,0.0],[16.0854,68.7479,13.7042],[16.0771,68.7479,12.0054],[16.0667,68.7438,4.2328],[16.0547,68.7432,0.0],[16.0578,68.7401,0.0],[16.0526,68.7391,0.0],[16.0484,68.7328,0.0],[16.0516,68.7307,5.9162],[16.0505,68.7276,0.0],[16.0536,68.7266,12.5268],[16.0484,68.7182,0.0],[16.0516,68.7161,0.0],[16.0516,68.713,4.2091],[16.0458,68.7063,0.0],[16.0495,68.7026,0.0],[16.0453,68.6964,45.7242],[16.038,68.6953,3.6918],[16.0333,68.6917,15.5033],[16.0234,68.6911,0.0],[16.0214,68.6891,0.0],[16.0214,68.6859,0.0],[16.0286,68.6828,0.0],[16.0276,68.6797,0.0],[16.0333,68.6771,0.0],[16.0417,68.6792,1.2378],[16.0458,68.6771,0.0],[16.0562,68.6771,17.5563],[16.0604,68.675,0.0],[16.0682,68.6745,0.0],[16.0766,68.6703,0.0],[16.0734,68.663,0.0],[16.0766,68.6609,0.0],[16.0734,68.6568,0.0],[16.0911,68.6495,6.4195],[16.088,68.6443,0.0],[16.0911,68.6422,40.8081],[16.0859,68.6412,0.0],[16.0812,68.6375,0.0],[16.0547,68.638,0.0],[16.0562,68.6396,0.0],[16.062,68.6401,0.0],[16.0641,68.6453,0.0],[16.0609,68.6474,30.1228],[16.0661,68.6547,0.0],[16.063,68.6568,0.0],[16.0641,68.6599,0.0],[16.0526,68.6651,0.0],[16.0578,68.6682,0.0],[16.0521,68.6708,0.0],[16.0229,68.6708,35.7104],[16.0083,68.675,0.0],[15.9958,68.675,0.0],[15.9911,68.6713,19.4933],[15.9859,68.6703,24.9978],[15.9828,68.6672,30.8421],[15.9729,68.6667,0.0],[15.9682,68.663,15.2554],[15.962,68.6609,5.9062],[15.9339,68.6536,0.0],[15.9292,68.6479,92.201],[15.9188,68.6479,0.0],[15.9021,68.6417,64.8511],[15.8859,68.6412,0.0],[15.8839,68.6381,0.0],[15.8917,68.6375,11.6659],[15.8932,68.6359,0.0],[15.8833,68.6333,47.5515],[15.8771,68.6333,55.3883],[15.8708,68.6354,5.1054],[15.8667,68.6333,39.5642],[15.8542,68.6333,0.0],[15.8458,68.6375,0.0],[15.825,68.6354,0.0],[15.8203,68.6318,19.9298],[15.8151,68.6307,0.0],[15.813,68.6276,0.0],[15.8375,68.6271,0.0],[15.8432,68.6245,107.107],[15.8422,68.6214,279.6292],[15.8474,68.6203,418.8865],[15.8375,68.6167,604.8346],[15.8313,68.6188,253.3711],[15.8083,68.6188,0.0],[15.8047,68.6162,0.0],[15.812,68.612,0.0],[15.8109,68.6088,0.0],[15.8182,68.6057,0.0],[15.8193,68.6026,0.0],[15.8224,68.6016,0.0],[15.8203,68.5984,0.0],[15.8151,68.5974,0.0],[15.813,68.5943,0.0],[15.8203,68.5911,3.3393],[15.8188,68.5875,0.0],[15.8224,68.5839,2.2798],[15.8193,68.5797,26.2624],[15.8224,68.5787,0.0],[15.8214,68.5734,0.0],[15.8245,68.5724,0.0],[15.8234,68.5693,0.0],[15.826599999999999,68.5672,0.0],[15.8245,68.5651,0.0],[15.8193,68.5641,0.0],[15.8161,68.5609,0.0],[15.8083,68.5583,6.8881],[15.7797,68.5557,0.0],[15.7682,68.5484,23.2684],[15.7547,68.5453,0.0],[15.7474,68.5359,0.0],[15.7396,68.5333,0.0],[15.7255,68.5339,0.0],[15.7255,68.537,0.0],[15.7297,68.5411,0.0],[15.7411,68.5422,0.0],[15.7484,68.5516,30.8763],[15.7536,68.5526,0.0],[15.7505,68.5547,0.0],[15.7526,68.5599,2.467],[15.7729,68.5583,0.0],[15.7771,68.5604,0.0],[15.7875,68.5604,0.0],[15.7917,68.5625,0.0],[15.8016,68.563,0.0],[15.8036,68.5682,0.0],[15.8005,68.5693,0.0],[15.8016,68.5724,0.0],[15.7984,68.5734,0.0],[15.7995,68.5766,0.0],[15.7943,68.5787,1.4611],[15.8016,68.5797,0.0],[15.8036,68.5828,0.0],[15.8005,68.5839,0.0],[15.7995,68.587,0.0],[15.7922,68.5901,0.0],[15.7932,68.5932,0.0],[15.7901,68.5953,0.0],[15.7953,68.5964,0.0],[15.7922,68.5984,0.0],[15.7932,68.6016,0.0],[15.7859,68.6047,1.0981],[15.787,68.6078,0.0],[15.7797,68.6109,0.0],[15.7786,68.6141,0.0],[15.7693,68.6151,0.0],[15.7708,68.6167,0.0],[15.7766,68.6172,0.0],[15.7786,68.6193,0.0],[15.7786,68.6224,0.0],[15.7755,68.6245,0.0],[15.7797,68.6307,4.3338],[15.7932,68.6339,0.0],[15.8047,68.6412,0.0],[15.8146,68.6438,26.3644],[15.8208,68.6417,0.0],[15.8271,68.6458,0.0],[15.8479,68.6479,0.0],[15.8521,68.65,0.0],[15.8911,68.6505,0.0],[15.8932,68.6536,23.5481],[15.8901,68.6547,9.0422],[15.8911,68.6578,0.0],[15.8859,68.6599,0.0],[15.8932,68.6609,0.0],[15.8979,68.6646,0.0],[15.9125,68.6646,0.0],[15.9203,68.6672,0.0],[15.9224,68.6703,1.9529],[15.9193,68.6724,0.0],[15.9245,68.6734,0.0],[15.9297,68.6787,0.0],[15.9495,68.6839,0.0],[15.9526,68.6891,5.242],[15.9661,68.6922,0.0],[15.9776,68.7057,10.3271],[15.9891,68.7068,0.0],[15.9932,68.713,0.0],[15.9901,68.7161,18.239],[15.9979,68.7271,0.0],[15.9943,68.7307,45.1083],[16.0016,68.7318,0.0],[16.0036,68.7359,0.0],[16.0005,68.7391,0.0],[16.0042,68.7438,0.0],[16.0005,68.7474,7.5449],[16.0057,68.7557,9.3393],[16.0026,68.7578,14.2983],[16.0141,68.7734,0.0],[16.0109,68.7755,0.0],[16.0099,68.7786,0.0],[16.0068,68.7797,14.3118],[16.0078,68.7828,0.0],[16.0005,68.7859,0.0],[16.0016,68.7891,0.0],[16.0,68.7896,0.0],[15.9938,68.7896,10.9918],[15.9896,68.7917,16.062],[15.9729,68.7917,19.4824],[15.9646,68.7958,0.0],[15.9583,68.7958,27.4758],[15.9521,68.7979,0.0],[15.9484,68.7953,0.0],[15.9391,68.7818,0.0],[15.9339,68.7807,0.0],[15.9286,68.7755,0.0],[15.9125,68.7708,10.6372],[15.9063,68.7729,0.0],[15.9021,68.7708,10.6617],[15.8859,68.7703,0.0],[15.8828,68.7672,0.0],[15.8755,68.7662,0.0],[15.8745,68.763,0.0],[15.8526,68.7578,0.0],[15.8516,68.7547,3.3327],[15.838,68.7536,0.0],[15.8411,68.7516,0.0],[15.8411,68.7484,0.0],[15.837,68.7443,0.0],[15.8292,68.7417,3.4311],[15.8063,68.7396,0.0],[15.7958,68.7354,21.3977],[15.7818,68.7359,0.0],[15.7901,68.7412,0.0],[15.7979,68.7438,2.548],[15.8021,68.7438,0.0],[15.8063,68.7458,3.7093],[15.8146,68.7458,0.0],[15.8224,68.7484,0.0],[15.8292,68.7562,0.0],[15.8255,68.7599,0.0],[15.837,68.7609,0.0],[15.8464,68.7724,1.0659],[15.8625,68.7729,0.0],[15.8661,68.7755,0.0],[15.8672,68.7786,6.9119],[15.8745,68.7797,0.0],[15.8776,68.7828,0.0],[15.8828,68.7839,0.0],[15.8953,68.8005,0.0],[15.8922,68.8026,0.0],[15.8922,68.8057,0.0],[15.8943,68.8078,0.0],[15.9016,68.8089,0.0],[15.9016,68.812,0.0],[15.8984,68.8141,0.0],[15.9078,68.8255,0.0],[15.9042,68.8292,0.0],[15.9099,68.838,0.0],[15.9068,68.8411,6.6933],[15.9109,68.8453,2.6259],[15.9161,68.8464,0.0],[15.9214,68.8536,6.9623],[15.9286,68.8547,0.0],[15.9286,68.8578,0.0],[15.9255,68.8599,9.7814],[15.9318,68.8662,0.0],[15.9453,68.8714,0.0],[15.9474,68.8734,0.0],[15.9443,68.8755,12.8788],[15.9464,68.8807,31.4861],[15.9536,68.8818,0.0],[15.9599,68.8901,0.0],[15.9568,68.8922,0.0],[15.9557,68.8953,5.1798],[15.9349,68.9057,0.0],[15.9271,68.9063,0.0],[15.9172,68.9109,14.6893],[15.9182,68.9141,0.0],[15.9151,68.9151,7.5702],[15.9161,68.9203,0.0],[15.913,68.9213,3.3739],[15.9141,68.9245,0.0],[15.9109,68.9255,9.9419],[15.912,68.9307,0.0],[15.9089,68.9318,10.5549],[15.9099,68.9349,0.0],[15.9068,68.937,11.9688],[15.912,68.938,0.0],[15.9182,68.9443,0.0],[15.913,68.9474,1.3051],[15.9182,68.9537,0.0],[15.9151,68.9547,0.293],[15.9141,68.9578,0.0],[15.9068,68.9609,4.919],[15.9078,68.9641,0.0],[15.8917,68.9688,0.0],[15.8542,68.9688,0.0],[15.8566,68.9576,535.4371],[15.8691,68.9579,447.4536],[15.8699,68.9534,475.8404],[15.8575,68.9531,510.5782],[15.8583,68.9486,671.0754],[15.8459,68.9483,658.764],[15.8475,68.9394,597.2271],[15.8351,68.9391,657.6614],[15.8368,68.9301,600.7054],[15.8243,68.9298,423.8731],[15.8277,68.9118,146.1373],[15.8401,68.9121,483.8309],[15.8451,68.8851,407.6703],[15.8327,68.8848,214.2432],[15.8344,68.8758,313.8687],[15.822,68.8756,293.1933],[15.8236,68.8666,539.2357],[15.8113,68.8663,535.9547],[15.8129,68.8573,527.3497],[15.8253,68.8576,536.5051],[15.8287,68.8396,554.5693],[15.8163,68.8393,546.0446],[15.8196,68.8213,607.8577],[15.8073,68.821,522.9991],[15.8081,68.8166,566.3403],[15.7957,68.8163,366.8895],[15.7966,68.8118,202.5833],[15.7718,68.8112,326.1341],[15.7727,68.8067,480.7481],[15.7603,68.8064,576.1558],[15.762,68.7974,377.8416],[15.7744,68.7977,733.7063],[15.7777,68.7797,770.5364],[15.7654,68.7794,417.1285],[15.7662,68.7749,381.048],[15.7539,68.7746,412.5787],[15.7547,68.7701,516.2388],[15.7424,68.7698,364.7523],[15.7432,68.7654,487.8642],[15.7309,68.7651,157.1768],[15.7318,68.7606,247.9082]]],
[[[15.9609,68.8266,0.0],[15.9609,68.8255,2.7478],[15.9641,68.8255,12.3353],[15.9641,68.8266,8.7996],[15.9609,68.8266,0.0]]],
[[[15.9688,68.8313,0.0],[15.9708,68.8292,2.3997],[15.9786,68.8297,0.0],[15.9818,68.8328,0.0],[15.9891,68.8339,0.0],[15.9953,68.8359,0.0],[15.9984,68.8391,0.0],[16.0036,68.8401,0.0],[16.0089,68.8474,1.6646],[16.0161,68.8484,0.0],[16.0193,68.8516,0.0],[16.0271,68.8542,0.0],[16.0328,68.8547,0.0],[16.0292,68.8583,0.0],[16.0297,68.8599,12.1346],[16.037,68.8609,0.0],[16.0333,68.8646,0.0],[16.0349,68.8682,15.9259],[16.0271,68.8688,0.0],[16.0229,68.8667,40.8864],[16.0187,68.8667,17.2125],[16.0141,68.863,21.9837],[16.0089,68.862,33.2966],[16.0036,68.8568,165.5935],[15.9938,68.8562,28.1491],[15.9891,68.8526,135.9837],[15.9693,68.8474,0.0],[15.9724,68.8453,18.7931],[15.9714,68.8422,0.0],[15.9745,68.8401,70.8116],[15.9693,68.8391,0.0],[15.9724,68.8359,0.0],[15.9688,68.8313,0.0]]],
[[[15.9797,68.9349,0.0],[15.9833,68.9333,0.0],[15.987,68.937,8.042],[15.9833,68.9375,0.0],[15.9797,68.9349,0.0]]],
[[[16.0797,68.7839,4.4763],[16.0755,68.7859,34.6359],[16.0766,68.7891,0.0],[16.0651,68.7891,0.0],[16.063,68.7859,0.0],[16.0682,68.7839,12.6503],[16.0661,68.7818,26.6468],[16.0589,68.7807,0.0],[16.0568,68.7755,0.0],[16.0667,68.7708,0.0],[16.0745,68.7703,6.4072],[16.0734,68.7672,0.0],[16.0828,68.7662,22.3332],[16.0818,68.763,0.0],[16.0911,68.762,5.4325],[16.0901,68.7589,0.0],[16.0958,68.7562,0.0],[16.1229,68.7542,3.2342],[16.1271,68.7521,0.0],[16.1349,68.7516,4.7076],[16.1417,68.7479,0.0],[16.1542,68.7479,0.0],[16.1583,68.7458,0.0],[16.1708,68.7458,0.0],[16.1786,68.7484,0.0],[16.1672,68.7547,0.7799],[16.1682,68.7578,0.0],[16.1604,68.7583,2.4835],[16.1521,68.7625,0.0],[16.1292,68.7625,55.4556],[16.1276,68.763,20.0512],[16.1286,68.7662,0.0],[16.1229,68.7688,0.0],[16.1104,68.7688,102.9326],[16.1021,68.7729,90.5325],[16.0901,68.7734,227.7625],[16.0911,68.7786,0.0],[16.0818,68.7797,87.4874],[16.0828,68.7828,0.0],[16.0797,68.7839,4.4763]]],
[[[16.0547,68.8786,0.0],[16.0562,68.8771,0.0],[16.0646,68.8771,3.3886],[16.0682,68.8797,0.0],[16.0693,68.8828,4.884],[16.075,68.8833,0.0],[16.0766,68.8849,0.0],[16.0667,68.8854,3.7359],[16.0641,68.8818,5.8238],[16.0568,68.8807,0.0],[16.0547,68.8786,0.0]]],
[[[16.1672,68.8891,0.0],[16.1688,68.8875,0.0],[16.1724,68.888,10.5452],[16.1708,68.8896,8.1884],[16.1672,68.8891,0.0]]]]}
,"properties": {"GID_2": "NOR.17.11_1","GID_0": "NOR","country": "Norway","GID_1": "NOR.17_1","province": "Troms","NL_NAME_1": "NA","county": "Kvæfjord","VARNAME_2": "NA","NL_NAME_2": "NA","TYPE_2": "Kommuner","ENGTYPE_2": "Municipality","CC_2": "NA","HASC_2": "NO.TR.KV","name": "Kvæfjord.county","area_km2": 678.5431,"hist_schema_id": "Elevation0-9000","hist_area_km2": {"0": 31.0715,"25": 33.6342,"50": 27.4679,"75": 25.1969,"100": 20.8796,"125": 22.4431,"150": 24.5489,"175": 26.3853,"200": 28.8407,"225": 30.3019,"250": 29.4232,"275": 27.0384,"300": 25.0027,"325": 23.5101,"350": 27.6436,"375": 26.7575,"400": 26.865,"425": 25.0184,"450": 24.367,"475": 23.4582,"500": 20.6866,"525": 18.6903,"550": 16.4552,"575": 13.8554,"600": 13.9928,"625": 11.7414,"650": 10.5541,"675": 9.346,"700": 7.6029,"725": 6.0291,"750": 5.0265,"775": 4.0389,"800": 3.5208,"825": 2.6955,"850": 1.9931,"875": 1.0981,"900": 0.6654,"925": 0.2944,"950": 0.1085,"975": 0.0929,"1000": 0.0929,"1025": 0.0464,"1050": 0.0464,"1075": 0.0155}}}