{"type":"Feature","properties":{"GID_2":"NOR.5.4_1","GID_0":"NOR","country":"Norway","GID_1":"NOR.5_1","province":"Finnmark","NL_NAME_1":"NA","county":"Gamvik","VARNAME_2":"NA","NL_NAME_2":"NA","TYPE_2":"Kommuner","ENGTYPE_2":"Municipality","CC_2":"NA","HASC_2":"NO.FI.GA","name":"Gamvik.county"},
"geometry":{"type": "MultiPolygon","coordinates": [[[[28.2648,70.7,462.751],[28.2716,70.7167,398.713],[28.2625,70.7146,445.5837],[28.2578,70.7182,23.5762],[28.2542,70.7188,0.0],[28.2526,70.7182,23.691],[28.2536,70.7151,323.3036],[28.2521,70.7146,323.3036],[28.2375,70.7146,0.0],[28.2286,70.7203,0.0],[28.225,70.7208,0.0],[28.2193,70.7182,0.0],[28.2208,70.7167,0.0],[28.2286,70.7161,0.0],[28.2234,70.7109,12.0239],[28.2313,70.7104,140.207],[28.237,70.7068,294.2871],[28.2104,70.7063,177.5311],[28.2005,70.7037,271.4463],[28.1953,70.7005,61.1957],[28.188,70.6995,15.2861],[28.1891,70.6964,124.2376],[28.187,70.6943,294.9705],[28.1714,70.6932,0.0],[28.1693,70.6901,0.0],[28.1745,70.687,316.1952],[28.1729,70.6854,381.2005],[28.1688,70.6854,311.4229],[28.1646,70.6833,373.9498],[28.1521,70.6833,189.6143],[28.1479,70.6813,255.5817],[28.1271,70.6813,0.0],[28.1234,70.6849,0.0],[28.1292,70.6854,0.0],[28.1349,70.688,0.0],[28.1292,70.6917,0.0],[28.1193,70.6911,0.0],[28.1104,70.6854,0.0],[28.0896,70.6854,0.0],[28.0833,70.6875,0.0],[28.0734,70.6849,0.0],[28.0745,70.6818,0.0],[28.0734,70.6797,0.0],[28.0786,70.6755,0.0],[28.0729,70.675,0.0],[28.0672,70.6724,0.0],[28.0688,70.6708,6.3653],[28.0771,70.6708,36.2275],[28.0812,70.6729,18.4415],[28.0849,70.6724,39.7095],[28.0828,70.6693,225.5896],[28.075,70.6687,247.9523],[28.0625,70.6646,207.8532],[28.0563,70.6667,3.3988],[28.0479,70.6667,0.0],[28.0438,70.6646,19.668],[28.0333,70.6646,0.0],[28.0292,70.6625,0.0],[28.0167,70.6625,0.0],[28.0151,70.6609,0.0],[28.0182,70.6589,168.282],[28.0167,70.6583,190.333],[27.9917,70.6583,0.0],[27.987,70.6547,54.5425],[27.9776,70.6536,11.8775],[27.9708,70.6479,245.0851],[27.9458,70.6479,28.2927],[27.9333,70.6438,115.8901],[27.9255,70.6432,0.0],[27.9208,70.6396,141.5856],[27.9125,70.6396,0.0],[27.9063,70.6417,0.0],[27.8958,70.6354,139.3743],[27.8875,70.6354,55.6799],[27.8813,70.6375,0.0],[27.8771,70.6354,0.0],[27.8667,70.6354,0.0],[27.8625,70.6333,40.2669],[27.8563,70.6333,0.0],[27.8438,70.6292,72.3152],[27.8229,70.6292,8.3955],[27.8167,70.6312,0.0],[27.8109,70.6286,0.0],[27.8141,70.6255,119.0434],[27.8042,70.6229,263.4296],[27.7958,70.6229,231.224],[27.7896,70.625,4.2682],[27.7854,70.6229,161.5553],[27.7667,70.6229,0.0],[27.7651,70.6214,0.0],[27.7729,70.6208,83.1413],[27.7745,70.6193,216.8946],[27.7625,70.6188,123.9569],[27.7583,70.6167,225.227],[27.7354,70.6188,0.0],[27.7313,70.6167,69.5239],[27.7229,70.6167,75.5468],[27.7167,70.6188,0.0],[27.7104,70.6167,54.7902],[27.7042,70.6188,0.0],[27.7,70.6167,35.6529],[27.6792,70.6167,0.0],[27.675,70.6188,0.0],[27.6568,70.6193,21.8012],[27.6589,70.6224,0.0],[27.6688,70.625,5.7009],[27.6875,70.625,0.0],[27.6917,70.6271,0.0],[27.7083,70.6271,0.0],[27.7125,70.6292,0.0],[27.7208,70.6271,0.0],[27.725,70.6292,0.0],[27.7375,70.6292,0.0],[27.7438,70.6333,0.0],[27.7583,70.6354,0.0],[27.7625,70.6375,0.0],[27.7729,70.6375,0.0],[27.7771,70.6396,62.56],[27.7833,70.6375,0.0],[27.7979,70.6375,0.0],[27.8021,70.6396,10.6595],[27.8146,70.6396,0.0],[27.8245,70.6422,0.0],[27.8234,70.6453,32.1632],[27.825,70.6458,14.1738],[27.8375,70.6479,0.0],[27.8417,70.65,0.0],[27.8542,70.65,0.0],[27.8667,70.6542,11.3642],[27.8813,70.6563,0.0],[27.8849,70.6589,0.0],[27.8828,70.662,0.0],[27.8771,70.6646,0.0],[27.8568,70.6651,0.0],[27.8547,70.6682,0.0],[27.8583,70.6708,14.1131],[27.8771,70.6687,0.0],[27.8818,70.6651,0.0],[27.8896,70.6646,0.0],[27.8937,70.6625,0.0],[27.9021,70.6625,0.0],[27.9083,70.6646,4.2161],[27.9146,70.6625,0.0],[27.9292,70.6667,0.0],[27.9396,70.6667,0.0],[27.9474,70.6724,0.0],[27.9417,70.675,0.0],[27.9271,70.675,0.0],[27.9229,70.6729,35.1926],[27.9125,70.6729,0.0],[27.9083,70.6708,14.8463],[27.8958,70.6708,0.0],[27.8917,70.6687,8.4693],[27.8833,70.6687,0.0],[27.8797,70.6724,0.0],[27.8818,70.6745,0.0],[27.8917,70.6771,63.0804],[27.8979,70.675,0.0],[27.9063,70.675,0.0],[27.9104,70.6771,0.0],[27.9229,70.6771,0.0],[27.9276,70.6807,0.0],[27.9354,70.6813,0.0],[27.9396,70.6833,0.0],[27.9479,70.6833,0.0],[27.9542,70.6813,0.0],[27.9667,70.6854,0.0],[27.9745,70.6859,0.0],[27.9792,70.6896,37.0973],[27.9854,70.6875,0.0],[27.9891,70.688,0.0],[27.9859,70.6911,0.0],[27.9917,70.6937,22.9442],[28.0,70.6917,0.0],[28.0042,70.6937,0.0],[28.0208,70.6937,0.0],[28.0417,70.7021,48.056399999999996],[28.0646,70.7042,0.0],[28.0708,70.7021,0.0],[28.0724,70.7037,0.0],[28.0693,70.7047,0.0],[28.0672,70.7078,22.3207],[28.0729,70.7083,0.0],[28.0786,70.7109,19.1014],[28.0714,70.7161,0.0],[28.0854,70.7167,0.0],[28.0917,70.7208,5.6807],[28.1,70.7188,0.0],[28.1083,70.7229,42.6081],[28.1229,70.725,0.0],[28.1391,70.7359,50.8618],[28.1292,70.7417,121.9545],[28.1188,70.7417,211.8685],[28.1146,70.7438,187.7495],[28.1068,70.7443,111.9759],[28.1078,70.7474,2.5957],[28.1042,70.75,0.0],[28.0875,70.7521,229.9909],[28.0833,70.7542,121.4298],[28.0604,70.7542,350.0868],[28.0563,70.7562,188.631],[28.05,70.7542,161.928],[28.0375,70.7542,0.0],[28.0271,70.7479,56.8456],[28.0151,70.7474,0.0],[28.0245,70.7443,87.265],[28.0182,70.7401,185.8974],[28.0146,70.7396,155.1871],[28.0078,70.7432,0.0],[28.0,70.7438,0.0],[27.9984,70.7453,79.885],[28.0078,70.7464,0.0],[28.0286,70.762,0.0],[28.0208,70.7625,61.8085],[28.0167,70.7646,0.0],[28.0083,70.7646,0.0],[28.0068,70.763,81.5683],[28.0146,70.7625,87.1172],[28.0161,70.7609,188.004],[27.9979,70.7604,275.2915],[27.9917,70.7646,6.0584],[27.9854,70.7625,247.0098],[27.9771,70.7625,282.291],[27.9755,70.763,226.9335],[27.9766,70.7662,118.1015],[27.9708,70.7688,4.8151],[27.9542,70.7688,212.8656],[27.95,70.7708,125.289],[27.9417,70.7708,222.9615],[27.9354,70.7688,303.2522],[27.9313,70.7708,279.2899],[27.9,70.7708,291.3187],[27.8958,70.7729,122.7344],[27.8875,70.7708,156.1659],[27.8859,70.7714,100.8784],[27.887,70.7745,11.6168],[27.8854,70.775,0.0],[27.8792,70.7729,51.9142],[27.8688,70.7729,13.8471],[27.8646,70.7708,31.053],[27.8443,70.7703,0.0],[27.8297,70.7599,85.907],[27.8328,70.7578,248.5774],[27.8312,70.7562,350.6066],[27.8229,70.7562,284.4026],[27.8125,70.7604,12.9944],[27.8,70.7562,7.3286],[27.7922,70.7557,0.0],[27.7875,70.7521,9.0373],[27.7714,70.7495,0.0],[27.7745,70.7474,18.0356],[27.7729,70.7458,32.2929],[27.7646,70.7458,0.0],[27.763,70.7474,0.0],[27.7703,70.7526,0.0],[27.7672,70.7557,0.0],[27.7708,70.7562,0.0],[27.7771,70.7542,0.0],[27.7828,70.7568,0.0],[27.7734,70.7599,76.8677],[27.7896,70.7625,0.0],[27.7958,70.7667,0.0],[27.8036,70.7672,0.0],[27.8068,70.7703,19.4917],[27.8141,70.7714,0.0],[27.8255,70.7786,0.0],[27.8328,70.7797,0.0],[27.8349,70.7828,0.0],[27.8276,70.7839,79.3008],[27.8208,70.7875,19.0372],[27.8125,70.7875,51.6865],[27.8083,70.7854,278.3767],[27.7984,70.7859,170.2835],[27.8,70.7875,91.0999],[27.8057,70.788,28.7746],[27.8042,70.7896,0.0],[27.7833,70.7875,145.3],[27.7687,70.7917,0.0],[27.7583,70.7917,20.2713],[27.7542,70.7937,0.0],[27.7479,70.7937,51.2494],[27.7396,70.7979,0.0],[27.7296,70.7995,2.3955],[27.7244,70.7861,285.8033],[27.711,70.7866,316.6416],[27.7058,70.7732,350.9953],[27.6924,70.7737,388.2467],[27.6889,70.7648,326.4056],[27.6755,70.7653,365.9937],[27.6721,70.7563,367.2806],[27.6586,70.7569,353.799],[27.6552,70.7479,364.035],[27.6417,70.7485,364.5247],[27.6401,70.744,344.3377],[27.6266,70.7445,341.414],[27.6249,70.74,365.5131],[27.6114,70.7406,347.076],[27.6098,70.7361,395.9135],[27.5963,70.7366,379.724],[27.5929,70.7277,385.1634],[27.5795,70.7282,377.5659],[27.5778,70.7237,380.6205],[27.5644,70.7243,369.9207],[27.5627,70.7198,409.8592],[27.5492,70.7203,384.0623],[27.5442,70.7069,399.4691],[27.5308,70.7074,383.8846],[27.5175,70.6716,373.1426],[27.5041,70.6721,368.985],[27.5008,70.6632,369.103],[27.4874,70.6637,366.0436],[27.4841,70.6547,395.5896],[27.4707,70.6553,379.0267],[27.469,70.6508,363.977],[27.4556,70.6513,354.7303],[27.454,70.6468,369.2356],[27.4406,70.6473,366.4746],[27.4389,70.6429,370.8609],[27.4255,70.6434,370.9173],[27.4239,70.6389,336.4821],[27.4105,70.6394,324.9874],[27.4089,70.6349,368.7024],[27.3955,70.6355,341.6171],[27.3939,70.631,435.6036],[27.3805,70.6315,302.1007],[27.3772,70.6225,170.5833],[27.3906,70.622,281.5348],[27.3825,70.5996,150.4662],[27.3959,70.5991,168.1067],[27.3845,70.5678,71.3374],[27.3712,70.5683,158.3099],[27.3663,70.5549,92.3097],[27.353,70.5554,92.4117],[27.3514,70.5509,118.2213],[27.3647,70.5504,97.7564],[27.3615,70.5414,124.3165],[27.3748,70.5409,176.6308],[27.37,70.5275,149.6006],[27.3833,70.527,188.2512],[27.3785,70.5135,186.1241],[27.3918,70.513,158.5408],[27.387,70.4996,170.4494],[27.4003,70.4991,164.6644],[27.3954,70.4856,177.0817],[27.4087,70.4851,288.6346],[27.3991,70.4582,206.8092],[27.4123,70.4577,210.1305],[27.4011,70.4264,397.1677],[27.4143,70.4259,409.6908],[27.4095,70.4124,442.9091],[27.4228,70.4119,433.7672],[27.4195,70.403,454.5441],[27.4328,70.4025,435.1158],[27.4312,70.398,440.8069],[27.4444,70.3975,410.7077],[27.4476,70.4064,413.3194],[27.4609,70.4059,381.9264],[27.4625,70.4104,351.6841],[27.4758,70.4098,376.8758],[27.4774,70.4143,347.7964],[27.4906,70.4138,397.7618],[27.4939,70.4227,345.8191],[27.5072,70.4222,350.1514],[27.5121,70.4357,320.7664],[27.5253,70.4351,330.2142],[27.5286,70.4441,383.0382],[27.5419,70.4436,354.0324],[27.5451,70.4525,370.3885],[27.5584,70.452,325.2653],[27.5634,70.4654,374.2195],[27.5766,70.4649,365.6049],[27.5816,70.4783,340.3181],[27.5949,70.4778,336.7884],[27.5999,70.4912,369.5674],[27.6132,70.4907,366.2382],[27.6181,70.5041,382.0227],[27.6315,70.5036,363.4052],[27.6331,70.508,391.2341],[27.6464,70.5075,396.252],[27.6481,70.512,389.0279],[27.6614,70.5114,371.3473],[27.6631,70.5159,412.5261],[27.6764,70.5154,381.3077],[27.6781,70.5199,512.3019],[27.6914,70.5193,450.5878],[27.6931,70.5238,448.1638],[27.7064,70.5233,439.8508],[27.7081,70.5277,613.1902],[27.7214,70.5272,443.9053],[27.7231,70.5317,508.6241],[27.7364,70.5311,508.7769],[27.7381,70.5356,476.9859],[27.7514,70.5351,477.5871],[27.7531,70.5395,468.5901],[27.7664,70.539,440.3419],[27.7681,70.5435,484.2974],[27.7948,70.5424,362.0721],[27.7965,70.5469,419.4583],[27.8098,70.5463,384.972],[27.8115,70.5508,390.9739],[27.8382,70.5497,500.5455],[27.8399,70.5542,550.5782],[27.8666,70.5531,606.4205],[27.8683,70.5575,628.7969],[27.895,70.5565,553.5908],[27.8967,70.5609,603.6344],[27.9234,70.5598,665.0967],[27.9251,70.5643,657.3937],[27.9385,70.5637,638.6022],[27.9419,70.5727,609.4031],[27.9553,70.5721,578.4352],[27.957,70.5766,555.8777],[27.9704,70.576,549.3669],[27.9721,70.5805,552.8792],[27.9855,70.58,521.3458],[27.9872,70.5844,515.3515],[28.0006,70.5839,491.8477],[28.0023,70.5883,472.074],[28.0157,70.5878,461.8181],[28.0192,70.5967,422.5969],[28.0325,70.5962,419.7481],[28.0343,70.6006,463.4518],[28.0477,70.6001,482.6093],[28.0494,70.6045,513.4199],[28.0628,70.604,529.9919],[28.0646,70.6085,559.59],[28.0779,70.6079,563.4675],[28.0797,70.6124,599.0356],[28.0931,70.6118,605.6832],[28.0966,70.6207,595.7],[28.11,70.6202,615.9903],[28.1118,70.6246,586.2623],[28.1251,70.6241,600.5132],[28.1269,70.6286,607.209],[28.1403,70.628,622.3755],[28.1421,70.6325,601.5898],[28.1555,70.6319,583.9147],[28.1573,70.6364,541.2474],[28.1706,70.6358,520.0613],[28.1742,70.6447,457.3152],[28.1876,70.6442,447.7871],[28.1894,70.6486,426.9099],[28.2028,70.6481,425.7531],[28.2046,70.6525,422.1327],[28.218,70.652,497.7974],[28.2198,70.6564,508.8721],[28.2332,70.6559,533.6247],[28.2459,70.6871,452.7212],[28.2593,70.6866,466.6534],[28.2648,70.7,462.751]]],
[[[27.7964,70.6266,0.0],[27.7979,70.625,28.8891],[27.8016,70.6255,12.5822],[27.8,70.6271,0.0],[27.7964,70.6266,0.0]]],
[[[27.8208,70.7625,0.0],[27.8193,70.7609,15.671],[27.8266,70.7609,35.3908],[27.825,70.7625,0.0],[27.8208,70.7625,0.0]]],
[[[27.8229,70.7729,0.0],[27.8214,70.7714,0.0],[27.8266,70.7714,0.0],[27.8266,70.7724,0.0],[27.8229,70.7729,0.0]]],
[[[28.1453,70.6964,0.0],[28.1443,70.6943,0.0],[28.1479,70.6937,0.0],[28.1557,70.6995,0.0],[28.1521,70.7,0.0],[28.1453,70.6964,0.0]]],
[[[28.2078,70.7276,0.0],[28.2068,70.7255,0.0],[28.2104,70.725,0.0],[28.2182,70.7307,0.0],[28.2146,70.7312,0.0],[28.2078,70.7276,0.0]]],
[[[28.2792,70.7312,0.0],[28.2729,70.7312,0.0],[28.2714,70.7328,0.0],[28.2828,70.737,0.0],[28.2729,70.7375,0.0],[28.2651,70.7328,0.0],[28.2609,70.7276,0.0],[28.2729,70.725,0.0],[28.2786,70.7276,0.0],[28.2807,70.7297,0.0],[28.2792,70.7312,0.0]]],
[[[28.5417,70.9437,0.0],[28.5401,70.9422,0.0],[28.5453,70.9422,0.0],[28.5453,70.9432,0.0],[28.5417,70.9437,0.0]]],
[[[27.7465,70.8079,216.7281],[27.7443,70.8021,0.0],[27.7521,70.8021,0.0],[27.7667,70.7979,0.0],[27.7792,70.7979,0.0],[27.7833,70.7958,0.0],[27.8042,70.7958,0.0],[27.8167,70.8,0.0],[27.8312,70.8,0.0],[27.8354,70.7979,0.0],[27.8646,70.7979,0.0],[27.8714,70.8037,0.0],[27.875,70.8042,3.6547],[27.8792,70.8021,0.0],[27.887,70.8016,12.3178],[27.8859,70.7984,0.0],[27.8875,70.7979,0.0],[27.8958,70.8,3.001],[27.9,70.7979,0.0],[27.9104,70.7979,0.0],[27.9146,70.7958,0.0],[27.9313,70.7958,5.7909],[27.9359,70.7995,0.0],[27.9479,70.8,0.0],[27.9609,70.8078,0.0],[27.9682,70.8089,0.0],[27.9651,70.812,0.0],[27.9693,70.8141,0.0],[27.9792,70.8167,71.8186],[27.9917,70.8167,0.0],[28.0063,70.8208,0.0],[28.0078,70.8193,0.0],[28.0047,70.8161,0.0],[28.0057,70.813,5.7687],[28.0047,70.8109,0.0],[28.0068,70.8089,0.0],[28.0255,70.7984,73.1431],[28.0354,70.7958,0.0],[28.0542,70.7958,96.0315],[28.0583,70.7937,0.0],[28.0646,70.7937,0.0],[28.0708,70.7917,14.8474],[28.0745,70.7943,3.1099],[28.0714,70.7974,0.0],[28.0771,70.8,0.0],[28.0828,70.8005,11.3816],[28.0818,70.8037,10.718],[28.0917,70.8063,23.0458],[28.1,70.8063,0.0],[28.1057,70.8026,0.0],[28.0995,70.7984,14.5704],[28.0938,70.7979,0.0],[28.0922,70.7963,0.0],[28.1167,70.7937,0.0],[28.1208,70.7958,0.0],[28.1271,70.7958,0.0],[28.1333,70.7979,17.9133],[28.1417,70.7937,0.0],[28.1646,70.7937,17.8079],[28.1708,70.7917,0.0],[28.175,70.7937,13.967],[28.1833,70.7937,0.0],[28.1979,70.7896,37.9726],[28.2229,70.7896,138.7871],[28.2292,70.7875,0.0],[28.2339,70.7911,13.9033],[28.2432,70.7922,33.4537],[28.2542,70.8,115.3581],[28.2687,70.8021,0.0],[28.2729,70.8042,147.4073],[28.2792,70.8021,0.0],[28.2828,70.8026,0.0],[28.2953,70.8109,0.0],[28.2974,70.8141,237.5049],[28.2896,70.8146,185.3516],[28.2849,70.8182,142.4613],[28.2771,70.8187,324.4711],[28.2729,70.8208,269.2611],[28.2589,70.8214,330.6409],[28.2568,70.8234,239.934],[28.2578,70.8307,0.0],[28.2562,70.8313,0.0],[28.25,70.8313,72.4238],[28.2458,70.8333,22.495],[28.2354,70.8333,273.4102],[28.2313,70.8354,224.6997],[28.2229,70.8333,351.5409],[28.2188,70.8354,327.7255],[28.2109,70.8359,311.6801],[28.2125,70.8375,205.6955],[28.2245,70.838,22.4219],[28.2172,70.8411,0.0],[28.2396,70.8417,0.0],[28.2542,70.8375,0.0],[28.2646,70.8375,10.3809],[28.2729,70.8333,0.0],[28.2891,70.8307,0.0],[28.2958,70.8271,0.0],[28.3083,70.8271,27.6029],[28.3125,70.825,0.0],[28.3229,70.825,0.0],[28.3271,70.8229,0.0],[28.3536,70.8255,0.0],[28.3505,70.8287,101.9272],[28.3583,70.8292,0.0],[28.3672,70.8349,0.0],[28.3745,70.8359,0.0],[28.3714,70.8391,0.0],[28.3745,70.8411,0.0],[28.3479,70.8417,187.9326],[28.3464,70.8422,157.8772],[28.3474,70.8453,22.8206],[28.3453,70.8474,30.5813],[28.3297,70.8484,269.9376],[28.3328,70.8516,0.0],[28.3297,70.8536,0.0],[28.3458,70.8542,0.0],[28.3542,70.85,0.0],[28.4,70.85,0.0],[28.4068,70.8536,47.9755],[28.4141,70.8547,0.0],[28.4172,70.8578,0.0],[28.4266,70.8588,0.0],[28.4234,70.862,4.8915],[28.4292,70.8646,0.0],[28.4349,70.8651,0.0],[28.4474,70.8734,0.0],[28.4458,70.875,135.5645],[28.4271,70.875,290.7407],[28.4208,70.8792,0.0],[28.4151,70.8786,59.8485],[28.4182,70.8766,213.9603],[28.4167,70.875,291.7783],[28.4104,70.8771,171.8954],[28.4042,70.8771,242.4342],[28.4026,70.8786,174.6968],[28.4057,70.8807,0.0],[28.3953,70.887,0.0],[28.375,70.8875,0.0],[28.3734,70.8891,0.0],[28.3958,70.8896,38.7993],[28.4104,70.8854,0.0],[28.4229,70.8854,0.0],[28.4276,70.8818,0.0],[28.4313,70.8812,0.0],[28.4328,70.8818,0.0],[28.4318,70.8849,0.0],[28.4354,70.8875,98.573],[28.4417,70.8854,0.0],[28.45,70.8854,0.0],[28.4542,70.8875,0.0],[28.4667,70.8875,0.0],[28.4755,70.8932,3.5742],[28.4828,70.8943,0.0],[28.4807,70.8974,8.7777],[28.4776,70.8984,13.4125],[28.4807,70.9016,77.7721],[28.475,70.9042,0.0],[28.4672,70.9047,29.9348],[28.4651,70.9078,0.0],[28.475,70.9083,0.0],[28.4813,70.9063,0.0],[28.4875,70.9083,118.3432],[28.4917,70.9063,0.0],[28.4953,70.9068,0.0],[28.5036,70.913,10.5811],[28.5026,70.9161,101.5986],[28.5068,70.9203,0.0],[28.5161,70.9213,0.0],[28.5182,70.9234,0.0],[28.5172,70.9266,118.0099],[28.5193,70.9287,0.0],[28.5286,70.9297,0.0],[28.5214,70.9349,14.44],[28.537,70.9359,0.0],[28.5276,70.9422,125.6047],[28.5307,70.9453,15.7233],[28.5276,70.9474,53.2995],[28.5333,70.9479,0.0],[28.5349,70.9495,0.0],[28.5292,70.95,182.8095],[28.5276,70.9516,91.3604],[28.5313,70.9542,0.0],[28.5391,70.9547,0.0],[28.5359,70.9578,18.461],[28.5391,70.9599,2.5658],[28.5318,70.9641,47.7365],[28.5411,70.9651,0.0],[28.5474,70.9693,0.0],[28.5443,70.9724,0.0],[28.5474,70.9734,0.0],[28.5495,70.9766,0.0],[28.5438,70.9792,5.2653],[28.538,70.9797,7.7285],[28.5313,70.9833,0.0],[28.5234,70.9838,1.6298],[28.5214,70.9859,0.0],[28.5224,70.9891,1.7177],[28.5146,70.9896,4.1979],[28.5104,70.9917,0.0],[28.5021,70.9896,2.0695],[28.4979,70.9917,0.0],[28.4875,70.9917,1.4093],[28.4833,70.9938,0.0],[28.4771,70.9938,0.0],[28.4729,70.9958,0.0],[28.4604,70.9958,0.0],[28.4562,70.9979,0.0],[28.4479,70.9958,6.3332],[28.4437,70.9979,0.0],[28.425,70.9979,2.3869],[28.4182,71.0016,0.0],[28.4083,71.0042,0.0],[28.4,71.0021,1.5919],[28.3958,71.0042,0.0],[28.3854,71.0042,0.0],[28.3792,71.0021,10.1935],[28.3729,71.0042,0.0],[28.3667,71.0021,14.0555],[28.3604,71.0042,0.0],[28.3563,71.0021,3.7384],[28.3458,71.0021,0.0],[28.3417,71.0,78.9619],[28.3229,71.0,28.7331],[28.3167,70.9958,148.1061],[28.3063,70.9958,10.0711],[28.3047,70.9974,0.0],[28.3125,70.9979,12.1963],[28.3141,70.9995,7.7738],[28.3047,71.0005,9.8582],[28.3078,71.0036,5.722],[28.3042,71.0042,7.5554],[28.3,71.0021,0.0],[28.2922,71.0016,0.0],[28.2953,70.9984,8.5201],[28.2859,70.9932,0.0],[28.2891,70.9901,25.2589],[28.275,70.9896,0.0],[28.2714,70.987,0.0],[28.2745,70.9838,41.7223],[28.2708,70.9833,46.0243],[28.2646,70.9854,0.0],[28.2557,70.9797,0.0],[28.2464,70.9786,0.0],[28.2557,70.9755,119.8508],[28.2396,70.975,0.0],[28.2313,70.9792,6.5498],[28.2229,70.9792,0.0],[28.2141,70.9734,1.9685],[28.2068,70.9724,0.0],[28.2078,70.9693,0.0],[28.2057,70.9672,0.0],[28.1964,70.9661,0.0],[28.1995,70.963,0.0],[28.1932,70.9589,0.0],[28.1833,70.9583,0.0],[28.1818,70.9599,0.0],[28.1839,70.962,0.0],[28.1932,70.9672,0.0],[28.1839,70.9703,36.7917],[28.1901,70.9745,17.1182],[28.1974,70.9755,0.0],[28.1964,70.9786,0.0],[28.2005,70.9828,0.0],[28.2161,70.9922,0.0],[28.2266,71.0005,0.0],[28.2255,71.0036,0.0],[28.2266,71.0057,0.0],[28.2125,71.0083,0.0],[28.2036,71.0026,0.0],[28.1938,71.0,22.7073],[28.1901,71.0005,4.4728],[28.1953,71.0057,0.0],[28.188,71.0099,0.0],[28.1938,71.0125,0.0],[28.1995,71.013,0.0],[28.1984,71.0203,0.0],[28.2057,71.0266,12.8596],[28.2,71.0292,8.4351],[28.1813,71.0292,77.7109],[28.1776,71.0328,0.0],[28.2021,71.0333,0.0],[28.2062,71.0354,0.0],[28.2188,71.0354,0.0],[28.2234,71.0391,31.5184],[28.2313,71.0396,0.0],[28.2438,71.0437,0.0],[28.2542,71.0417,0.0],[28.2557,71.0432,0.0],[28.2526,71.0453,7.8646],[28.2547,71.0474,0.0],[28.2641,71.0484,0.0],[28.2609,71.0516,0.0],[28.2641,71.0537,0.0],[28.2568,71.0568,0.0],[28.2505,71.062,0.0],[28.2646,71.0625,0.0],[28.2661,71.0641,4.7044],[28.2604,71.0667,3.7594],[28.2443,71.0693,0.0],[28.2464,71.0724,3.2666],[28.2505,71.0745,0.0],[28.2578,71.0755,0.0],[28.2562,71.0771,0.0],[28.2484,71.0776,5.4891],[28.2464,71.0797,0.0],[28.2474,71.0828,0.0],[28.2443,71.0849,2.9283],[28.2474,71.087,0.0],[28.2333,71.0875,3.641],[28.2292,71.0896,0.0],[28.2167,71.0896,1.946],[28.2125,71.0917,0.0],[28.2042,71.0896,10.0684],[28.2,71.0917,0.0],[28.1922,71.0922,8.512],[28.1875,71.0958,4.9307],[28.1792,71.0958,0.0],[28.1708,71.0917,15.7116],[28.1625,71.0938,0.0],[28.1536,71.088,12.9647],[28.1464,71.087,0.0],[28.1474,71.0839,12.0424],[28.1417,71.0833,17.2577],[28.1359,71.0807,42.4151],[28.1266,71.0734,159.6871],[28.1172,71.0724,3.6392],[28.112,71.0672,5.9388],[28.1026,71.062,0.0],[28.1057,71.0589,112.7905],[28.0964,71.0578,56.1916],[28.0943,71.0547,72.8152],[28.0974,71.0526,191.7302],[28.0833,71.0521,0.0],[28.0786,71.0484,2.5141],[28.0708,71.0479,0.0],[28.0667,71.0458,7.793],[28.0589,71.0484,0.0],[28.062,71.0516,0.0],[28.0589,71.0537,0.0],[28.0703,71.0609,0.0],[28.0609,71.0672,0.0],[28.063,71.0703,0.0],[28.0661,71.0714,0.0],[28.0589,71.0755,46.1018],[28.062,71.0787,0.0],[28.0589,71.0807,28.1915],[28.062,71.0828,0.0],[28.0563,71.0854,133.4623],[28.0479,71.0854,75.3092],[28.0411,71.0818,138.4068],[28.0339,71.0807,20.618],[28.0266,71.0755,181.0818],[28.0208,71.075,9.7515],[28.0151,71.0724,3.4238],[28.0182,71.0693,98.7446],[28.0089,71.0682,0.0],[28.0068,71.0661,3.4814],[28.0078,71.063,9.6572],[28.0063,71.0625,33.1206],[27.9958,71.0625,0.0],[27.9891,71.0589,9.0443],[27.9771,71.0563,0.0],[27.9703,71.0599,0.0],[27.963,71.0609,15.0269],[27.9651,71.0641,0.0],[27.9724,71.0651,0.0],[27.9708,71.0667,0.0],[27.9651,71.0672,46.4485],[27.9703,71.0724,53.6148],[27.9583,71.0729,8.776],[27.9484,71.0703,0.0],[27.9417,71.0667,17.1699],[27.9359,71.0661,0.0],[27.9391,71.063,63.084],[27.9359,71.0609,0.0],[27.9391,71.0589,10.3761],[27.9328,71.0547,118.5895],[27.9167,71.0521,2.1351],[27.912,71.0484,91.4121],[27.9026,71.0474,11.1336],[27.8995,71.0443,79.2992],[27.8901,71.0432,0.0],[27.8932,71.0401,15.6615],[27.8854,71.0354,35.2286],[27.8771,71.0354,0.0],[27.8714,71.038,0.0],[27.8693,71.0401,0.0],[27.8703,71.0432,0.0],[27.8672,71.0443,22.8565],[27.8703,71.0474,0.0],[27.8583,71.0521,0.0],[27.8547,71.0495,0.0],[27.8578,71.0463,6.1119],[27.8521,71.0437,7.4449],[27.8464,71.0432,17.6836],[27.8474,71.0401,0.0],[27.8464,71.038,0.0],[27.8495,71.0359,8.7497],[27.8438,71.0333,3.6275],[27.8354,71.0354,0.0],[27.8312,71.0333,13.4683],[27.825,71.0333,0.0],[27.8188,71.0313,0.0],[27.8068,71.038,19.9726],[27.812,71.0432,0.0],[27.8021,71.0437,38.876],[27.8005,71.0422,31.425],[27.8036,71.0401,29.3568],[27.8,71.0396,74.5276],[27.7901,71.0443,0.0],[27.7964,71.0495,13.1312],[27.8021,71.0521,8.4708],[27.8078,71.0526,42.5547],[27.8141,71.0568,0.0],[27.8089,71.0609,63.8278],[27.8099,71.0641,0.0],[27.8083,71.0646,0.0],[27.7896,71.0667,68.0213],[27.7786,71.0589,148.5559],[27.7693,71.0578,8.2838],[27.7641,71.0526,151.8519],[27.7438,71.0521,0.0],[27.7396,71.05,43.3708],[27.7312,71.05,54.6173],[27.7271,71.0521,0.0],[27.7193,71.0526,0.0],[27.7245,71.0578,0.0],[27.7146,71.0625,17.6228],[27.7083,71.0604,54.0334],[27.7047,71.0609,22.6471],[27.7026,71.0641,0.0],[27.7047,71.0661,0.0],[27.712,71.0672,0.0],[27.7109,71.0745,0.0],[27.7182,71.0797,0.0],[27.7151,71.0828,132.6382],[27.7245,71.0839,0.0],[27.7292,71.0875,0.0],[27.737,71.088,0.0],[27.7391,71.0911,0.0],[27.7297,71.0922,4.1841],[27.7328,71.0953,7.6882],[27.7297,71.0974,121.2958],[27.7359,71.1016,116.5479],[27.7432,71.1026,1.8776],[27.7474,71.1057,0.0],[27.7443,71.1068,0.0],[27.7453,71.1099,111.4683],[27.7438,71.1104,111.4683],[27.7375,71.1083,135.9006],[27.7292,71.1104,154.4123],[27.725,71.1083,265.6552],[27.7104,71.1083,270.602],[27.7021,71.1125,73.7012],[27.6943,71.113,197.0366],[27.6896,71.1167,68.4474],[27.6818,71.1172,204.0696],[27.6744,71.1224,6.2788],[27.6699,71.1109,302.6108],[27.6837,71.1103,295.3299],[27.675,71.088,251.2323],[27.6887,71.0874,226.0418],[27.687,71.0829,244.4459],[27.6733,71.0835,196.1308],[27.6698,71.0745,271.9861],[27.6561,71.0751,199.8227],[27.6544,71.0706,212.0518],[27.6407,71.0711,232.7475],[27.6287,71.0398,274.8423],[27.6423,71.0392,211.6374],[27.6389,71.0303,289.6021],[27.6526,71.0297,293.6315],[27.6491,71.0208,254.9654],[27.6628,71.0203,252.3525],[27.6559,71.0024,234.9983],[27.6695,71.0018,292.393],[27.6644,70.9884,264.3728],[27.678,70.9878,274.1154],[27.6728,70.9744,294.6227],[27.6864,70.9739,266.3904],[27.6641,70.9157,299.9433],[27.6777,70.9151,320.9761],[27.6708,70.8972,323.5166],[27.6844,70.8967,334.3244],[27.681,70.8878,287.2164],[27.6945,70.8872,263.5332],[27.6911,70.8783,256.4813],[27.7047,70.8777,266.7067],[27.7012,70.8688,259.9111],[27.7148,70.8682,257.7843],[27.7131,70.8638,306.895],[27.7266,70.8632,247.7171],[27.7214,70.8498,247.695],[27.735,70.8493,240.8495],[27.7298,70.8358,250.7778],[27.7433,70.8353,232.5007],[27.7347,70.8129,186.4981],[27.7482,70.8124,188.7802],[27.7465,70.8079,216.7281]]],
[[[28.2505,71.0078,0.0],[28.2521,71.0062,0.0],[28.2557,71.0068,4.9248],[28.2542,71.0083,10.0296],[28.2505,71.0078,0.0]]],
[[[28.0172,71.0784,0.0],[28.0187,71.0771,1.5861],[28.0224,71.0776,33.4595],[28.0208,71.0792,0.0],[28.0172,71.0784,0.0]]],
[[[27.6667,71.125,4.5978],[27.6616,71.1253,86.372],[27.6614,71.1248,86.372],[27.6703,71.1245,8.2387],[27.6667,71.125,4.5978]]]]}}