{"type": "Feature","bbox": [12.7964,67.825,13.187,68.0378],"geometry": {"type": "MultiPolygon","coordinates": [[[[12.9958,67.9417,305.4779],[12.9896,67.9437,38.2904],[12.9854,67.9396,31.2824],[12.9875,67.9375,166.4562],[13.0057,67.937,187.0],[13.0047,67.9339,187.0],[13.0078,67.9318,339.6431],[12.9938,67.9271,187.0],[12.9813,67.9271,187.0],[12.9797,67.9287,187.0],[12.9849,67.9297,187.0],[12.987,67.9328,187.0],[12.9708,67.9375,430.3423],[12.9542,67.9375,494.7032],[12.9458,67.9417,792.6579],[12.9271,67.9417,621.9766],[12.9193,67.9391,470.8451],[12.9146,67.9354,683.4534],[12.8979,67.9375,61.6673],[12.8938,67.9354,75.1374],[12.8839,67.9349,0.0],[12.8896,67.9313,0.0],[12.8974,67.9307,25.2093],[12.8964,67.9276,7.2177],[12.8995,67.9266,81.6869],[12.9005,67.9234,10.4989],[12.9125,67.9229,810.0652],[12.9141,67.9213,634.4319],[12.9089,67.9203,622.7103],[12.9057,67.9151,705.875],[12.8984,67.9141,497.6408],[12.8958,67.9104,715.3817],[12.8896,67.9125,376.2257],[12.8854,67.9104,526.5728],[12.8792,67.9125,195.072],[12.8714,67.912,28.1457],[12.8745,67.9089,139.7597],[12.8568,67.9057,0.0],[12.8547,67.9026,0.0],[12.8578,67.9005,79.702],[12.8479,67.9,36.1169],[12.8464,67.8984,0.0],[12.8557,67.8974,6.1922],[12.8667,67.8917,92.6423],[12.8729,67.8938,9.5],[12.8854,67.8938,9.5],[12.887,67.8932,9.5],[12.8859,67.8901,61.9281],[12.8938,67.8896,113.5658],[12.8995,67.8859,344.2294],[12.888,67.8849,343.1893],[12.8854,67.8812,477.7295],[12.8667,67.8833,410.3998],[12.8625,67.8812,362.5039],[12.8526,67.8807,55.1156],[12.8505,67.8755,0.0],[12.8661,67.8745,214.3988],[12.863,67.8693,22.6971],[12.8724,67.8682,257.4628],[12.8625,67.8625,451.9193],[12.8583,67.8646,100.5436],[12.8547,67.8641,93.7352],[12.8547,67.8609,52.9379],[12.862,67.8568,380.0419],[12.8417,67.8562,56.4818],[12.838,67.8536,11.1939],[12.8438,67.85,17.2242],[12.862,67.8495,382.0073],[12.8568,67.8474,315.9163],[12.8536,67.8422,531.5008],[12.8458,67.8396,576.7394],[12.8396,67.8417,514.6589],[12.8333,67.8396,310.3166],[12.8167,67.8396,191.2584],[12.8125,67.8417,136.5263],[12.8063,67.8417,29.821],[12.7964,67.838,0.0],[12.7995,67.837,0.0],[12.8021,67.8333,0.0],[12.8083,67.8354,1.5292],[12.8161,67.8349,0.0],[12.8141,67.8318,0.0],[12.8089,67.8307,7.2471],[12.8083,67.8292,12.4666],[12.8089,67.8276,0.0647],[12.8146,67.825,6.4524],[12.8333,67.8271,0.0],[12.8375,67.8292,17.8477],[12.8438,67.8292,52.1531],[12.8479,67.8271,27.1098],[12.8667,67.8271,0.0],[12.8745,67.8297,0.0],[12.8797,67.8391,0.0],[12.8911,67.8401,0.0],[12.888,67.8422,7.3057],[12.888,67.8453,0.0],[12.9016,67.8484,0.0],[12.9042,67.8542,3.2004],[12.9005,67.8568,4.1004],[12.9016,67.8599,0.0],[12.8984,67.862,0.0],[12.925,67.8625,0.0],[12.9312,67.8708,67.0746],[12.9396,67.8708,0.0],[12.9438,67.8729,0.0],[12.9583,67.8729,0.0],[12.9646,67.8792,87.3081],[12.9688,67.8771,0.0],[12.9813,67.8771,2.9685],[12.9896,67.8833,0.0],[13.0036,67.8839,0.0],[13.0005,67.8859,0.0],[13.0021,67.8875,0.0],[13.0146,67.8875,2.6592],[13.0161,67.887,0.0],[13.0151,67.8839,3.4114],[13.0167,67.8833,1.0409],[13.0292,67.8833,9.6635],[13.0391,67.8859,0.0],[13.0391,67.8891,0.0],[13.0359,67.8901,4.3269],[13.037,67.8953,0.0],[13.0297,67.8995,0.0],[13.0396,67.9,0.0],[13.0458,67.9021,17.8427],[13.0474,67.9016,31.0662],[13.0464,67.8984,3.6277],[13.05,67.8979,0.0],[13.0578,67.9005,0.0],[13.0578,67.9036,6.4987],[13.0547,67.9047,0.0],[13.0568,67.9078,0.0],[13.0724,67.9089,0.0],[13.0745,67.9109,0.0],[13.0714,67.913,17.997],[13.0729,67.9146,0.0],[13.0807,67.913,0.0],[13.0833,67.9167,0.9761],[13.0797,67.9193,65.7149],[13.0818,67.9245,12.8583],[13.0854,67.9271,2.9694],[13.0932,67.9255,2.4956],[13.0958,67.9292,0.0],[13.0922,67.9318,9.2531],[13.0932,67.9349,0.5132],[13.0917,67.9354,5.2202],[13.088,67.9349,3.5721],[13.0854,67.9313,0.0],[13.0813,67.9313,0.0],[13.0771,67.9292,195.2992],[13.0688,67.9292,258.1094],[13.0646,67.9271,525.6374],[13.0583,67.9271,565.8566],[13.0484,67.9318,574.6107],[13.0521,67.9354,224.9646],[13.0583,67.9354,90.9869],[13.0625,67.9333,65.7618],[13.075,67.9333,10.5501],[13.0786,67.938,0.0],[13.0771,67.9396,0.0],[13.0458,67.9375,533.5152],[13.0417,67.9354,658.5441],[13.0375,67.9375,556.505],[13.0208,67.9375,563.5999],[13.0167,67.9417,440.6829],[12.9958,67.9417,305.4779]]],
[[[12.8526,67.8891,131.1659],[12.8542,67.8875,0.0],[12.862,67.888,213.6432],[12.8604,67.8896,132.4643],[12.8526,67.8891,131.1659]]],
[[[12.9172,67.9745,0.2035],[12.9172,67.9734,7.0841],[12.9203,67.9734,79.1964],[12.9203,67.9745,60.5798],[12.9172,67.9745,0.2035]]],
[[[13.1109,67.9359,0.5126],[13.1161,67.9359,0.0],[13.1182,67.938,9.092],[13.1182,67.9411,4.1473],[13.1089,67.9411,12.5111],[13.1068,67.938,0.0],[13.1109,67.9359,0.5126]]],
[[[13.0859,67.938,0.0],[13.0938,67.9375,0.0],[13.1016,67.9401,0.0],[13.1036,67.9432,0.0],[13.0896,67.9437,20.9987],[13.0818,67.9411,10.5148],[13.0859,67.938,0.0]]],
[[[13.015,68.031,472.4013],[13.0031,68.0305,235.5942],[13.0009,68.0378,515.6107],[12.9938,68.0354,339.7523],[12.9839,68.0349,0.0],[12.987,68.0318,0.0],[12.9828,68.0234,84.3316],[12.9813,68.0229,223.338],[12.9729,68.0229,359.6563],[12.9714,68.0234,438.1631],[12.9724,68.0266,60.295],[12.9667,68.0292,52.2537],[12.9631,68.0287,229.4593],[12.9609,68.0234,0.0],[12.9766,68.0162,376.4519],[12.9766,68.013,467.5142],[12.9667,68.0125,340.5731],[12.962,68.0089,139.47],[12.9521,68.0083,10.1947],[12.9505,68.0068,0.0],[12.9557,68.0057,20.6876],[12.9766,67.9953,440.6927],[12.9771,67.9938,511.4434],[12.975,67.9917,706.0115],[12.9688,67.9938,465.3715],[12.9609,67.9932,232.0704],[12.9568,67.988,0.0],[12.962,67.987,0.0],[12.9661,67.9838,8.1735],[12.9641,67.9818,0.0],[12.9526,67.9776,19.8394],[12.9641,67.9724,134.0405],[12.963,67.9693,223.7907],[12.9708,67.9688,197.3231],[12.9724,67.9672,231.5978],[12.9458,67.9646,676.9747],[12.9443,67.9661,618.4504],[12.95,67.9667,416.7421],[12.9578,67.9703,222.4853],[12.9521,67.9729,371.702],[12.9458,67.9708,601.4608],[12.9396,67.9708,780.123],[12.9354,67.9729,789.1565],[12.9271,67.9729,458.6856],[12.9224,67.9672,474.2528],[12.9193,67.9672,392.5911],[12.9167,67.9708,94.1571],[12.9104,67.9708,0.0],[12.9089,67.9693,9.0711],[12.912,67.9672,125.9424],[12.9068,67.9661,0.0],[12.9099,67.9641,12.8412],[12.9089,67.9609,0.0],[12.9146,67.9583,3.2138],[12.9229,67.9604,58.1444],[12.9271,67.9583,23.1162],[12.9333,67.9604,128.9239],[12.9479,67.9563,88.5548],[12.9646,67.9563,163.3699],[12.9703,67.9537,463.3887],[12.9682,67.9505,599.7662],[12.9479,67.95,658.0102],[12.9438,67.9479,693.4708],[12.9312,67.9479,772.9769],[12.9271,67.95,636.5134],[12.9104,67.95,84.4716],[12.9068,67.9464,0.0],[12.9521,67.9458,358.2301],[12.9536,67.9443,396.6759],[12.9484,67.9422,483.3358],[12.9729,67.9396,273.7089],[12.9797,67.9474,21.7834],[12.9891,67.9484,0.0],[12.9943,67.9537,0.0],[13.0083,67.9583,0.0],[13.0286,67.9589,0.0],[13.0271,67.9604,0.0],[13.0193,67.9609,102.9398],[13.0224,67.9661,43.5004],[13.0193,67.9672,70.6014],[13.0182,67.9703,96.7033],[13.0099,67.9745,215.4834],[12.9901,67.9776,422.669],[12.9938,67.9812,151.517],[13.0078,67.9818,1.3282],[13.0146,67.9896,0.0],[13.0266,67.9849,27.9214],[13.0255,67.9818,0.0],[13.0349,67.9786,0.0],[13.0339,67.9755,0.0],[13.0411,67.9724,0.0],[13.0401,67.9672,0.0],[13.0432,67.9661,0.0],[13.0443,67.963,0.0],[13.0516,67.9599,25.1968],[13.0505,67.9568,0.0],[13.0708,67.95,0.0],[13.0792,67.9521,119.4035],[13.0833,67.95,0.0],[13.0932,67.9526,0.0],[13.0953,67.9578,0.0],[13.0917,67.9604,26.357],[13.0943,67.9661,6.5629],[13.1083,67.9667,0.0],[13.1109,67.963,0.0],[13.1141,67.962,0.0],[13.1125,67.9583,0.0],[13.1161,67.9557,0.0],[13.1151,67.9526,0.0],[13.1292,67.9521,22.1375],[13.1375,67.9479,0.0],[13.1422,67.9516,0.8702],[13.1474,67.9526,0.0],[13.1505,67.9578,0.0],[13.1703,67.963,0.0],[13.1734,67.9682,17.6544],[13.187,67.9734,0.0],[13.1839,67.9755,63.8027],[13.1849,67.9786,28.5047],[13.1821,67.9796,45.0566],[13.1654,67.9696,103.9238],[13.1538,67.9687,234.4155],[13.1525,67.9731,385.0432],[13.1287,67.9722,667.006],[13.1274,67.9767,676.9624],[13.1036,67.9757,110.9771],[13.1023,67.9802,200.5698],[13.0666,67.9787,601.2733],[13.0653,67.9832,398.7991],[13.0534,67.9827,335.525],[13.0441,68.014,321.8317],[13.0322,68.0136,401.3148],[13.0296,68.0225,233.356],[13.0176,68.022,603.3662],[13.015,68.031,472.4013]]]]}
,"properties": {"GID_2": "NOR.10.24_1","GID_0": "NOR","country": "Norway","GID_1": "NOR.10_1","province": "Nordland","NL_NAME_1": "NA","county": "Moskenes","VARNAME_2": "NA","NL_NAME_2": "NA","TYPE_2": "Kommuner","ENGTYPE_2": "Municipality","CC_2": "NA","HASC_2": "NO.NO.MO","name": "Moskenes.county","area_km2": 104.14649,"hist_schema_id": "Elevation0-9000","hist_area_km2": {"0": 13.33654,"25": 6.92348,"50": 4.22241,"75": 3.76748,"100": 4.66132,"125": 3.59311,"150": 3.31414,"175": 4.01469,"200": 4.23818,"225": 5.36891,"250": 3.42576,"275": 3.49738,"300": 3.85604,"325": 3.75201,"350": 3.505,"375": 3.33017,"400": 3.38534,"425": 3.54499,"450": 3.22613,"475": 2.63659,"500": 2.54935,"525": 2.37382,"550": 1.92034,"575": 1.78431,"600": 1.60125,"625": 1.58487,"650": 1.17114,"675": 0.97996,"700": 0.84473,"725": 0.60583,"750": 0.36652,"775": 0.27892,"800": 0.16723,"825": 0.07164,"850": 0.11153,"875": 0.04779,"900": 0.03186,"925": 0.03186,"950": 0.01592,"975": 0.00796}}}