{"type": "Feature","bbox": [8.889,61.34,10.0414,61.8765],"geometry": {"type": "MultiPolygon","coordinates": [[[[9.0844,61.3917,1431.3829],[9.086,61.3872,1348.6255],[9.0953,61.388,1315.9103],[9.0968,61.3836,1197.4316],[9.1061,61.3843,1181.4375],[9.1076,61.3799,1108.1719],[9.1169,61.3806,1100.7479],[9.1184,61.3762,1042.002],[9.1277,61.3769,1044.4711],[9.1292,61.3725,1022.576],[9.1385,61.3732,1024.7795],[9.1416,61.3644,1017.1077],[9.1323,61.3637,1016.7643],[9.1354,61.3548,1022.2703],[9.1447,61.3555,1017.2598],[9.1462,61.3511,1024.4506],[9.1555,61.3519,1017.1368],[9.157,61.3474,1018.933],[9.1663,61.3482,1017.3083],[9.1678,61.3437,1018.4178],[9.1771,61.3445,1017.3647],[9.1786,61.34,1018.4641],[9.1879,61.3408,1017.0627],[9.1832,61.3541,1018.0451],[9.1925,61.3548,1016.6205],[9.191,61.3592,1016.4554],[9.2187,61.3614,1016.5236],[9.2203,61.357,1016.5836],[9.2295,61.3577,1016.1953],[9.231,61.3533,1015.971],[9.2495,61.3548,1021.2464],[9.2511,61.3503,1016.0397],[9.2973,61.354,982.3851],[9.2989,61.3495,986.2833],[9.3174,61.351,982.5489],[9.3189,61.3466,983.3252],[9.3281,61.3473,983.9948],[9.3265999999999991,61.3517,982.6611],[9.3359,61.3524,980.939],[9.3344,61.3569,979.1139],[9.3436,61.3576,978.9253],[9.3406,61.3664,971.2683],[9.3498,61.3672,970.1407],[9.3468,61.376,961.1275],[9.3561,61.3767,962.1478],[9.3545,61.3812,950.0093],[9.3916,61.3841,1022.1048],[9.3855,61.4018,1194.085],[9.3763,61.4011,1143.2745],[9.3702,61.4188,1132.3937],[9.3609,61.418,1071.8804],[9.3533,61.4402,1065.0278],[9.3626,61.4409,984.4066],[9.3595,61.4498,891.2374],[9.4153,61.4541,883.2152],[9.4122,61.4629,783.0586],[9.4215,61.4637,747.6136],[9.42,61.4681,722.4688],[9.4014,61.4667,710.3527],[9.3999,61.4711,667.0],[9.3813,61.4696,682.4439],[9.3783,61.4785,667.0],[9.3969,61.4799,780.6238],[9.3954,61.4844,782.5077],[9.4232,61.4865,859.7781],[9.4217,61.491,893.0729],[9.4589,61.4938,949.574],[9.4604,61.4894,956.2556],[9.479,61.4908,1006.0291],[9.4805,61.4864,1048.9464],[9.4898,61.4871,1034.1833],[9.4913,61.4827,1055.2819],[9.5006,61.4834,1117.3894],[9.5021,61.479,1246.3934],[9.5114,61.4797,1207.6625],[9.5129,61.4752,1172.2202],[9.5315,61.4767,1354.6676],[9.533,61.4722,1386.8157],[9.5516,61.4737,1380.0515],[9.5531,61.4692,1495.182],[9.5717,61.4706,1245.8409],[9.5732,61.4662,1357.1168],[9.6847,61.4747,823.714],[9.6818,61.4835,825.2746],[9.6911,61.4842,885.975],[9.6896,61.4887,893.7513],[9.6989,61.4894,922.7278],[9.6974,61.4938,952.9192],[9.7067,61.4945,969.7224],[9.7052,61.4989,968.5923],[9.7145,61.4996,996.5132],[9.7131,61.5041,944.4474],[9.7224,61.5048,945.6064],[9.7209,61.5092,917.954],[9.7302,61.5099,885.1149],[9.7287,61.5143,863.0297],[9.738,61.515,824.132],[9.7366,61.5195,795.1716],[9.7459,61.5201,777.588],[9.7444,61.5246,778.6379],[9.7537,61.5253,794.2632],[9.7523,61.5297,830.5965],[9.7616,61.5304,834.9893],[9.7586,61.5393,849.512],[9.768,61.54,804.6528],[9.7665,61.5444,826.8867],[9.7758,61.5451,767.7867],[9.7729,61.554,636.7369],[9.7822,61.5547,674.4789],[9.7807,61.5591,565.2466],[9.79,61.5598,647.3015],[9.7886,61.5642,479.5139],[9.7979,61.5649,508.5425],[9.795,61.5738,294.5168],[9.8043,61.5745,291.4937],[9.8028,61.5789,220.5],[9.8122,61.5796,222.8154],[9.8107,61.584,220.5],[9.82,61.5847,220.5],[9.8186,61.5892,531.9438],[9.8372,61.5905,589.4689],[9.8358,61.595,788.8829],[9.8451,61.5957,859.5532],[9.8436,61.6001,880.0287],[9.853,61.6008,924.5898],[9.8515,61.6052,884.3336],[9.8609,61.6059,906.647],[9.8594,61.6103,905.5051],[9.8687,61.611,888.2871],[9.8673,61.6155,993.2203],[9.8766,61.6161,939.8559],[9.8752,61.6206,1013.5983],[9.8845,61.6213,973.1432],[9.8816,61.6301,1026.801],[9.8909,61.6308,1065.5646],[9.8866,61.6441,1057.3107],[9.8959,61.6448,1032.9849],[9.893,61.6537,1013.9924],[9.9024,61.6544,1095.8488],[9.898,61.6677,1161.9873],[9.9074,61.6684,1078.239],[9.903,61.6817,917.6547],[9.9123,61.6824,861.7181],[9.908,61.6957,861.6133],[9.9173,61.6963,799.6553],[9.9115,61.7141,778.8328],[9.9209,61.7148,734.9695],[9.9165,61.7281,743.9902],[9.9259,61.7288,791.538],[9.9215,61.7421,929.7758],[9.9309,61.7427,935.683],[9.9251,61.7605,1077.9844],[9.9344,61.7612,1096.327],[9.9315,61.77,1143.3356],[9.9409,61.7707,1128.7396],[9.938,61.7796,1101.988],[9.9474,61.7803,1103.6814],[9.9459,61.7847,1169.7449],[9.9553,61.7854,1125.9746],[9.9539,61.7898,1131.968],[9.9633,61.7905,1130.3091],[9.9618,61.7949,1156.0481],[9.9712,61.7956,1223.7594],[9.9698,61.8001,1230.0511],[9.9792,61.8007,1217.0356],[9.9777,61.8052,1227.6868],[9.9871,61.8059,1111.2003],[9.9857,61.8103,1120.7014],[9.9951,61.811,1075.3257],[9.9936,61.8154,1108.5686],[10.003,61.8161,1078.8379],[10.0016,61.8205,1163.1642],[10.011,61.8212,1103.541],[10.0095,61.8256,1196.4508],[10.0189,61.8263,1077.1725],[10.0175,61.8308,1089.8248],[10.0269,61.8314,1262.5929],[10.024,61.8403,1275.6162],[10.0334,61.841,1420.6477],[10.032,61.8454,1416.6471],[10.0414,61.8461,1570.2998],[10.0327,61.8727,1212.025],[10.0233,61.872,1150.33],[10.0218,61.8765,1017.3854],[10.0124,61.8758,957.5433],[10.0138,61.8714,1041.0894],[10.0044,61.8707,1004.9191],[10.0059,61.8662,1103.5619],[9.9964,61.8656,1024.9125],[9.9979,61.8611,1109.1246],[9.9885,61.8605,1103.3251],[9.9899,61.856,1141.2511],[9.9711,61.8547,1211.6167],[9.9726,61.8502,1266.1318],[9.9537,61.8489,1221.8125],[9.9552,61.8444,1337.567],[9.9458,61.8437,1239.7159],[9.9472,61.8393,1378.6464],[9.9096,61.8366,1059.7994],[9.911,61.8321,1095.2174],[9.817,61.8252,1220.5851],[9.8155,61.8297,1189.113],[9.7497,61.8248,1072.9026],[9.7511,61.8204,1016.5884],[9.7417,61.8197,1059.8492],[9.7432,61.8152,1018.0015],[9.7338,61.8145,1012.8307],[9.7353,61.8101,1008.3953],[9.7259,61.8094,1077.2621],[9.7274,61.805,1007.39],[9.718,61.8043,989.1285],[9.7195,61.7999,939.8701],[9.7101,61.7992,895.1429],[9.7131,61.7903,902.3245],[9.7037,61.7896,934.8099],[9.7052,61.7852,858.955],[9.6958,61.7845,886.0245],[9.6973,61.78,860.3332],[9.6879,61.7793,891.475],[9.6939,61.7616,847.9673],[9.6845,61.7609,852.056],[9.686,61.7565,824.9371],[9.6766,61.7558,795.4023],[9.6781,61.7513,744.5878],[9.6687,61.7506,753.5048],[9.6702,61.7462,729.0662],[9.6609,61.7455,788.2294],[9.6623,61.7411,704.6573],[9.653,61.7404,711.2336],[9.6545,61.7359,796.8185],[9.6451,61.7352,885.1548],[9.6466,61.7308,825.9638],[9.6372,61.7301,1056.4504],[9.6387,61.7257,1008.5266],[9.62,61.7242,1014.5146],[9.6215,61.7198,993.3901],[9.6121,61.7191,1000.5334],[9.6136,61.7147,1059.9976],[9.6042,61.714,959.7452],[9.6057,61.7095,967.6409],[9.5964,61.7088,917.9568],[9.5979,61.7044,967.2791],[9.5885,61.7037,919.4266],[9.5915,61.6948,913.8341],[9.6009,61.6955,1002.566],[9.6024,61.6911,905.5267],[9.593,61.6904,802.3825],[9.5945,61.686,797.5041],[9.5758,61.6846,771.1968],[9.5773,61.6801,606.812],[9.568,61.6794,420.0411],[9.5695,61.675,382.8936],[9.5601,61.6743,337.9117],[9.5616,61.6698,298.9137],[9.5523,61.6691,279.7597],[9.5538,61.6647,270.2845],[9.5164,61.6619,850.8474],[9.5179,61.6574,939.7969],[9.4898,61.6553,1107.6205],[9.4914,61.6509,1138.6957],[9.4633,61.6487,1375.3374],[9.4648,61.6443,1337.9733],[9.4462,61.6429,1509.537],[9.4446,61.6473,1383.7682],[9.4073,61.6444,1295.9197],[9.4057,61.6488,1303.4248],[9.3964,61.6481,1344.5725],[9.3979,61.6437,1264.9319],[9.3792,61.6423,1175.2124],[9.3808,61.6378,1176.6697],[9.3714,61.6371,1136.4863],[9.373,61.6327,1129.4703],[9.3636,61.632,1171.8363],[9.3652,61.6275,1179.9108],[9.3558,61.6268,1321.4486],[9.3574,61.6224,1301.6244],[9.348,61.6217,1546.0554],[9.3496,61.6172,1215.7736],[9.3402,61.6165,1123.4087],[9.3418,61.6121,1014.551],[9.3324,61.6113,1041.2913],[9.334,61.6069,971.2892],[9.3246,61.6062,952.7802],[9.3262,61.6018,948.4525],[9.3168,61.601,943.7218],[9.3184,61.5966,952.8652],[9.3091,61.5959,925.6049],[9.3106,61.5915,917.5706],[9.2919,61.59,869.3439],[9.2935,61.5856,869.2678],[9.2842,61.5849,886.7666],[9.2857,61.5804,886.0717],[9.2764,61.5797,896.3486],[9.2779,61.5753,853.7867],[9.25,61.5731,781.7084],[9.2515,61.5687,774.9871],[9.2329,61.5672,804.3844],[9.2344,61.5628,807.859],[9.2065,61.5606,935.4562],[9.208,61.5561,934.1846],[9.1894,61.5547,1000.3427],[9.191,61.5503,974.1344],[9.1724,61.5488,956.5721],[9.1739,61.5444,913.6583],[9.1646,61.5436,918.6653],[9.1677,61.5348,924.3828],[9.1584,61.534,939.9634],[9.16,61.5296,923.3658],[9.1414,61.5281,958.6968],[9.1429,61.5237,946.7413],[9.1336,61.523,955.4651],[9.1352,61.5185,997.8678],[9.1166,61.5171,1066.0614],[9.1181,61.5126,1100.9036],[9.1088,61.5119,1201.6875],[9.1104,61.5075,1282.6561],[9.0918,61.506,1458.2949],[9.0902,61.5104,1412.1576],[9.0717,61.5089,1488.1592],[9.0701,61.5134,1398.5161],[9.0608,61.5126,1520.7321],[9.0592,61.5171,1366.8694],[9.0499,61.5163,1550.1689],[9.0484,61.5207,1307.0669],[9.0391,61.52,1532.1488],[9.0375,61.5244,1224.8667],[9.0003,61.5214,1661.0365],[8.9987,61.5259,1534.053],[8.9708,61.5236,1467.0125],[8.9724,61.5192,1582.2234],[8.9445,61.5169,1620.6785],[8.9461,61.5125,1668.066],[8.9368,61.5118,1541.6116],[8.9384,61.5073,1530.9716],[8.9198,61.5058,1328.8312],[8.9214,61.5014,1227.8953],[8.9121,61.5007,1185.2366],[8.9137,61.4962,1143.1931],[8.9044,61.4955,1141.943],[8.906,61.4911,1173.2239],[8.8967,61.4903,1217.3041],[8.8983,61.4859,1370.36],[8.889,61.4851,1242.1655],[8.9002,61.4542,1822.2588],[8.9094,61.4549,1795.0498],[8.9078,61.4594,1746.9962],[8.9171,61.4601,1746.717],[8.9155,61.4645,1806.2821],[8.9341,61.466,1683.2543],[8.9325,61.4705,1757.5453],[8.9418,61.4712,1728.3463],[8.9402,61.4756,1672.538],[8.9495,61.4764,1454.1213],[8.9511,61.472,1608.9545],[8.9604,61.4727,1566.8151],[8.9635,61.4639,1459.5681],[8.9728,61.4646,1462.13],[8.9744,61.4602,1405.5016],[8.9836,61.4609,1442.109],[8.9852,61.4565,1372.9806],[9.0316,61.4602,1564.9618],[9.0332,61.4558,1483.1033],[9.0703,61.4588,1467.778],[9.0687,61.4632,1537.7854],[9.0966,61.4654,1275.0769],[9.095,61.4699,1379.3751],[9.1136,61.4713,1182.4772],[9.112,61.4758,1253.8691],[9.1306,61.4772,1048.7546],[9.1322,61.4728,1071.8523],[9.1414,61.4736,1036.3986],[9.1446,61.4647,1041.9845],[9.1538,61.4654,1073.6533],[9.1569,61.4566,1220.579],[9.1477,61.4559,1223.2953],[9.1539,61.4381,1301.4554],[9.1446,61.4374,1410.3011],[9.1477,61.4286,1174.818],[9.1384,61.4278,1164.885],[9.14,61.4234,1177.4495],[9.1307,61.4227,1125.1942],[9.1323,61.4182,1124.5905],[9.123,61.4175,1130.4198],[9.1245,61.4131,1145.9749],[9.1153,61.4123,1194.2174],[9.1168,61.4079,1232.5204],[9.0983,61.4064,1417.8833],[9.0999,61.402,1526.8563],[9.0906,61.4013,1551.3077],[9.0921,61.3968,1490.2797],[9.0829,61.3961,1516.1505],[9.0844,61.3917,1431.3829]]]]}
,"properties": {"GID_2": "NOR.11.12_1","GID_0": "NOR","country": "Norway","GID_1": "NOR.11_1","province": "Oppland","NL_NAME_1": "NA","county": "Nord-Fron","VARNAME_2": "NA","NL_NAME_2": "NA","TYPE_2": "Kommuner","ENGTYPE_2": "Municipality","CC_2": "NA","HASC_2": "NO.OP.NF","name": "Nord-Fron.county","area_km2": 1132.1203,"hist_schema_id": "Elevation0-9000","hist_area_km2": {"225": 2.8553,"250": 12.9254,"275": 8.1316,"300": 5.7643,"325": 4.9979,"350": 4.766,"375": 4.3843,"400": 4.213,"425": 4.1531,"450": 4.6775,"475": 5.2632,"500": 5.3137,"525": 5.4954,"550": 5.7679,"575": 6.7571,"600": 8.0077,"625": 7.8963,"650": 8.2488,"675": 15.2495,"700": 15.7991,"725": 18.9937,"750": 22.9963,"775": 31.2214,"800": 34.0916,"825": 43.6782,"850": 56.9924,"875": 65.3961,"900": 58.0863,"925": 56.0578,"950": 53.2493,"975": 51.1912,"1000": 69.7641,"1025": 61.5042,"1050": 43.1002,"1075": 34.1243,"1100": 30.1058,"1125": 27.3805,"1150": 25.8053,"1175": 24.2587,"1200": 24.0486,"1225": 24.1174,"1250": 19.4665,"1275": 16.2784,"1300": 14.8854,"1325": 14.8474,"1350": 14.3785,"1375": 10.2458,"1400": 7.6098,"1425": 6.5155,"1450": 5.6804,"1475": 4.7436,"1500": 4.582,"1525": 4.0392,"1550": 2.7671,"1575": 2.2523,"1600": 1.586,"1625": 1.3032,"1650": 0.819,"1675": 0.6375,"1700": 0.5364,"1725": 0.5667,"1750": 0.5365,"1775": 0.3848,"1800": 0.4051,"1825": 0.2229}}}