{"type":"Feature","properties":{"GID_2":"NOR.14.20_1","GID_0":"NOR","country":"Norway","GID_1":"NOR.14_1","province":"SognogFjordane","NL_NAME_1":"NA","county":"Naustdal","VARNAME_2":"NA","NL_NAME_2":"NA","TYPE_2":"Kommuner","ENGTYPE_2":"Municipality","CC_2":"NA","HASC_2":"NO.SF.NA","name":"Naustdal.county"},
"geometry":{"type": "MultiPolygon","coordinates": [[[[5.5152,61.4495,26.9736],[5.5167,61.4479,0.0],[5.5254,61.4483,37.2301],[5.5266,61.4458,0.0],[5.5307,61.4464,0.0],[5.525,61.45,0.0],[5.5152,61.4495,26.9736]]],
[[[5.5624,61.4476,129.3512],[5.5642,61.4478,145.4859],[5.5634,61.4496,185.9437],[5.563,61.4495,172.5788],[5.5624,61.4476,129.3512]]],
[[[5.4907,61.4584,116.4237],[5.4927,61.4562,0.0],[5.5271,61.4562,58.4667],[5.5313,61.4542,0.0],[5.537,61.4568,0.0],[5.538,61.4599,4.2863],[5.5438,61.4625,0.0],[5.5625,61.4625,23.1698],[5.5667,61.4604,0.0],[5.5792,61.4646,23.5792],[5.5938,61.4646,0.0],[5.5979,61.4667,35.6973],[5.6021,61.4646,0.0],[5.6349,61.4734,0.0],[5.637,61.4766,0.0],[5.6339,61.4776,0.0],[5.6333,61.4813,0.0],[5.638,61.4849,0.0],[5.65,61.4854,0.0],[5.6542,61.4875,8.3874],[5.6583,61.4875,0.0],[5.6859,61.4995,0.0],[5.6932,61.5005,0.0],[5.7,61.5042,0.0],[5.7104,61.5042,0.0],[5.7146,61.5062,0.0],[5.7188,61.5062,0.0],[5.7271,61.5021,0.0],[5.7521,61.5042,0.0],[5.7563,61.5021,0.0],[5.7667,61.5021,68.064],[5.7714,61.4984,0.0],[5.7779,61.4979,0.0],[5.7819,61.4983,0.0],[5.7799,61.5027,277.0678],[5.8167,61.5066,716.8358],[5.8187,61.5022,539.3704],[5.9201,61.5127,915.5638],[5.9181,61.5171,847.5],[5.9273,61.518,871.138],[5.9253,61.5224,766.0558],[5.9345,61.5234,607.7551],[5.9305,61.5321,962.2116],[5.9397,61.5331,786.605],[5.9377,61.5375,826.6074],[5.9654,61.5403,776.1589],[5.9674,61.5359,771.4288],[5.995,61.5388,739.9296],[5.993,61.5432,772.49],[6.0115,61.5451,693.1985],[6.0095,61.5495,792.9384],[6.0187,61.5504,833.8674],[6.0167,61.5548,1086.8799],[6.0259,61.5557,1103.1234],[6.0239,61.5601,1228.0643],[6.0424,61.562,1024.9819],[6.0404,61.5664,981.2344],[6.0589,61.5683,716.1562],[6.0569,61.5727,1008.999],[6.0754,61.5745,1138.5526],[6.0734,61.5789,1165.3667],[6.0826,61.5799,1040.519],[6.0846,61.5755,1174.0496],[6.1216,61.5793,1032.4412],[6.1236,61.5749,1007.7094],[6.1882,61.5814,1174.0122],[6.1863,61.5858,1143.3666],[6.2048,61.5877,954.9608],[6.2028,61.5921,1032.3342],[6.212,61.593,1080.8568],[6.2101,61.5974,1322.9335],[6.2656,61.603,1112.3571],[6.2636,61.6074,1154.4413],[6.2728,61.6083,1180.4188],[6.2709,61.6127,1238.3885],[6.2801,61.6136,1033.9113],[6.2762,61.6224,900.2745],[6.2854,61.6233,794.5658],[6.2756,61.6453,1430.8311],[6.2848,61.6462,1320.9971],[6.2809,61.655,1237.0981],[6.2716,61.654,1267.6979],[6.2736,61.6496,1452.2982],[6.218,61.644,1329.1575],[6.22,61.6397,1350.0011],[6.2107,61.6387,1263.1328],[6.2048,61.6519,1327.9608],[6.0936,61.6406,907.5952],[6.0956,61.6362,941.7115],[6.0679,61.6334,839.0945],[6.0659,61.6378,726.1282],[6.0381,61.635,905.8677],[6.0361,61.6393,978.1042],[6.0176,61.6374,907.2834],[6.0156,61.6418,730.1746],[5.9693,61.6371,886.9584],[5.9713,61.6327,740.9353],[5.888,61.6241,645.8339],[5.8901,61.6197,620.4203],[5.8716,61.6178,739.9767],[5.8736,61.6135,802.2139],[5.8551,61.6115,816.0776],[5.8531,61.6159,779.2478],[5.8346,61.614,596.2099],[5.8326,61.6184,794.0931],[5.7956,61.6145,910.688],[5.7976,61.6102,998.0413],[5.7791,61.6082,1064.5143],[5.7812,61.6039,921.4209],[5.7719,61.6029,872.7252],[5.774,61.5985,862.0234],[5.7555,61.5966,702.8185],[5.7576,61.5922,763.1714],[5.7114,61.5874,846.6389],[5.7237,61.5611,588.0151],[5.6499,61.5534,556.2062],[5.654,61.5446,376.0201],[5.6171,61.5407,356.9239],[5.6192,61.5363,357.3846],[5.61,61.5354,458.0462],[5.6141,61.5266,545.6221],[5.6049,61.5256,563.8228],[5.6069,61.5213,671.9915],[5.5793,61.5183,648.0925],[5.5814,61.514,737.6277],[5.5261,61.5081,539.2987],[5.5241,61.5125,430.5074],[5.4596,61.5056,479.3695],[5.4576,61.51,418.922],[5.4484,61.509,435.0936],[5.4463,61.5134,326.1956],[5.4003,61.5084,600.6238],[5.3982,61.5128,661.9404],[5.343,61.5069,489.6055],[5.3409,61.5112,491.5222],[5.2949,61.5063,220.6624],[5.2928,61.5106,157.9709],[5.2836,61.5096,150.442],[5.2878,61.5009,31.6156],[5.2786,61.4999,28.2465],[5.2806,61.4958,0.0],[5.2938,61.4979,7.3336],[5.3146,61.4917,0.0],[5.3271,61.4917,34.3233],[5.3313,61.4896,0.0],[5.3514,61.4894,31.2029],[5.3523,61.4875,0.0],[5.3792,61.4875,0.0],[5.3833,61.4896,19.9499],[5.3917,61.4896,1.9861],[5.3958,61.4875,0.0],[5.4,61.4896,0.0],[5.4271,61.4896,0.0],[5.4313,61.4875,0.0],[5.4625,61.4875,0.0],[5.4682,61.4901,0.0],[5.4708,61.4938,42.5366],[5.4854,61.4938,12.9838],[5.4875,61.4917,0.0],[5.4859,61.488,0.0],[5.4917,61.4875,0.0],[5.4932,61.4859,0.0],[5.4875,61.4833,37.505],[5.475,61.4833,93.7528],[5.4714,61.4807,76.405],[5.4828,61.4724,86.422],[5.4797,61.4703,110.3531],[5.4786,61.4672,111.6684],[5.4708,61.4646,119.9578],[5.4568,61.4708,125.2816],[5.4608,61.4625,0.0],[5.4667,61.4625,0.0],[5.4687,61.4606,19.2054],[5.4804,61.4619,136.4814],[5.4825,61.4575,145.6656],[5.4907,61.4584,116.4237]]]]}}