{"type":"Feature","properties":{"GID_2":"NOR.4.6_1","GID_0":"NOR","country":"Norway","GID_1":"NOR.4_1","province":"Buskerud","NL_NAME_1":"NA","county":"Hemsedal","VARNAME_2":"NA","NL_NAME_2":"NA","TYPE_2":"Kommuner","ENGTYPE_2":"Municipality","CC_2":"NA","HASC_2":"NO.BU.HD","name":"Hemsedal.county"},
"geometry":{"type": "MultiPolygon","coordinates": [[[[8.7136,60.7605,1013.9482],[8.712,60.7649,1018.9917],[8.7211,60.7656,1032.6396],[8.7179,60.7745,855.0089],[8.727,60.7753,787.5381],[8.7254,60.7797,688.7308],[8.7345,60.7804,603.4087],[8.733,60.7849,574.8462],[8.742,60.7856,563.0],[8.7405,60.79,609.9482],[8.7495,60.7908,609.515],[8.748,60.7952,651.6022],[8.7571,60.796,710.5138],[8.7555,60.8004,743.9426],[8.7646,60.8012,757.2894],[8.763,60.8056,774.7677],[8.7721,60.806399999999996,799.4543],[8.769,60.8152,829.8071],[8.7781,60.816,837.0286],[8.7765,60.8204,848.3812],[8.7856,60.8211,872.1361],[8.7824,60.83,911.5286],[8.7915,60.8307,950.6868],[8.79,60.8352,973.2949],[8.7991,60.8359,1010.2618],[8.7959,60.8448,999.2521],[8.805,60.8455,1040.8961],[8.8035,60.8499,995.5961],[8.8217,60.8515,974.8547],[8.8154,60.8691,827.3643],[8.8427,60.8714,825.6333],[8.8443,60.867,863.1636],[8.8807,60.87,817.0],[8.8823,60.8656,817.0],[8.9005,60.8671,817.0],[8.8943,60.8848,836.6142],[8.8851,60.884,858.6213],[8.8805,60.8973,862.1475],[8.8623,60.8958,906.016],[8.8607,60.9002,891.4308],[8.8242,60.8972,1037.7742],[8.8227,60.9016,1009.6248],[8.7953,60.8993,1101.6912],[8.7938,60.9038,1075.4802],[8.7847,60.903,1100.0692],[8.7831,60.9074,1067.3043],[8.774,60.9067,1070.7769],[8.7724,60.9111,1054.3416],[8.7633,60.9103,1067.3074],[8.7617,60.9147,1051.9813],[8.7526,60.914,1088.5869],[8.751,60.9184,1096.88],[8.7328,60.9169,1129.0378],[8.7312,60.9213,1102.014],[8.713,60.9198,1107.8027],[8.7114,60.9242,1101.6105],[8.6932,60.9227,1073.428],[8.6916,60.9271,1068.1924],[8.6825,60.9263,1076.1865],[8.6809,60.9307,1075.1381],[8.6718,60.93,1084.2395],[8.6702,60.9344,1095.1381],[8.6611,60.9336,1101.771],[8.6595,60.938,1099.4388],[8.6504,60.9373,1199.3666],[8.6488,60.9417,1117.6997],[8.6305,60.9401,1315.0632],[8.6289,60.9446,1200.9736],[8.6198,60.9438,1305.6998],[8.6182,60.9482,1238.0188],[8.6091,60.9474,1321.6959],[8.6075,60.9519,1215.2272],[8.6166,60.9526,1164.8839],[8.6134,60.9615,973.0662],[8.6225,60.9622,964.6436],[8.6178,60.9755,1057.6378],[8.6086,60.9747,1039.842],[8.607,60.9791,1144.7703],[8.5979,60.9784,1030.0247],[8.5947,60.9872,1237.045],[8.5856,60.9864,1202.7145],[8.584,60.9909,1377.6134],[8.5748,60.9901,1322.4973],[8.5732,60.9945,1623.636],[8.5641,60.9937,1645.2504],[8.5609,61.0026,1776.1055],[8.5517,61.0018,1754.3755],[8.5501,61.0062,1819.1042],[8.541,61.0054,1803.083],[8.5394,61.0098,1862.1654],[8.5302,61.0091,1845.4872],[8.5286,61.0135,1757.1866],[8.5195,61.0127,1876.8622],[8.5179,61.0171,1447.8804],[8.4996,61.0156,1872.7465],[8.498,61.02,1857.4846],[8.4797,61.0184,1762.2307],[8.4781,61.0228,1798.8157],[8.4324,61.0189,1579.637],[8.4291,61.0278,1803.28],[8.42,61.027,1820.4358],[8.4184,61.0314,1795.7134],[8.4092,61.0306,1737.322],[8.4076,61.035,1737.0343],[8.3985,61.0342,1672.7709],[8.3952,61.0431,1671.8689],[8.3861,61.0423,1632.9417],[8.3844,61.0467,1581.2267],[8.3753,61.0459,1554.1693],[8.372,61.0547,1462.9072],[8.3629,61.054,1535.7926],[8.3596,61.0628,1576.7368],[8.3504,61.062,1532.1611],[8.3471,61.0708,1559.8601],[8.338,61.07,1585.5814],[8.3347,61.0789,1488.4873],[8.3256,61.0781,1437.1892],[8.3223,61.0869,1523.4065],[8.3131,61.0861,1428.0389],[8.3115,61.0905,1589.314],[8.2932,61.089,1528.7786],[8.2948,61.0845,1385.5234],[8.2673,61.0822,1633.4751],[8.269,61.0777,1491.2744],[8.2507,61.0761,1416.3607],[8.2523,61.0717,1430.1139],[8.2432,61.0709,1491.9008],[8.2449,61.0665,1596.8833],[8.2357,61.0657,1636.6222],[8.2374,61.0613,1664.509],[8.2282,61.0605,1697.0665],[8.2332,61.0473,1730.3668],[8.2423,61.0481,1780.733],[8.244,61.0437,1561.1023],[8.2531,61.0444,1565.7593],[8.2548,61.04,1553.5919],[8.2639,61.0408,1469.6324],[8.2705,61.0232,1283.5621],[8.2614,61.0224,1282.2242],[8.263,61.018,1516.7592],[8.2539,61.0172,1604.2766],[8.2572,61.0083,1603.2897],[8.2481,61.0075,1544.808],[8.2497,61.0031,1427.052],[8.2406,61.0023,1437.9347],[8.2439,60.9935,1525.951],[8.2348,60.9927,1578.3936],[8.2381,60.9839,1322.6874],[8.229,60.9831,1328.2155],[8.2306,60.9787,1392.8931],[8.2215,60.9779,1358.3594],[8.2248,60.969,1494.708],[8.2157,60.9682,1556.1722],[8.214,60.9727,1527.6143],[8.1958,60.9711,1534.272],[8.1941,60.9755,1432.3236],[8.185,60.9747,1488.7443],[8.1833,60.9791,1365.6487],[8.1651,60.9775,1186.938],[8.1634,60.9819,1158.3239],[8.1452,60.9803,1181.7972],[8.1469,60.9759,1190.5129],[8.1377,60.9751,1508.186],[8.1411,60.9663,1463.1968],[8.132,60.9654,1426.9449],[8.1336,60.961,1409.3668],[8.1245,60.9602,1349.9357],[8.1262,60.9558,1326.5],[8.1171,60.955,1326.5],[8.1187,60.9506,1326.5],[8.1096,60.9498,1326.5],[8.1113,60.9454,1326.5],[8.1022,60.9446,1326.5],[8.1038,60.9402,1326.5],[8.0947,60.9394,1329.3333],[8.0964,60.9349,1326.5],[8.0873,60.9341,1385.9871],[8.089,60.9297,1364.443],[8.0799,60.9289,1487.6995],[8.0815,60.9245,1452.95],[8.0724,60.9237,1420.333],[8.0741,60.9193,1375.8959],[8.065,60.9185,1438.9871],[8.0667,60.9141,1472.2256],[8.0576,60.9133,1563.9314],[8.0609,60.9044,1569.994],[8.0518,60.9036,1639.5603],[8.0552,60.8948,1627.7262],[8.0733,60.8964,1516.277],[8.075,60.892,1603.2603],[8.0932,60.8936,1514.7571],[8.0949,60.8892,1574.3094],[8.104,60.89,1552.8314],[8.1056,60.8856,1626.403],[8.1238,60.8872,1542.6871],[8.1255,60.8828,1600.9314],[8.1436,60.8844,1541.7255],[8.1453,60.88,1592.7705],[8.1635,60.8816,1561.021],[8.1651,60.8772,1629.2762],[8.1833,60.8788,1618.4924],[8.185,60.8744,1645.3445],[8.2032,60.876,1584.0222],[8.2048,60.8716,1482.735],[8.223,60.8732,1659.5887],[8.2246,60.8687,1583.2992],[8.2792,60.8735,1353.7412],[8.2808,60.8691,1289.3031],[8.299,60.8707,1331.7734],[8.3006,60.8663,1308.0931],[8.3188,60.8679,1311.6716],[8.3205,60.8634,1273.3549],[8.3296,60.8642,1271.9294],[8.3377,60.8422,1115.6404],[8.3286,60.8414,1106.0],[8.3302,60.8369,1106.0],[8.3393,60.8377,1106.0],[8.3426,60.8289,1106.0],[8.3607,60.8305,1106.0],[8.3624,60.8261,1106.0],[8.3805,60.8276,1117.8761],[8.3789,60.8321,1106.0],[8.4153,60.8352,1075.0303],[8.4169,60.8308,1097.0758],[8.426,60.8316,1121.458],[8.4276,60.8272,1154.4594],[8.4367,60.8279,1178.7209],[8.4383,60.8235,1256.7454],[8.4473,60.8243,1286.9332],[8.4506,60.8155,1336.7421],[8.4597,60.8163,1419.0854],[8.4613,60.8118,1347.9717],[8.4703,60.8126,1345.5649],[8.4719,60.8082,1335.4366],[8.481,60.809,1284.3732],[8.4826,60.8046,1381.587],[8.4917,60.8053,1326.8455],[8.4949,60.7965,1259.0417],[8.5131,60.7981,1234.1584],[8.5147,60.7936,1233.8162],[8.5328,60.7952,1271.6547],[8.5312,60.7996,1387.2627],[8.5494,60.8012,1506.7747],[8.551,60.7968,1351.6334],[8.5601,60.7975,1429.2649],[8.5632,60.7887,1306.04],[8.5723,60.7895,1369.2957],[8.5739,60.785,1435.5139],[8.583,60.7858,1373.3367],[8.5846,60.7814,1316.3627],[8.5937,60.7822,1341.6029],[8.5952,60.7778,1155.0842],[8.6043,60.7785,1124.1783],[8.6059,60.7741,1091.8903],[8.615,60.7749,1085.0902],[8.6166,60.7705,1074.4738],[8.6256,60.7712,1075.2998],[8.6272,60.7668,1080.422],[8.6363,60.7676,1083.0245],[8.6379,60.7632,1072.6543],[8.6651,60.7655,1054.8999],[8.6635,60.7699,1032.4933],[8.6817,60.7714,988.9658],[8.6832,60.767,1026.6241],[8.6923,60.7678,1012.1988],[8.6939,60.7634,1030.1639],[8.7029,60.7641,1016.4995],[8.7045,60.7597,1041.8771],[8.7136,60.7605,1013.9482]]]]}}