{"type": "Feature","bbox": [28.9749,70.0604,30.4337,70.4744],"geometry": {"type": "MultiPolygon","coordinates": [[[[30.1354,70.0771,4.4125],[30.1292,70.0792,0.0],[30.1208,70.0771,0.0],[30.1167,70.0792,0.0],[30.1083,70.0792,0.0],[30.1068,70.0787,0.0],[30.1078,70.0755,16.5266],[30.1005,70.0745,0.0],[30.0984,70.0714,0.0],[30.1083,70.0687,0.0],[30.1417,70.0687,0.0],[30.1458,70.0708,14.9439],[30.1521,70.0687,0.0],[30.1661,70.0693,4.4961],[30.1646,70.0708,4.6144],[30.1589,70.0714,11.9629],[30.15,70.0771,0.0],[30.1354,70.0771,4.4125]]],
[[[30.2578,70.0859,0.0],[30.2542,70.0896,0.0],[30.238,70.0891,2.3138],[30.2479,70.0854,0.0],[30.2578,70.0859,0.0]]],
[[[29.7547,70.063,0.0],[29.7687,70.0646,2.7166],[29.7703,70.0661,0.0],[29.7526,70.0661,9.8567],[29.7547,70.063,0.0]]],
[[[30.0984,70.0682,0.0],[30.1,70.0667,0.0],[30.1036,70.0672,0.0],[30.1021,70.0687,8.4369],[30.0984,70.0682,0.0]]],
[[[29.2403,70.4709,223.9414],[29.2412,70.4731,248.5871],[29.2148,70.4744,221.7341],[29.2127,70.4699,269.9364],[29.1863,70.4712,385.0671],[29.1843,70.4668,366.162],[29.171,70.4674,347.6375],[29.169,70.463,327.2643],[29.1558,70.4636,334.522],[29.1538,70.4591,336.349],[29.1406,70.4598,352.3423],[29.1386,70.4553,360.9985],[29.1253,70.4559,357.5813],[29.1214,70.447,341.9053],[29.1081,70.4477,352.5763],[29.1062,70.4432,356.2726],[29.0929,70.4438,369.8614],[29.0831,70.4215,411.6949],[29.0698,70.4222,400.0771],[29.0679,70.4177,386.1138],[29.0547,70.4183,376.2766],[29.0507,70.4094,393.9352],[29.0375,70.41,370.2538],[29.0356,70.4056,377.3505],[29.0224,70.4062,397.9254],[29.0204,70.4017,423.3246],[29.0072,70.4024,426.5251],[29.0052,70.3979,395.6372],[28.9788,70.3992,423.054],[28.9749,70.3903,422.7364],[29.0013,70.389,389.2788],[28.9994,70.3845,412.4286],[29.1445,70.3776,275.0162],[29.1465,70.382,281.3016],[29.186,70.3801,245.9974],[29.184,70.3757,248.3702],[29.2104,70.3744,236.4861],[29.2084,70.3699,236.36],[29.2611,70.3673,221.7155],[29.2591,70.3629,224.6622],[29.2723,70.3622,221.6436],[29.2703,70.3578,220.8755],[29.2835,70.3571,218.2076],[29.2774,70.3438,221.733],[29.2906,70.3431,231.2288],[29.2486,70.2495,179.9381],[29.2355,70.2501,169.7953],[29.2276,70.2323,165.2497],[29.2145,70.2329,155.6773],[29.2125,70.2285,165.5199],[29.1994,70.2291,159.1946],[29.1975,70.2247,158.3819],[29.1844,70.2253,143.853],[29.1745,70.203,150.4217],[29.1876,70.2024,123.0616],[29.1837,70.1935,124.3775],[29.1967,70.1928,125.0115],[29.1948,70.1884,114.2141],[29.2078,70.1877,125.3848],[29.2039,70.1788,106.7234],[29.2169,70.1782,102.7359],[29.2071,70.1559,272.2308],[29.2201,70.1552,251.4073],[29.2029,70.1161,40.0676],[29.2331,70.1175,0.0],[29.2354,70.1188,11.1695],[29.2479,70.1188,17.7118],[29.2521,70.1167,0.0],[29.2604,70.1188,35.2618],[29.2646,70.1167,0.0],[29.3063,70.1167,8.9621],[29.3104,70.1146,5.342],[29.3182,70.1141,7.1557],[29.3229,70.1104,0.0],[29.3307,70.1099,2.9293],[29.3276,70.1068,0.0],[29.337,70.1057,5.1921],[29.3359,70.1026,0.0],[29.3458,70.1,0.0],[29.375,70.1,0.9152],[29.3792,70.0979,0.0],[29.3917,70.0979,0.0],[29.3958,70.0958,0.0],[29.4125,70.0958,16.1859],[29.4167,70.0938,0.0],[29.4313,70.0938,0.0],[29.4521,70.1,0.0],[29.4604,70.1,0.0],[29.4646,70.0979,0.0],[29.4917,70.0958,0.0],[29.4958,70.0938,0.0],[29.525,70.0938,7.3623],[29.5292,70.0917,0.0],[29.5375,70.0917,0.0],[29.5438,70.0938,2.4011],[29.5479,70.0917,0.0],[29.5563,70.0917,0.0],[29.5625,70.0938,25.3035],[29.5667,70.0917,0.0],[29.5958,70.0917,6.2561],[29.6,70.0896,0.0],[29.6167,70.0896,10.0102],[29.6208,70.0875,0.0],[29.6479,70.0854,0.0],[29.6521,70.0833,0.0],[29.6646,70.0833,17.9827],[29.6688,70.0813,0.0],[29.7062,70.0792,4.3909],[29.7104,70.0771,0.0],[29.7292,70.0771,13.8755],[29.7417,70.0729,0.0],[29.7563,70.0729,0.0],[29.7604,70.075,9.9263],[29.7687,70.075,7.2226],[29.775,70.0729,0.0],[29.7792,70.075,11.9171],[29.7875,70.0708,0.0],[29.8021,70.0687,0.0],[29.8146,70.0646,0.0],[29.8208,70.0646,12.4671],[29.825,70.0625,7.102],[29.8479,70.0625,0.0],[29.8521,70.0604,0.0],[29.8896,70.0604,0.0],[29.8958,70.0625,7.3866],[29.9021,70.0604,0.0],[29.9083,70.0625,10.3115],[29.9146,70.0604,0.0],[29.9188,70.0625,0.0],[29.9313,70.0625,0.0],[29.9354,70.0646,5.4359],[29.9979,70.0667,0.0],[30.0021,70.0687,2.7241],[30.0125,70.0687,0.0],[30.0167,70.0708,4.5824],[30.0271,70.0708,0.0],[30.0313,70.0729,0.9383],[30.0583,70.075,0.0],[30.0625,70.0771,0.0],[30.0917,70.0771,0.0],[30.0974,70.0797,0.0],[30.0943,70.0828,0.0],[30.0974,70.0839,0.0],[30.1026,70.0891,0.0],[30.1089,70.0932,4.6183],[30.1182,70.0943,0.0],[30.1229,70.0979,0.0],[30.1396,70.0979,0.0],[30.1437,70.1,0.0],[30.1516,70.1005,0.0],[30.1563,70.1042,2.7163],[30.1833,70.1042,0.0],[30.1896,70.1021,2.4546],[30.2005,70.1099,0.0],[30.2099,70.1109,0.0],[30.2068,70.113,0.0],[30.2083,70.1146,8.0319],[30.2208,70.1146,0.0],[30.2333,70.1188,8.4968],[30.2625,70.1188,0.0],[30.2667,70.1208,6.3698],[30.2771,70.1208,0.0],[30.2813,70.1229,9.9298],[30.2896,70.1208,0.0],[30.2938,70.1229,0.0],[30.3016,70.1234,0.0],[30.3062,70.1271,0.0],[30.3224,70.1297,0.0],[30.3271,70.1333,0.0],[30.3349,70.1339,0.0],[30.3396,70.1375,8.8045],[30.3583,70.1375,0.0],[30.3599,70.1391,6.255],[30.3568,70.1412,4.9289],[30.3599,70.1432,0.0],[30.3568,70.1453,3.8439],[30.3599,70.1474,0.0],[30.3568,70.1495,2.422],[30.3599,70.1516,0.0],[30.3521,70.1521,3.264],[30.3474,70.1557,0.0],[30.338,70.1568,2.8945],[30.3318,70.1609,2.0786],[30.3349,70.1641,0.0],[30.3255,70.1651,3.1243],[30.3286,70.1682,0.0],[30.3255,70.1703,1.296],[30.3349,70.1755,0.0],[30.3318,70.1776,1.4376],[30.3349,70.1807,0.0],[30.3318,70.1828,4.4059],[30.3458,70.1833,0.0],[30.3505,70.187,0.0],[30.3563,70.1875,0.0],[30.362,70.1901,0.0],[30.3568,70.1943,4.3995],[30.3604,70.1979,4.2935],[30.3729,70.1979,0.0],[30.3792,70.2,3.1666],[30.3854,70.1979,0.0],[30.4083,70.2042,4.7388],[30.4313,70.2042,0.0],[30.4337,70.2056,0.0],[30.4205,70.2063,11.7081],[30.4227,70.2108,37.1786],[30.3966,70.2122,53.0328],[30.3988,70.2167,85.8111],[30.3727,70.2181,100.9243],[30.375,70.2225,127.0099],[30.3489,70.224,157.9294],[30.3511,70.2284,173.1455],[30.325,70.2299,226.6158],[30.3272,70.2343,192.7132],[30.3011,70.2358,231.9155],[30.3033,70.2402,222.1419],[30.2771,70.2416,223.1601],[30.2794,70.2461,195.2228],[30.2532,70.2475,168.0579],[30.2554,70.252,157.3788],[30.2293,70.2534,194.8517],[30.2315,70.2578,206.9775],[30.2053,70.2593,211.7835],[30.2075,70.2637,249.0785],[30.1944,70.2644,227.4019],[30.1988,70.2733,252.0549],[30.1595,70.2754,262.3299],[30.1617,70.2799,226.3155],[30.1224,70.282,328.3498],[30.1246,70.2864,287.3239],[30.0984,70.2879,418.3013],[30.1006,70.2923,395.2683],[30.0613,70.2944,453.8104],[30.0634,70.2989,466.2083],[30.0241,70.301,441.3669],[30.0263,70.3054,448.9121],[29.9213,70.311,377.6401],[29.9235,70.3154,475.4596],[29.8579,70.3189,419.1149],[29.86,70.3233,527.4115],[29.8468,70.324,487.8731],[29.8447,70.3195,426.0951],[29.674,70.3284,510.4747],[29.6761,70.3328,562.388],[29.6629,70.3335,577.7158],[29.6608,70.3291,517.5425],[29.6083,70.3318,568.3813],[29.6104,70.3362,538.466],[29.5972,70.3369,538.636],[29.5993,70.3413,558.5455],[29.6124,70.3407,531.0651],[29.6145,70.3451,539.122],[29.6277,70.3444,506.9441],[29.6318,70.3534,575.6481],[29.645,70.3527,546.0903],[29.6471,70.3571,612.5363],[29.6602,70.3565,547.7773],[29.6623,70.3609,595.5164],[29.636,70.3623,566.1312],[29.6381,70.3667,563.3413],[29.5854,70.3694,561.58],[29.5875,70.3739,569.8267],[29.5611,70.3752,573.6273],[29.5632,70.3796,571.7344],[29.55,70.3803,568.8904],[29.5521,70.3848,542.9846],[29.5389,70.3854,533.0543],[29.541,70.3899,527.6177],[29.5278,70.3905,498.1286],[29.5299,70.395,526.1758],[29.5167,70.3957,509.1945],[29.5187,70.4001,547.6583],[29.5056,70.4008,533.9536],[29.5076,70.4052,503.7275],[29.4944,70.4059,540.4881],[29.4965,70.4104,471.6558],[29.4701,70.4117,411.0583],[29.4721,70.4161,410.9323],[29.4589,70.4168,414.0661],[29.461,70.4213,439.2524],[29.4346,70.4226,375.8337],[29.4366,70.427,444.3388],[29.4102,70.4283,425.8182],[29.4123,70.4328,473.7033],[29.3858,70.4341,392.8742],[29.3879,70.4386,416.1982],[29.3482,70.4405,257.3996],[29.3502,70.445,317.3938],[29.3106,70.4469,417.2919],[29.3126,70.4514,313.9815],[29.2729,70.4533,384.8466],[29.2749,70.4578,417.6771],[29.2617,70.4585,378.8616],[29.2637,70.4629,407.766],[29.2505,70.4636,327.9604],[29.2525,70.468,379.7143],[29.2392,70.4687,221.8849],[29.2403,70.4709,223.9414]]]]}
,"properties": {"GID_2": "NOR.5.18_1","GID_0": "NOR","country": "Norway","GID_1": "NOR.5_1","province": "Finnmark","NL_NAME_1": "NA","county": "Vadsø","VARNAME_2": "NA","NL_NAME_2": "NA","TYPE_2": "Kommuner","ENGTYPE_2": "Municipality","CC_2": "NA","HASC_2": "NO.FI.VS","name": "Vadsø.county","area_km2": 1228.2755,"hist_schema_id": "Elevation0-9000","hist_area_km2": {"0": 25.8773,"25": 44.7998,"50": 52.3936,"75": 45.6062,"100": 59.999,"125": 52.1643,"150": 56.4113,"175": 62.9657,"200": 51.6244,"225": 76.1985,"250": 66.6844,"275": 66.0186,"300": 74.9824,"325": 87.7497,"350": 90.3375,"375": 95.2774,"400": 88.4417,"425": 42.8415,"450": 27.8842,"475": 18.5936,"500": 15.1144,"525": 15.329,"550": 8.2363,"575": 2.0531,"600": 0.6203,"625": 0.0713}}}