{"type":"Feature","properties":{"GID_2":"NOR.5.17_1","GID_0":"NOR","country":"Norway","GID_1":"NOR.5_1","province":"Finnmark","NL_NAME_1":"NA","county":"Tana","VARNAME_2":"Deatnu","NL_NAME_2":"NA","TYPE_2":"Kommuner","ENGTYPE_2":"Municipality","CC_2":"NA","HASC_2":"NO.FI.TA","name":"Tana.county"},
"geometry":{"type": "MultiPolygon","coordinates": [[[[28.3482,69.8824,276.248],[28.3519,69.8822,277.546],[28.366,69.9179,280.588],[28.379,69.9173,308.4762],[28.3878,69.9397,385.2725],[28.3749,69.9403,372.4647],[28.3784,69.9492,340.0144],[28.3655,69.9498,336.5829],[28.369,69.9587,335.9561],[28.3561,69.9593,295.2809],[28.3614,69.9727,268.1368],[28.3484,69.9733,249.6117],[28.352,69.9822,231.7593],[28.339,69.9828,253.4616],[28.3443,69.9962,236.5672],[28.3314,69.9968,259.6044],[28.3349,70.0057,254.5954],[28.3219,70.0063,252.3157],[28.3325,70.0331,179.0484],[28.3195,70.0337,195.4165],[28.3248,70.0471,268.5843],[28.3118,70.0476,242.9145],[28.3189,70.0655,243.3601],[28.3059,70.0661,248.4814],[28.3236,70.1108,171.4006],[28.3106,70.1114,157.0323],[28.3302,70.1605,110.3537],[28.3171,70.1611,87.7291],[28.326,70.1834,161.5511],[28.3349,70.2058,225.6986],[28.348,70.2052,234.5835],[28.3534,70.2186,218.534],[28.3665,70.218,195.2593],[28.3719,70.2314,104.5191],[28.385,70.2308,47.446],[28.3886,70.2397,43.1062],[28.4018,70.2392,68.2764],[28.4072,70.2526,52.0398],[28.4203,70.252,71.0607],[28.4257,70.2654,59.2489],[28.4389,70.2648,111.0787],[28.4425,70.2737,191.5836],[28.4556,70.2731,238.7105],[28.4611,70.2865,226.5257],[28.4743,70.2859,263.7851],[28.4797,70.2993,371.417],[28.4929,70.2987,372.3771],[28.4984,70.3121,397.027],[28.5116,70.3116,386.9441],[28.5152,70.3205,417.2082],[28.5284,70.3199,405.6469],[28.5339,70.3333,429.9977],[28.5471,70.3327,432.8087],[28.5527,70.3461,410.3639],[28.6186,70.3431,379.2569],[28.6204,70.3476,366.8281],[28.7522,70.3415,446.2934],[28.7541,70.346,454.3418],[28.82,70.3429,475.9445],[28.8219,70.3474,452.5912],[28.8351,70.3467,445.7647],[28.8389,70.3557,464.8196],[28.8521,70.3551,460.7856],[28.8559,70.364,468.5772],[28.8691,70.3634,459.3139],[28.8729,70.3723,462.705],[28.8861,70.3717,454.8106],[28.89,70.3806,475.3991],[28.9163,70.3794,472.0045],[28.9183,70.3838,461.1122],[28.9315,70.3832,461.1354],[28.9334,70.3877,453.1756],[28.9466,70.387,452.6326],[28.9485,70.3915,450.7392],[28.9617,70.3909,443.9133],[28.9637,70.3953,436.8875],[28.9769,70.3947,423.8644],[28.9788,70.3992,423.054],[29.0052,70.3979,395.6372],[29.0072,70.4024,426.5251],[29.0204,70.4017,423.3246],[29.0224,70.4062,397.9254],[29.0356,70.4056,377.3505],[29.0375,70.41,370.2538],[29.0507,70.4094,393.9352],[29.0547,70.4183,376.2766],[29.0679,70.4177,386.1138],[29.0698,70.4222,400.0771],[29.0831,70.4215,411.6949],[29.0929,70.4438,369.8614],[29.1062,70.4432,356.2726],[29.1081,70.4477,352.5763],[29.1214,70.447,341.9053],[29.1253,70.4559,357.5813],[29.1386,70.4553,360.9985],[29.1406,70.4598,352.3423],[29.1538,70.4591,336.349],[29.1558,70.4636,334.522],[29.169,70.463,327.2643],[29.171,70.4674,347.6375],[29.1843,70.4668,366.162],[29.1863,70.4712,385.0671],[29.2127,70.4699,269.9364],[29.2148,70.4744,221.7341],[29.228,70.4738,221.9151],[29.23,70.4782,221.7035],[29.1903,70.4801,231.2248],[29.1883,70.4757,331.3498],[29.1088,70.4795,338.2463],[29.1107,70.484,336.3356],[29.0975,70.4846,310.0622],[29.0995,70.4891,333.9653],[29.073,70.4903,277.7994],[29.0749,70.4948,261.042],[29.0484,70.4961,302.3584],[29.0504,70.5005,269.239],[29.0371,70.5012,301.167],[29.0391,70.5056,379.9897],[29.0125,70.5069,412.9265],[29.0145,70.5113,446.5464],[28.9747,70.5132,365.0077],[28.9727,70.5088,365.1112],[28.9196,70.5113,394.1978],[28.9177,70.5068,364.6414],[28.8778,70.5087,492.689],[28.8759,70.5042,503.4374],[28.8228,70.5067,559.1807],[28.8209,70.5022,549.9158],[28.7943,70.5034,568.6075],[28.7962,70.5079,606.5408],[28.783,70.5085,591.2362],[28.7868,70.5174,493.2921],[28.7735,70.5181,484.3848],[28.7773,70.527,502.3406],[28.764,70.5276,495.3243],[28.7679,70.5365,450.6633],[28.7546,70.5371,454.6196],[28.7584,70.5461,475.0508],[28.7451,70.5467,479.4047],[28.7489,70.5556,380.3368],[28.7356,70.5562,368.5376],[28.7394,70.5651,543.3226],[28.7261,70.5658,487.112],[28.7299,70.5747,517.2068],[28.7166,70.5753,532.5979],[28.7223,70.5887,503.3528],[28.709,70.5893,514.2705],[28.7109,70.5938,473.3837],[28.6976,70.5944,439.704],[28.6995,70.5988,392.4515],[28.6862,70.5994,351.0524],[28.6881,70.6039,380.8056],[28.6614,70.6051,416.4553],[28.6633,70.6096,476.9064],[28.6499,70.6102,473.448],[28.6518,70.6146,460.9231],[28.6385,70.6153,477.154],[28.6404,70.6197,478.8567],[28.627,70.6203,501.3456],[28.6289,70.6248,519.3204],[28.6155,70.6254,526.5877],[28.6193,70.6343,514.2689],[28.606,70.6349,511.2401],[28.6097,70.6439,476.7949],[28.5964,70.6445,463.4179],[28.6001,70.6534,458.4811],[28.5868,70.654,444.754],[28.5887,70.6585,343.6542],[28.5753,70.6591,320.4953],[28.5772,70.6635,295.191],[28.5504,70.6647,278.6634],[28.5523,70.6692,290.3674],[28.5389,70.6698,260.439],[28.5408,70.6742,240.6642],[28.5274,70.6748,223.7636],[28.5292,70.6793,207.6081],[28.5183,70.6798,107.333],[28.5109,70.6787,0.0],[28.5161,70.6734,84.2519],[28.5089,70.6682,0.0],[28.5099,70.6651,49.4152],[28.5089,70.663,0.0],[28.512,70.6609,95.896],[28.5068,70.6578,0.0],[28.5078,70.6547,0.0],[28.4974,70.6464,0.0],[28.488,70.6453,0.0],[28.4896,70.6438,0.0],[28.5021,70.6438,168.7192],[28.5036,70.6422,269.828],[28.4964,70.6412,139.0363],[28.4797,70.6307,0.0],[28.4828,70.6286,27.6621],[28.4818,70.6255,6.8722],[28.4828,70.6234,14.744],[28.4734,70.6162,0.0],[28.4786,70.6109,45.8301],[28.4729,70.6083,0.0],[28.4672,70.6078,0.0],[28.4703,70.6047,0.0],[28.4651,70.6016,0.0],[28.4703,70.5964,7.0002],[28.463,70.5953,12.1888],[28.4479,70.5854,312.5146],[28.4339,70.5849,0.0],[28.4411,70.5807,257.7982],[28.4432,70.5776,475.6179],[28.4333,70.5771,323.8134],[28.4271,70.5792,0.0],[28.4193,70.5745,0.0],[28.4224,70.5714,72.6306],[28.4172,70.5672,36.0126],[28.4203,70.5651,102.9806],[28.413,70.5599,0.0],[28.4141,70.5568,13.1372],[28.412,70.5547,40.6272],[28.4089,70.5537,7.218],[28.412,70.5505,64.4439],[28.4036,70.5443,4.2753],[28.3943,70.5432,0.0],[28.3958,70.5417,0.0],[28.4036,70.5411,16.249],[28.4026,70.538,0.0],[28.4042,70.5375,0.0],[28.4328,70.5349,50.8321],[28.4391,70.5307,26.8285],[28.438,70.5276,0.0],[28.4401,70.5255,0.0],[28.4557,70.5203,0.0],[28.4547,70.5172,0.0],[28.462,70.5162,4.2866],[28.4609,70.513,0.0],[28.463,70.5109,0.0],[28.4729,70.5062,0.0],[28.4792,70.5083,0.0],[28.4854,70.5083,0.0],[28.4896,70.5062,0.0],[28.5021,70.5062,0.0],[28.5083,70.5042,0.0],[28.5125,70.5062,0.0],[28.5354,70.5062,0.0],[28.5417,70.5083,0.0],[28.5432,70.5078,0.0],[28.5422,70.5047,0.0],[28.5516,70.5036,20.3659],[28.5438,70.4979,94.4641],[28.5297,70.4974,0.0],[28.5328,70.4953,126.795],[28.5307,70.4922,263.2447],[28.5214,70.4912,228.8434],[28.5193,70.4891,269.248],[28.5203,70.4859,329.3324],[28.513,70.4849,167.5942],[28.5068,70.4807,0.0],[28.5099,70.4776,273.1496],[28.5042,70.475,222.6997],[28.4984,70.4745,114.7124],[28.4938,70.4708,39.6113],[28.4859,70.4703,0.0],[28.4901,70.4672,0.0],[28.4974,70.4661,0.0],[28.512,70.4578,8.2928],[28.5078,70.4547,2.9343],[28.5005,70.4537,0.0],[28.5036,70.4505,0.0],[28.4875,70.45,0.6932],[28.4729,70.4542,0.0],[28.4667,70.4542,38.6562],[28.4651,70.4557,42.108],[28.4682,70.4578,0.0],[28.4604,70.4583,23.9474],[28.4557,70.462,0.0],[28.4479,70.4625,0.0],[28.4422,70.4651,26.7938],[28.4437,70.4667,0.0],[28.4516,70.4672,0.0],[28.4536,70.4693,0.0],[28.4526,70.4724,0.0],[28.462,70.4797,0.0],[28.4609,70.4828,0.0],[28.4641,70.487,0.0],[28.4557,70.4932,0.0],[28.4464,70.4943,0.9327],[28.4516,70.4995,0.0],[28.4422,70.5005,0.9088],[28.4401,70.5026,0.7775],[28.4411,70.5057,0.0],[28.4391,70.5078,0.6455],[28.425,70.5104,0.0],[28.4214,70.5068,0.6361],[28.4266,70.5026,0.0],[28.4057,70.488,1.0686],[28.3813,70.4875,0.0],[28.3771,70.4854,0.9344],[28.3625,70.4833,0.0],[28.3547,70.4786,0.0],[28.3578,70.4755,2.5424],[28.3516,70.4714,2.3821],[28.3422,70.4703,0.0],[28.3453,70.4672,3.0371],[28.338,70.462,0.0],[28.3391,70.4589,2.1885],[28.3318,70.4578,0.0],[28.3411,70.4505,6.6287],[28.3297,70.4505,0.5],[28.3255,70.4526,0.5],[28.3286,70.4557,0.0],[28.3229,70.4583,0.0],[28.3167,70.4563,0.0],[28.3063,70.4563,0.5],[28.2974,70.4505,0.5],[28.2917,70.45,0.5],[28.2859,70.4474,0.5],[28.2891,70.4443,0.5],[28.2839,70.4411,0.5],[28.287,70.4391,0.5],[28.2839,70.437,1.0],[28.287,70.4349,1.0],[28.2839,70.4328,1.0],[28.2854,70.4313,1.0],[28.3,70.4313,1.0],[28.3146,70.4354,31.8032],[28.3182,70.4339,186.8212],[28.3125,70.4313,197.0206],[28.3068,70.4307,195.4344],[28.2979,70.425,230.3319],[28.2917,70.4271,49.2218],[28.288,70.4266,1.0],[28.2911,70.4234,167.9106],[28.2854,70.4208,39.8477],[28.2693,70.4255,1.0],[28.2745,70.4297,1.0],[28.2714,70.4328,1.0],[28.2766,70.4359,1.0],[28.2714,70.4411,1.0],[28.2786,70.4422,0.5],[28.2776,70.4453,3.9873],[28.287,70.4526,0.5],[28.2859,70.4557,0.5],[28.2932,70.4568,0.5],[28.2901,70.4599,43.4708],[28.2979,70.4604,0.0],[28.312,70.4651,0.0],[28.3141,70.4682,0.0],[28.3089,70.4714,17.4562],[28.3109,70.4745,16.3866],[28.3349,70.4818,0.0],[28.3453,70.4901,0.0],[28.3443,70.4932,0.6035],[28.3604,70.4958,0.0],[28.3651,70.4995,12.768],[28.3724,70.5005,0.0],[28.3703,70.5036,0.0],[28.3672,70.5047,19.2432],[28.3703,70.5068,0.0],[28.3672,70.5089,0.0],[28.3682,70.512,0.0],[28.3583,70.5146,34.1468],[28.35,70.5146,0.0],[28.3432,70.5109,26.9459],[28.3333,70.5083,12.5189],[28.325,70.5104,0.0],[28.3203,70.5068,0.0],[28.3125,70.5062,0.0],[28.3083,70.5042,16.1007],[28.2922,70.5047,24.9007],[28.2901,70.5068,81.2533],[28.2911,70.5099,0.0],[28.2896,70.5104,2.9676],[28.275,70.5062,154.9628],[28.2667,70.5083,26.097],[28.2625,70.5062,103.6283],[28.2542,70.5062,59.0007],[28.2438,70.5104,1.7396],[28.2401,70.5078,0.0],[28.2411,70.5047,0.0],[28.2391,70.5026,0.0],[28.2214,70.4995,0.0],[28.2307,70.4964,76.37],[28.2214,70.4953,4.6279],[28.2182,70.4922,34.356],[28.2089,70.4912,0.0],[28.2042,70.4875,38.359],[28.1958,70.4875,12.8772],[28.1917,70.4896,0.0],[28.1708,70.4896,0.0],[28.1661,70.4859,41.5532],[28.1568,70.4849,0.0],[28.1641,70.4807,194.2338],[28.1625,70.4792,212.4538],[28.1542,70.4812,57.3993],[28.15,70.4792,74.433],[28.1375,70.4792,0.0],[28.1234,70.4745,0.0],[28.1167,70.4688,105.2462],[28.1083,70.4708,0.0],[28.1026,70.4682,0.0],[28.1057,70.4651,34.9669],[28.1,70.4646,0.0],[28.0943,70.462,0.0],[28.0974,70.4589,140.3841],[28.0932,70.4568,103.2262],[28.0812,70.4563,0.0],[28.0688,70.4521,0.0],[28.0547,70.4516,0.0],[28.062,70.4464,0.0],[28.0557,70.4422,0.0],[28.0479,70.4417,0.0],[28.0438,70.4396,0.0],[28.0401,70.4401,0.0],[28.0432,70.4432,0.0],[28.0401,70.4453,0.0],[28.0432,70.4474,0.0],[28.0359,70.4516,0.0],[28.05,70.4521,0.0],[28.063,70.462,0.0],[28.0708,70.4625,0.0],[28.0755,70.4661,0.0],[28.0854,70.4688,0.0],[28.0932,70.4693,0.0],[28.1026,70.4766,5.9832],[28.1224,70.4818,0.0],[28.1193,70.4849,0.0],[28.1286,70.4859,0.0],[28.1255,70.488,4.2782],[28.1271,70.4896,24.6609],[28.1583,70.4896,0.0],[28.1625,70.4917,0.0],[28.1729,70.4917,0.0],[28.1771,70.4938,35.9455],[28.1891,70.4943,0.0],[28.1953,70.4984,0.0],[28.1922,70.5016,63.4658],[28.1953,70.5026,38.0457],[28.1974,70.5057,14.431],[28.1896,70.5104,51.3431],[28.1708,70.5104,44.6624],[28.1646,70.5125,0.0],[28.1521,70.5083,138.387],[28.1417,70.5083,23.823],[28.1375,70.5062,94.4324],[28.1313,70.5062,35.6736],[28.1104,70.5,44.9046],[28.0979,70.5,0.0],[28.0917,70.4958,103.5178],[28.0833,70.4958,87.8159],[28.0792,70.4979,23.1541],[28.0521,70.4979,0.0],[28.0505,70.4974,0.0],[28.0516,70.4943,26.2433],[28.05,70.4938,26.2433],[28.0333,70.4938,0.0],[28.0234,70.4912,0.0],[28.0161,70.4859,0.0],[28.0,70.4833,0.0],[27.9958,70.4812,0.0],[27.9859,70.4818,0.0],[27.9875,70.4833,0.0],[27.9953,70.4838,0.0],[27.9896,70.4875,0.0],[27.9833,70.4875,23.0813],[27.9792,70.4896,14.3627],[27.9646,70.4896,0.0],[27.9609,70.4859,0.0],[27.9688,70.4854,6.9408],[27.9703,70.4838,7.5074],[27.9562,70.4833,0.0],[27.9474,70.4776,0.0],[27.9401,70.4766,0.0],[27.9307,70.4693,0.0],[27.9255,70.4693,0.0],[27.9349,70.4776,0.0],[27.9339,70.4807,0.0],[27.9536,70.4859,0.0],[27.9646,70.4938,31.3294],[27.9708,70.4917,0.0],[27.9745,70.4922,0.0],[27.9766,70.4943,0.0],[27.9755,70.4974,43.5801],[27.9875,70.4979,0.0],[27.9932,70.5016,28.8694],[27.9833,70.5021,0.0],[27.9792,70.5,19.0586],[27.9667,70.5,0.0],[27.9625,70.4979,48.3865],[27.9542,70.5,0.0],[27.9443,70.4974,0.0],[27.9354,70.4917,0.0],[27.925,70.4917,0.0],[27.9208,70.4896,0.0],[27.9146,70.4896,0.0],[27.9083,70.4854,5.6659],[27.8922,70.4828,0.0],[27.887,70.4776,0.0],[27.8693,70.4745,0.0],[27.8807,70.4703,0.0],[27.8786,70.4672,0.0],[27.8651,70.4578,0.0],[27.8672,70.4547,0.0],[27.8766,70.4537,27.742],[27.875,70.4521,24.3721],[27.8693,70.4516,0.0],[27.8703,70.4484,0.0],[27.8693,70.4464,0.0],[27.8724,70.4453,5.389],[27.8745,70.4422,13.7907],[27.8693,70.438,0.0],[27.8766,70.4349,0.0],[27.8734,70.4328,0.0],[27.8766,70.4307,0.0],[27.8745,70.4276,1.0415],[27.8646,70.4271,0.9802],[27.8547,70.4318,8.167],[27.8526,70.4349,10.8591],[27.8599,70.4401,0.0],[27.8557,70.4432,0.0],[27.8297,70.4443,0.0],[27.8328,70.4484,0.0],[27.8318,70.4516,41.806],[27.8349,70.4547,0.0],[27.8339,70.4578,9.9541],[27.8411,70.463,0.0],[27.838,70.4661,0.0],[27.8411,70.4682,0.0],[27.838,70.4703,110.428],[27.8464,70.4766,0.0],[27.8578,70.4807,0.0],[27.8521,70.4833,98.1897],[27.8375,70.4833,0.0],[27.8333,70.4812,0.0],[27.825,70.4812,0.0],[27.8172,70.487,0.0],[27.8245,70.488,0.0],[27.8312,70.4917,2.3498],[27.8396,70.4896,0.0],[27.8495,70.4922,0.0],[27.8563,70.4958,22.7651],[27.8646,70.4938,0.0],[27.8708,70.4979,0.0],[27.8875,70.4979,0.0],[27.9016,70.5068,0.0],[27.8984,70.5099,0.0],[27.9026,70.512,0.0],[27.9208,70.5167,0.0],[27.9333,70.5167,0.0],[27.9443,70.5245,0.0],[27.9542,70.5271,7.071],[27.9729,70.5271,0.0],[27.9771,70.5292,0.0],[27.9813,70.5292,0.0],[27.9901,70.5349,12.4674],[28.0042,70.5375,0.0],[28.0125,70.5417,0.0],[28.0229,70.5417,0.0],[28.0313,70.5458,7.1802],[28.0396,70.5437,0.0],[28.0411,70.5453,0.0],[28.038,70.5474,3.8921],[28.05,70.5479,0.0],[28.0542,70.55,11.9333],[28.0729,70.55,0.0],[28.0745,70.5516,0.0],[28.0714,70.5526,0.0],[28.0729,70.5542,0.0],[28.0854,70.5542,0.0],[28.0922,70.5599,28.5282],[28.1,70.5604,0.0],[28.1099,70.563,0.0],[28.1167,70.5667,0.0],[28.1292,70.5687,0.0],[28.1396,70.575,16.9131],[28.1458,70.575,0.0],[28.1667,70.5813,0.0],[28.1745,70.5818,0.0],[28.1714,70.5849,24.4486],[28.1938,70.5917,0.0],[28.2016,70.5922,0.0],[28.2172,70.6036,18.6947],[28.237,70.6088,0.0],[28.2339,70.612,0.0],[28.2495,70.6172,0.0],[28.2516,70.6203,0.0],[28.2484,70.6224,0.0],[28.2547,70.6266,13.3236],[28.2641,70.6276,0.0],[28.2609,70.6307,79.735],[28.2745,70.6401,0.0],[28.2766,70.6422,0.0],[28.2755,70.6453,7.052],[28.2828,70.6464,0.0],[28.2818,70.6495,0.0],[28.2839,70.6516,29.5082],[28.2953,70.6589,0.0],[28.2922,70.6609,9.4111],[28.2932,70.6641,0.0],[28.2922,70.6661,0.0],[28.3016,70.6734,0.0],[28.3005,70.6766,0.0],[28.3078,70.6818,0.0],[28.3047,70.6849,0.0],[28.3078,70.687,0.0],[28.2984,70.688,201.994],[28.2922,70.6922,325.2275],[28.2938,70.6937,223.5426],[28.2995,70.6943,8.2935],[28.2984,70.7016,0.0],[28.2995,70.7037,0.0],[28.288,70.7109,54.2055],[28.2891,70.7141,0.0],[28.2828,70.7182,95.8734],[28.2792,70.7188,87.3305],[28.2716,70.7167,398.713],[28.2593,70.6866,466.6534],[28.2459,70.6871,452.7212],[28.2332,70.6559,533.6247],[28.2198,70.6564,508.8721],[28.218,70.652,497.7974],[28.2046,70.6525,422.1327],[28.2028,70.6481,425.7531],[28.1894,70.6486,426.9099],[28.1876,70.6442,447.7871],[28.1742,70.6447,457.3152],[28.1706,70.6358,520.0613],[28.1573,70.6364,541.2474],[28.1555,70.6319,583.9147],[28.1421,70.6325,601.5898],[28.1403,70.628,622.3755],[28.1269,70.6286,607.209],[28.1251,70.6241,600.5132],[28.1118,70.6246,586.2623],[28.11,70.6202,615.9903],[28.0966,70.6207,595.7],[28.0931,70.6118,605.6832],[28.0797,70.6124,599.0356],[28.0779,70.6079,563.4675],[28.0646,70.6085,559.59],[28.0628,70.604,529.9919],[28.0494,70.6045,513.4199],[28.0477,70.6001,482.6093],[28.0343,70.6006,463.4518],[28.0325,70.5962,419.7481],[28.0192,70.5967,422.5969],[28.0157,70.5878,461.8181],[28.0023,70.5883,472.074],[28.0006,70.5839,491.8477],[27.9872,70.5844,515.3515],[27.9855,70.58,521.3458],[27.9721,70.5805,552.8792],[27.9704,70.576,549.3669],[27.957,70.5766,555.8777],[27.9553,70.5721,578.4352],[27.9419,70.5727,609.4031],[27.9385,70.5637,638.6022],[27.9251,70.5643,657.3937],[27.9234,70.5598,665.0967],[27.8967,70.5609,603.6344],[27.895,70.5565,553.5908],[27.8683,70.5575,628.7969],[27.8666,70.5531,606.4205],[27.8399,70.5542,550.5782],[27.8382,70.5497,500.5455],[27.8115,70.5508,390.9739],[27.8098,70.5463,384.972],[27.7965,70.5469,419.4583],[27.7948,70.5424,362.0721],[27.7681,70.5435,484.2974],[27.7664,70.539,440.3419],[27.7531,70.5395,468.5901],[27.7514,70.5351,477.5871],[27.7381,70.5356,476.9859],[27.7364,70.5311,508.7769],[27.7231,70.5317,508.6241],[27.7214,70.5272,443.9053],[27.7081,70.5277,613.1902],[27.7064,70.5233,439.8508],[27.6931,70.5238,448.1638],[27.6914,70.5193,450.5878],[27.6781,70.5199,512.3019],[27.6764,70.5154,381.3077],[27.6631,70.5159,412.5261],[27.6614,70.5114,371.3473],[27.6481,70.512,389.0279],[27.6464,70.5075,396.252],[27.6331,70.508,391.2341],[27.6315,70.5036,363.4052],[27.6181,70.5041,382.0227],[27.6132,70.4907,366.2382],[27.5999,70.4912,369.5674],[27.5949,70.4778,336.7884],[27.5816,70.4783,340.3181],[27.5766,70.4649,365.6049],[27.5634,70.4654,374.2195],[27.5584,70.452,325.2653],[27.5451,70.4525,370.3885],[27.5419,70.4436,354.0324],[27.5286,70.4441,383.0382],[27.5253,70.4351,330.2142],[27.5121,70.4357,320.7664],[27.5072,70.4222,350.1514],[27.4939,70.4227,345.8191],[27.4906,70.4138,397.7618],[27.4774,70.4143,347.7964],[27.4758,70.4098,376.8758],[27.4625,70.4104,351.6841],[27.4609,70.4059,381.9264],[27.4476,70.4064,413.3194],[27.4444,70.3975,410.7077],[27.4312,70.398,440.8069],[27.4296,70.3935,421.4001],[27.4163,70.394,432.8426],[27.4147,70.3895,417.0198],[27.4015,70.3901,393.823],[27.3967,70.3766,436.0726],[27.3834,70.3771,430.3335],[27.3643,70.3234,358.74],[27.3775,70.3229,358.7928],[27.3663,70.2916,368.041],[27.3531,70.2921,355.856],[27.3516,70.2876,351.7081],[27.3252,70.2886,334.3895],[27.3236,70.2841,331.5773],[27.3105,70.2847,358.9755],[27.3089,70.2802,339.7148],[27.2957,70.2807,343.361],[27.2941,70.2762,357.6862],[27.281,70.2767,345.2388],[27.2794,70.2722,344.0287],[27.2531,70.2732,325.5341],[27.2515,70.2688,332.7214],[27.2383,70.2693,314.3108],[27.2368,70.2648,315.3793],[27.2236,70.2653,315.2097],[27.222,70.2608,299.6829],[27.2089,70.2613,312.0915],[27.2073,70.2569,299.426],[27.1942,70.2574,313.1096],[27.1926,70.2529,298.7674],[27.1663,70.2539,287.752],[27.1648,70.2494,288.1096],[27.1516,70.2499,284.2314],[27.1501,70.2454,284.3556],[27.1369,70.2459,283.257],[27.1354,70.2414,282.0104],[27.1222,70.2419,296.6774],[27.1207,70.2375,292.5578],[27.0944,70.2384,281.5581],[27.0929,70.234,277.6356],[27.0797,70.2345,268.82],[27.0782,70.23,262.2415],[27.065,70.2305,261.9229],[27.0635,70.226,267.2952],[27.0504,70.2265,267.5419],[27.0489,70.222,280.3795],[27.0226,70.223,289.4298],[27.0211,70.2185,327.9352],[27.0079,70.219,324.4807],[26.9854,70.1518,372.9153],[26.933,70.1537,365.9053],[26.9315,70.1493,385.9376],[26.8922,70.1507,290.7737],[26.8908,70.1462,290.6675],[26.8384,70.1481,294.1251],[26.8369,70.1437,299.8711],[26.7845,70.1456,410.5511],[26.783,70.1411,440.338],[26.7307,70.143,569.0422],[26.7292,70.1385,569.15],[26.703,70.1394,534.4597],[26.7016,70.1349,544.3408],[26.6754,70.1359,516.1776],[26.674,70.1314,521.2089],[26.6478,70.1323,522.8627],[26.6464,70.1278,525.7565],[26.6202,70.1288,486.6602],[26.6188,70.1243,485.8713],[26.5926,70.1252,547.0513],[26.5912,70.1207,536.0338],[26.5519,70.1221,644.6058],[26.5505,70.1176,633.5985],[26.5243,70.1185,650.4282],[26.5229,70.1141,653.214],[26.4967,70.115,582.0215],[26.4954,70.1105,575.3374],[26.4692,70.1114,596.1037],[26.4678,70.1069,600.1013],[26.4416,70.1078,652.2864],[26.4403,70.1033,626.9704],[26.4141,70.1042,660.0628],[26.4127,70.0997,647.1281],[26.3866,70.1006,706.895],[26.3852,70.0961,675.3543],[26.3591,70.097,705.285],[26.3577,70.0925,710.8807],[26.3315,70.0934,751.2429],[26.3302,70.0889,756.1602],[26.291,70.0903,766.9705],[26.2896,70.0858,785.744],[26.2635,70.0866,723.1807],[26.2621,70.0822,770.9043],[26.236,70.083,710.8327],[26.2347,70.0786,771.9769],[26.2216,70.079,749.0303],[26.2203,70.0745,738.754],[26.2333,70.0741,750.2141],[26.228,70.0561,684.4132],[26.2411,70.0557,734.4306],[26.2358,70.0377,622.2538],[26.2488,70.0373,625.5757],[26.2435,70.0194,916.4381],[26.2565,70.0189,826.1722],[26.2512,70.001,906.2672],[26.2642,70.0006,962.74],[26.2629,69.9961,957.9531],[26.2499,69.9965,877.9797],[26.2485,69.992,695.5378],[26.2225,69.9929,586.0755],[26.2212,69.9884,458.8974],[26.2082,69.9888,493.5714],[26.2069,69.9844,586.1648],[26.1808,69.9852,882.6872],[26.1795,69.9807,986.1315],[26.1665,69.9812,974.858],[26.1652,69.9767,858.0861],[26.1392,69.9775,857.4434],[26.1379,69.9731,770.4126],[26.1249,69.9735,792.8944],[26.1236,69.969,778.017],[26.0976,69.9698,553.0297],[26.0989,69.9743,545.5198],[26.0598,69.9756,626.0092],[26.0611,69.9801,702.7661],[26.0221,69.9814,675.0835],[26.0208,69.9769,749.0147],[25.9818,69.9781,908.9909],[25.9805,69.9736,938.1733],[25.9545,69.9745,902.1522],[25.9532,69.97,909.1874],[25.9142,69.9712,941.9654],[25.9129,69.9667,837.2195],[25.8869,69.9676,770.7201],[25.8857,69.9631,725.0193],[25.8727,69.9635,765.6782],[25.8714,69.959,831.9036],[25.8584,69.9594,792.4126],[25.8572,69.9549,885.2499],[25.8442,69.9553,859.2003],[25.8429,69.9508,958.1647],[25.8299,69.9512,948.0714],[25.8287,69.9468,854.7097],[25.8157,69.9472,749.5963],[25.812,69.9337,649.3677],[25.799,69.9341,612.9113],[25.7966,69.9251,581.515],[25.7836,69.9255,564.4713],[25.7811,69.9166,609.3602],[25.7682,69.917,622.7474],[25.7657,69.908,741.5428],[25.7527,69.9084,698.5178],[25.7503,69.8994,683.5602],[25.7633,69.899,715.3712],[25.7621,69.8945,645.0798],[25.788,69.8937,633.5148],[25.7868,69.8892,608.8143],[25.8127,69.8884,589.2375],[25.809,69.8749,606.53],[25.7961,69.8754,560.1481],[25.7936,69.8664,589.5756],[25.7807,69.8668,575.5611],[25.778199999999998,69.8578,596.4066],[25.8171,69.8566,666.3931],[25.8183,69.8611,708.382],[25.8959,69.8586,539.8912],[25.8947,69.8541,465.5334],[25.9076,69.8537,455.5501],[25.9051,69.8447,439.1745],[25.9181,69.8443,486.3955],[25.9168,69.8399,451.972],[25.9556,69.8386,538.7418],[25.9569,69.8431,595.9697],[26.0086,69.8414,487.8635],[26.0073,69.8369,469.8607],[26.0203,69.8365,459.7599],[26.0215,69.841,468.6152],[26.0603,69.8397,478.1362],[26.0616,69.8442,504.486],[26.0745,69.8438,520.8184],[26.072,69.8348,496.5294],[26.0849,69.8344,514.283],[26.0823,69.8254,454.2527],[26.0952,69.825,467.008],[26.0927,69.816,527.2669],[26.2476,69.8109,114.2085],[26.2502,69.8199,115.537],[26.276,69.819,180.013],[26.2773,69.8235,107.0443],[26.2903,69.823,159.663],[26.2916,69.8275,107.962],[26.3045,69.8271,141.3744],[26.3058,69.8316,125.0726],[26.3187,69.8311,142.4294],[26.3201,69.8356,121.4217],[26.333,69.8352,114.0157],[26.3343,69.8396,105.8911],[26.3473,69.8392,112.679],[26.3486,69.8437,112.7765],[26.3615,69.8432,122.7626],[26.3628,69.8477,107.8406],[26.3758,69.8473,159.6893],[26.3785,69.8562,108.2114],[26.3914,69.8558,141.0557],[26.3954,69.8693,110.0869],[26.4084,69.8688,107.946],[26.4165,69.8957,166.0962],[26.4035,69.8962,109.8862],[26.4049,69.9006,106.2911],[26.4179,69.9002,156.6242],[26.4192,69.9047,103.0863],[26.4322,69.9042,199.1616],[26.4349,69.9132,130.3492],[26.4479,69.9127,161.7776],[26.4506,69.9217,111.899],[26.4635,69.9213,191.2582],[26.4649,69.9257,232.2778],[26.4519,69.9262,115.1154],[26.4547,69.9352,107.8357],[26.4677,69.9347,133.5417],[26.469,69.9392,107.3886],[26.482,69.9387,115.1234],[26.4834,69.9432,100.7416],[26.4964,69.9428,129.9878],[26.4977,69.9473,163.1499],[26.5497,69.9454,120.8608],[26.5511,69.9499,112.7473],[26.564,69.9495,119.4194],[26.5654,69.9539,183.1272],[26.5914,69.953,122.176],[26.5928,69.9575,150.1023],[26.6188,69.9566,105.7985],[26.6202,69.9611,119.4993],[26.6591,69.9597,105.1388],[26.6606,69.9642,123.3092],[26.6865,69.9632,102.8645],[26.6851,69.9587,90.9458],[26.6981,69.9583,121.9135],[26.6953,69.9493,91.5315],[26.7082,69.9489,107.6213],[26.7068,69.9444,125.6406],[26.7328,69.9434,117.4039],[26.7342,69.9479,80.9672],[26.7472,69.9474,108.368],[26.7486,69.9519,83.3445],[26.7616,69.9515,95.1291],[26.763,69.9559,79.9063],[26.776,69.9555,88.9651],[26.7774,69.96,102.2095],[26.8294,69.958,81.6811],[26.8308,69.9625,86.9188],[26.8568,69.9616,82.74],[26.851,69.9437,106.9208],[26.864,69.9432,91.3256],[26.8625,69.9387,74.1077],[26.8755,69.9382,126.5618],[26.874,69.9337,73.0118],[26.9129,69.9323,123.5318],[26.9144,69.9368,72.7101],[26.9274,69.9363,80.0006],[26.9288,69.9408,94.9778],[26.9807,69.9388,106.123],[26.9792,69.9343,85.9421],[26.9922,69.9339,102.624],[26.9907,69.9294,104.7297],[27.0037,69.9289,136.9886],[27.0022,69.9244,77.3851],[27.0152,69.9239,157.6682],[27.0122,69.915,80.9697],[27.0252,69.9145,64.2143],[27.0237,69.91,93.2853],[27.0496,69.909,65.8813],[27.0525,69.918,79.1541],[27.1044,69.916,127.4521],[27.1059,69.9205,62.5679],[27.1188,69.92,105.0156],[27.1233,69.9334,82.9537],[27.1622,69.9319,101.6656],[27.1637,69.9364,63.9298],[27.1767,69.9359,62.0975],[27.1785,69.9404,73.491],[27.2041,69.9394,94.8524],[27.2057,69.9439,63.746],[27.2186,69.9434,55.9752],[27.2202,69.9478,60.1035],[27.2461,69.9468,55.8051],[27.2476,69.9513,58.4559],[27.2865,69.9498,117.0586],[27.2881,69.9543,54.709],[27.3011,69.9538,61.183],[27.3041,69.9627,56.9128],[27.2912,69.9632,89.9442],[27.2943,69.9722,64.4206],[27.2813,69.9727,51.1399],[27.2859,69.9861,60.5184],[27.2989,69.9856,50.6328],[27.3005,69.9901,58.2055],[27.3524,69.988,85.8991],[27.354,69.9925,56.5195],[27.367,69.992,92.3609],[27.3685,69.9965,46.5],[27.3815,69.996,108.6649],[27.3847,70.0049,59.6793],[27.3977,70.0044,78.5279],[27.4008,70.0133,47.1615],[27.4138,70.0128,71.4871],[27.4154,70.0173,45.0],[27.4284,70.0168,66.302],[27.43,70.0213,48.9853],[27.482,70.0192,59.2303],[27.4836,70.0237,54.8035],[27.5356,70.0216,77.9121],[27.5485,70.0574,40.5],[27.5615,70.0568,59.7055],[27.5631,70.0613,40.0],[27.5761,70.0608,62.5913],[27.5794,70.0697,38.5],[27.6054,70.0687,71.5739],[27.607,70.0731,36.0],[27.6201,70.0726,55.2116],[27.6217,70.0771,60.7741],[27.6739,70.075,68.8815],[27.6755,70.0794,51.3709],[27.7016,70.0784,102.1353],[27.6999,70.0739,53.4822],[27.713,70.0733,51.843],[27.7113,70.0689,20.5],[27.7374,70.0678,48.6892],[27.7357,70.0633,19.0],[27.7488,70.0628,18.5],[27.7504,70.0673,48.7299],[27.7634,70.0667,17.5],[27.7651,70.0712,28.2056],[27.7781,70.0706,17.0],[27.7798,70.0751,45.904],[27.7928,70.0746,16.0],[27.7945,70.079,58.0121],[27.8336,70.0774,20.9541],[27.8353,70.0819,20.0468],[27.8613,70.0808,27.0291],[27.863,70.0853,13.5],[27.9021,70.0836,20.936],[27.9038,70.0881,31.6122],[27.9299,70.087,36.1989],[27.9316,70.0915,19.9747],[27.9576,70.0903,25.218],[27.956,70.0859,81.2309],[27.969,70.0853,31.2814],[27.9639,70.0719,159.7732],[27.9769,70.0714,139.2012],[27.9718,70.0579,246.6237],[27.9848,70.0574,205.0341],[27.9764,70.035,116.7266],[27.9894,70.0345,129.2805],[27.9809,70.0121,29.0081],[27.9939,70.0116,12.7989],[27.9922,70.0071,12.7922],[28.0052,70.0065,12.7047],[28.0035,70.0021,12.5613],[28.0164,70.0015,12.5954],[28.0147,69.997,36.5111],[28.0277,69.9965,101.9936],[28.0243,69.9875,87.0235],[28.0373,69.987,119.2211],[28.0356,69.9825,101.5405],[28.0485,69.9819,142.6173],[28.0468,69.9775,152.8764],[28.0598,69.9769,226.905],[28.0581,69.9724,208.5137],[28.0711,69.9719,210.859],[28.0693,69.9674,192.4385],[28.0823,69.9669,171.5177],[28.0806,69.9624,145.5769],[28.0936,69.9618,145.557],[28.0901,69.9529,181.0673],[28.1031,69.9523,152.7378],[28.1014,69.9478,128.5329],[28.1143,69.9473,145.4728],[28.1126,69.9428,148.4877],[28.1255,69.9422,151.1632],[28.1238,69.9378,154.7874],[28.1368,69.9372,178.3069],[28.135,69.9327,178.4895],[28.148,69.9322,191.433],[28.1463,69.9277,188.7807],[28.1592,69.9271,229.3382],[28.1575,69.9227,265.6915],[28.1704,69.9221,229.3318],[28.1687,69.9176,211.3721],[28.1945,69.9165,252.0013],[28.1928,69.912,223.6669],[28.2186,69.9109,224.4505],[28.2169,69.9064,224.1895],[28.2427,69.9053,225.1886],[28.241,69.9008,254.5176],[28.2668,69.8996,226.2333],[28.2651,69.8952,231.015],[28.3038,69.8934,252.9561],[28.3021,69.889,244.6381],[28.3279,69.8878,256.4587],[28.3261,69.8834,245.7955],[28.3482,69.8824,276.248]]],
[[[27.9818,70.4932,8.3341],[27.9833,70.4917,5.7963],[28.0057,70.4922,0.0],[28.0042,70.4938,0.0],[27.9818,70.4932,8.3341]]],
[[[28.0641,70.5036,0.0],[28.0667,70.5021,0.0],[28.0703,70.5026,0.0],[28.0786,70.5099,0.0],[28.075,70.5104,0.0],[28.0703,70.5068,0.0],[28.0609,70.5057,0.0],[28.0641,70.5036,0.0]]],
[[[28.0797,70.5141,0.0],[28.0833,70.5125,0.0],[28.087,70.5162,0.0],[28.0833,70.5167,0.0],[28.0797,70.5141,0.0]]],
[[[28.1276,70.4807,0.0],[28.1292,70.4792,0.0],[28.1328,70.4797,0.0],[28.1313,70.4812,0.0],[28.1276,70.4807,0.0]]],
[[[28.513,70.4922,4.6762],[28.5167,70.4917,76.3111],[28.5182,70.4932,30.353],[28.5146,70.4938,0.0],[28.513,70.4922,4.6762]]],
[[[28.4255,70.5911,0.0],[28.4271,70.5896,0.0],[28.4307,70.5901,0.0],[28.4292,70.5917,0.0],[28.4255,70.5911,0.0]]],
[[[28.3047,70.7328,0.0],[28.3063,70.7312,0.0],[28.3099,70.7318,0.0],[28.3083,70.7333,0.0],[28.3047,70.7328,0.0]]]]}}