{"type": "Feature","bbox": [8.9023,62.2547,10.0839,62.8092],"geometry": {"type": "MultiPolygon","coordinates": [[[[10.0758,62.4207,1005.1127],[10.0743,62.4251,988.0723],[10.0839,62.4258,1006.3903],[10.0765,62.448,962.4186],[10.0669,62.4473,970.7947],[10.0595,62.4695,994.4177],[10.0499,62.4688,992.7338],[10.0425,62.491,1036.3701],[10.0328,62.4903,1005.6641],[10.0254,62.5125,1016.3082],[10.0158,62.5118,1013.9066],[9.9919,62.5828,1004.0504],[9.9822,62.5821,1061.5287],[9.9657,62.6309,847.2305],[9.9753,62.6316,831.8158],[9.9708,62.6449,856.0646],[9.9805,62.6455,820.1705],[9.976,62.6589,929.692],[9.9663,62.6582,893.3068],[9.9648,62.6626,894.2181],[9.9551,62.6619,818.1173],[9.9536,62.6664,740.7863],[9.9439,62.6657,643.9832],[9.9394,62.679,497.0749],[9.9297,62.6783,497.6927],[9.9282,62.6827,521.2347],[9.9379,62.6834,486.149],[9.9364,62.6879,482.4776],[9.9461,62.6885,515.1337],[9.9445,62.693,496.7841],[9.9542,62.6937,518.6756],[9.9527,62.6981,477.4805],[9.943,62.6974,476.4469],[9.9415,62.7018,535.259],[9.9318,62.7012,551.7504],[9.9303,62.7056,605.908],[9.9206,62.7049,587.8838],[9.9191,62.7093,606.2378],[9.9094,62.7087,586.9493],[9.9064,62.7175,587.4543],[9.9161,62.7182,614.6243],[9.913,62.7271,587.749],[9.8646,62.7236,635.7941],[9.8661,62.7192,613.881],[9.8177,62.7157,695.604],[9.8162,62.7202,718.9838],[9.8065,62.7195,709.0158],[9.8049,62.7239,751.2394],[9.7952,62.7232,755.6151],[9.7937,62.7277,775.765],[9.7259,62.7228,1132.2646],[9.7275,62.7183,1207.5366],[9.7178,62.7176,1223.6306],[9.7162,62.7221,1109.637],[9.7065,62.7214,1225.4474],[9.705,62.7258,1152.6624],[9.6953,62.7251,1097.1996],[9.6937,62.7295,1056.326],[9.6841,62.7288,1075.4559],[9.6825,62.7333,1082.7461],[9.6728,62.7326,1089.801],[9.6713,62.737,1128.9778],[9.6616,62.7363,1142.9142],[9.66,62.7407,1117.4349],[9.6503,62.74,1111.9626],[9.6488,62.7444,1099.6681],[9.6390999999999991,62.7437,1084.8799],[9.6375,62.7482,1074.7878],[9.6278,62.7475,1076.7449],[9.6263,62.7519,1049.6371],[9.6166,62.7512,1109.5522],[9.615,62.7556,990.8491],[9.6053,62.7549,913.8143],[9.6022,62.7638,771.5613],[9.5925,62.7631,753.9195],[9.5893,62.7719,754.6644],[9.5796,62.7712,794.4308],[9.5781,62.7757,826.1138],[9.5587,62.7742,875.5404],[9.5571,62.7787,812.9541],[9.5668,62.7794,865.2864],[9.5621,62.7927,795.8101],[9.533,62.7905,846.853],[9.5345,62.7861,829.3815],[9.5248,62.7854,868.5153],[9.5264,62.781,838.5593],[9.5167,62.7802,847.2839],[9.5151,62.7847,877.8215],[9.5054,62.784,871.4599],[9.5038,62.7884,889.5671],[9.4941,62.7877,870.9661],[9.4926,62.7921,885.5505],[9.4732,62.7907,960.4023],[9.4716,62.7951,1046.7775],[9.4619,62.7944,1091.0372],[9.4603,62.7988,1188.0674],[9.4506,62.7981,1250.8362],[9.449,62.8025,1265.0405],[9.4393,62.8018,1175.3319],[9.4377,62.8062,1193.5168],[9.4183,62.8048,1218.4275],[9.4167,62.8092,1333.797],[9.3584,62.8049,999.7883],[9.36,62.8005,1141.5918],[9.3018,62.7961,859.9412],[9.3035,62.7917,914.5925],[9.255,62.788,1192.583],[9.2566,62.7836,1122.7589],[9.1984,62.7792,1218.4299],[9.2001,62.7748,1256.802],[9.1419,62.7703,792.0663],[9.1436,62.7659,797.5535],[9.0855,62.7615,867.121],[9.0871,62.757,856.3578],[9.0387,62.7533,922.7263],[9.0404,62.7489,1098.0029],[8.9823,62.7444,1437.1323],[8.9839,62.74,1337.5417],[8.9549,62.7377,997.9489],[8.9566,62.7333,884.6785],[8.9373,62.7318,796.6245],[8.9389,62.7274,760.0652],[8.9196,62.7259,876.1817],[8.9246,62.7126,1221.5211],[8.9149,62.7118,1293.3987],[8.9183,62.703,1081.8586],[8.9086,62.7022,1106.7699],[8.9119,62.6934,1074.0544],[8.9023,62.6926,868.7957],[8.9073,62.6794,1112.6371],[8.9266,62.6809,945.7086],[8.9282,62.6764,1099.0623],[8.9379,62.6772,1013.9892],[8.9396,62.6728,1136.3823],[8.9492,62.6735,1046.4309],[8.9509,62.6691,1110.2041],[8.9605,62.6699,1111.8135],[8.9622,62.6654,1139.1127],[8.9815,62.6669,1288.7625],[8.9831,62.6625,1395.9376],[8.9928,62.6633,1134.4211],[8.9944,62.6588,1116.3246],[9.0041,62.6596,1240.8823],[9.0057,62.6552,1079.8842],[9.025,62.6567,1309.5206],[9.0283,62.6478,1262.0964],[9.038,62.6486,1398.9033],[9.0413,62.6397,1458.1852],[9.0509,62.6404,1302.3499],[9.0542,62.6316,1290.3934],[9.0638,62.6323,1416.8073],[9.0671,62.6235,1499.2849],[9.0767,62.6242,1594.5856],[9.08,62.6154,1268.0929],[9.0897,62.6161,1316.2789],[9.0929,62.6073,1076.1678],[9.1026,62.608,1281.4799],[9.1058,62.5992,1060.4147],[9.1155,62.5999,1254.7516],[9.1187,62.5911,1013.0703],[9.1283,62.5918,1073.6334],[9.1316,62.583,812.2183],[9.1412,62.5837,838.1597],[9.1445,62.5748,235.2516],[9.1541,62.5756,493.4106],[9.1557,62.5712,229.9024],[9.2135,62.5756,476.1863],[9.2151,62.5711,681.4455],[9.2247,62.5719,678.0181],[9.2344,62.5453,1241.8925],[9.2248,62.5446,1281.6177],[9.2296,62.5313,1248.6427],[9.22,62.5306,1253.4171],[9.2216,62.5261,1235.292],[9.212,62.5254,1225.7339],[9.2152,62.5166,1223.938],[9.2056,62.5158,1177.3848],[9.2072,62.5114,1018.5457],[9.1976,62.5107,964.471],[9.2056,62.4885,1608.7668],[9.196,62.4878,1595.921],[9.1993,62.4789,1561.4337],[9.1897,62.4782,1653.6628],[9.1929,62.4693,1525.233],[9.1833,62.4686,1507.9297],[9.1946,62.4376,1633.8123],[9.185,62.4369,1602.4144],[9.1866,62.4325,1467.0345],[9.177,62.4317,1348.9501],[9.1786,62.4273,1440.9485],[9.1691,62.4266,1510.2904],[9.1707,62.4221,1451.0068],[9.1611,62.4214,1575.3291],[9.1643,62.4126,1493.2477],[9.1547,62.4118,1528.9736],[9.1563,62.4074,1617.7666],[9.1468,62.4067,1639.2786],[9.1484,62.4022,1620.0306],[9.1388,62.4015,1633.797],[9.142,62.3926,1598.5081],[9.1133,62.3904,1731.7472],[9.115,62.386,1673.7661],[9.0958,62.3845,1788.6345],[9.0975,62.3801,1776.567],[9.0688,62.3779,1655.7156],[9.0704,62.3734,1543.1926],[9.0608,62.3727,1970.428],[9.0625,62.3683,1797.1887],[9.0816,62.3697,1541.963],[9.0832,62.3653,1550.8231],[9.0928,62.3661,1530.3],[9.0944,62.3616,1645.9221],[9.1135,62.3631,1639.2068],[9.1151,62.3587,1481.7468],[9.1342,62.3602,1440.3108],[9.1358,62.3558,1571.7073],[9.1549,62.3572,1399.7576],[9.1565,62.3528,1324.2954],[9.1756,62.3543,1301.6312],[9.1773,62.3498,1310.9943],[9.1868,62.3506,1327.2294],[9.1884,62.3462,1395.6503],[9.2075,62.3476,1409.5698],[9.2091,62.3432,1549.054],[9.2282,62.3447,1546.3898],[9.2298,62.3402,1600.4934],[9.2489,62.3417,1634.4884],[9.2505,62.3373,1683.3486],[9.2601,62.338,1711.7267],[9.2617,62.3336,1774.9554],[9.2808,62.335,1698.3127],[9.2823,62.3306,1732.9344],[9.3015,62.3321,1695.0089],[9.303,62.3276,1702.2688],[9.3126,62.3284,1651.3688],[9.3142,62.3239,1604.4313],[9.3333,62.3254,1579.6594],[9.3348,62.321,1583.1692],[9.3539,62.3224,1531.8579],[9.3555,62.318,1614.9318],[9.3651,62.3187,1641.1969],[9.3666,62.3143,1590.4752],[9.3857,62.3157,1516.9336],[9.3873,62.3113,1547.3809],[9.3969,62.312,1461.9181],[9.3984,62.3076,1449.6552],[9.4175,62.309,1406.891],[9.4191,62.3046,1425.33],[9.4286,62.3053,1371.0951],[9.4302,62.3009,1339.832],[9.4493,62.3023,1326.4955],[9.4508,62.2979,1283.1575],[9.4699,62.2993,1489.0317],[9.4715,62.2949,1485.4943],[9.481,62.2956,1557.3713],[9.4826,62.2912,1556.4677],[9.4921,62.2919,1590.7727],[9.4952,62.2831,1432.8309],[9.5048,62.2838,1364.4738],[9.5079,62.2749,1096.8134],[9.5174,62.2756,1087.3254],[9.519,62.2712,1087.2517],[9.538,62.2726,1060.0591],[9.5396,62.2682,1054.2097],[9.5491,62.2689,1025.4597],[9.5507,62.2645,1004.2588],[9.5697,62.2659,964.9017],[9.5713,62.2615,992.4207],[9.5808,62.2622,992.2635],[9.5824,62.2577,1027.1794],[9.6014,62.2592,1027.7296],[9.603,62.2547,1069.179],[9.6316,62.2568,1020.1757],[9.63,62.2613,993.644],[9.7063,62.2669,1147.1572],[9.7048,62.2713,1181.9139],[9.7716,62.2762,1105.1974],[9.7701,62.2806,1135.2238],[9.7892,62.282,1107.9229],[9.7877,62.2865,1106.7224],[9.7972,62.2872,1102.3785],[9.7957,62.2916,1123.4125],[9.8053,62.2923,1118.7042],[9.8038,62.2967,1121.7715],[9.8133,62.2974,1089.0115],[9.8118,62.3019,1090.7592],[9.8214,62.3026,1049.9885],[9.8198,62.307,1057.3529],[9.8294,62.3077,1029.6389],[9.8204,62.3343,1081.5662],[9.8299,62.335,1035.4351],[9.8239,62.3527,1121.0249],[9.8335,62.3534,1199.4167],[9.8319,62.3578,1255.4475],[9.8415,62.3585,1269.9794],[9.843,62.3541,1210.6736],[9.8526,62.3548,1209.3434],[9.8541,62.3503,1169.1069],[9.8732,62.3517,1107.3945],[9.8747,62.3473,1063.6427],[9.8843,62.348,1054.1018],[9.8858,62.3435,1024.5358],[9.9049,62.3449,1021.0],[9.9034,62.3494,1021.0],[9.9322,62.3514,1233.5991],[9.9307,62.3559,1152.7721],[9.9402,62.3565,1189.0593],[9.9387,62.361,1192.3014],[9.9483,62.3617,1186.4948],[9.9453,62.3705,1203.2893],[9.9549,62.3712,1237.88],[9.9459,62.3978,1408.4348],[9.9843,62.4006,1205.0978],[9.9828,62.405,1214.6775],[10.0116,62.407,1091.8514],[10.0101,62.4115,1108.9108],[10.0485,62.4142,1000.2025],[10.047,62.4186,980.3463],[10.0758,62.4207,1005.1127]]]]}
,"properties": {"GID_2": "NOR.15.13_1","GID_0": "NOR","country": "Norway","GID_1": "NOR.15_1","province": "Sør-Trøndelag","NL_NAME_1": "NA","county": "Oppdal","VARNAME_2": "NA","NL_NAME_2": "NA","TYPE_2": "Kommuner","ENGTYPE_2": "Municipality","CC_2": "NA","HASC_2": "NO.ST.OP","name": "Oppdal.county","area_km2": 2282.499,"hist_schema_id": "Elevation0-9000","hist_area_km2": {"225": 0.186,"250": 0.264,"275": 0.4,"300": 0.469,"325": 0.596,"350": 0.762,"375": 1.348,"400": 2.675,"425": 3.221,"450": 4.666,"475": 7.133,"500": 15.555,"525": 19.68,"550": 30.272,"575": 33.46,"600": 28.905,"625": 25.599,"650": 43.701,"675": 28.634,"700": 28.237,"725": 27.474,"750": 30.172,"775": 31.421,"800": 32.014,"825": 32.515,"850": 36.441,"875": 42.762,"900": 40.275,"925": 43.006,"950": 46.688,"975": 49.877,"1000": 56.411,"1025": 63.798,"1050": 72.396,"1075": 75.946,"1100": 72.001,"1125": 78.255,"1150": 81.315,"1175": 78.787,"1200": 80.117,"1225": 82.192,"1250": 82.823,"1275": 83.964,"1300": 84.485,"1325": 77.061,"1350": 73.152,"1375": 66.676,"1400": 56.191,"1425": 46.153,"1450": 45.014,"1475": 41.387,"1500": 35.631,"1525": 31.364,"1550": 28.285,"1575": 23.614,"1600": 18.878,"1625": 14.811,"1650": 11.592,"1675": 9.572,"1700": 5.916,"1725": 4.98,"1750": 4.106,"1775": 2.898,"1800": 1.798,"1825": 1.199,"1850": 0.737,"1875": 0.393,"1900": 0.069,"1925": 0.059,"1950": 0.059}}}