{"type":"Feature","properties":{"GID_2":"NOR.2.4_1","GID_0":"NOR","country":"Norway","GID_1":"NOR.2_1","province":"Ãstfold","NL_NAME_1":"NA","county":"Eidsberg","VARNAME_2":"NA","NL_NAME_2":"NA","TYPE_2":"Kommuner","ENGTYPE_2":"Municipality","CC_2":"NA","HASC_2":"NO.OF.EI","name":"Eidsberg.county"},
"geometry":{"type": "MultiPolygon","coordinates": [[[[11.4912,59.5934,177.0149],[11.4736,59.5923,179.0105],[11.4725,59.5967,182.4139],[11.4284,59.5938,181.1906],[11.4273,59.5983,141.2008],[11.4097,59.5971,145.8049],[11.4085,59.6016,140.1004],[11.3997,59.601,135.7916],[11.4032,59.5876,138.0456],[11.3856,59.5865,151.5508],[11.3833,59.5954,179.2359],[11.3657,59.5942,210.2689],[11.3645,59.5986,221.202],[11.3557,59.5981,227.5678],[11.3568,59.5936,210.8318],[11.348,59.593,201.6308],[11.3492,59.5886,167.1066],[11.3404,59.588,140.4725],[11.3415,59.5835,133.0538],[11.3239,59.5824,157.2946],[11.3251,59.5779,177.93],[11.3163,59.5773,148.807],[11.3175,59.5729,192.7109],[11.3087,59.5723,162.9517],[11.3098,59.5678,169.0858],[11.301,59.5673,144.4894],[11.2999,59.5717,179.8203],[11.2823,59.5705,148.9819],[11.2811,59.575,172.8337],[11.2723,59.5744,171.7696],[11.27,59.5833,175.6358],[11.2964,59.5851,145.7188],[11.2952,59.5895,135.4158],[11.2864,59.5889,146.1704],[11.2853,59.5934,150.5803],[11.2765,59.5928,168.6363],[11.2741,59.6017,151.0943],[11.2477,59.5999,174.599],[11.2524,59.5821,166.2489],[11.2348,59.5809,160.8009],[11.2359,59.5765,151.8449],[11.2271,59.5759,137.8984],[11.2307,59.5625,146.7681],[11.2219,59.5619,150.3101],[11.2254,59.5486,129.3085],[11.2166,59.548,147.4385],[11.2154,59.5524,193.3553],[11.189,59.5507,122.3612],[11.1902,59.5462,89.2847],[11.1814,59.5456,101.7997],[11.1873,59.5234,101.1173],[11.1961,59.524,69.5743],[11.1984,59.5151,99.8542],[11.2072,59.5157,92.611],[11.2095,59.5068,61.5389],[11.2183,59.5074,24.5],[11.2195,59.5029,51.0685],[11.2283,59.5035,24.5],[11.2306,59.4946,45.826],[11.2394,59.4952,24.5],[11.2405,59.4908,24.5],[11.2317,59.4902,41.1696],[11.2341,59.4813,24.5],[11.2253,59.4807,29.2867],[11.2288,59.4673,24.5],[11.2551,59.4691,136.9382],[11.2563,59.4646,135.9569],[11.2914,59.467,116.1915],[11.2937,59.4581,103.0988],[11.3024,59.4587,116.0992],[11.3059,59.4454,102.8994],[11.3322,59.4471,128.8856],[11.3264,59.4694,138.1427],[11.3177,59.4688,129.0865],[11.3165,59.4732,132.9442],[11.3341,59.4744,132.2911],[11.3352,59.4699,129.969],[11.3528,59.4711,117.1696],[11.3551,59.4622,128.9643],[11.3638,59.4628,127.9829],[11.365,59.4584,131.5651],[11.3825,59.4595,138.8274],[11.3814,59.464,138.23],[11.3901,59.4646,154.6021],[11.3879,59.4735,143.8027],[11.3966,59.474,145.6254],[11.3955,59.4785,154.2574],[11.4218,59.4802,218.3768],[11.423,59.4758,210.0742],[11.4405,59.4769,227.3914],[11.4416,59.4725,221.5723],[11.4592,59.4736,258.4819],[11.4603,59.4692,255.9329],[11.4954,59.4715,234.698],[11.4966,59.467,241.8656],[11.5404,59.4699,240.4842],[11.5382,59.4788,234.3803],[11.5294,59.4782,231.6442],[11.5181,59.5228,188.4313],[11.5269,59.5233,227.321],[11.5247,59.5322,183.798],[11.5335,59.5328,223.8687],[11.5312,59.5417,201.0599],[11.54,59.5423,187.5774],[11.5366,59.5556,205.6357],[11.5278,59.5551,202.3067],[11.5244,59.5684,203.099],[11.5156,59.5679,217.0888],[11.5145,59.5723,198.0611],[11.5057,59.5717,211.5287],[11.5,59.594,204.3595],[11.4912,59.5934,177.0149]]]]}}