{"type":"Feature","properties":{"GID_2":"NOR.14.9_1","GID_0":"NOR","country":"Norway","GID_1":"NOR.14_1","province":"SognogFjordane","NL_NAME_1":"NA","county":"Førde","VARNAME_2":"NA","NL_NAME_2":"NA","TYPE_2":"Kommuner","ENGTYPE_2":"Municipality","CC_2":"NA","HASC_2":"NO.SF.FO","name":"Førde.county"},
"geometry":{"type": "MultiPolygon","coordinates": [[[[5.5643,61.4271,912.5306],[5.5674,61.4206,1074.1261],[5.5895,61.423,1050.1212],[5.5854,61.425,980.3511],[5.5771,61.425,1106.2706],[5.5729,61.4271,914.5944],[5.5643,61.4271,912.5306]]],
[[[5.5234,61.4464,0.0],[5.5266,61.4458,0.0],[5.5254,61.4483,37.2301],[5.5211,61.4478,0.0],[5.5234,61.4464,0.0]]],
[[[5.55,61.4371,274.3105],[5.5508,61.4354,289.6194],[5.5583,61.4354,297.7466],[5.5625,61.4333,311.0267],[5.5708,61.4333,305.6842],[5.575,61.4313,365.362],[5.5833,61.4313,348.7948],[5.5875,61.4292,472.7883],[5.6099,61.4266,441.6836],[5.6,61.4229,1039.1774],[5.5952,61.4229,1034.7003],[5.597,61.4192,944.3868],[5.6153,61.4211,910.9108],[5.6174,61.4167,788.9907],[5.6357,61.4187,710.1633],[5.6378,61.4143,758.892],[5.6561,61.4162,773.2618],[5.6582,61.4119,802.8199],[5.6766,61.4138,739.1868],[5.6786,61.4094,881.1042],[5.7704,61.4191,493.6414],[5.7684,61.4235,493.7422],[5.7868,61.4254,546.9351],[5.7888,61.421,511.556],[5.8072,61.4229,350.9357],[5.8092,61.4186,342.0592],[5.8276,61.4205,371.0773],[5.8356,61.403,492.8203],[5.8448,61.4039,411.522],[5.8609,61.368899999999996,630.1705],[5.8793,61.3708,665.3624],[5.8833,61.362,724.5605],[5.8924,61.363,823.2525],[5.8945,61.3586,806.0524],[5.9036,61.3596,909.2762],[5.9056,61.3552,962.528],[5.9148,61.3561,1042.3503],[5.9168,61.3518,816.4069],[5.926,61.3527,840.2841],[5.924,61.3571,999.5435],[5.9515,61.36,905.6746],[5.9495,61.3643,867.8191],[6.0045,61.37,595.8863],[6.0026,61.3744,596.2254],[6.0485,61.3791,895.3364],[6.0544,61.366,1007.1012],[6.0636,61.3669,1080.8442],[6.0656,61.3626,1052.9222],[6.0839,61.3644,916.7012],[6.0819,61.3688,861.7695],[6.0911,61.3698,936.4144],[6.0891,61.3741,846.4076],[6.0983,61.3751,963.7828],[6.0963,61.3795,847.9772],[6.1055,61.3804,844.0018],[6.1036,61.3848,716.8026],[6.1127,61.3857,717.3118],[6.1108,61.3901,791.7599],[6.1199,61.3911,798.2968],[6.118,61.3954,884.9],[6.1363,61.3973,619.8724],[6.1383,61.3929,529.3881],[6.1567,61.3948,557.5351],[6.1587,61.3904,640.0692],[6.1679,61.3914,847.435],[6.1698,61.387,761.5541],[6.2617,61.3963,296.0],[6.2637,61.3919,296.0],[6.2913,61.3947,618.6536],[6.2932,61.3903,697.9263],[6.3024,61.3913,687.338],[6.3043,61.3869,723.6849],[6.3135,61.3878,700.9083],[6.3155,61.3834,710.8388],[6.3247,61.3843,811.2312],[6.3266,61.38,1236.9132],[6.3358,61.3809,1237.4423],[6.3378,61.3765,1217.3771],[6.3469,61.3774,1089.3179],[6.3489,61.373,1022.2377],[6.3673,61.3749,1177.7932],[6.3692,61.3705,1090.6958],[6.3784,61.3714,1194.6829],[6.3861,61.3539,1141.0594],[6.377,61.3529,1124.2687],[6.3808,61.3442,660.5233],[6.39,61.3451,700.2065],[6.3939,61.3363,617.393],[6.4031,61.3372,620.7441],[6.405,61.3328,597.2296],[6.4142,61.3338,607.1327],[6.4122,61.3381,617.6772],[6.4214,61.3391,755.7079],[6.4195,61.3435,760.9024],[6.4287,61.3444,747.0358],[6.4267,61.3488,992.8716],[6.4451,61.3506,887.9967],[6.4432,61.355,931.1312],[6.4524,61.3559,1026.2465],[6.4504,61.3603,930.8001],[6.4596,61.3612,931.0726],[6.4577,61.3656,944.4443],[6.4669,61.3665,930.7692],[6.465,61.3709,931.118],[6.4741,61.3718,931.0383],[6.4722,61.3762,1158.4952],[6.4814,61.3771,993.2101],[6.4795,61.3815,1057.252],[6.4887,61.3824,1103.2898],[6.4868,61.3868,1094.2394],[6.496,61.3877,1275.1798],[6.494,61.3921,1094.421],[6.5124,61.394,1293.642],[6.5086,61.4027,1471.7584],[6.4994,61.4018,1439.4829],[6.4975,61.4062,1479.5023],[6.5251,61.409,1560.2992],[6.5231,61.4133,1582.5482],[6.56,61.417,1347.0818],[6.558,61.4214,1405.3845],[6.5857,61.4241,1343.9012],[6.5838,61.4285,1331.9769],[6.6114,61.4312,1221.6115],[6.6095,61.4356,1252.3124],[6.6371,61.4383,1124.6519],[6.6352,61.4427,1347.0001],[6.6444,61.4436,1350.0754],[6.6273,61.4832,952.7819],[6.6088,61.4813,1026.1589],[6.6069,61.4857,1156.355],[6.5515,61.4803,1530.1138],[6.5496,61.4847,1576.5701],[6.5127,61.481,1499.4547],[6.5108,61.4854,1530.4973],[6.4462,61.479,1199.5],[6.4443,61.4834,1263.502],[6.4351,61.4825,1385.2887],[6.437,61.4781,1406.2971],[6.4186,61.4762,1381.671],[6.4205,61.4718,1448.2754],[6.3191,61.4617,1016.3118],[6.3172,61.4661,1349.2819],[6.2987,61.4642,1178.4894],[6.3007,61.4598,999.3396],[6.2731,61.4571,1291.1776],[6.275,61.4527,1350.7999],[6.2658,61.4517,1404.1974],[6.2639,61.4561,1403.1531],[6.2547,61.4552,1268.572],[6.2527,61.4596,1251.5872],[6.2343,61.4577,1189.3147],[6.2362,61.4533,1207.916],[6.1902,61.4487,1122.6826],[6.1922,61.4443,1040.5282],[6.1646,61.4415,1023.1417],[6.1626,61.4459,944.9016],[6.1442,61.444,1005.0524],[6.1422,61.4484,804.6254],[6.133,61.4474,943.611],[6.131,61.4518,866.1021],[6.1218,61.4509,961.1612],[6.1198,61.4553,851.2947],[6.0738,61.4505,892.1635],[6.0758,61.4462,755.0355],[6.0298,61.4414,128.5925],[6.0278,61.4458,180.4015],[6.0186,61.4449,92.1396],[6.0146,61.4536,117.659],[5.9962,61.4517,272.0441],[5.9942,61.4561,345.7647],[5.985,61.4552,422.9945],[5.981,61.4639,610.9867],[5.9902,61.4649,599.6203],[5.9882,61.4693,789.8941],[5.9974,61.4702,611.6299],[5.9954,61.4746,729.5965],[6.0046,61.4756,656.086],[6.0026,61.4799,731.6021],[6.0118,61.4809,650.1754],[6.0098,61.4853,679.2226],[6.0191,61.4862,640.0391],[6.0171,61.4906,672.9978],[6.0263,61.4915,602.3834],[6.0203,61.5047,643.1436],[6.0295,61.5056,523.0316],[6.0275,61.51,624.0837],[6.0367,61.511,612.232],[6.0347,61.5153,666.9464],[6.0624,61.5182,434.5036],[6.0604,61.5226,389.5365],[6.0973,61.5263,601.4242],[6.0953,61.5307,744.7082],[6.1045,61.5317,709.0748],[6.1025,61.536,827.8143],[6.121,61.5379,791.7601],[6.119,61.5423,744.6301],[6.1652,61.547,1108.2206],[6.1632,61.5514,934.754],[6.1817,61.5533,880.3251],[6.1777,61.562,1150.3876],[6.1869,61.563,1050.7592],[6.185,61.5673,1178.0751],[6.1942,61.5683,1142.1935],[6.1922,61.5727,1175.0629],[6.2015,61.5736,991.7339],[6.1955,61.5868,1132.9336],[6.1863,61.5858,1143.3666],[6.1882,61.5814,1174.0122],[6.1236,61.5749,1007.7094],[6.1216,61.5793,1032.4412],[6.0846,61.5755,1174.0496],[6.0826,61.5799,1040.519],[6.0734,61.5789,1165.3667],[6.0754,61.5745,1138.5526],[6.0569,61.5727,1008.999],[6.0589,61.5683,716.1562],[6.0404,61.5664,981.2344],[6.0424,61.562,1024.9819],[6.0239,61.5601,1228.0643],[6.0259,61.5557,1103.1234],[6.0167,61.5548,1086.8799],[6.0187,61.5504,833.8674],[6.0095,61.5495,792.9384],[6.0115,61.5451,693.1985],[5.993,61.5432,772.49],[5.995,61.5388,739.9296],[5.9674,61.5359,771.4288],[5.9654,61.5403,776.1589],[5.9377,61.5375,826.6074],[5.9397,61.5331,786.605],[5.9305,61.5321,962.2116],[5.9345,61.5234,607.7551],[5.9253,61.5224,766.0558],[5.9273,61.518,871.138],[5.9181,61.5171,847.5],[5.9201,61.5127,915.5638],[5.8187,61.5022,539.3704],[5.8167,61.5066,716.8358],[5.7799,61.5027,277.0678],[5.7819,61.4983,0.0],[5.7779,61.4979,0.0],[5.7849,61.4974,0.0],[5.7896,61.4938,0.0],[5.8,61.4938,0.0],[5.812,61.487,0.0],[5.812,61.4797,19.8078],[5.8068,61.4786,0.0],[5.8042,61.475,0.0],[5.7984,61.4755,0.0],[5.7974,61.4786,12.5388],[5.7891,61.4828,30.8721],[5.775,61.4833,140.2288],[5.7708,61.4854,0.0],[5.7667,61.4854,21.9503],[5.7542,61.4917,33.6253],[5.7208,61.4917,0.0],[5.7167,61.4938,0.0],[5.7063,61.4938,0.0],[5.7036,61.4901,0.0],[5.6979,61.4896,0.0],[5.6922,61.487,44.4216],[5.6953,61.4849,114.1929],[5.6938,61.4813,0.0],[5.6974,61.4776,389.111],[5.6875,61.475,475.3475],[5.6833,61.475,384.1235],[5.6792,61.4771,7.3402],[5.663,61.4766,29.9053],[5.663,61.4714,120.417],[5.6661,61.4703,288.6145],[5.6661,61.4672,397.0898],[5.6583,61.4646,98.7175],[5.65,61.4646,0.0],[5.638,61.4599,0.0],[5.6411,61.4568,75.0151],[5.637,61.4547,48.3556],[5.6271,61.4542,9.0806],[5.6146,61.4583,0.0],[5.5958,61.4583,0.0],[5.5932,61.4547,0.0],[5.5901,61.4536,0.0],[5.5891,61.4505,67.8301],[5.5813,61.4479,230.2716],[5.5729,61.4479,196.9882],[5.5688,61.45,193.2446],[5.5646,61.45,185.9437],[5.5634,61.4496,185.9437],[5.5642,61.4478,145.4859],[5.5609,61.4453,0.0],[5.5625,61.4437,0.0],[5.5771,61.4437,0.0],[5.5786,61.4422,0.0],[5.5583,61.4417,11.3536],[5.5484,61.4391,73.9073],[5.5464,61.4367,312.3944],[5.55,61.4371,274.3105]]],
[[[5.741,61.5032,0.0],[5.7318,61.5023,0.0],[5.73,61.5021,0.0],[5.7396,61.5021,0.0],[5.741,61.5032,0.0]]]]}}