{"type": "Feature","bbox": [14.3047,68.5917,14.8435,68.8354],"geometry": {"type": "MultiPolygon","coordinates": [[[[14.3047,68.5953,0.0],[14.3047,68.5922,6.8145],[14.3062,68.5917,0.0],[14.3188,68.5917,0.0],[14.3266,68.5943,0.0],[14.3234,68.5974,3.6802],[14.3292,68.5979,0.0],[14.3307,68.5995,0.0],[14.3104,68.6,0.0],[14.3047,68.5953,0.0]]],
[[[14.3259,68.6042,0.0],[14.3349,68.6068,0.0],[14.3391,68.6109,0.3034],[14.3422,68.6182,14.6064],[14.3453,68.6214,0.0],[14.3453,68.6245,2.1596],[14.3339,68.6224,0.0],[14.3307,68.6172,5.8601],[14.3255,68.6162,14.805],[14.3234,68.6141,3.9148],[14.3266,68.6109,146.5974],[14.313,68.6078,0.0],[14.3146,68.6062,0.0],[14.3208,68.6062,5.0818],[14.3259,68.6042,0.0]]],
[[[14.3318,68.6266,5.0267],[14.3333,68.625,0.0],[14.3411,68.6255,0.0],[14.3396,68.6271,0.0],[14.3318,68.6266,5.0267]]],
[[[14.4625,68.7354,0.0],[14.4484,68.737,0.0],[14.451599999999999,68.7349,0.7617],[14.4505,68.7318,0.0],[14.4521,68.7312,0.0],[14.462,68.7318,0.0],[14.4641,68.7338,1.4374],[14.4625,68.7354,0.0]]],
[[[14.6807,68.6547,0.0],[14.6797,68.6526,0.0],[14.6833,68.6521,0.0],[14.6932,68.6578,3.181],[14.6854,68.6604,0.0],[14.6807,68.6547,0.0]]],
[[[14.7854,68.6708,1.1548],[14.7839,68.6703,3.3286],[14.7839,68.6693,1.2486],[14.787,68.6693,1.6624],[14.7854,68.6708,1.1548]]],
[[[14.7692,68.7664,255.1838],[14.751,68.7659,0.0],[14.7503,68.7688,0.0],[14.7399,68.7701,0.0],[14.737,68.7672,0.0],[14.7318,68.7662,10.4064],[14.7297,68.7641,0.0],[14.7328,68.7609,0.0],[14.7276,68.7599,1.7263],[14.7307,68.7578,0.0],[14.7286,68.7547,0.0],[14.7208,68.7542,9.6883],[14.7146,68.7562,0.0],[14.7083,68.7542,0.0],[14.7026,68.7568,0.0],[14.7042,68.7583,0.0],[14.7099,68.7589,0.0],[14.712,68.7641,0.0],[14.7042,68.7646,0.0],[14.6943,68.7693,0.0],[14.6995,68.7786,0.0],[14.6901,68.7818,0.0],[14.6984,68.7932,0.0],[14.7036,68.7943,0.0],[14.7057,68.7963,0.0],[14.6984,68.8037,0.0],[14.7026,68.8078,0.0],[14.7078,68.8089,0.0],[14.7099,68.8109,0.0],[14.7057,68.8141,0.0],[14.7005,68.8151,10.0024],[14.7036,68.8193,0.0],[14.7036,68.8224,0.0],[14.6979,68.8229,72.9903],[14.6964,68.8245,104.602],[14.7016,68.8255,12.4656],[14.7042,68.8292,0.0],[14.7036,68.8307,0.0],[14.6979,68.8333,7.7232],[14.6917,68.8333,7.4855],[14.6875,68.8354,11.0933],[14.6839,68.8328,52.6652],[14.687,68.8297,149.3753],[14.6792,68.8271,309.9172],[14.6583,68.8271,286.9181],[14.6542,68.825,313.7307],[14.6479,68.8271,408.2048],[14.6417,68.8271,280.3893],[14.6375,68.8292,140.4938],[14.6339,68.8287,83.067],[14.6339,68.8255,91.3425],[14.6417,68.825,285.7086],[14.6432,68.8234,401.3477],[14.6396,68.8208,318.3506],[14.6313,68.8229,39.3109],[14.6234,68.8203,0.0],[14.6313,68.8146,73.5186],[14.6286,68.8109,25.2495],[14.6234,68.8099,0.0],[14.6214,68.8078,0.0],[14.6245,68.8057,7.6539],[14.6234,68.8005,0.0],[14.6307,68.7974,0.0],[14.6276,68.7901,0.0],[14.6375,68.7854,0.0],[14.6516,68.7849,43.2027],[14.6505,68.7818,0.0],[14.6536,68.7807,0.0],[14.6536,68.7776,251.6751],[14.6313,68.7771,195.763],[14.6297,68.7776,195.763],[14.6307,68.7807,50.7594],[14.6229,68.7813,0.0],[14.6172,68.7766,0.0],[14.612,68.7672,0.0],[14.6083,68.7646,0.0],[14.5958,68.7646,0.0],[14.5901,68.7672,0.0],[14.5891,68.7703,0.0],[14.5859,68.7714,1.8152],[14.5953,68.787,0.0],[14.588,68.7901,21.7345],[14.588,68.7932,23.9979],[14.5911,68.7974,0.0],[14.5818,68.8005,26.0829],[14.5849,68.8057,0.0],[14.5755,68.8068,2.7418],[14.5745,68.8099,0.0],[14.5703,68.812,6.8496],[14.5625,68.8125,0.0],[14.5542,68.8167,3.5031],[14.5417,68.8167,0.0],[14.5339,68.813,0.0],[14.5474,68.8099,4.9981],[14.5453,68.8068,0.0],[14.538,68.8057,0.0],[14.5349,68.8005,15.6246],[14.5214,68.7953,0.0],[14.5161,68.7901,0.3555],[14.5109,68.7891,0.0],[14.5078,68.7839,0.0],[14.5042,68.7833,8.8363],[14.4979,68.7854,0.0],[14.4875,68.7813,0.0],[14.4729,68.7813,0.0],[14.4688,68.7792,0.0],[14.4625,68.7813,0.0],[14.4526,68.7807,18.8636],[14.4526,68.7776,5.1235],[14.4557,68.7755,0.0],[14.4505,68.7672,0.0],[14.4599,68.763,27.675],[14.4375,68.7625,0.0],[14.4339,68.7589,0.0],[14.4396,68.7562,0.0],[14.4479,68.7562,0.0],[14.4604,68.7604,11.077],[14.4703,68.7557,0.0],[14.463,68.7516,0.0],[14.4646,68.75,0.0],[14.4708,68.75,0.0],[14.475,68.7479,0.0],[14.5,68.7479,0.0],[14.5063,68.75,34.8741],[14.5104,68.7479,0.0],[14.5208,68.7479,0.0],[14.5266,68.7453,0.0],[14.5214,68.7422,4.938],[14.5375,68.7375,0.0],[14.5563,68.7375,0.0],[14.5687,68.7417,10.4216],[14.5755,68.738,0.0],[14.5833,68.7375,0.0],[14.5849,68.7359,8.798],[14.5708,68.7354,0.0],[14.5646,68.7375,0.0],[14.5542,68.7333,189.9153],[14.5438,68.7333,0.0],[14.5333,68.7292,32.7783],[14.5271,68.7312,0.0],[14.5167,68.7312,5.1614],[14.5125,68.7333,0.0],[14.5042,68.7333,0.0],[14.5,68.7312,5.3476],[14.4875,68.7312,0.0],[14.4813,68.7333,0.0],[14.4734,68.7297,0.0],[14.4813,68.7292,27.5947],[14.4854,68.7271,75.9216],[14.4917,68.7292,28.0452],[14.4932,68.7286,83.4921],[14.4922,68.7255,278.7306],[14.5,68.725,117.2954],[14.5016,68.7234,217.7212],[14.4813,68.7229,331.5971],[14.4771,68.725,254.6613],[14.4646,68.725,17.9141],[14.463,68.7234,33.9471],[14.4708,68.7229,164.7102],[14.4724,68.7214,305.0399],[14.4422,68.7203,4.1907],[14.4422,68.7172,39.8234],[14.45,68.7167,67.0],[14.4557,68.7141,181.6392],[14.4458,68.7104,456.1501],[14.4401,68.713,291.774],[14.4375,68.7167,51.0453],[14.4297,68.7161,0.0],[14.4255,68.712,0.0],[14.4255,68.7089,0.0],[14.4286,68.7078,2.0528],[14.4276,68.7047,0.0],[14.4333,68.7021,0.0],[14.4396,68.7021,11.8061],[14.4438,68.7,0.0],[14.462,68.6974,0.0],[14.4599,68.6943,53.6199],[14.4458,68.6937,256.6021],[14.4396,68.6958,36.8417],[14.4333,68.6937,285.0959],[14.4146,68.7,0.0],[14.4047,68.6974,88.823],[14.4021,68.6937,251.0925],[14.3922,68.6932,35.8591],[14.3854,68.6875,251.5106],[14.3812,68.6896,1.0465],[14.3729,68.6896,0.0],[14.3714,68.688,0.1402],[14.3745,68.687,27.2856],[14.3734,68.6839,37.4216],[14.3812,68.6833,0.0],[14.3854,68.6813,0.0],[14.3938,68.6833,0.0],[14.4021,68.6792,0.0],[14.4203,68.6787,0.0],[14.4188,68.6771,0.0],[14.4104,68.6771,0.0],[14.4063,68.675,7.6814],[14.3901,68.6745,0.0],[14.3901,68.6713,1.9834],[14.3932,68.6703,0.0],[14.3896,68.6646,0.0],[14.3917,68.6625,0.0],[14.4167,68.6625,0.0],[14.4208,68.6646,0.0],[14.4271,68.6625,0.0],[14.4318,68.6661,0.0],[14.437,68.6672,0.0],[14.4401,68.6724,1.9849],[14.4438,68.675,0.0],[14.4536,68.6745,0.0],[14.4526,68.6713,0.0],[14.4599,68.6682,1.9858],[14.4578,68.6651,0.0],[14.4526,68.6641,0.0],[14.4495,68.6609,0.0],[14.4396,68.6604,0.0],[14.4318,68.6578,0.0],[14.4297,68.6547,0.0],[14.4333,68.6521,0.0],[14.4307,68.6484,2.0535],[14.4172,68.6453,0.0],[14.4188,68.6438,0.0],[14.4266,68.6432,0.63],[14.4255,68.6401,0.0],[14.4307,68.6391,-0.2197],[14.4297,68.6359,0.0],[14.4391,68.6349,1.3365],[14.438,68.6318,0.0],[14.4411,68.6297,0.0],[14.425,68.625,0.0],[14.4208,68.6292,0.0],[14.4068,68.6286,0.0],[14.4005,68.6255,0.0],[14.4078,68.6214,4.4027],[14.4042,68.6188,0.0],[14.3943,68.6182,0.0],[14.3943,68.6151,0.0],[14.3958,68.6146,26.3272],[14.4099,68.6151,0.0],[14.4109,68.6182,0.0],[14.4167,68.6229,0.0],[14.4193,68.6193,0.0],[14.4271,68.6188,3.1214],[14.437,68.6141,0.0],[14.4354,68.6125,0.0],[14.4297,68.612,0.0],[14.4276,68.6078,1.4938],[14.4333,68.6042,0.0],[14.4417,68.6042,0.0],[14.4443,68.6078,0.0],[14.4479,68.6083,3.6215],[14.4495,68.6078,0.0],[14.4484,68.6047,0.0],[14.45,68.6042,2.1151],[14.4583,68.6062,3.3359],[14.4625,68.6042,0.0],[14.4688,68.6042,0.0],[14.4771,68.6104,0.0],[14.4891,68.6057,7.1734],[14.4859,68.6005,0.0],[14.4937,68.5979,0.0],[14.5188,68.6062,0.0],[14.5224,68.6057,0.0],[14.5214,68.6026,0.0],[14.5313,68.6021,0.0],[14.5417,68.6062,0.0],[14.5474,68.6068,0.0],[14.5505,68.612,0.0],[14.5557,68.613,0.0],[14.5625,68.6208,0.0],[14.5724,68.6203,0.0],[14.5703,68.6172,0.0],[14.5651,68.6162,0.912],[14.5667,68.6146,1.7494],[14.5896,68.6146,0.0],[14.6021,68.6188,0.0],[14.6083,68.6167,0.0],[14.6245,68.6214,0.0],[14.6266,68.6245,0.0],[14.6234,68.6266,0.0],[14.6495,68.6339,0.0],[14.6516,68.637,0.0],[14.6484,68.6391,0.0],[14.6505,68.6412,0.0],[14.6557,68.6422,0.0],[14.6578,68.6453,0.9317],[14.65,68.6458,0.0],[14.6443,68.6484,0.0],[14.6443,68.6516,0.0],[14.6464,68.6536,0.0],[14.65,68.6542,0.0],[14.6604,68.65,0.0],[14.663,68.6536,0.0],[14.6745,68.6547,0.0],[14.6714,68.6578,0.0],[14.6786,68.6589,0.0],[14.6786,68.662,0.0],[14.6755,68.6641,14.6767],[14.6812,68.6646,0.0],[14.6828,68.6661,0.0],[14.6734,68.6693,0.0],[14.6766,68.6745,0.0],[14.6734,68.6766,0.0],[14.6849,68.6797,0.0],[14.6776,68.6828,0.0],[14.6828,68.6839,0.0],[14.6854,68.6875,0.0],[14.6849,68.6891,0.0],[14.6776,68.6922,7.8283],[14.6792,68.6958,0.0],[14.6755,68.6995,16.3304],[14.6797,68.7057,0.0],[14.6833,68.7083,0.0],[14.6911,68.7057,3.7489],[14.6859,68.6974,0.0],[14.6859,68.6943,0.0],[14.6995,68.6932,6.4764],[14.7036,68.6911,0.0],[14.7047,68.688,9.9665],[14.7078,68.687,0.0],[14.7047,68.6818,0.0],[14.7078,68.6807,4.0856],[14.7078,68.6776,12.4836],[14.7021,68.6771,0.0],[14.7005,68.6755,0.0],[14.7099,68.6745,0.0],[14.7089,68.6693,0.0],[14.7119,68.6682,0.0],[14.7109,68.6651,0.0],[14.7141,68.6641,2.1626],[14.7151,68.6609,0.0],[14.7208,68.6583,0.0],[14.7328,68.6578,0.0],[14.7354,68.6542,0.0],[14.7417,68.6542,0.0],[14.7516,68.6568,0.0],[14.75,68.6583,0.0],[14.7422,68.6589,0.69],[14.75,68.6625,0.0],[14.7563,68.6604,0.0],[14.7766,68.6609,0.0],[14.7792,68.6646,0.0],[14.7755,68.6672,0.0],[14.7769,68.6696,0.0],[14.7734,68.6724,116.8241],[14.7854,68.6886,0.0],[14.7873,68.6977,128.3345],[14.7983,68.6986,39.052],[14.8043,68.7014,15.1154],[14.8037,68.7051,0.0],[14.7958,68.7093,56.3161],[14.8044,68.7176,96.0339],[14.8122,68.7155,0.0],[14.8096,68.7269,61.4109],[14.8219,68.7273,78.2422],[14.8199,68.7363,239.7766],[14.8322,68.7366,205.6331],[14.8311,68.7411,371.7798],[14.8435,68.7415,230.4846],[14.8393,68.7594,330.6127],[14.827,68.7591,310.5936],[14.826,68.7635,441.3483],[14.8137,68.7632,348.2634],[14.8126,68.7677,280.632],[14.7692,68.7664,255.1838]]],
[[[14.7063,68.8042,16.0153],[14.7047,68.8026,8.8727],[14.7099,68.8026,0.0],[14.7099,68.8037,0.0],[14.7063,68.8042,16.0153]]],
[[[14.4297,68.7786,0.0],[14.4313,68.7771,0.0],[14.4391,68.7776,0.0],[14.4375,68.7792,81.6089],[14.4297,68.7786,0.0]]],
[[[14.55,68.8208,0.0],[14.5484,68.8193,0.0],[14.5536,68.8193,0.0],[14.5536,68.8203,0.0],[14.55,68.8208,0.0]]],
[[[14.5599,68.8297,0.0],[14.5589,68.8276,0.0],[14.5604,68.8271,0.0],[14.5687,68.8271,9.2867],[14.5724,68.8307,3.3299],[14.5625,68.8313,26.6279],[14.5599,68.8297,0.0]]],
[[[14.6057,68.8224,5.7058],[14.6104,68.8208,0.0],[14.6141,68.8245,0.4085],[14.6026,68.8245,0.0],[14.6057,68.8224,5.7058]]],
[[[14.7141,68.8287,10.9349],[14.7167,68.8271,25.9857],[14.7266,68.8276,1.9901],[14.7266,68.8307,0.0],[14.7234,68.8328,4.5399],[14.7292,68.8333,0.0],[14.7307,68.8349,0.0],[14.7208,68.8354,3.1596],[14.713,68.8328,4.7882],[14.7109,68.8297,0.0],[14.7141,68.8287,10.9349]]]]}
,"properties": {"GID_2": "NOR.10.6_1","GID_0": "NOR","country": "Norway","GID_1": "NOR.10_1","province": "Nordland","NL_NAME_1": "NA","county": "Bø","VARNAME_2": "NA","NL_NAME_2": "NA","TYPE_2": "Kommuner","ENGTYPE_2": "Municipality","CC_2": "NA","HASC_2": "NO.NO.BO","name": "Bø.county","area_km2": 255.2244,"hist_schema_id": "Elevation0-9000","hist_area_km2": {"0": 57.4541,"25": 65.1056,"50": 28.6125,"75": 15.5412,"100": 11.6359,"125": 9.5807,"150": 8.0709,"175": 7.8927,"200": 6.8854,"225": 6.101,"250": 5.7549,"275": 5.2843,"300": 4.9233,"325": 4.5218,"350": 3.953,"375": 3.4834,"400": 3.0061,"425": 2.3829,"450": 1.8831,"475": 1.1759,"500": 0.8298,"525": 0.4767,"550": 0.3536,"575": 0.1462,"600": 0.0692,"625": 0.0616,"650": 0.0308,"675": 0.0077}}}