{"type":"Feature","properties":{"GID_2":"NOR.17.18_1","GID_0":"NOR","country":"Norway","GID_1":"NOR.17_1","province":"Troms","NL_NAME_1":"NA","county":"Salangen","VARNAME_2":"NA","NL_NAME_2":"NA","TYPE_2":"Kommuner","ENGTYPE_2":"Municipality","CC_2":"NA","HASC_2":"NO.TR.SA","name":"Salangen.county"},
"geometry":{"type": "MultiPolygon","coordinates": [[[[18.2018,68.9843,706.9455],[18.2012,68.992,938.2556],[18.1638,68.9916,994.7968],[18.1641,68.9871,934.1055],[18.1392,68.9869,785.4075],[18.1395,68.9824,802.1591],[18.0522,68.9814,609.4354],[18.0526,68.9769,503.7194],[18.0276,68.9767,505.8828],[18.028,68.9722,671.5969],[18.0155,68.972,666.7615],[18.0159,68.9675,559.4932],[17.991,68.9672,439.2697],[17.9914,68.9627,446.6486],[17.9415,68.9622,751.3831],[17.9411,68.9667,894.0],[17.9287,68.9665,828.9496],[17.9282,68.971,924.125],[17.9158,68.9709,900.1555],[17.9149,68.9799,995.9534],[17.9025,68.9798,986.7401],[17.902,68.9843,1111.4514],[17.8896,68.9841,1007.0664],[17.8891,68.9886,952.9315],[17.8642,68.9883,753.1685],[17.8637,68.9928,788.6947],[17.8388,68.9925,449.8231],[17.8383,68.997,330.1887],[17.8258,68.9969,277.6402],[17.8254,69.0014,297.0036],[17.8004,69.0011,490.6929],[17.8,69.0056,610.5003],[17.7875,69.0054,757.1965],[17.7871,69.0099,802.6652],[17.6621,69.0083,574.4242],[17.6626,69.0038,650.282],[17.6376,69.0035,610.9487],[17.6386,68.9945,614.2518],[17.6261,68.9943,558.7253],[17.6299,68.9583,348.2585],[17.6424,68.9585,532.0273],[17.6429,68.954,729.9902],[17.6304,68.9538,689.4117],[17.6309,68.9493,748.2125],[17.6147,68.9491,807.1353],[17.612,68.9464,835.351],[17.6042,68.9437,795.8599],[17.5938,68.9458,656.2902],[17.594,68.9443,662.0787],[17.5814,68.9442,681.7322],[17.5792,68.9417,806.2153],[17.5693,68.9417,1039.2628],[17.5696,68.9395,1055.9264],[17.5655,68.9394,1101.6495],[17.5625,68.9375,1152.4833],[17.5542,68.9375,1006.1653],[17.5479,68.9333,1141.1034],[17.5327,68.9345,918.0569],[17.5332,68.93,1010.835],[17.5208,68.9298,728.3795],[17.5213,68.9253,367.8305],[17.5088,68.9251,289.0254],[17.5093,68.9206,342.3147],[17.497,68.9204,202.0064],[17.5016,68.9182,320.3822],[17.5,68.9167,371.7788],[17.4725,68.9156,534.5927],[17.473,68.9111,434.0254],[17.4514,68.9108,98.578],[17.4484,68.9068,22.578],[17.4516,68.9057,101.1159],[17.4505,68.9026,0.0],[17.4536,68.9016,0.0],[17.4526,68.8984,0.0],[17.4557,68.8974,0.0],[17.4568,68.8943,0.0],[17.4708,68.8938,0.0],[17.4755,68.8974,0.0],[17.4818,68.8995,0.0],[17.4938,68.9,0.0],[17.5016,68.9026,0.0],[17.5047,68.9057,24.6824],[17.5146,68.9083,0.0],[17.5187,68.9063,0.0],[17.5271,68.9063,0.0],[17.5458,68.9125,26.8001],[17.5542,68.9104,0.0],[17.5583,68.9125,0.0],[17.5667,68.9125,0.0],[17.5708,68.9146,32.9892],[17.5854,68.9146,0.0],[17.5896,68.9167,8.1552],[17.6,68.9167,0.0],[17.6042,68.9187,0.0],[17.6125,68.9187,0.0],[17.6167,68.9208,33.748],[17.6229,68.9187,0.0],[17.6354,68.9229,9.4959],[17.6396,68.9229,0.0],[17.6437,68.925,8.8806],[17.6521,68.925,0.0],[17.6646,68.9292,0.0],[17.6729,68.9292,0.0],[17.6771,68.9313,0.0],[17.6917,68.9313,0.0],[17.6958,68.9333,0.0],[17.7083,68.9333,10.9256],[17.7141,68.9307,0.0],[17.713,68.9255,0.0],[17.7203,68.9224,0.0],[17.7188,68.9208,3.9632],[17.7068,68.9203,0.0],[17.7047,68.9151,0.0],[17.7078,68.9141,0.0],[17.7068,68.9109,0.0],[17.7109,68.9089,0.0],[17.7375,68.9104,0.0],[17.75,68.9042,0.0],[17.7563,68.9063,0.0],[17.7687,68.9063,12.1161],[17.787,68.8974,0.0],[17.7859,68.8943,0.0],[17.7901,68.8922,0.0],[17.7979,68.8917,0.0],[17.8047,68.888,0.0],[17.812,68.887,0.0],[17.8203,68.8828,0.0],[17.8214,68.8797,0.0],[17.8276,68.8755,0.0],[17.8333,68.8729,0.0],[17.8411,68.8724,0.0],[17.8495,68.8672,0.0],[17.8458,68.8646,10.8369],[17.8146,68.8646,0.0],[17.8083,68.8625,6.8449],[17.8,68.8667,0.0],[17.7729,68.8688,3.6895],[17.7687,68.8708,0.0],[17.7625,68.8688,20.8261],[17.7479,68.8729,0.0],[17.7167,68.8708,116.1523],[17.7151,68.8714,68.1734],[17.7161,68.8745,9.4257],[17.7083,68.875,23.9514],[17.6984,68.8797,0.0],[17.7083,68.8833,0.0],[17.7167,68.8833,0.0],[17.7208,68.8854,0.0],[17.725,68.8854,0.0],[17.7286,68.888,0.0],[17.7286,68.8912,0.0],[17.7255,68.8922,76.7231],[17.7266,68.8953,0.0],[17.7172,68.8964,113.0103],[17.7203,68.9016,0.0],[17.7104,68.9021,0.0],[17.7062,68.9,27.1026],[17.6964,68.8995,0.0],[17.6932,68.8964,0.0],[17.6854,68.8938,0.0],[17.6792,68.8958,0.0],[17.6542,68.8958,0.0],[17.65,68.8938,0.0],[17.6354,68.8938,0.0],[17.6313,68.8917,15.9039],[17.6229,68.8917,0.0],[17.6182,68.888,16.8967],[17.6047,68.8849,0.0],[17.6016,68.8818,10.3668],[17.588,68.8786,13.4495],[17.5828,68.8734,29.0876],[17.5729,68.8729,24.4689],[17.563,68.8703,0.0],[17.5661,68.8672,82.9463],[17.5609,68.8662,0.0],[17.5578,68.863,32.3216],[17.5443,68.8599,0.0],[17.5391,68.8544,116.998],[17.5297,68.856,0.0],[17.5266,68.8526,22.6593],[17.4984,68.8453,0.0],[17.4932,68.8401,26.5449],[17.4797,68.837,19.2501],[17.4714,68.8318,0.0],[17.4875,68.8292,0.0],[17.4917,68.8271,0.0],[17.4979,68.8271,0.0],[17.5021,68.825,0.0],[17.5083,68.8271,22.04],[17.5125,68.825,0.0],[17.5396,68.8229,0.0],[17.5438,68.8208,0.0],[17.5516,68.8203,18.1621],[17.5505,68.8172,0.0],[17.5521,68.8167,0.0],[17.5646,68.8167,18.6144],[17.5773,68.8134,16.7168],[17.5832,68.8134,123.1392],[17.5827,68.8179,472.4339],[17.5951,68.8181,705.5378],[17.5946,68.8226,747.1473],[17.6441,68.8233,979.0148],[17.6446,68.8188,670.1315],[17.6694,68.8191,1092.4036],[17.6689,68.8236,1034.4823],[17.6813,68.8238,1030.3862],[17.6808,68.8283,922.7114],[17.6932,68.8284,1020.5967],[17.6928,68.8329,824.4606],[17.7547,68.8337,994.1906],[17.7556,68.8247,821.0057],[17.768,68.8249,849.1724],[17.7689,68.8159,656.6082],[17.8308,68.8166,252.905],[17.8313,68.8121,231.0434],[17.856,68.8124,225.1308],[17.8569,68.8034,448.5514],[17.8693,68.8036,626.9899],[17.8697,68.7991,671.7828],[17.8821,68.7992,696.0405],[17.8825,68.7947,726.4764],[17.9073,68.795,818.8945],[17.9077,68.7905,746.4561],[17.9448,68.7909,895.8652],[17.9452,68.7864,833.2064],[17.9576,68.7866,868.1387],[17.9596,68.7641,720.5993],[17.9472,68.7639,749.7967],[17.9481,68.7549,819.9821],[17.9357,68.7548,825.3916],[17.9365,68.7458,765.5302],[17.9489,68.7459,793.0409],[17.9493,68.7414,779.002],[17.9616,68.7416,816.32],[17.962,68.7371,835.3539],[17.9744,68.7372,912.2847],[17.9748,68.7327,1003.6065],[17.9871,68.7328,945.6078],[17.9879,68.7238,1053.7943],[18.0003,68.724,1101.6516],[17.9975,68.7555,807.2279],[18.0222,68.7558,666.7227],[18.0218,68.7603,676.0469],[18.0465,68.7605,803.9142],[18.0461,68.765,805.2756],[18.0708,68.7653,861.5344],[18.0704,68.7698,797.3434],[18.0952,68.7701,896.0975],[18.094,68.7836,609.3786],[18.1064,68.7837,516.5994],[18.1049,68.8017,625.9058],[18.1173,68.8019,531.4295],[18.1158,68.8199,524.2908],[18.1282,68.82,488.5406],[18.1255,68.8515,79.7908],[18.0883,68.8511,70.7025],[18.0872,68.8646,29.5843],[18.0996,68.8648,51.2173],[18.0992,68.8693,99.4199],[18.1489,68.8698,357.3468],[18.1485,68.8743,301.3453],[18.1609,68.8744,281.1704],[18.1602,68.8834,267.1549],[18.1726,68.8836,261.1721],[18.1722,68.8881,270.6922],[18.1598,68.8879,327.4776],[18.1591,68.8969,244.2475],[18.1466,68.8968,259.6382],[18.1451,68.9148,569.0176],[18.1576,68.915,553.8378],[18.1565,68.9285,590.3094],[18.1689,68.9286,563.2103],[18.1675,68.9466,427.8547],[18.1799,68.9467,392.1328],[18.1788,68.9602,434.7272],[18.1913,68.9604,433.4601],[18.1898,68.9784,572.593],[18.2023,68.9785,506.5435],[18.2018,68.9843,706.9455]]],
[[[17.7491,68.9021,0.0],[17.7438,68.9042,0.0],[17.7401,68.9036,0.0],[17.7432,68.9016,0.0],[17.7422,68.8984,0.0],[17.7479,68.8958,0.0],[17.7557,68.8953,36.9015],[17.7553,68.892,0.0],[17.7625,68.8917,7.3745],[17.7667,68.8896,0.0],[17.7766,68.8901,0.0],[17.7651,68.8964,19.5845],[17.7641,68.8995,0.0],[17.7599,68.9016,0.0],[17.7491,68.9021,0.0]]],
[[[17.7255,68.8984,0.0],[17.7354,68.8979,0.0],[17.737,68.8995,0.0],[17.7271,68.9,0.0],[17.7255,68.8984,0.0]]],
[[[17.6745,68.9016,0.0],[17.6771,68.9,0.0],[17.6833,68.9,0.0],[17.687,68.9036,0.0],[17.6792,68.9063,0.0],[17.6714,68.9036,11.5393],[17.6745,68.9016,0.0]]],
[[[17.6066,68.949,536.5104],[17.598,68.9489,466.3315],[17.6063,68.9479,608.4457],[17.6084,68.949,571.8846],[17.6066,68.949,536.5104]]]]}}