{"type":"Feature","properties":{"GID_2":"NOR.10.25_1","GID_0":"NOR","country":"Norway","GID_1":"NOR.10_1","province":"Nordland","NL_NAME_1":"NA","county":"Narvik","VARNAME_2":"NA","NL_NAME_2":"NA","TYPE_2":"Kommuner","ENGTYPE_2":"Municipality","CC_2":"NA","HASC_2":"NO.NO.NA","name":"Narvik.county"},
"geometry":{"type": "MultiPolygon","coordinates": [[[[17.2822,68.1194,1466.0616],[17.2828,68.1149,1376.7334],[17.3068,68.1153,1047.1115],[17.3073,68.1108,1071.8275],[17.3313,68.1112,748.0726],[17.3318,68.1067,798.7139],[17.3558,68.1071,606.2836],[17.3563,68.1026,614.3555],[17.3684,68.1027,605.96],[17.3689,68.0982,614.0042],[17.3929,68.0986,628.5408],[17.3934,68.0941,727.4422],[17.4174,68.0945,719.6924],[17.4179,68.09,726.4311],[17.4299,68.0901,750.4265],[17.4304,68.0857,745.4576],[17.4543,68.086,692.3575],[17.4548,68.0815,663.8829],[17.4788,68.0819,798.8516],[17.4793,68.0774,867.1382],[17.4913,68.0775,930.7285],[17.4918,68.073,950.3749],[17.5158,68.0734,976.7178],[17.5162,68.0689,970.252],[17.5282,68.0691,967.8409],[17.5287,68.0646,978.0629],[17.5527,68.0649,1036.5846],[17.5531,68.0604,992.9191],[17.5771,68.0607,1022.589],[17.5776,68.0562,1004.5816],[17.5896,68.0564,994.9318],[17.59,68.0519,995.1967],[17.614,68.0522,1033.1935],[17.6144,68.0477,1022.0033],[17.6264,68.0479,1069.8204],[17.6269,68.0434,1072.4772],[17.6508,68.0437,1295.4078],[17.6513,68.0392,1327.0592],[17.6752,68.0396,1327.5594],[17.6757,68.0351,1256.5548],[17.6876,68.0352,1110.1398],[17.6881,68.0307,1138.9226],[17.7,68.0309,1144.5992],[17.7005,68.0264,1266.4497],[17.7124,68.0265,1217.3971],[17.7129,68.022,1292.2787],[17.7249,68.0222,1171.8069],[17.7253,68.0177,1218.3962],[17.7492,68.018,1210.1725],[17.7496,68.0135,1196.9841],[17.7616,68.0137,1210.8838],[17.762,68.0092,1224.0947],[17.774,68.0093,1315.2697],[17.7744,68.0048,1277.756],[17.7864,68.005,1283.36],[17.7868,68.0005,1302.4095],[17.7988,68.0006,1206.6611],[17.7992,67.9961,1188.5426],[17.8111,67.9963,1107.8239],[17.8115,67.9918,1180.7399],[17.8354,67.9921,1026.9862],[17.8359,67.9876,1064.0553],[17.8478,67.9877,969.7514],[17.8482,67.9832,1050.5265],[17.8602,67.9834,905.8378],[17.8606,67.9789,959.7023],[17.8725,67.979,867.0856],[17.8729,67.9745,923.2988],[17.8849,67.9747,853.43],[17.8853,67.9702,894.8065],[17.9092,67.9705,862.1917],[17.9084,67.9795,861.356],[17.9203,67.9796,964.6381],[17.9191,67.9931,914.6058],[17.9311,67.9933,914.6825],[17.9303,68.0023,914.3466],[17.9422,68.0024,914.7034],[17.9414,68.0114,923.3785],[17.9534,68.0116,945.1041],[17.9526,68.0206,952.1657],[17.9646,68.0207,954.9646],[17.9634,68.0342,947.8962],[17.9754,68.0343,945.53],[17.9746,68.0433,963.8176],[17.9866,68.0435,945.1707],[17.9858,68.0525,1033.5487],[17.9978,68.0526,1128.6266],[17.997,68.0616,1106.5527],[18.009,68.0618,1151.5847],[18.0082,68.0708,1317.5105],[18.0202,68.0709,1321.2908],[18.0191,68.0844,1425.8748],[18.0311,68.0845,1429.3702],[18.0303,68.0935,1323.1704],[18.0423,68.0937,1422.3865],[18.0416,68.1027,1084.6744],[18.0536,68.1028,1138.5325],[18.0528,68.1118,1086.9037],[18.0648,68.1119,1312.5332],[18.0641,68.1209,1405.076],[18.0761,68.1211,1416.6185],[18.0754,68.1301,1201.9772],[18.0874,68.1302,1258.7202],[18.0863,68.1437,995.0008],[18.0983,68.1438,940.7529],[18.0976,68.1528,1013.7997],[18.1096,68.153,1172.5771],[18.1089,68.162,1122.6586],[18.1209,68.1621,1207.7247],[18.1202,68.1711,1172.3219],[18.1322,68.1712,1233.0341],[18.1311,68.1847,987.3297],[18.1432,68.1849,1011.1089],[18.1425,68.1939,752.5974],[18.1545,68.194,752.918],[18.152,68.2255,1122.1145],[18.1399,68.2254,1160.1086],[18.1342,68.2974,1016.6765],[18.122,68.2973,1146.5447],[18.1162,68.3693,885.5522],[18.104,68.3692,722.4501],[18.0996,68.4232,796.0756],[18.1118,68.4233,716.574],[18.1084,68.4638,578.142],[18.1206,68.464,620.907],[18.1169,68.509,621.0562],[18.1291,68.5091,586.2657],[18.1266,68.5406,1064.6763],[18.1143,68.5405,1044.8848],[18.1136,68.5495,801.1312],[18.1013,68.5493,800.9326],[18.1006,68.5583,818.0202],[18.0883,68.5582,809.7273],[18.0876,68.5672,1215.251],[18.0753,68.5671,1247.4083],[18.0746,68.5761,1280.3508],[18.0623,68.576,1088.4639],[18.0619,68.5805,1027.7556],[18.0497,68.5803,798.57],[18.0489,68.5893,522.176],[18.0366,68.5892,572.5031],[18.0359,68.5982,856.112],[18.0236,68.5981,1029.2943],[18.0228,68.6071,1372.8966],[18.0105,68.6069,1275.2805],[18.0102,68.6114,1215.0144],[17.9856,68.6111,575.8386],[17.986,68.6066,583.3489],[17.851,68.6051,403.7316],[17.8514,68.6006,411.5619],[17.5325,68.5964,698.3913],[17.533,68.5919,682.3407],[17.4962,68.5914,401.812],[17.4967,68.5869,411.1581],[17.4599,68.5863,327.6327],[17.4604,68.5818,307.4],[17.4237,68.5813,335.5378],[17.4242,68.5768,317.7407],[17.3874,68.5763,266.9691],[17.3879,68.5718,262.5164],[17.3634,68.5714,356.0922],[17.364,68.5669,388.9053],[17.315,68.5662,382.0855],[17.316,68.5572,355.3515],[17.3038,68.557,293.6062],[17.3043,68.5525,270.361],[17.2921,68.5523,236.984],[17.2932,68.5433,187.2018],[17.2809,68.5431,144.1253],[17.2815,68.5386,145.0421],[17.2692,68.5384,135.2226],[17.2703,68.5294,150.932],[17.2581,68.5292,145.9921],[17.2597,68.5157,203.8085],[17.2475,68.5155,204.1714],[17.2496,68.4975,375.2888],[17.2374,68.4973,374.5401],[17.2385,68.4883,502.3577],[17.2263,68.4881,488.3057],[17.2274,68.4791,444.7535],[17.203,68.4788,376.2912],[17.2036,68.4743,390.8875],[17.1914,68.4741,354.7308],[17.1919,68.4696,323.7579],[17.1553,68.469,286.1582],[17.1559,68.4645,318.8709],[17.1527,68.4644,322.4684],[17.1488,68.4563,0.0],[17.1604,68.4563,0.0],[17.1646,68.4583,72.7527],[17.1917,68.4583,0.0],[17.1958,68.4604,28.0253],[17.2021,68.4583,0.0],[17.2062,68.4604,0.0],[17.2208,68.4604,0.0],[17.225,68.4625,38.7851],[17.25,68.4625,0.0],[17.2625,68.4667,18.9662],[17.2708,68.4667,0.0],[17.2932,68.4734,0.0],[17.2964,68.4766,62.5009],[17.3099,68.4797,0.0],[17.313,68.4828,0.0],[17.3182,68.4838,0.0],[17.3229,68.4875,138.1103],[17.3271,68.4875,18.4552],[17.3312,68.4896,108.6137],[17.3396,68.4896,0.0],[17.3458,68.4938,17.4945],[17.3557,68.4943,0.0],[17.3589,68.4995,34.8069],[17.3661,68.5005,0.0],[17.3693,68.5036,0.0],[17.3745,68.5047,0.0],[17.3797,68.5099,42.051],[17.3979,68.5125,0.0],[17.4021,68.5167,25.1273],[17.4063,68.5167,0.0],[17.425,68.5229,0.0],[17.4396,68.5229,0.0],[17.4438,68.525,13.2716],[17.45,68.5229,0.0],[17.4625,68.5271,0.0],[17.4813,68.5271,0.0],[17.4854,68.5292,0.0],[17.4958,68.5292,0.0],[17.5005,68.5349,5.615],[17.5141,68.538,0.0],[17.5193,68.5432,0.0],[17.5271,68.5458,0.0],[17.5375,68.5458,0.0],[17.55,68.55,0.0],[17.5568,68.5463,0.0],[17.5641,68.5453,8.4004],[17.5651,68.5422,0.0],[17.5724,68.5391,1.8009],[17.563,68.5266,5.6615],[17.5661,68.5245,13.8684],[17.5651,68.5214,0.0],[17.5682,68.5193,25.0984],[17.5568,68.5182,0.0],[17.5536,68.5151,0.0],[17.5464,68.5141,0.0],[17.5432,68.5089,0.0],[17.5359,68.5078,0.0],[17.5391,68.5047,0.0],[17.5339,68.5026,0.0],[17.537,68.5005,5.4487],[17.5271,68.4979,4.8697],[17.5187,68.4979,0.0],[17.5141,68.4943,1.237],[17.5062,68.4917,0.0],[17.4979,68.4917,0.0],[17.4891,68.4838,0.0],[17.4755,68.4807,0.0],[17.4693,68.4724,0.0],[17.4724,68.4693,0.0],[17.4672,68.4672,0.0],[17.4771,68.4646,6.8064],[17.4958,68.4646,0.0],[17.5005,68.4682,0.0],[17.5083,68.4708,7.254],[17.5146,68.4688,0.0],[17.5229,68.4688,0.0],[17.5271,68.4708,0.0],[17.5313,68.4688,0.0],[17.5458,68.4688,0.0],[17.5536,68.4714,0.0],[17.5505,68.4745,0.0],[17.5542,68.4771,0.0],[17.5578,68.4766,0.0],[17.5568,68.4734,0.0],[17.5583,68.4729,0.0],[17.5812,68.4729,0.0],[17.5854,68.475,31.7905],[17.6271,68.475,0.0],[17.6286,68.4745,0.0],[17.6276,68.4714,38.1206],[17.6292,68.4708,0.0],[17.6375,68.4729,0.0],[17.65,68.4667,0.0],[17.6578,68.4682,37.0978],[17.6568,68.4651,0.0],[17.6583,68.4646,0.0],[17.6708,68.4646,56.0878],[17.675,68.4625,0.0],[17.687,68.462,0.0],[17.7036,68.4537,0.0],[17.7026,68.4505,0.0],[17.7057,68.4484,14.7504],[17.7026,68.4422,0.0],[17.7078,68.4422,0.0],[17.7104,68.4458,0.0],[17.7188,68.4458,0.0],[17.7313,68.4417,0.0],[17.7375,68.4417,73.6046],[17.7526,68.4339,0.0],[17.7703,68.4307,97.3725],[17.7693,68.4276,0.0],[17.7792,68.4229,0.0],[17.7917,68.4229,122.7811],[17.8,68.4187,0.0],[17.8042,68.4187,0.0],[17.8083,68.4167,0.0],[17.8208,68.4167,0.0],[17.825,68.4146,0.0],[17.8312,68.4146,0.0],[17.8354,68.4167,0.0],[17.8438,68.4167,22.9446],[17.8479,68.4146,0.0],[17.8521,68.4167,31.0255],[17.8792,68.4167,0.0],[17.8833,68.4187,0.0],[17.9,68.4167,0.0],[17.9016,68.4151,1.0324],[17.8995,68.413,31.8167],[17.8896,68.4104,298.3499],[17.8417,68.4104,37.394],[17.8312,68.4063,18.3385],[17.8125,68.4063,87.0606],[17.8083,68.4083,14.5736],[17.8005,68.4089,9.8063],[17.7938,68.4125,0.0],[17.7818,68.413,38.8434],[17.7828,68.4161,0.0],[17.775,68.4167,34.6289],[17.7667,68.4208,0.0],[17.7604,68.4208,40.2331],[17.7505,68.4255,32.8918],[17.7516,68.4287,0.0],[17.7167,68.4354,19.3061],[17.7125,68.4396,0.0],[17.6964,68.437,0.0],[17.6937,68.4333,31.4681],[17.6854,68.4333,53.144],[17.6813,68.4354,0.0],[17.6708,68.4354,70.6293],[17.6557,68.4432,0.0],[17.6479,68.4437,22.6293],[17.6396,68.4479,0.0],[17.6229,68.4479,0.0],[17.6187,68.4458,0.0],[17.5839,68.4453,95.7488],[17.5854,68.4437,167.0904],[17.5932,68.4432,131.1477],[17.6182,68.4307,559.0392],[17.6167,68.4292,673.02],[17.5771,68.4313,996.4445],[17.5755,68.4318,973.9823],[17.5766,68.4349,999.4899],[17.575,68.4354,988.999],[17.5609,68.4359,760.7847],[17.5651,68.4411,483.396],[17.5703,68.4422,347.282],[17.5724,68.4443,266.4371],[17.5693,68.4474,137.0607],[17.5724,68.4516,0.0],[17.5479,68.4521,73.275],[17.5438,68.4542,25.4451],[17.525,68.4542,0.0],[17.5187,68.45,78.0106],[17.5125,68.4521,0.0],[17.4604,68.4521,0.0],[17.4562,68.45,8.5721],[17.4479,68.45,0.0],[17.4438,68.4479,10.3437],[17.4292,68.4479,0.0],[17.425,68.4458,0.0],[17.4188,68.4479,5.8609],[17.4063,68.4479,0.0],[17.4021,68.4458,12.3948],[17.3922,68.4453,0.0],[17.3818,68.4328,19.8626],[17.3833,68.4313,14.6287],[17.3917,68.4313,38.6429],[17.3958,68.4333,59.2649],[17.4021,68.4313,5.5846],[17.4083,68.4333,10.133],[17.4245,68.4287,0.0],[17.4276,68.4234,0.0],[17.4307,68.4213,0.0],[17.4245,68.4151,4.115],[17.4193,68.4141,5.6326],[17.4172,68.412,2.2027],[17.4229,68.4083,0.0],[17.4292,68.4104,6.509],[17.4333,68.4083,0.0],[17.4411,68.4078,0.0],[17.4479,68.4042,0.0],[17.4583,68.4042,0.0],[17.4625,68.4021,0.0],[17.4792,68.4,0.0],[17.4833,68.3979,0.0],[17.5208,68.3958,45.3839],[17.525,68.3938,0.0],[17.5328,68.3932,12.6329],[17.5521,68.3854,0.0],[17.5646,68.3854,0.0],[17.5688,68.3833,0.0],[17.5792,68.3833,4.9809],[17.5833,68.3812,0.0],[17.5911,68.3807,0.0],[17.5854,68.375,0.0],[17.5708,68.375,0.0],[17.5646,68.3729,82.4992],[17.5604,68.375,29.232],[17.5542,68.375,90.353],[17.5479,68.3729,506.2147],[17.538,68.3755,500.849],[17.5313,68.3792,324.2487],[17.5146,68.3792,555.0836],[17.5062,68.3833,368.532],[17.4938,68.3833,648.8896],[17.4896,68.3854,606.8755],[17.4854,68.3854,579.0841],[17.4771,68.3896,259.7824],[17.4646,68.3896,387.4484],[17.4604,68.3917,312.1024],[17.45,68.3917,516.5087],[17.4458,68.3938,376.7383],[17.4354,68.3938,467.6295],[17.4313,68.3958,420.218],[17.425,68.3958,493.2317],[17.4151,68.4016,154.465],[17.425,68.4021,53.0776],[17.4266,68.4036,0.0],[17.4208,68.4063,0.0],[17.4151,68.4068,4.8918],[17.4109,68.4089,17.1377],[17.4099,68.412,0.0],[17.3875,68.4208,0.0],[17.3813,68.4208,7.0188],[17.3771,68.4229,0.0],[17.3667,68.4229,9.3954],[17.3625,68.425,0.0],[17.3271,68.425,0.0],[17.3146,68.4208,21.2375],[17.3083,68.4208,20.8322],[17.3021,68.4229,0.0],[17.2943,68.4203,0.0],[17.2974,68.4182,0.0],[17.2964,68.4151,0.0],[17.2995,68.413,0.0],[17.2932,68.4068,0.0],[17.288,68.4057,0.0],[17.2833,68.4021,0.0],[17.2687,68.4021,0.0],[17.2609,68.3995,0.0],[17.2578,68.3964,7.4435],[17.2443,68.3932,0.0],[17.2516,68.3891,39.5238],[17.2505,68.3859,0.0],[17.2536,68.3849,10.569],[17.2526,68.3818,0.0],[17.2563,68.3792,32.018],[17.25,68.3708,38.3135],[17.2536,68.3682,61.1617],[17.2526,68.3651,0.0],[17.262,68.3641,40.5316],[17.2609,68.3609,0.0],[17.2641,68.3599,34.3183],[17.263,68.3568,0.0],[17.2724,68.3557,45.0201],[17.2766,68.3536,82.5661],[17.2755,68.3505,0.0],[17.2786,68.3495,0.0],[17.2734,68.3432,0.0],[17.2771,68.3396,0.0],[17.2734,68.3339,0.0],[17.2807,68.3297,3.3785],[17.2708,68.325,0.0],[17.2563,68.325,0.0],[17.2547,68.3234,0.0],[17.2672,68.3172,0.0],[17.2792,68.3167,0.0],[17.2875,68.3125,0.0],[17.3042,68.3125,0.0],[17.3083,68.3104,0.0],[17.3229,68.3083,26.3463],[17.3422,68.2984,0.0],[17.3516,68.2974,10.4926],[17.3557,68.2953,0.0],[17.3547,68.2922,0.0],[17.3672,68.2859,0.0],[17.3766,68.2849,64.6592],[17.3755,68.2818,0.0],[17.3813,68.2792,0.0],[17.387,68.2786,16.4969],[17.388,68.2755,0.0],[17.3937,68.275,0.0],[17.3995,68.2724,13.0791],[17.3984,68.2672,0.0],[17.4016,68.2662,0.0],[17.4005,68.263,0.0],[17.4036,68.262,0.0],[17.4016,68.2589,0.0],[17.3964,68.2578,0.0],[17.3917,68.2542,0.0],[17.3833,68.2542,0.0],[17.3708,68.2583,0.0],[17.3568,68.2599,0.0],[17.3604,68.2562,70.3947],[17.3568,68.2516,14.4446],[17.3599,68.2484,40.9888],[17.3547,68.2412,0.0],[17.3578,68.2391,20.9731],[17.3568,68.2359,163.6058],[17.3688,68.2354,409.948],[17.3703,68.2338,451.9713],[17.3563,68.2333,301.6938],[17.3521,68.2354,128.0019],[17.3396,68.2354,0.0],[17.3354,68.2312,0.0],[17.3271,68.2312,0.0],[17.3214,68.2349,0.0],[17.3255,68.2391,0.0],[17.3307,68.2401,0.0],[17.3276,68.2432,0.0],[17.3349,68.2443,0.0],[17.337,68.2484,0.0],[17.3297,68.2536,55.9847],[17.337,68.2547,0.0],[17.3411,68.2609,0.0],[17.338,68.2641,0.0],[17.3432,68.2724,0.0],[17.3401,68.2734,0.0],[17.3411,68.2766,0.0],[17.338,68.2776,0.0],[17.3391,68.2807,0.0],[17.3312,68.2813,17.5826],[17.3083,68.2875,0.0],[17.3021,68.2875,28.86],[17.2896,68.2937,19.2906],[17.2729,68.2937,117.9747],[17.2714,68.2953,116.8618],[17.2745,68.2995,0.0],[17.2646,68.3042,0.0],[17.2526,68.3047,164.3125],[17.2516,68.3078,0.0],[17.2443,68.3109,0.7565],[17.2495,68.3182,0.0],[17.2401,68.3193,0.0],[17.2411,68.3224,0.0],[17.2339,68.3255,0.0],[17.2349,68.3287,0.0],[17.2318,68.3297,0.0],[17.237,68.3328,0.0],[17.2276,68.3339,174.5168],[17.2359,68.3432,0.0],[17.2411,68.3443,0.0],[17.2453,68.3505,0.0],[17.2422,68.3526,84.0046],[17.2432,68.3557,0.0],[17.2401,68.3568,63.5847],[17.2411,68.3599,0.0],[17.2339,68.363,96.5456],[17.237,68.3703,0.0],[17.2297,68.3714,0.0],[17.2229,68.375,0.0],[17.2151,68.3755,48.7255],[17.2161,68.3786,3.4026],[17.2078,68.3828,0.0],[17.2021,68.3854,0.0],[17.1943,68.3859,14.9698],[17.1974,68.3912,0.0],[17.1938,68.3917,0.0],[17.1875,68.3896,25.969],[17.1792,68.3938,0.0],[17.1729,68.3938,0.0],[17.1667,68.3917,21.7019],[17.1625,68.3938,0.0],[17.1333,68.3938,0.0],[17.1208,68.3896,0.0],[17.1146,68.3896,0.0],[17.1104,68.3917,0.0],[17.0979,68.3917,0.0],[17.0896,68.3854,21.8418],[17.0568,68.3849,0.0],[17.0571,68.3772,140.8212],[17.0693,68.3774,137.9059],[17.0733,68.3459,741.0563],[17.0612,68.3457,745.5231],[17.0617,68.3412,875.6337],[17.0739,68.3414,985.5046],[17.0744,68.3369,940.1278],[17.0866,68.3371,960.5093],[17.0877,68.3281,866.3379],[17.0998,68.3283,1043.6149],[17.1004,68.3238,783.4941],[17.1125,68.324,908.759],[17.1131,68.3195,646.6871],[17.1252,68.3197,844.4323],[17.1257,68.3152,573.5208],[17.1378,68.3154,723.3307],[17.1384,68.3109,557.9086],[17.1505,68.3111,916.8861],[17.1522,68.2976,370.7264],[17.1643,68.2978,889.9898],[17.1654,68.2888,394.1956],[17.1775,68.289,720.8539],[17.1791,68.2755,436.1488],[17.1912,68.2757,565.4058],[17.1923,68.2667,729.9348],[17.2044,68.2669,870.8642],[17.2055,68.2579,780.2039],[17.2176,68.2581,1118.7203],[17.2192,68.2446,1354.0109],[17.2071,68.2444,1393.9697],[17.2087,68.2309,1264.1151],[17.1967,68.2307,1263.9681],[17.1977,68.2217,1223.5537],[17.1857,68.2216,1227.309],[17.1879,68.2036,1151.1338],[17.1999,68.2038,1034.2903],[17.2005,68.1993,968.21],[17.2125,68.1995,994.6895],[17.2184,68.15,1415.5958],[17.2305,68.1502,1374.7419],[17.2315,68.1412,1222.3405],[17.2435,68.1414,1088.5732],[17.2441,68.1369,941.4268],[17.2561,68.1371,865.9849],[17.2572,68.1281,868.0438],[17.2692,68.1282,1018.0991],[17.2697,68.1237,1145.2317],[17.2817,68.1239,1308.5931],[17.2822,68.1194,1466.0616]]],
[[[17.5255,68.3818,213.1466],[17.5286,68.3828,125.8337],[17.525,68.3854,9.4331],[17.5214,68.3849,20.5551],[17.5214,68.3839,70.0693],[17.5255,68.3818,213.1466]]],
[[[17.0589,68.3922,2.3816],[17.062,68.3922,0.0],[17.062,68.3932,0.0],[17.0589,68.3932,0.0],[17.0589,68.3922,2.3816]]],
[[[17.4755,68.3932,42.6544],[17.4771,68.3917,130.8445],[17.4807,68.3922,77.0182],[17.4792,68.3938,19.7638],[17.4755,68.3932,42.6544]]],
[[[17.2214,68.4307,0.0],[17.2229,68.4292,0.0],[17.2266,68.4297,0.0],[17.225,68.4313,0.0],[17.2214,68.4307,0.0]]]]}}