{"type":"Feature","properties":{"featurecla":"Lake","scalerank":9,"name":"Røssvatnet","name_abb":"Røssvatnet","name_alt":null,"note":null,"delta":null,"dam_name":null,"year":-99,"admin":null,"min_zoom":7.0,"min_label":8.0},
"geometry":{"type": "Polygon","coordinates": [[[13.97302758062645,65.6724561770204,380.5],[13.986273966347369,65.67039562813045,380.5],[14.01718219969618,65.660975976062247,380.5],[14.034549683196957,65.658915427172332,380.5],[14.10666889434421,65.6642139814607,380.5],[14.138754584201564,65.6724561770204,380.5],[14.172017730567461,65.68629129099557,389.2322],[14.073405747978342,65.729562817683927,425.8867],[14.065457916545796,65.744575388167647,380.5],[14.080470487029487,65.75399504023585,386.0464],[14.137282763565906,65.761354143414138,476.1656],[14.186735936924038,65.781665268186231,417.4506],[14.205869605187587,65.782253996440488,408.9664],[14.198804866136442,65.793145469144378,382.9828],[14.187324665178295,65.799621479941266,397.8427],[14.172900822948833,65.802565121212581,380.5],[14.158182616592256,65.802270757085438,380.5],[14.169957181677518,65.823464974238931,380.5],[14.191740127085268,65.84259864250248,388.8445],[14.216761077891476,65.857022484731942,432.0654],[14.239427115680598,65.864381587910231,380.5],[14.427525792917749,65.892640544114869,400.95],[14.438122901494467,65.898233462530357,388.7261],[14.431941254824721,65.90941929936136,380.5],[14.411041401798371,65.913540397141219,380.5],[14.208224518204645,65.8967616418947,380.5],[14.200571050899214,65.891757451733469,380.5],[14.196449953119384,65.884103984428037,380.5],[14.188796485813953,65.87438996823272,380.5],[14.176727556601548,65.8670308650544,380.5],[14.161714986117829,65.861437946638915,380.5],[14.14523059499848,65.857905577113343,480.8259],[14.130512388641876,65.857022484731942,515.4611],[14.119326551810872,65.852901386952084,542.5932],[14.082236671792288,65.826408615510246,514.9173],[14.069284650198483,65.820226968840473,463.2141],[14.038376416849673,65.811101680899384,460.8561],[13.9930443412714,65.804036941848238,380.5],[13.960369923159789,65.794617289780035,380.5],[13.928872961556692,65.79167364850872,380.5],[13.900614005352054,65.806097490738154,391.373],[13.88354088597842,65.818755148204815,380.5],[13.859697391680754,65.830824077417219,380.5],[13.835265169128832,65.838183180595507,380.5],[13.814954044356739,65.837005724086993,508.6391],[13.8249624246792,65.826702979637389,389.0826],[13.841446815798577,65.803448213593981,403.4268],[13.849100283104008,65.796089110415693,449.6624],[13.857931206917954,65.793439833271492,460.8095],[13.880302880579961,65.79167364850872,413.2775],[13.890016896775307,65.789024371364519,419.1286],[13.895904179317938,65.7851976377118,451.7132],[13.898259092334996,65.781959632313374,509.9381],[13.901497097733454,65.778427262787773,447.6292],[13.910622385674515,65.7748948932622,442.0637],[13.906795652021827,65.757821773888566,577.4387],[13.916804032344288,65.75311194785445,423.8625],[13.932405331082265,65.752523219600192,380.5],[13.944768624421812,65.748107757693219,389.312],[13.949772814583042,65.739571198006388,449.0711],[13.948300993947385,65.725441719904069,484.6263],[13.9521277276001,65.7133727906917,380.5],[13.898553456462139,65.695710943063773,429.6542],[13.879714152325704,65.6930616659196,455.5576],[13.827906065950515,65.695416578936658,466.4901],[13.801413294508677,65.693944758301,388.368],[13.780219077355184,65.68629129099557,380.5],[13.807889305305565,65.677754731308738,380.5],[13.97302758062645,65.6724561770204,380.5]]]}}