{"type":"Feature","properties":{"featurecla":"Lake","scalerank":8,"name":"null407","name_abb":null,"name_alt":null,"note":"_untitled_28","delta":null,"dam_name":null,"year":-99,"admin":null,"min_zoom":6.0,"min_label":7.0},
"geometry":{"type": "Polygon","coordinates": [[[16.026511731496981,66.851678870309854,1219.9958],[16.076259268982227,66.8307790172835,1362.1078],[16.069194529931053,66.823125549978073,1391.9384],[16.080969095016314,66.811056620765669,757.7509],[16.108344958839581,66.810173528384269,775.2695],[16.165451599503115,66.8169439033083,745.6329],[16.152793942036453,66.8307790172835,745.5784],[16.027983552132639,66.8716956309548,916.981],[16.020918813081465,66.878466005878835,898.6551],[16.015914622920235,66.88641383731138,974.6353],[16.008555519741947,66.890534935091239,1044.5737],[15.993542949258227,66.885825109057123,1203.1581],[16.006494970852003,66.86551398428503,1173.298],[16.026511731496981,66.851678870309854,1219.9958]]]}}