{"type":"Feature","properties":{"GID_2":"NOR.1.19_1","GID_0":"NOR","country":"Norway","GID_1":"NOR.1_1","province":"Akershus","NL_NAME_1":"NA","county":"Sørum","VARNAME_2":"NA","NL_NAME_2":"NA","TYPE_2":"Kommuner","ENGTYPE_2":"Municipality","CC_2":"NA","HASC_2":"NO.AK.SO","name":"Sørum.county"},
"geometry":{"type": "MultiPolygon","coordinates": [[[[11.4345,59.988,291.9998],[11.4334,59.9924,284.4456],[11.4245,59.9919,270.332],[11.4222,60.0008,252.2111],[11.4132,60.0002,199.5942],[11.4109,60.0091,175.2005],[11.3931,60.0079,157.8192],[11.3896,60.0213,143.8126],[11.3717,60.0201,231.1964],[11.3706,60.0245,262.5775],[11.3617,60.024,248.4809],[11.3593,60.0329,208.1718],[11.3415,60.0317,163.4679],[11.3403,60.0361,116.5],[11.3225,60.035,206.2885],[11.3201,60.0439,152.2018],[11.3112,60.0433,186.9236],[11.31,60.0477,156.5999],[11.3011,60.0471,202.8145],[11.2987,60.056,200.9436],[11.2898,60.0554,232.9959],[11.2886,60.0599,206.7283],[11.2797,60.0593,204.5545],[11.2773,60.0682,204.5569],[11.2684,60.0676,179.1605],[11.2672,60.0721,152.2707],[11.2583,60.0715,137.2765],[11.2559,60.0804,121.8784],[11.2469,60.0798,136.3061],[11.2481,60.0753,120.5187],[11.2392,60.0747,129.4479],[11.2404,60.0703,119.7402],[11.2315,60.0697,116.1702],[11.2327,60.0652,128.9873],[11.2237,60.0646,126.8345],[11.2261,60.0558,112.065],[11.2083,60.0546,132.9703],[11.2071,60.059,125.3913],[11.1892,60.0578,149.0321],[11.188,60.0623,129.6819],[11.1523,60.0599,160.0502],[11.1535,60.0554,164.321],[11.1267,60.0536,155.7336],[11.1255,60.0581,159.3617],[11.0899,60.0557,124.3212],[11.0911,60.0512,111.4379],[11.0821,60.0506,122.1966],[11.0809,60.0551,115.6497],[11.072,60.0545,114.5515],[11.0744,60.0456,190.6613],[11.0655,60.045,215.5123],[11.0679,60.0361,293.1663],[11.059,60.0355,307.1225],[11.0626,60.0221,191.9953],[11.0716,60.0227,169.8551],[11.0752,60.0094,162.8875],[11.0841,60.01,137.0377],[11.0853,60.0055,118.6141],[11.0942,60.0061,117.8515],[11.0954,60.0017,108.1459],[11.1043,60.0023,124.2576],[11.1055,59.9978,125.7079],[11.1144,59.9985,171.3534],[11.1169,59.9896,225.0895],[11.1258,59.9902,217.7123],[11.127,59.9857,190.7757],[11.1448,59.9869,171.6973],[11.1436,59.9914,244.4984],[11.1525,59.992,245.2631],[11.1537,59.9875,246.6084],[11.1626,59.9881,332.4148],[11.165,59.9792,288.4161],[11.1739,59.9798,310.6429],[11.1751,59.9754,287.7863],[11.184,59.976,248.721],[11.1852,59.9715,225.4956],[11.1941,59.9721,197.8072],[11.1988,59.9543,136.3662],[11.2077,59.9549,162.903],[11.2089,59.9505,179.7446],[11.2178,59.9511,199.7009],[11.219,59.9466,220.3322],[11.2368,59.9478,201.1107],[11.238,59.9433,209.8012],[11.2469,59.9439,194.8714],[11.2504,59.9306,234.0187],[11.2415,59.93,201.2765],[11.2463,59.9122,199.1846],[11.2551,59.9128,237.6741],[11.2587,59.8994,230.5376],[11.2676,59.9,230.3993],[11.2699,59.8911,242.295],[11.2788,59.8917,227.8813],[11.28,59.8873,214.6956],[11.2889,59.8879,236.0572],[11.29,59.8834,244.6758],[11.2989,59.884,258.6261],[11.3001,59.8796,265.6442],[11.3179,59.8807,226.6132],[11.3155,59.8896,272.2744],[11.3244,59.8902,272.0091],[11.3197,59.908,262.217],[11.3286,59.9086,234.458],[11.3274,59.9131,257.5695],[11.3363,59.9137,239.8802],[11.334,59.9226,271.1523],[11.3429,59.9231,184.2855],[11.3405,59.932,251.4007],[11.3494,59.9326,178.2036],[11.3471,59.9415,139.9424],[11.356,59.9421,134.9504],[11.3548,59.9466,137.5152],[11.3637,59.9471,141.2017],[11.3614,59.956,143.7212],[11.397,59.9584,211.0394],[11.3958,59.9628,269.3925],[11.4047,59.9634,228.4127],[11.4036,59.9679,258.9789],[11.4125,59.9684,222.7769],[11.4113,59.9729,269.4482],[11.4202,59.9735,283.1896],[11.419,59.9779,288.623],[11.428,59.9785,294.4626],[11.4268,59.983,280.6093],[11.4357,59.9835,304.6913],[11.4345,59.988,291.9998]]]]}}