{"type": "Feature","bbox": [22.1859,69.6476,24.218,70.4456],"geometry": {"type": "MultiPolygon","coordinates": [[[[23.9548,70.0772,595.9478],[23.959,70.0997,684.5277],[23.9459,70.1,656.7186],[23.9476,70.109,557.473],[23.9345,70.1092,529.3615],[23.9353,70.1137,515.209],[23.9222,70.114,505.2741],[23.9239,70.123,469.9076],[23.9107,70.1233,481.0469],[23.9116,70.1278,470.9627],[23.8984,70.1281,521.2522],[23.9001,70.137,479.0515],[23.887,70.1373,479.5184],[23.8886,70.1463,425.8303],[23.8755,70.1466,443.7317],[23.8772,70.1556,428.9457],[23.864,70.1559,485.189],[23.8648,70.1604,518.2335],[23.8517,70.1606,512.2466],[23.8533,70.1696,503.88],[23.8402,70.1699,458.1569],[23.8418,70.1789,336.0938],[23.8286,70.1792,339.9188],[23.8295,70.1837,314.7485],[23.8163,70.1839,315.2443],[23.8179,70.1929,483.2022],[23.8047,70.1932,493.6624],[23.8064,70.2022,527.6933],[23.7932,70.2025,536.6938],[23.794,70.207,501.6401],[23.7808,70.2072,499.3686],[23.7824,70.2162,517.8929],[23.7693,70.2165,560.6132],[23.7717,70.23,418.1696],[23.7585,70.2303,368.8381],[23.7609,70.2438,421.3806],[23.7477,70.244,418.4619],[23.7493,70.253,588.1572],[23.7361,70.2533,513.0696],[23.7393,70.2713,385.6696],[23.7261,70.2716,357.6232],[23.7325,70.3076,470.0275],[23.7193,70.3078,448.5376],[23.7225,70.3258,644.3917],[23.696,70.3264,548.9374],[23.6968,70.3309,357.58],[23.6702,70.3314,414.2271],[23.671,70.3359,427.3018],[23.6578,70.3361,431.4372],[23.6586,70.3406,456.0665],[23.632,70.3411,504.9612],[23.6328,70.3456,444.1375],[23.6062,70.3462,514.636],[23.607,70.3507,524.7198],[23.5805,70.3512,482.8912],[23.5812,70.3557,408.7213],[23.5679,70.3559,440.2012],[23.5687,70.3604,454.5947],[23.5421,70.3609,385.9934],[23.5429,70.3654,271.1569],[23.5292,70.3657,0.0],[23.5266,70.363,97.485],[23.5193,70.362,103.3606],[23.5224,70.3588,315.6404],[23.5042,70.3583,0.0],[23.5026,70.3578,0.0],[23.5036,70.3547,43.7938],[23.5021,70.3542,81.5613],[23.4938,70.3562,0.0],[23.4896,70.3542,0.0],[23.4813,70.3542,0.0],[23.4797,70.3557,0.0],[23.4828,70.3578,0.0],[23.4776,70.3578,0.0],[23.4714,70.3526,0.0],[23.4745,70.3516,0.0],[23.4734,70.3484,0.0],[23.4828,70.3474,0.0],[23.4786,70.3422,111.4316],[23.4625,70.3396,0.0],[23.4557,70.3339,6.1637],[23.4401,70.3307,0.0],[23.4432,70.3276,66.1365],[23.4401,70.3255,0.0],[23.4432,70.3234,102.1072],[23.4297,70.3109,0.0],[23.4521,70.3104,0.0],[23.4646,70.3146,0.0],[23.4807,70.3172,0.0],[23.4839,70.3203,0.0],[23.4911,70.3214,0.0],[23.4958,70.325,14.4033],[23.5021,70.3229,0.0],[23.5083,70.3229,0.0],[23.5099,70.3214,0.0],[23.5078,70.3193,11.3001],[23.5042,70.3187,5.1478],[23.4979,70.3208,0.0],[23.487,70.313,0.0],[23.4797,70.312,0.0],[23.4776,70.3089,0.0],[23.4807,70.3068,103.3725],[23.4688,70.3063,0.0],[23.4672,70.3047,0.0],[23.4766,70.3037,69.5427],[23.4734,70.3016,0.0],[23.475,70.3,0.0],[23.4938,70.3,0.0],[23.4979,70.2979,0.0],[23.5167,70.2979,14.4266],[23.5208,70.2958,0.0],[23.5286,70.2953,0.0],[23.5255,70.2922,0.0],[23.5349,70.2911,0.0],[23.5339,70.288,0.0],[23.537,70.287,0.0],[23.5328,70.2818,6.5458],[23.5104,70.2813,2.8826],[23.5063,70.2833,0.0],[23.4875,70.2833,40.3131],[23.4833,70.2854,0.0],[23.475,70.2854,0.0],[23.4688,70.2833,53.197],[23.4604,70.2875,0.0],[23.4417,70.2875,12.5975],[23.4375,70.2854,45.418],[23.4188,70.2854,19.3572],[23.4141,70.2818,90.9047],[23.3958,70.2771,195.4432],[23.3771,70.2813,0.0],[23.3693,70.2734,0.0],[23.3875,70.2708,20.7241],[23.3937,70.2667,0.0],[23.4,70.2667,0.0],[23.4042,70.2646,0.0],[23.4104,70.2646,0.0],[23.412,70.263,3.018],[23.4021,70.2625,0.0],[23.3958,70.2646,0.0],[23.3917,70.2625,45.258],[23.3833,70.2625,99.3856],[23.375,70.2667,0.0],[23.3646,70.2667,41.7216],[23.3583,70.2688,0.0],[23.3354,70.2625,0.0],[23.325,70.2625,0.0],[23.3203,70.2589,81.7521],[23.3104,70.2562,280.122],[23.3042,70.2583,63.7139],[23.2771,70.2583,0.0],[23.2672,70.2557,0.0],[23.2625,70.2521,108.192],[23.2443,70.2516,0.0],[23.2474,70.2495,0.0],[23.2464,70.2464,0.0],[23.2625,70.2438,33.6292],[23.2708,70.2396,0.0],[23.2854,70.2396,0.0],[23.2901,70.2432,15.615],[23.2938,70.2438,48.456],[23.3083,70.2396,0.0],[23.3167,70.2396,0.0],[23.3229,70.2417,16.4675],[23.3292,70.2396,0.0],[23.3354,70.2417,0.0],[23.3417,70.2396,0.0],[23.3458,70.2417,0.0],[23.3578,70.2422,0.0],[23.3547,70.2443,0.0],[23.3563,70.2458,8.9432],[23.3646,70.2458,0.0],[23.3688,70.2438,0.0],[23.3896,70.2438,0.0],[23.3958,70.2479,0.0],[23.4042,70.2479,0.0],[23.4083,70.2458,0.0],[23.4354,70.2458,0.0],[23.4417,70.2479,0.0],[23.4495,70.2422,0.0],[23.4229,70.2354,101.7539],[23.4063,70.2354,69.7397],[23.4047,70.2338,54.939],[23.4078,70.2318,57.1021],[23.4057,70.2297,35.915],[23.3979,70.2292,0.0],[23.3937,70.2271,3.9107],[23.3438,70.2271,0.0],[23.3375,70.2292,0.0],[23.3333,70.2271,3.7059],[23.3104,70.2271,0.0],[23.3063,70.225,4.8882],[23.2958,70.225,0.0],[23.2922,70.2224,0.0],[23.2953,70.2203,187.5181],[23.2938,70.2188,295.4437],[23.2708,70.2188,83.9915],[23.2646,70.2167,284.4225],[23.2604,70.2188,27.298],[23.2354,70.2188,7.4193],[23.2313,70.2208,0.0],[23.2042,70.2208,0.0],[23.1974,70.2151,0.0],[23.1839,70.2141,9.5791],[23.1854,70.2125,0.0],[23.1979,70.2125,43.8708],[23.2036,70.2099,7.0573],[23.2005,70.2078,0.0],[23.2036,70.2057,0.0],[23.2026,70.2026,0.0],[23.212,70.2016,62.0419],[23.2109,70.1984,0.0],[23.2151,70.1964,0.0],[23.2313,70.1937,40.7016],[23.238,70.1901,0.0],[23.2458,70.1896,53.5485],[23.25,70.1875,0.0],[23.2604,70.1875,23.8828],[23.275,70.1833,0.0],[23.2938,70.1833,15.743],[23.2979,70.1813,0.0],[23.3063,70.1833,30.9145],[23.3104,70.1813,0.0],[23.3312,70.1813,0.0],[23.3375,70.1833,0.0],[23.3438,70.1813,0.0],[23.3479,70.1833,0.0],[23.3521,70.1813,0.0],[23.3703,70.1787,0.0],[23.3688,70.1771,0.0],[23.3396,70.1771,0.0],[23.3349,70.1734,131.9976],[23.325,70.1708,287.3113],[23.3167,70.1708,241.1554],[23.3021,70.175,0.0],[23.2771,70.175,0.0],[23.2714,70.1724,16.3389],[23.2693,70.1693,0.0],[23.2786,70.1682,21.5826],[23.2776,70.1651,0.0],[23.2849,70.162,9.5037],[23.2833,70.1604,32.9323],[23.2714,70.1599,0.0],[23.2734,70.1568,0.0],[23.2875,70.1563,11.6599],[23.3026,70.1484,0.0],[23.3099,70.1474,30.3389],[23.3224,70.1412,18.7726],[23.3214,70.138,0.0],[23.3312,70.1354,0.0],[23.3438,70.1354,32.4292],[23.3453,70.1349,56.8758],[23.3443,70.1318,0.0],[23.362,70.1286,0.0],[23.3703,70.1245,0.0],[23.3693,70.1214,23.0477],[23.3766,70.1182,0.0],[23.3786,70.1151,0.0],[23.3651,70.1141,0.0],[23.3536,70.1026,0.0],[23.3438,70.1,0.0],[23.3401,70.1005,0.0],[23.3411,70.1036,0.0],[23.3396,70.1042,0.0],[23.3312,70.1021,10.7977],[23.3229,70.1062,3.0579],[23.3193,70.1057,0.0],[23.3224,70.1026,3.1634],[23.3188,70.1,11.9445],[23.2979,70.1,9.1009],[23.2938,70.1021,5.5074],[23.2792,70.1021,0.0],[23.275,70.1,34.9056],[23.2687,70.1,52.0299],[23.2646,70.1021,0.0],[23.2313,70.1021,9.1693],[23.2271,70.1,66.1857],[23.2167,70.1,37.6497],[23.1958,70.0938,0.0],[23.1792,70.0938,0.0],[23.1667,70.0896,35.1957],[23.1583,70.0896,46.6059],[23.1521,70.0917,0.0],[23.1422,70.0891,15.8524],[23.1401,70.087,41.0192],[23.1453,70.0828,5.634],[23.1443,70.0797,0.0],[23.1536,70.0787,11.1158],[23.1578,70.0766,32.5715],[23.1568,70.0734,0.0],[23.1583,70.0729,0.0],[23.1688,70.0729,0.0],[23.1729,70.0708,0.0],[23.1807,70.0703,1.5398],[23.1849,70.0682,4.2159],[23.1839,70.0651,56.9984],[23.1911,70.062,0.0],[23.1943,70.0589,6.253],[23.2125,70.0563,65.0556],[23.2167,70.0542,6.9344],[23.2229,70.0542,54.8274],[23.2245,70.0537,22.3368],[23.2234,70.0505,17.5454],[23.2255,70.0484,4.5203],[23.2333,70.0479,20.9086],[23.2417,70.0437,0.0],[23.2479,70.0437,0.0],[23.2604,70.0396,0.0],[23.2729,70.0396,48.2375],[23.2786,70.037,29.7275],[23.2776,70.0339,0.0],[23.2792,70.0333,0.0],[23.3021,70.0333,11.1471],[23.3063,70.0313,0.0],[23.3245,70.0286,129.9825],[23.3234,70.0255,0.0],[23.325,70.025,0.0],[23.3354,70.025,36.1081],[23.3396,70.0229,0.0],[23.3667,70.0229,16.6007],[23.3708,70.025,81.5885],[23.3792,70.0229,0.0],[23.3833,70.025,0.0],[23.4479,70.025,0.0],[23.4521,70.0271,7.7907],[23.4583,70.025,0.0],[23.4792,70.025,0.0],[23.4854,70.0271,58.4729],[23.4896,70.025,0.0],[23.5,70.025,0.0],[23.5042,70.0229,0.0],[23.512,70.0224,3.2549],[23.5307,70.012,116.4346],[23.5208,70.0083,87.9584],[23.5089,70.0078,21.5832],[23.512,70.0047,69.2207],[23.5083,70.0021,78.3381],[23.4979,70.0,29.9331],[23.4917,70.0021,0.0],[23.4818,69.9995,47.6628],[23.4797,69.9964,0.0],[23.4849,69.9922,0.0],[23.4729,69.9812,4.7754],[23.4583,69.9812,4.6564],[23.4521,69.9833,0.3346],[23.4396,69.9792,8.3081],[23.4292,69.9792,0.0],[23.425,69.9771,0.0],[23.4188,69.9792,0.0],[23.4104,69.9792,0.0],[23.4089,69.9776,0.0],[23.412,69.9755,1.1034],[23.4089,69.9724,0.0],[23.4099,69.9693,0.0],[23.4021,69.9688,0.3352],[23.3911,69.9745,0.0],[23.3833,69.975,1.0328],[23.3776,69.9776,0.0],[23.3807,69.9797,0.0],[23.3792,69.9812,0.0],[23.3708,69.9812,0.16],[23.3646,69.9792,0.8976],[23.3604,69.9812,0.0],[23.3396,69.9812,2.7599],[23.3297,69.9786,0.0],[23.325,69.975,21.5212],[23.3104,69.975,65.1631],[23.3047,69.9776,14.7745],[23.3026,69.9797,34.3804],[23.3036,69.9828,8.2728],[23.2979,69.9854,1.8937],[23.2896,69.9854,98.1411],[23.2833,69.9833,188.0703],[23.275,69.9875,94.7979],[23.2625,69.9875,72.6744],[23.2568,69.9849,48.9698],[23.2599,69.9828,63.8585],[23.2589,69.9797,0.0],[23.262,69.9786,14.0062],[23.2578,69.9734,31.977],[23.2479,69.9708,0.0],[23.2359,69.9703,8.8749],[23.2411,69.9651,0.0],[23.2188,69.9604,5.8625],[23.2125,69.9563,20.1108],[23.1958,69.9563,0.0],[23.1875,69.95,0.0],[23.1792,69.95,6.281],[23.175,69.9521,0.0],[23.1625,69.9521,14.4041],[23.1583,69.95,24.2478],[23.1542,69.95,1.9905],[23.1464,69.9453,39.2242],[23.1495,69.9422,180.3243],[23.1375,69.9417,77.9635],[23.1276,69.9391,13.3419],[23.1188,69.9313,0.0],[23.1042,69.9313,0.0],[23.1,69.9333,0.0],[23.0922,69.9339,19.2083],[23.0938,69.9354,2.5184],[23.1057,69.9359,0.0],[23.1099,69.9401,0.0],[23.1089,69.9432,21.6683],[23.1099,69.9453,2.5615],[23.0875,69.9458,13.9167],[23.0807,69.9401,271.7256],[23.0734,69.9391,203.8849],[23.0688,69.9354,341.5047],[23.063,69.9349,185.3346],[23.0536,69.9276,265.5646],[23.0438,69.925,217.0263],[23.0375,69.925,22.7883],[23.0313,69.9271,0.0],[23.025,69.925,7.8351],[23.0193,69.9276,0.0],[23.0234,69.9328,0.0],[23.0307,69.9339,0.0],[23.0359,69.9391,0.0],[23.0417,69.9396,0.0],[23.0474,69.9422,4.627],[23.0526,69.9474,0.0],[23.0646,69.9479,0.0],[23.0854,69.9542,34.3677],[23.0979,69.9563,0.0],[23.1026,69.9599,12.9206],[23.1125,69.9625,0.0],[23.1229,69.9625,0.0],[23.1271,69.9646,13.2387],[23.1333,69.9625,0.0],[23.137,69.963,15.6058],[23.1339,69.9661,0.0],[23.1432,69.9766,0.0],[23.1396,69.9792,0.0],[23.125,69.9792,46.3591],[23.1125,69.975,39.7334],[23.1042,69.975,2.2933],[23.0943,69.9797,142.2762],[23.0953,69.9828,24.2657],[23.0943,69.9849,20.6889],[23.1016,69.9922,0.0],[23.0984,69.9953,5.4393],[23.1057,70.0016,0.0],[23.1026,70.0026,0.0],[23.1036,70.0057,0.0],[23.0964,70.0089,15.2552],[23.0974,70.012,0.0],[23.088,70.0172,5.6665],[23.0891,70.0203,0.0],[23.0859,70.0214,8.7071],[23.087,70.0245,0.0],[23.0797,70.0255,16.6657],[23.0807,70.0286,0.0],[23.0766,70.0307,0.0],[23.0651,70.0307,5.5505],[23.0599,70.0255,42.6158],[23.0542,70.025,9.1787],[23.0495,70.0214,9.8203],[23.0422,70.0203,0.0],[23.0432,70.0172,1.5742],[23.0417,70.0167,1.4725],[23.0292,70.0167,0.0],[23.025,70.0188,0.0],[23.0068,70.0214,92.51],[23.0078,70.0245,36.1344],[23.0016,70.0286,0.0],[22.9818,70.0318,0.0],[22.9828,70.0349,0.0],[22.9734,70.0359,16.8875],[22.9688,70.0396,0.0],[22.9547,70.0401,2.565],[22.9583,70.0437,0.0],[22.9766,70.0443,0.0],[22.9859,70.0537,5.7264],[22.9932,70.0547,0.0],[22.9995,70.0589,0.0],[22.9964,70.062,7.9104],[22.9995,70.0661,0.0],[22.9818,70.0755,61.0664],[22.987,70.0818,0.0],[22.9839,70.0849,48.0024],[22.9891,70.088,0.0],[22.9859,70.0911,102.084],[22.9891,70.0953,0.0],[22.9859,70.0974,49.3528],[22.9932,70.0984,0.0],[22.9953,70.1016,0.0],[22.9922,70.1036,0.0],[22.9979,70.1062,0.0],[23.0036,70.1068,0.0],[23.0021,70.1083,0.0],[22.9958,70.1083,7.8167],[22.9901,70.1109,18.7835],[22.9911,70.1141,0.0],[22.988,70.1151,21.2992],[22.9911,70.1193,10.0126],[22.9901,70.1224,0.0],[22.9932,70.1255,0.0],[22.9901,70.1286,0.0],[22.9974,70.1297,0.0],[23.0016,70.1339,0.0],[22.9974,70.137,3.3355],[22.9729,70.1396,0.0],[22.9547,70.1349,0.0],[22.9495,70.1297,56.8428],[22.9417,70.1292,0.0],[22.937,70.1255,15.2417],[22.9297,70.1245,0.0],[22.9266,70.1214,43.0135],[22.9193,70.1203,71.7265],[22.9224,70.1182,329.7266],[22.9208,70.1167,421.5098],[22.9146,70.1188,36.9109],[22.9063,70.1188,0.0],[22.888,70.1141,0.0],[22.8828,70.1088,0.0],[22.8672,70.1057,0.0],[22.8625,70.1021,3.3068],[22.8521,70.1021,0.0],[22.8396,70.0979,3.4589],[22.8167,70.0979,0.0],[22.8104,70.0958,0.0],[22.8063,70.0979,0.0],[22.7979,70.0979,0.0],[22.775,70.0896,19.5938],[22.7583,70.0896,0.0],[22.7542,70.0875,28.049],[22.7479,70.0896,0.0],[22.7333,70.0896,0.0],[22.7125,70.0833,0.0],[22.7021,70.0833,0.0],[22.6974,70.0797,0.0],[22.6875,70.0771,0.0],[22.6708,70.0771,0.0],[22.6667,70.075,0.0],[22.6589,70.0776,0.0],[22.6641,70.0828,0.0],[22.6589,70.0828,0.0],[22.6542,70.0792,0.0],[22.6464,70.0818,0.0],[22.6521,70.0875,0.0],[22.6667,70.0875,0.0],[22.6708,70.0854,0.0],[22.6792,70.0854,0.0],[22.6854,70.0875,0.0],[22.6896,70.0854,0.0],[22.6979,70.0896,0.0],[22.7083,70.0896,0.0],[22.713,70.0932,0.0],[22.7229,70.0958,0.0],[22.7333,70.0958,0.0],[22.7375,70.0979,0.0],[22.7771,70.0979,0.0],[22.7813,70.1,0.0],[22.7917,70.1,0.0],[22.7958,70.1021,18.7196],[22.8042,70.1,0.0],[22.8089,70.1036,0.0],[22.8161,70.1047,0.0],[22.8208,70.1083,0.0],[22.8271,70.1062,0.0],[22.8307,70.1068,0.0],[22.8349,70.1109,0.0],[22.8312,70.1146,0.0],[22.8276,70.1141,0.0],[22.8307,70.112,70.5289],[22.8292,70.1104,13.01],[22.8229,70.1125,88.9552],[22.8167,70.1104,90.7375],[22.8083,70.1125,134.1085],[22.8042,70.1104,316.1849],[22.7958,70.1104,430.8891],[22.7896,70.1125,314.7182],[22.7771,70.1083,618.2449],[22.7708,70.1104,484.6445],[22.7646,70.1083,562.3621],[22.7563,70.1083,509.1075],[22.7547,70.1099,349.5951],[22.7583,70.1125,172.7374],[22.7813,70.1125,241.4286],[22.7854,70.1146,118.2193],[22.7958,70.1146,138.1261],[22.8,70.1167,0.0],[22.8292,70.1167,0.0],[22.8354,70.1208,45.1847],[22.8438,70.1188,0.0],[22.8484,70.1224,0.0],[22.8557,70.1234,0.0],[22.8609,70.1286,6.1712],[22.8682,70.1297,17.4301],[22.8714,70.1328,26.7173],[22.8771,70.1333,0.0],[22.8828,70.1359,0.0],[22.8797,70.138,0.0],[22.8818,70.1412,0.0],[22.9141,70.1484,0.0],[22.9161,70.1516,0.0],[22.9089,70.1547,0.0],[22.9068,70.1568,0.0],[22.9078,70.1599,0.0],[22.9047,70.162,0.0],[22.9146,70.1625,0.0],[22.9188,70.1604,0.0],[22.925,70.1604,0.0],[22.9266,70.1589,39.0272],[22.9234,70.1568,0.0],[22.9271,70.1563,0.0],[22.9411,70.1609,0.0],[22.9464,70.1662,0.0],[22.9536,70.1672,0.0],[22.9651,70.1787,0.0],[22.9703,70.1818,0.0],[22.9672,70.1839,0.0],[22.9682,70.187,0.0],[22.9651,70.188,26.1715],[22.9661,70.1911,0.0],[22.963,70.1922,86.5271],[22.9641,70.1953,0.0],[22.962,70.1974,0.0],[22.9542,70.1979,54.7022],[22.9458,70.2021,0.0],[22.9396,70.2021,9.5541],[22.9354,70.2042,0.0],[22.9229,70.2042,7.9153],[22.9188,70.2063,0.0],[22.9125,70.2063,0.0],[22.9063,70.2042,112.4733],[22.9,70.2063,11.986],[22.8937,70.2042,185.7054],[22.8896,70.2063,50.64],[22.8818,70.2068,49.432],[22.8891,70.2151,0.0],[22.8875,70.2167,0.0],[22.8776,70.2161,0.0],[22.8672,70.2057,90.8772],[22.8708,70.2042,227.6273],[22.875,70.2063,60.1677],[22.8786,70.2057,134.9002],[22.8776,70.2026,307.2348],[22.8786,70.2005,461.8948],[22.8729,70.2,496.1807],[22.8714,70.1984,605.5007],[22.8813,70.1979,599.1629],[22.8854,70.2,470.3084],[22.8891,70.1995,485.5503],[22.8854,70.1958,649.5148],[22.8646,70.1958,672.8823],[22.863,70.1964,655.0441],[22.8641,70.1995,574.0169],[22.8625,70.2,531.7703],[22.8563,70.1979,668.7893],[22.8521,70.2,520.4272],[22.8458,70.2,376.3362],[22.8443,70.2016,278.3291],[22.8563,70.2021,326.3731],[22.8599,70.2057,73.0196],[22.8333,70.2083,0.0],[22.8297,70.2057,0.0],[22.8328,70.2026,286.1701],[22.8042,70.1958,682.3442],[22.8026,70.1974,651.4286],[22.8068,70.2016,336.7054],[22.8141,70.2026,321.9815],[22.8161,70.2057,49.9827],[22.7984,70.2089,0.0],[22.8016,70.213,0.0],[22.8,70.2146,0.0],[22.7792,70.2146,0.0],[22.7776,70.213,0.0],[22.7807,70.2109,0.0],[22.7708,70.2104,54.9588],[22.7667,70.2125,0.0],[22.7479,70.2125,67.3653],[22.7438,70.2146,0.0],[22.7354,70.2146,0.0],[22.7292,70.2125,11.1945],[22.725,70.2146,0.0],[22.7083,70.2146,4.8754],[22.7042,70.2167,17.0856],[22.6979,70.2146,281.3234],[22.6896,70.2146,390.2032],[22.6854,70.2167,289.2802],[22.6771,70.2167,348.6326],[22.6708,70.2146,318.9815],[22.6625,70.2188,5.3434],[22.6542,70.2188,7.589],[22.6479,70.2167,246.0389],[22.6417,70.2188,0.0],[22.637,70.2151,61.1774],[22.6214,70.212,0.0],[22.6167,70.2083,0.0],[22.6125,70.2083,0.0],[22.6083,70.2063,121.2534],[22.6,70.2063,52.9654],[22.5958,70.2083,0.0],[22.5896,70.2083,0.0],[22.588,70.2099,0.0],[22.612,70.2151,0.0],[22.6203,70.2224,0.0],[22.6125,70.2229,18.9503],[22.6042,70.2271,0.0],[22.5979,70.225,83.8648],[22.5771,70.225,393.9481],[22.5755,70.2255,286.8581],[22.5766,70.2286,61.7929],[22.575,70.2292,25.6646],[22.5688,70.2271,292.5384],[22.5604,70.2271,411.3242],[22.5542,70.2292,267.0537],[22.55,70.2271,378.7209],[22.5484,70.2276,378.7209],[22.5495,70.2307,89.5468],[22.5479,70.2312,89.5468],[22.5396,70.2312,0.0],[22.5297,70.2286,0.0],[22.5266,70.2255,0.0],[22.5229,70.225,0.0],[22.5172,70.2286,0.0],[22.5245,70.2297,0.0],[22.5286,70.2338,0.0],[22.5255,70.237,0.0],[22.5286,70.2412,0.0],[22.5167,70.2417,0.0],[22.5104,70.2438,0.0],[22.5005,70.2412,229.1748],[22.5016,70.238,416.6701],[22.5,70.2375,514.0768],[22.4896,70.2375,612.7505],[22.4833,70.2354,546.0292],[22.4818,70.237,444.8749],[22.4849,70.238,464.7547],[22.4891,70.2432,123.6119],[22.4693,70.2464,26.3961],[22.4703,70.2495,0.0],[22.4688,70.25,8.6934],[22.45,70.25,190.8605],[22.4458,70.2521,56.5663],[22.4417,70.2521,77.5777],[22.4401,70.2536,63.7485],[22.4432,70.2578,0.0],[22.4271,70.2625,0.0],[22.3984,70.262,0.0],[22.3976,70.2611,0.0],[22.4113,70.2608,0.0],[22.4108,70.2568,0.0],[22.4057,70.2568,0.0],[22.4021,70.2542,143.2142],[22.3972,70.2542,118.8546],[22.396,70.2434,232.7927],[22.4092,70.2432,359.4175],[22.4082,70.2342,716.8182],[22.4214,70.2341,599.076],[22.4209,70.2296,613.7872],[22.4341,70.2294,738.4664],[22.4304,70.1979,458.0357],[22.4436,70.1977,537.2744],[22.4431,70.1932,567.1064],[22.4563,70.193,578.6424],[22.4558,70.1885,603.9838],[22.469,70.1883,653.4044],[22.4684,70.1838,620.2643],[22.4948,70.1835,715.8812],[22.4943,70.179,627.2354],[22.5338,70.1784,456.9214],[22.5333,70.1739,741.935],[22.5464,70.1738,731.1154],[22.5448,70.1602,594.8073],[22.558,70.1601,763.1351],[22.5569,70.1511,683.6759],[22.57,70.1509,724.6216],[22.5689,70.1419,739.7372],[22.5821,70.1417,780.1464],[22.5766,70.0966,253.9656],[22.5634,70.0968,262.5229],[22.564,70.1013,128.4765],[22.5246,70.1019,146.5322],[22.5251,70.1064,56.7728],[22.4989,70.1067,250.9855],[22.4994,70.1112,306.8237],[22.4731,70.1116,513.903],[22.4726,70.1071,436.1],[22.4594,70.1072,456.7864],[22.4589,70.1027,300.3074],[22.4326,70.1031,436.0576],[22.4321,70.0986,500.6063],[22.4058,70.0989,486.9019],[22.4053,70.0944,416.108],[22.3922,70.0946,398.1942],[22.3917,70.0901,252.9384],[22.3392,70.0907,411.3459],[22.3387,70.0862,391.5356],[22.3124,70.0865,741.6807],[22.3129,70.091,736.3378],[22.2998,70.0912,871.3956],[22.2993,70.0867,768.5946],[22.2862,70.0869,834.5922],[22.2857,70.0824,632.451],[22.2726,70.0825,865.7645],[22.2711,70.069,838.3849],[22.2842,70.0688,654.3218],[22.2837,70.0643,739.2526],[22.2706,70.0645,832.7292],[22.2701,70.06,709.0956],[22.2308,70.0605,298.4855],[22.2289,70.0424,94.4944],[22.2158,70.0426,90.0636],[22.2153,70.0381,144.6191],[22.2022,70.0382,49.7997],[22.2008,70.0247,179.6562],[22.1877,70.0249,182.501],[22.1859,70.0068,445.9808],[22.1989,70.0067,445.6451],[22.198,69.9977,445.9398],[22.2111,69.9975,557.9034],[22.2101,69.9885,542.1168],[22.2232,69.9884,579.0737],[22.2227,69.9839,597.0696],[22.2358,69.9837,667.9254],[22.233,69.9567,624.1532],[22.246,69.9565,603.7516],[22.2455,69.952,635.6838],[22.2586,69.9519,664.1314],[22.2581,69.9473,617.0694],[22.2842,69.947,630.9082],[22.2837,69.9425,627.6705],[22.3098,69.9422,605.4604],[22.3093,69.9377,645.4563],[22.3353,69.9374,656.6661],[22.3348,69.9329,652.2634],[22.3609,69.9325,671.8061],[22.3604,69.928,650.1027],[22.4516,69.9269,663.9987],[22.4511,69.9223,644.1132],[22.4771,69.922,710.9761],[22.4766,69.9175,658.003],[22.5027,69.9172,699.7366],[22.5021,69.9127,677.8819],[22.5151,69.9125,689.8706],[22.5136,69.899,653.9514],[22.5005,69.8991,666.752],[22.5,69.8946,631.2025],[22.487,69.8948,661.1521],[22.4865,69.8903,616.3275],[22.4735,69.8905,665.7551],[22.473,69.886,633.135],[22.4599,69.8861,605.5218],[22.4594,69.8816,636.4833],[22.4464,69.8818,624.3179],[22.4459,69.8773,782.8984],[22.4329,69.8775,803.4337],[22.4324,69.873,766.4627],[22.4454,69.8728,834.3412],[22.4449,69.8683,852.693],[22.4579,69.8681,914.5107],[22.4574,69.8636,818.8694],[22.5223,69.862799999999993,908.938],[22.5218,69.8582,928.4838],[22.5347,69.8581,940.3689],[22.5326,69.8401,838.7507],[22.5067,69.8404,821.3314],[22.5061,69.8359,792.4004],[22.4932,69.8361,801.4475],[22.4926,69.8316,830.2405],[22.4797,69.8317,793.9927],[22.4781,69.8182,754.8192],[22.4651,69.8184,751.7668],[22.4636,69.8049,735.2548],[22.4506,69.8051,718.854],[22.4486,69.787,608.8506],[22.4615,69.7869,615.5654],[22.461,69.7824,590.408],[22.4739,69.7822,642.6072],[22.4734,69.7777,681.3856],[22.5252,69.777,634.2663],[22.5204,69.7365,693.7619],[22.5333,69.7363,695.28],[22.5312,69.7183,618.4737],[22.5441,69.7181,625.4297],[22.5425,69.7046,638.9181],[22.5554,69.7044,659.751],[22.5543,69.6954,673.0204],[22.5672,69.6952,706.4752],[22.5667,69.6907,683.6049],[22.5795,69.6905,711.6159],[22.579,69.686,697.1018],[22.6048,69.6857,634.2151],[22.6042,69.6812,628.4073],[22.6171,69.681,625.085],[22.6165,69.6765,614.9034],[22.6423,69.6761,619.3601],[22.6417,69.6716,616.1895],[22.6546,69.6714,624.2885],[22.6541,69.6669,625.1083],[22.6798,69.6666,641.8622],[22.6792,69.662,654.0946],[22.6921,69.6619,639.4358],[22.6915,69.6574,651.245],[22.7173,69.657,657.5053],[22.7167,69.6525,656.5695],[22.7296,69.6523,676.2505],[22.729,69.6478,674.9907],[22.7418,69.6476,698.6183],[22.7424,69.6521,696.4297],[22.7681,69.6517,673.9991],[22.7687,69.6562,696.1103],[22.7816,69.656,702.5151],[22.7822,69.6605,712.3484],[22.8079,69.6601,756.1162],[22.8085,69.6646,752.4355],[22.8471,69.664,776.0698],[22.8483,69.6731,786.8815],[22.8611,69.6729,793.6066],[22.8623,69.6819,780.377],[22.8752,69.6817,781.4911],[22.8764,69.6907,767.7708],[22.8893,69.6905,818.0862],[22.8899,69.695,818.483],[22.9028,69.6948,822.9015],[22.9022,69.6903,811.8174],[23.031,69.6882,570.9045],[23.0303,69.6837,588.4012],[23.1848,69.6811,530.2144],[23.1855,69.6856,541.6151],[23.1984,69.6854,537.6716],[23.199,69.6899,550.5336],[23.2248,69.6894,503.2806],[23.2255,69.6939,480.469],[23.2383,69.6937,413.1155],[23.239,69.6982,367.4678],[23.2648,69.6977,366.5743],[23.2655,69.7022,415.0414],[23.2783,69.702,496.8181],[23.279,69.7065,517.867],[23.3048,69.7061,518.1422],[23.3055,69.7106,523.0393],[23.3442,69.7099,560.0557],[23.3449,69.7144,570.2076],[23.3964,69.7134,289.5],[23.3971,69.7179,289.5],[23.4487,69.717,483.6726],[23.4494,69.7215,472.5739],[23.5526,69.7195,513.2559],[23.5518,69.715,499.6243],[23.6163,69.7138,547.3566],[23.6155,69.7093,553.8159],[23.6928,69.7077,625.0543],[23.692,69.7032,631.2876],[23.7822,69.7014,512.6697],[23.7814,69.6969,525.2232],[23.8973,69.6945,456.656],[23.8965,69.69,481.6198],[24.0123,69.6875,452.073],[24.0115,69.683,472.2732],[24.1787,69.6793,389.4973],[24.1962,69.7692,413.0713],[24.2091,69.769,404.7843],[24.218,69.8139,370.0167],[24.205,69.8142,410.6692],[24.2077,69.8277,418.972],[24.1947,69.828,445.0658],[24.1983,69.846,440.5508],[24.1853,69.8463,443.0452],[24.188,69.8598,417.1835],[24.175,69.8601,420.0161],[24.1776,69.8736,403.9521],[24.1647,69.8739,398.796],[24.1682,69.8918,384.904],[24.1552,69.8921,384.3112],[24.1578,69.9056,407.9265],[24.1448,69.9059,385.7617],[24.1484,69.9239,434.7279],[24.1353,69.9242,399.9472],[24.138,69.9377,372.4608],[24.125,69.938,363.2838],[24.1285,69.956,391.4286],[24.1154,69.9563,419.8905],[24.118,69.9698,416.9746],[24.105,69.97,436.0765],[24.1076,69.9835,478.5436],[24.0685,69.9844,532.7934],[24.0676,69.9799,509.5652],[24.0285,69.9808,453.6086],[24.0293,69.9852,452.1829],[23.9902,69.9861,540.9625],[23.991,69.9906,516.2324],[23.9388,69.9917,539.4736],[23.9397,69.9962,561.2665],[23.9005,69.997,635.6337],[23.9038,70.015,647.8412],[23.9169,70.0147,666.1798],[23.9227,70.0462,615.5967],[23.9358,70.046,584.0704],[23.94,70.0685,607.9943],[23.9531,70.0682,557.3745],[23.9548,70.0772,595.9478]]],
[[[23.0417,70.0396,0.0],[23.038,70.0391,0.0],[23.038,70.038,0.0],[23.0432,70.038,0.0],[23.0417,70.0396,0.0]]],
[[[23.05,70.0417,0.0],[23.0464,70.0411,0.0],[23.0464,70.0401,0.0],[23.0516,70.0401,0.0],[23.05,70.0417,0.0]]],
[[[23.0589,70.0463,0.0],[23.0625,70.0458,0.0],[23.0641,70.0474,0.0],[23.0583,70.05,0.0],[23.0484,70.0495,0.0],[23.05,70.0479,0.0],[23.0563,70.0479,0.0],[23.0589,70.0463,0.0]]],
[[[23.3875,69.9833,0.0],[23.3839,69.9828,0.8241],[23.3839,69.9818,0.0],[23.3891,69.9818,0.6111],[23.3875,69.9833,0.0]]],
[[[23.2828,69.9901,7.4097],[23.2797,69.988,30.5544],[23.3099,69.988,0.0],[23.3042,69.9917,2.4568],[23.2854,69.9917,0.0],[23.2828,69.9901,7.4097]]],
[[[23.2979,70.1375,0.0],[23.2943,70.137,0.0],[23.2943,70.1359,3.7364],[23.2995,70.1359,3.5703],[23.2979,70.1375,0.0]]],
[[[23.2089,70.1484,70.6311],[23.1979,70.1521,0.0],[23.1833,70.1479,50.6695],[23.175,70.15,0.0],[23.1714,70.1474,16.8952],[23.1724,70.1443,4.8322],[23.1672,70.138,0.0],[23.1766,70.137,56.0093],[23.1755,70.1339,9.0819],[23.1854,70.1312,0.0],[23.2021,70.1292,8.6323],[23.2062,70.1271,0.0],[23.2146,70.1271,0.0],[23.2188,70.1292,1.8535],[23.2307,70.1297,7.6635],[23.2328,70.1328,4.0268],[23.2297,70.1349,10.8456],[23.2354,70.1396,7.8746],[23.2438,70.1375,0.0],[23.2479,70.1396,0.0],[23.2849,70.1401,0.0],[23.2833,70.1417,5.5775],[23.2771,70.1417,12.5761],[23.2646,70.1458,0.0],[23.2583,70.1458,29.128],[23.2542,70.1479,10.1939],[23.2417,70.1479,115.9434],[23.2375,70.15,0.0],[23.2167,70.15,13.5018],[23.2125,70.1479,94.1531],[23.2089,70.1484,70.6311]]],
[[[23.2495,70.1568,0.0],[23.2464,70.1547,0.0],[23.2516,70.1547,0.0],[23.2557,70.1568,0.0],[23.2578,70.1599,0.0],[23.2521,70.1625,0.0],[23.2484,70.162,0.0],[23.2516,70.1599,0.0],[23.2495,70.1568,0.0]]],
[[[23.2188,70.1667,0.0],[23.2151,70.1661,0.0],[23.2151,70.1651,0.0],[23.2203,70.1651,0.0],[23.2188,70.1667,0.0]]],
[[[23.3208,70.2312,0.0],[23.3193,70.2297,0.0],[23.3245,70.2297,0.0],[23.3245,70.2307,0.0],[23.3208,70.2312,0.0]]],
[[[23.2234,70.2328,0.0],[23.2214,70.2297,0.0],[23.225,70.2292,0.0],[23.2349,70.2318,0.0],[23.2333,70.2333,0.0],[23.2234,70.2328,0.0]]],
[[[23.4172,70.2995,0.0],[23.4188,70.2979,0.0],[23.4224,70.2984,0.0],[23.4208,70.3,0.0],[23.4172,70.2995,0.0]]],
[[[22.8911,70.1391,0.0],[22.8875,70.1396,0.0],[22.8859,70.138,0.0],[22.8896,70.1375,0.0],[22.8911,70.1391,0.0]]],
[[[23.0063,70.1417,18.8278],[23.0026,70.138,0.3153],[23.0063,70.1375,0.0],[23.0099,70.1401,9.4211],[23.0063,70.1417,18.8278]]],
[[[22.9729,70.1563,0.0],[22.9693,70.1526,0.0],[22.9729,70.1521,0.0],[22.9766,70.1547,0.0],[22.9729,70.1563,0.0]]],
[[[22.9562,70.2083,0.0],[22.9526,70.2047,0.0],[22.9562,70.2042,0.0],[22.9599,70.2068,0.0],[22.9562,70.2083,0.0]]],
[[[22.8474,70.212,0.0],[22.8438,70.2125,0.0],[22.8422,70.2109,0.0],[22.8458,70.2104,0.0],[22.8474,70.212,0.0]]],
[[[22.8479,70.2208,0.0],[22.8443,70.2172,0.0],[22.8479,70.2167,0.0],[22.8516,70.2193,0.0],[22.8479,70.2208,0.0]]],
[[[22.6745,70.2224,0.0],[22.6708,70.2229,0.0],[22.6693,70.2214,0.0],[22.6729,70.2208,0.0],[22.6745,70.2224,0.0]]],
[[[22.7974,70.2224,0.0],[22.7938,70.2229,0.0],[22.7922,70.2214,0.0],[22.7958,70.2208,0.0],[22.7974,70.2224,0.0]]],
[[[22.7078,70.2297,0.0],[22.7078,70.2307,0.0],[22.7047,70.2307,0.0],[22.7047,70.2297,0.0],[22.7078,70.2297,0.0]]],
[[[22.5641,70.2328,0.0],[22.5604,70.2333,0.0],[22.5589,70.2318,53.8737],[22.5625,70.2312,95.7858],[22.5641,70.2328,0.0]]],
[[[22.6807,70.2318,0.0],[22.6792,70.2333,0.0],[22.6729,70.2333,0.0],[22.6688,70.2354,0.0],[22.6651,70.2349,0.0],[22.6708,70.2312,0.0],[22.6807,70.2318,0.0]]],
[[[22.6057,70.2484,0.0],[22.6026,70.2443,0.0],[22.6078,70.2443,0.0],[22.612,70.2495,0.0],[22.6083,70.25,0.0],[22.6057,70.2484,0.0]]],
[[[22.4641,70.2557,0.0],[22.4609,70.2557,0.0],[22.4609,70.2547,0.0],[22.4641,70.2547,0.0],[22.4641,70.2557,0.0]]],
[[[22.3975,70.2569,0.0],[22.3975,70.2562,0.0],[22.3996,70.2569,0.0],[22.3975,70.2569,0.0]]],
[[[22.5072,70.2871,770.4426],[22.5077,70.2916,736.8715],[22.4812,70.292,548.0255],[22.4807,70.2875,222.8837],[22.4744,70.2875,163.3077],[22.4735,70.2838,0.9478],[22.4792,70.2813,0.0],[22.4917,70.2813,37.1708],[22.4932,70.2807,27.9087],[22.4922,70.2776,0.0],[22.5021,70.275,0.0],[22.5208,70.275,71.5812],[22.5354,70.2708,0.0],[22.5438,70.2729,0.0],[22.5479,70.2708,0.0],[22.5542,70.2708,0.0],[22.5599,70.2682,0.0],[22.5568,70.2651,0.0],[22.5667,70.2604,0.0],[22.5979,70.2604,0.0],[22.6042,70.2583,0.0],[22.6167,70.2625,0.0],[22.6313,70.2625,35.9343],[22.6328,70.262,55.8891],[22.6318,70.2589,0.0],[22.6333,70.2583,0.0],[22.6396,70.2604,8.5155],[22.6495,70.2599,56.025],[22.6443,70.2557,0.0],[22.6458,70.2542,0.0],[22.6604,70.2542,0.0],[22.6646,70.2562,0.0],[22.6729,70.2562,0.0],[22.6813,70.2521,0.0],[22.6958,70.2521,0.0],[22.7021,70.2542,0.0],[22.7062,70.2521,0.0],[22.7188,70.2521,120.5239],[22.7417,70.2458,0.0],[22.7667,70.2458,8.0577],[22.7708,70.2438,0.0],[22.7771,70.2458,0.0],[22.7833,70.2438,0.0],[22.7917,70.2438,0.0],[22.7979,70.2458,24.1256],[22.8021,70.2438,0.0],[22.8104,70.2438,0.0],[22.8146,70.2458,0.0],[22.8292,70.2458,0.0],[22.8333,70.2438,0.0],[22.8479,70.2479,0.0],[22.8667,70.2458,0.0],[22.8708,70.2479,7.9511],[22.8917,70.2479,0.0],[22.8958,70.2458,0.0],[22.9083,70.2458,32.4723],[22.9125,70.2438,0.0],[22.9313,70.2438,82.8673],[22.9542,70.2375,0.0],[22.9578,70.238,0.0],[22.9625,70.2417,43.9041],[22.9771,70.2417,0.0],[22.9854,70.2375,0.0],[22.9938,70.2375,0.0],[22.9953,70.2391,0.0],[22.9922,70.2412,6.5743],[23.0078,70.2443,0.0],[23.0141,70.2484,0.0],[23.0109,70.2505,0.0],[23.012,70.2536,0.0],[23.0089,70.2547,0.0],[23.012,70.2599,0.0],[22.9984,70.2672,0.0],[23.0016,70.2724,0.0],[22.9943,70.2755,0.0],[22.9974,70.2786,0.0],[22.9917,70.2813,0.0],[22.9839,70.2818,31.0433],[22.9755,70.2859,10.5672],[22.9766,70.2891,0.0],[22.9734,70.2911,7.0954],[22.9766,70.2932,0.0],[22.9672,70.2943,0.0],[22.9521,70.3021,0.0],[22.9375,70.3021,0.0],[22.9292,70.2958,68.9308],[22.913,70.2963,22.4256],[22.9146,70.2979,0.0],[22.9203,70.2984,0.0],[22.9276,70.3037,0.0],[22.9349,70.3047,0.0],[22.9505,70.3203,0.0],[22.9557,70.3234,0.0],[22.9526,70.3266,13.5436],[22.9557,70.3307,0.0],[22.9458,70.3313,0.0],[22.9359,70.3287,0.0],[22.9313,70.325,5.6156],[22.9271,70.325,0.0],[22.9063,70.3187,0.0],[22.8833,70.3167,0.0],[22.8818,70.3182,0.0],[22.8859,70.3224,0.0],[22.8932,70.3234,0.0],[22.8974,70.3287,0.0],[22.8818,70.3297,105.5488],[22.8849,70.3328,0.0],[22.8708,70.3396,0.0],[22.8563,70.3396,0.0],[22.8521,70.3375,16.9374],[22.8438,70.3375,81.8676],[22.8333,70.3417,7.9612],[22.8271,70.3375,0.0],[22.8208,70.3396,7.3027],[22.8146,70.3375,5.3588],[22.8047,70.338,0.0],[22.7984,70.3422,0.0],[22.7995,70.3453,0.0],[22.7964,70.3474,0.0],[22.8016,70.3526,0.0],[22.7984,70.3557,24.1557],[22.8036,70.3588,0.0],[22.8005,70.3609,0.0],[22.8016,70.3641,0.0],[22.7984,70.3651,0.0],[22.8016,70.3703,0.0],[22.7984,70.3724,18.3305],[22.8036,70.3755,0.0],[22.8057,70.3786,0.0],[22.8,70.3812,0.0],[22.7922,70.3818,0.0],[22.788,70.3839,32.9987],[22.7891,70.387,0.0],[22.7729,70.3917,0.0],[22.7667,70.3917,0.0],[22.7625,70.3896,35.9685],[22.75,70.3896,0.0],[22.7458,70.3875,47.0449],[22.7354,70.3875,0.0],[22.7255,70.3849,0.0],[22.7234,70.3818,0.0],[22.7266,70.3807,0.0],[22.7255,70.3776,0.0],[22.7286,70.3766,0.0],[22.7276,70.3734,0.0],[22.7307,70.3724,0.0],[22.7255,70.3682,0.0],[22.7286,70.3662,0.0],[22.7276,70.363,0.0],[22.7307,70.362,0.0],[22.7276,70.3568,0.0],[22.7307,70.3547,0.0],[22.7276,70.3526,0.0],[22.7307,70.3505,0.0],[22.7271,70.3479,0.0],[22.7172,70.3484,0.0],[22.7182,70.3516,0.0],[22.713,70.3547,0.0],[22.7141,70.3578,0.0],[22.7083,70.3604,0.0],[22.7005,70.3609,187.7899],[22.7036,70.3662,0.0],[22.7005,70.3682,8.8023],[22.7036,70.3693,0.0],[22.7078,70.3745,0.0],[22.7047,70.3755,0.0],[22.7057,70.3786,0.0],[22.6984,70.3828,0.0],[22.7042,70.3833,0.0],[22.7057,70.3849,0.0],[22.6995,70.3891,0.0],[22.6917,70.3896,44.8353],[22.6875,70.3917,9.6609],[22.6813,70.3896,112.0045],[22.6693,70.3891,120.8894],[22.6724,70.3859,401.0877],[22.6658,70.3854,327.7871],[22.665,70.3797,190.6794],[22.6783,70.3795,534.6852],[22.6749,70.3525,454.175],[22.6882,70.3523,747.2855],[22.6864,70.3388,703.1218],[22.6731,70.339,859.656],[22.6725,70.3345,461.9276],[22.6593,70.3347,478.9511],[22.6587,70.3302,667.7175],[22.6321,70.3305,545.2534],[22.631,70.3215,741.3625],[22.6443,70.3214,800.2183],[22.6437,70.3168,713.4333],[22.657,70.3167,876.92],[22.6564,70.3121,748.6295],[22.6431,70.3123,649.1539],[22.6408,70.2943,731.9138],[22.5613,70.2954,390.3022],[22.5602,70.2864,498.9587],[22.5469,70.2866,542.2075],[22.5464,70.2821,473.0097],[22.5199,70.2824,581.1843],[22.5204,70.2869,740.699],[22.5072,70.2871,770.4426]]],
[[[22.8589,70.2099,0.0],[22.8604,70.2083,0.0],[22.8641,70.2089,0.0],[22.8625,70.2104,0.0],[22.8589,70.2099,0.0]]],
[[[22.9141,70.3318,0.0],[22.913,70.3297,0.0],[22.9146,70.3292,0.0],[22.9229,70.3292,0.0],[22.9266,70.3328,0.0],[22.9167,70.3333,22.0649],[22.9141,70.3318,0.0]]],
[[[23.2982,70.4195,776.3118],[23.2849,70.4197,828.2237],[23.2856,70.4242,908.2141],[23.2322,70.4251,844.3398],[23.2329,70.4296,903.6824],[23.1929,70.4303,704.6326],[23.1936,70.4348,556.1654],[23.1536,70.4355,130.3221],[23.1543,70.44,135.6146],[23.1143,70.4406,876.7522],[23.1149,70.4451,984.8602],[23.0882,70.4456,1000.2501],[23.0862,70.4321,825.0549],[23.0729,70.4323,767.6169],[23.0716,70.4233,614.6],[23.0582,70.4235,516.306],[23.0562,70.41,586.5192],[23.0429,70.4102,494.2011],[23.0416,70.4012,490.2232],[23.0283,70.4014,562.4425],[23.0276,70.3969,775.8353],[22.9758,70.3977,338.4073],[22.9737,70.3932,321.2902],[22.9375,70.3938,507.1089],[22.9333,70.3958,414.0119],[22.9146,70.3958,397.0515],[22.9042,70.4021,0.0],[22.8729,70.4021,0.0],[22.8688,70.4042,0.0],[22.8563,70.4042,61.2222],[22.8547,70.4047,28.2934],[22.8557,70.4078,0.0],[22.8464,70.4089,18.5926],[22.8443,70.4109,28.917],[22.8453,70.4141,0.0],[22.8438,70.4146,0.0],[22.8401,70.4141,28.7424],[22.8354,70.4104,12.9668],[22.8229,70.4104,33.0744],[22.8214,70.4089,11.1667],[22.837,70.4016,98.077],[22.8359,70.3984,7.7898],[22.8458,70.3938,0.0],[22.8563,70.3938,25.8687],[22.8604,70.3917,0.0],[22.8729,70.3917,33.1381],[22.8771,70.3896,4.3427],[22.8911,70.3891,0.0],[22.8901,70.3859,0.0],[22.8932,70.3849,0.0],[22.8922,70.3818,0.0],[22.8974,70.3776,16.4844],[22.8859,70.3651,0.0],[22.8932,70.3641,34.6183],[22.9042,70.3583,0.0],[22.912,70.3578,8.7717],[22.9229,70.3521,0.0],[22.9391,70.3495,0.0],[22.938,70.3464,0.0],[22.9479,70.3417,0.0],[22.9542,70.3438,14.4389],[22.9661,70.3443,0.0],[22.9703,70.3495,0.0],[22.963,70.3536,58.049],[22.9708,70.3562,0.0],[22.9745,70.3536,0.0],[22.9734,70.3505,0.0],[22.9807,70.3474,0.0],[22.9776,70.3422,11.4251],[22.9938,70.3396,24.857],[23.0063,70.3333,0.0],[23.0099,70.3339,0.0],[23.013,70.337,0.0],[23.0203,70.338,0.0],[23.0234,70.3411,0.0],[23.0328,70.3422,0.0],[23.0401,70.3495,0.0],[23.0474,70.3505,0.0],[23.0526,70.3557,0.0],[23.0599,70.3568,0.0],[23.0672,70.362,14.6683],[23.0745,70.363,0.0],[23.0839,70.3724,0.0],[23.0911,70.3734,0.0],[23.0974,70.3776,0.0],[23.1016,70.3818,0.0],[23.0984,70.3849,0.0],[23.1057,70.3859,0.0],[23.1078,70.388,0.0],[23.1047,70.3912,0.0],[23.1078,70.3922,0.0],[23.113,70.3974,0.0],[23.1182,70.3974,0.0],[23.1172,70.3943,0.0],[23.1182,70.3922,0.0],[23.113,70.3859,0.0],[23.1203,70.3818,79.5197],[23.1182,70.3797,53.8888],[23.1109,70.3786,0.0],[23.112,70.3755,0.0],[23.1099,70.3734,0.0],[23.1026,70.3724,0.0],[23.0943,70.3641,0.0],[23.0953,70.3609,0.0],[23.088,70.3536,0.0],[23.0911,70.3505,40.5711],[23.0776,70.3495,0.0],[23.0807,70.3464,45.4374],[23.075,70.3438,64.1632],[23.0568,70.3432,0.0],[23.0526,70.338,0.0],[23.0599,70.3339,3.6783],[23.0563,70.3313,16.3154],[23.0422,70.3287,0.0],[23.0432,70.3255,6.3863],[23.0422,70.3234,0.0],[23.0641,70.312,1.4028],[23.0625,70.3104,8.0845],[23.0568,70.3099,0.0],[23.0526,70.3057,9.2846],[23.0599,70.3005,0.0],[23.0547,70.2974,0.0],[23.0526,70.2943,0.0],[23.062,70.2932,0.0],[23.0609,70.2901,0.0],[23.0625,70.2896,0.0],[23.075,70.2896,7.6318],[23.0792,70.2875,0.0],[23.0854,70.2875,1.2994],[23.1,70.2792,0.0],[23.1083,70.2813,32.4584],[23.1125,70.2792,0.0],[23.1188,70.2792,0.0],[23.1255,70.2755,7.0608],[23.1354,70.2729,0.0],[23.1625,70.2729,0.0],[23.1688,70.275,62.4304],[23.175,70.2729,0.0],[23.1792,70.275,0.0],[23.1958,70.275,0.0],[23.2005,70.2786,0.0],[23.2104,70.2813,77.5378],[23.2271,70.2813,0.0],[23.2417,70.2854,0.0],[23.2521,70.2854,0.0],[23.262,70.288,0.0],[23.2641,70.2911,0.0],[23.2547,70.2922,168.7387],[23.2583,70.2958,31.383],[23.2667,70.2958,0.0],[23.2708,70.2937,0.0],[23.2917,70.2937,0.0],[23.2932,70.2953,0.0],[23.2901,70.2963,0.0],[23.2917,70.2979,10.228],[23.3083,70.2979,0.0],[23.3146,70.3021,52.3904],[23.325,70.3021,0.0],[23.3292,70.3042,27.6182],[23.3333,70.3042,0.0],[23.3349,70.3047,0.0],[23.3339,70.3078,9.2981],[23.3474,70.3089,0.0],[23.3557,70.3172,0.0],[23.3542,70.3187,0.0],[23.3464,70.3193,100.964],[23.3516,70.3245,0.0],[23.3417,70.325,14.1646],[23.3292,70.3208,488.6911],[23.3208,70.3208,583.8073],[23.3167,70.3229,563.7538],[23.2854,70.3229,507.253],[23.2839,70.3245,374.3023],[23.3271,70.325,219.015],[23.3307,70.3287,0.0],[23.3276,70.3297,13.7415],[23.3286,70.3328,0.0],[23.3271,70.3333,0.0],[23.3208,70.3313,41.4393],[23.3146,70.3313,57.0435],[23.3104,70.3333,0.0],[23.2854,70.3333,0.0],[23.2839,70.3349,8.9558],[23.288,70.3391,22.127],[23.2979,70.3417,0.0],[23.3042,70.3396,0.0],[23.3188,70.3396,0.0],[23.3229,70.3417,4.4208],[23.3396,70.3417,0.0],[23.3438,70.3438,6.4859],[23.3667,70.3438,0.0],[23.3708,70.3458,0.0],[23.3917,70.3458,29.0181],[23.3958,70.3438,0.0],[23.4042,70.3438,0.0],[23.4141,70.3464,0.0],[23.4245,70.3547,0.0],[23.4172,70.3588,0.0],[23.4193,70.362,0.0],[23.4292,70.3625,9.5679],[23.4333,70.3604,0.0],[23.4479,70.3604,0.0],[23.4547,70.3662,0.0],[23.4604,70.3667,0.0],[23.4661,70.3693,0.0],[23.4724,70.3755,0.0],[23.4667,70.3792,57.8857],[23.4318,70.3818,257.7019],[23.4349,70.387,0.0],[23.4318,70.3891,0.0],[23.4339,70.3912,0.0],[23.4375,70.3917,0.0],[23.4316,70.3962,46.7998],[23.4277,70.3946,0.0],[23.4011,70.3951,235.7522],[23.4019,70.3996,168.8522],[23.3885,70.3998,369.7235],[23.3893,70.4043,609.4762],[23.3626,70.4048,746.0409],[23.3634,70.4093,783.4673],[23.35,70.4095,788.4829],[23.3508,70.4141,725.5406],[23.3241,70.4145,800.2101],[23.3248,70.419,706.5779],[23.2982,70.4195,776.3118]]]]}
,"properties": {"GID_2": "NOR.5.1_1","GID_0": "NOR","country": "Norway","GID_1": "NOR.5_1","province": "Finnmark","NL_NAME_1": "NA","county": "Alta","VARNAME_2": "NA","NL_NAME_2": "NA","TYPE_2": "Kommuner","ENGTYPE_2": "Municipality","CC_2": "NA","HASC_2": "NO.FI.AL","name": "Alta.county","area_km2": 3860.406,"hist_schema_id": "Elevation0-9000","hist_area_km2": {"0": 100.118,"25": 75.354,"50": 72.423,"75": 78.254,"100": 66.434,"125": 59.17,"150": 62.899,"175": 68.774,"200": 71.321,"225": 77.725,"250": 88.324,"275": 99.496,"300": 112.511,"325": 129.116,"350": 145.925,"375": 194.802,"400": 247.825,"425": 249.681,"450": 247.005,"475": 212.342,"500": 206.224,"525": 185.429,"550": 154.524,"575": 129.781,"600": 107.825,"625": 103.997,"650": 93.53,"675": 85.579,"700": 70.628,"725": 57.452,"750": 44.813,"775": 36.178,"800": 29.889,"825": 21.856,"850": 16.005,"875": 14.134,"900": 10.37,"925": 8.443,"950": 8.0,"975": 6.386,"1000": 3.931,"1025": 2.961,"1050": 1.522,"1075": 0.813,"1100": 0.429,"1125": 0.189}}}