{"type": "Feature","bbox": [10.3247,59.7746,10.5597,59.9096],"geometry": {"type": "MultiPolygon","coordinates": [[[[10.5025,59.8251,0.0],[10.5142,59.8282,0.0],[10.5181,59.8304,0.0],[10.5186,59.8324,0.0],[10.5003,59.8282,9.8599],[10.4975,59.8262,0.0],[10.5025,59.8251,0.0]]],
[[[10.5419,59.8401,0.4222],[10.5392,59.8404,0.4222],[10.5358,59.8376,0.0],[10.5369,59.8376,0.0],[10.5419,59.8401,0.4222]]],
[[[10.5219,59.8746,9.9608],[10.5231,59.8751,1.3489],[10.497,59.8736,14.3251],[10.4957,59.8781,50.7075],[10.4514,59.8749,196.3144],[10.4501,59.8793,142.6657],[10.4058,59.8761,277.5254],[10.4045,59.8805,277.0127],[10.3956,59.8798,290.7098],[10.3917,59.8932,310.317],[10.3829,59.8925,308.9422],[10.3803,59.9014,317.6293],[10.3714,59.9007,379.9456],[10.3688,59.9096,404.2568],[10.3511,59.9083,354.6472],[10.3576,59.8861,368.1589],[10.3487,59.8855,388.3133],[10.35,59.881,329.4597],[10.3411,59.8804,298.0194],[10.3424,59.8759,294.9631],[10.3247,59.8746,310.3374],[10.3377,59.8302,252.6313],[10.3466,59.8309,250.1616],[10.3492,59.822,203.14],[10.3403,59.8214,216.7823],[10.3442,59.808,193.8288],[10.3354,59.8074,200.997],[10.3393,59.7941,290.7741],[10.3481,59.7947,295.3701],[10.3494,59.7903,291.6982],[10.3583,59.7909,278.2123],[10.3596,59.7865,314.0753],[10.3684,59.7871,277.0337],[10.371,59.7783,287.4016],[10.424,59.7822,109.655],[10.4253,59.7777,120.5012],[10.443,59.779,173.9557],[10.4443,59.7746,199.5459],[10.4531,59.7752,144.9238],[10.4518,59.7797,165.3652],[10.4783,59.7816,88.2287],[10.477,59.786,123.6595],[10.4947,59.7873,11.537],[10.496,59.7829,16.4464],[10.5003,59.7832,2.8221],[10.4997,59.7854,0.0],[10.4953,59.7885,11.537],[10.4981,59.7888,7.0536],[10.4992,59.7912,20.8588],[10.5008,59.7912,3.1763],[10.5003,59.7929,7.7715],[10.5031,59.794,0.0],[10.4969,59.7968,25.6704],[10.5047,59.8032,0.0],[10.4969,59.8021,4.8472],[10.4953,59.8029,4.8472],[10.4964,59.8051,4.7242],[10.4936,59.806,0.0],[10.4975,59.8068,0.0],[10.4864,59.8079,10.3134],[10.4875,59.8096,0.0],[10.4864,59.811,7.1957],[10.4897,59.8132,0.0],[10.4836,59.8151,2.2608],[10.4903,59.8185,0.0],[10.4825,59.8179,6.027],[10.4836,59.8196,0.0],[10.4825,59.8204,0.0],[10.4808,59.8185,9.1462],[10.4781,59.8185,9.7986],[10.4775,59.8213,0.0],[10.4853,59.8254,0.0],[10.4864,59.8276,4.7799],[10.4953,59.8299,0.0],[10.4981,59.8321,0.7669],[10.4964,59.8338,15.6767],[10.5075,59.8363,9.4705],[10.5153,59.8401,0.0],[10.5031,59.8413,0.7051],[10.4764,59.8326,0.0],[10.4731,59.8332,1.5215],[10.4753,59.8338,0.2262],[10.4753,59.8351,0.2262],[10.4714,59.8354,28.2268],[10.4725,59.8374,37.2711],[10.4775,59.8368,0.3496],[10.4769,59.8387,1.4098],[10.4792,59.8401,0.0],[10.4908,59.8418,0.0],[10.4981,59.8468,0.0],[10.4975,59.8488,4.8769],[10.4942,59.8501,4.8769],[10.4969,59.8507,2.7731],[10.4964,59.8554,0.2007],[10.4942,59.8554,0.2007],[10.4953,59.8565,0.0],[10.5064,59.8571,12.9074],[10.5108,59.8604,2.1354],[10.5131,59.8604,2.4528],[10.5125,59.8582,2.1328],[10.5164,59.8565,0.0],[10.5236,59.8582,0.0],[10.5369,59.8629,0.0],[10.5358,59.866,12.3346],[10.5458,59.8693,1.9618],[10.5425,59.8718,8.8643],[10.5419,59.8751,6.7966],[10.5386,59.876,0.656],[10.5303,59.876,1.0935],[10.5169,59.8721,0.0],[10.5219,59.8746,9.9608]]],
[[[10.5208,59.8515,1.0508],[10.5175,59.8507,0.9574],[10.5203,59.8493,1.3462],[10.5242,59.8499,0.0],[10.5225,59.8513,0.0],[10.5208,59.8515,1.0508]]],
[[[10.5364,59.8446,0.0],[10.5403,59.8438,0.538],[10.5419,59.8454,0.538],[10.5375,59.8451,1.27],[10.5364,59.8446,0.0]]],
[[[10.5547,59.8501,0.0],[10.5542,59.8493,0.0],[10.5581,59.8504,0.0],[10.5586,59.8518,0.787],[10.5564,59.8518,8.1262],[10.5547,59.8501,0.0]]],
[[[10.5553,59.8649,4.7909],[10.5542,59.8665,8.0624],[10.5469,59.8665,0.3185],[10.5442,59.8629,4.1115],[10.5264,59.8582,12.8455],[10.5253,59.8571,1.6416],[10.5275,59.8563,9.4646],[10.5253,59.8549,0.816],[10.5286,59.8543,19.1514],[10.5264,59.8529,3.8745],[10.5364,59.8513,3.0543],[10.5269,59.8474,1.687],[10.5403,59.849,3.1789],[10.5397,59.8501,3.1789],[10.5508,59.8518,0.0],[10.5597,59.8554,0.0],[10.5581,59.856,2.2486],[10.5525,59.8554,7.8598],[10.5375,59.8515,9.9274],[10.5492,59.8554,7.6222],[10.5497,59.8563,0.0],[10.5458,59.8579,0.4546],[10.5481,59.8599,0.0],[10.5547,59.8613,5.2674],[10.5564,59.8635,2.3251],[10.5553,59.8649,4.7909]]]]}
,"properties": {"GID_2": "NOR.1.2_1","GID_0": "NOR","country": "Norway","GID_1": "NOR.1_1","province": "Akershus","NL_NAME_1": "NA","county": "Asker","VARNAME_2": "NA","NL_NAME_2": "NA","TYPE_2": "Kommuner","ENGTYPE_2": "Municipality","CC_2": "NA","HASC_2": "NO.AK.AK","name": "Asker.county","area_km2": 106.09899,"hist_schema_id": "Elevation0-9000","hist_area_km2": {"0": 5.46325,"25": 9.76655,"50": 5.41158,"75": 4.14482,"100": 5.42522,"125": 8.05815,"150": 8.84646,"175": 7.05599,"200": 8.53668,"225": 6.37275,"250": 6.25533,"275": 6.56418,"300": 4.62266,"325": 5.28058,"350": 4.67316,"375": 3.41624,"400": 3.04361,"425": 2.27801,"450": 0.88378}}}