{"type": "Feature","bbox": [5.4636,59.4163,6.1819,59.6109],"geometry": {"type": "MultiPolygon","coordinates": [[[[5.9047,59.6027,455.6255],[5.9065,59.5983,389.1777],[5.8978,59.5974,363.9739],[5.8997,59.593,345.9501],[5.891,59.592,325.432],[5.8929,59.5876,328.5653],[5.8842,59.5867,304.636],[5.8861,59.5823,279.9971],[5.8687,59.5804,288.6084],[5.8706,59.576,241.1938],[5.8445,59.5732,270.5402],[5.8426,59.5775,357.1145],[5.7298,59.5651,197.5648],[5.7241,59.5782,116.1581],[5.7154,59.5773,57.963],[5.7135,59.5816,52.0406],[5.7048,59.5807,112.1097],[5.7029,59.5851,184.7007],[5.6943,59.5841,415.0688],[5.6924,59.5885,455.3712],[5.675,59.5866,378.3396],[5.6769,59.5822,453.1589],[5.6595,59.5802,364.7454],[5.6614,59.5759,362.0605],[5.6528,59.5749,509.2722],[5.6642,59.5486,182.4252],[5.6295,59.5448,213.6887],[5.6314,59.5404,397.5721],[5.6227,59.5394,245.1899],[5.6246,59.535,241.2812],[5.616,59.5341,256.5954],[5.6179,59.5297,314.6779],[5.5919,59.5268,217.6227],[5.59,59.5312,188.6186],[5.5813,59.5302,159.8305],[5.5794,59.5346,93.886],[5.5707,59.5336,50.2294],[5.5688,59.538,50.937],[5.5601,59.537,25.9277],[5.5582,59.5414,47.1956],[5.5496,59.5404,14.6524],[5.5469,59.544,0.0],[5.5436,59.5426,0.0],[5.5431,59.5404,0.0],[5.5492,59.5329,27.1528],[5.5503,59.5235,8.4605],[5.5481,59.5235,3.9269],[5.5458,59.5288,0.0],[5.5436,59.5301,10.1987],[5.5464,59.531,2.4087],[5.5469,59.5337,0.0],[5.5342,59.5376,0.0],[5.5319,59.5354,27.5722],[5.5253,59.5346,13.1393],[5.5242,59.5301,35.1449],[5.5197,59.5296,0.0],[5.5186,59.5243,0.0],[5.5164,59.5235,0.0],[5.5158,59.5185,5.6355],[5.5086,59.5176,0.0],[5.5069,59.5154,0.0],[5.5081,59.5124,4.3993],[5.4975,59.5121,0.0],[5.4942,59.5135,0.0],[5.4947,59.5115,3.5555],[5.4925,59.511,3.5555],[5.4842,59.5151,16.2698],[5.4764,59.5154,23.9287],[5.4725,59.5137,0.0],[5.4719,59.5118,8.9068],[5.4681,59.5121,0.0],[5.4658,59.5104,12.5947],[5.4658,59.5043,4.1331],[5.4636,59.5035,0.0],[5.4636,59.5018,0.0],[5.4662,59.4989,3.643],[5.4764,59.5,46.6909],[5.4783,59.4956,51.9626],[5.4869,59.4966,145.1813],[5.4889,59.4922,136.161],[5.4975,59.4932,124.9406],[5.5033,59.4801,121.5814],[5.4946,59.4791,169.3211],[5.508,59.4485,0.0],[5.5167,59.4495,27.1334],[5.5205,59.4407,0.0],[5.5464,59.4436,30.8323],[5.5445,59.448,0.0],[5.5532,59.449,0.0],[5.5513,59.4534,0.0],[5.5686,59.4553,37.5696],[5.5647,59.4641,23.4285],[5.5734,59.465,93.4829],[5.5715,59.4694,38.1899],[5.5801,59.4704,50.7463],[5.5763,59.4791,0.0],[5.585,59.4801,0.0],[5.5812,59.4889,0.0],[5.5985,59.4908,0.0],[5.6004,59.4864,0.0],[5.609,59.4874,0.0],[5.6242,59.4524,60.1941],[5.6848,59.4591,221.8373],[5.6886,59.4504,284.2768],[5.6972,59.4514,347.3516],[5.7029,59.4382,322.6172],[5.7115,59.4392,276.8842],[5.7134,59.4348,419.2045],[5.7048,59.4338,365.3187],[5.7123,59.4163,102.8693],[5.7358,59.4212,0.0],[5.7386,59.424,40.0229],[5.7536,59.4313,0.0],[5.7519,59.4349,41.6807],[5.7475,59.4382,4.4457],[5.7486,59.4418,0.9397],[5.7514,59.4424,7.4978],[5.7525,59.4446,0.0],[5.7475,59.4482,5.5316],[5.7392,59.4496,3.9391],[5.7364,59.4529,0.0],[5.7425,59.4618,0.0],[5.7358,59.4626,2.2853],[5.7392,59.4649,1.3466],[5.7375,59.469,0.0],[5.7347,59.4712,0.0],[5.7336,59.4757,1.3129],[5.7408,59.4749,1.4088],[5.7447,59.4679,1.8408],[5.7497,59.4663,0.0],[5.7547,59.4615,7.7751],[5.7542,59.4568,0.0],[5.7603,59.4487,4.029],[5.7592,59.4451,0.0],[5.7608,59.4454,0.0],[5.7614,59.4407,0.0],[5.7686,59.4362,2.0872],[5.7675,59.4346,1.8386],[5.7731,59.4371,30.69],[5.7786,59.4374,8.0022],[5.7875,59.4421,0.0],[5.7886,59.4443,19.1556],[5.7964,59.4451,0.0],[5.8047,59.4493,4.2339],[5.8181,59.4507,0.0],[5.8292,59.4554,0.0],[5.8397,59.4557,0.0],[5.8414,59.4585,0.0],[5.8547,59.4632,2.7031],[5.8553,59.4688,84.5472],[5.8575,59.4724,0.0],[5.8519,59.4787,11.7394],[5.8514,59.4868,0.0],[5.8419,59.4912,28.4245],[5.8392,59.4963,0.0],[5.8358,59.4976,9.5316],[5.8347,59.5026,16.9194],[5.8314,59.506,11.4784],[5.8319,59.5074,6.1116],[5.8192,59.5185,15.103],[5.8153,59.5196,5.6036],[5.8136,59.5171,0.0],[5.8092,59.5182,2.971],[5.8258,59.5257,7.2468],[5.8358,59.5246,3.329],[5.8392,59.5226,1.9628],[5.8419,59.5235,0.0],[5.8453,59.5396,4.6224],[5.8569,59.5443,5.325],[5.8658,59.5426,3.4766],[5.8703,59.5399,7.073],[5.8703,59.5384,26.5185],[5.8681,59.5376,0.0],[5.8703,59.5304,7.0689],[5.8692,59.5301,0.0],[5.8692,59.5238,0.0],[5.8669,59.5215,0.0],[5.8675,59.5126,0.0],[5.8658,59.511,0.0],[5.8697,59.506,0.0],[5.8703,59.5018,0.0],[5.8803,59.4949,0.0],[5.8903,59.4969,0.0],[5.8986,59.4949,3.2469],[5.9008,59.4912,1.708],[5.8975,59.4885,7.9319],[5.8981,59.4857,2.1659],[5.8869,59.484,0.0],[5.8842,59.4813,4.7501],[5.8908,59.4793,6.8446],[5.8925,59.4774,6.5858],[5.8969,59.4785,3.9864],[5.8992,59.4751,0.0],[5.9047,59.4765,12.9193],[5.9108,59.4738,26.6253],[5.9214,59.476,10.1705],[5.9486,59.4738,23.7548],[5.9769,59.4765,0.0],[5.9786,59.4751,0.0],[5.9869,59.4754,0.0],[6.0069,59.4787,0.0],[6.0142,59.4765,0.0],[6.0214,59.4768,0.0],[6.0214,59.4757,0.0],[6.0342,59.4765,0.0],[6.0325,59.4746,3.4941],[6.0336,59.4732,14.2353],[6.0281,59.4729,0.0],[6.0303,59.4712,1.811],[6.0281,59.4699,0.0],[6.0314,59.4679,0.0],[6.0375,59.4679,0.0],[6.0614,59.4715,0.0],[6.0503,59.4754,2.6697],[6.0542,59.4771,9.1669],[6.0586,59.4762,0.0],[6.0575,59.4751,1.6868],[6.0592,59.4738,10.9665],[6.0719,59.4732,0.0],[6.0831,59.4751,40.8828],[6.0836,59.4738,40.8828],[6.0875,59.4738,22.6728],[6.1175,59.4785,0.0],[6.1603,59.4799,0.0],[6.1653,59.4829,4.087],[6.1614,59.4837,0.4124],[6.1619,59.486,5.2536],[6.1647,59.4865,0.0],[6.1819,59.4835,0.0],[6.1754,59.4991,125.079],[6.1668,59.4982,157.2457],[6.1649,59.5025,288.2205],[6.1563,59.5016,447.8595],[6.1453,59.5279,873.8856],[6.1539,59.5289,896.9673],[6.1466,59.5463,944.6492],[6.1447,59.5508,913.459],[6.1361,59.5498,863.8573],[6.1342,59.5542,779.0806],[6.1603,59.557,623.2894],[6.1584,59.5614,541.3782],[6.1671,59.5623,973.5533],[6.1579,59.5843,875.5613],[6.1753,59.5861,830.0],[6.1735,59.5905,830.0],[6.1474,59.5877,923.8267],[6.1456,59.5921,654.3622],[6.1108,59.5884,465.9281],[6.1089,59.5928,506.9704],[6.1002,59.5918,572.1782],[6.0984,59.5962,663.9802],[6.081,59.5943,583.5],[6.0792,59.5987,583.5],[6.0183,59.5921,651.2192],[6.0202,59.5877,710.7952],[6.0115,59.5868,711.4506],[6.0133,59.5824,686.9156],[5.9873,59.5796,599.8013],[5.9854,59.584,574.306],[5.9767,59.583,663.2343],[5.9748,59.5874,560.7792],[5.9835,59.5884,544.5683],[5.9761,59.6059,605.728],[5.9587,59.604,565.2219],[5.9568,59.6084,663.2814],[5.9394,59.6065,518.1817],[5.9376,59.6109,539.5074],[5.9202,59.609,519.3895],[5.922,59.6046,480.66],[5.9047,59.6027,455.6255]]]]}
,"properties": {"GID_2": "NOR.13.26_1","GID_0": "NOR","country": "Norway","GID_1": "NOR.13_1","province": "Rogaland","NL_NAME_1": "NA","county": "Vindafjord","VARNAME_2": "NA","NL_NAME_2": "NA","TYPE_2": "Kommuner","ENGTYPE_2": "Municipality","CC_2": "NA","HASC_2": "NO.RO.VI","name": "Vindafjord.county","area_km2": 444.5911,"hist_schema_id": "Elevation0-9000","hist_area_km2": {"0": 20.2199,"25": 32.5993,"50": 39.0316,"75": 24.3157,"100": 15.6008,"125": 16.9899,"150": 19.8061,"175": 17.5053,"200": 15.1267,"225": 13.7161,"250": 12.9519,"275": 14.489,"300": 14.7137,"325": 14.894,"350": 15.0324,"375": 14.2792,"400": 12.0835,"425": 11.0705,"450": 10.2217,"475": 11.3597,"500": 9.9183,"525": 9.5013,"550": 8.3078,"575": 9.9073,"600": 8.907,"625": 8.0583,"650": 7.779,"675": 6.877,"700": 5.4806,"725": 5.1046,"750": 3.8368,"775": 3.2679,"800": 2.3757,"825": 2.0202,"850": 1.7838,"875": 1.7625,"900": 1.5584,"925": 1.0316,"950": 0.7197,"975": 0.1933,"1000": 0.1288,"1025": 0.0644}}}