{"type": "Feature","bbox": [5.8861,58.5202,6.6257,58.7966],"geometry": {"type": "MultiPolygon","coordinates": [[[[6.4376,58.657,566.6788],[6.4359,58.6614,530.3892],[6.4528,58.6633,662.2209],[6.4511,58.6676,706.4059],[6.5274,58.6758,649.7161],[6.5291,58.6714,706.8413],[6.5376,58.6723,639.8444],[6.5359,58.6767,651.7804],[6.5698,58.6804,712.6377],[6.568,58.6847,780.9703],[6.6104,58.6893,663.1356],[6.6087,58.6936,712.8173],[6.6257,58.6954,718.683],[6.6136,58.7262,658.2025],[6.6051,58.7253,734.2618],[6.6034,58.7297,716.3088],[6.5949,58.7288,761.3208],[6.5932,58.7332,702.646],[6.5847,58.7323,717.821],[6.583,58.7367,759.1419],[6.5745,58.7358,724.7632],[6.5728,58.7402,726.088],[6.5813,58.7411,700.304],[6.5761,58.7542,739.2184],[6.5709,58.7674,608.5088],[6.5624,58.7665,629.524],[6.5606,58.7709,756.1136],[6.5351,58.7682,657.7924],[6.5334,58.7726,739.3897],[6.4654,58.7653,791.5988],[6.4671,58.7609,828.5633],[6.4502,58.7591,856.5172],[6.4519,58.7547,834.0292],[6.4349,58.7529,736.9739],[6.4367,58.7485,681.0],[6.3517,58.7393,602.2065],[6.3535,58.735,606.0443],[6.3196,58.7313,661.6108],[6.3178,58.7357,648.2412],[6.3093,58.7347,650.1623],[6.3058,58.7435,731.1192],[6.2973,58.7426,597.6233],[6.2832,58.7777,730.4639],[6.2662,58.7759,810.8599],[6.2644,58.7802,737.0725],[6.2559,58.7793,693.9373],[6.2541,58.7837,487.0433],[6.2456,58.7828,431.5],[6.2439,58.7872,538.3541],[6.2354,58.7862,518.83],[6.2336,58.7906,687.9916],[6.2251,58.7897,655.2728],[6.2233,58.7941,637.4868],[6.2063,58.7922,661.0496],[6.2045,58.7966,704.177],[6.179,58.7938,758.0642],[6.1826,58.7851,653.5],[6.1741,58.7841,735.5754],[6.1794,58.771,614.2011],[6.171,58.77,642.6299],[6.1745,58.7613,599.6866],[6.166,58.7603,598.3091],[6.1678,58.756,438.5],[6.1254,58.7513,584.5762],[6.1236,58.7557,564.0045],[6.0896,58.7519,456.7272],[6.0914,58.7476,462.5343],[6.0745,58.7457,523.6756],[6.0763,58.7413,527.5336],[6.0678,58.7404,437.7609],[6.0696,58.736,375.8722],[6.0611,58.735,470.1465],[6.0665,58.7219,410.981],[6.058,58.721,423.6102],[6.0598,58.7166,390.635],[6.0513,58.7156,308.1363],[6.0531,58.7112,303.6788],[6.0362,58.7094,307.8187],[6.038,58.705,373.3124],[6.0295,58.704,366.6305],[6.0367,58.6865,319.3129],[5.9859,58.6809,236.3947],[5.9877,58.6765,231.7458],[5.9792,58.6755,236.353],[5.9774,58.6799,273.6254],[5.9689,58.679,270.1323],[5.9671,58.6834,335.08],[5.9587,58.6824,395.8284],[5.9569,58.6868,345.9285],[5.9484,58.6859,356.3822],[5.9448,58.6946,287.1148],[5.9363,58.6937,285.9253],[5.9381,58.6893,297.5767],[5.9297,58.6883,324.5058],[5.9315,58.684,347.5578],[5.9145,58.6821,312.6024],[5.9163,58.6777,310.0578],[5.9079,58.6767,296.1784],[5.9097,58.6724,333.085],[5.8928,58.6705,306.4505],[5.8946,58.6661,313.8538],[5.8861,58.6651,310.6933],[5.8897,58.6564,310.4415],[5.8982,58.6573,281.8389],[5.9036,58.6442,283.1578],[5.8952,58.6432,315.1245],[5.897,58.6388,328.6495],[5.9139,58.6407,405.2581],[5.9175,58.632,402.3018],[5.9091,58.631,396.3474],[5.9109,58.6266,345.86],[5.9024,58.6257,393.5104],[5.906,58.6169,223.0858],[5.9145,58.6179,235.9277],[5.9163,58.6135,259.6446],[5.9078,58.6125,225.5722],[5.9151,58.595,238.3552],[5.9066,58.5941,216.1038],[5.9102,58.5853,270.8626],[5.9018,58.5844,211.6918],[5.9054,58.5756,194.4707],[5.897,58.5746,212.2857],[5.8988,58.5703,173.6183],[5.8903,58.5693,195.7711],[5.8957,58.5562,231.4975],[5.9042,58.5571,256.4007],[5.906,58.5527,208.4342],[5.9228,58.5546,169.8805],[5.9246,58.5502,156.3461],[5.9331,58.5512,128.2434],[5.9349,58.5468,109.9795],[5.9517,58.5487,150.7417],[5.9571,58.5355,205.5416],[5.9656,58.5365,159.5272],[5.9674,58.5321,149.1398],[5.9758,58.533,107.7069],[5.9776,58.5287,101.4074],[5.9944,58.5305,56.5953],[5.9962,58.5262,43.7181],[6.0046,58.5271,53.1478],[6.0064,58.5227,24.5],[6.0233,58.5246,25.865],[6.0251,58.5202,26.6479],[6.0588,58.524,138.6272],[6.057,58.5284,96.2137],[6.0739,58.5302,126.6502],[6.0721,58.5346,119.7119],[6.0805,58.5355,125.6008],[6.077,58.5443,168.5205],[6.1023,58.5471,265.2282],[6.1005,58.5515,265.2045],[6.1174,58.5534,276.5232],[6.1156,58.5578,233.6263],[6.1325,58.5596,317.3428],[6.1307,58.564,360.5223],[6.1476,58.5659,384.3073],[6.1423,58.579,401.2521],[6.1676,58.5818,407.9375],[6.1658,58.5862,355.9216],[6.225,58.5927,616.3568],[6.2232,58.5971,564.824],[6.2739,58.6026,548.8514],[6.2757,58.5983,646.834],[6.3264,58.6038,704.3116],[6.3229,58.6126,703.1727],[6.3314,58.6135,716.8434],[6.3296,58.6179,810.082],[6.3381,58.6188,771.938],[6.3328,58.632,849.4053],[6.3836,58.6375,723.2301],[6.3818,58.6419,687.8152],[6.3903,58.6428,712.4377],[6.3938,58.634,691.3901],[6.4023,58.6349,682.4711],[6.4005,58.6393,657.8837],[6.409,58.6402,666.9681],[6.4072,58.6446,649.7571],[6.4242,58.6464,682.5254],[6.4224,58.6508,585.8751],[6.4309,58.6517,595.7891],[6.4292,58.6561,598.1676],[6.4376,58.657,566.6788]]]]}
,"properties": {"GID_2": "NOR.13.1_1","GID_0": "NOR","country": "Norway","GID_1": "NOR.13_1","province": "Rogaland","NL_NAME_1": "NA","county": "Bjerkreim","VARNAME_2": "NA","NL_NAME_2": "NA","TYPE_2": "Kommuner","ENGTYPE_2": "Municipality","CC_2": "NA","HASC_2": "NO.RO.BJ","name": "Bjerkreim.county","area_km2": 639.044,"hist_schema_id": "Elevation0-9000","hist_area_km2": {"25": 2.5789,"50": 18.2654,"75": 11.2241,"100": 15.601,"125": 22.7108,"150": 22.025,"175": 31.6306,"200": 25.5182,"225": 26.1372,"250": 25.6955,"275": 26.2931,"300": 24.6232,"325": 22.0109,"350": 19.1415,"375": 19.3168,"400": 19.8292,"425": 18.1623,"450": 18.0589,"475": 18.6321,"500": 16.9036,"525": 17.7521,"550": 17.1125,"575": 16.4797,"600": 18.1174,"625": 18.8546,"650": 21.0101,"675": 23.9151,"700": 23.4591,"725": 22.8736,"750": 19.1528,"775": 14.4833,"800": 10.8484,"825": 7.3889,"850": 2.4774,"875": 0.6502,"900": 0.1103}}}