{"type": "Feature","bbox": [5.7831,59.5796,6.5333,60.0021],"geometry": {"type": "MultiPolygon","coordinates": [[[[5.8401,59.6471,0.0],[5.8402,59.6468,74.4359],[5.8403,59.6471,0.0],[5.8401,59.6471,0.0]]],
[[[5.8497,59.7243,0.0],[5.8447,59.7243,0.0],[5.8458,59.7218,16.413],[5.8392,59.7193,12.407],[5.8392,59.716,13.0049],[5.8447,59.7137,0.0],[5.8508,59.7171,7.224],[5.8531,59.7212,1.3896],[5.8497,59.7243,0.0]]],
[[[5.8414,59.6471,0.0],[5.8402,59.6468,74.4359],[5.8443,59.6374,349.8631],[5.853,59.6383,304.449],[5.8548,59.6339,281.4221],[5.8635,59.6349,199.451],[5.8654,59.6305,268.1902],[5.8828,59.6324,125.7888],[5.8847,59.628,229.0783],[5.9021,59.6299,219.7776],[5.904,59.6255,285.5017],[5.9127,59.6265,382.7757],[5.9145,59.6221,451.0917],[5.9058,59.6212,476.6515],[5.9115,59.608,492.2054],[5.9028,59.6071,556.6458],[5.9047,59.6027,455.6255],[5.922,59.6046,480.66],[5.9202,59.609,519.3895],[5.9376,59.6109,539.5074],[5.9394,59.6065,518.1817],[5.9568,59.6084,663.2814],[5.9587,59.604,565.2219],[5.9761,59.6059,605.728],[5.9835,59.5884,544.5683],[5.9748,59.5874,560.7792],[5.9767,59.583,663.2343],[5.9854,59.584,574.306],[5.9873,59.5796,599.8013],[6.0133,59.5824,686.9156],[6.0115,59.5868,711.4506],[6.0202,59.5877,710.7952],[6.0183,59.5921,651.2192],[6.0792,59.5987,583.5],[6.081,59.5943,583.5],[6.0984,59.5962,663.9802],[6.1002,59.5918,572.1782],[6.1089,59.5928,506.9704],[6.1108,59.5884,465.9281],[6.1456,59.5921,654.3622],[6.1474,59.5877,923.8267],[6.1909,59.5924,962.2968],[6.1762,59.6275,898.8001],[6.1849,59.6284,830.1822],[6.1812,59.6372,814.5312],[6.1986,59.639,884.5997],[6.1968,59.6434,849.7953],[6.2055,59.6444,842.0],[6.2037,59.6487,875.3571],[6.2124,59.6497,891.7564],[6.2087,59.6584,1040.0388],[6.2174,59.6594,1097.0687],[6.2138,59.6681,990.8624],[6.2225,59.6691,990.1825],[6.2188,59.6778,904.3555],[6.2275,59.6788,908.7823],[6.2239,59.6875,776.4358],[6.2326,59.6885,758.5695],[6.2307,59.6929,573.4602],[6.2482,59.6947,993.9011],[6.2464,59.6991,1080.3528],[6.2725,59.7019,1213.1588],[6.2652,59.7194,1119.4436],[6.2739,59.7204,1134.1562],[6.2684,59.7335,1106.0972],[6.2772,59.7344,1081.4412],[6.2735,59.7432,1128.8029],[6.2822,59.7441,1140.6921],[6.2786,59.7529,1216.635],[6.2873,59.7538,1147.7034],[6.2836,59.7626,1057.1664],[6.3011,59.7645,1152.6877],[6.303,59.7601,1098.8804],[6.3292,59.7629,900.3311],[6.3274,59.7672,993.2988],[6.3361,59.7682,931.2687],[6.3306,59.7813,1066.4768],[6.3481,59.7832,1150.275],[6.3463,59.7876,1182.1295],[6.3726,59.7903,1065.4392],[6.3707,59.7947,1003.762],[6.3882,59.7965,1162.6698],[6.3864,59.8009,981.7495],[6.4127,59.8037,1037.5754],[6.4109,59.8081,1005.8506],[6.4371,59.8108,1190.7299],[6.4353,59.8152,1234.2546],[6.4616,59.818,1129.7726],[6.4598,59.8223,1192.5867],[6.4861,59.8251,952.2546],[6.4843,59.8295,954.5989],[6.5018,59.8313,1052.9655],[6.5,59.8357,872.1528],[6.5263,59.8384,1099.4795],[6.5245,59.8428,1127.615],[6.5333,59.8437,1077.0345],[6.5043,59.914,541.2845],[6.5131,59.9149,566.2632],[6.5058,59.9324,1001.6379],[6.497,59.9315,1017.2397],[6.4916,59.9447,1099.5044],[6.4828,59.9438,1120.9701],[6.4791,59.9526,1116.5387],[6.4703,59.9516,1182.285],[6.4667,59.9604,1237.5215],[6.4579,59.9595,1312.5369],[6.4561,59.9639,1318.3121],[6.4473,59.963,1085.5037],[6.4454,59.9674,1168.5005],[6.4366,59.9665,1050.3175],[6.433,59.9752,1127.9537],[6.4242,59.9743,1191.1741],[6.4223,59.9787,1259.1406],[6.4135,59.9778,1362.4105],[6.4117,59.9822,1451.167],[6.4029,59.9813,1534.9944],[6.4011,59.9857,1535.9705],[6.3923,59.9847,1576.6595],[6.3904,59.9891,1580.2406],[6.3728,59.9873,1558.1196],[6.371,59.9917,1557.9396],[6.3622,59.9908,1530.6818],[6.3603,59.9951,1539.3191],[6.3515,59.9942,1533.4343],[6.3497,59.9986,1543.8755],[6.3409,59.9977,1551.0867],[6.339,60.0021,1567.9364],[6.3299,60.0019,1574.8254],[6.3357,59.988,1485.2271],[6.3269,59.9871,1482.8748],[6.3306,59.9783,1435.215],[6.3218,59.9774,1409.7422],[6.3255,59.9686,1364.0178],[6.3167,59.9677,1364.983],[6.3186,59.9633,1338.2024],[6.3098,59.9624,1330.792],[6.3116,59.958,1293.787],[6.3028,59.9571,1274.6975],[6.3047,59.9527,1227.3372],[6.2959,59.9517,1207.1774],[6.2977,59.9474,1151.7876],[6.2889,59.9464,1121.6313],[6.2908,59.942,1082.7214],[6.282,59.9411,1065.2175],[6.2838,59.9367,1044.1655],[6.275,59.9358,1002.0181],[6.2787,59.927,984.0733],[6.2699,59.9261,863.9056],[6.2718,59.9217,1079.3674],[6.263,59.9208,836.6686],[6.2649,59.9164,817.7473],[6.2385,59.9136,974.0129],[6.2367,59.918,760.9602],[6.2279,59.9171,859.9142],[6.226,59.9215,762.9263],[6.2172,59.9205,755.2051],[6.2209,59.9118,866.9656],[6.2122,59.9108,706.4033],[6.2196,59.8933,784.9189],[6.2108,59.8924,956.4758],[6.2182,59.8748,1097.1298],[6.2007,59.873,909.1389],[6.1988,59.8773,848.9615],[6.1813,59.8755,879.2341],[6.1637,59.8736,1116.0386],[6.1656,59.8692,1085.2753],[6.1305,59.8655,824.6569],[6.1361,59.8523,863.5792],[6.1273,59.8514,785.3502],[6.1311,59.8426,854.1988],[6.1398,59.8436,872.3389],[6.1454,59.8304,794.6139],[6.1366,59.8295,894.2312],[6.1404,59.8207,725.7294],[6.1316,59.8198,902.3688],[6.1335,59.8154,880.5459],[6.1422,59.8163,920.6592],[6.1478,59.8032,480.7829],[6.1625,59.8045,0.0],[6.1664,59.8074,32.2747],[6.1736,59.8071,0.0],[6.1719,59.8082,21.9437],[6.1742,59.8093,7.9156],[6.1825,59.809,0.0],[6.1847,59.8115,0.0],[6.1892,59.8115,0.0],[6.1964,59.8165,6.7947],[6.2025,59.8176,0.0],[6.2042,59.8199,8.0023],[6.2103,59.8213,0.0],[6.2114,59.8243,3.9928],[6.2142,59.8246,0.0],[6.2181,59.8288,25.6726],[6.2286,59.8349,2.7031],[6.2319,59.8343,0.0],[6.2364,59.836,29.4801],[6.2425,59.8349,0.0],[6.2542,59.8393,45.6622],[6.2642,59.8399,0.0],[6.2792,59.8438,139.8152],[6.2869,59.8421,41.0469],[6.2986,59.8443,29.9018],[6.3064,59.8483,8.4411],[6.3136,59.8485,0.0],[6.3225,59.8521,129.3167],[6.3403,59.8535,0.0],[6.3447,59.8563,5.9509],[6.3442,59.8587,15.8856],[6.3425,59.8593,16.2551],[6.3436,59.8615,57.6087],[6.3469,59.8621,98.7707],[6.3525,59.8668,11.4072],[6.3586,59.8676,28.1578],[6.3636,59.8726,7.1854],[6.3675,59.8735,7.1854],[6.3675,59.8754,49.841],[6.3769,59.8757,33.9942],[6.3797,59.8743,0.0],[6.3758,59.874,0.0],[6.3714,59.8704,28.9825],[6.3686,59.871,0.0],[6.3575,59.8651,0.0],[6.3558,59.8615,3.7009],[6.3525,59.8613,0.0],[6.3531,59.8582,1.0358],[6.3575,59.8568,7.7384],[6.3542,59.8518,60.6251],[6.3514,59.8521,0.0],[6.3425,59.8474,13.8037],[6.3353,59.8465,11.8648],[6.3331,59.8446,57.5274],[6.3136,59.8387,31.4665],[6.2953,59.8371,0.0],[6.2908,59.8363,0.0],[6.2931,59.8354,131.9119],[6.2769,59.8324,0.0],[6.2503,59.8316,0.0],[6.2353,59.8254,36.1336],[6.2219,59.8165,24.3989],[6.2175,59.8121,0.0],[6.2181,59.8096,6.1827],[6.2164,59.8068,3.2814],[6.2103,59.8029,2.8101],[6.1969,59.7999,24.4917],[6.1808,59.7907,0.0],[6.1764,59.7904,0.0],[6.1769,59.7893,0.0],[6.1581,59.7871,0.0],[6.1386,59.7826,0.0],[6.1381,59.7813,0.0],[6.1414,59.7793,67.4494],[6.1347,59.7735,0.0],[6.1342,59.7713,5.9658],[6.1286,59.7682,6.9368],[6.1275,59.7621,31.2535],[6.1208,59.7585,0.0],[6.1186,59.7513,9.6644],[6.1003,59.7415,3.7876],[6.0997,59.7393,0.0],[6.0914,59.736,5.0006],[6.0825,59.7365,83.5673],[6.0831,59.7382,2.5453],[6.0747,59.7395,27.9669],[6.0697,59.7421,0.0],[6.0564,59.7401,119.0453],[6.0564,59.7415,7.2432],[6.0453,59.7432,63.0708],[6.0447,59.7449,0.0],[6.0419,59.7454,2.0213],[6.0247,59.7415,16.0358],[6.0192,59.7371,0.0],[6.0108,59.7382,12.3279],[6.0103,59.7412,0.0],[6.0036,59.7443,0.0],[5.9931,59.7443,0.4911],[5.9908,59.7438,0.0],[5.9914,59.7418,37.7224],[5.9881,59.7385,0.0],[5.9953,59.7374,18.2236],[5.9953,59.7351,8.9931],[5.9847,59.7343,2.2414],[5.9575,59.7438,8.9111],[5.9581,59.746,6.7205],[5.9642,59.7463,0.0],[5.9664,59.7485,1.7087],[5.9619,59.7551,31.1007],[5.9558,59.7585,15.4198],[5.9486,59.7593,29.011],[5.9486,59.7615,6.3379],[5.9397,59.7621,0.0],[5.9386,59.7635,24.0682],[5.9408,59.7663,0.0],[5.9369,59.7682,26.3788],[5.9375,59.7699,26.4906],[5.9308,59.7701,36.187],[5.9286,59.769,0.0],[5.9292,59.7668,0.0],[5.9314,59.766,9.712],[5.9314,59.7643,0.0],[5.9347,59.7635,73.186],[5.9314,59.7621,0.0],[5.9319,59.7574,26.9413],[5.9431,59.7562,3.2719],[5.9497,59.7524,0.0],[5.9492,59.751,0.0],[5.9436,59.7507,0.0],[5.9431,59.7493,17.2601],[5.9331,59.7457,1.7262],[5.9325,59.7438,4.7648],[5.9347,59.741,1.4198],[5.9419,59.7396,3.533],[5.9414,59.7376,0.0],[5.9392,59.7371,0.0],[5.9403,59.7337,10.1935],[5.9375,59.7337,4.2324],[5.9347,59.736,0.0],[5.9319,59.736,0.0],[5.9325,59.734,0.0],[5.9286,59.734,0.0],[5.9258,59.736,1.6524],[5.9303,59.7363,1.256],[5.9292,59.7388,0.0],[5.9253,59.7385,3.9923],[5.9253,59.7363,1.6524],[5.9203,59.736,6.7359],[5.9136,59.7401,4.1448],[5.9069,59.7407,0.0],[5.9053,59.7396,9.3954],[5.9064,59.7335,8.3185],[5.9053,59.7332,8.3185],[5.8997,59.7349,1.8588],[5.8864,59.7343,8.2578],[5.8858,59.7329,7.0816],[5.8797,59.7332,0.0],[5.8781,59.7307,2.0191],[5.8719,59.7313,4.1469],[5.8631,59.7285,18.8002],[5.8575,59.7293,0.0],[5.8603,59.7268,12.3441],[5.8558,59.7257,0.0],[5.8575,59.724,16.1106],[5.8569,59.7199,0.0],[5.8653,59.7176,9.6733],[5.8642,59.7146,23.7067],[5.8603,59.7137,1.352],[5.8608,59.7115,10.2179],[5.8536,59.7088,0.0],[5.8397,59.7107,3.0754],[5.8342,59.7082,17.8063],[5.8269,59.7076,2.5075],[5.8169,59.7029,8.1084],[5.8164,59.7007,19.1152],[5.8136,59.6999,0.0],[5.8136,59.6968,11.0181],[5.8108,59.6929,21.4911],[5.8053,59.6926,2.2816],[5.8064,59.691,32.9315],[5.8008,59.6885,7.5216],[5.7936,59.6888,0.0],[5.7831,59.6835,7.7257],[5.7831,59.6793,4.0072],[5.7869,59.6763,0.0],[5.7853,59.6726,0.0],[5.7881,59.6707,8.9862],[5.7858,59.6696,2.6957],[5.7853,59.6651,0.0],[5.7914,59.6654,0.0],[5.7931,59.6638,9.2578],[5.7942,59.6601,26.653199999999998],[5.7897,59.6579,7.3419],[5.7897,59.656,7.7999],[5.7931,59.6524,3.3255],[5.7936,59.6482,4.7655],[5.7953,59.6476,4.7655],[5.7986,59.6482,0.0],[5.7992,59.6512,10.0714],[5.8008,59.6518,0.0],[5.8058,59.6499,0.0],[5.8208,59.6496,0.0],[5.8292,59.6529,0.0],[5.8358,59.6524,0.0],[5.8381,59.6554,0.0],[5.8447,59.6579,15.0195],[5.8531,59.6585,0.0],[5.8581,59.6607,17.5014],[5.8653,59.659,5.136],[5.8803,59.6626,0.0],[5.8858,59.6662,2.1429],[5.9058,59.6735,0.0],[5.9142,59.6726,5.5208],[5.9181,59.6757,16.5798],[5.9236,59.6757,76.545],[5.9303,59.673,-0.0099],[5.9303,59.6715,1.0232],[5.9281,59.671,0.0],[5.9281,59.6685,0.0],[5.9314,59.6651,0.0],[5.9308,59.664,0.0],[5.9192,59.6632,23.8329],[5.9153,59.6657,0.0],[5.9081,59.6579,13.6622],[5.9014,59.6579,1.2835],[5.9008,59.6526,5.9018],[5.8947,59.6501,8.2564],[5.8969,59.6474,4.0094],[5.9003,59.6485,1.416],[5.9031,59.6468,0.0],[5.9208,59.6482,0.0],[5.9225,59.6426,27.8462],[5.9097,59.6424,1.114],[5.9019,59.6443,0.0],[5.8947,59.6426,1.5737],[5.8908,59.6437,7.0564],[5.8925,59.6454,0.0],[5.8869,59.6429,11.4973],[5.8825,59.6451,4.893],[5.8653,59.6446,7.1849],[5.8581,59.649,1.5697],[5.8414,59.6471,0.0]]]]}
,"properties": {"GID_2": "NOR.7.7_1","GID_0": "NOR","country": "Norway","GID_1": "NOR.7_1","province": "Hordaland","NL_NAME_1": "NA","county": "Etne","VARNAME_2": "NA","NL_NAME_2": "NA","TYPE_2": "Kommuner","ENGTYPE_2": "Municipality","CC_2": "NA","HASC_2": "NO.HO.ET","name": "Etne.county","area_km2": 705.4509,"hist_schema_id": "Elevation0-9000","hist_area_km2": {"0": 9.1609,"25": 11.2595,"50": 21.1847,"75": 16.5709,"100": 12.0765,"125": 11.032,"150": 10.4106,"175": 11.0364,"200": 10.226,"225": 9.4465,"250": 9.6798,"275": 9.2301,"300": 9.0381,"325": 11.0309,"350": 11.4421,"375": 12.0474,"400": 11.8872,"425": 15.0211,"450": 14.3589,"475": 14.8968,"500": 14.4123,"525": 16.8431,"550": 19.7344,"575": 21.9548,"600": 17.5001,"625": 22.6825,"650": 19.7344,"675": 17.7965,"700": 16.6012,"725": 15.2135,"750": 16.4199,"775": 16.9964,"800": 17.9605,"825": 17.3236,"850": 16.7008,"875": 17.6213,"900": 17.2552,"925": 14.7326,"950": 14.8861,"975": 13.2214,"1000": 11.7476,"1025": 12.0026,"1050": 12.9054,"1075": 11.5492,"1100": 10.0383,"1125": 8.2591,"1150": 7.4703,"1175": 7.1077,"1200": 5.6995,"1225": 5.1671,"1250": 4.56,"1275": 3.0386,"1300": 1.8049,"1325": 1.677,"1350": 1.836,"1375": 1.1673,"1400": 1.0505,"1425": 1.1671,"1450": 1.1458,"1475": 1.4534,"1500": 1.8669,"1525": 2.5456,"1550": 2.3441,"1575": 1.2197}}}