{"type":"Feature","properties":{"GID_2":"NOR.8.5_1","GID_0":"NOR","country":"Norway","GID_1":"NOR.8_1","province":"MøreogRomsdal","NL_NAME_1":"NA","county":"Eide","VARNAME_2":"NA","NL_NAME_2":"NA","TYPE_2":"Kommuner","ENGTYPE_2":"Municipality","CC_2":"NA","HASC_2":"NO.MR.EI","name":"Eide.county"},
"geometry":{"type": "MultiPolygon","coordinates": [[[[7.3625,62.975,0.0],[7.3495,62.9776,0.0],[7.3438,62.975,0.0],[7.3318,62.9755,0.0],[7.3307,62.9786,0.0],[7.325,62.9833,0.0],[7.3266,62.9932,0.0],[7.3193,62.9943,0.0],[7.3182,62.9974,0.0],[7.3109,62.9984,11.9757],[7.3099,63.0016,0.0],[7.3068,63.0026,0.0],[7.312,63.0047,0.0],[7.313,63.0078,0.0],[7.3167,63.0083,0.0],[7.3167,63.0104,0.0],[7.3292,63.0104,0.0],[7.3411,63.0151,2.5653],[7.3396,63.0167,0.0],[7.325,63.0146,0.0],[7.3208,63.0125,3.3951],[7.3167,63.0146,0.0],[7.3063,63.0104,0.0],[7.3021,63.0125,0.0],[7.2958,63.0104,0.0],[7.2943,63.0109,0.0],[7.2953,63.0141,0.0],[7.2938,63.0146,0.0],[7.2792,63.0146,0.0],[7.2646,63.0104,0.0],[7.2604,63.0125,0.0],[7.2563,63.0125,0.0],[7.25,63.0104,0.0],[7.2484,63.0109,0.0],[7.2495,63.0141,0.0],[7.2458,63.0146,0.0],[7.2401,63.012,0.0],[7.2432,63.0089,0.0],[7.2375,63.0062,0.0],[7.2333,63.0066,0.0],[7.2349,63.0099,0.0],[7.2333,63.0104,0.0],[7.2214,63.0099,0.0],[7.2229,63.0083,0.0],[7.2331,63.0062,0.0],[7.2333,63.0045,3.9152],[7.2416,63.0052,8.0024],[7.2454,62.9964,32.6433],[7.2551,62.9973,33.1978],[7.259,62.9885,0.0],[7.2687,62.9894,0.0],[7.2726,62.9806,3.8996],[7.2823,62.9814,0.5877],[7.2862,62.9726,47.553],[7.2959,62.9735,49.7217],[7.2978,62.9691,74.1924],[7.2784,62.9674,130.0977],[7.2803,62.963,108.2506],[7.2609,62.9612,291.8533],[7.2629,62.9568,319.1982],[7.2435,62.9551,494.4417],[7.2454,62.9507,519.8137],[7.2357,62.9498,676.8841],[7.2376,62.9454,548.698],[7.2473,62.9463,607.2053],[7.2551,62.9287,465.8788],[7.2648,62.9295,580.7994],[7.2705,62.9163,100.488],[7.2802,62.9172,86.6373],[7.286,62.904,338.5074],[7.2957,62.9049,340.6952],[7.3053,62.8829,243.362],[7.315,62.8837,230.1459],[7.3284,62.8529,781.4786],[7.3381,62.8538,654.0923],[7.34,62.8494,748.8242],[7.3497,62.8502,656.8743],[7.3477,62.8546,578.2664],[7.3928,62.8586,823.3899],[7.3953,62.8608,631.7473],[7.3942,62.8633,544.4321],[7.4039,62.8642,360.6505],[7.4058,62.8598,490.4181],[7.3998,62.8593,632.6593],[7.3971,62.8565,779.4858],[7.3999,62.8501,877.829],[7.3902,62.8493,791.4032],[7.394,62.8405,706.3916],[7.4037,62.8413,467.5861],[7.4018,62.8457,590.4757],[7.4211,62.8474,358.8318],[7.4192,62.8518,412.5479],[7.4483,62.8544,490.2688],[7.4464,62.8588,526.5549],[7.5238,62.8656,697.6075],[7.5219,62.87,642.8115],[7.5412,62.8717,762.746],[7.5394,62.8761,660.4807],[7.549,62.877,652.9747],[7.5472,62.8814,354.9386],[7.5568,62.8822,245.6084],[7.555,62.8866,152.2148],[7.5937,62.89,624.794],[7.5918,62.8944,509.9676],[7.6015,62.8953,344.6834],[7.5996,62.8997,648.3038],[7.6093,62.9005,969.2119],[7.6075,62.9049,778.0376],[7.6171,62.9058,845.8704],[7.6153,62.9102,598.8714],[7.6056,62.9093,766.1881],[7.5981,62.9269,25.4168],[7.6078,62.9278,72.8765],[7.6059,62.9322,37.5093],[7.5958,62.9322,0.0],[7.5932,62.9276,0.0],[7.5875,62.925,11.7947],[7.5813,62.925,16.4792],[7.5771,62.9271,0.0],[7.5729,62.925,22.4898],[7.5688,62.9271,0.0],[7.5609,62.9245,0.0],[7.5563,62.9208,22.3691],[7.5583,62.9188,85.7044],[7.5625,62.9208,53.698],[7.5729,62.9208,171.4998],[7.5771,62.9229,136.9301],[7.5792,62.9208,300.3708],[7.5771,62.9188,391.691],[7.5708,62.9188,307.9462],[7.5667,62.9167,481.7776],[7.5563,62.9167,172.6422],[7.5521,62.9188,0.0],[7.5479,62.9167,10.3878],[7.5375,62.9167,0.0],[7.5359,62.9161,0.0],[7.5349,62.9109,11.9439],[7.5333,62.9104,29.6519],[7.5271,62.9104,11.6938],[7.5229,62.9083,27.5067],[7.5068,62.9078,0.0],[7.5068,62.9047,61.0642],[7.5141,62.9036,136.3597],[7.5141,62.9005,339.5797],[7.5125,62.9,380.5734],[7.5083,62.9021,216.5074],[7.5005,62.9026,290.0315],[7.4958,62.9063,27.5359],[7.4813,62.9063,0.0],[7.4708,62.9021,0.0],[7.4625,62.9021,0.0],[7.4599,62.9057,0.0],[7.4526,62.9068,0.0],[7.4526,62.9099,2.4871],[7.4578,62.9109,0.0],[7.4604,62.9208,0.0],[7.4599,62.9224,0.0],[7.4526,62.9255,0.0],[7.4516,62.9307,0.0],[7.4484,62.9318,10.1255],[7.45,62.9354,0.0],[7.4495,62.9391,0.0],[7.4438,62.9375,14.3305],[7.4339,62.9401,0.0],[7.4328,62.9432,0.0],[7.4214,62.9484,3.7142],[7.4203,62.9516,0.0],[7.4172,62.9526,0.0],[7.4224,62.9557,0.0],[7.4125,62.9583,0.0],[7.3896,62.9583,13.613],[7.3745,62.9661,22.633],[7.3604,62.9688,0.0],[7.3547,62.9714,0.0],[7.3589,62.9745,0.0],[7.3625,62.975,0.0]]],
[[[7.5917,62.9354,0.0],[7.5946,62.9351,5.8219],[7.5936,62.9375,2.9892],[7.588,62.937,3.0453],[7.588,62.9359,0.0],[7.5917,62.9354,0.0]]],
[[[7.3761,62.9751,45.1007],[7.3683,62.9744,0.0],[7.3708,62.9729,0.0],[7.3778,62.9729,0.0],[7.3761,62.9751,45.1007]]],
[[[7.3229,63.0083,0.0],[7.3167,63.0083,0.0],[7.3167,63.0062,0.0],[7.3245,63.0047,0.0],[7.3245,63.0078,0.0],[7.3229,63.0083,0.0]]],
[[[7.238,63.0193,0.0],[7.2411,63.0193,0.0],[7.2411,63.0245,0.0],[7.2354,63.025,0.0],[7.2313,63.0229,2.1579],[7.2234,63.0224,0.0],[7.225,63.0208,0.0],[7.2354,63.0208,0.0],[7.238,63.0193,0.0]]]]}}