{"type": "Feature","bbox": [16.7776,69.0062,17.8329,69.3452],"geometry": {"type": "MultiPolygon","coordinates": [[[[17.2432,69.0234,0.0],[17.2422,69.0214,0.0],[17.2474,69.0214,5.865],[17.2516,69.0266,1.596],[17.2464,69.0266,10.8973],[17.2432,69.0234,0.0]]],
[[[17.2536,69.0651,0.0],[17.2526,69.063,0.0],[17.2578,69.063,5.7379],[17.2599,69.0682,8.9154],[17.2547,69.0682,0.0],[17.2536,69.0651,0.0]]],
[[[17.4104,69.1417,7.1186],[17.4146,69.1396,4.2382],[17.4396,69.1396,4.6713],[17.4474,69.1422,0.0],[17.4495,69.1453,0.0],[17.4375,69.15,0.0],[17.4271,69.1458,12.9379],[17.4125,69.1458,0.0],[17.4089,69.1432,10.8368],[17.4104,69.1417,7.1186]]],
[[[17.4583,69.1458,0.0],[17.4568,69.1443,0.0],[17.462,69.1443,0.0],[17.462,69.1453,3.7833],[17.4583,69.1458,0.0]]],
[[[16.8521,69.0208,0.0],[16.8505,69.0193,4.9524],[16.8557,69.0193,0.0],[16.8557,69.0203,0.0],[16.8521,69.0208,0.0]]],
[[[16.8682,69.0276,0.0],[16.8672,69.0255,0.0],[16.8688,69.025,0.0],[16.9,69.025,0.0],[16.9188,69.0313,6.9739],[16.9245,69.0318,0.0],[16.925,69.0333,0.0],[16.9203,69.037,0.0],[16.9125,69.0375,0.0],[16.8937,69.0313,0.0],[16.8833,69.0313,0.0],[16.8792,69.0292,0.0],[16.8708,69.0292,4.6284],[16.8682,69.0276,0.0]]],
[[[17.2167,69.0771,0.0],[17.2151,69.0755,0.0],[17.2266,69.0755,0.0],[17.225,69.0771,0.0],[17.2167,69.0771,0.0]]],
[[[16.863,69.1578,0.0],[16.863,69.1547,0.0],[16.8646,69.1542,0.0],[16.8833,69.1542,0.0],[16.8911,69.1568,0.0],[16.8896,69.1583,13.4785],[16.863,69.1578,0.0]]],
[[[17.4651,69.1495,0.0],[17.4667,69.1479,0.0],[17.4703,69.1484,0.0],[17.4688,69.15,0.0],[17.4651,69.1495,0.0]]],
[[[17.4854,69.1625,0.0],[17.4953,69.1651,0.0],[17.4974,69.1682,0.0],[17.4896,69.1708,0.0],[17.4859,69.1682,0.0],[17.4849,69.1651,0.0],[17.4813,69.1646,24.3668],[17.475,69.1667,0.0],[17.4651,69.1641,3.623],[17.4646,69.1625,0.0],[17.4651,69.1609,0.0],[17.4708,69.1583,0.0],[17.4854,69.1625,0.0]]],
[[[17.4154,69.3026,745.3613],[17.39,69.3022,831.3248],[17.3906,69.2977,542.9606],[17.3526,69.2972,374.7188],[17.3532,69.2926,291.0045],[17.3026,69.2919,566.02],[17.3031,69.2874,712.258],[17.2652,69.2868,817.8005],[17.2657,69.2823,784.4056],[17.2531,69.2821,689.4993],[17.2553,69.2641,566.5085],[17.2301,69.2637,475.1523],[17.2323,69.2457,454.782],[17.1819,69.245,210.5051],[17.183,69.236,379.8833],[17.1956,69.2362,426.1736],[17.1979,69.2182,639.0842],[17.2105,69.2183,574.1725],[17.2111,69.2138,635.6417],[17.2237,69.214,611.7598],[17.2248,69.205,253.9917],[17.1996,69.2047,80.3179],[17.1998,69.203,56.3091],[17.2065,69.2006,25.096],[17.2044,69.1999,8.1001],[17.2057,69.1995,0.0],[17.2047,69.1964,0.0],[17.2078,69.1953,0.0],[17.2078,69.1922,31.2799],[17.1958,69.1917,9.1434],[17.1922,69.1891,45.1425],[17.1958,69.1875,161.3555],[17.2,69.1896,88.6997],[17.2083,69.1896,119.9407],[17.2141,69.187,237.2408],[17.2125,69.1854,304.8079],[17.2005,69.1849,317.144],[17.2078,69.1797,485.7451],[17.2,69.1771,560.0101],[17.1938,69.1792,550.3436],[17.1688,69.1792,306.0704],[17.1651,69.1755,324.2672],[17.1724,69.1713,514.2497],[17.1646,69.1687,662.4543],[17.1583,69.1708,627.486],[17.1271,69.1708,462.9355],[17.1229,69.1687,434.2779],[17.1068,69.1682,225.7202],[17.1182,69.162,401.9343],[17.1167,69.1604,486.6264],[17.1021,69.1604,539.0126],[17.0979,69.1625,569.2035],[17.0792,69.1625,707.1243],[17.0729,69.1583,550.8842],[17.0667,69.1604,100.6916],[17.0589,69.1536,22.4063],[17.0589,69.1505,0.0],[17.0667,69.1521,45.3001],[17.0708,69.15,0.0],[17.0833,69.15,20.7518],[17.0849,69.1495,21.0391],[17.0839,69.1464,0.0],[17.087,69.1443,60.8222],[17.0771,69.1417,61.3394],[17.0547,69.1412,0.0],[17.0583,69.1375,38.0157],[17.0542,69.1333,293.7474],[17.0479,69.1354,256.9258],[17.0354,69.1354,63.7488],[17.0229,69.1396,0.0],[17.0083,69.1396,92.0948],[17.0021,69.1375,452.9945],[16.9938,69.1417,483.2191],[16.9813,69.1417,33.3281],[16.9688,69.1375,0.0],[16.9625,69.1375,14.8916],[16.9562,69.1396,0.0],[16.9521,69.1375,36.3809],[16.9438,69.1375,46.5353],[16.9255,69.1328,395.4839],[16.9255,69.1297,553.0161],[16.9271,69.1292,499.1666],[16.9375,69.1292,300.668],[16.9417,69.1271,350.6212],[16.9495,69.1266,298.8302],[16.9417,69.1229,549.4017],[16.9313,69.1271,423.7811],[16.9188,69.1271,596.8928],[16.9146,69.1292,466.2694],[16.9005,69.1307,0.0],[16.8984,69.1255,0.0],[16.9057,69.1224,16.2611],[16.9047,69.1193,0.0],[16.9125,69.1188,32.3237],[16.9182,69.1162,8.0374],[16.9151,69.1109,0.0],[16.9224,69.1057,154.7442],[16.9214,69.1026,250.7237],[16.9245,69.1016,298.1284],[16.9229,69.1,426.74],[16.9167,69.1021,299.2752],[16.9,69.1021,601.0319],[16.8958,69.1042,324.4147],[16.8896,69.1042,292.4265],[16.888,69.1047,228.3467],[16.8891,69.1099,0.0],[16.875,69.1146,0.0],[16.8563,69.1146,408.9694],[16.8417,69.1188,288.0609],[16.8047,69.1203,0.0],[16.8047,69.1172,0.0],[16.8078,69.1151,125.285],[16.8016,69.1088,83.5963],[16.7964,69.1078,16.1646],[16.7911,69.1026,50.5434],[16.7813,69.1021,0.0],[16.7776,69.0995,0.0],[16.7807,69.0974,0.0],[16.7797,69.0943,0.0],[16.787,69.0911,0.0],[16.7875,69.0896,0.0],[16.7797,69.0787,0.0],[16.787,69.0734,1.5081],[16.7813,69.0729,0.0],[16.7797,69.0714,0.0],[16.7958,69.0667,0.0],[16.8021,69.0687,0.0],[16.8104,69.0687,14.2683],[16.812,69.0672,11.0139],[16.8078,69.063,0.0],[16.8,69.0604,5.0628],[16.7896,69.0604,0.0],[16.7818,69.0568,0.0],[16.7917,69.0542,3.186],[16.8104,69.0542,12.2706],[16.8146,69.0521,1.6749],[16.8396,69.0521,0.0],[16.8438,69.0542,8.2903],[16.8937,69.0542,0.0],[16.8979,69.0563,20.5778],[16.9078,69.0568,0.0],[16.9125,69.0604,0.0],[16.9208,69.0583,0.0],[16.925,69.0604,0.0],[16.9313,69.0583,0.0],[16.9375,69.0625,5.5612],[16.9474,69.063,0.0],[16.9547,69.0703,0.0],[16.9708,69.075,0.0],[16.9792,69.075,0.0],[16.9833,69.0771,0.0],[17.0083,69.0771,2.9244],[17.0141,69.0745,0.0],[17.013,69.0693,0.0],[17.0333,69.0687,0.0],[17.0375,69.0708,0.0],[17.0474,69.0714,0.0],[17.0521,69.075,0.0],[17.0604,69.0729,0.0],[17.0646,69.075,3.2261],[17.0896,69.075,0.0],[17.0938,69.0771,13.9506],[17.1104,69.0771,0.0],[17.1146,69.0792,0.0],[17.1229,69.0792,0.0],[17.1333,69.0833,23.6136],[17.1583,69.0833,0.0],[17.1599,69.0828,0.0],[17.1599,69.0797,14.9834],[17.1526,69.0787,0.0],[17.1479,69.075,0.0],[17.138,69.0745,0.0],[17.1313,69.0667,1.1871],[17.1042,69.0667,0.0],[17.0995,69.063,10.661],[17.0922,69.062,0.0],[17.0896,69.0583,6.27],[17.0792,69.0583,6.5395],[17.075,69.0563,0.0],[17.0688,69.0563,0.0],[17.0625,69.0583,0.0],[17.0438,69.0521,0.0],[17.0333,69.0521,0.0],[17.0318,69.0505,0.0],[17.0474,69.0432,0.0],[17.0458,69.0417,0.0],[17.0359,69.0411,0.0],[17.0339,69.0391,0.9701],[17.0339,69.0359,2.1903],[17.0411,69.0349,0.0],[17.0495,69.0307,0.0],[17.0505,69.0276,0.0],[17.0536,69.0266,0.0],[17.0516,69.0234,15.2987],[17.0443,69.0224,0.0],[17.0443,69.0193,0.0],[17.0474,69.0172,20.9959],[17.0401,69.0162,0.0],[17.038,69.0141,0.0],[17.0411,69.012,0.6949],[17.0401,69.0089,0.0],[17.0417,69.0083,0.0],[17.0542,69.0083,10.768],[17.0583,69.0062,0.0],[17.0667,69.0062,0.0],[17.0708,69.0083,8.4855],[17.075,69.0062,0.0],[17.0833,69.0062,0.0],[17.0875,69.0083,9.7326],[17.0958,69.0083,0.0],[17.1,69.0104,1.2339],[17.1167,69.0104,0.0],[17.1208,69.0125,0.0],[17.1354,69.0125,0.0],[17.1396,69.0146,0.0],[17.1437,69.0125,0.0],[17.1521,69.0146,12.2301],[17.1583,69.0125,0.0],[17.1661,69.0151,0.0],[17.1708,69.0188,0.0],[17.1854,69.0188,0.0],[17.1979,69.0229,0.0],[17.2167,69.0208,0.0],[17.2208,69.0229,0.0],[17.225,69.0229,0.0],[17.2328,69.0318,0.0],[17.2297,69.0339,2.2711],[17.2307,69.037,0.0],[17.2234,69.0401,3.5257],[17.2224,69.0432,3.4334],[17.2193,69.0443,0.0],[17.2224,69.0495,0.0],[17.2167,69.0521,0.0],[17.1979,69.0542,0.0],[17.1953,69.0505,20.8713],[17.188,69.0495,0.0],[17.1911,69.0463,5.8958],[17.1875,69.0437,0.0],[17.1813,69.0437,13.3816],[17.1797,69.0443,11.0076],[17.1807,69.0474,0.0],[17.1714,69.0484,0.0],[17.1729,69.0521,0.0],[17.1693,69.0557,4.65],[17.1766,69.0568,0.0],[17.1839,69.0661,10.7026],[17.1974,69.0693,0.0],[17.2036,69.0755,7.083],[17.1859,69.0849,0.0],[17.2042,69.0854,0.0],[17.2083,69.0875,20.3667],[17.2229,69.0875,0.0],[17.2333,69.0917,13.9719],[17.2458,69.0938,0.0],[17.2484,69.0974,51.9682],[17.2557,69.0984,0.0],[17.2609,69.1036,27.2245],[17.2724,69.1047,0.0],[17.2745,69.1078,0.0],[17.2714,69.1099,19.7551],[17.2734,69.112,0.0],[17.2917,69.1146,0.0],[17.3021,69.1188,12.3802],[17.3224,69.1234,0.0],[17.3255,69.1266,2.5444],[17.3307,69.1276,0.0],[17.3276,69.1297,4.0808],[17.3286,69.1328,0.0],[17.3193,69.1339,0.0],[17.3214,69.137,0.0],[17.3312,69.1396,4.8748],[17.35,69.1396,11.7219],[17.3563,69.1375,0.0],[17.3641,69.1401,0.0],[17.3672,69.1432,14.3098],[17.3745,69.1443,0.0],[17.3776,69.1474,0.0],[17.3911,69.1505,0.0],[17.3964,69.1578,11.8206],[17.4036,69.1589,5.7743],[17.4057,69.1609,0.0],[17.4026,69.1641,4.1652],[17.4141,69.1651,0.0],[17.4161,69.1682,0.0],[17.413,69.1703,0.0],[17.4151,69.1724,0.0],[17.4286,69.1755,0.0],[17.4333,69.1792,11.5419],[17.4432,69.1797,0.0],[17.4453,69.1828,0.0],[17.4422,69.1849,0.0],[17.4505,69.1953,4.3352],[17.4708,69.2,0.0],[17.4813,69.2042,9.0283],[17.4896,69.2042,0.0],[17.4938,69.2021,0.0],[17.5229,69.2021,0.0],[17.5339,69.1964,0.0],[17.5417,69.1958,4.6228],[17.5432,69.1943,0.0],[17.5313,69.1937,0.0],[17.5286,69.1901,0.0],[17.5146,69.1875,0.0],[17.5042,69.1833,16.1369],[17.4922,69.1828,0.0],[17.4901,69.1807,0.0],[17.4901,69.1776,0.0],[17.4958,69.175,0.0],[17.5021,69.175,0.0],[17.5062,69.1771,23.3593],[17.5125,69.175,0.0],[17.5187,69.1771,8.0154],[17.5224,69.1766,0.0],[17.5307,69.1724,0.0],[17.5234,69.1693,0.8633],[17.5307,69.1651,4.8681],[17.5271,69.1604,0.0],[17.5187,69.1604,0.0],[17.5083,69.1646,0.0],[17.4896,69.1583,4.3528],[17.4839,69.1578,0.0],[17.4776,69.1495,4.7795],[17.4792,69.1479,0.0],[17.4979,69.1479,0.0],[17.5042,69.1521,0.0],[17.5187,69.1521,0.0],[17.5203,69.1536,0.0],[17.5172,69.1557,0.0],[17.5354,69.1604,6.472],[17.5417,69.1604,6.8536],[17.5458,69.1583,0.0],[17.5938,69.1583,2.57],[17.5979,69.1604,0.0],[17.6063,69.1604,0.0],[17.612,69.1578,0.0],[17.6068,69.1484,0.0],[17.6125,69.1458,0.0],[17.625,69.1458,0.0],[17.6375,69.15,24.3411],[17.6521,69.15,0.0],[17.6682,69.1547,0.0],[17.6729,69.1583,17.8185],[17.6875,69.1583,0.0],[17.7057,69.163,0.0],[17.7104,69.1667,5.3277],[17.7188,69.1667,0.0],[17.7229,69.1687,0.0],[17.7354,69.1687,0.0],[17.7396,69.1667,0.0],[17.7583,69.1667,5.5448],[17.7729,69.1625,0.0],[17.7958,69.1625,0.0],[17.8021,69.1604,0.0],[17.8062,69.1625,8.361],[17.8097,69.1614,9.8188],[17.809,69.168,192.1395],[17.8216,69.1681,113.0557],[17.8203,69.1816,342.9042],[17.8329,69.1818,347.1975],[17.8316,69.1953,185.4522],[17.819,69.1951,135.4245],[17.8185,69.1996,90.6497],[17.8059,69.1995,83.689],[17.805,69.2085,125.36],[17.7924,69.2084,159.5831],[17.792,69.2129,133.6055],[17.7415,69.2122,314.8506],[17.7411,69.2167,312.387],[17.7033,69.2163,335.7702],[17.7028,69.2208,258.9665],[17.7154,69.2209,313.7755],[17.7145,69.2299,38.4829],[17.7271,69.2301,35.3261],[17.7266,69.2346,19.1158],[17.6635,69.2338,31.4835],[17.663,69.2383,29.5596],[17.6504,69.2381,34.9976],[17.649,69.2516,15.2927],[17.6616,69.2518,15.2418],[17.6587,69.2788,181.579],[17.6461,69.2786,197.2494],[17.6447,69.2922,267.6666],[17.632,69.292,291.132],[17.6315,69.2965,376.1385],[17.6189,69.2963,421.736],[17.6179,69.3053,370.2924],[17.6052,69.3052,452.3008],[17.6047,69.3097,494.5858],[17.5921,69.3095,427.2396],[17.5916,69.314,392.9422],[17.5789,69.3138,298.735],[17.5769,69.3318,447.8975],[17.5643,69.3317,391.8367],[17.5628,69.3452,596.1956],[17.5501,69.345,531.2483],[17.5511,69.336,483.569],[17.5384,69.3358,393.4582],[17.5414,69.3088,200.8074],[17.4908,69.3081,504.1187],[17.4913,69.3036,478.0808],[17.4154,69.3026,745.3613]]],
[[[17.0672,69.1703,13.6212],[17.0688,69.1687,0.0],[17.0766,69.1693,23.3013],[17.075,69.1708,0.0],[17.0672,69.1703,13.6212]]],
[[[17.1667,69.1833,25.0226],[17.1651,69.1818,94.5403],[17.1703,69.1818,132.5861],[17.1703,69.1828,87.7794],[17.1667,69.1833,25.0226]]],
[[[17.1958,69.1833,386.3824],[17.1943,69.1818,448.8428],[17.1995,69.1818,434.9644],[17.1995,69.1828,417.9308],[17.1958,69.1833,386.3824]]]]}
,"properties": {"GID_2": "NOR.17.24_1","GID_0": "NOR","country": "Norway","GID_1": "NOR.17_1","province": "Troms","NL_NAME_1": "NA","county": "Tranøy","VARNAME_2": "NA","NL_NAME_2": "NA","TYPE_2": "Kommuner","ENGTYPE_2": "Municipality","CC_2": "NA","HASC_2": "NO.TR.TN","name": "Tranøy.county","area_km2": 514.2348,"hist_schema_id": "Elevation0-9000","hist_area_km2": {"0": 32.6513,"25": 47.589,"50": 36.8264,"75": 26.0138,"100": 29.0831,"125": 25.7069,"150": 22.9031,"175": 29.2607,"200": 24.4123,"225": 23.4009,"250": 21.2463,"275": 19.7951,"300": 15.9397,"325": 15.4671,"350": 15.9864,"375": 15.4767,"400": 15.017,"425": 13.8925,"450": 13.639099999999999,"475": 13.1029,"500": 9.796,"525": 8.0741,"550": 6.8384,"575": 5.7967,"600": 4.8641,"625": 4.0583,"650": 3.7558,"675": 3.2435,"700": 2.6026,"725": 2.1059,"750": 2.1424,"775": 1.518,"800": 1.0594,"825": 0.5859,"850": 0.293,"875": 0.09}}}