{"type":"Feature","properties":{"GID_2":"NOR.13.12_1","GID_0":"NOR","country":"Norway","GID_1":"NOR.13_1","province":"Rogaland","NL_NAME_1":"NA","county":"Kvitsøy","VARNAME_2":"NA","NL_NAME_2":"NA","TYPE_2":"Kommuner","ENGTYPE_2":"Municipality","CC_2":"NA","HASC_2":"NO.RO.KV","name":"Kvitsøy.county"},
"geometry":{"type": "MultiPolygon","coordinates": [[[[5.3892,59.0085,2.9915],[5.3897,59.0112,2.5665],[5.3864,59.0115,2.5665],[5.3836,59.0051,0.0],[5.3869,59.0049,0.0],[5.3892,59.0085,2.9915]]],
[[[5.3764,59.0129,0.0],[5.3658,59.0121,0.0],[5.3658,59.0068,0.0],[5.3681,59.0071,0.6786],[5.3764,59.0129,0.0]]],
[[[5.3725,59.0215,0.0],[5.3697,59.0221,0.0],[5.3686,59.0199,0.0],[5.3725,59.0182,0.0],[5.3725,59.0215,0.0]]],
[[[5.4042,59.0376,0.0],[5.3947,59.036,0.3588],[5.3931,59.0288,0.0],[5.3964,59.029,1.813],[5.3975,59.0324,2.2442],[5.4019,59.0329,0.9263],[5.4042,59.0376,0.0]]],
[[[5.4069,59.0113,0.0],[5.4031,59.0124,0.0],[5.4025,59.0107,0.0],[5.4064,59.0101,0.0],[5.4069,59.0113,0.0]]],
[[[5.4247,59.0293,0.0],[5.4281,59.0304,0.0],[5.4281,59.0318,0.0],[5.4231,59.0304,0.0],[5.4247,59.0293,0.0]]],
[[[5.4031,59.044,3.1235],[5.3947,59.0435,2.8893],[5.3953,59.039,0.9987],[5.3997,59.0418,0.0],[5.4064,59.0399,0.0],[5.4047,59.0426,0.0],[5.4086,59.0432,0.0],[5.4081,59.0446,0.0],[5.4031,59.044,3.1235]]],
[[[5.4142,59.0521,1.1419],[5.4136,59.0532,1.1419],[5.4108,59.0515,0.0],[5.4103,59.0462,0.4807],[5.4175,59.051,0.0],[5.4142,59.0521,1.1419]]],
[[[5.3953,59.0485,0.695],[5.3953,59.0499,0.8058],[5.3919,59.0493,0.0],[5.3942,59.0474,0.7568],[5.3925,59.0446,0.6096],[5.3975,59.0454,3.7578],[5.3981,59.0468,0.0],[5.3953,59.0485,0.695]]],
[[[5.4019,59.0476,1.0611],[5.3975,59.0482,0.0],[5.3992,59.0462,0.0],[5.4036,59.0465,0.0],[5.4019,59.0476,1.0611]]],
[[[5.3864,59.0601,0.5537],[5.3842,59.061,0.0],[5.3825,59.0571,2.1746],[5.3897,59.0571,1.4452],[5.3903,59.0582,0.0],[5.3864,59.0601,0.5537]]],
[[[5.4464,59.0393,0.7484],[5.4458,59.0382,0.0],[5.4475,59.0382,0.0],[5.4508,59.041,1.0132],[5.4525,59.0449,2.2687],[5.4508,59.044,0.0],[5.4464,59.0393,0.7484]]],
[[[5.4603,59.0518,0.0],[5.4608,59.0529,1.0035],[5.4569,59.0526,0.5834],[5.4525,59.0479,0.6958],[5.4569,59.0488,1.0331],[5.4603,59.0518,0.0]]],
[[[5.4669,59.0554,0.0],[5.4636,59.056,0.0],[5.4619,59.0537,1.0035],[5.4653,59.0535,0.0],[5.4669,59.0554,0.0]]],
[[[5.4692,59.0671,0.0],[5.4681,59.0676,0.1162],[5.4647,59.0629,0.0],[5.4686,59.0626,0.0],[5.4692,59.0671,0.0]]],
[[[5.4203,59.0549,0.3284],[5.4186,59.0563,0.0],[5.4158,59.0532,0.0],[5.4181,59.0526,0.56],[5.4203,59.0549,0.3284]]],
[[[5.4381,59.0571,0.5181],[5.4369,59.059,0.0],[5.4353,59.0588,0.0],[5.4353,59.0551,0.553],[5.4392,59.0551,0.0],[5.4381,59.0571,0.5181]]],
[[[5.3997,59.0496,3.8937],[5.4075,59.0488,0.0],[5.4069,59.0513,0.0],[5.4103,59.056,0.2651],[5.4136,59.0576,1.7818],[5.4186,59.0571,1.3891],[5.4181,59.0604,1.26],[5.4225,59.0646,1.048],[5.4236,59.0621,0.428],[5.4264,59.0615,1.0419],[5.4225,59.0568,1.4991],[5.4236,59.0554,0.0],[5.4292,59.0585,2.1102],[5.4281,59.0612,3.013],[5.4292,59.0643,1.1229],[5.4308,59.0638,3.1131],[5.4308,59.0618,0.0],[5.4331,59.0618,0.0],[5.4342,59.0654,0.0],[5.4364,59.0663,0.0],[5.4375,59.0646,0.0],[5.4364,59.0618,0.0],[5.4403,59.0612,0.4091],[5.4425,59.0699,0.0],[5.4364,59.0693,3.998],[5.4331,59.0726,1.2561],[5.4286,59.0726,9.33],[5.4292,59.0752,1.6349],[5.4231,59.0721,0.0326],[5.4219,59.0738,3.0455],[5.4242,59.0751,3.0455],[5.4214,59.0771,0.0],[5.4169,59.0754,0.0],[5.4175,59.0779,0.0],[5.4158,59.0785,0.5063],[5.4131,59.0768,0.7787],[5.4142,59.0746,1.1655],[5.4103,59.0729,3.0189],[5.4086,59.0699,1.516],[5.4058,59.071,0.5533],[5.4042,59.0676,1.1245],[5.3997,59.0682,5.6793],[5.3997,59.0707,0.0],[5.3975,59.0713,2.8955],[5.3975,59.0729,0.0],[5.3931,59.0738,0.0],[5.3936,59.0699,2.8879],[5.3864,59.0618,0.0],[5.4014,59.0546,0.0],[5.4042,59.0549,0.1963],[5.4042,59.0596,1.5616],[5.4092,59.0579,0.6328],[5.4058,59.0549,0.0],[5.4047,59.051,0.7246],[5.3931,59.0563,5.9831],[5.3892,59.056,0.0],[5.3886,59.0537,0.0],[5.3919,59.0526,0.7401],[5.3981,59.0535,0.7771],[5.3981,59.0507,0.7196],[5.3997,59.0496,3.8937]]],
[[[5.4764,59.0715,1.2003],[5.4769,59.0754,0.0],[5.4714,59.0743,0.0],[5.4675,59.069,0.0],[5.4731,59.0685,0.0],[5.4764,59.0699,1.069],[5.4764,59.0715,1.2003]]],
[[[5.4908,59.0754,0.0],[5.4908,59.0782,0.7705],[5.4808,59.0762,0.0],[5.4858,59.074,1.8828],[5.4908,59.0754,0.0]]],
[[[5.4947,59.0874,5.382],[5.4958,59.0882,0.0],[5.4881,59.0882,5.6345],[5.4825,59.0849,0.0],[5.4908,59.084,0.8649],[5.4903,59.086,3.8305],[5.4947,59.0874,5.382]]]]}}