{"type": "Feature","bbox": [10.6468,63.723,11.0682,63.9063],"geometry": {"type": "MultiPolygon","coordinates": [[[[10.9645,63.7582,108.7649],[10.9767,63.7655,0.0],[10.9776,63.7703,21.3691],[10.9828,63.7714,0.0],[10.9953,63.7797,0.0],[10.9974,63.7818,0.0],[10.9984,63.787,0.0],[11.0036,63.788,0.0],[11.0068,63.7953,0.0],[11.012,63.7964,0.0],[11.014099999999999,63.8016,0.0],[11.0068,63.8057,0.0],[11.012,63.8078,0.0],[11.0047,63.8109,0.0],[11.0047,63.8141,0.0],[11.0099,63.8151,0.0],[11.0109,63.8182,0.0],[11.0224,63.8214,0.0],[11.0292,63.825,19.7206],[11.0396,63.825,0.0],[11.0474,63.8276,0.0],[11.0505,63.8328,0.0],[11.0625,63.8354,0.0],[11.0661,63.838,20.8116],[11.0682,63.8453,0.0],[11.0609,63.8464,105.4224],[11.0599,63.8495,12.6636],[11.0542,63.85,172.9182],[11.0484,63.8526,161.6752],[11.05,63.8583,0.0],[11.0479,63.8646,0.0],[11.05,63.8688,0.0],[11.0495,63.8703,0.0],[11.0422,63.8734,7.7905],[11.0474,63.8786,0.0],[11.0375,63.8812,0.0],[11.0292,63.8812,12.5342],[11.025,63.8854,0.0],[11.0125,63.8854,0.0],[10.9979,63.8896,0.0],[10.9896,63.8896,0.0],[10.9854,63.8917,0.0],[10.9813,63.8917,11.1336],[10.9714,63.8964,0.0],[10.9693,63.9005,7.6601],[10.9651,63.9026,10.8365],[10.9641,63.9057,12.0934],[10.9521,63.9063,0.0],[10.9479,63.9042,64.9461],[10.9401,63.9036,63.8668],[10.9391,63.8984,106.8418],[10.9339,63.8974,58.5814],[10.9307,63.8943,113.3508],[10.9146,63.8917,8.9738],[10.8875,63.8812,41.1109],[10.8813,63.8812,54.7907],[10.8734,63.8786,0.0],[10.8724,63.8755,57.3642],[10.863,63.8745,0.0],[10.862,63.8714,48.6684],[10.8505,63.8682,0.0],[10.8495,63.8651,0.0],[10.8339,63.8599,0.0],[10.8313,63.8563,109.8328],[10.825,63.8563,54.6939],[10.8146,63.8521,77.9056],[10.8,63.8521,0.0],[10.7958,63.85,13.8254],[10.7833,63.85,0.0],[10.7792,63.8479,18.1345],[10.7354,63.8479,0.0],[10.7208,63.8438,0.0],[10.7089,63.8432,0.0],[10.7078,63.8401,0.0],[10.7042,63.8375,0.0],[10.7,63.8375,0.0],[10.6958,63.8396,0.0],[10.6854,63.8396,0.0],[10.6803,63.8378,0.0],[10.682,63.8368,18.7153],[10.681,63.8333,0.0],[10.6754,63.8293,0.0],[10.678,63.8263,23.2928],[10.6703,63.822,0.0],[10.6585,63.8215,0.0],[10.6468,63.8161,0.0],[10.6498,63.8072,60.1806],[10.6598,63.8078,100.0243],[10.6657,63.79,490.1519],[10.706,63.7926,343.0089],[10.7075,63.7881,321.9606],[10.7377,63.7901,213.5],[10.7391,63.7856,213.5],[10.7593,63.7869,213.5],[10.7607,63.7824,239.5893],[10.7708,63.7831,276.735],[10.7722,63.7786,213.5],[10.7823,63.7792,213.5],[10.7838,63.7748,213.5],[10.7938,63.7754,213.5],[10.7953,63.771,371.7601],[10.8053,63.7716,388.8553],[10.8068,63.7672,438.9938],[10.8168,63.7678,440.6525],[10.8183,63.7633,446.3935],[10.8283,63.764,408.0147],[10.8416,63.723,257.5908],[10.8791,63.731,139.9981],[10.9446,63.742,5.5853],[10.9645,63.7582,108.7649]]],
[[[10.6979,63.8458,0.0],[10.6891,63.8467,82.7435],[10.6763,63.8402,43.276],[10.6796,63.8382,0.0],[10.6797,63.8411,0.0],[10.6938,63.8458,18.0105],[10.6979,63.8458,0.0]]]]}
,"properties": {"GID_2": "NOR.9.13_1","GID_0": "NOR","country": "Norway","GID_1": "NOR.9_1","province": "Nord-Trøndelag","NL_NAME_1": "NA","county": "Mosvik","VARNAME_2": "NA","NL_NAME_2": "NA","TYPE_2": "Kommuner","ENGTYPE_2": "Municipality","CC_2": "NA","HASC_2": "NO.NT.MO","name": "Mosvik.county","area_km2": 209.5263,"hist_schema_id": "Elevation0-9000","hist_area_km2": {"0": 4.3191,"25": 5.0563,"50": 4.8686,"75": 6.2904,"100": 9.177,"125": 13.4014,"150": 14.4326,"175": 15.2149,"200": 21.2631,"225": 31.4227,"250": 26.4346,"275": 19.2542,"300": 13.5107,"325": 9.1775,"350": 5.6551,"375": 4.2691,"400": 3.7175,"425": 1.1994,"450": 0.609,"475": 0.2342,"500": 0.0187}}}