{"type":"Feature","properties":{"GID_2":"NOR.13.15_1","GID_0":"NOR","country":"Norway","GID_1":"NOR.13_1","province":"Rogaland","NL_NAME_1":"NA","county":"Rennesøy","VARNAME_2":"NA","NL_NAME_2":"NA","TYPE_2":"Kommuner","ENGTYPE_2":"Municipality","CC_2":"NA","HASC_2":"NO.RO.RE","name":"Rennesøy.county"},
"geometry":{"type": "MultiPolygon","coordinates": [[[[5.6808,59.0371,0.8838],[5.6781,59.0379,7.076],[5.6697,59.0354,0.0],[5.6792,59.0318,0.0],[5.6842,59.0335,0.0],[5.6831,59.036,0.0],[5.6847,59.0371,0.0],[5.6808,59.0371,0.8838]]],
[[[5.6814,59.0399,0.0],[5.6797,59.0404,0.0],[5.6792,59.039,0.0],[5.6831,59.0382,0.0],[5.6814,59.0399,0.0]]],
[[[5.7464,59.0524,0.0],[5.7425,59.0529,3.0316],[5.7403,59.0507,0.3702],[5.7475,59.0496,0.1956],[5.7481,59.0515,0.5583],[5.7464,59.0524,0.0]]],
[[[5.7164,59.0599,5.1759],[5.7131,59.0604,1.6508],[5.7131,59.0588,1.6508],[5.7103,59.0574,5.8572],[5.7131,59.0554,0.0],[5.7175,59.0563,0.0],[5.7186,59.059,1.1351],[5.7164,59.0599,5.1759]]],
[[[5.6742,59.0268,0.5265],[5.6681,59.0268,1.0095],[5.6675,59.0246,0.0],[5.6731,59.0249,0.0],[5.6747,59.0257,0.0],[5.6742,59.0268,0.5265]]],
[[[5.6753,59.0418,0.0],[5.6719,59.0424,0.0],[5.6714,59.041,0.0],[5.6764,59.0404,0.0],[5.6753,59.0418,0.0]]],
[[[5.6192,59.051,0.0],[5.6225,59.0526,0.0],[5.6142,59.0515,0.0],[5.6153,59.0499,0.0],[5.6192,59.051,0.0]]],
[[[5.5997,59.1086,3.5431],[5.5897,59.109,0.0],[5.5847,59.1074,0.0],[5.5842,59.1057,0.3649],[5.5731,59.1057,0.0],[5.5703,59.1035,1.8137],[5.5647,59.1037,0.0],[5.5658,59.1021,0.5349],[5.5731,59.1015,0.2396],[5.5775,59.0988,0.537],[5.5836,59.099,4.9915],[5.5825,59.0968,10.2284],[5.5703,59.1007,0.0],[5.5675,59.1004,1.6028],[5.5669,59.0974,0.0],[5.5647,59.0974,0.0926],[5.5614,59.1013,0.0],[5.5592,59.0999,0.9319],[5.5614,59.0988,0.5174],[5.5614,59.0962,0.1872],[5.5669,59.096,0.5335],[5.5703,59.0938,2.9164],[5.5708,59.0913,2.256],[5.5647,59.0882,0.0],[5.5653,59.0874,0.2249],[5.5736,59.0893,23.9856],[5.5742,59.0879,15.886],[5.5714,59.0865,0.3687],[5.5803,59.0826,0.7543],[5.5881,59.0835,0.0],[5.5981,59.0899,0.1169],[5.5931,59.0918,3.4057],[5.5931,59.0938,0.6801],[5.5947,59.0946,0.0],[5.5942,59.0971,0.6015],[5.5892,59.0971,1.2776],[5.5858,59.099,1.9265],[5.5881,59.1018,0.0],[5.5925,59.1024,4.6378],[5.5942,59.0976,0.6015],[5.6003,59.0968,0.0],[5.5969,59.0954,0.2134],[5.5975,59.0926,0.0],[5.6019,59.096,0.0],[5.6119,59.0932,0.0],[5.6131,59.0907,1.5775],[5.6075,59.086,0.4294],[5.6097,59.0854,13.8459],[5.6092,59.0821,16.109],[5.6119,59.0788,0.0],[5.6175,59.0785,2.9912],[5.6153,59.0768,0.3378],[5.6203,59.0751,0.5477],[5.6203,59.0729,0.0],[5.6269,59.0749,0.5706],[5.6303,59.0732,0.0],[5.6386,59.0743,2.1687],[5.6431,59.0721,3.0694],[5.6414,59.0704,4.9102],[5.6425,59.0682,0.0],[5.6636,59.0701,0.0],[5.6669,59.0751,0.0],[5.6697,59.0765,0.0],[5.6775,59.0757,1.529],[5.6747,59.0743,1.4485],[5.6747,59.0713,7.8748],[5.6725,59.0696,2.2691],[5.6647,59.0671,1.4745],[5.6653,59.0643,1.1327],[5.6703,59.0615,0.0],[5.6764,59.0624,10.0675],[5.6758,59.0568,2.1449],[5.6386,59.0549,0.0],[5.6403,59.0515,0.0],[5.6453,59.0518,0.0],[5.6575,59.0485,0.0],[5.6664,59.049,5.4927],[5.6675,59.0476,7.2884],[5.6658,59.0462,0.0],[5.6675,59.0449,1.0368],[5.6664,59.0443,1.0368],[5.6592,59.0457,0.0],[5.6492,59.0451,4.9584],[5.6464,59.046,1.9726],[5.6469,59.0479,2.3483],[5.6442,59.0493,0.0],[5.6331,59.0501,2.5436],[5.6314,59.0524,0.0],[5.6247,59.0529,0.0],[5.6297,59.051,1.3643],[5.6264,59.049,0.0],[5.6275,59.0474,0.9136],[5.6258,59.0465,0.0],[5.6275,59.0435,0.0],[5.6308,59.0418,3.515],[5.6292,59.0396,5.7851],[5.6364,59.0363,1.1879],[5.6381,59.0349,4.1007],[5.6375,59.0329,1.2514],[5.6403,59.0315,0.0],[5.6464,59.034,12.1606],[5.6581,59.0321,0.0],[5.6592,59.0354,0.9363],[5.6664,59.0368,0.0],[5.6692,59.0449,1.0368],[5.6764,59.0465,0.0],[5.6758,59.0479,2.9026],[5.6714,59.0476,2.3499],[5.6714,59.049,2.785],[5.6742,59.0499,0.0],[5.6853,59.0468,0.0],[5.6819,59.046,0.0],[5.6831,59.0412,0.0],[5.6892,59.0382,9.035],[5.6931,59.034,2.3556],[5.7042,59.031,0.0],[5.7158,59.0349,0.0],[5.7347,59.0376,3.3181],[5.7453,59.0368,0.0],[5.7475,59.036,5.0432],[5.7464,59.0343,0.7269],[5.7503,59.034,0.7269],[5.7503,59.0357,5.0432],[5.7653,59.0382,0.0],[5.7764,59.0421,1.1763],[5.7775,59.0482,0.0],[5.7753,59.0493,0.0],[5.7464,59.0493,0.1956],[5.7392,59.0479,1.4547],[5.7314,59.0499,4.7002],[5.7281,59.0485,1.2782],[5.7247,59.0415,9.3125],[5.7214,59.0399,1.4837],[5.7136,59.0379,0.6862],[5.7036,59.0388,0.0],[5.7003,59.0401,0.5895],[5.7014,59.0407,0.0],[5.7008,59.0454,1.2383],[5.6786,59.0493,0.0],[5.6792,59.0532,1.2609],[5.6764,59.0554,0.9074],[5.6792,59.0615,0.0],[5.6964,59.0576,4.3352],[5.7064,59.0629,1.0361],[5.7069,59.0674,1.863],[5.7036,59.0685,11.1945],[5.7031,59.0713,0.2739],[5.7003,59.0735,0.5472],[5.6869,59.076,0.0],[5.6864,59.0779,0.7121],[5.6797,59.0779,3.8181],[5.6808,59.0807,0.0],[5.6769,59.0826,0.0],[5.6764,59.086,0.0],[5.6603,59.0901,2.1622],[5.6531,59.094,0.0],[5.6486,59.0938,0.0],[5.6464,59.0962,1.348],[5.6386,59.099,0.0],[5.6225,59.1007,0.0],[5.6125,59.0982,13.4301],[5.6064,59.0985,1.2581],[5.6031,59.1004,2.814],[5.6075,59.1026,0.0],[5.6081,59.1046,0.9418],[5.6036,59.1079,0.6773],[5.5997,59.1086,3.5431]]],
[[[5.6047,59.0876,0.0],[5.6019,59.0882,0.0],[5.5997,59.0868,0.0],[5.6042,59.0857,0.3082],[5.6047,59.0876,0.0]]],
[[[5.5664,59.1087,3.2592],[5.5608,59.1082,1.1497],[5.5597,59.1065,0.9094],[5.5714,59.1065,0.0],[5.5697,59.1085,0.1909],[5.5664,59.1087,3.2592]]],
[[[5.8042,59.0887,3.7574],[5.8008,59.0893,0.0],[5.7958,59.0871,0.0],[5.7958,59.0854,0.0],[5.8125,59.0776,3.0315],[5.8203,59.0768,0.0],[5.8281,59.0796,1.3655],[5.8269,59.0815,0.0],[5.8208,59.0843,1.6526],[5.8042,59.0887,3.7574]]],
[[[5.6092,59.1432,0.0],[5.6069,59.1437,7.8776],[5.6053,59.1415,1.3326],[5.6003,59.1424,0.0],[5.5986,59.1387,14.7727],[5.5864,59.1401,0.0],[5.5836,59.1335,0.0],[5.5958,59.1251,6.7705],[5.5875,59.1265,10.8106],[5.5842,59.129,0.0],[5.5736,59.1296,0.0],[5.5719,59.1285,0.3874],[5.5736,59.1268,4.3317],[5.5731,59.1246,1.615],[5.5658,59.1246,0.0],[5.5642,59.1226,0.0],[5.5703,59.1201,0.0],[5.5703,59.1188,0.0],[5.5747,59.1171,4.2756],[5.5758,59.1151,0.0],[5.5831,59.114,0.8126],[5.5853,59.1151,0.2484],[5.5797,59.1179,0.0],[5.5903,59.1165,0.0],[5.5925,59.1185,0.0],[5.6014,59.1196,0.4324],[5.5964,59.1215,1.9103],[5.6003,59.1221,12.7921],[5.6158,59.1171,9.1119],[5.6225,59.1132,0.0],[5.6247,59.1099,0.0],[5.6347,59.1071,11.7863],[5.6458,59.1065,15.1175],[5.6486,59.1037,0.0],[5.6619,59.1018,12.0867],[5.6731,59.0968,0.0],[5.6881,59.0968,0.0],[5.6925,59.0954,0.0],[5.7008,59.0976,0.3727],[5.7025,59.0929,9.7881],[5.7003,59.0904,0.8531],[5.7003,59.0874,2.825],[5.7231,59.0799,1.1558],[5.7292,59.074,0.0],[5.7364,59.0726,60.999],[5.7431,59.0693,0.0],[5.7592,59.0676,0.0],[5.7647,59.0701,2.4491],[5.7692,59.0701,0.0],[5.7753,59.0743,6.2416],[5.7825,59.0762,0.0],[5.7847,59.0799,7.4915],[5.7792,59.0863,0.0],[5.7819,59.0901,0.0],[5.7775,59.0946,0.7404],[5.7825,59.0962,0.0],[5.7847,59.0999,5.4135],[5.7803,59.1021,0.0],[5.7831,59.1082,0.0],[5.7742,59.1126,8.8906],[5.7764,59.1149,1.2241],[5.7753,59.1165,0.0],[5.7697,59.1171,0.0],[5.7692,59.1188,0.0],[5.7647,59.119,6.6055],[5.7614,59.1218,8.5645],[5.7442,59.1257,0.0],[5.7164,59.1266,2.0829],[5.7125,59.1254,1.0307],[5.7136,59.1226,0.0],[5.7164,59.1218,0.8447],[5.7153,59.1207,0.0],[5.7097,59.1207,1.3823],[5.7081,59.1215,3.8644],[5.7086,59.124,0.0],[5.7069,59.124,0.0],[5.7075,59.1193,5.2154],[5.6992,59.1162,0.454],[5.6953,59.1199,0.3136],[5.6831,59.1218,7.5945],[5.6825,59.1235,0.1486],[5.6642,59.1257,1.3907],[5.6575,59.1293,0.7483],[5.6519,59.1282,10.5472],[5.6447,59.1293,0.5891],[5.6453,59.1324,0.0],[5.6436,59.1335,0.0],[5.6453,59.1354,0.0549],[5.6436,59.1368,0.0],[5.6419,59.1368,0.0713],[5.6431,59.1349,0.4511],[5.6397,59.134,0.4617],[5.6375,59.1307,1.7403],[5.6292,59.1304,2.9269],[5.6281,59.129,0.0],[5.6219,59.1318,0.1821],[5.6114,59.1329,2.3178],[5.6114,59.1343,0.473],[5.6075,59.1351,1.6474],[5.6086,59.1385,0.0],[5.6058,59.1399,11.6001],[5.6092,59.1432,0.0]]]]}}