{"type":"Feature","properties":{"GID_2":"NOR.13.23_1","GID_0":"NOR","country":"Norway","GID_1":"NOR.13_1","province":"Rogaland","NL_NAME_1":"NA","county":"Time","VARNAME_2":"NA","NL_NAME_2":"NA","TYPE_2":"Kommuner","ENGTYPE_2":"Municipality","CC_2":"NA","HASC_2":"NO.RO.TI","name":"Time.county"},
"geometry":{"type": "MultiPolygon","coordinates": [[[[5.9363,58.6937,285.9253],[5.9109,58.6908,287.0338],[5.9091,58.6952,254.0],[5.8922,58.6933,224.5],[5.8885,58.7021,336.4077],[5.8801,58.7011,297.3886],[5.8783,58.7055,289.8768],[5.8698,58.7046,327.098],[5.868,58.7089,263.2559],[5.8764,58.7099,292.3489],[5.8746,58.7143,307.982],[5.8831,58.7152,319.8755],[5.8813,58.7196,195.6516],[5.8898,58.7206,232.7473],[5.8843,58.7337,259.5107],[5.8758,58.7328,256.4581],[5.8722,58.7415,275.5955],[5.8637,58.7406,337.7664],[5.8601,58.7493,233.7451],[5.8516,58.7484,271.9332],[5.8498,58.7528,172.7153],[5.8328,58.7509,164.4012],[5.831,58.7552,156.0488],[5.8225,58.7543,137.1162],[5.8207,58.7587,150.7038],[5.8292,58.7596,135.4196],[5.8273,58.764,127.4406],[5.8358,58.765,139.5027],[5.834,58.7693,147.6298],[5.8425,58.7703,106.9558],[5.8406,58.7747,91.1034],[5.8322,58.7737,179.5092],[5.8285,58.7825,102.8104],[5.82,58.7815,152.2882],[5.8182,58.7859,102.9618],[5.8097,58.785,92.5079],[5.8079,58.7893,88.1196],[5.7909,58.7874,209.1982],[5.7836,58.8049,43.5],[5.7496,58.8011,41.0826],[5.7533,58.7924,81.4422],[5.7448,58.7914,66.2002],[5.7466,58.787,53.7668],[5.7212,58.7841,49.9226],[5.723,58.7798,30.5491],[5.7145,58.7788,24.0],[5.7164,58.7744,24.0],[5.6994,58.7725,30.6451],[5.7013,58.7681,39.7471],[5.6928,58.7672,25.8287],[5.6983,58.754,50.2416],[5.6898,58.7531,45.9889],[5.6917,58.7487,30.7195],[5.6832,58.7477,24.0],[5.685,58.7433,25.4297],[5.6766,58.7424,24.0],[5.6784,58.738,33.7884],[5.67,58.737,25.9698],[5.6718,58.7327,37.8345],[5.6379,58.7288,29.1894],[5.6361,58.7332,22.7817],[5.6276,58.7322,18.7561],[5.6294,58.7278,33.6469],[5.621,58.7269,26.2472],[5.6247,58.7181,24.1616],[5.6331,58.7191,25.8395],[5.6442,58.6928,13.3863],[5.6696,58.6957,21.7472],[5.6733,58.6869,23.416],[5.6817,58.6879,31.8638],[5.6836,58.6835,30.693],[5.692,58.6845,32.0622],[5.6939,58.6801,45.7548],[5.7023,58.6811,39.6372],[5.7042,58.6767,71.1386],[5.7126,58.6776,63.7737],[5.7163,58.6689,137.7547],[5.7332,58.6708,140.2131],[5.7277,58.684,52.0837],[5.7446,58.6859,78.6029],[5.7465,58.6815,99.1693],[5.7549,58.6824,105.1949],[5.7622,58.6649,177.38],[5.7538,58.664,175.4186],[5.7593,58.6508,229.69],[5.7677,58.6518,244.0595],[5.7714,58.643,244.2331],[5.7883,58.6449,256.7159],[5.7901,58.6406,257.0233],[5.7986,58.6415,244.6378],[5.8004,58.6371,242.0],[5.8088,58.6381,261.0784],[5.8107,58.6337,242.0],[5.8191,58.6347,245.1278],[5.8209,58.6303,254.487],[5.8294,58.6312,261.048],[5.833,58.6225,320.8206],[5.8246,58.6215,303.4908],[5.8282,58.6128,276.3525],[5.8873,58.6194,282.4865],[5.8855,58.6238,353.0986],[5.894,58.6247,341.6411],[5.8922,58.6291,373.7693],[5.9175,58.632,402.3018],[5.9139,58.6407,405.2581],[5.897,58.6388,328.6495],[5.8952,58.6432,315.1245],[5.9036,58.6442,283.1578],[5.8982,58.6573,281.8389],[5.8897,58.6564,310.4415],[5.8861,58.6651,310.6933],[5.8946,58.6661,313.8538],[5.8928,58.6705,306.4505],[5.9097,58.6724,333.085],[5.9079,58.6767,296.1784],[5.9163,58.6777,310.0578],[5.9145,58.6821,312.6024],[5.9315,58.684,347.5578],[5.9297,58.6883,324.5058],[5.9381,58.6893,297.5767],[5.9363,58.6937,285.9253]]]]}}