{"type": "Feature","bbox": [20.4589,69.0701,22.5252,69.9706],"geometry": {"type": "MultiPolygon","coordinates": [[[[21.9808,69.0712,509.186],[22.081,69.0701,554.8898],[22.0814,69.0746,551.7361],[22.1816,69.0734,536.6685],[22.1821,69.0779,542.083],[22.2823,69.0767,529.5863],[22.2828,69.0812,526.5581],[22.3204,69.0807,510.9297],[22.3208,69.0852,509.5095],[22.3334,69.085,504.3409],[22.3339,69.0895,502.0289],[22.3589,69.0892,509.9876],[22.3594,69.0937,503.6113],[22.3719,69.0936,491.2675],[22.3724,69.0981,491.7455],[22.385,69.0979,484.6672],[22.3855,69.1024,486.7864],[22.4105,69.1021,501.8281],[22.411,69.1066,502.5055],[22.4487,69.106,516.6302],[22.4492,69.1105,525.8376],[22.4743,69.1102,603.0783],[22.4758,69.1237,555.7566],[22.4883,69.1235,542.1961],[22.4903,69.1415,507.8201],[22.5029,69.1414,514.4698],[22.509,69.1954,460.1914],[22.5216,69.1952,469.5205],[22.5252,69.2267,521.706],[22.5126,69.2269,496.3467],[22.5152,69.2494,540.7362],[22.5025,69.2496,566.3101],[22.5031,69.2541,614.2396],[22.4904,69.2543,642.4557],[22.4914,69.2633,668.5146],[22.4788,69.2635,726.7336],[22.4793,69.268,728.7365],[22.4667,69.2681,717.4382],[22.4677,69.2771,696.5196],[22.455,69.2773,670.7979],[22.4561,69.2863,659.6334],[22.4434,69.2865,638.8519],[22.4449,69.3,619.9702],[22.4323,69.3002,603.7848],[22.4328,69.3047,594.8589],[22.4201,69.3048,594.2773],[22.4206,69.3093,620.8089],[22.4079,69.3095,626.7897],[22.4089,69.3185,710.0218],[22.3963,69.3187,702.6638],[22.3972,69.3277,780.6932],[22.3846,69.3279,723.6779],[22.386,69.3414,695.0421],[22.3734,69.3415,688.3941],[22.3743,69.3505,745.5115],[22.3616,69.3507,737.8099],[22.3621,69.3552,780.2902],[22.3494,69.3554,746.5686],[22.3499,69.3599,804.3897],[22.3372,69.36,751.0724],[22.3377,69.3645,765.5176],[22.325,69.3647,790.5159],[22.326,69.3737,825.7523],[22.3133,69.3739,800.7917],[22.3161,69.4009,907.8737],[22.3034,69.401,906.6179],[22.3044,69.41,850.4908],[22.2916,69.4102,860.958],[22.2921,69.4147,809.788],[22.2794,69.4149,793.5371],[22.2832,69.4509,750.588],[22.2959,69.4507,787.9502],[22.2964,69.4552,818.1438],[22.2836,69.4554,802.8946],[22.2846,69.4644,741.3243],[22.2718,69.4646,716.5404],[22.2723,69.4691,688.2857],[22.2595,69.4692,683.1663],[22.2605,69.4782,745.1106],[22.2477,69.4784,740.4973],[22.2486,69.4874,716.1345],[22.2359,69.4876,733.6823],[22.2368,69.4966,812.184],[22.224,69.4967,863.7418],[22.225,69.5057,961.7984],[22.2122,69.5059,881.9943],[22.2168,69.5509,1079.0382],[22.1912,69.5512,984.6938],[22.1916,69.5557,991.6055],[22.102,69.5568,825.3274],[22.1015,69.5523,831.3014],[22.0759,69.5526,940.3188],[22.0755,69.5481,911.4548],[22.0371,69.5485,936.8243],[22.0367,69.544,972.3395],[22.0111,69.5443,937.2173],[22.0106,69.5398,975.2166],[21.985,69.5401,987.5264],[21.9846,69.5355,916.4483],[21.959,69.5358,1024.4066],[21.9586,69.5313,1081.1056],[21.933,69.5316,1195.0504],[21.9326,69.5271,1214.5908],[21.9071,69.5274,1273.7382],[21.9075,69.5319,1220.663],[21.8691,69.5322,1001.2224],[21.8695,69.5368,1005.0184],[21.8311,69.5371,974.632],[21.8314,69.5416,1000.3612],[21.793,69.542,1037.651],[21.7934,69.5465,1080.2717],[21.7806,69.5467,1023.6202],[21.7802,69.5422,1014.0499],[21.729,69.5426,888.304],[21.7294,69.5472,799.1132],[21.7166,69.5473,743.8611],[21.717,69.5518,732.3046],[21.6913,69.552,744.5289],[21.6917,69.5565,757.0002],[21.6789,69.5566,741.7762],[21.6792,69.5611,740.076],[21.6664,69.5613,753.2749],[21.6668,69.5658,761.3618],[21.6539,69.5659,789.2586],[21.6543,69.5704,820.3641],[21.6415,69.5705,845.3243],[21.6418,69.575,886.8007],[21.629,69.5751,849.5512],[21.6303,69.5931,860.2722],[21.6175,69.5933,874.3587],[21.6195,69.6203,872.2804],[21.6067,69.6204,907.1999],[21.6084,69.6429,1242.6772],[21.5955,69.643,1233.7499],[21.5962,69.6521,1284.5034],[21.609,69.6519,1263.0016],[21.6094,69.6564,1188.7838],[21.6222,69.6563,1060.6926],[21.6226,69.6608,1106.0875],[21.6355,69.6607,916.7546],[21.6358,69.6652,850.9376],[21.6487,69.6651,878.4745],[21.649,69.6696,911.1913],[21.6619,69.6695,899.0665],[21.6622,69.674,1109.6619],[21.6751,69.6739,1157.097],[21.6776,69.7054,933.7518],[21.6905,69.7053,892.1368],[21.6908,69.7098,620.5809],[21.7037,69.7097,501.3605],[21.7044,69.7187,540.4193],[21.7173,69.7186,537.002],[21.7177,69.7231,635.0396],[21.7306,69.723,673.8239],[21.7324,69.7455,556.3764],[21.7195,69.7456,570.0345],[21.7206,69.7592,793.8997],[21.7077,69.7593,741.2955],[21.7091,69.7773,523.4673],[21.735,69.7771,708.083],[21.7353,69.7816,770.2468],[21.7612,69.7813,783.903],[21.7635,69.8084,699.6415],[21.7505,69.8085,591.3343],[21.7512,69.8175,664.4474],[21.7383,69.8176,650.3908],[21.7386,69.8221,740.1534],[21.6738,69.8227,672.8093],[21.6741,69.8272,638.1188],[21.6482,69.8275,541.0665],[21.6485,69.832,622.8561],[21.6356,69.8321,577.5356],[21.6359,69.8366,548.5577],[21.571,69.8371,592.5276],[21.5714,69.8416,693.7749],[21.5584,69.8418,738.569],[21.5594,69.8553,501.6116],[21.5724,69.8552,596.7893],[21.5734,69.8687,543.1467],[21.5863,69.8686,493.384],[21.5867,69.8731,618.6577],[21.5997,69.873,638.4873],[21.601,69.891,501.1596],[21.588,69.8911,618.6099],[21.5884,69.8956,467.8983],[21.5493,69.8959,393.9097],[21.5496,69.9005,375.6246],[21.5366,69.9006,486.753],[21.537,69.9051,753.0507],[21.5239,69.9052,995.7592],[21.5243,69.9097,969.2686],[21.5112,69.9098,840.0793],[21.5116,69.9143,941.4166],[21.4985,69.9144,828.0233],[21.4988,69.9189,948.3752],[21.4858,69.919,923.6306],[21.4861,69.9235,917.6592],[21.4731,69.9236,790.7863],[21.4734,69.9281,904.181],[21.4604,69.9282,663.1689],[21.461,69.9372,752.1342],[21.448,69.9373,864.3577],[21.4495,69.9599,563.4163],[21.4234,69.9601,538.4869],[21.4237,69.9646,685.1428],[21.4106,69.9647,607.4042],[21.4109,69.9692,848.0212],[21.2112,69.9706,45.4688],[21.2089,69.9682,0.0],[21.2099,69.9651,0.0],[21.2089,69.963,0.0],[21.2167,69.9625,53.1399],[21.2182,69.9609,160.7584],[21.2047,69.9599,108.91],[21.1943,69.9495,0.0],[21.1974,69.9474,0.0],[21.1964,69.9443,0.0],[21.1995,69.9422,32.5203],[21.1974,69.9401,111.5159],[21.1833,69.9375,0.0],[21.1818,69.9359,0.0],[21.1958,69.9292,0.0],[21.2021,69.9292,0.0],[21.2104,69.925,0.0],[21.225,69.9229,0.0],[21.2292,69.9208,0.0],[21.2354,69.9208,5.1012],[21.2396,69.9187,0.0],[21.2521,69.9187,0.0],[21.2563,69.9167,0.0],[21.2854,69.9167,0.0],[21.2896,69.9146,0.0],[21.3083,69.9146,2.6334],[21.3125,69.9125,0.0],[21.3203,69.912,0.0],[21.3245,69.9089,0.0],[21.3146,69.9,0.0],[21.2729,69.9,0.0],[21.263,69.8974,59.1687],[21.2646,69.8958,144.369],[21.2833,69.8958,90.1783],[21.2875,69.8938,139.6134],[21.2938,69.8938,121.5521],[21.3057,69.887,400.6956],[21.3042,69.8854,534.174],[21.2979,69.8875,473.3096],[21.275,69.8875,619.908],[21.2682,69.8912,485.4834],[21.2604,69.8917,479.7893],[21.2563,69.8938,368.9634],[21.2333,69.8938,264.1142],[21.2188,69.8979,125.5044],[21.1979,69.8958,122.1005],[21.1917,69.8979,0.0],[21.1839,69.8901,0.0],[21.1911,69.887,0.0],[21.1901,69.8839,0.0],[21.1974,69.8797,0.0],[21.1667,69.8792,1.9174],[21.1604,69.875,268.4714],[21.1521,69.875,347.8663],[21.1396,69.8708,501.3821],[21.1271,69.8688,448.2895],[21.1224,69.8651,491.314],[21.1083,69.8625,410.0843],[21.1036,69.8588,543.478],[21.0938,69.8562,502.5418],[21.0901,69.8578,295.27],[21.0964,69.8641,113.6003],[21.1104,69.8667,153.7487],[21.1151,69.8703,129.2109],[21.1224,69.8714,198.0442],[21.1193,69.8734,91.9859],[21.1203,69.8766,2.4697],[21.1,69.8771,0.0],[21.0958,69.8792,0.0],[21.0729,69.8812,0.0],[21.0646,69.875,15.3331],[21.0438,69.8771,0.0],[21.0339,69.8745,0.0],[21.0411,69.8693,0.0],[21.037,69.8651,14.2303],[21.0297,69.8641,0.0],[21.0276,69.862,0.0],[21.0307,69.8599,5.9078],[21.0297,69.8568,0.0],[21.0375,69.8562,5.4327],[21.0417,69.8542,0.0],[21.0557,69.8536,1.3299],[21.0547,69.8505,0.0],[21.0578,69.8495,0.0],[21.0599,69.8464,0.0],[21.0474,69.8339,0.0],[21.0375,69.8333,0.0],[21.0276,69.8307,28.7797],[21.0307,69.8287,97.4979],[21.0286,69.8255,228.4822],[21.0167,69.825,223.2152],[21.0042,69.8208,324.0345],[20.9958,69.8229,37.189],[20.988,69.8161,0.0],[20.9911,69.8141,0.0],[20.9901,69.8109,0.0],[21.0083,69.8083,32.7818],[21.0099,69.8078,26.6965],[21.0089,69.8047,0.0],[21.013,69.8026,0.0],[21.0187,69.8021,0.0],[21.0255,69.7984,0.0],[21.0333,69.7979,3.7259],[21.0391,69.7953,0.0],[21.037,69.7922,0.0],[21.0333,69.7917,0.0],[21.025,69.7958,0.0],[21.0151,69.7953,0.0],[21.0099,69.7901,0.0],[21.0026,69.7891,0.0],[21.0099,69.7849,0.0],[21.0083,69.7833,0.0],[21.0021,69.7854,0.0],[20.9958,69.7854,0.0],[20.9917,69.7833,0.0],[20.9688,69.7813,0.0],[20.963,69.7839,4.6131],[20.9641,69.787,0.0],[20.9516,69.7932,0.0],[20.9396,69.7937,0.0],[20.9255,69.8005,0.0],[20.9266,69.8037,0.0],[20.9193,69.8068,43.3441],[20.9203,69.8099,0.0],[20.9172,69.8109,36.9208],[20.9203,69.8161,0.0],[20.9109,69.8172,28.6085],[20.9047,69.8214,0.0],[20.9057,69.8245,0.0],[20.9026,69.8255,15.2074],[20.9036,69.8287,0.0],[20.9005,69.8307,36.5648],[20.9078,69.8318,0.0],[20.9109,69.8349,0.0],[20.9208,69.8375,0.0],[20.9557,69.838,0.0],[20.9432,69.8453,0.0],[20.9339,69.8464,24.3741],[20.9354,69.8479,15.8306],[20.9411,69.8484,0.0],[20.937,69.8516,4.698],[20.8792,69.8521,0.0],[20.8667,69.8479,30.4759],[20.8625,69.85,0.0],[20.8484,69.8505,15.2627],[20.8495,69.8536,0.0],[20.8464,69.8557,3.386],[20.8583,69.8562,0.0],[20.8625,69.8583,0.0],[20.8729,69.8583,0.0],[20.8807,69.8609,0.0],[20.8854,69.8646,22.1267],[20.9078,69.8693,0.0],[20.9141,69.8755,0.0],[20.9109,69.8786,73.5358],[20.9182,69.8797,0.0],[20.938,69.8995,0.0],[20.9453,69.9005,0.0],[20.95,69.9042,0.0],[20.962,69.9047,0.0],[20.9703,69.913,0.0],[20.9672,69.9161,0.0],[20.9792,69.9167,0.0],[20.9854,69.9208,0.0],[20.9958,69.9208,0.0],[21.0005,69.9245,0.0],[21.0078,69.9255,0.0],[21.0109,69.9287,2.2474],[21.0161,69.9297,4.3187],[21.0208,69.9333,32.7858],[21.0313,69.9333,3.7399],[21.0521,69.9396,22.541],[21.0703,69.9401,0.0],[21.0724,69.9432,0.0],[21.0693,69.9453,0.0],[21.0734,69.9495,0.0],[21.0807,69.9505,0.0],[21.0776,69.9526,15.4662],[21.0786,69.9557,16.429],[21.0745,69.9578,8.3936],[21.0354,69.9583,0.0],[21.0286,69.9526,103.3373],[21.0187,69.95,87.666],[21.0068,69.9495,18.3309],[20.9995,69.9422,25.9222],[20.9859,69.9411,0.0],[20.9891,69.938,50.0105],[20.9818,69.937,11.055],[20.9771,69.9333,0.0],[20.9667,69.9333,7.879],[20.9604,69.9292,6.7078],[20.9521,69.9313,0.0],[20.9396,69.9271,0.0],[20.925,69.9271,6.8976],[20.9208,69.925,43.239],[20.9104,69.925,8.1447],[20.9089,69.9234,51.3739],[20.9161,69.9193,245.2195],[20.9063,69.9167,403.7289],[20.8833,69.9167,325.2947],[20.8792,69.9146,379.1175],[20.8568,69.9141,5.5988],[20.8505,69.9078,0.0],[20.8516,69.9047,7.7919],[20.8474,69.9005,0.0],[20.8422,69.8995,0.0],[20.8359,69.8932,69.7719],[20.8391,69.8912,179.4944],[20.8375,69.8896,205.7178],[20.8333,69.8896,240.4098],[20.8292,69.8875,339.8777],[20.8146,69.8875,284.2624],[20.8042,69.8917,29.6439],[20.7943,69.8891,103.26],[20.7896,69.8854,178.5653],[20.7792,69.8854,239.3714],[20.7693,69.8828,35.1162],[20.7578,69.8693,265.5821],[20.7505,69.8682,7.1533],[20.7464,69.863,0.0],[20.7536,69.862,32.5413],[20.7547,69.8588,0.0],[20.762,69.8578,16.4464],[20.7755,69.8505,0.0],[20.7833,69.85,0.0],[20.7891,69.8474,3.4976],[20.788,69.8443,0.0],[20.7911,69.8422,7.8809],[20.7839,69.8411,0.0],[20.7776,69.8349,0.0],[20.7807,69.8328,0.0],[20.7797,69.8297,0.0],[20.7828,69.8276,0.0],[20.7766,69.8214,16.3445],[20.7693,69.8203,0.0],[20.762,69.813,34.1816],[20.7234,69.8037,0.0],[20.7203,69.8005,8.3842],[20.713,69.7995,0.0],[20.7062,69.7937,0.0],[20.6958,69.7937,0.0],[20.6917,69.7917,0.0],[20.6458,69.7917,0.0],[20.6396,69.7875,16.0681],[20.6354,69.7875,3.5058],[20.6312,69.7854,50.9821],[20.6146,69.7854,0.0],[20.6083,69.7813,4.904],[20.6,69.7813,0.0],[20.5938,69.7771,22.0814],[20.5833,69.7771,0.0],[20.5792,69.775,18.907],[20.5104,69.775,0.0],[20.5063,69.7771,0.0],[20.4979,69.7771,0.0],[20.4943,69.7734,0.0],[20.5187,69.7708,0.0],[20.5245,69.7672,0.0],[20.5146,69.7667,0.0],[20.5104,69.7688,0.0],[20.4958,69.7688,0.0],[20.4833,69.7646,0.0],[20.4625,69.7646,0.0],[20.4589,69.762,0.0],[20.4672,69.7568,0.0],[20.4792,69.7562,0.0],[20.4856,69.753,0.0],[20.5819,69.7527,790.9619],[20.5818,69.7482,872.7661],[20.5947,69.7482,981.2711],[20.5945,69.7391,868.2737],[20.6074,69.7391,1055.7041],[20.6073,69.7346,900.7286],[20.6202,69.7346,1116.8427],[20.6201,69.73,1102.5581],[20.633,69.73,735.8705],[20.6324,69.712,1002.0965],[20.6453,69.7119,782.2516],[20.6445,69.6849,956.2753],[20.6574,69.6848,1099.2539],[20.6573,69.6803,997.246],[20.6702,69.6803,1168.1178],[20.67,69.6758,1114.369],[20.6829,69.6757,947.5706],[20.6828,69.6712,841.3845],[20.6957,69.6712,1134.915],[20.6955,69.6667,909.0758],[20.7084,69.6666,890.2403],[20.7085,69.6711,938.8342],[20.7343,69.671,993.9006],[20.7342,69.6665,766.1661],[20.747,69.6665,971.239],[20.7466,69.6529,684.8287],[20.7594,69.6529,734.2335],[20.7591,69.6439,1128.5189],[20.7977,69.6437,1152.8922],[20.7975,69.6392,1183.6357],[20.8361,69.639,1059.3422],[20.8353,69.6165,1121.314],[20.8481,69.6164,872.7],[20.8479,69.6119,943.0358],[20.8608,69.6119,1179.8026],[20.8606,69.6074,1227.6184],[20.8734,69.6073,1015.7933],[20.8731,69.5983,733.2573],[20.8859,69.5982,912.9575],[20.8857,69.5937,857.7055],[20.8729,69.5938,865.973],[20.8727,69.5893,1121.1604],[20.8599,69.5893,1233.8074],[20.8597,69.5848,1253.7701],[20.8469,69.5849,1255.9487],[20.8467,69.5804,1198.5199],[20.8595,69.5803,1194.9279],[20.859,69.5668,1227.2656],[20.8718,69.5668,1246.1167],[20.8716,69.5622,1142.3011],[20.8973,69.5621,1018.7804],[20.8971,69.5576,933.6818],[20.9099,69.5575,926.9651],[20.9097,69.553,989.3387],[20.9225,69.553,931.1022],[20.9223,69.5485,957.5591],[20.9351,69.5484,957.6551],[20.9349,69.5439,1012.2334],[20.9477,69.5438,1059.7286],[20.9475,69.5393,996.1406],[20.9603,69.5393,951.9206],[20.9601,69.5348,886.7728],[20.9729,69.5347,866.9642],[20.9721,69.5167,917.0876],[20.9593,69.5167,897.028],[20.9589,69.5077,1026.9254],[20.9462,69.5078,1077.0616],[20.9458,69.4988,973.5552],[21.0736,69.4981,929.2538],[21.0738,69.5026,921.0961],[21.0993,69.5024,843.3066],[21.0996,69.5069,849.058],[21.1379,69.5067,928.936],[21.1382,69.5112,982.6012],[21.1509,69.5111,1019.4546],[21.1507,69.5066,919.9138],[21.1635,69.5065,892.1837],[21.1632,69.502,822.0386],[21.176,69.5019,810.2786],[21.175,69.4839,919.0574],[21.1623,69.484,878.66],[21.162,69.4795,916.2999],[21.1493,69.4796,977.5662],[21.149,69.4751,993.1782],[21.1363,69.4752,973.674],[21.1358,69.4661,865.9402],[21.123,69.4662,842.3463],[21.1228,69.4617,769.3979],[21.1101,69.4618,719.7895],[21.1098,69.4573,698.6895],[21.0971,69.4574,702.4551],[21.0966,69.4483,748.9343],[21.0839,69.4484,768.9451],[21.0836,69.4439,840.0804],[21.0709,69.444,900.101],[21.0707,69.4395,936.606],[21.0579,69.4396,969.6497],[21.0575,69.4306,1054.9219],[21.0448,69.4306,1096.2709],[21.0445,69.4261,1072.9855],[21.0318,69.4262,1072.2164],[21.0316,69.4217,1032.8317],[21.0571,69.4215,1051.8109],[21.0568,69.417,1002.4323],[21.0823,69.4169,1048.929],[21.0821,69.4124,1030.3612],[21.1203,69.4121,1040.3099],[21.12,69.4076,1070.1013],[21.1328,69.4076,1044.9155],[21.1323,69.3986,908.9525],[21.145,69.3985,915.8473],[21.1443,69.3849,836.5806],[21.157,69.3849,841.4775],[21.1565,69.3759,884.9074],[21.1692,69.3758,822.8569],[21.169,69.3713,825.9922],[21.1817,69.3712,879.0031],[21.1815,69.3667,823.0951],[21.1942,69.3666,852.6046],[21.1939,69.3621,837.2017],[21.2066,69.362,847.8796],[21.2064,69.3575,788.9996],[21.2191,69.3574,797.7773],[21.2186,69.3484,777.2939],[21.2313,69.3483,784.9946],[21.231,69.3438,823.225],[21.2437,69.3437,853.1307],[21.2432,69.3347,1140.9227],[21.2559,69.3346,1117.8163],[21.2556,69.3301,1248.9375],[21.2683,69.33,1213.2396],[21.2678,69.321,1294.8683],[21.2804,69.3209,1346.4833],[21.2802,69.3164,1308.3464],[21.2928,69.3164,1293.5123],[21.2926,69.3118,1233.1866],[21.3053,69.3118,1147.0853],[21.305,69.3073,1134.0852],[21.343,69.307,1105.0581],[21.3427,69.3025,1166.5476],[21.3934,69.3021,909.471],[21.3931,69.2976,945.6202],[21.4437,69.2972,826.0292],[21.4434,69.2927,830.6019],[21.494,69.2923,774.6151],[21.4937,69.2878,768.2079],[21.5444,69.2873,733.8489],[21.544,69.2828,731.8106],[21.5946,69.2824,852.7195],[21.5943,69.2779,823.9485],[21.6323,69.2775,825.2894],[21.6316,69.2685,785.3088],[21.6442,69.2684,758.2692],[21.6439,69.2639,766.5785],[21.6565,69.2638,759.8638],[21.6559,69.2548,782.7991],[21.6685,69.2547,758.182],[21.6678,69.2457,793.3778],[21.6804,69.2456,799.8463],[21.6801,69.2411,821.9437],[21.6927,69.2409,792.3289],[21.692,69.2319,780.0779],[21.7047,69.2318,745.5139],[21.704,69.2228,774.8307],[21.7166,69.2227,815.8248],[21.7159,69.2137,863.6526],[21.7285,69.2136,846.5384],[21.7281,69.2091,850.2076],[21.7407,69.2089,815.7387],[21.74,69.1999,789.1418],[21.7526,69.1998,761.0975],[21.7523,69.1953,742.7271],[21.7649,69.1952,736.7465],[21.7642,69.1862,708.4999],[21.7768,69.186,681.0673],[21.7764,69.1815,672.3198],[21.789,69.1814,677.2772],[21.7883,69.1724,703.4584],[21.8008,69.1723,700.1516],[21.8005,69.1678,696.0851],[21.8131,69.1677,700.8851],[21.8123,69.1587,689.0745],[21.8249,69.1585,699.5981],[21.8245,69.154,688.3115],[21.8371,69.1539,688.5536],[21.8364,69.1449,791.7307],[21.8489,69.1448,816.9593],[21.8486,69.1403,831.623],[21.8611,69.1401,719.6119],[21.8607,69.1356,720.6618],[21.8733,69.1355,659.5772],[21.8725,69.1265,641.8426],[21.8851,69.1264,627.1935],[21.8847,69.1218,612.6068],[21.8973,69.1217,609.4367],[21.8969,69.1172,595.9044],[21.9095,69.1171,600.5909],[21.9087,69.1081,568.6722],[21.9212,69.1079,577.0891],[21.9208,69.1034,562.1171],[21.9334,69.1033,572.2859],[21.933,69.0988,568.4291],[21.9455,69.0987,573.2578],[21.9447,69.0897,542.4377],[21.9573,69.0895,547.7474],[21.9569,69.085,537.8456],[21.9694,69.0849,533.1612],[21.9686,69.0759,540.2414],[21.9812,69.0757,520.722],[21.9808,69.0712,509.186]]],
[[[21.2005,69.9005,0.0],[21.2104,69.9,78.5322],[21.212,69.9016,0.0],[21.2062,69.9042,0.0],[21.1964,69.9036,0.0],[21.2005,69.9005,0.0]]],
[[[20.9776,69.7859,0.0],[20.9875,69.7854,0.0],[20.9891,69.787,0.0],[20.9792,69.7875,0.0],[20.9776,69.7859,0.0]]],
[[[20.7328,69.8391,0.0],[20.7278,69.8396,39.6245],[20.7315,69.8323,71.8816],[20.7205,69.8226,7.464],[20.7059,69.8158,12.303],[20.7005,69.815,15.6385],[20.7005,69.8199,188.8575],[20.6875,69.82,377.0154],[20.6877,69.8245,547.5211],[20.6747,69.8245,845.5065],[20.675,69.8335,714.3444],[20.662,69.8336,634.2606],[20.6621,69.8381,502.266],[20.6362,69.8382,749.1334],[20.6363,69.8427,497.9286],[20.5974,69.8428,957.3937],[20.5975,69.8473,898.2367],[20.5585,69.8474,403.266],[20.5586,69.852,440.6373],[20.5281,69.852,27.0599],[20.5245,69.8484,7.7676],[20.5179,69.8476,0.2723],[20.5151,69.8453,0.0],[20.5182,69.8422,15.4966],[20.513,69.8359,0.0],[20.5161,69.8349,0.0],[20.5151,69.8318,0.0],[20.5224,69.8287,14.1745],[20.5214,69.8255,0.0],[20.5286,69.8224,0.0],[20.5276,69.8193,0.0],[20.5307,69.8182,6.7759],[20.5297,69.8151,0.0],[20.5328,69.8141,2.8677],[20.5297,69.8089,0.0],[20.5328,69.8078,0.0],[20.5318,69.8047,0.0],[20.5349,69.8037,4.5941],[20.5339,69.8005,0.0],[20.5411,69.7974,2.3679],[20.5401,69.7943,0.0],[20.5474,69.7932,3.6072],[20.5583,69.7875,0.0],[20.5792,69.7875,0.0],[20.5833,69.7896,19.5328],[20.5938,69.7896,0.0],[20.6208,69.7979,7.6864],[20.6312,69.7979,0.0],[20.6604,69.8063,19.3413],[20.675,69.8063,0.0],[20.6875,69.8104,0.0],[20.6979,69.8104,0.0],[20.7042,69.8146,0.0],[20.7161,69.8151,0.0],[20.7214,69.8203,0.0],[20.7286,69.8214,0.0],[20.7349,69.8276,0.0],[20.737,69.8318,0.0],[20.7359,69.8349,0.6085],[20.737,69.837,0.0],[20.7328,69.8391,0.0]]],
[[[20.9818,69.8224,24.987],[20.9833,69.8208,0.0],[20.987,69.8214,19.6077],[20.9854,69.8229,37.9727],[20.9818,69.8224,24.987]]]]}
,"properties": {"GID_2": "NOR.17.17_1","GID_0": "NOR","country": "Norway","GID_1": "NOR.17_1","province": "Troms","NL_NAME_1": "NA","county": "Nordreisa","VARNAME_2": "NA","NL_NAME_2": "NA","TYPE_2": "Kommuner","ENGTYPE_2": "Municipality","CC_2": "NA","HASC_2": "NO.TR.NO","name": "Nordreisa.county","area_km2": 3395.876,"hist_schema_id": "Elevation0-9000","hist_area_km2": {"0": 55.407,"25": 54.337,"50": 43.665,"75": 44.196,"100": 50.574,"125": 39.651,"150": 34.541,"175": 32.544,"200": 32.485,"225": 32.306,"250": 35.154,"275": 32.421,"300": 32.163,"325": 33.527,"350": 37.85,"375": 39.616,"400": 42.074,"425": 54.213,"450": 109.355,"475": 122.992,"500": 147.433,"525": 123.837,"550": 115.392,"575": 116.094,"600": 114.326,"625": 120.259,"650": 134.988,"675": 136.772,"700": 150.885,"725": 145.181,"750": 152.623,"775": 136.739,"800": 125.754,"825": 110.929,"850": 98.01,"875": 85.933,"900": 77.148,"925": 65.983,"950": 54.597,"975": 42.513,"1000": 36.874,"1025": 30.303,"1050": 24.918,"1075": 20.991,"1100": 16.342,"1125": 13.729,"1150": 10.566,"1175": 8.354,"1200": 7.308,"1225": 5.097,"1250": 3.157,"1275": 1.773,"1300": 1.058,"1325": 0.661,"1350": 0.277}}}