{"type":"Feature","properties":{"GID_1":"NOR.6_1","GID_0":"NOR","country":"Norway","province":"Hedmark","VARNAME_1":"Hedmarkfylke|Hedemarken|Heiðmör","NL_NAME_1":"NA","TYPE_1":"Fylke","ENGTYPE_1":"County","CC_1":"NA","HASC_1":"NO.HE","ISO_1":"NA","name":"Hedmark.province"},
"geometry":{"type": "MultiPolygon","coordinates": [[[[11.8299,59.8548,287.2952],[11.831,59.8504,277.6398],[11.8399,59.8509,287.8679],[11.8421,59.842,262.7641],[11.851,59.8426,278.6408],[11.8499,59.847,276.5724],[11.8677,59.8481,259.6263],[11.8666,59.8526,265.133],[11.8843,59.8537,263.0182],[11.8832,59.8581,225.2131],[11.8921,59.8587,223.2245],[11.891,59.8631,218.3204],[11.8821,59.8626,216.8741],[11.88,59.8715,178.9716],[11.9244,59.8742,167.5],[11.9222,59.8831,167.5],[11.9311,59.8837,190.4347],[11.93,59.8881,179.1153],[11.9478,59.8892,205.7614],[11.9467,59.8937,210.715],[11.9734,59.8953,186.8879],[11.9723,59.8998,197.5703],[11.9901,59.9009,159.8777],[11.9912,59.8964,181.5515],[12.0001,59.897,195.9949],[12.0012,59.8925,188.6342],[12.0189,59.8936,217.299],[12.02,59.8891,181.1016],[12.0378,59.8902,163.5],[12.0389,59.8857,164.2385],[12.11,59.89,197.7661],[12.109,59.8945,180.1418],[12.1268,59.8956,208.1835],[12.1278,59.8911,175.876],[12.1456,59.8922,189.5474],[12.1467,59.8877,197.051],[12.1823,59.8898,166.2864],[12.1812,59.8943,183.6077],[12.1901,59.8948,216.4139],[12.188,59.9037,198.3412],[12.1969,59.9043,217.5881],[12.1958,59.9087,237.9658],[12.2047,59.9093,258.0979],[12.2037,59.9137,237.0272],[12.2126,59.9142,247.3759],[12.2115,59.9187,217.7996],[12.2204,59.9192,216.2453],[12.2194,59.9237,170.176],[12.2283,59.9242,135.6156],[12.2272,59.9287,124.5678],[12.2451,59.9297,137.6777],[12.244,59.9342,141.7624],[12.2618,59.9352,134.1569],[12.2608,59.9397,135.6759],[12.2786,59.9407,171.026],[12.2776,59.9452,204.6263],[12.2954,59.9462,190.7156],[12.2943,59.9507,182.0],[12.3122,59.9517,165.3951],[12.3111,59.9562,196.7335],[12.32,59.9567,219.3552],[12.319,59.9612,231.2829],[12.3368,59.9622,159.9994],[12.3358,59.9667,175.2934],[12.3447,59.9672,158.4994],[12.3437,59.9717,157.2085],[12.3526,59.9722,172.8222],[12.3516,59.9766,165.0044],[12.3605,59.9771,241.9175],[12.3584,59.9861,159.7066],[12.3673,59.9866,143.6571],[12.3663,59.991,150.9724],[12.3752,59.9916,138.8043],[12.3732,60.0005,156.4872],[12.3821,60.001,126.5],[12.3811,60.0055,141.1895],[12.39,60.006,155.4058],[12.389,60.0104,178.2308],[12.3979,60.0109,126.5],[12.3969,60.0154,126.5],[12.4058,60.0159,166.4169],[12.4048,60.0204,146.819],[12.4137,60.0209,253.3873],[12.4127,60.0254,234.8427],[12.4305,60.0264,295.5489],[12.4295,60.0308,291.5004],[12.4384,60.0314,288.8964],[12.4374,60.0358,287.8467],[12.4464,60.0363,243.5503],[12.4453,60.0408,247.0805],[12.4543,60.0413,246.1638],[12.4532,60.0458,246.2688],[12.4622,60.0463,254.4653],[12.4601,60.0552,265.8894],[12.4691,60.0557,268.1352],[12.467,60.0646,248.8549],[12.476,60.0651,253.4376],[12.475,60.0696,254.7912],[12.4839,60.0701,246.2817],[12.4819,60.079,295.1745],[12.4908,60.0795,318.972],[12.4888,60.0884,278.0872],[12.4977,60.089,250.5515],[12.4957,60.0979,202.0],[12.5046,60.0984,219.5322],[12.5016,60.1118,246.7027],[12.5105,60.1123,306.7306],[12.5075,60.1257,314.3929],[12.5165,60.1262,301.7661],[12.5134,60.1395,310.2702],[12.5224,60.14,377.1071],[12.5203,60.149,390.4308],[12.5293,60.1495,354.3653],[12.5262,60.1629,385.983],[12.5352,60.1634,394.5682],[12.5322,60.1767,412.2548],[12.5411,60.1772,445.5769],[12.5381,60.1906,408.0966],[12.5471,60.1911,432.042],[12.545,60.2001,378.6875],[12.536,60.1996,370.0208],[12.5299,60.2263,287.1029],[12.5209,60.2258,286.691],[12.4984,60.3239,469.0297],[12.5074,60.3244,459.4224],[12.5064,60.3289,467.3124],[12.5154,60.3294,445.8276],[12.5143,60.3339,439.6364],[12.5234,60.3344,417.2543],[12.5223,60.3388,377.5439],[12.5314,60.3393,367.6131],[12.5303,60.3438,384.1664],[12.5394,60.3443,352.5],[12.5383,60.3488,352.5],[12.5474,60.3493,357.958],[12.5463,60.3537,373.2134],[12.5554,60.3542,355.2695],[12.5543,60.3587,363.7777],[12.5634,60.3592,428.0169],[12.5613,60.3681,457.3189],[12.5704,60.3686,438.5739],[12.5693,60.3731,497.6614],[12.5784,60.3736,411.8344],[12.5763,60.3825,356.6028],[12.5854,60.383,335.9271],[12.5843,60.3875,279.0],[12.5934,60.388,279.0],[12.5913,60.3969,303.1898],[12.6004,60.3974,356.1681],[12.5994,60.4019,401.504],[12.6084,60.4024,504.1697],[12.6023,60.4291,388.1853],[12.6113,60.4296,388.8627],[12.6032,60.4653,440.6873],[12.6123,60.4658,421.9647],[12.6031,60.506,380.2507],[12.6121,60.5065,446.241],[12.6091,60.5199,493.6402],[12.6,60.5194,468.1901],[12.5949,60.5417,384.1648],[12.5858,60.5412,368.0],[12.5827,60.5545,369.8794],[12.5736,60.554,368.0],[12.5716,60.563,425.76],[12.5625,60.5625,412.5927],[12.5604,60.5714,451.618],[12.5513,60.5709,413.224],[12.5493,60.5798,442.5041],[12.5402,60.5793,416.8296],[12.5381,60.5882,466.0061],[12.529,60.5877,516.8295],[12.527,60.5966,521.8848],[12.5179,60.5961,543.65],[12.5085,60.6363,492.4914],[12.5176,60.6368,496.1412],[12.5155,60.6457,476.3589],[12.5064,60.6452,519.301],[12.5044,60.6541,543.3345],[12.4952,60.6536,578.9811],[12.4932,60.6625,539.1376],[12.484,60.662,535.0317],[12.4809,60.6754,549.9357],[12.4718,60.6749,432.5825],[12.4697,60.6838,277.6975],[12.4606,60.6833,242.9217],[12.4585,60.6922,261.086],[12.4494,60.6917,299.6466],[12.4473,60.7006,341.4261],[12.4381,60.7001,352.0179],[12.436,60.709,455.7318],[12.4269,60.7085,447.2411],[12.4248,60.7174,380.5293],[12.4157,60.7169,345.7948],[12.4136,60.7258,322.5018],[12.4044,60.7253,320.7506],[12.4023,60.7342,282.1479],[12.3932,60.7337,278.0],[12.3868,60.7605,355.9001],[12.3777,60.7599,378.7115],[12.3702,60.7912,326.7808],[12.3611,60.7906,328.5971],[12.3536,60.8218,500.0654],[12.3444,60.8213,537.8003],[12.3305,60.8793,336.1978],[12.3397,60.8798,349.7935],[12.3365,60.8932,315.2957],[12.3273,60.8927,298.5],[12.324,60.906,326.8752],[12.3149,60.9055,315.8268],[12.3106,60.9234,365.8008],[12.3014,60.9228,362.3517],[12.2981,60.9362,383.0797],[12.2889,60.9357,386.6877],[12.2857,60.9491,401.9179],[12.2765,60.9485,409.7011],[12.2722,60.9664,405.6461],[12.263,60.9658,413.3639],[12.2597,60.9792,415.3936],[12.2505,60.9787,412.2246],[12.2461,60.9965,507.8866],[12.2369,60.996,517.0475],[12.2336,61.0094,596.0388],[12.2244,61.0088,601.6846],[12.2233,61.0133,649.2009],[12.2325,61.0138,539.7811],[12.2315,61.0183,518.5496],[12.2499,61.0193,492.7328],[12.2488,61.0238,512.5554],[12.3041,61.0269,441.1387],[12.303,61.0314,469.2195],[12.3583,61.0345,563.2141],[12.3572,61.039,566.2961],[12.4033,61.0416,556.4261],[12.4022,61.046,504.3791],[12.4483,61.0486,331.0293],[12.4473,61.0531,351.1938],[12.4565,61.0536,371.6941],[12.4575,61.0491,372.2055],[12.5221,61.0527,562.0965],[12.5232,61.0482,552.0121],[12.5693,61.0508,396.8788],[12.5703,61.0463,406.0827],[12.6626,61.0513,426.9585],[12.6615,61.0558,404.9336],[12.68,61.0568,454.997],[12.679,61.0612,422.379],[12.6882,61.0617,406.1021],[12.684,61.0796,402.6121],[12.6933,61.0801,444.4229],[12.6892,61.0979,555.3167],[12.6984,61.0984,458.1034],[12.6953,61.1118,475.9543],[12.7045,61.1123,440.7372],[12.7004,61.1302,432.6695],[12.7097,61.1307,411.4311],[12.7066,61.144,396.4723],[12.7158,61.1445,390.4246],[12.7148,61.149,397.657],[12.724,61.1495,400.2825],[12.723,61.154,395.6219],[12.7323,61.1544,408.8826],[12.7312,61.1589,412.1825],[12.7405,61.1594,426.4487],[12.7384,61.1683,413.8883],[12.7477,61.1688,418.6447],[12.7467,61.1733,418.8275],[12.7559,61.1738,409.2715],[12.7549,61.1782,409.3028],[12.7642,61.1787,424.5023],[12.7631,61.1832,432.4062],[12.7724,61.1837,444.4294],[12.7714,61.1881,434.3672],[12.7806,61.1886,459.3752],[12.7796,61.1931,431.4291],[12.7889,61.1936,447.7787],[12.7879,61.1981,454.2396],[12.7971,61.1985,470.7354],[12.7951,61.2075,477.8905],[12.8044,61.208,482.1833],[12.8023,61.2169,508.7979],[12.8116,61.2174,579.7632],[12.8096,61.2263,552.3701],[12.8188,61.2268,667.3096],[12.8158,61.2402,431.6617],[12.8251,61.2407,431.5865],[12.823,61.2496,425.0355],[12.8323,61.2501,422.576],[12.8303,61.259,421.0225],[12.8395,61.2595,425.2769],[12.8365,61.2729,420.1431],[12.8458,61.2734,414.1641],[12.8417,61.2912,553.5298],[12.851,61.2917,502.5801],[12.8479,61.3051,752.4017],[12.8573,61.3056,653.1603],[12.8542,61.319,792.7969],[12.8635,61.3195,770.5309],[12.8594,61.3373,717.4586],[12.8687,61.3378,647.6036],[12.8657,61.3512,689.5955],[12.875,61.3517,868.6478],[12.873,61.3606,729.5656],[12.8636,61.3601,703.3367],[12.8616,61.369,629.9685],[12.8523,61.3685,604.6685],[12.8502,61.3775,569.899],[12.8409,61.377,538.8535],[12.8389,61.3859,544.2487],[12.8295,61.3854,570.6562],[12.8275,61.3943,607.6739],[12.8182,61.3939,657.2867],[12.8161,61.4028,835.2886],[12.8068,61.4023,914.9238],[12.8047,61.4112,928.6635],[12.7954,61.4107,915.2688],[12.7944,61.4152,930.4659],[12.785,61.4147,886.5952],[12.783,61.4236,946.5266],[12.7736,61.4231,919.7365],[12.7715,61.4321,963.3087],[12.7622,61.4316,914.7814],[12.7601,61.4405,798.9714],[12.7508,61.44,740.1227],[12.7487,61.4489,815.3387],[12.7394,61.4484,745.6701],[12.7373,61.4574,636.7139],[12.7279,61.4569,691.1666],[12.7259,61.4658,748.4509],[12.7165,61.4653,852.7567],[12.7144,61.4742,735.6898],[12.7051,61.4737,817.8138],[12.704,61.4782,806.7021],[12.6947,61.4777,903.748],[12.6926,61.4866,941.5224],[12.6832,61.4861,976.3914],[12.6811,61.495,981.3786],[12.6718,61.4945,1002.9575],[12.6697,61.5035,998.705],[12.6603,61.503,1014.6061],[12.6582,61.5119,1008.1477],[12.6488,61.5114,994.3829],[12.6467,61.5203,989.78],[12.6373,61.5198,972.7261],[12.6352,61.5287,940.9855],[12.6259,61.5282,922.0342],[12.6237,61.5372,909.4963],[12.6144,61.5367,862.2765],[12.6133,61.5411,843.5023],[12.6039,61.5406,753.9587],[12.6018,61.5495,809.8738],[12.5924,61.549,843.8524],[12.5903,61.5579,941.0381],[12.5809,61.5574,949.9429],[12.5788,61.5664,1000.9808],[12.5694,61.5659,1014.433],[12.5684,61.5703,1030.1467],[12.484,61.5657,613.4494],[12.4829,61.5702,633.6721],[12.436,61.5676,956.5242],[12.4371,61.5632,966.0684],[12.4184,61.5621,989.0186],[12.4162,61.5711,977.4988],[12.4068,61.5706,966.1964],[12.4057,61.575,966.3127],[12.3963,61.5745,964.5225],[12.3941,61.5834,961.9081],[12.3848,61.5829,954.7953],[12.3826,61.5918,915.5361],[12.3732,61.5913,892.8655],[12.371,61.6002,927.4702],[12.3616,61.5997,891.0591],[12.3594,61.6086,889.236],[12.35,61.6081,820.5505],[12.3489,61.6126,822.1959],[12.3395,61.612,773.8595],[12.3373,61.6209,779.1526],[12.3279,61.6204,775.2309],[12.3268,61.6249,819.6947],[12.3174,61.6244,867.3848],[12.3163,61.6288,873.6335],[12.3069,61.6283,855.8502],[12.3058,61.6328,868.3915],[12.2964,61.6322,860.218],[12.2953,61.6367,862.8033],[12.2859,61.6362,910.6251],[12.2848,61.6406,935.1815],[12.2754,61.6401,999.3459],[12.2743,61.6446,981.5101],[12.2649,61.644,946.1848],[12.2627,61.653,939.9937],[12.2533,61.6524,967.9099],[12.2521,61.6569,1014.9592],[12.2427,61.6564,1011.3334],[12.2405,61.6653,1042.6298],[12.2311,61.6647,1045.7925],[12.2289,61.6737,1023.4484],[12.2194,61.6731,1077.1526],[12.2183,61.6776,1040.5349],[12.2089,61.6771,1006.7112],[12.2067,61.686,1055.9896],[12.1973,61.6854,931.1824],[12.195,61.6944,932.6651],[12.1856,61.6938,905.0817],[12.1845,61.6983,904.6737],[12.1751,61.6978,899.1007],[12.1728,61.7067,904.4005],[12.1634,61.7061,921.7419],[12.1611,61.715,941.9174],[12.1517,61.7145,984.9644],[12.1506,61.719,1041.8525],[12.1411,61.7184,1023.2137],[12.1377,61.7318,1015.7486],[12.1471,61.7323,970.6597],[12.1426,61.7502,818.6137],[12.152,61.7507,805.4159],[12.1475,61.7685,764.8997],[12.1569,61.7691,779.9432],[12.1535,61.7824,758.8138],[12.1629,61.783,756.2049],[12.1583,61.8008,769.6326],[12.1678,61.8013,766.8766],[12.1632,61.8192,743.601],[12.1727,61.8197,740.3206],[12.1681,61.8375,737.3638],[12.1776,61.8381,727.6166],[12.1742,61.8514,714.3986],[12.1836,61.852,686.2704],[12.1791,61.8698,661.4951],[12.1885,61.8703,672.6149],[12.184,61.8882,705.3145],[12.1934,61.8887,709.1681],[12.1889,61.9065,676.2008],[12.1984,61.9071,663.2272],[12.1938,61.9249,668.9311],[12.2033,61.9254,667.0958],[12.1999,61.9388,737.0305],[12.2093,61.9393,707.0928],[12.2048,61.9572,716.0239],[12.2143,61.9577,739.1302],[12.2097,61.9755,687.4958],[12.2192,61.976,709.7236],[12.2147,61.993899999999996,629.5057],[12.2242,61.9944,636.6951],[12.2196,62.0122,721.4133],[12.2291,62.0128,733.4915],[12.2246,62.0306,748.903],[12.2341,62.0311,742.5048],[12.2295,62.049,763.8931],[12.239,62.0495,769.4131],[12.2356,62.0629,798.9641],[12.2451,62.0634,802.5614],[12.2406,62.0812,866.8691],[12.2501,62.0818,859.1014],[12.2455,62.0996,889.6655],[12.2551,62.1001,871.1356],[12.2505,62.118,951.0944],[12.2601,62.1185,911.7682],[12.2555,62.1363,1006.3172],[12.265,62.1368,982.9114],[12.2616,62.1502,769.3146],[12.2712,62.1507,763.753],[12.2666,62.1686,962.729],[12.2762,62.1691,1025.7664],[12.2716,62.1869,915.8171],[12.2812,62.1875,915.4622],[12.2766,62.2053,883.0651],[12.2862,62.2058,889.4335],[12.2816,62.2237,935.4586],[12.2912,62.2242,918.8546],[12.2878,62.2376,958.2659],[12.2974,62.2381,975.7587],[12.2928,62.2559,786.3292],[12.3024,62.2564,784.6298],[12.2955,62.2832,808.9757],[12.2859,62.2827,810.8503],[12.2802,62.305,819.8842],[12.2706,62.3044,780.6692],[12.2649,62.3267,756.9647],[12.2553,62.3262,759.4066],[12.2541,62.3307,756.8159],[12.2061,62.328,751.9632],[12.2073,62.3236,782.2803],[12.1881,62.3225,750.5],[12.1892,62.318,750.1916],[12.1796,62.3175,749.3731],[12.1808,62.313,754.8333],[12.1232,62.3098,723.6491],[12.122,62.3143,720.3131],[12.1124,62.3138,722.7124],[12.1101,62.3227,734.0977],[12.1005,62.3221,719.5362],[12.0993,62.3266,728.7043],[12.0897,62.326,720.4911],[12.0873,62.335,729.113],[12.0777,62.3344,719.7454],[12.076599999999999,62.3389,723.5728],[12.0669,62.3383,723.1094],[12.0658,62.3428,719.2009],[12.0562,62.3423,724.6772],[12.055,62.3467,714.3087],[12.0454,62.3462,718.1694],[12.0442,62.3506,715.777],[12.025,62.3495,710.9283],[12.0238,62.354,710.4689],[11.995,62.3524,683.9807],[11.9938,62.3568,672.897],[11.9745,62.3557,661.5],[11.9734,62.3602,661.5],[11.9445,62.3585,661.5],[11.9433,62.363,661.5],[11.9145,62.3613,726.7707],[11.9133,62.3658,732.6399],[11.8941,62.3647,810.5859],[11.8929,62.3691,791.5557],[11.864,62.3675,897.226],[11.8628,62.3719,862.58],[11.834,62.3703,936.6302],[11.8327,62.3747,908.5193],[11.8039,62.3731,875.3239],[11.8027,62.3775,848.3139],[11.7642,62.3753,776.9831],[11.7655,62.3708,792.4275],[11.7558,62.3703,777.5087],[11.7571,62.3658,797.9341],[11.7475,62.3652,786.7095],[11.7487,62.3608,768.6641],[11.7391,62.3602,718.6939],[11.7403,62.3558,736.7327],[11.7307,62.3552,695.7102],[11.7319,62.3508,693.5837],[11.7031,62.3491,799.5069],[11.7019,62.3535,812.1033],[11.6923,62.3529,847.0118],[11.6861,62.3752,971.3558],[11.6765,62.3746,941.6828],[11.674,62.3836,942.1203],[11.6259,62.3807,949.7482],[11.6272,62.3763,929.7878],[11.5791,62.3734,777.1406],[11.5804,62.3689,782.9578],[11.5516,62.3672,816.6862],[11.5491,62.3761,950.5641],[11.5394,62.3755,955.0246],[11.5369,62.3844,935.8285],[11.5273,62.3839,920.8285],[11.5248,62.3928,943.4396],[11.5152,62.3922,964.9413],[11.5127,62.4011,977.8639],[11.503,62.4005,953.8351],[11.4929,62.4361,888.8231],[11.4833,62.4356,896.5652],[11.4807,62.4445,848.369],[11.4711,62.4439,848.3536],[11.4686,62.4528,790.0947],[11.4589,62.4522,776.6688],[11.4564,62.4611,852.6011],[11.4468,62.4605,867.1985],[11.4442,62.4694,909.1071],[11.4346,62.4688,935.0664],[11.432,62.4777,1069.0797],[11.4224,62.4772,1010.5358],[11.4211,62.4816,1017.4285],[11.4114,62.481,970.1625],[11.4102,62.4855,1002.6902],[11.4005,62.4849,967.4636],[11.3992,62.4893,1037.3705],[11.3896,62.4888,997.1546],[11.3883,62.4932,988.4839],[11.3787,62.4926,1005.3314],[11.3774,62.4971,973.3196],[11.3677,62.4965,1024.0991],[11.3664,62.5009,972.492],[11.3568,62.5003,963.4929],[11.3555,62.5048,982.0236],[11.3459,62.5042,974.9271],[11.3446,62.5086,996.5245],[11.3349,62.5081,943.1058],[11.3323,62.517,900.1797],[11.3227,62.5164,855.1104],[11.3214,62.5208,822.5606],[11.3117,62.5202,768.6924],[11.3104,62.5247,731.6824],[11.3008,62.5241,649.1308],[11.2995,62.5285,614.439],[11.2609,62.5262,704.0812],[11.2596,62.5306,722.541],[11.2499,62.53,786.2563],[11.2381,62.57,749.7262],[11.1994,62.5677,813.0266],[11.1981,62.5721,806.5621],[11.1885,62.5715,805.4165],[11.1858,62.5804,818.5712],[11.1955,62.581,816.3542],[11.1902,62.5988,882.6568],[11.1805,62.5982,887.8574],[11.1779,62.6071,913.9041],[11.1682,62.6065,918.3403],[11.1656,62.6154,894.8923],[11.1559,62.6148,938.5645],[11.1519,62.6281,957.7449],[11.1616,62.6287,930.3734],[11.1536,62.6554,940.1606],[11.1439,62.6548,855.1249],[11.1426,62.6593,818.2071],[11.1329,62.6587,871.5972],[11.1316,62.6631,918.2788],[11.1219,62.6625,946.3629],[11.1205,62.667,994.5623],[11.1011,62.6657,987.848],[11.0998,62.6702,1018.7202],[11.0901,62.6696,1022.3533],[11.0888,62.674,1049.5956],[11.05,62.6716,1145.3031],[11.0486,62.676,1138.0323],[11.0292,62.6748,1166.3503],[11.0279,62.6793,1073.611],[11.0182,62.6787,1117.2325],[11.0168,62.6831,1031.8478],[10.9974,62.6819,1055.9445],[10.9961,62.6863,1054.2039],[10.9767,62.6851,1157.5549],[10.9753,62.6895,1114.2902],[10.9559,62.6883,958.4274],[10.9546,62.6928,917.3785],[10.9352,62.6915,884.2144],[10.9338,62.696,876.7282],[10.9047,62.6941,920.4532],[10.9033,62.6986,895.7841],[10.8451,62.6948,1122.1824],[10.8465,62.6904,1107.8477],[10.8077,62.6879,991.3187],[10.8091,62.6834,991.4413],[10.7994,62.6828,1053.442],[10.8008,62.6784,1092.1976],[10.7911,62.6777,1213.0811],[10.7925,62.6733,1139.5065],[10.7828,62.6727,1115.9218],[10.7842,62.6682,1093.9589],[10.7745,62.6676,1139.9132],[10.7759,62.6631,1137.3779],[10.7662,62.6625,1068.5881],[10.7676,62.6581,1051.2786],[10.7579,62.6574,1103.6105],[10.7593,62.653,1058.7253],[10.7496,62.6524,1039.8641],[10.751,62.6479,1047.4419],[10.7316,62.6467,1079.3619],[10.7233,62.6733,1103.3701],[10.7039,62.6721,1059.5469],[10.7025,62.6765,1029.2979],[10.6928,62.6759,1026.3715],[10.6914,62.6803,1050.948],[10.6332,62.6765,991.6637],[10.6347,62.672,969.3541],[10.6153,62.6708,1024.1428],[10.6167,62.6663,1027.8522],[10.5876,62.6644,987.6473],[10.5862,62.6688,971.9433],[10.5572,62.6669,1153.1511],[10.5557,62.6714,1121.8214],[10.5364,62.6701,1043.8329],[10.535,62.6745,1009.7572],[10.5059,62.6726,1164.6959],[10.5045,62.677,1119.4989],[10.4754,62.6751,1191.0272],[10.474,62.6795,1194.038],[10.4546,62.6782,1138.9054],[10.4532,62.6827,1146.4747],[10.4241,62.6807,994.3104],[10.4227,62.6851,981.6642],[10.4033,62.6838,931.5463],[10.4018,62.6883,933.9033],[10.3728,62.6863,983.9344],[10.3713,62.6907,990.6383],[10.3423,62.6888,1163.8749],[10.3408,62.6932,1157.7498],[10.1471,62.6799,498.2979],[10.1486,62.6755,507.9406],[10.1293,62.6741,734.2657],[10.1307,62.6697,784.7537],[10.1114,62.6684,905.9695],[10.1129,62.6639,923.2154],[10.1032,62.6632,922.3027],[10.1121,62.6366,996.0633],[10.1024,62.6359,1010.624],[10.1039,62.6315,1031.1062],[10.0943,62.6308,1068.7445],[10.0958,62.6264,1086.6405],[10.0861,62.6257,1093.8475],[10.0876,62.6213,1080.2937],[10.0972,62.622,1062.1196],[10.0987,62.6175,1029.8785],[10.1084,62.6182,1015.8898],[10.1128,62.6049,904.2098],[10.1032,62.6042,892.1249],[10.1076,62.5909,824.4034],[10.098,62.5902,891.4028],[10.0995,62.5858,900.4669],[10.0802,62.5844,1045.5955],[10.0817,62.58,1075.5254],[10.0624,62.5786,1008.5011],[10.0638,62.5742,1017.9169],[10.0542,62.5735,1028.1051],[10.0557,62.5691,1047.0562],[10.0364,62.5677,964.8919],[10.0379,62.5633,984.1561],[10.0283,62.5626,1064.7051],[10.0297,62.5582,1045.7222],[10.0105,62.5568,1150.5474],[10.012,62.5524,1182.7148],[10.0023,62.5517,1174.0364],[10.0158,62.5118,1013.9066],[10.0254,62.5125,1016.3082],[10.0328,62.4903,1005.6641],[10.0425,62.491,1036.3701],[10.0499,62.4688,992.7338],[10.0595,62.4695,994.4177],[10.0669,62.4473,970.7947],[10.0765,62.448,962.4186],[10.0839,62.4258,1006.3903],[10.0743,62.4251,988.0723],[10.0758,62.4207,1005.1127],[10.047,62.4186,980.3463],[10.0485,62.4142,1000.2025],[10.0101,62.4115,1108.9108],[10.0116,62.407,1091.8514],[9.9828,62.405,1214.6775],[9.9843,62.4006,1205.0978],[9.9459,62.3978,1408.4348],[9.9549,62.3712,1237.88],[9.9453,62.3705,1203.2893],[9.9483,62.3617,1186.4948],[9.9387,62.361,1192.3014],[9.9402,62.3565,1189.0593],[9.9307,62.3559,1152.7721],[9.9322,62.3514,1233.5991],[9.9034,62.3494,1021.0],[9.9049,62.3449,1021.0],[9.8858,62.3435,1024.5358],[9.8843,62.348,1054.1018],[9.8747,62.3473,1063.6427],[9.8732,62.3517,1107.3945],[9.8541,62.3503,1169.1069],[9.8526,62.3548,1209.3434],[9.843,62.3541,1210.6736],[9.8415,62.3585,1269.9794],[9.8319,62.3578,1255.4475],[9.8335,62.3534,1199.4167],[9.8239,62.3527,1121.0249],[9.8299,62.335,1035.4351],[9.8204,62.3343,1081.5662],[9.8294,62.3077,1029.6389],[9.8198,62.307,1057.3529],[9.8214,62.3026,1049.9885],[9.8118,62.3019,1090.7592],[9.8133,62.2974,1089.0115],[9.8038,62.2967,1121.7715],[9.8053,62.2923,1118.7042],[9.7957,62.2916,1123.4125],[9.7972,62.2872,1102.3785],[9.7877,62.2865,1106.7224],[9.7892,62.282,1107.9229],[9.7701,62.2806,1135.2238],[9.7716,62.2762,1105.1974],[9.7525,62.2748,1089.7788],[9.754,62.2704,1093.0536],[9.7445,62.2697,1060.7974],[9.746,62.2653,1064.6713],[9.7269,62.2639,1053.1583],[9.7285,62.2594,1019.653],[9.7189,62.2587,996.6147],[9.7204,62.2543,982.6729],[9.7109,62.2536,946.1946],[9.7124,62.2492,946.6203],[9.7029,62.2485,913.4006],[9.7059,62.2396,910.2026],[9.6964,62.2389,871.3384],[9.6979,62.2345,869.3394],[9.6884,62.2338,903.7053],[9.6914,62.2249,946.8149],[9.6819,62.2242,1026.639],[9.6834,62.2198,1006.4771],[9.6739,62.2191,1035.3069],[9.677,62.2102,970.1918],[9.6674,62.2095,945.6357],[9.669,62.2051,868.289],[9.6594,62.2044,877.408],[9.661,62.1999,846.1669],[9.6514,62.1992,842.9187],[9.653,62.1948,851.8646],[9.6435,62.1941,865.4816],[9.6419,62.1985,839.3737],[9.6229,62.1971,847.0198],[9.6214,62.2015,897.4847],[9.6118,62.2008,874.201],[9.6134,62.1964,869.6365],[9.5848,62.1943,970.8273],[9.5925,62.1721,1393.9396],[9.602,62.1728,1314.0602],[9.6035,62.1684,1421.5295],[9.6131,62.1691,1357.2399],[9.6161,62.1602,1361.9231],[9.6256,62.161,1346.0608],[9.6287,62.1521,1345.2113],[9.6382,62.1528,1325.6885],[9.6397,62.1484,1318.2169],[9.6492,62.1491,1281.0182],[9.6522,62.1402,1452.249],[9.6712,62.1416,1281.5509],[9.6728,62.1372,1323.7843],[9.6823,62.1379,1309.9083],[9.6838,62.1334,1298.5834],[9.7028,62.1349,1234.1693],[9.7043,62.1304,1237.9811],[9.7233,62.1318,1216.2024],[9.7248,62.1274,1197.9913],[9.7343,62.1281,1164.0897],[9.7358,62.1237,1214.028],[9.7548,62.125,1223.5312],[9.7563,62.1206,1303.5951],[9.7658,62.1213,1228.9191],[9.7673,62.1169,1267.6085],[9.7768,62.1176,1174.2471],[9.7783,62.1131,1161.0975],[9.7878,62.1138,1083.1522],[9.7893,62.1094,1086.8484],[9.8083,62.1108,1068.0862],[9.8098,62.1064,1101.8875],[9.8193,62.107,1045.5558],[9.8207,62.1026,1046.7638],[9.8302,62.1033,1043.7224],[9.8317,62.0989,1086.7256],[9.8507,62.1003,1114.5542],[9.8537,62.0914,1119.5811],[9.8632,62.0921,1135.2117],[9.8662,62.0832,1043.8553],[9.8756,62.0839,1083.0776],[9.8771,62.0795,1048.6298],[9.8866,62.0802,1076.183],[9.8896,62.0713,1038.0397],[9.8991,62.072,1006.8734],[9.902,62.0631,868.1506],[9.9115,62.0638,848.0929],[9.9174,62.046,903.0106],[9.889,62.044,1213.6808],[9.8905,62.0396,1141.5122],[9.8621,62.0375,1172.9701],[9.865,62.0286,1030.0858],[9.8556,62.0279,998.062],[9.8615,62.0102,988.6058],[9.852,62.0095,1003.9298],[9.8535,62.0051,1019.4341],[9.863,62.0058,1014.0794],[9.8704,61.9836,1201.6869],[9.8609,61.9829,1261.1112],[9.8654,61.9696,1376.0376],[9.8559,61.9689,1422.3412],[9.8604,61.9556,1646.6139],[9.8509,61.9549,1546.3369],[9.8554,61.9416,1942.3544],[9.8459,61.9409,1672.4976],[9.8504,61.9276,1435.0742],[9.8409,61.9269,1481.8577],[9.8439,61.9181,1733.4438],[9.8345,61.9174,1838.6727],[9.8389,61.9041,1707.9546],[9.8766,61.9068,1503.3193],[9.8781,61.9024,1869.5822],[9.9064,61.9045,1343.3253],[9.9079,61.9,1350.5817],[9.9267,61.9014,1618.5961],[9.9282,61.897,1771.9861],[9.9471,61.8983,1691.1312],[9.9485,61.8939,1769.8528],[9.9674,61.8953,1636.0841],[9.9688,61.8908,1520.6862],[9.9877,61.8922,1492.1107],[9.9892,61.8877,1384.9647],[10.008,61.8891,970.6588],[10.0066,61.8935,987.6445],[10.016,61.8942,926.9589],[10.0102,61.912,862.999],[10.029,61.9133,805.698],[10.0276,61.9178,796.2287],[10.0559,61.9198,705.4548],[10.0588,61.9109,743.8235],[10.0682,61.9116,704.8476],[10.0697,61.9072,732.0681],[10.0791,61.9078,703.1776],[10.0806,61.9034,718.8919],[10.09,61.9041,703.0435],[10.0929,61.8952,762.1633],[10.1023,61.8959,701.8357],[10.1038,61.8914,737.7809],[10.1132,61.8921,700.4705],[10.1146,61.8877,700.6176],[10.1241,61.8883,700.4399],[10.1255,61.8839,700.4165],[10.1444,61.8852,700.5788],[10.1458,61.8808,734.1523],[10.1552,61.8815,704.2055],[10.1581,61.8726,783.6342],[10.1487,61.8719,819.3018],[10.1515,61.8631,917.6204],[10.1421,61.8624,849.9238],[10.145,61.8535,879.187],[10.1356,61.8528,943.8192],[10.1384,61.844,1077.7173],[10.129,61.8433,1197.7235],[10.1304,61.8389,1217.5105],[10.121,61.8382,1268.2764],[10.1239,61.8293,1245.7977],[10.1145,61.8286,1220.7476],[10.1159,61.8242,1184.7106],[10.1065,61.8235,1177.285],[10.1094,61.8147,1090.6814],[10.1,61.814,1087.0138],[10.1014,61.8095,1041.8545],[10.092,61.8089,1044.8118],[10.0949,61.8,1058.9651],[10.0855,61.7993,1125.2784],[10.0884,61.7905,1171.7568],[10.079,61.7898,1243.6083],[10.0804,61.7853,1207.3159],[10.071,61.7847,1346.6117],[10.0739,61.7758,1202.5483],[10.0645,61.7751,1212.8239],[10.0674,61.7663,1181.9457],[10.058,61.7656,1175.5334],[10.0594,61.7611,1159.1454],[10.05,61.7605,1152.7756],[10.0543,61.7472,1112.7655],[10.0731,61.7485,1111.7076],[10.0746,61.7441,1093.6328],[10.0839,61.7447,1112.2583],[10.0854,61.7403,1116.4623],[10.1041,61.7416,1173.3315],[10.1056,61.7372,1164.4276],[10.115,61.7379,1236.8008],[10.1164,61.7334,1265.9836],[10.1352,61.7348,1178.1407],[10.1366,61.7304,1083.463],[10.146,61.731,1106.8434],[10.1474,61.7266,1084.446],[10.1662,61.7279,1066.0887],[10.1676,61.7235,1054.4525],[10.177,61.7242,1076.2017],[10.1784,61.7197,1106.5924],[10.1972,61.7211,1320.0613],[10.1986,61.7166,1247.3594],[10.2361,61.7193,1247.6829],[10.2375,61.7148,1322.8547],[10.2563,61.7162,1336.5],[10.2577,61.7117,1313.0641],[10.2764,61.713,1261.0127],[10.2778,61.7086,1248.9233],[10.2966,61.7099,1248.1024],[10.298,61.7055,1186.0348],[10.3074,61.7062,1158.5165],[10.3088,61.7017,1137.0664],[10.3182,61.7024,1110.0747],[10.3196,61.6979,1086.3237],[10.3289,61.6986,1152.22],[10.3303,61.6941,1136.0818],[10.3397,61.6948,1199.1892],[10.3411,61.6904,1148.9403],[10.3505,61.691,1199.9314],[10.3519,61.6866,1146.1991],[10.3613,61.6872,1143.5924],[10.3627,61.6828,1096.8999],[10.372,61.6835,1087.4713],[10.3748,61.6746,1141.0785],[10.3842,61.6752,1159.6034],[10.3856,61.6708,1307.5421],[10.3949,61.6714,1320.1342],[10.3935,61.6759,1161.0408],[10.4029,61.6765,1161.0645],[10.4015,61.681,1175.2839],[10.4109,61.6816,1182.3596],[10.4095,61.6861,1044.4983],[10.4189,61.6867,1055.1244],[10.4175,61.6912,1148.2499],[10.4269,61.6918,1191.3517],[10.4255,61.6962,1256.0409],[10.4349,61.6969,1296.6218],[10.4335,61.7013,1292.6545],[10.4616,61.7033,1242.1219],[10.4603,61.7077,1232.7811],[10.4696,61.7084,1167.5433],[10.4683,61.7128,1140.1163],[10.4777,61.7135,1082.8969],[10.4763,61.7179,1065.5967],[10.4857,61.7186,1019.925],[10.4843,61.723,1024.8579],[10.4937,61.7236,987.6736],[10.4923,61.7281,956.7692],[10.5299,61.7307,829.7644],[10.5285,61.7351,839.7568],[10.5567,61.737,995.4759],[10.5553,61.7415,970.855],[10.5741,61.7428,909.1055],[10.5768,61.7339,966.2943],[10.5862,61.7345,890.684],[10.5903,61.7212,949.0457],[10.5997,61.7218,811.7086],[10.6038,61.7085,806.2513],[10.6132,61.7091,745.7223],[10.6159,61.7003,774.3661],[10.6253,61.7009,760.6688],[10.659,61.5898,1004.1169],[10.6497,61.5892,1081.3329],[10.6591,61.5581,796.0436],[10.6684,61.5587,1012.6701],[10.6791,61.5232,865.0842],[10.6885,61.5238,914.7831],[10.6965,61.4972,1049.8967],[10.6872,61.4965,1023.9033],[10.6898,61.4876,1066.6188],[10.6805,61.487,1063.592],[10.6899,61.4559,1076.1311],[10.6992,61.4565,1060.7408],[10.7032,61.4432,957.2542],[10.7125,61.4438,956.0934],[10.7178,61.4261,963.6858],[10.7271,61.4267,957.1614],[10.7324,61.4089,1076.6338],[10.7417,61.4095,1101.1783],[10.747,61.3918,1010.6057],[10.7563,61.3924,1021.9223],[10.7615,61.3746,1008.9225],[10.7708,61.3753,1004.5889],[10.7774,61.353,1007.9892],[10.7867,61.3537,1004.989],[10.7933,61.3314,966.9398],[10.8025,61.3321,959.3301],[10.8104,61.3054,882.8101],[10.8197,61.306,887.1559],[10.8262,61.2838,852.4174],[10.8355,61.2844,866.9037],[10.8407,61.2666,878.8651],[10.8314,61.266,824.2714],[10.8327,61.2616,807.294],[10.8142,61.2603,739.3884],[10.8155,61.2559,723.1204],[10.797,61.2546,700.6597],[10.7983,61.2502,710.4728],[10.7706,61.2483,827.2145],[10.7719,61.243899999999996,833.4424],[10.7534,61.2426,824.2634],[10.7547,61.2382,846.9212],[10.7362,61.2369,914.2875],[10.7375,61.2325,901.3999],[10.7283,61.2318,886.4796],[10.7322,61.2185,899.4336],[10.723,61.2179,915.9441],[10.7269,61.2046,909.5153],[10.7177,61.2039,905.9415],[10.719,61.1995,921.759],[10.7097,61.1988,893.1024],[10.7111,61.1944,882.6881],[10.7018,61.1938,885.8187],[10.7031,61.1893,884.8],[10.6939,61.1887,887.5878],[10.6952,61.1843,887.7412],[10.6768,61.183,921.9955],[10.6794,61.1741,964.3903],[10.6702,61.1735,1000.723],[10.6715,61.169,978.4615],[10.6623,61.1684,971.5224],[10.6636,61.164,943.3241],[10.6544,61.1633,909.9504],[10.657,61.1544,880.9655],[10.6478,61.1538,827.4991],[10.6491,61.1494,793.9391],[10.6399,61.1487,717.6292],[10.6412,61.1443,697.4116],[10.632,61.1436,679.0658],[10.6347,61.1348,651.4462],[10.6254,61.1341,627.2047],[10.6268,61.1297,550.1968],[10.6175,61.129,520.1104],[10.6189,61.1246,530.347],[10.6097,61.124,550.6279],[10.6123,61.1151,515.338],[10.6031,61.1144,515.3386],[10.6044,61.11,563.4905],[10.5952,61.1094,612.0118],[10.5965,61.1049,690.9155],[10.5873,61.1043,692.6256],[10.59,61.0954,574.2825],[10.5808,61.0948,566.3882],[10.5821,61.0903,534.9327],[10.5729,61.0897,513.0655],[10.5743,61.0852,522.2067],[10.5559,61.084,502.9891],[10.5572,61.0795,457.4653],[10.548,61.0789,443.9406],[10.5493,61.0744,471.5583],[10.5401,61.0738,405.2868],[10.5415,61.0693,427.4127],[10.5323,61.0687,369.5261],[10.5336,61.0643,372.8555],[10.4417,61.0578,119.5],[10.4471,61.04,119.5],[10.4562,61.0407,119.5],[10.4603,61.0274,119.5],[10.4695,61.028,119.5],[10.4721,61.0191,119.5],[10.4813,61.0198,119.5],[10.484,61.0109,119.5],[10.5024,61.0122,119.5],[10.5037,61.0077,119.5],[10.5129,61.0084,119.5],[10.5142,61.004,119.5],[10.5326,61.0052,119.5],[10.5339,61.0008,119.5],[10.5431,61.0014,119.5],[10.5444,60.997,119.5],[10.5536,60.9976,119.5],[10.5549,60.9932,119.5],[10.5641,60.9938,119.5],[10.5654,60.9894,119.5],[10.5746,60.99,119.5],[10.5759,60.9856,119.5],[10.5851,60.9862,119.5],[10.5864,60.9818,119.5],[10.5956,60.9824,119.5],[10.5969,60.978,119.5],[10.6061,60.9786,119.5],[10.6087,60.9697,119.5],[10.6179,60.9704,119.5],[10.6205,60.9615,126.8317],[10.6297,60.9621,119.5],[10.6323,60.9532,119.5],[10.6415,60.9539,119.5],[10.6441,60.945,119.5],[10.6533,60.9456,119.5],[10.6572,60.9323,119.5],[10.6664,60.9329,119.5],[10.6742,60.9063,119.5],[10.6834,60.9069,119.5],[10.6899,60.8847,119.5],[10.699,60.8853,119.5],[10.7029,60.872,119.5],[10.7121,60.8726,119.5],[10.7173,60.8549,119.5],[10.7081,60.8542,119.5],[10.7107,60.8453,119.5],[10.701599999999999,60.8447,119.5],[10.7042,60.8358,119.5],[10.6951,60.8352,119.5],[10.6977,60.8263,119.5],[10.6885,60.8257,119.5],[10.6924,60.8123,119.5],[10.701599999999999,60.813,119.5],[10.7055,60.7996,119.5],[10.7146,60.8003,119.5],[10.7172,60.7914,119.5],[10.7263,60.792,119.5],[10.7289,60.7831,119.5],[10.738,60.7838,119.5],[10.7406,60.7749,119.5],[10.7497,60.7755,119.5],[10.751,60.7711,119.5],[10.7601,60.7717,119.5],[10.7614,60.7672,119.5],[10.7796,60.7685,119.5],[10.7809,60.764,119.5],[10.79,60.7647,119.5],[10.7913,60.7602,119.5],[10.8095,60.7615,119.5],[10.8108,60.757,119.5],[10.8199,60.7577,119.5],[10.8212,60.7532,119.5],[10.8394,60.7545,119.5],[10.8407,60.75,119.5],[10.8498,60.7506,119.5],[10.8511,60.7462,119.5],[10.8602,60.7468,119.5],[10.8615,60.7424,119.5],[10.8706,60.743,119.5],[10.8718,60.7385,119.5],[10.881,60.7392,119.5],[10.8822,60.7347,119.5],[10.8913,60.7353,119.5],[10.8926,60.7309,119.5],[10.9017,60.7315,119.5],[10.903,60.7271,119.5],[10.9121,60.7277,119.5],[10.9133,60.7232,119.5],[10.9224,60.7238,119.5],[10.9237,60.7194,119.5],[10.9419,60.7206,119.5],[10.9432,60.7162,119.5],[10.9523,60.7168,119.5],[10.9535,60.7123,119.5],[10.9626,60.713,119.5],[10.9639,60.7085,119.5],[10.973,60.7091,119.5],[10.9743,60.7047,119.5],[10.9834,60.7053,119.5],[10.9846,60.7008,119.5],[10.9937,60.7015,119.5],[10.9962,60.6926,119.5],[11.0053,60.6932,119.5],[11.0066,60.6887,119.5],[11.0157,60.6893,119.5],[11.0169,60.6849,119.5],[11.026,60.6855,119.5],[11.0273,60.6811,119.5],[11.0363,60.6817,119.5],[11.0376,60.6772,119.5],[11.0467,60.6778,119.5],[11.0479,60.6734,119.5],[11.057,60.674,119.5],[11.0595,60.6651,119.5],[11.0686,60.6657,119.5],[11.0698,60.6613,119.5],[11.0789,60.6619,119.5],[11.0802,60.6574,119.5],[11.0893,60.658,119.5],[11.0917,60.6491,119.5],[11.1008,60.6497,119.5],[11.102,60.6453,119.5],[11.1111,60.6459,119.5],[11.1136,60.637,119.5],[11.1227,60.6376,119.5],[11.1251,60.6287,119.5],[11.1342,60.6293,119.5],[11.139099999999999,60.6115,119.5],[11.1482,60.6121,119.5],[11.1519,60.5988,119.5],[11.161,60.5994,119.5],[11.1622,60.5949,119.5],[11.1713,60.5955,119.5],[11.1737,60.5866,119.5],[11.1828,60.5872,119.5],[11.184,60.5828,119.5],[11.1931,60.5834,119.5],[11.1943,60.5789,119.5],[11.2034,60.5795,119.5],[11.2155,60.535,119.5],[11.2065,60.5344,119.5],[11.2138,60.5077,119.5],[11.2047,60.5071,119.5],[11.2059,60.5027,119.5],[11.215,60.5033,119.5],[11.2162,60.4988,119.5],[11.2343,60.5,131.3351],[11.2355,60.4956,162.0715],[11.2626,60.4974,402.5299],[11.2638,60.4929,379.8976],[11.2819,60.4941,400.8946],[11.2843,60.4852,473.2329],[11.2934,60.4858,442.4901],[11.2958,60.4769,448.4404],[11.3048,60.4775,352.1285],[11.306,60.473,382.8486],[11.3151,60.4736,435.268],[11.3175,60.4647,417.2125],[11.3265,60.4653,426.4008],[11.3289,60.4564,429.6328],[11.3379,60.457,369.6147],[11.3391,60.4526,393.6219],[11.3481,60.4531,382.6567],[11.3505,60.4442,455.8853],[11.3596,60.4448,440.3872],[11.3631,60.4315,498.6155],[11.3722,60.4321,503.3351],[11.3864,60.3787,408.7543],[11.3954,60.3792,445.439],[11.399,60.3659,375.9761],[11.408,60.3665,316.4416],[11.4127,60.3487,282.5138],[11.4217,60.3493,292.1198],[11.424,60.3404,364.079],[11.4331,60.3409,423.2831],[11.4342,60.3365,441.709],[11.4522,60.3376,453.1749],[11.4534,60.3332,424.5065],[11.4624,60.3338,473.1495],[11.4636,60.3293,454.6975],[11.4726,60.3299,476.5119],[11.4738,60.3255,434.9731],[11.4828,60.326,421.0085],[11.4851,60.3171,395.9609],[11.4941,60.3177,350.0177],[11.4964,60.3088,360.8326],[11.5054,60.3094,363.2379],[11.5089,60.296,283.2925],[11.5179,60.2966,258.8677],[11.5191,60.2921,256.2996],[11.5281,60.2927,284.5981],[11.5292,60.2883,320.425],[11.5382,60.2888,374.1229],[11.5394,60.2844,403.368],[11.5574,60.2855,377.5164],[11.5585,60.2811,317.3554],[11.5675,60.2817,309.2827],[11.5687,60.2772,315.4674],[11.5777,60.2778,323.4637],[11.5788,60.2733,317.2267],[11.5878,60.2739,290.8481],[11.589,60.2695,305.4376],[11.598,60.27,239.8187],[11.5991,60.2656,198.0267],[11.5901,60.265,232.2092],[11.5936,60.2516,144.8773],[11.5846,60.2511,180.8611],[11.5915,60.2244,136.0007],[11.5825,60.2238,132.888],[11.5871,60.206,140.2101],[11.5781,60.2054,133.0183],[11.5804,60.1965,129.0],[11.5715,60.1959,137.0625],[11.5726,60.1915,129.0],[11.5636,60.1909,135.9992],[11.5671,60.1776,134.3332],[11.5761,60.1781,150.8426],[11.5784,60.1692,263.7239],[11.5873,60.1698,212.0506],[11.5896,60.1609,236.9323],[11.5986,60.1615,194.6125],[11.6009,60.1526,263.4551],[11.6098,60.1531,217.3188],[11.611,60.1487,293.5214],[11.6199,60.1492,276.8979],[11.6222,60.1403,351.2927],[11.6312,60.1409,326.4324],[11.6334,60.132,334.5129],[11.6424,60.1326,259.2025],[11.6435,60.1281,289.6076],[11.6525,60.1287,256.3936],[11.6536,60.1242,275.4688],[11.6626,60.1248,291.6399],[11.6637,60.1203,294.4143],[11.6816,60.1215,340.7052],[11.6827,60.117,359.1656],[11.6917,60.1176,335.5455],[11.6928,60.1131,310.0677],[11.7018,60.1137,336.0678],[11.7029,60.1092,316.7345],[11.7208,60.1104,327.1955],[11.7219,60.1059,324.1893],[11.7309,60.1065,320.7765],[11.732,60.102,297.8006],[11.7409,60.1026,306.5583],[11.7421,60.0981,276.5039],[11.751,60.0987,259.6735],[11.7521,60.0942,259.3082],[11.77,60.0953,258.9817],[11.7812,60.0508,206.0609],[11.8348,60.0541,321.8395],[11.8359,60.0497,306.2962],[11.827,60.0491,344.4733],[11.8281,60.0447,361.179],[11.8191,60.0441,355.2454],[11.8202,60.0397,354.6872],[11.8113,60.0391,320.8315],[11.8213,59.999,280.4095],[11.8124,59.9985,273.6168],[11.8146,59.9896,231.3885],[11.8057,59.989,244.5511],[11.8079,59.9801,226.0028],[11.799,59.9795,205.1076],[11.8001,59.9751,194.5],[11.7912,59.9745,194.5],[11.7934,59.9656,194.5],[11.7845,59.9651,199.567],[11.7867,59.9562,204.1327],[11.7956,59.9567,194.5],[11.799,59.9433,217.8981],[11.8079,59.9439,195.9403],[11.8134,59.9216,257.017],[11.8045,59.9211,243.4118],[11.8078,59.9077,243.1681],[11.7989,59.9072,261.7353],[11.8033,59.8893,228.2688],[11.8122,59.8899,240.756],[11.8178,59.8676,288.0782],[11.826599999999999,59.8682,310.1906],[11.8299,59.8548,287.2952]]]]}}