{"type": "Feature","id": "919","bbox": [9.65639,59.88494,12.88818,62.7078],"geometry": {"type": "Polygon","coordinates": [[[11.71926,62.36875,716.459],[11.70361,62.37113,739.0256],[11.68604,62.37588,954.4415],[11.66666,62.38332,979.9865],[11.63968,62.39046,933.4287],[11.57307,62.3965,826.8128],[11.54129,62.40702,827.3467],[11.51602,62.42606,931.9414],[11.49287,62.44973,822.4258],[11.4769,62.46115,795.493],[11.235,62.56931,748.2725],[11.21449,62.58455,860.928],[11.1979,62.59964,873.3373],[11.18436,62.61894,937.1072],[11.1749,62.63933,915.0869],[11.17335,62.65158,971.3204],[11.16886,62.66612,1016.7017],[11.12524,62.67982,1023.8591],[10.89652,62.7078,900.0121],[10.80563,62.69586,1021.8732],[10.75286,62.67034,1148.3334],[10.74263,62.66904,1118.1201],[10.73002,62.66891,1055.1843],[10.72212,62.67248,1093.5553],[10.71591,62.67674,1113.719],[10.71297,62.68098,1104.2692],[10.7046,62.6877,1051.7374],[10.67354,62.69599,1076.7269],[10.58667,62.68832,974.0046],[10.28566,62.70739,1050.1237],[10.15683,62.65494,658.2726],[10.09693,62.58579,928.696],[10.07663,62.54213,1038.4348],[10.07523,62.51078,995.5715],[10.08887,62.48456,1040.8599],[10.105,62.44265,969.2309],[10.08701,62.42836,1010.4993],[10.0729,62.42487,987.6237],[9.98537,62.40498,1206.8297],[9.97079,62.39666,1286.9907],[9.95234,62.38374,1332.1923],[9.93322,62.365,1127.156],[9.91741,62.35718,1032.5551],[9.90299,62.35382,1021.0],[9.86372,62.36074,1224.5874],[9.85535,62.35772,1231.6488],[9.85116,62.3518,1187.4832],[9.84837,62.34369,1087.4907],[9.83344,62.3301,1021.0],[9.82677,62.32126,1026.0966],[9.78305,62.28581,1108.6919],[9.67055,62.20525,867.2966],[9.65639,62.18861,942.2578],[9.65903,62.16969,1137.5332],[9.68854,62.156,1152.2153],[9.82475,62.11254,997.4923],[9.88852,62.0851,1136.0109],[9.90346,62.07445,1016.3162],[9.90873,62.06515,873.1741],[9.90315,62.05645,878.1649],[9.83406,62.03642,1039.0919],[9.81886,62.02828,1497.4387],[9.80832,62.01769,1604.8263],[9.80383,62.00883,1420.7479],[9.8029,62.00309,1160.2765],[9.8029,62.00118,1098.3507],[9.80894,61.97852,1168.9839],[9.8091,61.96836,1247.1394],[9.80274,61.95038,1379.0305],[9.80646,61.93844,1236.3812],[9.81158,61.92986,1324.9902],[9.85814,61.91121,1820.3245],[9.95405,61.89813,1733.4189],[9.9987,61.88268,1019.877],[10.00898,61.8956,962.5399],[10.00821,61.89896,916.3705],[10.0048,61.90206,964.3184],[10.00133,61.9047,935.5914],[9.99916,61.90728,871.0593],[10.00526,61.91085,890.5779],[10.04541,61.91457,740.6519],[10.08562,61.90439,702.7377],[10.1067,61.84821,1253.4523],[10.06531,61.79519,1208.9679],[10.05828,61.75633,1140.3488],[10.2808,61.72158,1187.2667],[10.2993,61.71644,1318.1189],[10.31511,61.70678,1129.7496],[10.35997,61.68983,1178.2811],[10.38958,61.68218,1121.5815],[10.39971,61.68295,1188.7177],[10.47448,61.71771,1082.5009],[10.49324,61.72982,946.041],[10.5181,61.73675,788.3292],[10.56714,61.74525,895.4546],[10.58481,61.74491,910.7301],[10.59675,61.7413,953.7361],[10.60838,61.73494,956.7521],[10.62595,61.70678,731.593],[10.67933,61.55562,783.3378],[10.6877,61.47976,1116.4764],[10.85374,61.28117,911.1117],[10.77813,61.25879,730.3037],[10.74496,61.24078,846.2644],[10.73752,61.22799,921.273],[10.73157,61.2212,934.5763],[10.6399,61.14257,693.2304],[10.60419,61.11911,514.8433],[10.49681,61.06948,334.7541],[10.48642,61.06777,294.5309],[10.4751,61.06475,266.6489],[10.44808,61.05684,119.5],[10.4504,61.04666,119.5],[10.45913,61.03664,119.5],[10.51639,61.00449,119.5],[10.57644,60.98902,119.5],[10.60124,60.9784,119.5],[10.72997,60.88419,119.5],[10.73845,60.86853,119.5],[10.73447,60.85939,119.5],[10.71591,60.84347,119.5],[10.71111,60.835,119.5],[10.71312,60.82554,146.7318],[10.71917,60.81401,119.5],[10.72723,60.80433,119.5],[10.76738,60.78296,130.6822],[10.77999,60.77975,119.5],[10.78955,60.77887,126.5823],[10.8063,60.76771,119.5],[11.04768,60.68498,119.5],[11.12803,60.64749,119.5],[11.13134,60.64472,119.5],[11.14839,60.64152,119.5],[11.16369,60.62289,166.6622],[11.16397,60.62264,166.6622],[11.1871,60.60188,119.5],[11.19635,60.58788,119.5],[11.21526,60.57103,119.5],[11.22364,60.55705,119.5],[11.23077,60.54152,119.5],[11.23108,60.52331,119.5],[11.23728,60.51615,119.5],[11.24291,60.51269,137.4615],[11.28942,60.49946,372.5654],[11.30761,60.49145,366.2054],[11.35417,60.46132,370.4245],[11.38037,60.43078,501.2052],[11.39246,60.41083,497.014],[11.43158,60.3681,341.8622],[11.51147,60.31647,348.6828],[11.58274,60.28009,309.7766],[11.58785,60.26844,310.8343],[11.59033,60.25162,141.1646],[11.5771,60.21028,150.9458],[11.57963,60.18976,133.5734],[11.58568,60.1801,157.2271],[11.59576,60.17193,188.1211],[11.62335,60.1584,167.3394],[11.73756,60.11687,377.5722],[11.8189,60.07018,330.0058],[11.83998,60.06181,343.4137],[11.84215,60.05822,308.4442],[11.84448,60.04646,257.5334],[11.84215,60.02135,244.8029],[11.83859,60.01484,234.55],[11.83254,60.00636,252.2591],[11.83021,60.00228,255.5635],[11.82959,59.99773,226.7176],[11.84184,59.93386,205.922],[11.84789,59.91596,233.9532],[11.85554,59.90373,247.0746],[11.8636,59.89448,197.3816],[11.87383,59.88562,205.542],[11.87419,59.88531,202.4442],[11.87463,59.88494,187.3935],[11.89031,59.89278,223.7842],[11.9422,59.90203,214.5274],[12.1027,59.89397,184.1214],[12.14373,59.89841,236.7497],[12.2906,59.95872,226.1382],[12.44676,60.05112,255.5082],[12.48325,60.08124,302.3461],[12.51095,60.11799,322.9816],[12.52469,60.1617,380.8939],[12.52159,60.19762,415.3592],[12.49565,60.26201,295.1755],[12.48728,60.29591,232.3571],[12.49172,60.31229,340.1731],[12.50475,60.32562,459.7218],[12.55859,60.35988,384.248],[12.57792,60.3759,405.891],[12.59363,60.39502,295.5075],[12.60531,60.41916,425.4236],[12.61265,60.45538,405.3159],[12.60861,60.48649,369.7406],[12.59435,60.51494,427.1128],[12.48252,60.65733,523.4393],[12.377,60.7541,347.6239],[12.35003,60.79334,337.4389],[12.33504,60.8289,396.9876],[12.31323,60.90187,302.9994],[12.29484,60.93533,383.0657],[12.25608,60.98132,421.8059],[12.25329,61.0017,492.4976],[12.28099,61.01519,515.1932],[12.51177,61.04912,565.1877],[12.56965,61.05064,396.8788],[12.68251,61.04033,550.8377],[12.7038,61.0462,592.8276],[12.71083,61.05701,437.0258],[12.71352,61.06116,390.1001],[12.73295,61.12911,413.4902],[12.73915,61.14244,426.6213],[12.74669,61.15146,428.7007],[12.81966,61.20495,500.6031],[12.83982,61.22699,503.2749],[12.8547,61.25531,510.924],[12.88818,61.34962,870.6021],[12.88694,61.3615,749.578],[12.87713,61.37098,727.3981],[12.61378,61.54705,849.6727],[12.5834,61.5611,961.1689],[12.55094,61.56691,985.2256],[12.48252,61.56914,635.7177],[12.4448,61.5735,923.239],[12.41648,61.58229,964.5291],[12.33783,61.63298,786.8629],[12.29132,61.65112,873.4497],[12.17557,61.71153,911.5938],[12.16172,61.72484,932.143],[12.23959,61.97944,706.8573],[12.31747,62.23403,873.08],[12.31515,62.27176,921.9294],[12.31427,62.28612,800.697],[12.28636,62.33542,756.5815],[12.27952,62.34421,759.411],[12.27944,62.34421,759.411],[12.17097,62.33297,752.2809],[12.01222,62.36609,754.3524],[11.82293,62.38591,851.1221],[11.79466,62.37909,814.1769],[11.71926,62.36875,716.459]]]}
,"properties": {"ISO3166-1-Alpha-3": "NOR","country": "Norway","fill": "#F00","name": "Hedmark","area_km2": 27337.04,"hist_schema_id": "Elevation0-9000","hist_area_km2": {"125": 302.67,"150": 420.3,"175": 529.4,"200": 545.53,"225": 593.77,"250": 690.31,"275": 723.19,"300": 693.72,"325": 719.06,"350": 752.43,"375": 687.61,"400": 681.36,"425": 680.66,"450": 665.76,"475": 704.19,"500": 653.72,"525": 646.39,"550": 608.68,"575": 612.74,"600": 599.89,"625": 598.57,"650": 857.23,"675": 875.76,"700": 957.2,"725": 843.59,"750": 864.25,"775": 837.65,"800": 800.08,"825": 793.01,"850": 748.92,"875": 749.75,"900": 721.47,"925": 697.83,"950": 659.38,"975": 578.39,"1000": 526.22,"1025": 459.38,"1050": 401.98,"1075": 341.98,"1100": 282.8,"1125": 230.59,"1150": 184.23,"1175": 154.9,"1200": 120.54,"1225": 97.21,"1250": 76.98,"1275": 62.85,"1300": 51.75,"1325": 42.56,"1350": 38.02,"1375": 30.96,"1400": 25.49,"1425": 21.05,"1450": 17.95,"1475": 15.31,"1500": 12.06,"1525": 9.78,"1550": 7.68,"1575": 6.09,"1600": 5.51,"1625": 3.87,"1650": 2.91,"1675": 2.04,"1700": 1.62,"1725": 1.62,"1750": 1.28,"1775": 1.12,"1800": 0.78,"1825": 0.7,"1850": 0.66,"1875": 0.39,"1900": 0.34,"1925": 0.32,"1950": 0.34,"1975": 0.24}}}