{"type":"Feature","properties":{"GID_2":"NOR.2.7_1","GID_0":"NOR","country":"Norway","GID_1":"NOR.2_1","province":"Ãstfold","NL_NAME_1":"NA","county":"Hobøl","VARNAME_2":"NA","NL_NAME_2":"NA","TYPE_2":"Kommuner","ENGTYPE_2":"Municipality","CC_2":"NA","HASC_2":"NO.OF.HO","name":"Hobøl.county"},
"geometry":{"type": "MultiPolygon","coordinates": [[[[10.8557,59.591,75.0125],[10.8569,59.5866,90.5678],[10.8393,59.5854,50.8826],[10.8454,59.5631,67.8772],[10.7927,59.5594,53.8342],[10.7939,59.555,66.1186],[10.7764,59.5537,49.5588],[10.7776,59.5493,88.6799],[10.7688,59.5487,64.7795],[10.7713,59.5398,52.5767],[10.7801,59.5404,42.2401],[10.7825,59.5315,37.9854],[10.7737,59.5309,49.4257],[10.7786,59.5131,40.9396],[10.7874,59.5137,71.2067],[10.7886,59.5093,79.576],[10.7974,59.5099,67.3602],[10.7962,59.5143,73.7235],[10.805,59.515,56.7575],[10.8037,59.5194,64.1382],[10.8125,59.52,46.8791],[10.8113,59.5245,73.9606],[10.8201,59.5251,57.244],[10.8188,59.5295,79.534],[10.8364,59.5308,49.772],[10.8376,59.5263,55.1445],[10.8464,59.527,84.0154],[10.8476,59.5225,73.3383],[10.8915,59.5256,137.7645],[10.8903,59.5301,131.0317],[10.9342,59.5331,122.0009],[10.9693,59.5356,138.9034],[10.9705,59.5311,112.5157],[10.9969,59.533,124.7044],[10.9873,59.5685,179.4812],[10.9961,59.5691,210.3996],[10.9949,59.5736,211.8279],[11.0125,59.5748,203.8602],[11.0113,59.5792,245.7727],[11.0201,59.5799,158.4879],[11.0189,59.5843,156.5891],[11.0277,59.5849,164.7581],[11.0253,59.5938,142.1501],[11.0165,59.5932,135.3405],[11.0117,59.611,135.4231],[11.0293,59.6122,114.7828],[11.0281,59.6166,118.8938],[11.0457,59.6179,120.3232],[11.0409,59.6356,156.784],[11.0321,59.635,120.2565],[11.0285,59.6484,185.7788],[11.0462,59.6496,156.4689],[11.0426,59.6629,181.7277],[11.0337,59.6623,167.0092],[11.0349,59.6579,154.1766],[11.0261,59.6573,120.4835],[11.0213,59.6751,147.1906],[11.0566,59.6775,157.9681],[11.053,59.6908,154.5385],[11.0618,59.6914,198.4388],[11.0606,59.6959,176.0618],[11.0165,59.6928,221.7892],[11.0153,59.6973,194.486],[10.9977,59.6961,257.4484],[10.9965,59.7005,235.0507],[10.9788,59.6993,215.6498],[10.9776,59.7037,205.1036],[10.9688,59.7031,212.9855],[10.97,59.6987,212.953],[10.9523,59.6975,204.182],[10.9608,59.6663,163.9963],[10.9696,59.667,198.076],[10.9732,59.6536,147.3219],[10.9644,59.653,164.7983],[10.9656,59.6486,150.0579],[10.9568,59.6479,151.8752],[10.958,59.6435,135.4989],[10.9492,59.6429,152.7715],[10.9504,59.6384,122.5708],[10.9416,59.6378,112.9637],[10.9428,59.6334,84.664],[10.9164,59.6315,141.6696],[10.9176,59.6271,116.8813],[10.8912,59.6253,112.6728],[10.8924,59.6208,102.3565],[10.8836,59.6202,80.08],[10.886,59.6113,71.4787],[10.8772,59.6107,82.7522],[10.8797,59.6018,93.8153],[10.8709,59.6012,78.1792],[10.8721,59.5967,69.9638],[10.8633,59.5961,94.8569],[10.8645,59.5917,101.679],[10.8557,59.591,75.0125]]]]}}