{"type":"Feature","properties":{"featurecla":"Lake","scalerank":9,"name":"null564","name_abb":null,"name_alt":null,"note":"_untitled_176","delta":null,"dam_name":null,"year":-99,"admin":null,"min_zoom":7.0,"min_label":8.0},
"geometry":{"type": "Polygon","coordinates": [[[19.831168074673798,68.41416365712476,491.3542],[19.813211862918763,68.4238776733201,490.4763],[19.817627324825736,68.447426803490629,621.5933],[19.713422423821129,68.457435183813118,549.9792],[19.694583119684694,68.468621020644122,526.0959],[19.704591500007183,68.478040672712325,490.8981],[19.777299439408694,68.4954081562131,551.5346],[19.762581233052117,68.4954081562131,547.1694],[19.721958983507932,68.502767259391391,477.9111],[19.6675016199886,68.4954081562131,486.7523],[19.588612033917286,68.497763069230132,580.752],[19.353415096339091,68.5634062695805,1307.6256],[19.242734184537596,68.574886470538644,671.447],[19.009597795849317,68.632581839456435,769.9686],[19.070531170165566,68.609032709285913,879.9138],[19.103794316531435,68.600790513726224,635.6298],[19.146182750838392,68.595786323565,548.4858],[19.180917717839947,68.578418840064217,593.577],[19.183272630857005,68.575180834665787,598.8973],[19.184155723238376,68.570471008631671,608.8585],[19.186805000382577,68.5660555467247,604.2734],[19.194458467688008,68.5642893619619,581.824],[19.303078830599588,68.561345720690582,1280.6366],[19.340463074745315,68.5548697098937,1461.1274],[19.391093704611961,68.527199481943313,855.9456],[19.530916664999495,68.485399775890613,538.0],[19.665441071098655,68.465677379372778,710.4261],[19.729023722559106,68.447426803490629,576.051],[19.747568662568398,68.434769146023967,531.6069],[19.76287559717926,68.418873483158848,512.0871],[19.779359988298609,68.405332733310786,511.7334],[19.906525291219509,68.365004847893772,745.5212],[19.948030633145066,68.37236395107206,516.1439],[19.886214166447417,68.413574928870474,501.4278],[19.831168074673798,68.41416365712476,491.3542]]]}}