{"type": "Feature","bbox": [17.888,69.2891,20.0385,70.1042],"geometry": {"type": "MultiPolygon","coordinates": [[[[19.6453,69.3026,1001.5948],[19.6456,69.2891,630.0572],[19.6582,69.2891,783.3044],[19.6582,69.2936,869.4006],[19.6961,69.2937,618.9799],[19.6961,69.2982,547.7517],[19.7214,69.2982,1032.7125],[19.7213,69.3027,1091.9944],[19.734,69.3027,1216.1279],[19.7335,69.3433,692.8026],[19.7589,69.3433,486.8257],[19.7588,69.3523,707.6834],[19.7715,69.3524,865.1004],[19.7714,69.3659,1532.6041],[19.7968,69.3659,1012.287],[19.7967,69.3704,897.5086],[19.8221,69.3704,1002.2601],[19.8221,69.3749,1155.4246],[19.8602,69.375,800.2255],[19.8602,69.3795,1227.426],[19.8729,69.3795,1195.85],[19.8729,69.384,1263.307],[19.8856,69.384,845.0064],[19.8855,69.3975,999.3497],[19.8982,69.3975,719.2427],[19.8982,69.4065,1025.464],[19.8855,69.4065,1075.3936],[19.8854,69.4155,671.3566],[19.8727,69.4155,819.3323],[19.8726,69.4336,1469.604],[19.8853,69.4336,1307.3965],[19.8853,69.4426,782.4988],[19.898,69.4426,850.9062],[19.898,69.4471,679.079],[19.9108,69.4471,703.9498],[19.9107,69.4561,660.5184],[19.898,69.4561,686.2847],[19.8979,69.4651,1632.921],[19.8852,69.4651,1743.7881],[19.8851,69.4696,1767.6154],[19.8724,69.4696,1803.2241],[19.8723,69.4741,1455.4918],[19.8851,69.4741,1690.9937],[19.8851,69.4786,1538.3783],[19.8979,69.4786,1449.4995],[19.8978,69.4832,1273.7631],[19.9106,69.4832,1431.298],[19.9106,69.4922,1588.2423],[19.9233,69.4922,1531.9366],[19.9233,69.4967,1514.5106],[19.9361,69.4967,1281.4745],[19.9361,69.5057,1443.0216],[19.9489,69.5057,1051.0502],[19.9489,69.5102,909.9363],[19.9616,69.5102,787.2501],[19.9616,69.5147,702.2678],[19.9744,69.5147,746.4866],[19.9744,69.5237,707.4111],[19.9872,69.5237,681.6666],[19.9872,69.5283,700.1103],[20.0,69.5283,928.1895],[20.0,69.5328,992.3454],[20.0128,69.5328,1055.7059],[20.0128,69.5418,1230.6858],[20.0256,69.5418,924.7629],[20.0256,69.5553,585.231],[20.0384,69.5553,571.1361],[20.0384,69.5587,520.4277],[20.0339,69.562,486.8507],[20.0385,69.5625,509.891],[20.0385,69.565,509.103],[20.0354,69.5667,490.1505],[20.0276,69.5672,482.845],[20.0208,69.5708,754.4827],[20.013,69.5703,1001.2401],[20.0161,69.5682,1003.0329],[20.0151,69.5651,897.8779],[20.0182,69.563,802.232],[20.0083,69.5625,1013.5436],[19.9917,69.5708,995.0212],[19.9833,69.5687,1216.0885],[19.9771,69.5708,862.796],[19.9729,69.5687,849.5178],[19.9688,69.5708,630.4292],[19.9625,69.5708,441.8289],[19.9583,69.5729,357.5474],[19.9521,69.5729,480.614],[19.9458,69.575,477.0776],[19.9443,69.5734,555.0659],[19.9474,69.5714,631.7576],[19.9458,69.5708,776.7429],[19.9313,69.5708,861.162],[19.9297,69.5724,712.4704],[19.9354,69.5729,666.9218],[19.937,69.5745,559.279],[19.9292,69.575,802.2085],[19.925,69.5771,868.2444],[19.9083,69.5771,766.0578],[19.8984,69.5818,296.2472],[19.9,69.5833,280.334],[19.9057,69.5839,376.4538],[19.9078,69.5859,313.2315],[19.9047,69.5891,123.8299],[19.9099,69.5953,4.3819],[19.9042,69.5979,0.0],[19.8958,69.5958,13.732],[19.8813,69.6,0.0],[19.8708,69.6,22.8545],[19.8667,69.6021,0.0],[19.8583,69.6021,0.0],[19.8521,69.6,0.0],[19.8453,69.6036,0.0],[19.8375,69.6042,38.5232],[19.8333,69.6062,0.0],[19.8271,69.6042,33.0939],[19.8208,69.6042,9.7328],[19.8167,69.6062,0.0],[19.8026,69.6068,58.7906],[19.8036,69.6099,0.0],[19.8021,69.6104,0.0],[19.7833,69.6104,78.7258],[19.7792,69.6125,0.0],[19.7729,69.6104,28.1782],[19.7646,69.6104,2.4925],[19.7583,69.6062,35.868],[19.7375,69.6062,21.1116],[19.7313,69.6083,0.0],[19.7276,69.6036,0.0],[19.7307,69.6005,0.9277],[19.725,69.6,0.0],[19.7234,69.5984,0.0],[19.7328,69.5974,17.2918],[19.7318,69.5943,0.0],[19.7375,69.5917,0.0],[19.7438,69.5958,0.0],[19.7521,69.5958,0.0],[19.7536,69.5953,2.9244],[19.7526,69.5922,0.0],[19.7599,69.5891,19.8081],[19.7484,69.5766,0.0],[19.7484,69.5734,0.0],[19.7516,69.5714,37.4976],[19.7443,69.5703,0.0],[19.7396,69.5667,5.5928],[19.7339,69.5661,0.0],[19.7266,69.5589,26.9109],[19.713,69.5557,0.0],[19.7161,69.5537,0.0],[19.7151,69.5505,0.0],[19.7182,69.5495,0.0],[19.7172,69.5463,0.0],[19.7245,69.5432,15.5436],[19.7234,69.5401,0.0],[19.7307,69.537,0.0],[19.7411,69.5297,19.6584],[19.737,69.5255,15.928],[19.7318,69.5245,18.4931],[19.7245,69.5172,45.9795],[19.7172,69.5162,12.3254],[19.7078,69.5068,0.0],[19.6938,69.5083,5.0958],[19.6922,69.5068,7.5838],[19.6979,69.5042,0.0],[19.7057,69.5036,0.0],[19.7047,69.5005,0.0],[19.7104,69.4979,0.0],[19.737,69.4932,167.9779],[19.7339,69.4891,14.3293],[19.737,69.487,91.8334],[19.7349,69.4838,74.2418],[19.7188,69.4833,0.0],[19.7141,69.4797,0.0],[19.7068,69.4786,0.0],[19.7016,69.4734,0.0],[19.6901,69.4724,0.0],[19.6911,69.4693,9.4783],[19.6813,69.4688,0.0],[19.6766,69.4651,9.0008],[19.6693,69.4641,0.0],[19.6557,69.4484,28.3147],[19.6484,69.4474,0.0],[19.6443,69.4432,0.0],[19.6474,69.4401,1.5106],[19.6401,69.4391,0.0],[19.638,69.437,0.0],[19.6495,69.4307,1.8278],[19.6484,69.4276,0.0],[19.6557,69.4234,0.9291],[19.6458,69.4208,0.0],[19.6417,69.4229,0.0],[19.6354,69.4229,41.7792],[19.6297,69.4255,12.2797],[19.6307,69.4287,0.0],[19.6167,69.4292,52.6436],[19.6151,69.4297,69.924],[19.6161,69.4328,0.0],[19.6146,69.4333,4.1765],[19.5938,69.4313,0.0],[19.5839,69.4287,0.0],[19.5807,69.4255,26.4075],[19.5734,69.4245,0.0],[19.5688,69.4187,48.1227],[19.5625,69.4208,0.0],[19.5589,69.4203,0.0],[19.5536,69.4151,0.0],[19.5464,69.4141,0.0],[19.5411,69.4068,4.2706],[19.5339,69.4057,0.0],[19.5292,69.4021,0.0],[19.5234,69.4016,0.0],[19.5203,69.3984,6.0792],[19.5104,69.3979,0.0],[19.4979,69.3938,3.9755],[19.4943,69.3943,10.2865],[19.4984,69.3995,0.0],[19.5057,69.4005,0.0],[19.5172,69.4078,9.6812],[19.5245,69.4089,0.0],[19.5214,69.412,36.906],[19.5349,69.4151,0.0],[19.5422,69.4224,19.8164],[19.5495,69.4234,0.0],[19.5547,69.4287,0.0],[19.562,69.4297,0.0],[19.5589,69.4318,0.0],[19.5609,69.437,1.8617],[19.5766,69.4401,0.0],[19.5812,69.4437,10.6334],[19.5875,69.4417,0.0],[19.5911,69.4422,0.0],[19.5922,69.4453,0.0],[19.5995,69.4464,0.0],[19.6047,69.4516,48.095],[19.6203,69.4547,0.0],[19.6214,69.4578,4.9569],[19.6286,69.4589,0.0],[19.6339,69.4641,41.8849],[19.6495,69.4672,0.0],[19.6526,69.4703,0.0],[19.6578,69.4714,0.0],[19.6651,69.4786,0.0],[19.6724,69.4797,0.0],[19.6766,69.4838,0.0],[19.6682,69.4891,0.0],[19.65,69.4917,0.0],[19.6484,69.4922,0.0],[19.6495,69.4953,0.0],[19.6417,69.4958,3.4199],[19.6359,69.4984,36.197],[19.637,69.5016,0.0],[19.6339,69.5036,16.366],[19.637,69.5078,0.0],[19.6339,69.5089,14.8675],[19.6349,69.512,0.0],[19.6318,69.513,15.2632],[19.6349,69.5182,0.0],[19.6318,69.5203,0.0],[19.6453,69.5339,0.0],[19.6437,69.5396,0.0],[19.6484,69.5453,0.0],[19.6542,69.5458,0.0],[19.6589,69.5495,0.0],[19.6661,69.5505,0.0],[19.6755,69.562,6.7357],[19.6911,69.5651,0.0],[19.6932,69.5682,0.0],[19.6901,69.5703,17.2268],[19.6943,69.5745,15.6282],[19.7016,69.5755,0.0],[19.7,69.5771,0.0],[19.6922,69.5776,40.6931],[19.6932,69.5807,0.0],[19.6901,69.5828,19.6329],[19.6943,69.587,0.0],[19.6995,69.588,0.0],[19.7203,69.6088,0.0],[19.7089,69.6162,9.0922],[19.7141,69.6214,0.0],[19.7151,69.6245,8.8817],[19.7224,69.6255,0.0],[19.7318,69.6349,47.6357],[19.7391,69.6359,0.0],[19.7411,69.6391,0.0],[19.7339,69.6422,94.521],[19.7349,69.6453,0.0],[19.7333,69.6458,1.8209],[19.7234,69.6453,108.361],[19.7214,69.6422,168.9783],[19.7245,69.6401,255.3427],[19.7146,69.6396,372.9453],[19.713,69.6401,382.5862],[19.7141,69.6432,313.59],[19.6943,69.6526,107.9347],[19.6953,69.6557,18.2732],[19.6911,69.6578,7.8483],[19.6667,69.6583,2.9117],[19.6625,69.6604,0.0],[19.6547,69.6609,0.0],[19.6464,69.6661,0.0],[19.6505,69.6703,0.0],[19.6578,69.6713,0.0],[19.662,69.6755,0.0],[19.6589,69.6787,35.8862],[19.6661,69.6859,0.0],[19.6661,69.6891,0.0],[19.663,69.6911,23.7866],[19.6682,69.6964,0.0],[19.6651,69.6995,38.1937],[19.6755,69.7099,0.0],[19.6828,69.7109,0.0],[19.6797,69.7141,11.1807],[19.687,69.7151,0.0],[19.6891,69.7172,0.0],[19.6901,69.7203,0.0],[19.6974,69.7276,0.0],[19.6943,69.7307,37.2054],[19.7016,69.738,0.0],[19.6958,69.7417,7.7378],[19.688,69.7422,82.0091],[19.6911,69.7474,0.0],[19.6818,69.7484,30.3077],[19.6734,69.7536,7.6729],[19.6792,69.7583,26.88],[19.6875,69.7562,0.0],[19.6922,69.7599,0.0],[19.6995,69.7609,0.0],[19.7047,69.7682,8.2952],[19.712,69.7693,0.0],[19.7203,69.7776,35.4808],[19.7172,69.7807,16.5703],[19.7224,69.787,0.0],[19.7193,69.7891,31.321],[19.7266,69.7901,0.0],[19.7307,69.7943,0.0],[19.7276,69.7974,19.9441],[19.7307,69.8005,5.1333],[19.7307,69.8037,6.1939],[19.7245,69.8078,20.1756],[19.6875,69.8063,768.7409],[19.6833,69.8042,666.0696],[19.6734,69.8037,797.0482],[19.675,69.8021,809.2122],[19.6854,69.8021,546.9479],[19.6911,69.7995,622.0648],[19.6813,69.7958,945.8999],[19.6771,69.7979,1010.4705],[19.6693,69.7984,1018.6611],[19.6703,69.8016,954.9479],[19.6646,69.8042,874.1588],[19.6375,69.8042,341.7997],[19.6359,69.8026,383.063],[19.6453,69.8016,495.0004],[19.6443,69.7984,534.0053],[19.6474,69.7964,561.304],[19.6271,69.7979,718.5288],[19.6208,69.8,547.3862],[19.6167,69.7979,604.47],[19.6021,69.7979,410.9592],[19.5792,69.7896,476.4801],[19.5693,69.7901,127.1108],[19.5708,69.7917,169.3864],[19.5766,69.7922,277.2795],[19.5734,69.7943,111.1867],[19.5745,69.7974,39.3685],[19.5729,69.7979,24.7152],[19.5646,69.7979,0.0],[19.5604,69.7958,4.6522],[19.5458,69.8,0.0],[19.5313,69.8,0.0],[19.525,69.7958,108.8338],[19.5167,69.7979,3.5748],[19.5125,69.7958,29.1572],[19.4979,69.7958,0.0],[19.4771,69.7896,27.2149],[19.4667,69.7896,0.0],[19.462,69.7859,27.9282],[19.4568,69.7849,8.0828],[19.4599,69.7828,138.009],[19.4583,69.7813,151.7681],[19.4521,69.7833,29.523],[19.4458,69.7833,1.9332],[19.4417,69.7854,0.0],[19.4208,69.7854,0.0],[19.4161,69.7818,14.5789],[19.4,69.7771,0.0],[19.3917,69.7771,0.0],[19.3854,69.7792,0.0],[19.3729,69.775,10.4498],[19.3417,69.775,12.6753],[19.3375,69.7771,0.0],[19.325,69.7771,7.9283],[19.3208,69.7792,2.4702],[19.3125,69.7792,0.0],[19.3083,69.7771,0.0],[19.3,69.7771,0.0],[19.2938,69.775,4.0529],[19.2896,69.7771,0.0],[19.2771,69.7771,4.2289],[19.2708,69.7792,0.0],[19.2609,69.7766,0.0],[19.2578,69.7734,42.5553],[19.2443,69.7703,55.4626],[19.2396,69.7667,232.0508],[19.2292,69.7667,175.1662],[19.2167,69.7625,224.711],[19.2104,69.7625,150.2679],[19.2042,69.7646,1.7584],[19.1943,69.762,1.5019],[19.1922,69.7589,0.0],[19.1953,69.7568,32.7133],[19.1896,69.7562,7.9712],[19.1849,69.7526,6.5683],[19.1776,69.7516,0.0],[19.1766,69.7484,0.0],[19.1708,69.7438,0.0],[19.1625,69.7458,0.0],[19.1583,69.7438,0.0],[19.1437,69.7438,0.0],[19.1354,69.7479,0.0],[19.1292,69.7479,0.0],[19.1245,69.7443,19.4193],[19.1172,69.7432,0.0],[19.1141,69.7401,1.7272],[19.1068,69.7391,0.0],[19.1036,69.7359,1.6596],[19.0964,69.7349,0.0],[19.0943,69.7297,0.0],[19.0974,69.7276,8.3685],[19.0859,69.7161,0.0],[19.0891,69.7141,0.0],[19.0859,69.7089,0.0],[19.0891,69.7068,5.9871],[19.0797,69.7016,0.0],[19.0828,69.6984,17.7367],[19.0786,69.6943,13.0076],[19.0714,69.6932,0.0],[19.0693,69.6911,0.0],[19.0724,69.6891,8.2572],[19.0703,69.6859,13.9638],[19.0589,69.6849,0.0],[19.062,69.6818,13.5508],[19.0547,69.6807,0.0],[19.05,69.6771,7.5685],[19.0359,69.6745,0.0],[19.0328,69.6693,16.4928],[19.0255,69.6682,6.7194],[19.0208,69.6646,8.2829],[19.0151,69.6641,0.0],[19.0057,69.6526,0.0],[18.9938,69.6521,3.9693],[18.9839,69.6495,15.1732],[18.9786,69.6422,5.3406],[18.9714,69.6412,4.0219],[18.9667,69.6375,6.2918],[18.9609,69.637,0.0],[18.9557,69.6297,21.2825],[18.9484,69.6286,0.0],[18.9359,69.6162,0.0],[18.9396,69.6125,13.3469],[18.9359,69.6078,1.7787],[18.9391,69.6047,32.2611],[18.9339,69.5984,0.0],[18.937,69.5974,6.9388],[18.9359,69.5943,0.0],[18.9391,69.5932,26.3039],[18.938,69.5901,0.0],[18.9411,69.5891,36.9151],[18.938,69.5839,0.0],[18.9411,69.5818,8.8576],[18.9359,69.5807,0.0],[18.9391,69.5787,0.0],[18.938,69.5755,0.0],[18.9411,69.5745,8.5661],[18.938,69.5693,0.0],[18.9411,69.5672,1.7772],[18.938,69.563,0.0],[18.9411,69.562,0.0],[18.9401,69.5589,0.0],[18.9479,69.5583,0.0],[18.9578,69.5537,5.972],[18.9562,69.5521,0.0],[18.9505,69.5516,0.0],[18.9484,69.5484,0.0],[18.9578,69.5474,0.0],[18.9568,69.5443,0.0],[18.9599,69.5432,0.0],[18.9589,69.5401,0.0],[18.9604,69.5396,0.0],[18.9729,69.5396,10.9506],[18.9771,69.5375,0.0],[18.9833,69.5375,0.0],[18.9917,69.5333,0.0],[18.9995,69.5328,10.7461],[18.9984,69.5297,0.0],[19.0,69.5292,0.0],[19.0187,69.5292,0.0],[19.0255,69.5349,19.0704],[19.0328,69.5359,0.0],[19.0391,69.5422,0.0],[19.0391,69.5453,0.0],[19.0359,69.5474,49.4756],[19.0432,69.5484,0.0],[19.0479,69.5521,0.0],[19.0521,69.5521,0.0],[19.0646,69.5563,10.8064],[19.0854,69.5563,0.0],[19.0917,69.5583,13.4619],[19.0979,69.5563,0.0],[19.1083,69.5604,19.1224],[19.1146,69.5583,0.0],[19.1229,69.5604,0.0],[19.1292,69.5583,0.0],[19.1333,69.5604,0.0],[19.1479,69.5604,0.0],[19.1526,69.5641,0.0],[19.1599,69.5651,0.0],[19.1651,69.5703,0.0],[19.1792,69.5708,0.0],[19.1807,69.5703,0.0],[19.1807,69.5672,0.0],[19.1755,69.5609,0.0],[19.187,69.5557,7.0982],[19.1859,69.5526,0.0],[19.1932,69.5495,0.0],[19.1922,69.5463,0.0],[19.2016,69.5453,0.0],[19.2057,69.5432,8.1239],[19.2047,69.5401,0.0],[19.2125,69.5396,21.5388],[19.2182,69.537,0.0],[19.2214,69.5339,0.0],[19.237,69.5266,0.0],[19.2359,69.5234,0.0],[19.2453,69.5224,12.5602],[19.2443,69.5193,0.0],[19.2474,69.5182,0.0],[19.2458,69.5167,4.5596],[19.2318,69.5172,0.0],[19.2276,69.5193,0.0],[19.2286,69.5224,0.0],[19.2245,69.5245,0.0],[19.2151,69.5255,20.4625],[19.2161,69.5286,0.0],[19.212,69.5307,0.0],[19.2026,69.5318,15.0522],[19.1807,69.5432,0.0],[19.1714,69.5443,28.542],[19.1724,69.5474,0.0],[19.1693,69.5484,5.9871],[19.1703,69.5516,0.0],[19.1688,69.5521,0.0],[19.1521,69.5542,0.0],[19.1479,69.5521,43.184],[19.1396,69.5521,29.2372],[19.1333,69.5542,0.0],[19.1234,69.5505,16.4201],[19.1292,69.5479,165.1806],[19.1479,69.5479,187.0029],[19.1495,69.5463,203.4771],[19.1021,69.5458,273.5677],[19.0979,69.5437,337.3163],[19.0917,69.5458,220.9021],[19.0833,69.5437,212.981],[19.0792,69.5458,61.0561],[19.0729,69.5458,0.0],[19.0557,69.5297,5.2198],[19.0422,69.5266,0.0],[19.0391,69.5234,12.6336],[19.0292,69.5208,0.0],[19.0047,69.5182,0.0],[19.0005,69.5141,0.0],[19.0036,69.5109,0.0],[18.9984,69.5099,9.6894],[18.9901,69.5016,0.0],[18.9932,69.4995,0.0],[18.9922,69.4964,0.0],[18.9953,69.4953,0.0],[18.9922,69.4901,0.0],[18.9949,69.4892,0.0],[19.002,69.4941,75.3755],[19.0161,69.4941,332.3293],[19.0169,69.476,390.2249],[19.0297,69.4761,386.2784],[19.0301,69.4671,313.922],[19.0428,69.4672,427.7975],[19.043,69.4627,396.4437],[19.0558,69.4627,466.5535],[19.056,69.4582,479.2598],[19.0687,69.4583,540.5204],[19.0691,69.4493,500.3393],[19.0819,69.4493,581.7667],[19.0821,69.4448,545.1556],[19.0948,69.4449,669.071],[19.095,69.4404,651.103],[19.1077,69.4404,784.3948],[19.1079,69.4359,757.6769],[19.1207,69.436,766.8322],[19.1209,69.4315,771.3363],[19.1336,69.4316,516.3054],[19.1338,69.427,657.7883],[19.1465,69.4271,409.0943],[19.1467,69.4226,511.0994],[19.1594,69.4227,643.7977],[19.1596,69.4182,649.6447],[19.1851,69.4183,953.7877],[19.1852,69.4138,959.4701],[19.2107,69.4139,877.2204],[19.2105,69.4184,834.8949],[19.2233,69.4184,1157.306],[19.2229,69.4275,541.8864],[19.2102,69.4274,657.4587],[19.2099,69.4364,287.0643],[19.2354,69.4365,151.0441],[19.2352,69.441,90.474],[19.2479,69.4411,138.305],[19.2478,69.4456,210.6488],[19.2733,69.4457,634.4966],[19.2731,69.4502,843.8477],[19.2859,69.4502,915.7284],[19.2857,69.4548,938.8344],[19.3623,69.455,1192.6772],[19.3624,69.4505,994.9233],[19.3751,69.4506,891.9592],[19.3754,69.4416,1135.3906],[19.3881,69.4416,892.646],[19.3883,69.4371,918.4631],[19.3755,69.4371,965.8729],[19.3757,69.4325,818.0053],[19.3502,69.4324,1019.3756],[19.3504,69.4234,1058.3129],[19.3377,69.4234,681.6198],[19.338,69.4144,734.5524],[19.3253,69.4143,732.7415],[19.3254,69.4098,903.0367],[19.3381,69.4099,795.7098],[19.3383,69.4054,521.5236],[19.3637,69.4055,671.9127],[19.3638,69.401,410.9557],[19.3893,69.401,538.4829],[19.3894,69.3965,252.119],[19.4021,69.3966,277.0123],[19.4023,69.3921,113.6045],[19.415,69.3921,99.084],[19.4152,69.3831,34.5305],[19.4279,69.3831,70.0219],[19.428,69.3786,211.8537],[19.4407,69.3787,252.6441],[19.441,69.3697,488.8963],[19.4537,69.3697,516.6495],[19.4538,69.3652,757.8401],[19.4665,69.3652,858.1204],[19.4667,69.3562,890.386],[19.4794,69.3563,1129.5449],[19.4795,69.3517,1078.1152],[19.5049,69.3518,955.9819],[19.5048,69.3563,680.6372],[19.5175,69.3564,882.2714],[19.5174,69.3609,1003.2448],[19.5301,69.3609,1155.4689],[19.53,69.3654,936.8442],[19.5554,69.3655,704.7496],[19.5555,69.361,631.3161],[19.5809,69.361,695.1297],[19.5813,69.3385,46.625],[19.5686,69.3385,61.0339],[19.5688,69.3294,86.5954],[19.6069,69.3295,498.3533],[19.6069,69.325,513.9985],[19.6323,69.3251,758.7977],[19.6324,69.3206,1031.0278],[19.6451,69.3206,1124.1158],[19.6453,69.3026,1001.5948]]],
[[[20.0328,69.5745,304.0394],[20.0385,69.5732,330.3444],[20.0359,69.5766,157.6159],[20.0385,69.5771,117.3274],[20.0385,69.5823,10.6573],[20.0214,69.5807,42.0565],[20.0229,69.5792,107.0968],[20.0307,69.5787,116.6323],[20.0297,69.5755,245.778],[20.0328,69.5745,304.0394]]],
[[[19.9625,69.5854,21.2143],[19.9521,69.5854,58.0479],[19.9479,69.5875,0.0],[19.938,69.587,104.3025],[19.9396,69.5854,150.339],[19.9474,69.5849,83.6865],[19.9542,69.5813,133.8179],[19.9667,69.5813,72.9588],[19.9708,69.5792,154.4492],[19.9745,69.5818,50.2539],[19.9688,69.5854,0.0],[19.9625,69.5854,21.2143]]],
[[[19.9286,69.5911,6.8781],[19.925,69.5917,8.553],[19.9234,69.5901,43.0247],[19.9271,69.5896,35.0083],[19.9286,69.5911,6.8781]]],
[[[18.877,69.4662,116.9777],[18.8897,69.4663,118.2231],[18.8895,69.4708,80.9234],[18.903199999999998,69.4709,19.1693],[18.9036,69.4724,0.0],[18.9005,69.4734,10.8989],[18.9016,69.4766,0.0],[18.8984,69.4776,1.8652],[18.8995,69.4807,0.0],[18.8964,69.4818,0.7777],[18.8995,69.487,0.0],[18.8964,69.488,0.0],[18.8974,69.4912,0.0],[18.8958,69.4917,0.0],[18.8812,69.4917,0.0],[18.8625,69.4854,9.894],[18.8542,69.4854,0.0],[18.85,69.4875,0.0],[18.8422,69.488,0.0],[18.8432,69.4912,0.0],[18.8401,69.4932,0.0],[18.8422,69.4953,0.0],[18.8536,69.4964,0.0],[18.8589,69.5016,0.0],[18.8661,69.5026,0.0],[18.8724,69.5089,0.0],[18.8724,69.512,0.0],[18.8667,69.5167,0.0],[18.8672,69.5182,0.0],[18.8745,69.5193,0.0],[18.8766,69.5224,0.0],[18.8734,69.5234,0.0],[18.8745,69.5266,0.0],[18.8672,69.5297,0.0],[18.8682,69.5328,0.0],[18.8651,69.5349,0.0],[18.8682,69.5391,0.0],[18.8609,69.5422,0.0],[18.862,69.5453,0.0],[18.8547,69.5484,0.0],[18.8557,69.5537,0.0],[18.8333,69.5625,0.0],[18.8188,69.5625,0.0],[18.8089,69.5599,0.0],[18.8068,69.5568,0.0],[18.8099,69.5547,0.0],[18.7984,69.5537,0.0],[18.7932,69.5484,0.0],[18.7875,69.5479,0.0],[18.7771,69.5437,4.3313],[18.75,69.5437,16.1261],[18.7484,69.5453,0.0],[18.7536,69.5516,0.0],[18.7458,69.5521,9.8672],[18.7417,69.5542,0.0],[18.7354,69.5521,27.7852],[18.7146,69.5521,0.0],[18.7104,69.55,26.652],[18.7,69.55,0.0],[18.6984,69.5484,0.0],[18.7083,69.5437,0.0],[18.7229,69.5437,0.0],[18.7292,69.5458,7.649],[18.7349,69.5422,18.9655],[18.7042,69.5417,0.0],[18.7,69.5396,0.0],[18.6854,69.5396,0.0],[18.6729,69.5354,5.6011],[18.6396,69.5354,0.0],[18.6354,69.5333,19.4741],[18.6292,69.5354,0.0],[18.6104,69.5354,0.0],[18.5922,69.5307,0.0],[18.5901,69.5266,20.2369],[18.5917,69.525,82.5547],[18.6042,69.525,235.8501],[18.6042,69.5229,330.4318],[18.6083,69.5229,334.4918],[18.6208,69.5271,161.6163],[18.6313,69.5271,138.2781],[18.6354,69.5292,95.1868],[18.6417,69.5292,82.1997],[18.6578,69.5245,243.9086],[18.6547,69.5203,455.3481],[18.6578,69.5182,487.9975],[18.6563,69.5167,607.6182],[18.6354,69.5146,1022.7849],[18.6292,69.5167,787.96],[18.6229,69.5125,935.6853],[18.5979,69.5125,850.7744],[18.5938,69.5146,695.4403],[18.5797,69.5151,555.5358],[18.5812,69.5167,501.108],[18.5953,69.5193,433.1556],[18.5938,69.5208,375.8143],[18.5521,69.5208,100.964],[18.5458,69.5229,0.0],[18.5359,69.5203,0.0],[18.5333,69.5167,32.6681],[18.5354,69.5146,87.8626],[18.5474,69.5141,66.9809],[18.5464,69.5109,213.7842],[18.5495,69.5089,272.0494],[18.5375,69.5104,310.7769],[18.5292,69.5146,175.9543],[18.5208,69.5146,140.2479],[18.5109,69.512,337.7003],[18.5089,69.5089,392.6245],[18.512,69.5068,472.8416],[18.5042,69.5042,799.3497],[18.517,69.5042,427.9452],[18.5173,69.4997,646.5562],[18.5301,69.4998,597.4514],[18.5304,69.4953,754.6904],[18.5559,69.4955,382.3293],[18.5562,69.491,413.9351],[18.5818,69.4912,433.4667],[18.5821,69.4867,750.543],[18.6076,69.4869,310.6429],[18.6079,69.4824,307.6502],[18.659,69.4828,500.6771],[18.6592,69.4783,380.3757],[18.6848,69.4785,297.3253],[18.6864,69.4514,608.9309],[18.6991,69.4515,614.0483],[18.6994,69.447,714.9645],[18.7377,69.4473,161.8848],[18.7374,69.4518,184.3858],[18.7756,69.452,183.4917],[18.7754,69.4566,286.3921],[18.8137,69.4568,197.6869],[18.8134,69.4613,242.3025],[18.8517,69.4615,182.0791],[18.8514,69.4661,109.6837],[18.877,69.4662,116.9777]]],
[[[18.6036,69.5224,330.4318],[18.6,69.5229,324.5881],[18.5984,69.5214,350.9015],[18.6042,69.5208,380.0584],[18.6036,69.5224,330.4318]]],
[[[18.5474,69.6849,315.541],[18.5438,69.6854,346.3378],[18.5422,69.6839,420.0437],[18.5458,69.6833,390.355],[18.5474,69.6849,315.541]]],
[[[18.5599,69.6849,494.26],[18.5563,69.6854,370.7859],[18.5547,69.6839,314.9106],[18.5583,69.6833,446.1185],[18.5599,69.6849,494.26]]],
[[[18.8563,69.6375,0.0],[18.8438,69.6417,0.0],[18.8401,69.6412,0.0],[18.838,69.6391,0.0],[18.8411,69.637,0.0],[18.8401,69.6339,0.0],[18.85,69.6292,5.0065],[18.8536,69.6297,6.011],[18.8557,69.6318,0.0],[18.8526,69.6349,0.0],[18.8578,69.6359,0.0],[18.8563,69.6375,0.0]]],
[[[19.7141,69.6495,84.7517],[19.7104,69.65,80.5142],[19.7089,69.6484,165.6198],[19.7125,69.6479,91.8558],[19.7141,69.6495,84.7517]]],
[[[18.8286,69.6568,0.0],[18.837,69.6661,0.0],[18.8312,69.6687,4.091],[18.8104,69.6687,0.4728],[18.8057,69.6651,0.0],[18.7979,69.6625,5.8807],[18.7771,69.6625,0.0],[18.7708,69.6646,0.8731],[18.7672,69.662,0.0],[18.7703,69.6599,0.0],[18.7693,69.6547,0.0],[18.7917,69.6458,0.0],[18.8,69.6458,0.0],[18.8042,69.6479,2.9132],[18.8146,69.6479,0.0],[18.8188,69.65,1.1461],[18.8229,69.65,0.0],[18.8286,69.6568,0.0]]],
[[[18.9828,69.6734,0.0],[18.9797,69.6766,3.4125],[18.9896,69.6771,0.0],[18.9943,69.6807,2.6804],[19.0016,69.6818,1.5997],[19.0078,69.688,9.715],[19.0089,69.6911,4.3059],[19.0161,69.6922,2.7075],[19.0203,69.6964,2.3813],[19.0172,69.6995,7.0897],[19.0224,69.7047,0.0],[19.0193,69.7068,0.0],[19.0203,69.7099,0.0],[19.0083,69.7146,0.0],[18.9875,69.7083,40.3062],[18.9776,69.7078,0.0],[18.9667,69.6979,7.957],[18.9396,69.6979,5.5922],[18.9214,69.6932,0.0],[18.9167,69.6896,0.0],[18.9083,69.6896,0.0],[18.9036,69.6859,2.4494],[18.8964,69.6849,0.0],[18.8995,69.6818,0.0],[18.8964,69.6776,0.0],[18.9042,69.6771,7.3833],[18.9099,69.6745,5.8927],[18.9089,69.6713,1.6326],[18.912,69.6693,4.6466],[18.9063,69.6625,0.0],[18.9099,69.6589,12.0951],[18.9078,69.6568,8.6398],[18.9005,69.6557,0.0],[18.8984,69.6536,0.0],[18.9016,69.6505,4.6889],[18.8964,69.6453,0.0],[18.8995,69.6422,1.5519],[18.8964,69.638,0.0],[18.8995,69.637,0.0],[18.9005,69.6339,0.0],[18.9078,69.6328,10.4885],[18.9089,69.6297,0.0],[18.9146,69.6271,6.6263],[18.9193,69.6307,6.7647],[18.9266,69.6318,3.7781],[18.9318,69.637,6.7707],[18.9391,69.638,0.0],[18.9422,69.6432,15.1874],[18.9495,69.6443,3.711],[18.9547,69.6495,16.7599],[18.962,69.6505,0.0],[18.9682,69.6589,6.5734],[18.9651,69.662,19.0529],[18.9755,69.6724,3.1448],[18.9828,69.6734,0.0]]],
[[[18.7292,69.8667,0.0],[18.6974,69.8828,4.8698],[18.6938,69.8833,0.0],[18.6891,69.8797,19.1296],[18.6839,69.8786,59.2877],[18.6807,69.8755,0.0],[18.6734,69.8745,0.0],[18.6714,69.8724,0.0],[18.6807,69.8693,195.1253],[18.6708,69.8667,217.3313],[18.6625,69.8688,0.0],[18.6589,69.8662,76.337],[18.6578,69.863,147.195],[18.6458,69.8625,12.5371],[18.6422,69.8588,0.0],[18.6495,69.8557,41.5468],[18.6464,69.8505,0.0],[18.6495,69.8495,8.5816],[18.6484,69.8464,0.0],[18.6516,69.8453,0.0],[18.6505,69.8422,0.0],[18.6688,69.8396,0.0],[18.6745,69.837,0.0],[18.6729,69.8354,0.0],[18.663,69.8349,2.2724],[18.6661,69.8318,108.0593],[18.6604,69.8313,0.0],[18.6589,69.8297,8.1697],[18.6755,69.8214,0.0],[18.6849,69.8203,16.7843],[18.6958,69.8146,7.1604],[18.7021,69.8146,46.9709],[18.7062,69.8125,0.0],[18.7245,69.8099,21.7324],[18.7328,69.8057,7.6393],[18.7318,69.8026,40.8753],[18.7333,69.8021,45.9687],[18.7438,69.8021,50.2514],[18.7479,69.8,0.0],[18.7729,69.8,0.0],[18.7786,69.7974,54.7835],[18.7771,69.7958,89.3894],[18.7714,69.7953,0.0],[18.7672,69.7911,0.0],[18.7714,69.788,0.0],[18.7766,69.787,0.0],[18.775,69.7854,26.1072],[18.7604,69.7854,44.4819],[18.7563,69.7875,9.0514],[18.7479,69.7875,14.8455],[18.7417,69.7854,69.4228],[18.7354,69.7875,3.1428],[18.7318,69.7839,1.6752],[18.7375,69.7813,0.0],[18.7578,69.7807,0.0],[18.7547,69.7766,7.4608],[18.7563,69.775,30.2819],[18.775,69.775,47.306399999999996],[18.7896,69.7708,199.0114],[18.8036,69.7703,111.642],[18.8021,69.7688,144.9159],[18.7438,69.7688,399.0876],[18.7375,69.7667,403.4433],[18.7359,69.7672,324.6816],[18.737,69.7703,313.7251],[18.7313,69.7729,140.3891],[18.7229,69.7729,13.2585],[18.7193,69.7703,0.0],[18.7224,69.7672,70.6664],[18.7151,69.7578,0.0],[18.7182,69.7547,4.5228],[18.7068,69.7432,0.0],[18.7047,69.7391,0.0],[18.7078,69.7359,60.1265],[18.7047,69.7318,9.39],[18.7078,69.7297,22.2285],[18.7005,69.7224,0.0],[18.7036,69.7203,0.0],[18.7016,69.7151,0.0],[18.6974,69.7109,52.4428],[18.6901,69.7099,0.0],[18.6932,69.7068,139.5428],[18.6797,69.7057,0.0],[18.6776,69.7005,0.0],[18.6807,69.6995,0.0],[18.6797,69.6964,0.0],[18.6813,69.6958,0.0],[18.6875,69.6958,25.7632],[18.6958,69.6917,0.0],[18.7062,69.6917,34.7729],[18.7104,69.6896,0.0],[18.7167,69.6896,4.4585],[18.7234,69.6859,0.0],[18.7313,69.6854,3.4004],[18.7328,69.6839,0.0],[18.7229,69.6833,0.0],[18.7167,69.6813,21.7333],[18.7083,69.6854,0.0],[18.7,69.6854,0.0],[18.6938,69.6833,9.109],[18.6896,69.6854,7.8968],[18.6813,69.6854,37.6524],[18.6797,69.6839,80.956],[18.6828,69.6818,198.7806],[18.6729,69.6813,182.2067],[18.6714,69.6818,182.2067],[18.6724,69.6849,40.087],[18.6708,69.6854,31.5883],[18.6542,69.6854,6.2841],[18.6443,69.6901,32.5439],[18.6458,69.6937,0.0],[18.6422,69.6974,0.0],[18.6578,69.7141,0.0],[18.6505,69.7193,23.0641],[18.6516,69.7224,0.0],[18.6443,69.7255,0.0],[18.6453,69.7286,0.0],[18.6422,69.7297,0.0],[18.6432,69.7328,0.0],[18.6401,69.7338,6.7573],[18.6432,69.738,0.0],[18.6401,69.7401,22.7285],[18.6411,69.7432,1.7876],[18.6297,69.7484,15.2851],[18.6307,69.7516,0.0],[18.6188,69.7562,0.0],[18.613,69.7568,26.112],[18.6146,69.7583,0.0],[18.6229,69.7583,0.0],[18.6271,69.7604,18.7637],[18.6333,69.7583,0.0],[18.6417,69.7583,0.0],[18.6474,69.763,3.523],[18.6359,69.7693,3.0924],[18.638,69.7745,0.0],[18.6453,69.7818,0.0],[18.6422,69.7849,6.8243],[18.6516,69.7963,0.0],[18.6443,69.8005,24.1737],[18.6453,69.8037,0.0],[18.6437,69.8042,0.0],[18.6292,69.8042,10.5407],[18.625,69.8021,105.6802],[18.6167,69.8021,7.5341],[18.6151,69.8005,83.0747],[18.6182,69.7995,172.1211],[18.6167,69.7979,244.4467],[18.6104,69.8,159.9157],[18.6042,69.8,204.6412],[18.6,69.8021,103.546],[18.5854,69.8021,87.0233],[18.5812,69.7979,231.1721],[18.5833,69.7958,302.0541],[18.5896,69.7958,332.2735],[18.5958,69.7979,284.7248],[18.6016,69.7953,401.9915],[18.6,69.7937,487.1037],[18.5521,69.7917,318.3017],[18.5479,69.7896,420.9751],[18.5339,69.7911,42.3572],[18.5297,69.7859,0.0],[18.5328,69.7849,0.0],[18.5318,69.7818,0.0],[18.5349,69.7797,0.0],[18.5286,69.7734,90.3449],[18.5172,69.7724,8.0427],[18.5151,69.7693,0.0],[18.5182,69.7672,40.8416],[18.5109,69.7662,0.0],[18.5036,69.7589,0.0],[18.4984,69.7578,0.0],[18.4964,69.7557,0.0],[18.4995,69.7536,0.0],[18.4964,69.7484,0.0],[18.4995,69.7464,15.5088],[18.4922,69.7453,0.0],[18.4891,69.7401,0.0],[18.4818,69.7391,14.169],[18.4849,69.737,26.8089],[18.4839,69.7338,56.3597],[18.4854,69.7333,95.6462],[18.4917,69.7354,28.215],[18.5063,69.7354,150.9351],[18.5125,69.7375,240.8286],[18.5271,69.7333,500.202],[18.5333,69.7333,581.1606],[18.5391,69.7307,737.708],[18.5375,69.7292,808.0302],[18.5292,69.7292,757.5135],[18.525,69.7312,650.041],[18.5063,69.7312,403.3535],[18.5,69.7292,291.1389],[18.4958,69.7312,173.9905],[18.4922,69.7307,178.0964],[18.5021,69.725,363.0],[18.5187,69.7229,453.8133],[18.5245,69.7203,765.0274],[18.5146,69.7167,765.0228],[18.4938,69.7167,523.6176],[18.4839,69.7193,728.8602],[18.4755,69.7234,705.9369],[18.4745,69.7266,578.3937],[18.4703,69.7286,545.2447],[18.4625,69.7271,637.547],[18.4609,69.7276,660.5767],[18.462,69.7307,577.3078],[18.4526,69.7318,614.6199],[18.4542,69.7333,636.782],[18.4641,69.7338,350.7688],[18.4703,69.7401,86.3683],[18.4672,69.7432,198.3231],[18.4745,69.7443,19.835],[18.4766,69.7464,5.3172],[18.4693,69.7536,147.0576],[18.4766,69.7547,28.1735],[18.4786,69.7578,12.0345],[18.4729,69.7604,132.1212],[18.4438,69.7604,736.6173],[18.438,69.7662,360.1674],[18.4479,69.7688,235.1847],[18.4625,69.7688,274.243],[18.475,69.7625,61.7287],[18.4833,69.7625,0.0],[18.4849,69.7641,0.0],[18.4818,69.7651,0.0],[18.4828,69.7703,0.0],[18.4797,69.7714,0.0],[18.4807,69.7745,2.3977],[18.4708,69.7792,32.9482],[18.4521,69.7813,0.0],[18.4417,69.7771,19.3728],[18.4313,69.7771,0.0],[18.4167,69.7729,10.4861],[18.4005,69.7776,0.0],[18.4078,69.787,0.0],[18.4,69.7875,58.3774],[18.3917,69.7917,5.8766],[18.3708,69.7917,47.7854],[18.363,69.7828,393.4695],[18.3661,69.7807,342.5182],[18.3646,69.7792,440.6198],[18.3563,69.7792,572.4394],[18.3521,69.7813,393.5731],[18.3333,69.7813,130.4975],[18.3271,69.7771,296.0868],[18.3042,69.7771,0.0],[18.3005,69.7745,0.0],[18.2984,69.7693,0.0],[18.3016,69.7682,0.0],[18.3005,69.7651,0.0],[18.3036,69.7641,0.0],[18.3026,69.7609,0.0],[18.3099,69.7578,34.8945],[18.3089,69.7547,4.4628],[18.312,69.7536,20.4982],[18.3109,69.7484,0.0],[18.3182,69.7453,82.088],[18.3172,69.7422,20.1508],[18.3203,69.7412,22.9233],[18.3193,69.738,0.0],[18.3224,69.737,0.0],[18.3193,69.7318,0.0],[18.3224,69.7307,19.4871],[18.3214,69.7276,20.7624],[18.3245,69.7266,112.9189],[18.3234,69.7214,119.0679],[18.3266,69.7193,201.5619],[18.3214,69.713,0.0],[18.3292,69.7125,2.0654],[18.3333,69.7104,0.0],[18.3583,69.7104,0.0],[18.3625,69.7125,9.9299],[18.3771,69.7125,0.0],[18.3833,69.7104,0.0],[18.3875,69.7125,14.944],[18.4063,69.7125,13.3897],[18.4125,69.7104,0.0],[18.4167,69.7125,8.5174],[18.425,69.7125,9.2096],[18.4313,69.7104,0.0],[18.4375,69.7125,48.4091],[18.4417,69.7104,0.0],[18.4542,69.7104,0.0],[18.4625,69.7063,0.0],[18.4667,69.7083,49.4333],[18.4875,69.7083,0.0],[18.4938,69.7063,0.0],[18.5063,69.7104,62.706],[18.5125,69.7083,0.0],[18.5187,69.7104,52.3341],[18.525,69.7083,0.0],[18.5313,69.7104,75.3408],[18.5354,69.7083,0.0],[18.5479,69.7083,22.1349],[18.5625,69.7042,0.0],[18.5688,69.7042,0.0],[18.5729,69.7021,0.0],[18.6125,69.7,0.0],[18.6141,69.6995,0.0],[18.613,69.6964,0.0],[18.6161,69.6943,0.0],[18.6141,69.6922,3.2347],[18.6042,69.6896,0.0],[18.5896,69.6896,10.7752],[18.5771,69.6854,373.6233],[18.5688,69.6854,448.4067],[18.5625,69.6813,564.4023],[18.5396,69.6792,675.3925],[18.5354,69.6813,563.1957],[18.5063,69.6813,771.4051],[18.5021,69.6833,601.1709],[18.4896,69.6833,600.8346],[18.488,69.6849,528.0796],[18.4938,69.6854,525.7463],[18.4953,69.687,492.0636],[18.4896,69.6896,521.9096],[18.475,69.6854,496.1445],[18.4667,69.6875,424.1899],[18.4625,69.6854,558.1276],[18.4521,69.6896,479.8335],[18.4484,69.687,568.5447],[18.4516,69.6839,673.9348],[18.4479,69.6833,754.6649],[18.4438,69.6854,795.7911],[18.4375,69.6854,763.6682],[18.4333,69.6875,743.9918],[18.4151,69.6901,301.2018],[18.4307,69.6953,121.9993],[18.4208,69.7,0.0],[18.4063,69.7,0.0],[18.4016,69.6964,130.1489],[18.3917,69.6937,344.6174],[18.3854,69.6958,96.8978],[18.3755,69.6932,281.016],[18.3828,69.6891,515.1643],[18.3813,69.6875,637.5087],[18.3729,69.6875,689.6629],[18.3646,69.6917,248.8514],[18.3563,69.6917,0.0],[18.3458,69.6875,0.0],[18.3339,69.687,97.7137],[18.337,69.6849,180.3761],[18.3354,69.6833,296.4509],[18.3271,69.6833,499.09],[18.3208,69.6854,658.8678],[18.3109,69.6807,680.3226],[18.3125,69.6792,743.6846],[18.3354,69.6792,225.2124],[18.3396,69.6771,262.5468],[18.3474,69.6766,231.2808],[18.3458,69.675,331.628],[18.3375,69.675,417.5195],[18.3333,69.6729,692.9686],[18.325,69.6729,764.6669],[18.3208,69.675,780.4893],[18.313,69.6755,740.5967],[18.3063,69.6792,517.484],[18.2984,69.6797,478.9549],[18.3005,69.6828,328.8671],[18.3078,69.6839,404.7868],[18.3099,69.6859,350.4113],[18.3042,69.6896,131.745],[18.2979,69.6875,367.5341],[18.2875,69.6875,526.5818],[18.2833,69.6854,564.5315],[18.2771,69.6875,492.8594],[18.2708,69.6854,758.3114],[18.2396,69.6854,617.6495],[18.2354,69.6875,481.6312],[18.2292,69.6875,583.2484],[18.2276,69.6891,590.8488],[18.25,69.6896,260.6843],[18.2536,69.6932,257.853],[18.2417,69.6979,88.5589],[18.2229,69.6917,746.0673],[18.2146,69.6917,640.1335],[18.2089,69.6953,536.1987],[18.2146,69.6958,337.0637],[18.2161,69.6974,325.4302],[18.2083,69.6979,457.9053],[18.1984,69.7026,261.1736],[18.2057,69.7057,14.3266],[18.1979,69.7083,8.9075],[18.1932,69.7047,199.4222],[18.1859,69.7037,70.101],[18.1818,69.6995,0.0],[18.1818,69.6964,0.0],[18.1974,69.6891,17.0897],[18.1964,69.6859,0.0],[18.2057,69.6849,38.1019],[18.2047,69.6818,0.0],[18.212,69.6787,10.5704],[18.2109,69.6755,0.0],[18.2141,69.6745,0.0],[18.213,69.6713,0.0],[18.2161,69.6703,0.0],[18.2151,69.6672,0.0],[18.2188,69.6646,80.9793],[18.2172,69.6609,0.0],[18.2229,69.6583,0.0],[18.2307,69.6578,15.6778],[18.2391,69.6536,16.3154],[18.238,69.6505,0.0],[18.2411,69.6495,69.2803],[18.2401,69.6464,22.983],[18.2432,69.6453,46.3411],[18.2422,69.6422,0.0],[18.2536,69.637,0.0],[18.2526,69.6339,0.0],[18.2651,69.6276,0.0],[18.2729,69.6271,48.0026],[18.2786,69.6245,0.0],[18.2776,69.6214,0.0],[18.2818,69.6193,7.6844],[18.3104,69.6188,0.0],[18.3146,69.6208,3.6306],[18.3229,69.6208,0.0],[18.3354,69.625,3.1326],[18.3458,69.625,0.0],[18.3563,69.6292,0.0],[18.3667,69.6292,0.0],[18.3766,69.6318,0.0],[18.3813,69.6354,0.0],[18.4016,69.6349,1.862],[18.3984,69.6297,39.6765],[18.4016,69.6286,189.1674],[18.4016,69.6255,311.9314],[18.3964,69.6255,270.8372],[18.3937,69.6292,43.4306],[18.3896,69.6271,62.7135],[18.3792,69.6271,0.0],[18.3755,69.6234,36.5389],[18.3896,69.6229,287.262],[18.3911,69.6214,333.8819],[18.3875,69.6188,430.4411],[18.3792,69.6208,216.36],[18.3688,69.6167,353.8808],[18.3521,69.6167,65.4771],[18.3479,69.6146,62.969],[18.3375,69.6146,0.0],[18.3349,69.6109,64.1203],[18.325,69.6083,91.5995],[18.3083,69.6083,6.0564],[18.3057,69.6047,37.1745],[18.2984,69.6036,0.0],[18.3016,69.6005,14.9116],[18.2974,69.5964,5.5549],[18.2875,69.5938,0.0],[18.2854,69.5958,6.6713],[18.2891,69.6016,0.0],[18.2766,69.6078,0.0],[18.2672,69.6088,16.5523],[18.2703,69.6141,0.0],[18.2646,69.6167,4.4912],[18.2438,69.6146,173.9899],[18.2422,69.6162,138.2627],[18.2479,69.6167,67.1848],[18.2495,69.6182,10.7873],[18.2438,69.6208,0.0],[18.2359,69.6214,21.227],[18.237,69.6245,0.0],[18.2208,69.6292,0.0],[18.2109,69.6286,0.0],[18.2182,69.6234,0.0],[18.2104,69.6208,0.0],[18.2021,69.6208,7.192],[18.2005,69.6214,7.7752],[18.2016,69.6245,0.0],[18.2,69.625,0.0],[18.1917,69.6229,11.0],[18.1875,69.625,0.0],[18.1797,69.6255,44.8658],[18.1714,69.6297,0.0],[18.1724,69.6328,0.0],[18.1708,69.6333,0.0],[18.1563,69.6333,9.8507],[18.1516,69.6276,73.0654],[18.1443,69.6266,29.6465],[18.1474,69.6245,108.5946],[18.1464,69.6214,223.428],[18.1495,69.6203,264.2271],[18.1479,69.6188,383.2706],[18.1167,69.6188,93.0521],[18.1104,69.6208,0.0],[18.1005,69.6182,0.0],[18.0979,69.6146,5.3325],[18.088,69.6151,0.0],[18.0839,69.6172,4.433],[18.0849,69.6203,0.0],[18.0833,69.6208,0.0],[18.0646,69.6208,5.0541],[18.0583,69.6229,0.0],[18.0526,69.6182,0.0],[18.0484,69.612,0.0],[18.0516,69.6099,9.0283],[18.0495,69.6068,0.0],[18.0208,69.6062,20.0912],[18.0193,69.6047,33.8203],[18.0224,69.6026,19.9099],[18.0203,69.6005,13.2591],[18.013,69.5995,2.026],[18.0172,69.5964,0.0],[18.025,69.5958,0.0],[18.0266,69.5943,3.4247],[18.0193,69.5932,0.0],[18.0172,69.588,0.0],[18.0203,69.5859,7.8394],[18.013,69.5849,0.0],[18.0089,69.5807,0.0],[18.0161,69.5734,136.965],[18.0089,69.5651,11.5965],[18.012,69.5641,13.9406],[18.0109,69.5609,0.0],[18.0151,69.5589,0.0],[18.0229,69.5583,3.5684],[18.0313,69.5542,0.0],[18.05,69.5542,9.353],[18.0542,69.5521,0.0],[18.0667,69.5521,51.6541],[18.0708,69.55,0.0],[18.0771,69.55,0.0],[18.0812,69.5521,12.7876],[18.0917,69.5521,0.0],[18.0964,69.5557,0.0],[18.1,69.5563,0.0],[18.1083,69.5521,0.0],[18.1245,69.5495,8.8875],[18.1255,69.5463,0.0],[18.1411,69.5391,14.021],[18.1401,69.5359,0.0],[18.1609,69.5255,0.0],[18.1688,69.525,6.2124],[18.1729,69.5229,0.0],[18.1833,69.5229,37.9284],[18.1979,69.5188,0.0],[18.2188,69.5188,0.0],[18.2229,69.5208,3.3725],[18.2375,69.5208,0.0],[18.25,69.525,10.318],[18.2563,69.5229,0.0],[18.2687,69.5229,0.0],[18.2896,69.5292,5.9052],[18.3813,69.5292,0.0],[18.3854,69.5313,15.781],[18.4021,69.5313,0.0],[18.4292,69.5396,6.4717],[18.4396,69.5396,0.0],[18.4438,69.5417,0.0],[18.4583,69.5417,0.0],[18.4625,69.5437,0.0],[18.4729,69.5437,0.0],[18.4771,69.5458,5.5856],[18.5021,69.5458,7.9118],[18.5083,69.5437,0.0],[18.5125,69.5458,0.0],[18.5208,69.5458,0.0],[18.525,69.5479,0.0],[18.5542,69.5479,0.0],[18.5583,69.55,4.5097],[18.5792,69.55,0.0],[18.5839,69.5537,0.0],[18.5891,69.5547,0.0],[18.5943,69.5599,7.1407],[18.6078,69.5609,0.0],[18.6151,69.5703,8.8094],[18.625,69.5729,0.0],[18.6437,69.5729,0.0],[18.6521,69.5687,0.0],[18.6599,69.5682,4.1997],[18.6792,69.5583,0.0],[18.7,69.5583,0.0],[18.7042,69.5604,0.0],[18.7104,69.5604,0.0],[18.725,69.5563,0.0],[18.7313,69.5583,15.1104],[18.7417,69.5583,0.0],[18.7542,69.5625,0.0],[18.7641,69.563,0.0],[18.7693,69.5682,11.6138],[18.7766,69.5693,0.0],[18.7776,69.5724,6.2152],[18.7849,69.5734,0.0],[18.7896,69.5771,0.0],[18.7953,69.5776,0.0],[18.8021,69.5854,0.0],[18.7984,69.5891,18.17],[18.8057,69.5901,0.0],[18.8109,69.5953,0.0],[18.8333,69.5958,0.6554],[18.8411,69.6026,0.0],[18.8339,69.6068,0.2498],[18.8349,69.6099,0.0],[18.8255,69.6109,0.0],[18.8266,69.6141,0.0],[18.8234,69.6151,0.0],[18.8245,69.6182,0.0],[18.8214,69.6193,0.0],[18.8224,69.6224,0.0],[18.8167,69.625,0.0],[18.8089,69.6255,3.0532],[18.812,69.6297,0.0],[18.812,69.6328,0.0],[18.8047,69.6339,4.1589],[18.7979,69.6375,0.0],[18.7833,69.6375,0.0],[18.775,69.6312,2.4313],[18.7604,69.6312,0.0],[18.7542,69.6292,4.0101],[18.7526,69.6297,6.0515],[18.7536,69.6328,0.0],[18.7354,69.6354,0.0],[18.7297,69.638,2.2736],[18.7313,69.6396,0.0],[18.737,69.6401,0.0],[18.7339,69.6432,1.1976],[18.7411,69.6443,0.0],[18.7443,69.6495,0.0],[18.7516,69.6505,0.0],[18.7484,69.6526,0.0],[18.7495,69.6557,0.0],[18.7464,69.6568,4.2106],[18.7505,69.662,19.5459],[18.762,69.663,0.0],[18.7578,69.6661,0.0],[18.75,69.6667,22.4905],[18.7443,69.6693,46.3648],[18.7453,69.6724,0.0],[18.7422,69.6745,33.7775],[18.7521,69.675,2.1674],[18.7563,69.6729,0.0],[18.7646,69.6729,0.0],[18.7745,69.6755,0.0],[18.7776,69.6787,0.0],[18.7854,69.6813,5.2034],[18.8021,69.6813,0.0],[18.8063,69.6833,3.7689],[18.8458,69.6833,0.0],[18.85,69.6854,0.0],[18.8646,69.6854,0.0],[18.8714,69.6911,2.5846],[18.8833,69.6917,0.0],[18.8875,69.6937,1.0878],[18.8917,69.6937,0.0],[18.8964,69.6974,0.0],[18.9042,69.7,0.0],[18.9146,69.7021,7.2657],[18.9208,69.7,0.0],[18.925,69.7021,1.6562],[18.9292,69.7021,0.0],[18.9318,69.7057,2.4126],[18.9391,69.7068,0.0],[18.9443,69.712,0.0],[18.9578,69.713,0.0],[18.9547,69.7151,1.5195],[18.9557,69.7182,0.0],[18.9526,69.7193,0.0],[18.9536,69.7224,0.0],[18.9505,69.7234,3.1384],[18.9505,69.7266,0.0],[18.9604,69.7292,5.9827],[18.9667,69.7271,0.0],[18.975,69.7271,0.0],[18.9911,69.7318,0.0],[18.9958,69.7354,8.8727],[19.0021,69.7333,0.0],[19.0057,69.7338,0.0],[19.013,69.7412,0.0],[19.0203,69.7422,0.0],[19.0214,69.7453,1.8993],[19.0318,69.7557,9.7375],[19.0474,69.7589,0.0],[19.0495,69.7641,0.0],[19.0464,69.7662,6.9432],[19.0484,69.7682,10.0208],[19.0557,69.7693,0.0],[19.0578,69.7714,0.0],[19.0547,69.7734,0.0],[19.0557,69.7766,0.0],[19.0464,69.7776,17.1328],[19.0474,69.7807,0.0],[19.0359,69.7859,30.263],[19.037,69.7891,0.0],[19.0297,69.7922,0.0],[19.0307,69.7953,0.0],[19.0193,69.8005,6.2204],[19.0203,69.8037,0.0],[19.0109,69.8047,25.3739],[19.012,69.8078,0.0],[19.0005,69.813,3.6299],[19.0016,69.8161,0.0],[18.9849,69.8245,0.0],[18.9755,69.8255,20.1743],[18.9646,69.8313,0.0],[18.9375,69.8313,0.0],[18.925,69.8271,0.0],[18.9208,69.8292,0.0],[18.913,69.8297,11.5326],[18.9047,69.8339,8.1825],[18.9057,69.837,0.0],[18.9042,69.8375,0.0],[18.8854,69.8396,0.0],[18.8792,69.8375,0.0],[18.875,69.8396,0.0],[18.8688,69.8396,3.1921],[18.8672,69.8401,6.7464],[18.8682,69.8432,0.0],[18.85,69.8458,6.798],[18.8417,69.85,0.0],[18.8297,69.8474,0.0],[18.825,69.8417,30.4786],[18.8167,69.8438,0.0],[18.8125,69.8417,5.2291],[18.7979,69.8417,0.0],[18.7922,69.8443,4.0905],[18.7958,69.8479,0.0],[18.8125,69.8479,0.0],[18.8203,69.8505,0.0],[18.8286,69.8588,0.0],[18.8255,69.8609,2.0851],[18.8266,69.8641,0.0],[18.8193,69.8672,0.0],[18.8203,69.8703,0.0],[18.8172,69.8714,0.0],[18.8182,69.8745,0.0],[18.8125,69.8771,0.0],[18.8042,69.8771,17.378],[18.7979,69.875,221.565],[18.7964,69.8755,210.5719],[18.7974,69.8786,69.9905],[18.7875,69.8792,173.7386],[18.7859,69.8776,236.5328],[18.7891,69.8755,274.6395],[18.7875,69.875,336.2513],[18.7729,69.875,417.8798],[18.7687,69.8771,273.086],[18.7375,69.8771,41.3881],[18.7359,69.8755,0.0],[18.7391,69.8745,12.0837],[18.738,69.8714,0.0],[18.7536,69.863,6.3476],[18.7333,69.8583,72.3626],[18.7318,69.8588,103.2115],[18.7328,69.862,11.0196],[18.7297,69.863,42.0029],[18.7307,69.8662,0.0],[18.7292,69.8667,0.0]]],
[[[18.6979,69.7583,5.1564],[18.6943,69.7547,0.0],[18.6979,69.7542,0.0],[18.7016,69.7568,36.6712],[18.6979,69.7583,5.1564]]],
[[[18.6311,69.828,21.9074],[18.6349,69.8328,0.0],[18.6182,69.8411,6.5416],[18.6146,69.8417,5.3883],[18.6047,69.8391,0.0],[18.613,69.8339,0.0],[18.6224,69.8328,4.6991],[18.6203,69.8276,39.8559],[18.6146,69.8271,0.0],[18.613,69.8255,0.0],[18.6271,69.825,17.3472],[18.6311,69.828,21.9074]]],
[[[18.5458,69.875,8.3358],[18.5417,69.875,0.0],[18.5401,69.8734,0.0],[18.55,69.8729,0.0],[18.5536,69.8766,0.0],[18.55,69.8771,0.0],[18.5458,69.875,8.3358]]],
[[[18.0161,69.6109,0.0],[18.0161,69.612,0.0],[18.013,69.612,2.6141],[18.013,69.6109,0.0],[18.0161,69.6109,0.0]]],
[[[17.9266,69.6182,1.3734],[17.9172,69.6193,19.4215],[17.9182,69.6224,0.0],[17.9125,69.625,2.9109],[17.9042,69.625,21.1396],[17.8937,69.6208,0.0],[17.888,69.6203,6.2883],[17.8911,69.6182,8.8963],[17.8901,69.6151,0.0],[17.8917,69.6146,0.0],[17.9104,69.6146,31.9305],[17.9188,69.6104,0.0],[17.9313,69.6104,0.0],[17.937,69.6151,0.0],[17.9354,69.6167,0.0],[17.9292,69.6167,2.6559],[17.9266,69.6182,1.3734]]],
[[[18.0349,69.6172,0.0],[18.0333,69.6188,0.0],[18.0271,69.6188,0.0],[18.0229,69.6208,0.0],[18.0005,69.6203,0.0],[18.0063,69.6167,0.0],[18.0349,69.6172,0.0]]],
[[[17.9917,69.6229,0.0],[17.9875,69.6229,3.9378],[17.9859,69.6214,3.0012],[17.9953,69.6214,0.0],[17.9917,69.6229,0.0]]],
[[[18.2849,69.6162,0.0],[18.2813,69.6167,20.5412],[18.2797,69.6151,0.0],[18.2833,69.6146,0.0],[18.2849,69.6162,0.0]]],
[[[18.2849,69.6932,251.8745],[18.2813,69.6937,309.488],[18.2797,69.6922,381.4303],[18.2833,69.6917,250.1406],[18.2849,69.6932,251.8745]]],
[[[18.5417,69.6958,0.0],[18.5313,69.6958,0.0],[18.525,69.6979,0.0],[18.5208,69.6958,13.1675],[18.5042,69.6958,68.9087],[18.5005,69.6922,233.2952],[18.5042,69.6917,248.0771],[18.5083,69.6937,132.5336],[18.5292,69.6937,66.4853],[18.5375,69.6896,133.7771],[18.5516,69.688,160.5522],[18.5536,69.6932,0.0],[18.5458,69.6937,20.3534],[18.5417,69.6958,0.0]]],
[[[18.2922,69.6953,55.2717],[18.2964,69.6922,128.0108],[18.3016,69.6922,44.8153],[18.2974,69.6953,8.3606],[18.2922,69.6953,55.2717]]],
[[[17.9875,69.6458,0.0],[17.9771,69.6458,92.1092],[17.9729,69.6479,40.8317],[17.9667,69.6438,2.9748],[17.9547,69.6432,3.1399],[17.9526,69.6401,0.0],[17.9708,69.6312,0.0],[17.9917,69.6333,0.0],[17.9979,69.6312,0.0],[18.0042,69.6333,0.0],[18.0083,69.6312,0.0],[18.0187,69.6312,0.0],[18.0313,69.625,0.0],[18.0411,69.6255,19.4333],[18.0453,69.6297,5.0656],[18.0396,69.6333,0.0],[18.0313,69.6312,0.0],[18.0187,69.6375,0.8877],[18.0,69.6375,0.0],[17.9943,69.6412,0.0],[18.0063,69.6417,0.0],[18.0078,69.6432,2.6912],[18.0021,69.6458,0.0],[17.9875,69.6458,0.0]]],
[[[18.1786,69.6401,10.6475],[18.1734,69.638,0.0],[18.1813,69.6375,12.298],[18.1849,69.6412,0.0],[18.1813,69.6417,8.4574],[18.1786,69.6401,10.6475]]],
[[[18.1161,69.6776,218.035],[18.1146,69.6792,85.2372],[18.1083,69.6792,243.2402],[18.1021,69.6813,33.0946],[18.0958,69.6771,171.6681],[18.0875,69.6792,34.6318],[18.0833,69.6771,83.2622],[18.075,69.6771,0.0],[18.0714,69.6734,0.0],[18.0771,69.6708,0.0],[18.1021,69.6708,0.0],[18.1063,69.6687,0.0],[18.1333,69.6667,0.0],[18.1349,69.6651,0.0],[18.1307,69.6609,48.9094],[18.1229,69.6583,197.278],[18.1167,69.6604,159.0503],[18.0979,69.6604,212.3755],[18.0917,69.6625,0.0],[18.088,69.6589,0.0],[18.0995,69.6536,0.0],[18.0995,69.6505,27.4715],[18.0974,69.6484,9.4568],[18.0854,69.6458,10.1535],[18.0812,69.6479,6.0884],[18.075,69.6479,69.4791],[18.0688,69.65,24.2111],[18.0672,69.6495,66.5256],[18.0672,69.6464,0.0],[18.0771,69.6438,0.0],[18.1021,69.6438,11.1057],[18.1083,69.6417,0.0],[18.1208,69.6458,0.0],[18.1354,69.6458,0.0],[18.1417,69.65,17.5182],[18.1667,69.6542,0.0],[18.1724,69.6589,32.1301],[18.1688,69.6625,61.3053],[18.1724,69.6682,0.0],[18.1646,69.6687,98.79],[18.1578,69.6724,47.22],[18.15,69.6729,145.8087],[18.1458,69.675,0.0],[18.1396,69.6729,132.9483],[18.1333,69.6729,133.0108],[18.1292,69.675,22.3202],[18.1167,69.675,287.5799],[18.1151,69.6755,290.0261],[18.1161,69.6776,218.035]]],
[[[18.1646,69.6792,3.4572],[18.1708,69.6792,0.0],[18.1786,69.6828,24.0448],[18.1672,69.688,0.0],[18.1682,69.6911,0.0],[18.1651,69.6922,0.0],[18.1661,69.6953,0.0],[18.163,69.6964,0.0],[18.1641,69.6995,0.0],[18.1583,69.7021,0.0],[18.1437,69.7021,54.4947],[18.138,69.6974,0.0],[18.1411,69.6953,20.3426],[18.1422,69.6922,0.0],[18.1453,69.6911,0.0],[18.1443,69.688,0.0],[18.1474,69.687,0.0],[18.1464,69.6839,0.0],[18.1521,69.6813,0.0],[18.1583,69.6813,107.0638],[18.1646,69.6792,3.4572]]],
[[[18.2708,69.6917,562.5505],[18.2667,69.6917,574.7712],[18.2651,69.6901,618.5677],[18.2766,69.6901,335.8478],[18.275,69.6917,397.7684],[18.2708,69.6917,562.5505]]],
[[[18.2276,69.7161,42.7993],[18.2318,69.713,0.0],[18.237,69.713,2.5253],[18.2328,69.7161,22.5432],[18.2276,69.7161,42.7993]]],
[[[18.0958,69.7354,2.6563],[18.0943,69.737,3.9453],[18.0984,69.7412,0.7394],[18.1042,69.7417,7.0881],[18.1057,69.7432,0.0],[18.0896,69.7438,4.836],[18.0771,69.7396,242.3272],[18.0688,69.7396,402.0115],[18.0646,69.7417,338.6536],[18.0604,69.7396,296.1874],[18.0484,69.7391,0.0],[18.0583,69.7333,0.0],[18.0708,69.7333,11.4624],[18.0854,69.7292,0.0],[18.0953,69.7318,13.3278],[18.0974,69.7338,12.8252],[18.0958,69.7354,2.6563]]],
[[[18.2401,69.7505,0.0],[18.2255,69.7547,14.5476],[18.2266,69.7599,1.1195],[18.2208,69.7625,12.0966],[18.2104,69.7542,287.694],[18.1938,69.7542,215.7208],[18.1896,69.75,265.2367],[18.1589,69.7495,0.0],[18.162,69.7464,58.4973],[18.1589,69.7401,0.0],[18.1729,69.7396,0.0],[18.1745,69.7391,0.0105],[18.1734,69.7359,0.0],[18.2,69.7312,0.0],[18.2167,69.7229,0.0],[18.2313,69.7229,0.0],[18.2354,69.725,20.2635],[18.2474,69.7255,0.0],[18.2516,69.7297,0.0],[18.2464,69.7318,11.8104],[18.2495,69.737,0.0],[18.2464,69.738,1.5105],[18.2474,69.7412,0.0],[18.2443,69.7422,19.3236],[18.2453,69.7453,0.0],[18.2422,69.7464,4.5739],[18.2432,69.7495,0.0],[18.2401,69.7505,0.0]]],
[[[18.4599,69.6943,151.33],[18.4568,69.6901,379.9521],[18.4667,69.6896,278.0795],[18.4766,69.6922,117.7063],[18.4807,69.6974,22.9084],[18.4568,69.6974,8.3888],[18.4599,69.6943,151.33]]],
[[[18.4495,69.6974,30.7097],[18.4458,69.6979,9.8173],[18.4443,69.6964,44.4951],[18.4479,69.6958,92.5379],[18.4495,69.6974,30.7097]]],
[[[18.4099,69.8297,0.0],[18.4068,69.8255,0.0],[18.4229,69.825,0.0],[18.4266,69.8276,16.3249],[18.4193,69.8318,17.534],[18.4203,69.8349,0.0],[18.4172,69.8359,8.2542],[18.4182,69.8411,0.0],[18.4151,69.8422,12.6072],[18.4161,69.8453,0.0],[18.4063,69.8458,0.0],[18.4026,69.8432,0.0],[18.4026,69.8401,6.8214],[18.4057,69.8391,67.025],[18.4047,69.8359,0.0],[18.4078,69.8349,11.9174],[18.4068,69.8318,0.0],[18.4099,69.8297,0.0]]],
[[[18.5292,69.8542,134.1271],[18.5172,69.8547,257.4962],[18.5089,69.8588,78.9619],[18.5099,69.862,5.5546],[18.5063,69.8625,0.0],[18.5005,69.8568,0.0],[18.5078,69.8526,89.2622],[18.5026,69.8516,97.8244],[18.5005,69.8484,165.3273],[18.5146,69.8417,412.2369],[18.5625,69.8417,24.9902],[18.5641,69.8401,33.3577],[18.5521,69.8396,194.772],[18.5479,69.8375,361.6906],[18.5396,69.8375,463.2168],[18.5354,69.8354,532.5128],[18.525,69.8396,439.523],[18.5167,69.8396,509.7922],[18.5125,69.8375,684.4431],[18.5063,69.8396,511.2945],[18.4917,69.8396,436.1005],[18.4875,69.8375,627.2207],[18.475,69.8375,694.5683],[18.4708,69.8396,537.3516],[18.4562,69.8396,395.1909],[18.4438,69.8354,179.1793],[18.4333,69.8354,0.0],[18.4318,69.8339,0.0],[18.4391,69.8287,0.0],[18.438,69.8255,0.0],[18.4464,69.8214,10.2001],[18.4604,69.8208,7.7158],[18.4646,69.8187,0.0],[18.4688,69.8208,11.1565],[18.4917,69.8208,0.0],[18.4958,69.8229,0.0],[18.5063,69.8229,0.0],[18.5104,69.825,7.5661],[18.5417,69.825,13.0303],[18.5458,69.8229,3.6518],[18.5646,69.8229,3.516],[18.5708,69.8208,0.0],[18.5812,69.825,5.4067],[18.587,69.8255,0.0],[18.5932,69.8318,3.9043],[18.5776,69.8401,1.6381],[18.5797,69.8432,0.0],[18.5896,69.8438,3.3429],[18.5932,69.8464,0.0],[18.5849,69.8516,0.0],[18.5771,69.8521,10.7047],[18.5729,69.8542,9.5611],[18.5646,69.8542,20.6021],[18.5604,69.8521,120.816],[18.5521,69.8521,102.2235],[18.5458,69.85,248.7077],[18.5417,69.8521,124.1867],[18.5354,69.8521,145.17],[18.5292,69.8542,134.1271]]],
[[[18.1,69.7604,47.6265],[18.0964,69.7589,0.0],[18.1125,69.7583,0.0],[18.1146,69.7604,0.0],[18.1141,69.762,0.0],[18.1063,69.7646,22.17],[18.1036,69.7609,97.74],[18.1,69.7604,47.6265]]],
[[[18.1411,69.7724,0.0],[18.1333,69.7729,16.5112],[18.1292,69.775,3.5221],[18.1193,69.7724,0.0],[18.1172,69.7693,0.0],[18.1203,69.7682,0.0],[18.1193,69.7651,0.0],[18.1286,69.7641,0.0],[18.1255,69.7599,0.0],[18.1271,69.7583,0.0],[18.1479,69.7583,13.4893],[18.1578,69.7609,0.0],[18.1599,69.763,0.0],[18.1599,69.7662,0.0],[18.1542,69.7688,13.7646],[18.1422,69.7693,7.8102],[18.1411,69.7724,0.0]]],
[[[18.1437,69.7896,3.8783],[18.15,69.7896,5.1517],[18.1516,69.7911,7.848],[18.1417,69.7958,0.0],[18.1318,69.7932,15.5941],[18.1333,69.7917,0.0],[18.1437,69.7896,3.8783]]],
[[[18.4891,69.8453,220.1713],[18.4854,69.8458,154.0709],[18.4839,69.8443,147.2776],[18.4875,69.8438,170.8498],[18.4891,69.8453,220.1713]]],
[[[18.3036,69.8536,0.0],[18.3,69.8542,19.9413],[18.2984,69.8526,0.0],[18.3021,69.8521,0.0],[18.3036,69.8536,0.0]]],
[[[18.4776,69.9266,16.6952],[18.4833,69.9229,0.0],[18.4896,69.925,0.0],[18.4995,69.9255,0.0],[18.4979,69.9271,3.7307],[18.4776,69.9266,16.6952]]],
[[[18.5255,69.9797,0.0],[18.5266,69.9828,7.9437],[18.5187,69.9854,0.0],[18.5146,69.9833,6.2112],[18.5042,69.9833,0.0],[18.5,69.9812,12.8836],[18.4958,69.9812,6.0553],[18.4943,69.9797,18.8245],[18.5083,69.9792,0.0],[18.5141,69.9755,12.1357],[18.5068,69.9745,0.0],[18.5021,69.9708,0.0],[18.4938,69.9708,0.0],[18.4839,69.9672,6.1296],[18.5271,69.9667,24.2713],[18.5286,69.9661,12.6728],[18.5276,69.963,16.2411],[18.5333,69.9604,0.0],[18.537,69.9609,7.1701],[18.5391,69.9641,11.7407],[18.5359,69.9651,0.0],[18.537,69.9682,11.5845],[18.5313,69.9708,0.0],[18.5234,69.9714,10.8379],[18.525,69.9729,0.0],[18.5307,69.9734,0.0],[18.5276,69.9755,0.0],[18.5286,69.9786,0.0],[18.5255,69.9797,0.0]]],
[[[18.4859,69.9849,3.0571],[18.4839,69.9818,0.0],[18.4875,69.9812,0.0],[18.4974,69.9838,8.1168],[18.4995,69.987,0.0],[18.4958,69.9875,0.0],[18.4859,69.9849,3.0571]]],
[[[18.4943,69.9943,4.6818],[18.4974,69.9932,0.0],[18.5,69.9896,0.0],[18.5125,69.9896,0.0],[18.5182,69.9953,0.0],[18.4958,69.9958,0.0],[18.4943,69.9943,4.6818]]],
[[[18.4979,70.1021,130.4841],[18.4938,70.1021,14.0416],[18.4922,70.1005,27.5114],[18.5083,70.1,0.0],[18.5161,70.1036,46.6943],[18.5021,70.1042,136.5602],[18.4979,70.1021,130.4841]]],
[[[19.6016,69.8057,4.3857],[19.5979,69.8063,0.0],[19.5964,69.8047,0.0],[19.6,69.8042,73.1068],[19.6016,69.8057,4.3857]]],
[[[19.5187,69.8792,540.9024],[19.4605,69.8791,35.8027],[19.4481,69.8708,8.0759],[19.4495,69.8693,36.6238],[19.4474,69.8672,41.2399],[19.4401,69.8662,0.0],[19.4328,69.8588,3.3221],[19.4276,69.8578,0.0],[19.4307,69.8547,82.5391],[19.4271,69.8542,145.2538],[19.4208,69.8562,29.8482],[19.4109,69.8536,0.0],[19.4047,69.8474,0.0],[19.4078,69.8443,1.7852],[19.4047,69.8401,0.0],[19.4146,69.8354,0.0],[19.4333,69.8333,0.0],[19.4375,69.8354,4.1489],[19.4479,69.8354,0.0],[19.4521,69.8375,10.6555],[19.4667,69.8375,0.0],[19.4792,69.8417,20.1392],[19.4896,69.8417,0.0],[19.4938,69.8438,76.6938],[19.5021,69.8417,0.0],[19.5063,69.8438,14.334],[19.5271,69.8438,0.0],[19.5313,69.8458,12.7491],[19.5417,69.8458,0.0],[19.5542,69.85,26.0425],[19.6125,69.85,0.0],[19.6167,69.8521,8.1655],[19.6313,69.8521,0.0],[19.6437,69.8562,0.0],[19.6708,69.8562,20.655],[19.675,69.8542,0.0],[19.7042,69.8542,6.2622],[19.7104,69.8521,0.0],[19.7146,69.8542,3.0898],[19.7266,69.8547,0.0],[19.7339,69.862,8.6061],[19.7391,69.863,0.0],[19.7411,69.8651,0.0],[19.738,69.8682,74.3433],[19.7484,69.8688,0.0],[19.7514,69.8708,0.0],[19.7399,69.8706,100.2375],[19.7399,69.8752,157.029],[19.7009,69.8751,428.9538],[19.7008,69.8796,280.1195],[19.6878,69.8796,133.2415],[19.6876,69.8931,153.7224],[19.7006,69.8931,139.7334],[19.7005,69.9021,363.7174],[19.6875,69.9021,223.0059],[19.6874,69.9066,278.3765],[19.6744,69.9066,213.7527],[19.6743,69.9111,256.7745],[19.6613,69.9111,250.1931],[19.6612,69.9156,297.8723],[19.6482,69.9156,276.5804],[19.6481,69.9201,281.6411],[19.6351,69.9201,209.5689],[19.6355,69.893,716.6064],[19.6225,69.893,702.999],[19.623,69.8659,561.2238],[19.558,69.8658,812.8791],[19.5578,69.8748,678.6437],[19.5448,69.8748,619.2589],[19.5447,69.8793,612.9492],[19.5187,69.8792,540.9024]]],
[[[18.7625,69.8833,32.3974],[18.7589,69.8818,16.513],[18.7703,69.8818,17.3173],[18.7687,69.8833,10.7967],[18.7625,69.8833,32.3974]]],
[[[18.7813,69.8833,0.0],[18.7776,69.8828,0.0],[18.7776,69.8818,6.9356],[18.7828,69.8818,17.54],[18.7813,69.8833,0.0]]],
[[[18.8493,69.989,279.4174],[18.8136,69.9888,181.0286],[18.8076,69.9983,22.5004],[18.8026,69.9912,0.0],[18.8057,69.988,0.0],[18.8026,69.9838,0.0],[18.8083,69.9812,0.0],[18.8161,69.9807,13.8141],[18.8396,69.9688,0.0],[18.8458,69.9688,4.9993],[18.85,69.9667,15.5714],[18.8688,69.9667,0.0],[18.8729,69.9646,0.0],[18.8807,69.9641,0.0],[18.8745,69.9568,45.4443],[18.8609,69.9557,0.0],[18.8521,69.9458,0.0],[18.8484,69.9464,0.0],[18.85,69.95,0.0],[18.8479,69.9521,0.0],[18.8333,69.95,8.95],[18.8318,69.9484,4.0331],[18.8391,69.9443,0.0],[18.8292,69.9437,9.2211],[18.8125,69.9521,6.5424],[18.8063,69.9521,3.5524],[18.8,69.9542,0.0],[18.7938,69.9521,24.895],[18.7854,69.9563,0.0],[18.7729,69.9563,3.5906],[18.7583,69.9604,0.0],[18.75,69.9604,19.1016],[18.7458,69.9583,100.9734],[18.7417,69.9625,0.0],[18.7349,69.9568,68.3494],[18.7193,69.9537,2.3995],[18.713,69.9474,0.0],[18.713,69.9443,0.0],[18.7161,69.9422,21.7963],[18.7068,69.9328,0.0],[18.7099,69.9297,0.0],[18.7047,69.9234,6.135],[18.7078,69.9224,9.9473],[18.7089,69.9193,0.0],[18.7224,69.9161,27.8506],[18.7214,69.913,0.0],[18.7255,69.9109,0.0],[18.7417,69.9083,4.2464],[18.7604,69.9021,0.0],[18.7667,69.9021,0.0],[18.7708,69.9,0.0],[18.7896,69.9,0.0],[18.8042,69.8958,0.0],[18.8104,69.8958,0.0],[18.8146,69.8938,0.0],[18.8208,69.8938,11.4078],[18.8292,69.8896,0.0],[18.8354,69.8896,6.7437],[18.85,69.8854,0.0],[18.8771,69.8833,27.0117],[18.8786,69.8828,5.1774],[18.8776,69.8797,0.0],[18.8849,69.8766,0.0],[18.8859,69.8734,4.194],[18.8891,69.8724,17.8239],[18.888,69.8693,0.0],[18.8896,69.8688,0.0],[18.9021,69.8688,17.0456],[18.9063,69.8667,0.0],[18.9104,69.8688,10.1249],[18.9266,69.8682,2.433],[18.9208,69.8604,2.6783],[18.9245,69.8578,31.4101],[18.9234,69.8547,0.0],[18.9333,69.85,0.0],[18.9604,69.8479,0.0],[18.9646,69.8458,0.0],[18.9917,69.8417,0.0],[19.0,69.8375,0.0],[19.0078,69.837,7.9121],[19.0068,69.8339,0.0],[19.0099,69.8328,0.0],[19.0089,69.8297,0.0],[19.012,69.8287,0.0],[19.0109,69.8255,0.0],[19.0141,69.8245,0.0],[19.013,69.8214,0.0],[19.0224,69.8203,3.5387],[19.0151,69.8172,0.0],[19.0229,69.8167,9.8629],[19.0339,69.8109,0.0],[19.0432,69.8099,0.0],[19.0422,69.8068,0.0],[19.0599,69.8016,61.4063],[19.0568,69.7963,0.0],[19.0641,69.7932,0.0],[19.063,69.7901,0.0],[19.0646,69.7896,0.0],[19.0771,69.7896,16.0518],[19.0812,69.7875,0.0],[19.0938,69.7875,2.4762],[19.0979,69.7854,0.0],[19.1167,69.7875,0.0],[19.1229,69.7854,0.0],[19.1271,69.7875,2.7239],[19.1437,69.7875,0.0],[19.1479,69.7896,5.232],[19.1688,69.7896,0.0],[19.1896,69.7958,17.0815],[19.2229,69.7958,0.0],[19.2292,69.7979,3.7751],[19.2354,69.7958,0.0],[19.2536,69.8005,0.0],[19.2583,69.8042,0.0],[19.3021,69.8083,0.0],[19.3078,69.813,0.0],[19.3089,69.8161,0.0],[19.3208,69.8167,0.0],[19.3417,69.8229,15.1681],[19.3458,69.8229,0.0],[19.3512,69.8268,4.1468],[19.3511,69.8291,86.0328],[19.3381,69.8291,73.5039],[19.338,69.8336,77.3769],[19.325,69.8335,55.139],[19.3249,69.838,244.6662],[19.3119,69.838,198.6679],[19.311,69.865,535.1718],[19.298,69.865,672.9443],[19.2979,69.8695,799.181],[19.2849,69.8695,613.6718],[19.285,69.8649,343.5672],[19.272,69.8649,460.8469],[19.2722,69.8604,294.5034],[19.2592,69.8603,375.0853],[19.2593,69.8558,381.7198],[19.2464,69.8558,764.3553],[19.2465,69.8513,748.0544],[19.2335,69.8512,951.399],[19.2334,69.8557,665.4796],[19.2204,69.8557,614.0981],[19.2202,69.8602,489.2146],[19.2072,69.8601,713.4286],[19.207,69.8646,638.9387],[19.1421,69.8643,440.0115],[19.1417,69.8734,439.5961],[19.1287,69.8733,567.4096],[19.1274,69.9048,290.4367],[19.1144,69.9048,399.5878],[19.1142,69.9093,470.0158],[19.1012,69.9092,550.8604],[19.101,69.9137,480.8894],[19.0879,69.9137,363.9948],[19.0881,69.9092,430.735],[19.0751,69.9091,260.0266],[19.0753,69.9046,312.1173],[19.0232,69.9043,413.7344],[19.0222,69.9269,405.9128],[19.0352,69.9269,392.0946],[19.0334,69.9675,378.3839],[19.0203,69.9674,320.1538],[19.0201,69.9719,260.4931],[19.007,69.9719,194.995],[19.0068,69.9764,199.1867],[18.9938,69.9763,206.9397],[18.9936,69.9808,270.679],[18.9805,69.9808,279.473],[18.9803,69.9853,377.6101],[18.9672,69.9852,366.531],[18.9674,69.9807,274.5635],[18.9413,69.9805,231.4192],[18.9415,69.976,165.3912],[18.9154,69.9759,232.9572],[18.9156,69.9714,168.4391],[18.9025,69.9713,157.4914],[18.9018,69.9848,207.1766],[18.8888,69.9847,184.7416],[18.8885,69.9893,206.5318],[18.8493,69.989,279.4174]]],
[[[18.5714,69.888,0.0],[18.5583,69.8917,0.0],[18.5464,69.8891,20.5581],[18.5495,69.887,4.8909],[18.5484,69.8839,0.0],[18.55,69.8833,0.0],[18.5766,69.8828,0.0],[18.5729,69.8792,0.0],[18.5609,69.8786,5.6552],[18.5625,69.8771,0.0],[18.5688,69.8771,4.5992],[18.575,69.875,0.0],[18.5932,69.8797,0.0],[18.5849,69.8849,0.0],[18.5771,69.8854,6.6892],[18.5714,69.888,0.0]]],
[[[18.6745,69.8912,0.0],[18.6771,69.8896,0.0],[18.6807,69.8901,0.0],[18.6776,69.8922,1.015],[18.6786,69.8953,0.0],[18.6771,69.8958,0.0],[18.6688,69.8958,0.0],[18.6651,69.8932,0.0],[18.6667,69.8917,0.0],[18.6745,69.8912,0.0]]],
[[[18.5328,69.9557,0.0],[18.5292,69.9563,0.0],[18.5276,69.9547,5.8514],[18.5313,69.9542,0.0],[18.5328,69.9557,0.0]]],
[[[18.55,70.0229,5.6141],[18.5458,70.0229,4.9768],[18.5443,70.0214,2.2519],[18.5536,70.0214,0.0],[18.55,70.0229,5.6141]]],
[[[18.7142,70.0603,497.9058],[18.7011,70.0602,550.8033],[18.7008,70.0647,251.8014],[18.6746,70.0645,0.0],[18.6744,70.0667,0.0],[18.6672,70.0661,0.0],[18.6745,70.0589,198.6959],[18.6672,70.0578,39.3978],[18.6599,70.0505,100.276],[18.6526,70.0495,0.0],[18.6505,70.0463,0.0],[18.6536,70.0453,0.0],[18.6526,70.0422,0.0],[18.6578,70.0401,140.9408],[18.6557,70.038,97.8096],[18.6484,70.037,0.0],[18.6516,70.0339,3.1173],[18.6443,70.0328,0.0],[18.6458,70.0313,0.0],[18.6646,70.0313,16.6106],[18.6661,70.0307,18.1303],[18.6651,70.0276,0.0],[18.6667,70.0271,0.0],[18.6875,70.0271,0.0],[18.6979,70.0313,1.6284],[18.7062,70.0313,0.0],[18.712,70.0286,0.0],[18.7104,70.0271,37.828],[18.6958,70.0271,0.0],[18.6859,70.0245,17.9072],[18.6766,70.0151,0.0],[18.6693,70.0141,0.0],[18.6766,70.0089,20.1282],[18.6651,70.0078,120.8927],[18.6682,70.0057,62.1937],[18.6672,70.0026,0.0],[18.6766,70.0016,0.0],[18.6734,69.9964,0.0],[18.6807,69.9932,0.0],[18.6797,69.9901,0.0],[18.687,69.987,0.0],[18.6839,69.9828,0.0],[18.6839,69.9797,0.828],[18.6979,69.9792,0.0],[18.7026,69.9828,0.0],[18.7099,69.9838,0.0],[18.7151,69.9891,0.0],[18.7286,69.9922,0.0],[18.7255,69.9943,9.6649],[18.7286,69.9995,0.0],[18.7255,70.0016,7.3078],[18.7391,70.0026,0.0],[18.7484,70.012,0.0],[18.7536,70.013,0.0],[18.7505,70.0162,25.0041],[18.7578,70.0172,4.7777],[18.7599,70.0193,0.0],[18.7568,70.0214,10.1914],[18.7589,70.0245,12.6483],[18.7708,70.0271,2.3937],[18.7724,70.0266,0.0],[18.7714,70.0234,0.0],[18.7792,70.0208,0.0],[18.7859,70.0266,7.2235],[18.7911,70.0276,0.0],[18.7943,70.0307,9.0025],[18.8,70.0313,0.0],[18.8075,70.0349,14.5037],[18.8068,70.0474,45.0216],[18.7806,70.0472,221.409],[18.7803,70.0517,232.3674],[18.741,70.0514,510.6312],[18.7407,70.056,518.0667],[18.7145,70.0558,496.9641],[18.7142,70.0603,497.9058]]],
[[[18.6396,70.0375,2.8113],[18.6359,70.037,25.8542],[18.6359,70.0359,21.0844],[18.6411,70.0359,4.6706],[18.6396,70.0375,2.8113]]],
[[[18.5667,70.0479,4.9524],[18.5563,70.0479,100.9403],[18.5547,70.0484,114.2411],[18.5557,70.0516,9.3638],[18.5521,70.0521,5.2482],[18.5474,70.0484,298.0518],[18.5339,70.0453,322.644],[18.5318,70.0422,225.4886],[18.5349,70.0401,233.9584],[18.5193,70.037,20.0787],[18.5172,70.0339,0.0],[18.5245,70.0307,17.8298],[18.5271,70.0271,31.9832],[18.5333,70.0271,19.879],[18.5375,70.025,4.5556],[18.55,70.025,6.3503],[18.5589,70.0328,3.7769],[18.5661,70.0339,0.0],[18.5714,70.0391,1.5515],[18.5766,70.0401,12.3356],[18.575,70.0417,0.0],[18.5672,70.0422,17.7632],[18.5703,70.0474,0.0],[18.5667,70.0479,4.9524]]]]}
,"properties": {"GID_2": "NOR.17.25_1","GID_0": "NOR","country": "Norway","GID_1": "NOR.17_1","province": "Troms","NL_NAME_1": "NA","county": "Tromsø","VARNAME_2": "NA","NL_NAME_2": "NA","TYPE_2": "Kommuner","ENGTYPE_2": "Municipality","CC_2": "NA","HASC_2": "NO.TR.TR","name": "Tromsø.county","area_km2": 2515.327,"hist_schema_id": "Elevation0-9000","hist_area_km2": {"0": 112.516,"25": 121.171,"50": 109.498,"75": 96.2,"100": 89.887,"125": 84.53,"150": 89.083,"175": 86.224,"200": 85.596,"225": 82.82,"250": 82.357,"275": 80.475,"300": 80.916,"325": 76.369,"350": 75.422,"375": 74.248,"400": 73.322,"425": 69.638,"450": 70.139,"475": 64.447,"500": 61.405,"525": 58.438,"550": 57.071,"575": 51.448,"600": 48.925,"625": 45.774,"650": 42.785,"675": 39.896,"700": 40.221,"725": 35.574,"750": 32.802,"775": 29.658,"800": 26.793,"825": 25.949,"850": 22.69,"875": 20.851,"900": 17.509,"925": 16.1,"950": 14.682,"975": 13.452,"1000": 11.684,"1025": 10.393,"1050": 9.675,"1075": 8.823,"1100": 7.489,"1125": 6.732,"1150": 5.891,"1175": 5.358,"1200": 4.75,"1225": 4.319,"1250": 3.599,"1275": 3.39,"1300": 2.826,"1325": 2.626,"1350": 2.484,"1375": 2.053,"1400": 1.703,"1425": 1.688,"1450": 1.897,"1475": 1.347,"1500": 1.756,"1525": 1.398,"1550": 1.391,"1575": 1.093,"1600": 1.011,"1625": 0.944,"1650": 0.862,"1675": 0.409,"1700": 0.416,"1725": 0.164,"1750": 0.082,"1775": 0.067,"1800": 0.089,"1825": 0.037}}}