{"type":"Feature","properties":{"GID_2":"NOR.1.11_1","GID_0":"NOR","country":"Norway","GID_1":"NOR.1_1","province":"Akershus","NL_NAME_1":"NA","county":"Lørenskog","VARNAME_2":"NA","NL_NAME_2":"NA","TYPE_2":"Kommuner","ENGTYPE_2":"Municipality","CC_2":"NA","HASC_2":"NO.AK.LO","name":"Lørenskog.county"},
"geometry":{"type": "MultiPolygon","coordinates": [[[[11.0234,59.8337,277.8268],[11.0161,59.8604,232.8127],[11.0072,59.8598,193.8784],[11.006,59.8643,184.2251],[11.0149,59.8649,234.8141],[11.0101,59.8826,224.5018],[11.0189,59.8833,263.4904],[11.0153,59.8966,301.6914],[11.0242,59.8972,299.8287],[11.0181,59.9194,264.1518],[11.027,59.92,252.1366],[11.0258,59.9245,277.6335],[11.0169,59.9239,211.3108],[11.0145,59.9328,180.3918],[11.0056,59.9322,176.5762],[11.0044,59.9366,166.4749],[10.9955,59.936,168.6823],[10.9931,59.9449,154.6486],[10.9842,59.9443,187.1337],[10.9829,59.9487,203.4367],[10.9385,59.9457,172.448],[10.9397,59.9412,182.7996],[10.9308,59.9406,184.4788],[10.932,59.9362,162.5168],[10.9232,59.9356,188.1429],[10.9244,59.9311,161.7838],[10.9155,59.9305,167.3461],[10.9192,59.9172,187.6412],[10.9103,59.9165,284.4951],[10.9127,59.9077,205.8974],[10.9039,59.907,326.7689],[10.921,59.8448,225.3563],[10.9299,59.8454,241.3676],[10.9323,59.8365,207.2106],[10.9766,59.8396,292.9744],[10.9778,59.8351,259.2112],[10.9956,59.8364,252.1938],[10.9968,59.8319,248.2864],[11.0234,59.8337,277.8268]]]]}}