{"type":"Feature","properties":{"GID_2":"NOR.13.17_1","GID_0":"NOR","country":"Norway","GID_1":"NOR.13_1","province":"Rogaland","NL_NAME_1":"NA","county":"Sauda","VARNAME_2":"NA","NL_NAME_2":"NA","TYPE_2":"Kommuner","ENGTYPE_2":"Municipality","CC_2":"NA","HASC_2":"NO.RO.SA","name":"Sauda.county"},
"geometry":{"type": "MultiPolygon","coordinates": [[[[6.1909,59.5924,962.2968],[6.1927,59.588,1040.7656],[6.2014,59.5889,908.0889],[6.2033,59.5845,1134.0974],[6.212,59.5855,962.749],[6.2138,59.5811,942.996],[6.2225,59.582,885.9627],[6.2261,59.5733,697.4896],[6.2435,59.5751,555.6648],[6.2454,59.5707,499.8879],[6.2541,59.5716,475.2894],[6.2559,59.5673,427.0376],[6.2646,59.5682,220.3147],[6.2664,59.5638,207.9663],[6.2692,59.5641,194.4683],[6.2666,59.5609,241.1834],[6.2692,59.556,0.0],[6.2714,59.5571,0.0],[6.2714,59.5593,0.0],[6.2775,59.5607,4.0984],[6.2803,59.5643,0.0],[6.2797,59.566,4.344],[6.2864,59.5668,0.0],[6.2908,59.5704,0.0],[6.2958,59.5704,0.0],[6.2969,59.5735,20.287],[6.3042,59.5743,0.0],[6.3075,59.5776,0.0],[6.3019,59.5838,0.0],[6.3047,59.5907,0.0],[6.2953,59.5929,5.4054],[6.2897,59.5921,0.0],[6.2881,59.5943,0.0],[6.2892,59.5979,17.5921],[6.2881,59.5988,41.708],[6.2947,59.6032,0.0],[6.2942,59.6057,0.0],[6.2964,59.6082,0.0],[6.2914,59.6118,92.4224],[6.2897,59.6171,0.0],[6.2931,59.6199,0.0],[6.2931,59.6232,0.0],[6.3014,59.6287,0.0],[6.3014,59.6315,9.9706],[6.3036,59.6326,0.0],[6.3075,59.639,2.5981],[6.3247,59.6421,30.1445],[6.3308,59.641,0.0],[6.3336,59.6432,2.5493],[6.3403,59.6437,0.0],[6.3392,59.6465,0.0],[6.3453,59.6485,0.0],[6.3464,59.6468,0.0],[6.3597,59.6446,2.0789],[6.3658,59.6396,10.5349],[6.3625,59.6374,8.777],[6.3536,59.6354,2.4714],[6.3514,59.6315,62.107],[6.3419,59.6282,10.2227],[6.3336,59.6282,4.0585],[6.3281,59.624,0.0],[6.3303,59.6196,4.6178],[6.3286,59.6096,51.7152],[6.3297,59.5976,14.5937],[6.3314,59.5951,0.0],[6.3286,59.5913,11.3781],[6.3281,59.5865,2.4365],[6.3308,59.5849,9.1484],[6.3303,59.5829,16.9151],[6.3286,59.5824,16.9151],[6.3281,59.5799,10.2154],[6.3231,59.5779,0.0],[6.3142,59.5682,39.0047],[6.3031,59.5629,4.145],[6.3048,59.5587,239.5363],[6.3483,59.5633,559.6943],[6.3501,59.5589,508.5463],[6.3588,59.5599,567.0604],[6.357,59.5642,682.6021],[6.3917,59.5679,773.5441],[6.3899,59.5723,922.7453],[6.3986,59.5732,714.4128],[6.3968,59.5776,862.854],[6.4055,59.5785,846.1011],[6.4037,59.5829,897.2614],[6.4124,59.5838,919.3596],[6.4106,59.5882,960.2348],[6.428,59.5901,947.0775],[6.4262,59.5944,862.0],[6.4872,59.6008,1093.0658],[6.4854,59.6052,1093.0552],[6.5115,59.608,1053.7771],[6.5097,59.6124,1129.8296],[6.5445,59.616,1308.5607],[6.5427,59.6204,1298.3302],[6.5689,59.6231,1309.7607],[6.5671,59.6275,1401.0273],[6.5845,59.6293,1394.4149],[6.5828,59.6337,1516.8834],[6.5915,59.6346,1446.8704],[6.5897,59.639,1277.6802],[6.6071,59.6408,1093.3708],[6.6053,59.6452,1267.7014],[6.6228,59.647,1132.6365],[6.621,59.6514,1261.8116],[6.6297,59.6523,1218.7327],[6.6279,59.6567,1222.297],[6.6454,59.6585,1117.085],[6.6436,59.6629,1204.9866],[6.6523,59.6638,1194.4406],[6.6506,59.6682,1231.3412],[6.6593,59.6691,1144.7588],[6.6575,59.6735,1191.3811],[6.675,59.6753,961.5],[6.6732,59.6797,1100.1144],[6.6819,59.6806,1059.4066],[6.6802,59.6849,1092.1862],[6.6889,59.6858,994.1215],[6.6871,59.6902,1032.8208],[6.6958,59.6911,1019.5385],[6.6923,59.6999,1057.2734],[6.6836,59.699,1027.0785],[6.6818,59.7034,1064.6292],[6.673,59.7025,991.809],[6.6713,59.7069,931.5715],[6.6625,59.706,894.1492],[6.6607,59.7104,950.606],[6.652,59.7095,987.8223],[6.6466,59.7227,921.345],[6.6554,59.7236,827.9359],[6.6536,59.728,887.534],[6.6624,59.7289,923.66],[6.6588,59.7377,948.7713],[6.6675,59.7386,932.1585],[6.6658,59.743,871.1824],[6.6745,59.743899999999996,894.7279],[6.6709,59.7526,931.8957],[6.6797,59.7535,996.6874],[6.6761,59.7623,951.5565],[6.6849,59.7632,1061.9597],[6.6706,59.7984,1055.4882],[6.6794,59.7993,1041.5286],[6.6776,59.8037,1025.5],[6.6863,59.8046,1063.5603],[6.6828,59.8133,1025.5],[6.6915,59.8142,1028.6145],[6.6844,59.8318,1062.3064],[6.6756,59.8309,1109.3417],[6.6721,59.8397,1067.9969],[6.5843,59.8307,1151.6195],[6.5825,59.8351,1151.9026],[6.565,59.8333,1178.5123],[6.5632,59.8377,1180.0222],[6.5544,59.8367,1074.5446],[6.5526,59.8411,1035.8451],[6.5351,59.8393,1036.813],[6.5333,59.8437,1077.0345],[6.5245,59.8428,1127.615],[6.5263,59.8384,1099.4795],[6.5,59.8357,872.1528],[6.5018,59.8313,1052.9655],[6.4843,59.8295,954.5989],[6.4861,59.8251,952.2546],[6.4598,59.8223,1192.5867],[6.4616,59.818,1129.7726],[6.4353,59.8152,1234.2546],[6.4371,59.8108,1190.7299],[6.4109,59.8081,1005.8506],[6.4127,59.8037,1037.5754],[6.3864,59.8009,981.7495],[6.3882,59.7965,1162.6698],[6.3707,59.7947,1003.762],[6.3726,59.7903,1065.4392],[6.3463,59.7876,1182.1295],[6.3481,59.7832,1150.275],[6.3306,59.7813,1066.4768],[6.3361,59.7682,931.2687],[6.3274,59.7672,993.2988],[6.3292,59.7629,900.3311],[6.303,59.7601,1098.8804],[6.3011,59.7645,1152.6877],[6.2836,59.7626,1057.1664],[6.2873,59.7538,1147.7034],[6.2786,59.7529,1216.635],[6.2822,59.7441,1140.6921],[6.2735,59.7432,1128.8029],[6.2772,59.7344,1081.4412],[6.2684,59.7335,1106.0972],[6.2739,59.7204,1134.1562],[6.2652,59.7194,1119.4436],[6.2725,59.7019,1213.1588],[6.2464,59.6991,1080.3528],[6.2482,59.6947,993.9011],[6.2307,59.6929,573.4602],[6.2326,59.6885,758.5695],[6.2239,59.6875,776.4358],[6.2275,59.6788,908.7823],[6.2188,59.6778,904.3555],[6.2225,59.6691,990.1825],[6.2138,59.6681,990.8624],[6.2174,59.6594,1097.0687],[6.2087,59.6584,1040.0388],[6.2124,59.6497,891.7564],[6.2037,59.6487,875.3571],[6.2055,59.6444,842.0],[6.1968,59.6434,849.7953],[6.1986,59.639,884.5997],[6.1812,59.6372,814.5312],[6.1849,59.6284,830.1822],[6.1762,59.6275,898.8001],[6.1909,59.5924,962.2968]]]]}}