{"type": "Feature","bbox": [10.3091,59.6673,10.5486,59.7947],"geometry": {"type": "MultiPolygon","coordinates": [[[[10.5447,59.6904,3.0619],[10.5419,59.6896,0.0],[10.5486,59.6876,4.246],[10.5481,59.689,0.0],[10.5447,59.6904,3.0619]]],
[[[10.5231,59.6971,0.0],[10.5208,59.6976,0.0],[10.5192,59.6963,8.8185],[10.5242,59.6924,1.3557],[10.5247,59.6899,3.4211],[10.5331,59.6874,9.6493],[10.5352,59.6887,0.0],[10.5342,59.6904,13.2289],[10.5269,59.691,4.0877],[10.5247,59.6932,0.7829],[10.5258,59.694,0.0],[10.5247,59.6965,0.0],[10.5231,59.6971,0.0]]],
[[[10.5336,59.7099,13.3446],[10.5286,59.7093,18.8017],[10.5281,59.7021,2.1624],[10.5303,59.7004,11.0752],[10.5297,59.6988,11.0752],[10.5397,59.6937,0.0],[10.5436,59.6937,0.0],[10.5397,59.699,0.0],[10.5375,59.6996,10.4983],[10.5403,59.7001,0.0],[10.5381,59.7029,12.2354],[10.5386,59.7057,4.026],[10.5336,59.7099,13.3446]]],
[[[10.3142,59.7193,7.1521],[10.3108,59.7193,0.0],[10.3103,59.7179,0.0],[10.3142,59.7168,0.0],[10.3142,59.7193,7.1521]]],
[[[10.3583,59.7909,278.2123],[10.3494,59.7903,291.6982],[10.3481,59.7947,295.3701],[10.3304,59.7934,279.9334],[10.3317,59.789,272.3623],[10.3229,59.7883,227.2577],[10.3255,59.7794,216.8164],[10.3167,59.7788,273.7156],[10.318,59.7743,234.0689],[10.3091,59.7737,241.4069],[10.3234,59.7249,56.5141],[10.3146,59.7242,15.1271],[10.3169,59.7165,7.1863],[10.3303,59.7154,6.4104],[10.3347,59.7113,0.0],[10.3492,59.7124,7.9479],[10.3586,59.7101,0.0],[10.3631,59.7101,0.0],[10.3664,59.7143,0.0],[10.3714,59.7146,2.5381],[10.3736,59.7137,22.4912],[10.3719,59.7113,0.0],[10.3775,59.7104,14.5686],[10.3792,59.706,0.0],[10.3897,59.7004,11.8376],[10.3903,59.696,0.5882],[10.3925,59.6949,0.0],[10.3947,59.6896,3.8408],[10.3975,59.689,0.0],[10.3969,59.6901,0.0],[10.4008,59.6918,0.0],[10.4108,59.6901,0.8715],[10.4114,59.6868,11.7605],[10.4192,59.6815,0.0],[10.4264,59.6854,6.6106],[10.4303,59.6851,7.6647],[10.4297,59.6814,34.8925],[10.4331,59.6832,120.7001],[10.4376,59.6827,229.8829],[10.4386,59.6744,80.6089],[10.4459,59.6749,156.2511],[10.4472,59.6705,229.8863],[10.4648,59.6718,225.045],[10.4661,59.6673,199.2035],[10.4749,59.668,212.7274],[10.4737,59.6724,250.986],[10.4913,59.6737,131.5239],[10.49,59.6782,157.4851],[10.4988,59.6788,183.6107],[10.4975,59.6832,189.9333],[10.5258,59.6853,9.2787],[10.5203,59.6904,10.9532],[10.5208,59.6932,6.2747],[10.5181,59.696,8.8185],[10.5203,59.7038,5.0914],[10.5236,59.7068,0.0],[10.5219,59.716,12.3126],[10.5203,59.7171,8.8475],[10.5208,59.7201,3.3832],[10.5192,59.7212,13.9967],[10.5219,59.7285,4.2915],[10.5175,59.734,0.0],[10.5114,59.7337,22.3251],[10.5131,59.7349,0.7065],[10.5131,59.7432,0.0],[10.5114,59.7432,7.3646],[10.5114,59.7465,9.5307],[10.5142,59.7535,0.0],[10.5147,59.7607,2.7896],[10.5164,59.7618,0.0],[10.5125,59.7649,0.139],[10.5064,59.7621,0.0],[10.5058,59.7604,6.7187],[10.4986,59.7626,6.2001],[10.5025,59.7704,0.0],[10.5025,59.7832,0.0],[10.496,59.7829,16.4464],[10.4947,59.7873,11.537],[10.477,59.786,123.6595],[10.4783,59.7816,88.2287],[10.4518,59.7797,165.3652],[10.4531,59.7752,144.9238],[10.4443,59.7746,199.5459],[10.443,59.779,173.9557],[10.4253,59.7777,120.5012],[10.424,59.7822,109.655],[10.371,59.7783,287.4016],[10.3684,59.7871,277.0337],[10.3596,59.7865,314.0753],[10.3583,59.7909,278.2123]]],
[[[10.5231,59.7435,0.0],[10.5214,59.7449,1.5461],[10.5181,59.7426,0.0],[10.5214,59.7424,9.0319],[10.5231,59.7435,0.0]]]]}
,"properties": {"GID_2": "NOR.4.20_1","GID_0": "NOR","country": "Norway","GID_1": "NOR.4_1","province": "Buskerud","NL_NAME_1": "NA","county": "Røyken","VARNAME_2": "NA","NL_NAME_2": "NA","TYPE_2": "Kommuner","ENGTYPE_2": "Municipality","CC_2": "NA","HASC_2": "NO.BU.RK","name": "Røyken.county","area_km2": 114.60766,"hist_schema_id": "Elevation0-9000","hist_area_km2": {"0": 2.53356,"25": 6.52015,"50": 5.81473,"75": 9.14957,"100": 12.96287,"125": 15.89974,"150": 18.39764,"175": 11.53108,"200": 9.14667,"225": 7.81149,"250": 5.49312,"275": 4.31599,"300": 3.49257,"325": 1.31397,"350": 0.22452}}}