{"type": "Feature","bbox": [11.1026,64.7189,12.5704,65.0756],"geometry": {"type": "MultiPolygon","coordinates": [[[[11.1604,64.7438,0.0],[11.1682,64.7464,3.2915],[11.1703,64.7516,0.0],[11.1667,64.7521,0.0],[11.1625,64.75,0.0577],[11.1458,64.75,0.0],[11.1417,64.7479,6.2861],[11.1375,64.7479,25.1303],[11.1333,64.75,0.0],[11.1167,64.75,0.0],[11.1026,64.7422,8.4788],[11.1188,64.7417,0.0],[11.1203,64.7401,18.2458],[11.1172,64.738,0.0],[11.1292,64.7375,0.0],[11.1375,64.7417,31.3856],[11.1479,64.7396,0.0],[11.1526,64.7432,12.7806],[11.1604,64.7438,0.0]]],
[[[11.1979,64.7646,0.0],[11.1854,64.7688,0.0],[11.1755,64.7662,0.0],[11.1771,64.7646,1.0129],[11.1833,64.7646,0.0],[11.1875,64.7625,0.0],[11.2021,64.7625,0.0],[11.2057,64.7662,0.0],[11.2021,64.7667,0.0],[11.1979,64.7646,0.0]]],
[[[11.2854,64.7688,0.0],[11.2813,64.7688,0.0],[11.2797,64.7672,1.6523],[11.2932,64.7672,0.0],[11.2917,64.7688,0.0],[11.2854,64.7688,0.0]]],
[[[11.2318,64.7672,2.9127],[11.2375,64.7667,0.0],[11.2516,64.7724,0.0],[11.2458,64.775,0.0],[11.2396,64.775,0.0],[11.2354,64.7729,42.4626],[11.2193,64.7724,0.0],[11.2214,64.7693,0.0],[11.2292,64.7688,0.0],[11.2318,64.7672,2.9127]]],
[[[11.4313,64.7604,0.0],[11.4276,64.7599,0.0],[11.4276,64.7568,0.0],[11.4307,64.7568,0.0],[11.4328,64.7589,0.0],[11.4313,64.7604,0.0]]],
[[[11.4583,64.7813,0.0],[11.4547,64.7776,5.4158],[11.4599,64.7776,0.0],[11.4599,64.7807,7.0805],[11.4583,64.7813,0.0]]],
[[[11.3625,64.7833,0.0],[11.3641,64.7849,0.0],[11.3542,64.7875,0.0],[11.3479,64.7854,0.927],[11.3318,64.7849,0.0],[11.3375,64.7813,0.0],[11.3417,64.7833,5.9703],[11.3563,64.7813,0.0],[11.3625,64.7833,0.0]]],
[[[11.4813,64.7979,0.0],[11.4776,64.7974,0.0],[11.4776,64.7943,0.0],[11.4807,64.7943,0.0],[11.4828,64.7963,0.0],[11.4813,64.7979,0.0]]],
[[[11.2849,64.7818,5.2918],[11.2849,64.7828,0.0],[11.2818,64.7828,0.0],[11.2818,64.7818,6.2873],[11.2849,64.7818,5.2918]]],
[[[11.3063,64.7833,7.6649],[11.3021,64.7833,1.5932],[11.3005,64.7818,0.0],[11.3099,64.7818,0.0],[11.3063,64.7833,7.6649]]],
[[[11.1146,64.7917,2.4558],[11.1104,64.7917,0.0],[11.1089,64.7901,0.0],[11.1224,64.7901,4.3694],[11.1208,64.7917,0.0],[11.1146,64.7917,2.4558]]],
[[[11.3458,64.7896,0.0],[11.3474,64.7911,0.0],[11.3438,64.7917,2.9197],[11.3438,64.7896,0.0],[11.3458,64.7896,0.0]]],
[[[11.1245,64.7974,1.0087],[11.1214,64.7974,0.0],[11.1214,64.7963,5.1584],[11.1245,64.7963,2.1608],[11.1245,64.7974,1.0087]]],
[[[11.1411,64.8026,0.0],[11.1411,64.8037,0.0],[11.138,64.8037,1.9777],[11.138,64.8026,0.0],[11.1411,64.8026,0.0]]],
[[[11.237,64.8057,0.0],[11.2333,64.8063,0.0],[11.2318,64.8047,0.0],[11.2354,64.8042,3.3146],[11.237,64.8057,0.0]]],
[[[11.3568,64.7974,1.6295],[11.3604,64.7937,0.0],[11.3745,64.7963,-0.3893],[11.3687,64.8,0.0],[11.3625,64.8,0.0],[11.3568,64.7974,1.6295]]],
[[[11.375,64.9167,8.5049],[11.3714,64.9161,0.0],[11.3714,64.9151,6.8056],[11.3766,64.9151,0.0],[11.375,64.9167,8.5049]]],
[[[11.3792,64.9187,0.0],[11.3776,64.9172,0.4059],[11.3917,64.9167,0.0],[11.3917,64.9187,5.3267],[11.3792,64.9187,0.0]]],
[[[11.4589,64.9495,4.3209],[11.4641,64.9505,0.0],[11.4609,64.9537,0.0],[11.4661,64.9547,0.0],[11.4589,64.9589,0.0],[11.4599,64.962,0.0],[11.4417,64.9625,0.0],[11.4391,64.9589,0.0],[11.4276,64.9557,0.0],[11.425,64.9521,4.354],[11.4188,64.9542,0.0],[11.3984,64.9537,0.0],[11.3943,64.9464,0.0],[11.4021,64.9458,6.9811],[11.4036,64.9443,0.0],[11.3938,64.9437,0.0],[11.3917,64.9417,0.0],[11.3938,64.9396,0.0],[11.4042,64.9396,14.9762],[11.4083,64.9375,0.0],[11.4271,64.9375,0.0],[11.4313,64.9396,20.7077],[11.4437,64.9396,0.0],[11.451599999999999,64.9422,0.0],[11.4526,64.9453,0.0],[11.4578,64.9464,0.0],[11.4589,64.9495,4.3209]]],
[[[11.5047,64.963,0.0],[11.5099,64.963,0.0],[11.512,64.9682,0.0],[11.4938,64.9667,0.0],[11.4901,64.9641,0.0],[11.4917,64.9625,0.0],[11.4979,64.9625,0.0],[11.5021,64.9646,8.3131],[11.5047,64.963,0.0]]],
[[[11.5083,64.975,5.2962],[11.5047,64.9734,0.0],[11.5182,64.9734,14.953],[11.5125,64.9771,0.0],[11.5083,64.975,5.2962]]],
[[[11.4917,64.9833,0.0],[11.4854,64.9833,6.8864],[11.4813,64.9854,0.0],[11.4797,64.9849,0.0],[11.4776,64.9797,5.5375],[11.4849,64.9786,0.0],[11.4818,64.9755,16.02],[11.4875,64.9729,0.0],[11.4917,64.9729,0.0],[11.4932,64.9745,0.0],[11.4901,64.9755,52.0862],[11.4911,64.9786,0.0],[11.488,64.9807,3.8912],[11.4932,64.9818,0.0],[11.4917,64.9833,0.0]]],
[[[11.5901,64.7495,46.4562],[11.5958,64.7458,0.0],[11.6016,64.7464,14.4436],[11.6036,64.7484,0.0],[11.5979,64.7521,13.5502],[11.5901,64.7495,46.4562]]],
[[[11.6307,64.7568,0.0],[11.6307,64.7578,0.0],[11.6276,64.7578,0.0],[11.6276,64.7568,0.0],[11.6307,64.7568,0.0]]],
[[[11.4979,64.8,8.7985],[11.4943,64.7984,0.0],[11.5146,64.7979,0.0],[11.5188,64.8,5.9323],[11.5354,64.8,0.0],[11.5396,64.8042,0.0],[11.5391,64.8057,0.0],[11.5333,64.8083,0.0],[11.5292,64.8063,0.0],[11.5063,64.8063,0.0],[11.5063,64.8042,1.441],[11.5005,64.8037,0.0],[11.4979,64.8,8.7985]]],
[[[11.5859,64.8078,0.0],[11.5917,64.8042,0.0],[11.5995,64.8068,1.3818],[11.5979,64.8083,0.0],[11.5859,64.8078,0.0]]],
[[[11.787,64.7797,14.3899],[11.787,64.7807,14.8132],[11.7839,64.7807,0.0],[11.7839,64.7797,15.5963],[11.787,64.7797,14.3899]]],
[[[11.764099999999999,64.7828,15.1449],[11.7609,64.7839,28.9026],[11.7625,64.7875,46.4822],[11.7604,64.7896,0.0],[11.7542,64.7875,85.7207],[11.75,64.7896,0.0],[11.7458,64.7896,0.0],[11.7417,64.7854,0.0],[11.7422,64.7839,0.0],[11.7479,64.7813,0.0],[11.7578,64.7807,25.5239],[11.7604,64.7771,0.0],[11.7828,64.7776,0.0],[11.7771,64.7813,0.0],[11.7667,64.7813,26.5096],[11.764099999999999,64.7828,15.1449]]],
[[[11.7955,64.7814,0.0],[11.7995,64.7828,0.0],[11.7938,64.7854,0.0],[11.7818,64.7849,31.0083],[11.7833,64.7833,21.9807],[11.7917,64.7833,17.6822],[11.7955,64.7814,0.0]]],
[[[11.8036,64.7839,24.987],[11.8036,64.7849,13.631],[11.8005,64.7849,17.8445],[11.8005,64.7839,27.8362],[11.8036,64.7839,24.987]]],
[[[11.6375,64.8104,3.1187],[11.625,64.8104,0.0],[11.6271,64.8083,0.0],[11.6432,64.8089,0.0],[11.6417,64.8104,0.0],[11.6375,64.8104,3.1187]]],
[[[11.5297,64.9745,0.0],[11.5276,64.9714,0.0],[11.5417,64.9729,0.0],[11.5432,64.9734,0.0],[11.5453,64.9786,8.1729],[11.5375,64.9792,0.0],[11.5349,64.9755,0.0],[11.5297,64.9745,0.0]]],
[[[11.5995,64.9807,3.6384],[11.5964,64.9807,0.0],[11.5964,64.9797,12.9244],[11.5995,64.9797,5.2983],[11.5995,64.9807,3.6384]]],
[[[11.537,64.9818,0.0],[11.537,64.9828,9.7599],[11.5339,64.9828,21.8155],[11.5339,64.9818,0.0],[11.537,64.9818,0.0]]],
[[[11.8328,64.7943,31.3125],[11.8328,64.7953,12.8151],[11.8297,64.7953,0.0],[11.8297,64.7943,35.5365],[11.8328,64.7943,31.3125]]],
[[[11.6687,64.8042,0.0],[11.6672,64.8057,0.0],[11.6724,64.8089,9.1141],[11.6703,64.812,15.2783],[11.6563,64.8125,0.0],[11.6547,64.812,0.0],[11.6547,64.8089,0.0],[11.6604,64.8083,5.9324],[11.662,64.8068,0.0],[11.65,64.8063,0.0],[11.6464,64.8026,0.0],[11.6557,64.8016,19.5345],[11.6547,64.7984,0.0],[11.6563,64.7979,0.0],[11.6729,64.7979,0.0],[11.6911,64.8026,4.7385],[11.6896,64.8042,0.0],[11.6687,64.8042,0.0]]],
[[[12.176,64.8153,284.7372],[12.1867,64.8151,445.824],[12.188,64.8107,277.5037],[12.2404,64.8134,510.7484],[12.2352,64.8312,576.6062],[12.2457,64.8317,457.6637],[12.2432,64.8406,524.0067],[12.264099999999999,64.8417,652.1948],[12.2629,64.8462,738.1637],[12.2733,64.8467,741.2441],[12.2708,64.8556,537.721],[12.2813,64.8562,586.1438],[12.2775,64.8695,692.5799],[12.2879,64.8701,576.2523],[12.2854,64.879,571.6532],[12.2959,64.8795,395.1921],[12.2934,64.8884,555.822],[12.3039,64.889,509.3447],[12.3026,64.8934,431.5826],[12.3131,64.894,489.6916],[12.3105,64.9029,441.7683],[12.3211,64.9034,381.6949],[12.3185,64.9123,163.7565],[12.329,64.9129,105.0141],[12.3278,64.9173,120.2306],[12.3383,64.9179,140.9301],[12.337,64.9223,101.1401],[12.3686,64.9239,0.0],[12.3698,64.9194,46.3377],[12.3803,64.9199,0.0],[12.3829,64.911,15.864],[12.3934,64.9115,0.0],[12.3946,64.9071,17.2705],[12.4262,64.9086,188.2918],[12.4249,64.9131,287.4474],[12.4459,64.9142,461.7381],[12.4447,64.9186,495.9993],[12.4552,64.9191,533.3208],[12.454,64.9236,498.2629],[12.475,64.9246,500.7768],[12.4738,64.9291,519.9197],[12.4948,64.9301,553.1369],[12.4936,64.9346,555.3383],[12.5041,64.9351,644.9501],[12.5028,64.9396,622.6714],[12.5134,64.9401,706.3275],[12.5109,64.949,709.7329],[12.532,64.95,779.3931],[12.5307,64.9545,807.8698],[12.5412,64.955,789.9992],[12.54,64.9595,774.9579],[12.5505,64.96,768.222],[12.5493,64.9644,691.7444],[12.5704,64.9655,740.4536],[12.5679,64.9744,714.363],[12.5363,64.9729,461.7321],[12.5351,64.9773,637.549],[12.5034,64.9758,554.0117],[12.5022,64.9802,511.262],[12.4706,64.9787,357.1363],[12.4693,64.9832,456.1077],[12.4482,64.9821,457.3451],[12.447,64.9866,494.1029],[12.4153,64.985,636.4059],[12.4141,64.9895,691.0753],[12.393,64.9884,696.6124],[12.3917,64.9929,732.3456],[12.3812,64.9924,702.9645],[12.3824,64.9879,708.5979],[12.3614,64.9869,577.2949],[12.3626,64.9824,629.5132],[12.3521,64.9819,490.9438],[12.3534,64.9774,531.6159],[12.3323,64.9764,364.3747],[12.3335,64.9719,403.999],[12.323,64.9714,387.2006],[12.3243,64.9669,395.5729],[12.3032,64.9659,474.5822],[12.3045,64.9614,492.6752],[12.294,64.9609,512.4881],[12.2952,64.9564,446.2367],[12.2847,64.9559,561.1446],[12.2834,64.9604,577.1162],[12.2729,64.9598,615.7303],[12.2716,64.9643,629.16],[12.2611,64.9638,631.4952],[12.2598,64.9682,537.0857],[12.1966,64.965,75.1229],[12.194,64.9739,120.4239],[12.1835,64.9734,191.2059],[12.177,64.9957,21.7132],[12.1875,64.9962,0.0],[12.1849,65.0052,38.1668],[12.1836,65.0096,53.7429],[12.1731,65.0091,215.1812],[12.1692,65.0225,302.921],[12.1586,65.0219,340.2077],[12.1573,65.0264,319.1589],[12.1468,65.0258,243.2431],[12.1481,65.0214,402.7607],[12.1375,65.0208,286.3735],[12.1388,65.0164,285.8247],[12.1283,65.0158,312.0457],[12.1296,65.0114,397.7815],[12.119,65.0108,471.1546],[12.1203,65.0064,528.1599],[12.1098,65.0058,555.8949],[12.1111,65.0014,535.1625],[12.1006,65.0008,170.8217],[12.0993,65.0053,120.5],[12.0887,65.0048,246.8834],[12.0861,65.0137,445.9796],[12.0755,65.0131,476.5385],[12.0742,65.0176,422.7398],[12.0637,65.0171,441.487],[12.061,65.026,161.3006],[12.0505,65.0254,58.5539],[12.0439,65.0477,134.7206],[12.0544,65.0483,380.7611],[12.0504,65.0616,115.9964],[12.0491,65.0661,0.0],[12.0385,65.0656,22.0387],[12.0372,65.07,31.3425],[12.0055,65.0684,0.0],[12.0042,65.0728,27.4822],[11.9725,65.0712,27.7215],[11.9711,65.0756,58.1626],[11.9183,65.0729,236.0757],[11.9196,65.0684,51.0439],[11.8774,65.0662,499.4517],[11.8787,65.0617,330.4287],[11.847,65.0601,399.8295],[11.8484,65.0556,405.9172],[11.8273,65.0545,374.6563],[11.8286,65.05,289.5],[11.8075,65.0489,298.1375],[11.8089,65.0444,246.2323],[11.7878,65.0433,264.7376],[11.7891,65.0389,146.8681],[11.768,65.0377,137.4398],[11.7667,65.0422,163.4989],[11.7507,65.0413,0.0],[11.7432,65.0255,40.5875],[11.738,65.0234,0.0],[11.7411,65.0224,0.0],[11.7401,65.0172,0.0],[11.7474,65.0141,53.7869],[11.7484,65.0109,0.0],[11.7708,65.0125,0.0],[11.7786,65.0151,0.0],[11.7797,65.0182,32.9062],[11.7875,65.0188,0.0],[11.8016,65.0234,0.0],[11.8026,65.0266,27.7239],[11.8104,65.0292,38.9783],[11.8167,65.0292,0.0],[11.8375,65.0354,6.7626],[11.8458,65.0354,0.0],[11.8547,65.0411,0.0],[11.8625,65.0437,0.0],[11.8688,65.0437,0.0],[11.8828,65.0484,0.0],[11.889099999999999,65.0526,0.0],[11.8901,65.0557,12.2178],[11.8979,65.0583,0.0],[11.9057,65.0589,0.0],[11.9104,65.0625,0.0],[11.9182,65.063,0.0],[11.9193,65.0661,0.0],[11.9333,65.0708,7.3258],[11.9438,65.0708,6.068],[11.9495,65.0682,7.0171],[11.95,65.0667,0.0],[11.9495,65.0651,0.0],[11.9443,65.0641,0.0],[11.9391,65.0568,172.4658],[11.9359,65.0568,52.1741],[11.9292,65.0604,29.1735],[11.9214,65.0578,0.0],[11.912,65.0505,65.3902],[11.8938,65.0458,38.0402],[11.8875,65.0458,0.0],[11.8849,65.0422,0.0],[11.8771,65.0396,0.0],[11.8693,65.0391,0.0],[11.8661,65.0339,9.5709],[11.8484,65.0286,0.0],[11.8474,65.0255,0.0],[11.8438,65.0229,34.4607],[11.8375,65.0229,0.0],[11.8333,65.0208,0.0],[11.8292,65.0229,8.0012],[11.8229,65.0229,0.0],[11.8188,65.0208,54.4188],[11.8146,65.0229,0.0],[11.8109,65.0224,0.0],[11.8068,65.0203,0.0],[11.8016,65.013,0.0],[11.7964,65.012,12.8132],[11.7901,65.0078,35.1185],[11.7901,65.0047,37.5585],[11.7932,65.0036,0.0],[11.7922,65.0005,0.0],[11.7958,64.9979,0.0],[11.7917,64.9938,0.0],[11.7755,64.9943,8.0748],[11.7766,65.0016,0.0],[11.7693,65.0026,84.1035],[11.7625,65.0062,0.0],[11.7589,65.0057,0.0],[11.7578,65.0026,0.0],[11.7526,65.0016,0.0],[11.7516,64.9984,18.7949],[11.7479,64.9979,64.0661],[11.7391,65.0036,8.4109],[11.7297,65.0047,14.8716],[11.7307,65.0078,0.0],[11.7276,65.0089,0.0],[11.7266,65.012,0.0],[11.7193,65.013,53.8359],[11.7182,65.0162,0.0],[11.7021,65.0167,22.6008],[11.6911,65.0089,54.9072],[11.6818,65.0057,0.0],[11.6849,65.0036,43.5056],[11.6833,65.0021,7.9642],[11.6693,65.0026,0.0],[11.6745,65.0057,42.4799],[11.6687,65.0083,46.9637],[11.6479,65.0083,0.0],[11.6375,65.0021,21.1113],[11.6333,65.0042,0.0],[11.6286,65.0005,11.877],[11.6193,64.9995,0.0],[11.6109,64.9932,0.0],[11.6078,64.9838,14.8701],[11.6026,64.9828,12.8242],[11.6042,64.9812,9.6415],[11.6141,64.9807,0.0],[11.6167,64.9771,0.0],[11.6271,64.9771,0.0],[11.6375,64.9812,13.1304],[11.6729,64.9812,0.0],[11.6771,64.9833,0.0],[11.6833,64.9833,0.0],[11.6896,64.9854,46.6579],[11.6995,64.9807,0.0],[11.6984,64.9776,0.0],[11.7125,64.9729,0.0],[11.7224,64.9755,0.0],[11.7193,64.9776,12.7009],[11.7188,64.9812,24.3921],[11.7229,64.9854,0.0],[11.7563,64.9833,0.0],[11.7661,64.9786,0.0],[11.7661,64.9755,45.4942],[11.7521,64.9708,85.9008],[11.7417,64.9708,0.0],[11.7375,64.9688,0.0],[11.7276,64.9682,0.0],[11.7307,64.9651,0.0],[11.7255,64.962,0.0],[11.7292,64.9583,0.0],[11.725,64.9542,0.0],[11.7146,64.9542,7.2626],[11.713,64.9557,44.3543],[11.7182,64.9578,0.0],[11.7104,64.9583,0.0],[11.7,64.9542,19.6211],[11.6958,64.9542,30.2484],[11.6917,64.9563,0.0],[11.6813,64.9563,0.0],[11.6766,64.9526,0.0],[11.6687,64.9521,0.0],[11.6672,64.9537,0.0],[11.6724,64.9547,0.0],[11.6745,64.9568,8.1723],[11.6745,64.9599,5.7043],[11.6687,64.9625,0.0],[11.663,64.963,36.823],[11.6521,64.9688,27.5647],[11.6458,64.9688,42.991],[11.6375,64.9646,48.2718],[11.625,64.9646,96.5929],[11.6208,64.9667,35.414],[11.6167,64.9667,17.2227],[11.613,64.9641,0.0],[11.6245,64.9578,0.0],[11.6255,64.9547,0.0],[11.6313,64.9521,0.0],[11.637,64.9516,0.0],[11.6359,64.9484,0.0],[11.639099999999999,64.9474,7.9173],[11.6401,64.9443,0.0],[11.6495,64.9453,0.0],[11.6458,64.9375,0.0],[11.6479,64.9354,0.0],[11.6521,64.9375,6.6381],[11.6557,64.937,0.0],[11.6521,64.9333,30.7064],[11.6458,64.9333,7.3769],[11.6411,64.937,0.0],[11.6318,64.938,0.0],[11.6328,64.9432,11.4186],[11.6255,64.9464,127.4811],[11.6266,64.9495,0.0],[11.6234,64.9505,0.0],[11.6224,64.9537,75.6006],[11.6151,64.9547,86.3737],[11.6068,64.9589,49.9805],[11.6042,64.9625,0.0],[11.5922,64.9599,40.1678],[11.5911,64.9568,105.5481],[11.5859,64.9557,12.7612],[11.5828,64.9505,0.0],[11.5776,64.9495,0.0],[11.575,64.9458,0.0],[11.5714,64.9464,0.0],[11.5745,64.9557,0.0],[11.5688,64.9583,0.0],[11.5646,64.9563,65.0148],[11.5417,64.9563,0.0],[11.5375,64.9542,5.4865],[11.5229,64.9542,0.0],[11.5188,64.9521,0.0],[11.5104,64.9521,0.0],[11.5078,64.9484,0.0],[11.4984,64.9474,0.0],[11.4911,64.9422,1.8657],[11.4813,64.9417,0.0],[11.4755,64.9391,0.0],[11.4786,64.937,0.0],[11.4776,64.9339,2.0273],[11.4833,64.9313,0.0],[11.4891,64.9307,0.0],[11.4932,64.9276,0.0],[11.4771,64.9271,13.9999],[11.4672,64.9297,0.0],[11.4667,64.9333,0.0],[11.4682,64.937,0.0],[11.4667,64.9375,0.0],[11.45,64.9354,0.0],[11.4359,64.9307,0.0],[11.4391,64.9276,2.389],[11.4208,64.925,0.0],[11.4063,64.9187,9.8607],[11.3979,64.9187,0.0],[11.3922,64.9161,0.0],[11.3917,64.9146,6.1168],[11.3859,64.9141,0.0],[11.3766,64.9068,9.0641],[11.3646,64.9063,0.0],[11.3568,64.9036,0.0],[11.3536,64.8984,0.0],[11.3484,64.8974,0.0],[11.3516,64.8943,5.4115],[11.3333,64.8917,0.0],[11.3292,64.8896,0.0],[11.3229,64.8896,0.0],[11.3089,64.8849,0.0],[11.3078,64.8818,19.0457],[11.2964,64.8786,0.0],[11.2953,64.8755,0.0],[11.2859,64.8745,0.0],[11.2891,64.8714,0.0],[11.2839,64.8703,0.0],[11.2776,64.8662,0.0],[11.2807,64.8641,0.0],[11.2797,64.8609,0.0],[11.2828,64.8588,0.0],[11.2776,64.8568,0.0],[11.2891,64.8516,4.4311],[11.2891,64.8484,0.0],[11.275,64.8479,0.0],[11.2708,64.8458,0.0],[11.2651,64.8484,11.2486],[11.264099999999999,64.8516,0.0],[11.2609,64.8526,0.0],[11.2661,64.8547,0.0],[11.2646,64.8562,0.0],[11.2604,64.8562,0.0],[11.2562,64.8542,0.0],[11.2396,64.8542,0.0],[11.2354,64.8521,0.0],[11.2279,64.8521,0.0],[11.2288,64.8492,38.3597],[11.2195,64.8486,0.0],[11.2078,64.8422,0.0],[11.1964,64.8391,0.0],[11.1995,64.8359,0.0],[11.1943,64.8349,0.0],[11.1932,64.8318,3.4173],[11.188,64.8307,0.0],[11.187,64.8276,0.0],[11.1729,64.8229,0.0],[11.1651,64.8224,0.0],[11.162,64.8172,0.0],[11.1526,64.8161,0.0],[11.1495,64.8089,0.0],[11.1443,64.8078,2.1632],[11.1443,64.8047,0.8884],[11.1563,64.8063,0.0],[11.1625,64.8104,0.0],[11.1833,64.8104,0.0],[11.1859,64.8141,3.5275],[11.1938,64.8167,4.05],[11.2,64.8167,0.0],[11.2432,64.8318,0.0],[11.2432,64.837,0.0],[11.2318,64.838,0.0],[11.2333,64.8396,1.0515],[11.2438,64.8396,0.0],[11.2542,64.8438,6.776],[11.2604,64.8417,0.0],[11.2646,64.8438,0.0],[11.2688,64.8438,0.0],[11.2703,64.8422,0.0],[11.2672,64.8401,0.0],[11.2745,64.8359,0.0],[11.2667,64.8333,5.6735],[11.2526,64.8328,0.0],[11.2505,64.8255,0.0],[11.2578,64.8245,0.0],[11.2578,64.8214,0.0],[11.2516,64.8172,0.0],[11.2438,64.8167,0.0],[11.2401,64.8141,0.0],[11.2417,64.8125,0.0],[11.2474,64.812,0.0],[11.2443,64.8089,4.8622],[11.25,64.8063,0.0],[11.2604,64.8083,0.5343],[11.2672,64.8047,0.0],[11.2729,64.8042,0.0],[11.2786,64.8016,0.0],[11.2708,64.7979,0.0],[11.25,64.7979,8.8788],[11.2422,64.7953,0.0],[11.2422,64.7922,0.0],[11.2495,64.7891,0.0],[11.2443,64.7859,0.0],[11.2583,64.7833,0.0],[11.2599,64.7818,0.0],[11.2479,64.7813,0.0],[11.2438,64.7792,20.2817],[11.2359,64.7797,0.0],[11.2411,64.7818,0.0],[11.238,64.7839,0.0],[11.2396,64.7896,0.0],[11.2375,64.7917,0.0],[11.2255,64.7911,3.6753],[11.2286,64.7891,1.7376],[11.2271,64.7875,0.0],[11.2208,64.7875,0.0],[11.2167,64.7896,0.0],[11.2021,64.7896,0.0],[11.2005,64.788,0.0],[11.2063,64.7854,0.0],[11.2167,64.7854,0.0],[11.2266,64.7828,0.0],[11.2188,64.7792,15.3228],[11.2109,64.7786,6.8605],[11.2125,64.7771,0.2464],[11.2479,64.7771,0.0],[11.2521,64.7792,4.5605],[11.2703,64.7797,0.0],[11.263,64.7839,0.0],[11.2646,64.7854,3.4243],[11.2896,64.7854,2.8502],[11.3104,64.7917,0.0],[11.3271,64.7917,2.9325],[11.3313,64.7896,0.0],[11.3354,64.7896,0.0],[11.3432,64.7922,0.0],[11.3438,64.7937,0.0],[11.3401,64.7953,0.0],[11.3453,64.7963,-0.7207],[11.3464,64.7995,-0.1349],[11.3516,64.8005,0.0],[11.3484,64.8026,0.0],[11.35,64.8042,0.0],[11.3563,64.8042,1.6335],[11.3604,64.8021,0.0],[11.3667,64.8042,2.8002],[11.3708,64.8021,0.0],[11.3813,64.8021,0.0],[11.3854,64.8042,2.9235],[11.3896,64.8021,0.0],[11.3938,64.8042,0.0],[11.4042,64.8042,0.0],[11.4099,64.8005,0.0],[11.4047,64.7995,0.0],[11.4036,64.7963,0.0],[11.3958,64.7937,17.8552],[11.388,64.7932,0.0],[11.388,64.7901,0.0],[11.3911,64.7891,0.0],[11.389099999999999,64.7859,5.0417],[11.3797,64.7849,0.0],[11.3797,64.7818,0.0],[11.3828,64.7797,0.0],[11.363,64.7786,8.0741],[11.3609,64.7766,0.0],[11.3599,64.7714,0.0],[11.3505,64.7724,0.0],[11.3484,64.7693,0.0],[11.3516,64.7672,0.0],[11.3396,64.7625,6.0044],[11.3333,64.7625,0.0],[11.3292,64.7604,33.4942],[11.3021,64.7604,0.0],[11.2974,64.7547,0.0],[11.2917,64.7521,0.0],[11.2854,64.7542,3.8177],[11.275,64.7521,0.0],[11.2708,64.7542,0.0],[11.2521,64.7542,0.0],[11.2479,64.7521,0.0],[11.2354,64.7521,0.0],[11.2208,64.7479,22.489],[11.2146,64.7479,0.0],[11.2042,64.7438,15.815],[11.1875,64.7438,0.0],[11.1792,64.7396,0.0],[11.1729,64.7396,17.1564],[11.1688,64.7417,0.0],[11.1625,64.7375,6.3944],[11.1521,64.7375,0.0],[11.1443,64.7349,10.285],[11.1432,64.7318,18.6728],[11.138,64.7297,11.3284],[11.1438,64.7271,0.0],[11.1521,64.7271,2.4927],[11.1563,64.725,0.0],[11.1708,64.7229,0.0],[11.1786,64.7255,0.0],[11.1813,64.7292,2.0795],[11.1891,64.7276,0.0],[11.1917,64.7312,0.0],[11.1911,64.7349,0.0],[11.1839,64.7391,0.0],[11.1917,64.7396,1.9321],[11.1958,64.7354,0.0],[11.2203,64.7307,0.0],[11.2193,64.7276,0.0],[11.2208,64.7271,13.9367],[11.2313,64.7271,0.0],[11.2354,64.7292,0.0],[11.2625,64.7292,0.0],[11.2667,64.7312,0.0],[11.2745,64.7318,0.0],[11.2771,64.7354,4.5746],[11.2896,64.7354,0.0],[11.2938,64.7375,16.1958],[11.3104,64.7396,0.0],[11.3208,64.7438,13.976],[11.3354,64.7438,0.0],[11.3417,64.7458,2.2942],[11.3458,64.7438,0.0],[11.35,64.7438,0.0],[11.3542,64.7458,0.0],[11.3667,64.7458,0.0],[11.3771,64.75,17.4252],[11.3917,64.75,0.0],[11.3964,64.7536,14.8309],[11.4016,64.7547,0.0],[11.4026,64.7578,0.0],[11.4182,64.763,0.0],[11.4151,64.7651,8.6064],[11.4172,64.7682,0.0],[11.4224,64.7693,0.0],[11.4297,64.7745,0.0],[11.4401,64.7786,0.0],[11.451599999999999,64.7818,0.0],[11.4526,64.7849,0.0],[11.462,64.7859,0.0],[11.4646,64.7896,0.0],[11.4609,64.7932,6.2097],[11.4703,64.7943,0.0],[11.4693,64.7995,0.0],[11.4786,64.8005,0.0],[11.4771,64.8021,8.115],[11.4714,64.8026,1.0002],[11.4672,64.8057,0.0],[11.475,64.8083,-0.1111],[11.4792,64.8063,0.0],[11.4854,64.8083,3.5412],[11.4896,64.8063,0.0],[11.5042,64.8063,0.0],[11.5063,64.8083,7.3776],[11.5161,64.8089,0.0],[11.5208,64.8146,0.0],[11.5271,64.8146,0.0],[11.5313,64.8125,0.0],[11.5521,64.8125,0.0],[11.5562,64.8146,9.5308],[11.5641,64.8151,0.0],[11.5714,64.8203,0.0],[11.5833,64.825,2.969],[11.5896,64.8229,0.0],[11.5938,64.825,0.0],[11.6063,64.825,0.0],[11.6104,64.8271,5.6472],[11.6167,64.8271,0.0],[11.6349,64.8339,0.0],[11.6411,64.838,22.3963],[11.6484,64.8516,11.8285],[11.6536,64.8526,0.0],[11.6568,64.8599,3.0275],[11.662,64.8609,0.0],[11.6563,64.8646,0.0],[11.65,64.8604,28.8158],[11.6292,64.8604,12.4683],[11.625,64.8625,0.0],[11.6151,64.863,5.0336],[11.6151,64.8662,0.0],[11.6167,64.8667,0.0],[11.6438,64.8667,0.0],[11.662,64.8714,0.0],[11.6687,64.875,10.0409],[11.675,64.8729,0.0],[11.6792,64.875,0.0],[11.6917,64.875,0.0],[11.7,64.8792,20.878],[11.7125,64.8792,0.0],[11.7292,64.8854,13.5821],[11.7458,64.8875,0.0],[11.7667,64.8958,13.7129],[11.7833,64.8979,0.0],[11.8063,64.9063,50.1658],[11.8229,64.9083,0.0],[11.8333,64.9125,0.0],[11.8396,64.9125,0.0],[11.8604,64.9187,0.0],[11.8729,64.9187,0.0],[11.8875,64.9229,0.0],[11.8938,64.9229,0.0],[11.9016,64.9255,0.0],[11.9026,64.9287,49.5574],[11.9104,64.9313,0.0],[11.9167,64.9313,0.0],[11.9307,64.9359,0.0],[11.9318,64.9391,51.8539],[11.9432,64.9422,0.0],[11.9443,64.9453,12.5921],[11.9521,64.9479,0.0],[11.9536,64.9474,0.0],[11.9547,64.9422,0.0],[11.9563,64.9417,0.0],[11.9604,64.9437,7.7272],[11.9667,64.9417,0.0],[11.9708,64.9458,0.0],[12.0125,64.9458,0.0],[12.0151,64.9495,2.6118],[12.0245,64.9505,0.0],[12.0297,64.9578,13.8213],[12.0516,64.9651,0.0],[12.0542,64.9688,0.0],[12.062,64.9682,0.0],[12.0646,64.9646,6.9158],[12.0729,64.9646,0.0],[12.0792,64.9625,0.0],[12.0896,64.9667,0.0],[12.1042,64.9667,0.0],[12.1083,64.9688,10.5668],[12.1438,64.9688,48.0379],[12.1479,64.9667,0.0],[12.1599,64.9661,13.2755],[12.162,64.9609,0.0],[12.1589,64.9609,0.0],[12.1521,64.9646,0.0],[12.1479,64.9625,38.9112],[12.0958,64.9625,0.0],[12.0943,64.9609,0.0],[12.0979,64.9583,0.0],[12.0964,64.9547,18.3738],[12.1042,64.9542,106.8658],[12.1057,64.9526,274.2814],[12.0833,64.9521,292.6363],[12.0792,64.9563,11.7402],[12.0688,64.9563,0.0],[12.0667,64.9542,11.9673],[12.0703,64.9516,48.3611],[12.0682,64.9464,312.4997],[12.0589,64.9453,88.4035],[12.062,64.9422,316.1335],[12.0542,64.9417,329.0826],[12.05,64.9437,196.7222],[12.0437,64.9437,146.2272],[12.0396,64.9417,185.7368],[12.0318,64.9411,0.0],[12.0349,64.938,0.0],[12.0328,64.9339,13.2286],[12.0292,64.9313,23.7001],[12.0229,64.9313,0.0],[12.0188,64.9292,0.879],[12.0104,64.9333,10.3325],[12.0,64.9333,0.0],[11.9896,64.9292,237.2514],[11.9688,64.9292,322.7245],[11.9646,64.9313,209.9386],[11.9458,64.9313,0.0],[11.9411,64.9276,192.5696],[11.9359,64.9266,0.0],[11.9391,64.9234,289.4606],[11.9313,64.9208,341.7173],[11.9271,64.9229,150.8166],[11.9167,64.9187,264.2091],[11.8896,64.9167,0.0],[11.8693,64.9099,0.0],[11.8729,64.9063,49.3568],[11.8708,64.9042,84.6009],[11.863,64.9047,0.0],[11.8641,64.9078,0.0],[11.8625,64.9083,30.4951],[11.8354,64.9063,0.0],[11.8276,64.9036,13.3697],[11.826599999999999,64.9005,40.7434],[11.8188,64.8979,95.0388],[11.8125,64.9,9.6712],[11.7979,64.8958,69.4927],[11.7875,64.8958,0.0],[11.7771,64.8917,138.4969],[11.7693,64.8912,69.6015],[11.7646,64.8875,66.2865],[11.7568,64.887,0.0],[11.7583,64.8854,0.0],[11.764099999999999,64.8849,0.0],[11.764099999999999,64.8818,38.418],[11.7625,64.8812,83.043],[11.75,64.8812,21.6668],[11.7458,64.8792,30.6693],[11.7313,64.8792,18.1368],[11.7271,64.8771,94.4145],[11.7188,64.8771,0.0],[11.7146,64.875,98.1543],[11.7042,64.875,0.0],[11.6901,64.8693,0.0],[11.6958,64.8667,0.0],[11.7021,64.8667,0.0],[11.7047,64.8703,47.7493],[11.7083,64.8708,18.2182],[11.7141,64.8682,0.0],[11.712,64.8651,0.0],[11.6938,64.8646,0.0],[11.6896,64.8625,41.7413],[11.6854,64.8646,0.0],[11.675,64.8604,11.3101],[11.6672,64.8599,0.0],[11.663,64.8526,0.0],[11.6708,64.8521,104.193],[11.6724,64.8505,128.7896],[11.6703,64.8484,124.1646],[11.6651,64.8474,0.0],[11.6641,64.8443,117.8325],[11.6547,64.8432,0.0],[11.6526,64.8401,0.0],[11.6557,64.8391,0.0],[11.6568,64.8359,9.302],[11.6687,64.8354,0.0],[11.6703,64.8349,0.0],[11.6693,64.8318,0.0],[11.6771,64.8313,0.0],[11.6797,64.8349,0.0],[11.6875,64.8375,17.4151],[11.7042,64.8375,15.7437],[11.7083,64.8396,0.0],[11.7146,64.8396,13.9499],[11.7188,64.8375,0.0],[11.7229,64.8396,38.7872],[11.7396,64.8396,0.0],[11.7437,64.8417,0.0],[11.7542,64.8417,0.0],[11.7583,64.8438,20.4414],[11.7646,64.8438,0.0],[11.7682,64.8464,0.0],[11.7693,64.8495,0.0],[11.7745,64.8505,0.0],[11.7818,64.8557,0.0],[11.7958,64.8604,10.5343],[11.8167,64.8604,17.7655],[11.8182,64.8588,20.9597],[11.7964,64.8557,0.0],[11.7964,64.8526,0.0],[11.7995,64.8516,0.0],[11.7974,64.8484,28.8192],[11.7854,64.8479,40.7295],[11.7547,64.837,0.0],[11.7563,64.8354,0.0],[11.7667,64.8354,0.0],[11.7786,64.8391,0.0],[11.7786,64.8359,0.0],[11.7708,64.8333,90.8809],[11.7583,64.8333,216.3184],[11.7542,64.8313,280.1796],[11.7333,64.8313,0.0],[11.7292,64.8292,135.78],[11.7188,64.8292,176.929],[11.7146,64.8313,33.383],[11.7104,64.8292,117.3712],[11.6938,64.8292,0.0],[11.6896,64.825,54.9586],[11.6667,64.825,0.0],[11.6625,64.8229,85.8101],[11.6354,64.8208,0.0],[11.6313,64.8187,0.0],[11.625,64.8187,0.0],[11.6208,64.8167,0.0],[11.6104,64.8167,0.0],[11.6026,64.8141,0.0],[11.6125,64.8104,0.0],[11.625,64.8104,0.0],[11.6214,64.8141,0.0],[11.6458,64.8146,0.0],[11.65,64.8167,11.8362],[11.6604,64.8146,0.0],[11.6687,64.8187,0.0],[11.675,64.8187,0.0],[11.6776,64.8151,0.0],[11.6932,64.812,0.0],[11.6917,64.8104,0.0],[11.6839,64.8099,0.0],[11.6896,64.8063,0.0],[11.7146,64.8042,0.0],[11.7188,64.8063,0.0],[11.7292,64.8063,0.0],[11.7333,64.8083,10.6452],[11.7453,64.8078,0.0],[11.7453,64.8047,22.5752],[11.738,64.7995,0.0],[11.7359,64.7953,0.0],[11.7375,64.7937,0.0],[11.7479,64.7937,0.0],[11.7521,64.7958,0.0],[11.7583,64.7958,21.1218],[11.7729,64.7917,5.2192],[11.7849,64.7963,0.0],[11.788,64.8016,0.0],[11.8063,64.8042,0.0],[11.8078,64.8037,23.2001],[11.8068,64.8005,0.0],[11.8125,64.7979,0.0],[11.8292,64.7979,0.0],[11.8333,64.8,0.0],[11.8375,64.8,19.5332],[11.8417,64.7979,0.0],[11.8625,64.7979,0.0],[11.8682,64.7953,82.4223],[11.8646,64.7917,193.8881],[11.85,64.7958,0.0],[11.8474,64.7922,50.6622],[11.838,64.7911,21.2147],[11.8411,64.788,0.0],[11.8104,64.7833,25.9368],[11.8083,64.7813,0.0],[11.812,64.7776,59.0824],[11.7938,64.7771,45.283],[11.7875,64.7729,125.731],[11.7833,64.775,0.0],[11.7625,64.775,0.0],[11.7583,64.7729,97.0741],[11.7437,64.7729,0.0],[11.7375,64.7708,6.7773],[11.7359,64.7714,29.7141],[11.737,64.7766,0.0],[11.7339,64.7776,78.9821],[11.7349,64.7807,0.0],[11.7307,64.7828,37.7991],[11.7146,64.7833,105.6286],[11.7083,64.7854,0.0],[11.7068,64.7849,0.0],[11.7047,64.7776,8.8296],[11.712,64.7766,0.0],[11.712,64.7734,99.2094],[11.6938,64.7708,13.3303],[11.6896,64.7688,42.6443],[11.6729,64.7688,0.0],[11.6687,64.7708,0.0],[11.6589,64.7714,0.0],[11.6563,64.775,0.0],[11.65,64.775,15.8323],[11.6474,64.7714,5.6357],[11.6333,64.7708,0.0],[11.6292,64.7667,12.5376],[11.6146,64.7708,0.0],[11.5958,64.7708,0.0],[11.5917,64.7688,0.0],[11.5792,64.7688,0.0],[11.575,64.7667,24.5237],[11.5672,64.7662,0.0],[11.5651,64.7609,0.0],[11.5745,64.7599,28.8778],[11.5729,64.7562,5.4835],[11.575,64.7542,5.7431],[11.5792,64.7542,0.0],[11.5958,64.7604,16.894],[11.6,64.7583,0.0],[11.6063,64.7583,4.5157],[11.6208,64.7625,0.0],[11.6271,64.7625,12.2352],[11.637,64.7578,13.5191],[11.6349,64.7526,22.42],[11.6333,64.7521,20.1646],[11.6208,64.7521,0.0],[11.6167,64.7479,24.0189],[11.6125,64.75,0.0],[11.6089,64.7495,0.0],[11.6125,64.7458,0.0],[11.612,64.7443,0.0],[11.6068,64.7422,0.0],[11.6141,64.7412,0.0],[11.6125,64.7396,0.0],[11.6063,64.7396,47.3114],[11.5938,64.7438,0.0],[11.5875,64.7417,34.3035],[11.5813,64.7458,0.0],[11.5708,64.7458,36.8955],[11.5693,64.7464,54.1549],[11.5693,64.7495,0.0],[11.5745,64.7516,0.0],[11.5667,64.7521,0.0],[11.5625,64.75,0.0],[11.5542,64.7542,13.8274],[11.55,64.7542,27.528199999999998],[11.5458,64.7521,41.6906],[11.5229,64.7521,0.0],[11.5214,64.7516,0.0],[11.5214,64.7484,7.1268],[11.537,64.7453,0.0],[11.5365,64.7396,0.0],[11.5507,64.7404,127.4278],[11.552,64.736,14.0],[11.5625,64.7366,14.0],[11.5639,64.7321,14.0],[11.5847,64.7333,156.4238],[11.5861,64.7288,73.0199],[11.607,64.73,114.6399],[11.6083,64.7255,158.8447],[11.6292,64.7267,18.7206],[11.6306,64.7222,9.5],[11.6514,64.7233,52.6392],[11.6528,64.7189,9.5],[11.7049,64.7217,9.5],[11.7008,64.7351,302.9366],[11.7113,64.7357,217.6566],[11.7099,64.7401,220.5462],[11.7308,64.7413,226.71],[11.7294,64.7457,233.2695],[11.7503,64.7469,351.2526],[11.749,64.7513,287.6653],[11.7698,64.7524,368.9976],[11.7685,64.7569,434.3527],[11.8729,64.7625,303.9688],[11.8743,64.7581,234.2196],[11.8847,64.7586,320.8042],[11.8834,64.7631,287.3244],[11.8938,64.7636,270.9947],[11.8925,64.7681,253.6055],[11.9029,64.7686,247.6422],[11.9016,64.7731,165.9783],[11.9539,64.7759,178.8173],[11.9526,64.7803,360.1131],[11.9735,64.7814,295.3522],[11.9721,64.7859,255.1102],[11.9931,64.787,206.3268],[11.9917,64.7915,221.6362],[12.0022,64.792,189.1996],[11.9996,64.8009,231.6414],[12.01,64.8015,317.4184],[12.0074,64.8104,146.5],[12.0179,64.8109,146.5],[12.0152,64.8198,299.9737],[12.0781,64.8231,498.5748],[12.0768,64.8276,487.2838],[12.0977,64.8287,417.2123],[12.0964,64.8331,396.059],[12.1174,64.8342,321.2225],[12.1187,64.8298,342.5679],[12.1292,64.8303,325.901],[12.1305,64.8258,292.984],[12.1409,64.8264,270.3585],[12.1422,64.8219,146.5],[12.1632,64.823,146.5],[12.1645,64.8185,162.5393],[12.1749,64.8191,298.4828],[12.176,64.8153,284.7372]]],
[[[12.0911,64.9547,21.628],[12.0911,64.9557,0.0],[12.088,64.9557,21.5527],[12.088,64.9547,58.8014],[12.0911,64.9547,21.628]]],
[[[11.55,64.9833,0.0],[11.5484,64.9828,0.5455],[11.5484,64.9818,0.0],[11.5516,64.9818,8.2608],[11.55,64.9833,0.0]]],
[[[11.5688,65.0062,0.0],[11.5672,65.0057,0.0],[11.5672,65.0026,11.0304],[11.5745,65.0026,0.0],[11.5724,65.0057,0.0],[11.5688,65.0062,0.0]]],
[[[11.6021,65.0188,11.3213],[11.5984,65.0172,9.0315],[11.6057,65.0172,10.0973],[11.6057,65.0182,6.6423],[11.6021,65.0188,11.3213]]],
[[[11.6729,65.0146,10.4766],[11.6766,65.0172,39.5657],[11.6766,65.0224,39.5903],[11.6604,65.0229,10.2897],[11.65,65.0188,8.1109],[11.6438,65.0208,0.0],[11.6193,65.0109,10.3778],[11.625,65.0083,0.0],[11.6417,65.0083,0.0],[11.6563,65.0125,50.5252],[11.6604,65.0104,0.0],[11.6729,65.0146,10.4766]]],
[[[11.7089,65.0214,0.0],[11.7146,65.0188,0.0],[11.7224,65.0224,0.0],[11.7104,65.0229,0.0],[11.7089,65.0214,0.0]]],
[[[11.9333,65.0646,0.0],[11.9297,65.063,2.5224],[11.937,65.063,0.0],[11.937,65.0641,4.6404],[11.9333,65.0646,0.0]]]]}
,"properties": {"GID_2": "NOR.9.14_1","GID_0": "NOR","country": "Norway","GID_1": "NOR.9_1","province": "Nord-Trøndelag","NL_NAME_1": "NA","county": "Nærøy","VARNAME_2": "NA","NL_NAME_2": "NA","TYPE_2": "Kommuner","ENGTYPE_2": "Municipality","CC_2": "NA","HASC_2": "NO.NT.NR","name": "Nærøy.county","area_km2": 1131.6959,"hist_schema_id": "Elevation0-9000","hist_area_km2": {"0": 141.7218,"25": 112.639,"50": 93.7632,"75": 79.0797,"100": 74.5145,"125": 84.5375,"150": 66.6141,"175": 59.2788,"200": 55.1445,"225": 50.4849,"250": 44.0059,"275": 40.4378,"300": 37.4652,"325": 28.9936,"350": 23.9714,"375": 21.3512,"400": 20.542,"425": 16.7051,"450": 15.329,"475": 13.8245,"500": 11.1944,"525": 9.6594,"550": 7.0906,"575": 5.9576,"600": 3.7907,"625": 3.0011,"650": 2.8218,"675": 3.0439,"700": 2.4239,"725": 0.8712,"750": 0.6381,"775": 0.4581,"800": 0.3323,"825": 0.009}}}