{"type":"Feature","properties":{"GID_2":"NOR.19.7_1","GID_0":"NOR","country":"Norway","GID_1":"NOR.19_1","province":"Vestfold","NL_NAME_1":"NA","county":"Nøtterøy","VARNAME_2":"NA","NL_NAME_2":"NA","TYPE_2":"Kommuner","ENGTYPE_2":"Municipality","CC_2":"NA","HASC_2":"NO.VF.NO","name":"Nøtterøy.county"},
"geometry":{"type": "MultiPolygon","coordinates": [[[[10.5397,59.1726,0.0],[10.5369,59.1735,0.8025],[10.5392,59.1676,0.7081],[10.5408,59.1679,0.7081],[10.5397,59.1726,0.0]]],
[[[10.5292,59.1787,0.0],[10.5258,59.1804,1.8641],[10.5247,59.1779,1.8101],[10.5281,59.1763,-0.0124],[10.5292,59.1787,0.0]]],
[[[10.5392,59.1818,0.6394],[10.5375,59.1832,0.0],[10.5325,59.1824,6.9239],[10.5347,59.1782,0.6801],[10.5386,59.1787,0.0],[10.5408,59.1771,3.8016],[10.5403,59.1757,0.6472],[10.5447,59.174,4.1182],[10.5453,59.1765,0.0],[10.5392,59.1818,0.6394]]],
[[[10.5269,59.1826,14.4752],[10.5275,59.1804,1.3993],[10.5303,59.1807,1.136],[10.5314,59.184,8.3363],[10.5292,59.189,0.0],[10.5258,59.1907,0.0],[10.5231,59.1882,1.0582],[10.5258,59.1871,5.4819],[10.5269,59.1826,14.4752]]],
[[[10.5781,59.1676,1.4517],[10.5792,59.1682,1.4517],[10.5786,59.1732,2.2533],[10.5769,59.1721,0.0],[10.5781,59.1676,1.4517]]],
[[[10.5947,59.1751,0.3777],[10.5958,59.176,1.5491],[10.5953,59.1782,1.0766],[10.5925,59.1743,0.4958],[10.5947,59.1751,0.3777]]],
[[[10.5803,59.1901,0.0],[10.5769,59.1907,0.0],[10.5747,59.1871,12.5773],[10.5792,59.1874,5.0743],[10.5803,59.1901,0.0]]],
[[[10.5469,59.1993,1.4048],[10.5447,59.1999,0.0],[10.5442,59.1968,0.0],[10.5469,59.1932,0.3853],[10.5464,59.1893,0.0],[10.5497,59.1885,0.0],[10.5514,59.191,0.0],[10.5492,59.1929,0.0],[10.5497,59.1971,0.0],[10.5469,59.1993,1.4048]]],
[[[10.5681,59.1982,0.0],[10.5653,59.1993,0.5767],[10.5647,59.1954,2.5127],[10.5619,59.1943,0.1676],[10.5658,59.1915,0.0],[10.5692,59.1926,0.0],[10.5692,59.1951,0.6504],[10.5669,59.1957,1.0578],[10.5681,59.1982,0.0]]],
[[[10.5408,59.1968,3.2374],[10.5375,59.1982,2.7665],[10.5381,59.196,4.1952],[10.5419,59.1946,0.0548],[10.5408,59.1968,3.2374]]],
[[[10.5564,59.199,8.5173],[10.5547,59.2012,0.5688],[10.5525,59.201,0.5688],[10.5525,59.1988,6.1413],[10.5553,59.1968,0.0],[10.5569,59.1968,0.0],[10.5564,59.199,8.5173]]],
[[[10.5831,59.2018,0.0],[10.5781,59.2026,1.5052],[10.5808,59.1985,0.0],[10.5836,59.1985,0.0],[10.5831,59.2018,0.0]]],
[[[10.5108,59.1988,1.4696],[10.5092,59.2038,0.0],[10.5064,59.2035,4.0783],[10.5036,59.2024,0.0],[10.5036,59.2001,3.9591],[10.5008,59.1993,1.0345],[10.4992,59.1949,0.0],[10.5058,59.1951,0.6986],[10.5103,59.1896,0.5547],[10.5131,59.1899,0.0],[10.5125,59.1935,1.8899],[10.5192,59.1943,0.2587],[10.5158,59.1974,0.0],[10.5108,59.1988,1.4696]]],
[[[10.5219,59.2226,3.9345],[10.5186,59.2238,0.0],[10.5192,59.2185,0.0],[10.5214,59.2163,0.0],[10.5225,59.219,0.0],[10.5219,59.2226,3.9345]]],
[[[10.5103,59.226,0.0],[10.5064,59.2265,0.0951],[10.5047,59.2251,0.747],[10.5142,59.2154,0.0],[10.5153,59.2207,0.0],[10.5131,59.2232,0.8663],[10.5097,59.2229,5.0799],[10.5103,59.226,0.0]]],
[[[10.5158,59.2249,0.0],[10.5119,59.2263,0.0],[10.5136,59.2235,0.8663],[10.5158,59.2235,0.0],[10.5158,59.2249,0.0]]],
[[[10.3708,59.1454,2.8767],[10.3703,59.1468,1.3827],[10.3681,59.1465,3.0452],[10.3664,59.1426,3.5971],[10.3686,59.1413,2.4172],[10.3669,59.139,4.8494],[10.3708,59.1401,1.1543],[10.3708,59.1454,2.8767]]],
[[[10.3536,59.1679,0.0],[10.3469,59.169,0.0],[10.3464,59.1665,3.3859],[10.3431,59.1665,1.6766],[10.3436,59.1646,2.0997],[10.3386,59.1576,0.0],[10.3342,59.1426,0.0],[10.3347,59.1413,0.0],[10.3375,59.1415,1.7881],[10.3392,59.1426,0.7764],[10.3386,59.1446,10.3439],[10.3403,59.1446,2.3699],[10.3425,59.1382,0.3163],[10.3464,59.1382,0.0],[10.3469,59.1413,10.8078],[10.3486,59.1418,0.5448],[10.3481,59.1465,0.4484],[10.3531,59.1449,0.0],[10.3531,59.1482,5.7887],[10.3547,59.1488,12.8243],[10.3558,59.1393,1.6657],[10.3575,59.1387,0.0],[10.3575,59.1357,0.0],[10.3597,59.1351,0.0],[10.3658,59.1387,1.2262],[10.3642,59.1415,0.0],[10.3681,59.1479,0.0],[10.3642,59.1543,0.0],[10.3642,59.1593,0.0],[10.3608,59.1632,4.3154],[10.3619,59.1646,0.0],[10.3597,59.1654,0.0],[10.3564,59.1638,2.0358],[10.3575,59.1651,2.0358],[10.3564,59.1671,0.0],[10.3536,59.1679,0.0]]],
[[[10.4614,59.1746,0.0],[10.4519,59.1746,9.2452],[10.4531,59.1721,6.3391],[10.4486,59.1676,1.7603],[10.4508,59.1632,0.0],[10.4547,59.1599,3.3497],[10.4592,59.1596,0.0],[10.4586,59.1629,0.0],[10.4608,59.1662,3.0377],[10.4608,59.1699,2.5417],[10.4631,59.171,0.9833],[10.4614,59.1746,0.0]]],
[[[10.4758,59.1738,4.0518],[10.4775,59.174,0.0],[10.4769,59.1763,4.5116],[10.4742,59.176,0.0],[10.4742,59.1738,0.8632],[10.4758,59.1738,4.0518]]],
[[[10.4992,59.1454,8.5104],[10.4975,59.1471,0.0],[10.4936,59.1468,11.7892],[10.4931,59.1437,0.0],[10.5003,59.1418,0.0],[10.5008,59.1435,1.1005],[10.4992,59.1454,8.5104]]],
[[[10.4881,59.1596,0.0],[10.4819,59.1607,0.0],[10.4808,59.159,1.9583],[10.4814,59.1568,0.113],[10.4864,59.1554,5.4487],[10.4831,59.1549,2.9757],[10.4831,59.1526,2.0985],[10.4853,59.1512,0.0],[10.4892,59.1526,1.1685],[10.4881,59.1596,0.0]]],
[[[10.4886,59.1643,2.6953],[10.4892,59.1662,3.2415],[10.4869,59.1674,0.3217],[10.4869,59.1643,0.0],[10.4886,59.1643,2.6953]]],
[[[10.4931,59.1701,1.8674],[10.4903,59.1715,1.65],[10.4886,59.1701,0.0],[10.4914,59.1643,0.0],[10.4986,59.1638,1.4029],[10.4975,59.1654,4.9992],[10.4986,59.1679,1.4021],[10.4931,59.1701,1.8674]]],
[[[10.4936,59.1824,0.0],[10.4881,59.1835,2.6278],[10.4842,59.181,0.0],[10.4853,59.1799,3.1494],[10.4842,59.1768,0.0],[10.4869,59.1729,0.0],[10.4925,59.176,0.0],[10.4919,59.1799,1.0202],[10.4947,59.1799,0.0],[10.4936,59.1824,0.0]]],
[[[10.4836,59.1899,2.7722],[10.4792,59.1907,1.0203],[10.4792,59.1851,10.234],[10.4808,59.1821,2.063],[10.4842,59.1832,2.5839],[10.4836,59.1874,6.284],[10.4869,59.1882,0.1817],[10.4836,59.1899,2.7722]]],
[[[10.4969,59.2107,2.4017],[10.4942,59.2118,2.4017],[10.4925,59.2065,14.4505],[10.4897,59.2049,7.8012],[10.4881,59.1988,5.0171],[10.4908,59.1957,5.1855],[10.4964,59.1976,4.1081],[10.5025,59.2062,0.0],[10.4969,59.2107,2.4017]]],
[[[10.4853,59.2057,0.529],[10.4864,59.2071,0.0357],[10.4842,59.2074,0.0],[10.4808,59.2021,2.0751],[10.4831,59.2018,0.0],[10.4853,59.2057,0.529]]],
[[[10.3575,59.1835,35.3619],[10.3575,59.1851,6.9515],[10.3553,59.1854,6.9515],[10.3503,59.1801,20.5887],[10.3497,59.1782,13.2147],[10.3525,59.1746,13.1653],[10.3564,59.1738,19.4484],[10.3592,59.1757,16.8656],[10.3592,59.1821,5.3785],[10.3575,59.1835,35.3619]]],
[[[10.4686,59.2093,5.1643],[10.4681,59.2121,0.0],[10.4647,59.2121,0.0],[10.4619,59.209,0.0],[10.4581,59.2004,7.9741],[10.4602,59.1965,1.1626],[10.4719,59.1951,0.0],[10.4736,59.1999,11.0317],[10.4764,59.201,4.4403],[10.4764,59.2062,4.0142],[10.4686,59.2093,5.1643]]],
[[[10.4497,59.1738,22.0224],[10.4553,59.179,11.7515],[10.4669,59.1774,0.0],[10.4681,59.1799,3.28],[10.4703,59.1804,0.0],[10.4703,59.1824,5.1966],[10.4719,59.1824,5.1966],[10.4692,59.1874,0.5891],[10.4658,59.1829,4.7103],[10.4597,59.1818,6.5534],[10.4681,59.1904,0.0],[10.4625,59.1949,11.3683],[10.4553,59.1979,4.2641],[10.4553,59.2007,5.4701],[10.4581,59.2049,5.151],[10.4531,59.2074,1.1267],[10.4581,59.2079,0.0],[10.4569,59.2126,0.5002],[10.4603,59.2146,0.0],[10.4586,59.2179,0.0],[10.4603,59.2193,0.0],[10.4581,59.2221,6.6513],[10.4625,59.2229,4.5319],[10.4631,59.2212,0.0],[10.4658,59.2212,0.0],[10.4669,59.2224,0.0],[10.4642,59.2321,4.9087],[10.4614,59.2346,2.498],[10.4719,59.2318,0.0],[10.4758,59.2343,0.7955],[10.4758,59.2365,0.0],[10.4719,59.2399,3.9562],[10.4597,59.2438,2.4344],[10.4531,59.2432,2.2613],[10.4519,59.2393,1.1929],[10.4497,59.2393,9.5395],[10.4464,59.241,0.0],[10.4464,59.2451,0.0],[10.4436,59.2457,0.0],[10.4425,59.2429,2.8075],[10.4375,59.2412,1.5678],[10.4403,59.231,6.5492],[10.4558,59.2232,3.7948],[10.4447,59.2246,0.0682],[10.4408,59.2271,2.224],[10.4414,59.229,1.391],[10.4375,59.2313,0.8275],[10.4381,59.2349,0.0],[10.4364,59.2365,1.2904],[10.4314,59.2365,0.2967],[10.4292,59.2388,10.2666],[10.4336,59.2418,0.0],[10.4336,59.2446,0.7046],[10.4269,59.2485,1.5325],[10.4303,59.2521,0.0607],[10.4269,59.2521,3.469],[10.4269,59.2551,2.7399],[10.4242,59.2588,0.696],[10.4319,59.261,0.0],[10.4314,59.2626,0.0],[10.4305,59.2611,0.0],[10.4214,59.2605,3.2237],[10.4201,59.2649,7.3749],[10.4114,59.2643,5.6504],[10.4101,59.2687,27.346],[10.4031,59.2671,2.5981],[10.3881,59.2682,0.0],[10.3897,59.266,2.7725],[10.3853,59.2651,15.1435],[10.3836,59.2596,3.5521],[10.3836,59.2565,0.0],[10.3864,59.2546,1.5994],[10.3864,59.2518,1.2894],[10.3819,59.2513,0.0],[10.3814,59.249,0.0],[10.3819,59.2463,0.0],[10.3853,59.246,8.9185],[10.3842,59.2374,0.0],[10.3853,59.236,17.7409],[10.3836,59.236,0.0],[10.3836,59.2343,1.4127],[10.3853,59.2307,5.1085],[10.3825,59.2304,7.7811],[10.3831,59.229,7.7811],[10.3797,59.2246,0.0],[10.3742,59.2188,30.7264],[10.3708,59.2174,0.0],[10.3703,59.2132,27.9786],[10.3675,59.2124,4.5086],[10.3686,59.2088,8.2657],[10.3642,59.2085,3.7233],[10.3631,59.2054,0.8073],[10.3669,59.2018,24.6055],[10.3631,59.1976,1.8228],[10.3636,59.194,5.4158],[10.3597,59.1871,0.0],[10.3608,59.1838,3.4205],[10.3625,59.1832,21.3827],[10.3631,59.1779,1.7038],[10.3647,59.1774,20.93],[10.3636,59.1765,0.1708],[10.3658,59.171,2.0871],[10.3731,59.1707,3.9064],[10.3708,59.1654,0.0],[10.3725,59.1635,0.0],[10.3792,59.1649,0.4947],[10.3797,59.1632,0.0],[10.3831,59.1624,3.3365],[10.3836,59.1676,18.1314],[10.3858,59.1699,0.0],[10.3842,59.1746,12.0672],[10.3919,59.1776,1.2905],[10.3919,59.1738,0.0],[10.3936,59.1729,0.0],[10.3992,59.1732,12.6927],[10.4158,59.1688,19.0882],[10.4225,59.1688,11.99],[10.4247,59.1657,6.2012],[10.4331,59.1632,0.0],[10.4342,59.1654,2.3156],[10.4375,59.1638,1.9765],[10.4414,59.166,1.7229],[10.4475,59.1738,22.0224],[10.4497,59.1738,22.0224]]],
[[[10.4747,59.2171,0.0],[10.4775,59.2171,0.0],[10.4775,59.2196,0.0],[10.4742,59.2193,0.0],[10.4747,59.2171,0.0]]],
[[[10.5431,59.2004,0.0],[10.5447,59.1999,0.0],[10.5453,59.2024,0.0],[10.5425,59.2029,0.0],[10.5431,59.2004,0.0]]],
[[[10.5314,59.2215,8.4886],[10.5275,59.2215,3.9523],[10.5269,59.2157,19.1359],[10.5292,59.2126,17.6985],[10.5453,59.2099,0.0],[10.5519,59.2101,2.4006],[10.5614,59.2076,7.9738],[10.5653,59.2018,0.0],[10.5686,59.2021,3.9108],[10.5686,59.1996,0.0298],[10.5708,59.199,7.4451],[10.5714,59.1971,1.8306],[10.5742,59.1979,10.7706],[10.5758,59.1957,1.2306],[10.5786,59.1965,0.4192],[10.5764,59.2029,2.1275],[10.5725,59.2049,1.7699],[10.5719,59.2068,0.0],[10.5681,59.2093,0.0],[10.5636,59.2093,0.0],[10.5653,59.2113,0.0],[10.5625,59.2151,0.0],[10.5564,59.2171,0.0],[10.5503,59.2168,2.2082],[10.5469,59.2196,0.8711],[10.5442,59.2196,0.0],[10.5425,59.219,0.4393],[10.5419,59.2163,1.6971],[10.5369,59.2143,2.5034],[10.5364,59.2215,0.9758],[10.5314,59.2215,8.4886]]],
[[[10.5097,59.2382,2.3234],[10.5069,59.2385,0.0],[10.5058,59.2351,0.0],[10.5108,59.2318,0.0],[10.5119,59.2374,0.0],[10.5097,59.2382,2.3234]]],
[[[10.5214,59.2432,0.0],[10.5175,59.244,0.0987],[10.5119,59.2421,0.0],[10.5175,59.2418,0.0],[10.5214,59.2432,0.0]]],
[[[10.5014,59.249,5.4063],[10.4981,59.2507,0.0],[10.4975,59.2479,0.0],[10.4986,59.2454,0.0],[10.5025,59.2438,7.1028],[10.5064,59.2435,0.0],[10.5108,59.2471,0.0],[10.5075,59.2487,0.3091],[10.5014,59.249,5.4063]]],
[[[10.5042,59.221,0.0],[10.5008,59.221,0.0],[10.5008,59.2168,0.0],[10.5031,59.2168,0.0],[10.5042,59.221,0.0]]],
[[[10.4925,59.2254,0.0],[10.4892,59.2268,0.7174],[10.4875,59.2246,0.9928],[10.4886,59.2224,0.1502],[10.4925,59.221,0.0],[10.4919,59.2229,0.0432],[10.4936,59.2238,0.0],[10.4908,59.2254,0.7269],[10.4925,59.2254,0.0]]],
[[[10.4925,59.239,0.0],[10.4925,59.2438,0.3881],[10.4886,59.244,0.0],[10.4897,59.2388,6.2865],[10.4925,59.239,0.0]]],
[[[10.3742,59.2215,4.361],[10.3719,59.2226,0.0],[10.3686,59.2188,0.0],[10.3731,59.2199,2.7507],[10.3742,59.2215,4.361]]],
[[[10.4004,59.2714,5.4148],[10.4003,59.2721,11.4088],[10.4003,59.271,5.4148],[10.4004,59.2714,5.4148]]],
[[[10.3997,59.2721,11.4088],[10.4003,59.2721,11.4088],[10.4002,59.2725,11.4088],[10.3997,59.2725,11.4088],[10.3997,59.2721,11.4088]]]]}}