{"type": "Feature","bbox": [13.6305,65.107,14.6296,65.883],"geometry": {"type": "MultiPolygon","coordinates": [[[[14.3104,65.1074,1019.2405],[14.3095,65.1118,1062.2557],[14.3201,65.1122,994.4559],[14.3191,65.1167,1099.9086],[14.3298,65.1171,1075.2239],[14.3269,65.1305,941.6906],[14.3376,65.1309,912.3458],[14.3338,65.1488,969.4708],[14.3444,65.1492,997.8251],[14.3406,65.1671,1191.5881],[14.3513,65.1675,1232.906],[14.3475,65.1854,804.2796],[14.3581,65.1858,813.0912],[14.3553,65.1993,1017.0386],[14.3659,65.1996,1064.8689],[14.3621,65.2176,1345.6274],[14.3728,65.2179,1243.8551],[14.369,65.2359,921.8884],[14.3797,65.2362,896.3044],[14.3769,65.2497,915.6791],[14.3875,65.2501,927.8516],[14.3866,65.2545,903.489],[14.3973,65.2549,940.0713],[14.3963,65.2594,911.634],[14.407,65.2598,940.7957],[14.4061,65.2643,957.6836],[14.4168,65.2646,921.8052],[14.4158,65.2691,898.7449],[14.4265,65.2695,838.167],[14.4256,65.274,849.2088],[14.4363,65.2744,816.4775],[14.4353,65.2788,756.7603],[14.446,65.2792,780.5457],[14.4451,65.2837,759.7991],[14.4558,65.2841,792.015],[14.4548,65.2886,746.8304],[14.4655,65.2889,739.343],[14.4646,65.2934,798.5914],[14.4753,65.2938,767.652],[14.4744,65.2983,709.3042],[14.4958,65.299,615.8895],[14.4948,65.3035,609.8806],[14.5055,65.3039,608.0067],[14.5018,65.3218,752.3769],[14.5125,65.3222,748.8809],[14.4977,65.3939,833.4663],[14.5084,65.3942,905.222],[14.4963,65.4525,610.2927],[14.5071,65.4528,654.2416],[14.4949,65.5111,795.1862],[14.5057,65.5115,709.3773],[14.5001,65.5383,971.9595],[14.5109,65.5387,887.9155],[14.5062,65.5611,981.1028],[14.517,65.5615,913.6543],[14.5133,65.5794,826.1116],[14.5241,65.5798,804.7369],[14.5156,65.6201,946.8493],[14.5265,65.6205,945.6136],[14.5227,65.6384,905.2761],[14.5336,65.6388,886.5693],[14.5289,65.6612,784.8301],[14.5397,65.6615,787.3311],[14.5341,65.6884,741.7704],[14.545,65.6888,750.4727],[14.5412,65.7067,779.946],[14.5521,65.7071,785.7122],[14.5502,65.716,618.631],[14.5611,65.7164,593.7281],[14.5583,65.7299,525.0439],[14.5692,65.7302,492.2836],[14.5673,65.7392,512.8308],[14.5782,65.7396,548.6716],[14.5754,65.753,608.0479],[14.5863,65.7534,669.8514],[14.5844,65.7623,619.9385],[14.5953,65.7627,596.8593],[14.5925,65.7762,764.5625],[14.6034,65.7765,783.8026],[14.6015,65.7855,712.0709],[14.6124,65.7859,686.7573],[14.6106,65.7948,553.8771],[14.6215,65.7952,563.2601],[14.6187,65.8086,743.8091],[14.6296,65.809,773.4423],[14.6259,65.8269,674.904],[14.615,65.8265,772.4509],[14.6084,65.8579,792.9897],[14.5538,65.856,1007.1458],[14.5529,65.8605,1152.7141],[14.3998,65.8552,973.225],[14.3989,65.8597,1045.3392],[14.3879,65.8593,1049.5079],[14.387,65.8638,1268.5668],[14.376,65.8634,1386.9916],[14.3751,65.8679,1250.1416],[14.3641,65.8675,1226.7087],[14.3632,65.8719,1034.5912],[14.3413,65.8712,807.5521],[14.3403,65.8756,673.2897],[14.3185,65.8749,481.704],[14.3175,65.8793,380.5],[14.2956,65.8786,380.5],[14.2946,65.883,380.5],[14.2509,65.8815,380.5],[14.2519,65.877,380.5],[14.2191,65.8758,380.5],[14.2201,65.8713,380.5],[14.2091,65.8709,380.5],[14.2101,65.8664,380.5],[14.1992,65.866,380.5],[14.2002,65.8616,380.5],[14.1893,65.8612,380.5],[14.1903,65.8567,380.5],[14.1794,65.8563,382.8338],[14.1804,65.8518,388.5746],[14.1694,65.8514,380.5],[14.1705,65.8469,380.5],[14.1486,65.8461,380.5],[14.1516,65.8327,380.5],[14.1407,65.8323,380.5],[14.1438,65.8189,380.5],[14.1329,65.8185,380.5],[14.1349,65.8095,380.5],[14.124,65.8091,380.5],[14.125,65.8046,380.5],[14.1141,65.8042,380.5],[14.1151,65.7997,380.5],[14.0933,65.7989,380.5],[14.0943,65.7944,380.5],[14.0834,65.794,380.5],[14.0844,65.7896,380.5],[14.0627,65.7887,380.5],[14.0637,65.7843,380.5],[13.9983,65.7818,380.5],[13.9994,65.7773,380.5],[13.9667,65.7761,380.5],[13.9558,65.7757,380.5],[13.9548,65.7801,380.5],[13.9221,65.7789,380.5],[13.9232,65.7744,435.7644],[13.9123,65.774,450.1005],[13.9133,65.7695,471.6888],[13.8915,65.7687,797.6847],[13.8926,65.7642,808.5776],[13.8817,65.7638,1123.0631],[13.86,65.7629,909.719],[13.8589,65.7674,1260.0917],[13.848,65.767,825.0355],[13.847,65.7715,1070.2682],[13.8361,65.771,826.835],[13.835,65.7755,975.6375],[13.7371,65.7717,1090.8524],[13.7381,65.7672,855.8763],[13.7164,65.7663,768.3856],[13.7175,65.7618,746.7141],[13.6957,65.761,909.90239999999994],[13.6968,65.7565,1044.8837],[13.6642,65.7552,1052.7367],[13.6653,65.7507,1105.3199],[13.6544,65.7503,1191.8687],[13.6566,65.7413,926.6457],[13.6457,65.7409,981.2205],[13.6479,65.732,894.0906],[13.637,65.7315,973.3511],[13.6414,65.7136,515.1915],[13.6305,65.7132,560.5735],[13.6349,65.6953,440.7147],[13.6457,65.6957,440.5529],[13.6501,65.6778,530.3425],[13.6609,65.6783,548.4999],[13.6664,65.6559,692.8597],[13.6772,65.6563,741.1851],[13.6826,65.634,766.112],[13.7476,65.6366,585.5],[13.7486,65.6321,616.8428],[13.7595,65.6325,706.287],[13.7616,65.6236,693.3531],[13.7508,65.6231,692.5928],[13.754,65.6097,674.7415],[13.7432,65.6093,678.8848],[13.7442,65.6048,666.0926],[13.7334,65.6044,668.3451],[13.7356,65.5954,606.4343],[13.7248,65.595,632.699],[13.7258,65.5905,590.8037],[13.715,65.5901,638.6483],[13.7161,65.5856,573.947],[13.7053,65.5852,618.993],[13.7074,65.5762,447.4453],[13.6966,65.5758,428.1877],[13.6977,65.5713,434.133],[13.6869,65.5709,401.4602],[13.688,65.5664,408.0211],[13.6772,65.566,402.7635],[13.6815,65.5481,483.1425],[13.7139,65.5494,410.972],[13.7128,65.5539,509.0302],[13.756,65.5556,420.8351],[13.7592,65.5422,204.5416],[13.7484,65.5418,124.5],[13.7494,65.5373,238.0198],[13.7387,65.5368,169.5676],[13.7397,65.5324,266.7475],[13.7289,65.5319,176.2373],[13.7311,65.523,263.2658],[13.7203,65.5226,163.3633],[13.7214,65.5181,231.6696],[13.7753,65.5202,296.5887],[13.7763,65.5158,299.2516],[13.7871,65.5162,372.2881],[13.7882,65.5117,416.9253],[13.7989,65.5121,537.5115],[13.8,65.5077,785.5572],[13.8215,65.5085,962.9836],[13.8226,65.5041,1003.2139],[13.8334,65.5045,1013.8221],[13.8344,65.5,1063.9403],[13.856,65.5008,1177.6595],[13.857,65.4964,1191.5399],[13.8785,65.4972,1270.5731],[13.8796,65.4927,1258.4142],[13.8904,65.4932,1235.5875],[13.8924,65.4842,1215.6915],[13.9032,65.4846,1239.0854],[13.9063,65.4712,977.9818],[13.8848,65.4704,996.8245],[13.8858,65.4659,980.8623],[13.8643,65.465,990.1521],[13.8653,65.4606,808.9686],[13.8438,65.4597,1032.0928],[13.847,65.4463,1024.1331],[13.8362,65.4459,1072.0023],[13.8414,65.4235,891.2361],[13.8522,65.4239,873.2092],[13.8543,65.415,1244.4707],[13.865,65.4154,1276.8834],[13.8681,65.402,956.5068],[13.8574,65.4016,1159.166],[13.8595,65.3926,1298.0193],[13.8166,65.3909,931.0513],[13.8176,65.3864,819.6638],[13.8069,65.386,916.6115],[13.8173,65.3413,1063.7578],[13.8066,65.3409,1132.509],[13.8087,65.3319,1278.5813],[13.798,65.3315,1426.616],[13.8012,65.3181,888.5256],[13.7905,65.3176,959.6553],[13.7936,65.3042,1149.7439],[13.8257,65.3055,1240.6881],[13.8278,65.2965,1100.4463],[13.8171,65.2961,1116.3459],[13.8181,65.2916,983.3083],[13.8074,65.2912,898.9371],[13.8085,65.2867,876.5],[13.7978,65.2863,935.5803],[13.7988,65.2818,876.5],[13.7881,65.2814,918.5815],[13.7934,65.259,1020.6528],[13.8681,65.262,970.3862],[13.8722,65.2441,901.8666],[13.8616,65.2437,999.7241],[13.8626,65.2392,1058.6991],[13.8519,65.2388,1143.5941],[13.853,65.2343,1176.3922],[13.8423,65.2339,1114.2484],[13.8433,65.2294,1096.4401],[13.8327,65.229,1134.9353],[13.8337,65.2245,1140.9138],[13.823,65.2241,1214.9265],[13.8241,65.2196,1225.0415],[13.8134,65.2192,1263.319],[13.8145,65.2147,1358.412],[13.8038,65.2143,1399.5792],[13.8048,65.2098,1359.1056],[13.7942,65.2094,1541.6552],[13.7952,65.2049,1342.5397],[13.7846,65.2045,1191.1119],[13.7867,65.1955,1056.5409],[13.776,65.1951,1007.6148],[13.7771,65.1907,900.1284],[13.7664,65.1902,804.1207],[13.7675,65.1857,779.7672],[13.7568,65.1853,815.0634],[13.7579,65.1808,810.8061],[13.7472,65.1804,916.4557],[13.7483,65.1759,824.5825],[13.7376,65.1755,1009.9197],[13.7387,65.171,854.2983],[13.728,65.1706,1131.6051],[13.7291,65.1661,881.32],[13.7184,65.1657,981.7659],[13.7206,65.1568,761.4478],[13.7099,65.1563,936.2863],[13.7141,65.1384,730.2369],[13.7035,65.138,913.5413],[13.7056,65.1291,683.512],[13.6737,65.1277,674.5129],[13.6748,65.1233,667.4788],[13.6642,65.1228,649.0],[13.6653,65.1184,649.0],[13.6546,65.1179,649.0],[13.6557,65.1135,649.0],[13.6663,65.1139,649.0],[13.6674,65.1094,659.13],[13.7523,65.1129,864.8725],[13.7533,65.1084,838.3657],[13.7852,65.1097,870.2538],[13.7841,65.1142,826.1616],[13.816,65.1154,692.2126],[13.8149,65.1199,701.5217],[13.953,65.1254,1072.4133],[13.952,65.1299,1018.0694],[14.0264,65.1328,1043.2915],[14.0274,65.1283,1135.322],[14.0593,65.1295,1012.739],[14.0603,65.125,1098.3086],[14.0815,65.1258,1079.5549],[14.0805,65.1303,1035.193],[14.1124,65.1315,1150.399],[14.1114,65.136,1042.8787],[14.1433,65.1372,1282.1842],[14.1423,65.1417,1241.8015],[14.153,65.1421,1320.9186],[14.1539,65.1376,1369.368],[14.1646,65.138,1360.4337],[14.1655,65.1336,1172.5703],[14.1868,65.1344,1423.6332],[14.1878,65.1299,1426.396],[14.1984,65.1303,1426.8937],[14.1994,65.1258,1194.3895],[14.2206,65.1266,1174.3567],[14.2216,65.1221,1097.0764],[14.2429,65.1229,1183.1036],[14.2438,65.1184,1134.2682],[14.2651,65.1192,1199.6135],[14.266,65.1148,1133.4],[14.2873,65.1155,1132.6014],[14.2882,65.1111,1178.8313],[14.2989,65.1115,1093.0758],[14.2998,65.107,999.3807],[14.3104,65.1074,1019.2405]]]]}
,"properties": {"GID_2": "NOR.10.17_1","GID_0": "NOR","country": "Norway","GID_1": "NOR.10_1","province": "Nordland","NL_NAME_1": "NA","county": "Hattfjelldal","VARNAME_2": "NA","NL_NAME_2": "NA","TYPE_2": "Kommuner","ENGTYPE_2": "Municipality","CC_2": "NA","HASC_2": "NO.NO.HF","name": "Hattfjelldal.county","area_km2": 2622.417,"hist_schema_id": "Elevation0-9000","hist_area_km2": {"125": 0.158,"150": 0.377,"175": 1.246,"200": 3.98,"225": 7.263,"250": 10.676,"275": 12.966,"300": 14.116,"325": 35.932,"350": 25.686,"375": 169.923,"400": 61.829,"425": 68.255,"450": 66.066,"475": 63.343,"500": 70.354,"525": 77.52,"550": 77.123,"575": 73.196,"600": 70.757,"625": 67.955,"650": 73.838,"675": 101.423,"700": 97.906,"725": 106.311,"750": 108.455,"775": 101.121,"800": 101.754,"825": 101.979,"850": 91.515,"875": 88.251,"900": 83.292,"925": 74.833,"950": 66.35,"975": 73.679,"1000": 59.531,"1025": 53.197,"1050": 47.645,"1075": 42.521,"1100": 35.798,"1125": 28.853,"1150": 23.075,"1175": 17.284,"1200": 14.818,"1225": 13.034,"1250": 11.009,"1275": 8.44,"1300": 6.899,"1325": 4.852,"1350": 2.871,"1375": 1.415,"1400": 0.823,"1425": 0.459,"1450": 0.266,"1475": 0.098,"1500": 0.062}}}