{"type": "Feature","bbox": [6.8313,60.0985,7.7131,60.5916],"geometry": {"type": "MultiPolygon","coordinates": [[[[7.6994,60.5294,1418.8762],[7.69,60.5286,1395.7639],[7.6883,60.533,1408.1155],[7.6614,60.5305,1447.7159],[7.6597,60.5349,1443.0792],[7.6417,60.5332,1503.8252],[7.64,60.5376,1480.15],[7.622,60.536,1415.796],[7.6203,60.5404,1372.5255],[7.5934,60.5378,1463.2089],[7.5917,60.5423,1396.4537],[7.5737,60.5406,1384.601],[7.572,60.545,1401.5358],[7.545,60.5425,1452.2726],[7.5433,60.5469,1387.0096],[7.5163,60.5443,1520.7317],[7.5146,60.5487,1509.1229],[7.4877,60.5462,1669.3501],[7.4859,60.5506,1642.5524],[7.459,60.5481,1818.0908],[7.4573,60.5525,1815.8156],[7.4393,60.5508,1810.6539],[7.4376,60.5552,1695.0808],[7.4196,60.5535,1785.7346],[7.4179,60.5579,1756.4308],[7.4089,60.557,1803.1119],[7.4071,60.5614,1780.8582],[7.3982,60.5606,1788.4688],[7.3964,60.565,1742.3237],[7.3874,60.5641,1724.8331],[7.3857,60.5685,1634.8278],[7.3767,60.5677,1641.8831],[7.375,60.5721,1560.5139],[7.357,60.5704,1503.4119],[7.3552,60.5748,1412.9324],[7.3462,60.5739,1443.6403],[7.3445,60.5783,1431.2632],[7.3355,60.5775,1483.6293],[7.3338,60.5819,1411.0405],[7.3248,60.581,1410.1869],[7.323,60.5854,1396.0364],[7.314,60.5845,1380.1533],[7.3123,60.5889,1394.7341],[7.2943,60.5872,1301.1566],[7.2925,60.5916,1288.2366],[7.2296,60.5856,1264.4976],[7.2314,60.5812,1218.0],[7.2224,60.5803,1238.2061],[7.2242,60.5759,1288.3391],[7.2152,60.5751,1223.8584],[7.2222,60.5575,1175.6243],[7.2133,60.5566,1170.5997],[7.2185,60.5434,1187.0509],[7.2006,60.5417,1246.4741],[7.2024,60.5373,1255.5605],[7.1844,60.5355,1249.6072],[7.1826,60.5399,1214.0082],[7.0571,60.5278,1540.5753],[7.0553,60.5321,1264.077],[7.0104,60.5278,1095.6642],[7.0122,60.5234,1155.2225],[6.9853,60.5207,824.1323],[6.9871,60.5163,746.9039],[6.9602,60.5137,440.6567],[6.962,60.5093,604.6691],[6.9441,60.5075,295.342],[6.9459,60.5031,421.793],[6.9369,60.5023,265.6036],[6.9387,60.4979,432.8962],[6.9298,60.497,329.9466],[6.9316,60.4926,219.1401],[6.9229,60.4917,0.0],[6.9261,60.49,0.0],[6.9435,60.4937,0.0],[6.9563,60.5,28.7278],[6.9625,60.5,0.0],[6.9667,60.4979,0.0],[6.9792,60.5021,0.0],[7.0083,60.5021,0.0],[7.0151,60.4984,0.0],[7.025,60.4958,0.0],[7.0375,60.4958,0.0],[7.0417,60.4938,0.0],[7.0458,60.4938,0.0],[7.0474,60.4932,0.0],[7.0464,60.4901,0.0],[7.0562,60.4896,0.0],[7.0646,60.4854,0.0],[7.0813,60.4854,0.0],[7.1,60.4917,0.0],[7.1042,60.4917,0.0],[7.1099,60.4891,0.0],[7.1083,60.4875,0.0],[7.0979,60.4875,0.0],[7.0922,60.4849,0.0],[7.0911,60.4818,0.0],[7.0818,60.4807,0.0],[7.0734,60.4766,0.0],[7.0724,60.4714,0.0],[7.0604,60.4667,0.0],[7.0521,60.4708,0.0],[7.0464,60.4714,11.5958],[7.0432,60.4766,0.0],[7.0375,60.475,13.1448],[7.0307,60.4786,0.0],[7.0208,60.4813,0.0],[7.0125,60.4813,0.0],[7.0083,60.4833,0.0],[7.0042,60.4833,0.0],[7.0,60.4813,30.2963],[6.9958,60.4833,0.0],[6.9917,60.4833,0.0],[6.9875,60.4813,9.8161],[6.9776,60.4807,105.4177],[6.9807,60.4776,383.301],[6.9729,60.4771,306.7022],[6.9714,60.4776,264.8238],[6.9724,60.4828,0.0],[6.9708,60.4833,0.0],[6.9667,60.4792,22.8171],[6.9604,60.4792,0.0],[6.9479,60.475,0.0],[6.9422,60.4766,0.0],[6.9422,60.4734,0.0],[6.9474,60.4703,236.0071],[6.9458,60.4688,265.0159],[6.9354,60.4729,0.0],[6.9083,60.4729,0.0],[6.9042,60.4708,0.0],[6.9,60.4708,0.0],[6.8958,60.4729,0.0],[6.8932,60.4693,0.0],[6.8833,60.4688,0.0],[6.8708,60.4729,0.0],[6.8625,60.4729,31.0756],[6.8583,60.475,0.0],[6.8458,60.475,0.0],[6.8313,60.4698,101.7234],[6.8376,60.472,113.7609],[6.8404,60.4652,155.6013],[6.8314,60.4644,186.8465],[6.8368,60.4512,744.7693],[6.8458,60.4521,977.8255],[6.8476,60.4477,873.4865],[6.8744,60.4503,1008.2717],[6.8798,60.4371,1305.5664],[6.8887,60.438,1263.2126],[6.8977,60.416,1224.3212],[6.9067,60.4169,1179.6079],[6.9085,60.4125,1284.2306],[6.9978,60.4214,1174.5371],[6.9996,60.417,1219.0841],[7.0085,60.4178,1247.3215],[7.0121,60.409,1147.1744],[7.021,60.4099,1174.1726],[7.0246,60.4011,1348.0326],[7.0157,60.4002,1232.0544],[7.0192,60.3914,1344.9921],[7.0103,60.3906,1335.0624],[7.0156,60.3774,1092.9541],[6.9799,60.3739,1337.7012],[6.9853,60.3607,1313.9752],[6.9764,60.3598,1365.7675],[6.9799,60.351,1229.7939],[6.9978,60.3528,1282.4927],[6.9995,60.3484,1262.4977],[7.0263,60.351,1166.9464],[7.0281,60.3466,1233.3123],[7.0459,60.3483,1152.3822],[7.0477,60.3439,1199.2981],[7.0834,60.3474,1196.9985],[7.0816,60.3518,1173.095],[7.0994,60.3536,1085.2196],[7.1012,60.3492,1105.2158],[7.1101,60.3501,1114.6833],[7.1119,60.3457,1107.348],[7.103,60.3448,1109.0682],[7.1065,60.336,1031.5016],[7.0976,60.3351,1071.9161],[7.1046,60.3175,1099.4304],[7.1135,60.3184,1030.5261],[7.1206,60.3008,1148.1675],[7.1295,60.3017,1142.5204],[7.133,60.2929,1179.9417],[7.1419,60.2937,1132.4366],[7.1437,60.2893,1109.7435],[7.1526,60.2902,1037.8579],[7.1543,60.2858,989.3437],[7.1632,60.2867,986.7321],[7.165,60.2823,1055.2875],[7.1917,60.2849,1089.6799],[7.1934,60.2805,1143.0081],[7.2202,60.2831,1354.9718],[7.2219,60.2787,1483.2682],[7.2308,60.2795,1458.0465],[7.236,60.2663,1372.3247],[7.2182,60.2646,1324.2473],[7.22,60.2602,1419.108],[7.1933,60.2576,1330.4844],[7.1915,60.262,1175.2137],[7.1648,60.2594,995.1511],[7.1736,60.2374,1058.8813],[7.1647,60.2365,1057.1735],[7.1664,60.2321,1097.0702],[7.1576,60.2313,1096.6467],[7.1645,60.2137,1326.8416],[7.1734,60.2145,1198.3115],[7.1787,60.2013,1374.0608],[7.1876,60.2022,1303.7268],[7.1893,60.1978,1340.4172],[7.2071,60.1995,1135.5037],[7.2088,60.1951,1173.0763],[7.2177,60.196,1144.6355],[7.235,60.152,1339.821],[7.2262,60.1511,1352.4399],[7.2279,60.1467,1339.4194],[7.219,60.1459,1327.4559],[7.2208,60.1415,1339.5924],[7.2119,60.1406,1328.8071],[7.2136,60.1362,1372.7617],[7.2048,60.1353,1310.2871],[7.2065,60.1309,1324.1918],[7.2331,60.1335,1360.9984],[7.2348,60.1291,1349.8344],[7.2614,60.1317,1326.0931],[7.2632,60.1273,1322.0067],[7.2986,60.1308,1337.2496],[7.3004,60.1264,1336.7574],[7.327,60.1289,1346.1228],[7.3287,60.1245,1376.9449],[7.3641,60.1279,1333.9559],[7.3658,60.1235,1326.5182],[7.3924,60.1261,1357.3583],[7.3942,60.1217,1339.4359],[7.403,60.1225,1362.0518],[7.4047,60.1181,1404.975],[7.4225,60.1198,1325.9734],[7.4242,60.1154,1292.2089],[7.433,60.1163,1307.6174],[7.4347,60.1119,1265.6768],[7.4436,60.1127,1328.7671],[7.4453,60.1083,1321.7771],[7.4542,60.1092,1309.6555],[7.4559,60.1048,1360.8093],[7.4736,60.1065,1343.493],[7.4753,60.1021,1361.476],[7.4842,60.1029,1377.0813],[7.4859,60.0985,1401.5961],[7.4947,60.0993,1414.0504],[7.493,60.1038,1385.9872],[7.5019,60.1046,1386.6307],[7.5002,60.109,1354.5991],[7.5091,60.1098,1345.5699],[7.5074,60.1143,1302.0118],[7.5162,60.1151,1301.4132],[7.5145,60.1195,1308.6034],[7.5234,60.1203,1307.9114],[7.5217,60.1247,1321.5425],[7.5306,60.1256,1294.1036],[7.5272,60.1344,1261.2163],[7.5361,60.1352,1262.9233],[7.5344,60.1396,1260.6409],[7.5432,60.1405,1258.6061],[7.5416,60.1449,1259.4127],[7.5504,60.1457,1253.8746],[7.5487,60.1501,1257.3275],[7.5576,60.151,1263.1152],[7.5559,60.1554,1287.0475],[7.5648,60.1562,1265.3494],[7.5631,60.1606,1259.6553],[7.572,60.1615,1223.8046],[7.5686,60.1703,1306.7078],[7.5775,60.1711,1353.9921],[7.5758,60.1755,1324.1566],[7.5847,60.1764,1354.6837],[7.5813,60.1852,1229.4175],[7.5902,60.186,1225.3876],[7.5868,60.1948,1236.5402],[7.5957,60.1957,1236.3711],[7.5907,60.2089,1235.8496],[7.5995,60.2097,1239.6016],[7.5962,60.2185,1247.2393],[7.6051,60.2194,1259.7867],[7.6,60.2326,1234.7667],[7.6089,60.2334,1225.5699],[7.6055,60.2422,1222.6564],[7.6144,60.2431,1215.2104],[7.6127,60.2475,1220.1537],[7.6216,60.2483,1218.9729],[7.6199,60.2527,1217.512],[7.6289,60.2536,1218.1384],[7.6272,60.258,1221.2518],[7.6361,60.2588,1217.073],[7.6344,60.2632,1213.5438],[7.6433,60.2641,1214.2117],[7.6399,60.2729,1215.0261],[7.6488,60.2737,1216.8475],[7.6471,60.2781,1221.2394],[7.6561,60.2789,1231.1514],[7.6544,60.2834,1227.2499],[7.6632999999999996,60.2842,1218.0667],[7.6616,60.2886,1216.0496],[7.6705,60.2894,1228.6786],[7.6688,60.2938,1276.0833],[7.6778,60.2947,1308.6089],[7.671,60.3123,1365.392],[7.6799,60.3131,1325.9049],[7.6732,60.3308,1336.6984],[7.6821,60.3316,1333.4473],[7.6754,60.3492,1164.7214],[7.6843,60.35,1156.0981],[7.6759,60.3721,1180.3723],[7.6848,60.3729,1190.6719],[7.6781,60.3905,1156.3621],[7.687,60.3914,1137.8938],[7.6803,60.409,1169.2988],[7.6892,60.4098,1147.4519],[7.6841,60.4231,1231.3595],[7.6931,60.4239,1286.6582],[7.6863,60.4415,1323.6554],[7.6953,60.4424,1248.7203],[7.6902,60.4556,1179.8347],[7.6992,60.4564,1176.5741],[7.6941,60.4696,1175.8555],[7.7031,60.4705,1181.0114],[7.698,60.4837,1291.4487],[7.707,60.4845,1304.2527],[7.7002,60.5021,1241.658],[7.7092,60.503,1234.1895],[7.7041,60.5162,1391.3319],[7.7131,60.517,1433.3831],[7.708,60.5302,1383.1079],[7.6994,60.5294,1418.8762]]],
[[[6.8771,60.475,0.0],[6.8786,60.4755,0.0],[6.8786,60.4766,0.0],[6.8755,60.4766,0.0],[6.8771,60.475,0.0]]]]}
,"properties": {"GID_2": "NOR.7.6_1","GID_0": "NOR","country": "Norway","GID_1": "NOR.7_1","province": "Hordaland","NL_NAME_1": "NA","county": "Eidfjord","VARNAME_2": "NA","NL_NAME_2": "NA","TYPE_2": "Kommuner","ENGTYPE_2": "Municipality","CC_2": "NA","HASC_2": "NO.HO.EI","name": "Eidfjord.county","area_km2": 1504.052,"hist_schema_id": "Elevation0-9000","hist_area_km2": {"0": 6.236,"25": 7.611,"50": 3.083,"75": 2.654,"100": 3.282,"125": 3.344,"150": 2.498,"175": 2.446,"200": 2.498,"225": 2.571,"250": 2.572,"275": 2.195,"300": 2.634,"325": 2.279,"350": 2.541,"375": 2.676,"400": 2.425,"425": 2.613,"450": 2.415,"475": 2.854,"500": 2.342,"525": 2.342,"550": 2.78,"575": 2.833,"600": 2.895,"625": 2.582,"650": 2.864,"675": 3.639,"700": 3.555,"725": 4.361,"750": 4.895,"775": 6.309,"800": 6.34,"825": 9.205,"850": 12.038,"875": 12.932,"900": 13.526,"925": 24.332,"950": 18.771,"975": 20.269,"1000": 25.297,"1025": 28.244,"1050": 33.633,"1075": 42.557,"1100": 40.62,"1125": 51.084,"1150": 56.591,"1175": 73.308,"1200": 61.827,"1225": 115.619,"1250": 150.397,"1275": 111.875,"1300": 105.567,"1325": 86.752,"1350": 71.605,"1375": 54.117,"1400": 40.801,"1425": 26.044,"1450": 16.835,"1475": 12.137,"1500": 8.788,"1525": 5.863,"1550": 5.398,"1575": 5.858,"1600": 4.581,"1625": 4.966,"1650": 5.717,"1675": 5.778,"1700": 5.621,"1725": 5.423,"1750": 5.32,"1775": 6.018,"1800": 5.089,"1825": 3.816,"1850": 0.667}}}