{"type":"Feature","properties":{"GID_2":"NOR.17.22_1","GID_0":"NOR","country":"Norway","GID_1":"NOR.17_1","province":"Troms","NL_NAME_1":"NA","county":"Storfjord","VARNAME_2":"NA","NL_NAME_2":"NA","TYPE_2":"Kommuner","ENGTYPE_2":"Municipality","CC_2":"NA","HASC_2":"NO.TR.ST","name":"Storfjord.county"},
"geometry":{"type": "MultiPolygon","coordinates": [[[[21.0099,69.228,1097.6331],[21.0101,69.2325,1105.783],[20.9975,69.2326,1078.6913],[20.9979,69.2416,1114.6047],[20.9853,69.2417,1083.8152],[20.9857,69.2507,1129.4539],[20.9604,69.2508,1101.8823],[20.9602,69.2463,1089.2847],[20.9476,69.2464,1130.9753],[20.9474,69.2419,1106.7791],[20.9347,69.2419,1092.6581],[20.9349,69.2464,1151.4301],[20.9097,69.2466,1070.6433],[20.9099,69.2511,1065.9104],[20.8972,69.2511,1046.5],[20.8974,69.2556,1041.3542],[20.8848,69.2557,1058.6577],[20.885,69.2602,1078.7931],[20.8597,69.2603,1047.0],[20.8598,69.2648,1078.0275],[20.8472,69.2649,1061.5464],[20.8476,69.2739,1122.152],[20.8602,69.2738,1091.9651],[20.8606,69.2829,1065.7643],[20.8732,69.2828,1072.743],[20.8734,69.2873,1070.9397],[20.8607,69.2874,1085.9253],[20.8613,69.3009,1082.0],[20.8486,69.3009,1098.6975],[20.8489,69.31,1203.4333],[20.7349,69.3104,1092.7007],[20.7351,69.315,1076.3627],[20.697,69.3151,1168.1249],[20.6972,69.3196,1125.3522],[20.6718,69.3197,1101.1418],[20.672,69.3242,1032.1591],[20.6593,69.3243,1063.8391],[20.6594,69.3288,987.9417],[20.6468,69.3288,1068.1536],[20.6469,69.3333,1038.801],[20.6342,69.3334,1032.3138],[20.6343,69.3379,972.7356],[20.5455,69.3382,1244.6107],[20.5456,69.3427,1222.6899],[20.533,69.3427,987.3754],[20.5332,69.3517,1126.7306],[20.5205,69.3517,1195.2655],[20.5207,69.3608,1112.8549],[20.508,69.3608,1251.634],[20.5081,69.3653,1291.8643],[20.4954,69.3653,1265.5378],[20.4956,69.3744,1217.7626],[20.4829,69.3744,1270.0592],[20.4845,69.4465,1098.9719],[20.4335,69.4466,992.3909],[20.4336,69.4511,820.4526],[20.3953,69.4512,918.9249],[20.3954,69.4557,809.4008],[20.3444,69.4558,537.142],[20.3445,69.4603,397.896],[20.3289,69.4604,77.4495],[20.3203,69.4547,73.3078],[20.3047,69.4516,0.0],[20.3026,69.4495,0.0],[20.3057,69.4474,7.4304],[20.3036,69.4443,0.0],[20.2818,69.4391,0.0],[20.2755,69.4328,0.0],[20.2786,69.4297,0.0],[20.2714,69.4286,0.0],[20.2745,69.4255,0.0],[20.2703,69.4213,52.8303],[20.2568,69.4182,0.0],[20.2547,69.4151,2.8353],[20.2578,69.4141,33.7995],[20.2568,69.4109,0.0],[20.2599,69.4099,9.0034],[20.2589,69.4068,0.0],[20.2641,69.4036,1.1977],[20.263,69.4005,0.0],[20.2661,69.3995,1.6441],[20.2651,69.3964,0.0],[20.2682,69.3953,1.9224],[20.2641,69.3901,7.1464],[20.2542,69.3896,0.0],[20.2505,69.387,0.0],[20.2599,69.3839,0.0],[20.25,69.3833,0.0],[20.2437,69.3854,0.0],[20.2422,69.3839,0.0],[20.2453,69.3818,3.9842],[20.2417,69.3792,0.0],[20.2229,69.3792,0.0],[20.2146,69.3833,0.0],[20.1875,69.3875,0.0],[20.1807,69.3818,102.3076],[20.1734,69.3807,57.7757],[20.1714,69.3786,127.6656],[20.1807,69.3755,418.9874],[20.1609,69.3745,168.846],[20.1625,69.3729,249.2549],[20.1766,69.3724,575.9244],[20.1734,69.3672,755.4716],[20.1828,69.3661,933.7409],[20.1812,69.3646,1026.1615],[20.1771,69.3646,1054.8168],[20.1729,69.3625,1059.775],[20.1646,69.3625,865.4827],[20.163,69.363,831.8653],[20.1641,69.3661,681.7138],[20.1583,69.3688,418.1113],[20.1521,69.3688,295.8925],[20.1458,69.3667,355.1388],[20.1417,69.3688,148.0739],[20.1271,69.3688,0.0],[20.1083,69.3625,6.1467],[20.0964,69.362,0.0],[20.0922,69.3578,0.0],[20.0953,69.3557,22.6308],[20.0932,69.3526,176.7989],[20.0708,69.3521,0.0],[20.0667,69.35,24.7399],[20.0625,69.35,0.0],[20.0589,69.3474,0.0],[20.062,69.3453,39.3503],[20.0599,69.3422,25.3847],[20.0438,69.3417,0.0],[20.037,69.3359,0.0],[20.0234,69.3349,0.0],[20.0182,69.3276,0.0],[20.0109,69.3266,0.0],[20.0068,69.3224,0.0],[20.0099,69.3193,4.7254],[20.0026,69.3182,0.0],[19.9891,69.3026,13.0757],[19.9818,69.3016,0.0],[19.9766,69.2963,71.3563],[19.963,69.2932,0.0],[19.9609,69.2901,0.0],[19.9641,69.288,115.0992],[19.9568,69.2807,0.0],[19.9599,69.2776,11.441],[19.9417,69.2729,6.4026],[19.9208,69.2729,0.0],[19.9161,69.2693,0.0],[19.9083,69.2688,0.7622],[19.9068,69.2693,1.1002],[19.9042,69.275,0.0],[19.9255,69.2974,0.0],[19.9307,69.2984,0.0],[19.9359,69.3036,0.0],[19.9432,69.3047,0.0],[19.9505,69.312,0.0],[19.9578,69.313,0.0],[19.9589,69.3161,0.0],[19.9714,69.3287,20.1476],[19.9786,69.3297,0.0],[19.9849,69.337,0.0],[19.9792,69.3396,0.0],[19.9729,69.3396,0.0],[19.9714,69.3411,0.0],[19.9755,69.3453,0.0],[19.9807,69.3464,0.0],[19.988,69.3536,0.0],[20.0,69.3542,0.0],[20.0047,69.3578,0.0],[20.012,69.3588,0.0],[20.013,69.362,1.1582],[20.0313,69.3667,0.0],[20.0417,69.3667,0.0],[20.0562,69.375,0.0],[20.0604,69.375,0.0],[20.0646,69.3771,8.4951],[20.075,69.3771,0.0],[20.0792,69.3792,0.0],[20.0875,69.3792,0.0],[20.1141,69.3859,0.0],[20.1167,69.3896,6.3683],[20.1474,69.3964,0.0],[20.1484,69.3995,0.0],[20.1536,69.4047,0.0],[20.1505,69.4068,0.0],[20.1536,69.412,44.2259],[20.1505,69.4141,35.8293],[20.1578,69.4155,0.0],[20.14,69.4155,259.543],[20.14,69.411,250.7587],[20.0509,69.4111,722.4116],[20.0509,69.4066,590.7187],[20.0255,69.4066,724.1324],[20.0254,69.4021,598.5895],[19.8982,69.402,1061.7325],[19.8982,69.3975,719.2427],[19.8855,69.3975,999.3497],[19.8856,69.384,845.0064],[19.8729,69.384,1263.307],[19.8729,69.3795,1195.85],[19.8602,69.3795,1227.426],[19.8602,69.375,800.2255],[19.8221,69.3749,1155.4246],[19.8221,69.3704,1002.2601],[19.7967,69.3704,897.5086],[19.7968,69.3659,1012.287],[19.7714,69.3659,1532.6041],[19.7715,69.3524,865.1004],[19.7588,69.3523,707.6834],[19.7589,69.3433,486.8257],[19.7335,69.3433,692.8026],[19.734,69.3027,1216.1279],[19.7213,69.3027,1091.9944],[19.7214,69.2982,1032.7125],[19.6961,69.2982,547.7517],[19.6961,69.2937,618.9799],[19.6582,69.2936,869.4006],[19.6582,69.2891,783.3044],[19.6456,69.2891,630.0572],[19.6457,69.28,1275.723],[19.6584,69.2801,1114.9181],[19.6584,69.2756,993.6221],[19.6711,69.2756,976.6744],[19.6712,69.2666,440.4872],[19.6839,69.2666,497.5929],[19.684,69.2576,431.783],[19.6966,69.2576,443.748],[19.6967,69.2531,501.2779],[19.7093,69.2531,484.5377],[19.7095,69.2441,802.919],[19.7221,69.2441,785.6846],[19.7221,69.2396,670.4196],[19.7474,69.2397,576.8625],[19.7473,69.2442,568.0588],[19.76,69.2442,566.0886],[19.76,69.2397,560.0521],[19.7853,69.2397,542.8523],[19.7853,69.2352,688.2331],[19.8106,69.2352,217.2229],[19.8106,69.2307,121.1168],[19.8359,69.2308,166.3329],[19.8359,69.2262,279.6373],[19.8485,69.2263,329.7252],[19.8486,69.2217,429.392],[19.8738,69.2218,412.3404],[19.8738,69.2173,458.0356],[19.8991,69.2173,448.374],[19.8991,69.2128,462.7332],[19.9117,69.2128,479.4321],[19.9117,69.2083,469.5147],[19.9243,69.2083,653.3218],[19.9245,69.1632,569.3522],[19.9371,69.1632,615.4965],[19.9372,69.1182,717.0556],[19.9498,69.1182,826.7927],[19.9498,69.0956,1206.2068],[19.9875,69.0956,1205.6178],[19.9875,69.0866,1036.5209],[19.9749,69.0866,955.514],[19.9749,69.0821,1098.521],[19.9624,69.0821,951.4949],[19.9624,69.0731,1337.9148],[19.9749,69.0731,999.2599],[19.9749,69.0686,1210.2782],[19.9875,69.0686,937.7493],[19.9875,69.0641,1076.6855],[20.0,69.0641,1016.9051],[20.0,69.0596,1113.8608],[20.0251,69.0596,1241.2759],[20.0251,69.0551,917.954],[20.0376,69.0551,905.6782],[20.0376,69.0506,895.5283],[20.0501,69.0506,895.4092],[20.0501,69.0461,1252.8521],[20.1628,69.046,765.8885],[20.1628,69.0505,810.087],[20.3131,69.0503,827.5544],[20.3131,69.0548,770.2584],[20.4509,69.0545,666.3345],[20.451,69.059,553.4788],[20.5512,69.0588,490.0711],[20.5513,69.0633,511.858],[20.5638,69.0632,509.1411],[20.564,69.0677,512.3624],[20.5765,69.0677,531.3292],[20.5766,69.0722,597.391],[20.5891,69.0722,664.4579],[20.5893,69.0767,782.0168],[20.6018,69.0766,737.399],[20.6019,69.0811,763.793],[20.6145,69.0811,810.5477],[20.6146,69.0856,868.2986],[20.6271,69.0855,890.5649],[20.6273,69.09,878.1827],[20.6398,69.09,874.7354],[20.6399,69.0945,827.9564],[20.6525,69.0945,776.0],[20.6526,69.099,834.8038],[20.6652,69.0989,893.8363],[20.6653,69.1034,945.4185],[20.6778,69.1034,745.4625],[20.678,69.1079,749.0586],[20.6905,69.1078,597.0783],[20.6907,69.1124,569.9324],[20.7032,69.1123,625.9036],[20.7034,69.1168,633.7953],[20.7159,69.1168,577.1877],[20.7161,69.1213,624.0863],[20.7286,69.1212,584.3632],[20.7285,69.1167,560.2475],[20.741,69.1167,549.9059],[20.7409,69.1121,540.984],[20.7535,69.1121,520.4591],[20.7533,69.1076,524.7737],[20.7784,69.1075,518.8807],[20.7783,69.103,550.8206],[20.7908,69.1029,524.7098],[20.7906,69.0984,571.1913],[20.8157,69.0983,571.9984],[20.8156,69.0938,712.4633],[20.8281,69.0937,732.3169],[20.828,69.0892,894.881],[20.853,69.0891,665.2923],[20.8529,69.0846,815.5316],[20.8654,69.0846,717.8851],[20.8652,69.0801,809.8382],[20.8903,69.0799,722.719],[20.8901,69.0754,879.3511],[20.9027,69.0754,736.0942],[20.9025,69.0709,883.1971],[20.9275,69.0707,652.4761],[20.9274,69.0662,760.8344],[20.9399,69.0662,663.6799],[20.9397,69.0617,722.0352],[20.9648,69.0615,640.7517],[20.9646,69.057,672.3357],[20.9771,69.057,696.2574],[20.9769,69.0524,690.2997],[21.0019,69.0523,678.4123],[21.0017,69.0478,678.0771],[21.0142,69.0477,663.5],[21.014,69.0432,676.8523],[21.0391,69.0431,726.1335],[21.0389,69.0386,759.7165],[21.0639,69.0384,785.0769],[21.0645,69.0519,679.5],[21.0771,69.0519,706.0441],[21.0779,69.0699,731.4641],[21.0905,69.0698,696.2479],[21.0914,69.0878,792.4288],[21.1039,69.0878,818.0342],[21.1048,69.1058,1034.6858],[21.0922,69.1059,940.1539],[21.0925,69.1104,861.8699],[21.0799,69.1104,856.2541],[21.0801,69.1149,893.3623],[21.0676,69.115,969.5274],[21.0678,69.1195,991.2331],[21.0552,69.1196,1022.7647],[21.0561,69.1376,1089.8979],[21.0435,69.1377,1106.8059],[21.0439,69.1467,1085.5966],[21.0314,69.1468,1081.1412],[21.032,69.1603,1051.4921],[21.0194,69.1604,1004.7874],[21.0198,69.1694,1019.3829],[21.0072,69.1694,1033.6797],[21.0078,69.183,953.2591],[20.9953,69.183,894.2192],[20.9971,69.2236,1045.8984],[21.0097,69.2235,1057.7665],[21.0099,69.228,1097.6331]]]]}}