{"type": "Feature","bbox": [7.8938,61.3944,8.9895,62.027],"geometry": {"type": "MultiPolygon","coordinates": [[[[8.5717,62.0057,1740.8297],[8.5734,62.0012,1637.3643],[8.564,62.0005,1675.158],[8.5656,61.996,1588.8075],[8.5562,61.9953,1604.8263],[8.5579,61.9908,1678.4421],[8.539,61.9893,1486.6442],[8.5407,61.9849,1431.5229],[8.5313,61.9841,1386.0592],[8.5329,61.9797,1376.3563],[8.5235,61.9789,1371.8889],[8.5252,61.9745,1372.8351],[8.5158,61.9737,1372.1624],[8.5175,61.9693,1368.7919],[8.508,61.9685,1369.1605],[8.5097,61.9641,1396.2015],[8.4909,61.9625,1519.1456],[8.4926,61.9581,1608.6917],[8.4831,61.9573,1637.2755],[8.4848,61.9529,1738.2191],[8.466,61.9513,1663.7528],[8.4677,61.9469,1735.6812],[8.4488,61.9454,1621.1307],[8.4505,61.9409,1692.5214],[8.4411,61.9401,1784.4491],[8.4428,61.9357,1793.7341],[8.4334,61.9349,1786.2786],[8.4351,61.9305,1657.6276],[8.4445,61.9313,1683.8286],[8.4462,61.9269,1680.4294],[8.4556,61.9277,1548.59],[8.4589,61.9188,1423.2845],[8.4683,61.9196,1363.1224],[8.47,61.9152,1287.7217],[8.4794,61.916,1292.6871],[8.4811,61.9116,1238.6216],[8.4905,61.9124,1248.6779],[8.4922,61.9079,1219.7845],[8.5016,61.9087,1206.0641],[8.5033,61.9043,1288.9551],[8.5127,61.9051,1204.7173],[8.516,61.8963,1163.4695],[8.5254,61.897,1130.3865],[8.5271,61.8926,1155.5883],[8.5365,61.8934,1162.5614],[8.5381,61.889,1189.5858],[8.5287,61.8882,1156.8627],[8.5304,61.8838,1112.8636],[8.521,61.883,1035.2418],[8.5227,61.8786,987.0047],[8.5039,61.877,734.7914],[8.5056,61.8726,483.3734],[8.4962,61.8718,371.6123],[8.4979,61.8674,363.5],[8.4885,61.8666,363.5],[8.4901,61.8622,376.1971],[8.4714,61.8606,525.7741],[8.473,61.8562,681.4559],[8.4637,61.8554,888.8477],[8.4653,61.851,1051.4413],[8.4466,61.8495,1152.5431],[8.4482,61.845,1287.2026],[8.4389,61.8443,1312.6993],[8.4405,61.8398,1430.4584],[8.4218,61.8383,1474.3687],[8.4235,61.8338,1616.1464],[8.4047,61.8323,1656.7379],[8.4064,61.8279,1811.9736],[8.3876,61.8263,1893.7867],[8.3893,61.8219,1740.5049],[8.3706,61.8203,2004.3208],[8.3723,61.8159,1855.3884],[8.2786,61.8079,1890.912],[8.2803,61.8035,1852.5465],[8.2709,61.8027,1917.3204],[8.2726,61.7983,1819.2875],[8.2633,61.7975,1853.4999],[8.265,61.7931,1747.0887],[8.2462,61.7915,1828.3717],[8.2479,61.7871,1808.1241],[8.2386,61.7863,1890.8774],[8.2403,61.7819,1691.2821],[8.2029,61.7787,2004.0706],[8.2046,61.7743,1948.791],[8.1952,61.7735,1933.3739],[8.1969,61.7691,1820.9343],[8.1782,61.7675,1750.3395],[8.1799,61.763,1774.3739],[8.1706,61.7622,1813.2599],[8.1723,61.7578,1821.5121],[8.1536,61.7562,1873.3351],[8.1553,61.7518,1959.0813],[8.146,61.751,1964.9857],[8.1477,61.7466,1978.8828],[8.129,61.745,1939.8273],[8.1307,61.7406,1942.1965],[8.1214,61.7398,2079.4531],[8.1231,61.7353,1803.235],[8.1137,61.7345,1765.8698],[8.112,61.739,2079.6218],[8.0093,61.73,1928.2535],[8.011,61.7256,1800.3792],[8.0017,61.7248,1804.2612],[8.0034,61.7204,1778.8627],[7.9848,61.7188,1850.5223],[7.9865,61.7144,1782.9668],[7.9772,61.7135,1833.0999],[7.9789,61.7091,1741.6339],[7.9603,61.7075,1544.7502],[7.962,61.7031,1538.9204],[7.9527,61.7023,1470.9248],[7.9544,61.6979,1487.9713],[7.9451,61.697,1403.5],[7.9468,61.6926,1420.2296],[7.9282,61.691,1564.9969],[7.9299,61.6866,1627.7269],[7.9206,61.6858,1607.5835],[7.9223,61.681399999999996,1669.8275],[7.9037,61.6797,1626.094],[7.9072,61.6709,1540.89],[7.8979,61.6701,1543.2346],[7.9031,61.6569,1415.9379],[7.8938,61.656,1396.6709],[7.906,61.6252,1659.5763],[7.9153,61.626,1597.8591],[7.9222,61.6083,1238.7435],[7.9315,61.6092,1265.6301],[7.9454,61.5739,1399.0493],[7.9361,61.5731,1403.0186],[7.9413,61.5598,1407.1185],[7.9599,61.5615,1415.6907],[7.9616,61.5571,1367.244],[7.9895,61.5595,1397.6892],[7.9912,61.5551,1383.8062],[8.0005,61.5559,1419.9198],[8.0022,61.5515,1453.8997],[8.0115,61.5523,1473.5859],[8.0132,61.5479,1473.8822],[8.0318,61.5495,1381.424],[8.0335,61.5451,1427.6766],[8.0892,61.55,1778.1971],[8.0909,61.5456,1795.2239],[8.1559,61.5512,1472.7578],[8.1576,61.5468,1486.9237],[8.1854,61.5492,1524.2317],[8.1871,61.5448,1726.4703],[8.215,61.5472,1617.3524],[8.2167,61.5428,1750.9501],[8.2352,61.5444,1543.2146],[8.2454,61.5179,1714.8854],[8.2546,61.5187,1692.0098],[8.2597,61.5054,2050.1279],[8.269,61.5062,1889.5789],[8.2723,61.4974,1680.2887],[8.2816,61.4982,1543.5519],[8.285,61.4894,1592.6733],[8.2942,61.4902,1589.0145],[8.2976,61.4813,1656.1033],[8.3068,61.4821,1714.2494],[8.3102,61.4733,1562.7869],[8.3195,61.4741,1536.4523],[8.3311,61.4432,1632.3444],[8.3404,61.444,1514.2135],[8.3437,61.4351,1521.6931],[8.353,61.4359,1478.4443],[8.3563,61.4271,1505.3818],[8.3656,61.4279,1494.5242],[8.3706,61.4146,1486.9905],[8.4168,61.4186,1331.8458],[8.4185,61.4142,1413.7589],[8.4277,61.415,1411.7301],[8.4294,61.4105,1451.9677],[8.4386,61.4113,1472.1609],[8.4419,61.4025,1915.4933],[8.4512,61.4033,1722.7411],[8.4545,61.3944,1672.0431],[8.4915,61.3976,1988.0256],[8.4898,61.402,1842.6232],[8.4991,61.4028,1751.2615],[8.4974,61.4072,1588.4979],[8.5067,61.408,1855.4331],[8.4985,61.43,1692.9161],[8.4892,61.4293,1580.7235],[8.4876,61.4337,1601.7343],[8.4968,61.4345,1548.5326],[8.4919,61.4477,984.6718],[8.5104,61.4493,987.481],[8.5088,61.4537,983.5182],[8.5366,61.456,987.9472],[8.5349,61.4604,983.1027],[8.5627,61.4628,983.327],[8.5611,61.4672,983.4022],[8.5889,61.4695,983.4606],[8.5873,61.4739,983.3943],[8.6058,61.4755,983.4044],[8.6042,61.4799,983.3589],[8.6228,61.4815,983.3416],[8.6146,61.5035,1432.9856],[8.6053,61.5028,1424.3051],[8.6004,61.516,1530.2313],[8.5911,61.5153,1611.2577],[8.5862,61.5285,2136.3721],[8.5769,61.5277,2221.1953],[8.5704,61.5454,1918.6057],[8.5611,61.5446,2122.4922],[8.5562,61.5579,1970.7455],[8.5469,61.5571,2062.1753],[8.5386,61.5792,2001.1174],[8.6596,61.5893,1590.5983],[8.658,61.5937,1749.4658],[8.6766,61.5952,1816.0345],[8.675,61.5996,1806.495],[8.6936,61.6012,1839.1603],[8.692,61.6056,1773.7341],[8.7106,61.6071,1911.6141],[8.7122,61.6027,1648.6719],[8.7402,61.605,1970.0208],[8.7418,61.6006,1948.3228],[8.7697,61.6029,2015.6154],[8.7681,61.6073,2145.7581],[8.7774,61.6081,2097.6721],[8.7758,61.6125,2158.6372],[8.7851,61.6132,1796.0544],[8.7835,61.6177,1811.0289],[8.7929,61.6184,1724.0658],[8.7912,61.6228,2012.506],[8.8006,61.6236,1931.275],[8.799,61.628,2097.0156],[8.8083,61.6288,1845.155],[8.8067,61.6332,1966.3361],[8.8253,61.6347,1935.6315],[8.8237,61.6392,1935.5704],[8.8424,61.6407,1842.8137],[8.8408,61.6451,1816.7267],[8.8501,61.6459,1814.1022],[8.8485,61.6503,1708.3553],[8.8578,61.651,1596.5643],[8.8562,61.6554,1512.2467],[8.8655,61.6562,1459.007],[8.8623,61.6651,1252.4259],[8.8717,61.6658,1225.6624],[8.8652,61.6835,1202.3406],[8.8746,61.6843,1209.5823],[8.8698,61.6975,1290.2593],[8.8791,61.6983,1290.3188],[8.8759,61.7071,1357.996],[8.8852,61.7079,1330.0793],[8.8836,61.7123,1383.1936],[8.893,61.7131,1259.9412],[8.8914,61.7175,1252.0889],[8.9007,61.7182,1234.8888],[8.8991,61.7227,1288.5979],[8.9178,61.7242,1110.1646],[8.9162,61.7286,1103.455],[8.9443,61.7308,913.7422],[8.9427,61.7353,920.5903],[8.9895,61.739,853.0],[8.9783,61.77,859.0447],[8.969,61.7692,853.0],[8.9674,61.7736,894.182],[8.958,61.7729,853.0],[8.9532,61.7862,853.0],[8.9626,61.7869,877.5884],[8.9578,61.8002,853.0],[8.9484,61.7994,853.0],[8.9468,61.8039,853.0],[8.9374,61.8031,853.0],[8.9342,61.812,855.6346],[8.9436,61.8127,853.0],[8.942,61.8171,803.6788],[8.9045,61.8141,890.725],[8.9028,61.8185,930.8195],[8.8747,61.8163,1013.303],[8.8731,61.8207,1020.8876],[8.8637,61.8199,1003.3344],[8.8605,61.8288,897.3721],[8.8699,61.8295,932.2208],[8.8634,61.8472,361.0],[8.8728,61.848,361.0],[8.8566,61.8922,1365.3745],[8.866,61.893,1337.9513],[8.8644,61.8974,1386.0317],[8.8738,61.8981,1373.4974],[8.8705,61.907,1502.0533],[8.8799,61.9077,1389.5411],[8.8767,61.9166,1275.9691],[8.8861,61.9174,1250.9781],[8.8829,61.9262,1009.0959],[8.8923,61.9269,956.4498],[8.8891,61.9358,790.6594],[8.8985,61.9366,793.8559],[8.8969,61.941,865.9669],[8.9063,61.9417,904.8319],[8.903,61.9506,1184.5178],[8.8936,61.9498,1040.8029],[8.8725,62.0073,1271.4342],[8.8631,62.0066,1452.4073],[8.8614,62.011,1277.2128],[8.8331,62.0087,1497.0399],[8.8315,62.0131,1328.7281],[8.8032,62.0108,1569.1782],[8.7999,62.0197,1508.8845],[8.7904,62.0189,1477.3214],[8.7888,62.0233,1501.0962],[8.7794,62.0226,1524.7477],[8.7777,62.027,1475.6433],[8.7305,62.0232,1631.6426],[8.7322,62.0188,1616.2321],[8.7038,62.0165,1646.9045],[8.7055,62.012,1656.4364],[8.6017,62.0036,1678.9174],[8.6,62.008,1706.0397],[8.5717,62.0057,1740.8297]]]]}
,"properties": {"GID_2": "NOR.11.9_1","GID_0": "NOR","country": "Norway","GID_1": "NOR.11_1","province": "Oppland","NL_NAME_1": "NA","county": "Lom","VARNAME_2": "NA","NL_NAME_2": "NA","TYPE_2": "Kommuner","ENGTYPE_2": "Municipality","CC_2": "NA","HASC_2": "NO.OP.LO","name": "Lom.county","area_km2": 1936.034,"hist_schema_id": "Elevation0-9000","hist_area_km2": {"350": 5.22,"375": 13.602,"400": 5.531,"425": 5.522,"450": 5.512,"475": 6.476,"500": 6.769,"525": 5.846,"550": 5.487,"575": 5.286,"600": 5.598,"625": 5.158,"650": 5.6,"675": 6.172,"700": 6.605,"725": 7.569,"750": 7.972,"775": 11.326,"800": 11.383,"825": 11.369,"850": 25.277,"875": 16.449,"900": 19.359,"925": 18.711,"950": 18.573,"975": 23.073,"1000": 21.314,"1025": 21.959,"1050": 22.478,"1075": 30.331,"1100": 34.833,"1125": 31.896,"1150": 30.503,"1175": 32.582,"1200": 34.017,"1225": 38.553,"1250": 43.38,"1275": 40.838,"1300": 42.753,"1325": 45.472,"1350": 47.113,"1375": 67.07,"1400": 66.479,"1425": 63.458,"1450": 64.861,"1475": 59.87,"1500": 59.646,"1525": 54.083,"1550": 55.81,"1575": 50.704,"1600": 50.443,"1625": 47.125,"1650": 47.247,"1675": 43.911,"1700": 43.794,"1725": 38.023,"1750": 34.741,"1775": 32.007,"1800": 29.51,"1825": 27.933,"1850": 26.387,"1875": 25.394,"1900": 21.262,"1925": 20.296,"1950": 18.421,"1975": 16.326,"2000": 14.724,"2025": 13.224,"2050": 12.558,"2075": 10.201,"2100": 8.467,"2125": 7.136,"2150": 6.329,"2175": 4.413,"2200": 3.557,"2225": 2.388,"2250": 1.663,"2275": 1.099,"2300": 0.817,"2325": 0.403,"2350": 0.242,"2375": 0.191,"2400": 0.141,"2425": 0.201}}}