{"type":"Feature","properties":{"GID_2":"NOR.7.34_1","GID_0":"NOR","country":"Norway","GID_1":"NOR.7_1","province":"Hordaland","NL_NAME_1":"NA","county":"Voss","VARNAME_2":"NA","NL_NAME_2":"NA","TYPE_2":"Kommuner","ENGTYPE_2":"Municipality","CC_2":"NA","HASC_2":"NO.HO.VO","name":"Voss.county"},
"geometry":{"type": "MultiPolygon","coordinates": [[[[6.836,60.6341,1368.9038],[6.845,60.635,1368.9987],[6.8413,60.6438,1235.036],[6.8503,60.6446,1250.8756],[6.8485,60.649,1220.3074],[6.8575,60.6499,1229.4835],[6.8502,60.6675,866.574],[6.8412,60.6666,842.2119],[6.8376,60.6754,820.3289],[6.8826,60.6799,745.2921],[6.8808,60.6843,694.192],[6.8988,60.686,1097.5963],[6.9006,60.6816,1140.2596],[6.9096,60.6825,1235.9243],[6.9114,60.6781,1306.6324],[6.9204,60.679,1334.7244],[6.9186,60.6834,1257.2634],[6.9276,60.6843,1197.2314],[6.924,60.6931,1151.6829],[6.933,60.694,995.2782],[6.9312,60.6984,728.8086],[6.9582,60.701,758.8166],[6.9528,60.7142,1209.3608],[6.9618,60.7151,1180.1611],[6.9582,60.7239,1326.7637],[6.9672,60.7248,1277.493],[6.96,60.7423,1334.9825],[6.978,60.7441,1373.5929],[6.9744,60.7529,1326.9603],[6.9834,60.7538,1311.5948],[6.9762,60.7714,1249.7905],[6.9581,60.7696,1018.3011],[6.9563,60.774,983.7908],[6.9292,60.7714,956.1292],[6.9274,60.7757,938.6096],[6.8732,60.7704,1190.6133],[6.8714,60.7748,1098.1183],[6.8804,60.7757,1206.5267],[6.8768,60.7845,1195.9838],[6.8858,60.7854,1244.1908],[6.8822,60.7942,1276.0725],[6.8912,60.7951,1234.3875],[6.8875,60.8039,1296.0344],[6.8966,60.8047,1265.9973],[6.8911,60.8179,1271.0752],[6.8821,60.817,1212.5747],[6.8784,60.8258,1338.1326],[6.8151,60.8196,1321.1583],[6.8096,60.8328,1221.9408],[6.8005,60.8319,1088.7821],[6.7987,60.8363,1159.9518],[6.7625,60.8327,1105.4464],[6.7607,60.8371,1138.1104],[6.7335,60.8344,1097.3174],[6.7317,60.8388,977.0071],[6.7226,60.8379,925.3021],[6.7171,60.8511,448.4696],[6.7261,60.852,704.6658],[6.7243,60.8564,407.7206],[6.7333,60.8573,799.1431],[6.7315,60.8617,672.4717],[6.7405,60.8626,959.2787],[6.7368,60.8714,897.562],[6.7459,60.8723,1243.4813],[6.744,60.8767,1064.5785],[6.7531,60.8775,1201.2708],[6.7513,60.8819,1088.031],[6.8237,60.8891,1066.2946],[6.809,60.9243,1420.1414],[6.7818,60.9216,1295.7643],[6.7836,60.9172,1077.5916],[6.7746,60.9163,1089.0594],[6.7764,60.9119,996.8484],[6.7583,60.9101,710.0427],[6.7564,60.9145,715.0232],[6.7474,60.9136,705.8441],[6.7436,60.9224,726.6317],[6.7527,60.9233,751.3742],[6.749,60.9321,719.6886],[6.7127,60.9285,831.333],[6.7053,60.946,1077.9122],[6.6962,60.9451,1011.8257],[6.6906,60.9583,1357.2158],[6.6815,60.9574,1398.5397],[6.6797,60.9618,1230.0601],[6.6706,60.9609,1346.771],[6.6687,60.9653,1422.9945],[6.6597,60.9644,1361.1235],[6.669,60.9424,1167.2367],[6.6599,60.9415,1164.8911],[6.6655,60.9284,1404.4683],[6.602,60.922,1103.2903],[6.6039,60.9176,1328.5182],[6.5949,60.9167,1219.8831],[6.5967,60.9123,1269.5432],[6.5877,60.9114,1103.8519],[6.5895,60.907,1196.5482],[6.5805,60.9061,1213.9037],[6.5824,60.9017,1292.0369],[6.5642,60.8999,1146.9347],[6.5661,60.8955,1249.8213],[6.5389,60.8928,1337.788],[6.5352,60.9016,1262.6848],[6.5261,60.9007,1280.095],[6.5224,60.9095,1033.3301],[6.5133,60.9085,1108.0564],[6.4963,60.9481,1034.7329],[6.4691,60.9453,1059.187],[6.471,60.9409,1091.7551],[6.4619,60.94,1022.4111],[6.4638,60.9356,1058.1558],[6.4548,60.9347,991.4623],[6.4566,60.9303,1035.3568],[6.4476,60.9294,1003.1086],[6.4495,60.925,977.0422],[6.4404,60.9241,1024.8525],[6.4385,60.9285,970.4996],[6.4113,60.9257,1167.9092],[6.4094,60.9301,1090.79],[6.3822,60.9274,1227.1569],[6.3842,60.923,1258.5487],[6.3751,60.922,1232.1266],[6.377,60.9177,1251.6094],[6.3589,60.9158,1100.5148],[6.3608,60.9114,1235.7922],[6.3517,60.9105,1095.5867],[6.3536,60.9061,1280.0977],[6.3446,60.9052,1170.8546],[6.3465,60.9008,1240.8889],[6.3284,60.899,1221.5559],[6.3303,60.8946,1232.3278],[6.3212,60.8936,1171.0315],[6.3232,60.8893,1096.1796],[6.3141,60.8883,1098.6936],[6.316,60.8839,1100.8241],[6.307,60.883,1128.3857],[6.3089,60.8786,1096.3708],[6.2998,60.8777,1089.4486],[6.3017,60.8733,1102.3431],[6.2927,60.8724,1068.4001],[6.2965,60.8636,1078.4307],[6.2875,60.8627,1168.049],[6.2913,60.8539,1197.1222],[6.2823,60.853,1215.9384],[6.2842,60.8486,1150.7878],[6.2932,60.8495,1055.2603],[6.2951,60.8451,939.8907],[6.3042,60.8461,823.9418],[6.308,60.8373,710.3959],[6.317,60.8382,742.9764],[6.3227,60.8251,851.2875],[6.3137,60.8241,859.7856],[6.3156,60.8198,785.7598],[6.3066,60.8188,804.8628],[6.3085,60.8144,809.0018],[6.2995,60.8135,769.3193],[6.2957,60.8223,672.9122],[6.2776,60.8204,785.259],[6.2795,60.816,837.5643],[6.2524,60.8133,1026.4381],[6.2543,60.8089,1137.292],[6.2273,60.8061,914.9212],[6.2292,60.8017,885.5331],[6.2202,60.8008,810.7863],[6.224,60.792,820.7361],[6.215,60.7911,901.6678],[6.2226,60.7735,1053.7654],[6.1866,60.7698,995.7699],[6.1827,60.7786,939.7095],[6.1737,60.7776,844.9467],[6.1699,60.7864,827.5925],[6.1338,60.7826,578.5661],[6.1358,60.7783,686.5275],[6.1177,60.7764,757.8472],[6.1197,60.772,854.4298],[6.0836,60.7682,781.5652],[6.0856,60.7639,914.3854],[6.0765,60.7629,937.7737],[6.0785,60.7585,1066.8123],[6.0695,60.7576,1075.1704],[6.0714,60.7532,832.6605],[6.0534,60.7513,896.1116],[6.0553,60.7469,783.4404],[6.0463,60.746,960.0588],[6.0502,60.7372,747.0459],[6.0412,60.7363,705.6417],[6.0451,60.7275,786.225],[6.0181,60.7247,594.3331],[6.0123,60.7378,822.1762],[6.0033,60.7369,932.8294],[5.9955,60.7544,985.1296],[5.9685,60.7516,804.7233],[5.9704,60.7472,981.4739],[5.9344,60.7434,796.5631],[5.9364,60.739,945.4878],[5.9094,60.7362,975.8279],[5.9114,60.7318,897.6238],[5.9024,60.7308,992.853],[5.9063,60.7221,944.2561],[5.8973,60.7211,1043.5967],[5.9032,60.708,940.7529],[5.8942,60.707,977.4919],[5.9,60.6939,852.7864],[5.891,60.6929,851.9131],[5.895,60.6842,842.2126],[5.886,60.6832,727.3729],[5.8879,60.6788,674.2869],[5.879,60.6779,740.684],[5.8809,60.6735,661.2574],[5.8719,60.6726,594.815],[5.8739,60.6682,640.6158],[5.8649,60.6672,487.5832],[5.8669,60.6628,760.8307],[5.8579,60.6619,560.4413],[5.8598,60.6575,767.3742],[5.8509,60.6565,707.1406],[5.8528,60.6522,648.6785],[5.8439,60.6512,697.7955],[5.8517,60.6337,527.9856],[5.8607,60.6346,295.1379],[5.8626,60.6303,0.0],[5.8716,60.6312,0.0],[5.8735,60.6268,0.0],[5.8915,60.6287,39.4658],[5.8895,60.6331,0.0],[5.8985,60.6341,0.0],[5.9004,60.6297,0.0],[5.9094,60.6307,0.0],[5.9152,60.6175,536.0731],[5.9063,60.6166,524.5437],[5.9082,60.6122,618.0192],[5.8992,60.6112,627.5289],[5.907,60.5937,862.2334],[5.9249,60.5956,781.9659],[5.9269,60.5912,766.7454],[5.9448,60.5931,830.9648],[5.9467,60.5887,881.45],[5.9557,60.5897,831.7087],[5.9576,60.5853,750.9028],[5.9755,60.5872,714.1884],[5.9775,60.5828,746.6428],[5.9864,60.5838,839.7751],[5.9884,60.5794,842.1891],[5.9973,60.5803,866.0275],[5.9993,60.576,800.8386],[6.0172,60.5778,919.6131],[6.0191,60.5735,824.7104],[6.028,60.5744,879.5477],[6.03,60.57,872.1218],[6.0389,60.571,1014.0237],[6.0408,60.5666,856.384],[6.0498,60.5675,765.7978],[6.0517,60.5631,695.6307],[6.0696,60.565,945.2031],[6.0811,60.5387,649.9006],[6.0722,60.5378,576.0521],[6.0741,60.5334,566.0446],[6.0652,60.5325,588.5128],[6.0671,60.5281,591.2777],[6.069,60.5237,676.9917],[6.0779,60.5246,582.0],[6.0799,60.5203,582.0],[6.0888,60.5212,609.6816],[6.0907,60.5168,582.0],[6.1533,60.5234,868.2883],[6.1514,60.5278,920.7101],[6.2498,60.538,1072.3763],[6.2612,60.5117,1032.2211],[6.2701,60.5126,1069.4581],[6.272,60.5082,1231.0527],[6.2809,60.5092,1136.7091],[6.2828,60.5048,1253.2021],[6.3186,60.5085,1109.1472],[6.3205,60.5041,1276.5316],[6.3741,60.5096,1250.7782],[6.3779,60.5009,1014.3165],[6.3868,60.5018,964.2379],[6.3925,60.4886,1051.7775],[6.4014,60.4895,1137.9567],[6.4051,60.4808,1118.1989],[6.3962,60.4798,1076.5421],[6.3981,60.4754,1030.7631],[6.407,60.4764,1013.572],[6.4089,60.472,986.0574],[6.4446,60.4756,1192.939],[6.4428,60.48,1204.0798],[6.4517,60.4809,1177.8121],[6.4536,60.4766,1183.9114],[6.4625,60.4775,988.3055],[6.4644,60.4731,989.8715],[6.4733,60.474,926.7177],[6.4752,60.4696,1016.411],[6.4841,60.4705,1023.9618],[6.4822,60.4749,900.7747],[6.5001,60.4767,1048.0406],[6.4983,60.4811,943.2189],[6.5072,60.482,931.2645],[6.5053,60.4864,1106.4904],[6.5143,60.4873,1022.8531],[6.5124,60.4917,1146.014],[6.5214,60.4926,991.4347],[6.5195,60.497,980.3292],[6.5464,60.4998,974.4819],[6.5445,60.5042,869.7825],[6.5892,60.5087,531.1313],[6.5874,60.5131,574.0267],[6.5964,60.514,590.9028],[6.5927,60.5228,607.4655],[6.6016,60.5237,613.4105],[6.5998,60.5281,664.6049],[6.6087,60.529,666.4216],[6.605,60.5378,1011.0055],[6.614,60.5387,675.1811],[6.6122,60.5431,644.965],[6.6211,60.544,547.5542],[6.6193,60.5484,548.6],[6.6282,60.5493,576.5601],[6.6245,60.558,760.3734],[6.6335,60.5589,845.707],[6.6317,60.5633,857.5607],[6.6406,60.5642,860.3386],[6.6369,60.573,732.7792],[6.628,60.5721,755.9276],[6.6243,60.5809,563.7852],[6.6153,60.58,416.3705],[6.6098,60.5932,530.3378],[6.6187,60.5941,619.8791],[6.615,60.6029,832.6104],[6.624,60.6038,829.5583],[6.6203,60.6125,829.991],[6.6293,60.6134,684.707],[6.6256,60.6222,874.8354],[6.6346,60.6231,763.4464],[6.6309,60.6319,875.2532],[6.6489,60.6337,831.3178],[6.647,60.6381,934.2132],[6.656,60.639,1071.5592],[6.6542,60.6434,1017.2114],[6.6721,60.6452,1264.4493],[6.674,60.6408,1407.0084],[6.701,60.6435,993.2051],[6.7028,60.6391,1241.3896],[6.7567,60.6445,1246.9689],[6.7586,60.6401,1386.7253],[6.7676,60.641,1095.7272],[6.7694,60.6366,1262.4788],[6.7874,60.6384,1134.8062],[6.7892,60.634,1376.884],[6.8162,60.6367,1429.8914],[6.818,60.6323,1422.7445],[6.836,60.6341,1368.9038]]]]}}