{"type":"Feature","properties":{"GID_2":"NOR.17.3_1","GID_0":"NOR","country":"Norway","GID_1":"NOR.17_1","province":"Troms","NL_NAME_1":"NA","county":"Berg","VARNAME_2":"NA","NL_NAME_2":"NA","TYPE_2":"Kommuner","ENGTYPE_2":"Municipality","CC_2":"NA","HASC_2":"NO.TR.BE","name":"Berg.county"},
"geometry":{"type": "MultiPolygon","coordinates": [[[[17.6802,69.473,102.0665],[17.6724,69.4708,0.0],[17.6786,69.4703,0.0],[17.6828,69.4672,4.6941],[17.6708,69.4667,0.0],[17.6682,69.463,166.0115],[17.6609,69.462,346.8789],[17.6589,69.4599,390.5432],[17.6604,69.4583,379.2258],[17.6667,69.4583,284.8198],[17.6724,69.4557,342.3685],[17.6688,69.4521,638.0352],[17.6563,69.4521,825.3176],[17.6521,69.4542,790.8629],[17.6443,69.4547,876.7759],[17.6375,69.4583,460.3432],[17.6063,69.4583,259.7572],[17.5964,69.4557,176.4001],[17.5917,69.4521,407.6622],[17.5417,69.4521,429.2315],[17.5328,69.4443,407.5],[17.5229,69.4437,422.2707],[17.5172,69.4464,439.0971],[17.5182,69.4495,423.2369],[17.5151,69.4505,465.0844],[17.5161,69.4537,471.7913],[17.513,69.4547,517.8135],[17.5151,69.4578,415.1767],[17.5479,69.4583,425.2275],[17.5521,69.4563,417.9098],[17.5604,69.4563,412.9177],[17.563,69.4599,284.7272],[17.5703,69.4609,130.1002],[17.5745,69.4661,0.0],[17.5646,69.4667,235.0558],[17.5604,69.4646,314.8914],[17.5563,69.4646,240.2766],[17.5521,69.4604,437.7389],[17.5458,69.4625,380.2007],[17.5318,69.463,529.9661],[17.5354,69.4667,326.4822],[17.5563,69.4667,141.9875],[17.562,69.4714,0.0],[17.5604,69.4729,0.0],[17.5526,69.4734,2.6225],[17.5542,69.4771,0.0],[17.5505,69.4807,67.8351],[17.5578,69.4818,0.0],[17.5547,69.4838,21.9903],[17.5557,69.487,8.5377],[17.5479,69.4896,94.103],[17.5417,69.4854,422.9872],[17.5276,69.4859,553.5141],[17.5266,69.4891,466.4756],[17.5234,69.4912,389.8142],[17.5271,69.4917,183.5132],[17.5333,69.4896,144.5705],[17.5391,69.4953,0.0],[17.5187,69.4958,252.7484],[17.5172,69.4964,147.6751],[17.5182,69.4995,15.751],[17.5167,69.5,0.0],[17.5083,69.5,0.0],[17.5005,69.4974,3.3538],[17.4911,69.488,0.0],[17.4875,69.4875,5.5867],[17.4818,69.4912,0.0],[17.4859,69.4953,6.6471],[17.4932,69.4964,2.7041],[17.4932,69.4995,0.0],[17.4901,69.5016,2.2119],[17.4932,69.5057,0.0],[17.4792,69.5125,101.2151],[17.4667,69.5125,160.8336],[17.4625,69.5146,11.5998],[17.4443,69.5172,0.0],[17.4359,69.5214,22.922],[17.437,69.5245,7.0489],[17.4354,69.525,21.8448],[17.4292,69.5229,27.5577],[17.4104,69.5229,29.9925],[17.4042,69.525,40.3001],[17.3979,69.5229,302.8512],[17.3917,69.525,373.8388],[17.3839,69.5214,387.6036],[17.3953,69.5151,329.9125],[17.3854,69.5146,631.699],[17.3688,69.5229,476.3583],[17.3396,69.525,314.3686],[17.3339,69.5276,338.8057],[17.3354,69.5292,324.9195],[17.3474,69.5297,179.2813],[17.35,69.5333,60.4588],[17.3479,69.5354,29.6739],[17.3354,69.5354,316.0839],[17.3307,69.5318,464.8709],[17.3271,69.5313,386.4557],[17.3146,69.5375,255.2858],[17.3063,69.5375,0.0],[17.3047,69.5359,0.0],[17.312,69.5328,17.1187],[17.313,69.5297,0.0],[17.3208,69.5292,10.9428],[17.3266,69.5266,49.0748],[17.3255,69.5234,0.0],[17.3349,69.5224,61.5698],[17.3339,69.5193,0.0],[17.3453,69.5141,0.0],[17.3443,69.5109,0.0],[17.3542,69.5062,0.0],[17.362,69.5057,9.9914],[17.3609,69.5026,0.0],[17.3667,69.5,0.0],[17.3745,69.4995,0.0],[17.4016,69.4859,0.0],[17.3974,69.4818,0.0],[17.3875,69.4792,0.0],[17.3813,69.4812,0.0],[17.375,69.4812,15.2314],[17.3688,69.4792,162.6913],[17.3646,69.4812,220.662],[17.3521,69.4812,372.2656],[17.3438,69.4854,297.0871],[17.3375,69.4854,69.1359],[17.3292,69.4896,0.0],[17.3255,69.4891,0.0],[17.3292,69.4854,0.0],[17.3234,69.4786,0.0],[17.3266,69.4766,0.0],[17.3255,69.4734,0.0],[17.3432,69.4661,2.439],[17.3422,69.463,0.0],[17.3495,69.4599,0.0],[17.3474,69.4568,1.7349],[17.3401,69.4557,0.0],[17.3432,69.4537,17.0958],[17.3432,69.4505,189.7508],[17.3333,69.45,446.2177],[17.3318,69.4505,372.2767],[17.3328,69.4537,113.5664],[17.3234,69.4547,221.5407],[17.3245,69.4578,105.3353],[17.3042,69.4583,370.0383],[17.3026,69.4599,392.2739],[17.3057,69.4641,64.7663],[17.2917,69.4646,447.6974],[17.2859,69.4672,263.0034],[17.2875,69.4688,187.1942],[17.2995,69.4714,10.2552],[17.2922,69.4755,12.9045],[17.2953,69.4797,0.0],[17.2953,69.4828,0.0],[17.288,69.4838,1.3805],[17.2813,69.4875,0.0],[17.2776,69.487,6.6741],[17.2807,69.4838,10.2297],[17.2708,69.4833,391.0105],[17.2693,69.4838,316.3558],[17.2703,69.487,48.9957],[17.2521,69.4958,0.0],[17.2292,69.4917,453.2728],[17.2167,69.4979,442.844],[17.2042,69.4979,191.1054],[17.2026,69.4964,77.8914],[17.2099,69.4932,16.8331],[17.2068,69.488,0.0],[17.2141,69.4828,68.6865],[17.213,69.4797,26.0694],[17.2286,69.4724,0.0],[17.2255,69.4682,0.0],[17.2255,69.4651,4.5507],[17.2474,69.4578,6.9922],[17.2464,69.4547,0.0],[17.2646,69.4521,0.0],[17.2729,69.4479,0.0],[17.2792,69.4479,8.6277],[17.3021,69.4417,0.0],[17.3083,69.4437,10.4189],[17.3167,69.4437,67.3372],[17.3208,69.4417,0.0],[17.3333,69.4417,10.1164],[17.3375,69.4396,0.0],[17.3438,69.4396,0.0],[17.35,69.4417,46.5027],[17.3516,69.4411,22.4504],[17.3505,69.438,0.0],[17.3521,69.4375,0.0],[17.3583,69.4375,1.892],[17.3625,69.4354,0.0],[17.375,69.4354,0.0],[17.3792,69.4333,0.0],[17.3875,69.4333,0.0],[17.3917,69.4354,0.0],[17.4,69.4354,0.0],[17.4042,69.4375,2.5529],[17.4146,69.4375,0.0],[17.425,69.4417,0.0],[17.4458,69.4417,0.0],[17.45,69.4396,0.0],[17.4604,69.4396,2.7362],[17.4646,69.4375,0.0],[17.4708,69.4375,0.0],[17.4901,69.4276,0.0],[17.4979,69.4271,8.6781],[17.4995,69.4255,7.3173],[17.4943,69.4245,0.0],[17.4922,69.4224,41.0745],[17.4953,69.4193,204.7512],[17.4917,69.4167,446.8371],[17.4729,69.4187,464.1191],[17.4661,69.4224,213.1614],[17.4589,69.4234,165.568],[17.4604,69.425,77.6475],[17.4703,69.4255,15.2341],[17.4688,69.4271,0.0],[17.4562,69.4271,20.5472],[17.4438,69.4229,442.8926],[17.4292,69.4229,299.6986],[17.4229,69.425,37.7878],[17.4203,69.4213,65.4181],[17.4104,69.4187,24.1405],[17.4021,69.4187,213.9705],[17.3979,69.4167,311.8112],[17.3813,69.4167,99.5261],[17.375,69.4146,372.6349],[17.3708,69.4167,204.4512],[17.3521,69.4167,0.0],[17.3396,69.4125,104.7498],[17.3318,69.4151,86.8066],[17.3328,69.4182,5.675],[17.3234,69.4193,55.68],[17.3245,69.4224,0.0],[17.3203,69.4245,0.0],[17.3063,69.425,0.0],[17.2964,69.4224,17.299],[17.2943,69.4193,0.0],[17.2974,69.4182,0.0],[17.2964,69.4151,0.0],[17.3042,69.4146,0.0],[17.3125,69.4104,0.0],[17.3292,69.4083,0.0],[17.3307,69.4068,0.0],[17.3021,69.4042,16.2518],[17.2938,69.4083,0.0],[17.2875,69.4083,2.5473],[17.2813,69.4104,0.0],[17.275,69.4063,0.0],[17.2724,69.4099,0.0],[17.2625,69.4146,0.0],[17.2563,69.4125,19.5015],[17.2521,69.4146,0.0],[17.2208,69.4146,3.5647],[17.2167,69.4167,2.7303],[17.2104,69.4167,8.7105],[17.1896,69.4104,22.1557],[17.1813,69.4146,0.0],[17.1667,69.4146,0.0],[17.1521,69.4063,289.8613],[17.1479,69.4063,201.9621],[17.1437,69.4042,328.5099],[17.1354,69.4042,80.9951],[17.1313,69.4063,0.0],[17.1259,69.402,0.0],[17.1361,69.4021,194.1721],[17.1367,69.3976,173.6682],[17.1494,69.3978,495.4673],[17.15,69.3933,586.4206],[17.1627,69.3935,428.2361],[17.1633,69.389,437.3354],[17.176,69.3892,566.0752],[17.1778,69.3757,426.889],[17.1905,69.3759,451.1871],[17.1928,69.3579,333.5021],[17.2054,69.3581,708.4902],[17.206,69.3536,618.8425],[17.2187,69.3538,725.0138],[17.2193,69.3493,511.2296],[17.2827,69.3502,749.8829],[17.2838,69.3412,461.3713],[17.2965,69.3414,315.1805],[17.2981,69.3279,297.6056],[17.3108,69.3281,361.9974],[17.3119,69.3191,589.9033],[17.3372,69.3195,711.369],[17.3378,69.315,670.8841],[17.3631,69.3153,729.8754],[17.3637,69.3108,638.7861],[17.3763,69.311,683.0526],[17.3779,69.2975,484.03],[17.3906,69.2977,542.9606],[17.39,69.3022,831.3248],[17.4913,69.3036,478.0808],[17.4908,69.3081,504.1187],[17.5414,69.3088,200.8074],[17.5384,69.3358,393.4582],[17.5511,69.336,483.569],[17.5501,69.345,531.2483],[17.5628,69.3452,596.1956],[17.5623,69.3497,710.0562],[17.5749,69.3499,718.6505],[17.5744,69.3544,623.1985],[17.5871,69.3545,509.7011],[17.5866,69.359,221.6174],[17.5993,69.3592,266.9999],[17.5988,69.3637,322.384],[17.5861,69.3635,278.1333],[17.5851,69.3725,611.4703],[17.5724,69.3724,596.0994],[17.5719,69.3769,633.0079],[17.5592,69.3767,607.3702],[17.5587,69.3812,769.3281],[17.546,69.381,785.5016],[17.545,69.39,637.2233],[17.5577,69.3902,522.9215],[17.5567,69.3992,366.9347],[17.5694,69.3994,305.5],[17.5689,69.4039,305.5],[17.5817,69.4041,305.5],[17.5807,69.4131,609.6472],[17.5934,69.4132,818.4755],[17.5924,69.4222,411.9407],[17.6051,69.4224,274.7743],[17.6041,69.4314,265.0822],[17.6169,69.4316,202.0],[17.6159,69.4406,224.7005],[17.6286,69.4408,449.6225],[17.6276,69.4498,480.3682],[17.6786,69.4504,298.4611],[17.6772,69.4639,87.4454],[17.6899,69.4641,129.9796],[17.689,69.4731,113.8276],[17.6802,69.473,102.0665]]],
[[[17.5208,69.4563,418.847],[17.5193,69.4547,415.6836],[17.5245,69.4547,418.92],[17.5245,69.4557,435.2776],[17.5208,69.4563,418.847]]],
[[[17.3,69.4688,24.7538],[17.2984,69.4672,113.2126],[17.3016,69.4672,37.652],[17.3016,69.4682,22.0639],[17.3,69.4688,24.7538]]],
[[[17.6646,69.4708,0.0],[17.6688,69.4708,0.0],[17.6692,69.4708,0.0],[17.6622,69.4722,0.0],[17.6646,69.4708,0.0]]],
[[[17.1479,69.4125,14.3285],[17.1464,69.4109,0.0],[17.1557,69.4109,90.4329],[17.1542,69.4125,22.5842],[17.1479,69.4125,14.3285]]],
[[[17.2979,69.4125,0.0],[17.2917,69.4125,9.7034],[17.2875,69.4146,0.0],[17.2776,69.4141,0.0],[17.2792,69.4125,0.0],[17.2854,69.4125,2.5629],[17.2896,69.4104,0.0],[17.2995,69.4109,0.0],[17.2979,69.4125,0.0]]],
[[[17.2292,69.4396,0.0],[17.2229,69.4396,19.4716],[17.2188,69.4417,0.0],[17.2047,69.4411,0.0],[17.2062,69.4396,12.6336],[17.2125,69.4396,25.1382],[17.2167,69.4375,0.0],[17.237,69.438,0.0],[17.2354,69.4396,0.0],[17.2292,69.4396,0.0]]],
[[[17.1188,69.4479,12.723],[17.1125,69.4479,37.0117],[17.1042,69.4521,0.0],[17.1005,69.4516,3.1297],[17.0984,69.4495,0.0],[17.1,69.4479,0.0],[17.1078,69.4474,28.5583],[17.1047,69.4432,0.0],[17.1063,69.4417,0.0],[17.1313,69.4417,0.0],[17.1354,69.4396,16.6687],[17.1495,69.4401,0.0],[17.1479,69.4417,0.0],[17.1313,69.4437,11.7157],[17.1188,69.4479,12.723]]],
[[[17.1193,69.4599,0.0],[17.1208,69.4583,0.0],[17.1286,69.4589,0.0],[17.1271,69.4604,3.9681],[17.1193,69.4599,0.0]]],
[[[17.2245,69.4974,159.0894],[17.2292,69.4958,155.1],[17.2391,69.4995,0.0],[17.2333,69.5021,0.0],[17.225,69.5021,27.9334],[17.2214,69.4995,280.0717],[17.2245,69.4974,159.0894]]],
[[[17.6542,69.4729,0.0],[17.6563,69.4729,0.0],[17.6583,69.4729,0.0],[17.6519,69.4741,0.0],[17.6542,69.4729,0.0]]],
[[[17.3859,69.5328,32.5027],[17.3875,69.5313,49.6035],[17.3911,69.5318,0.0],[17.3896,69.5333,0.0],[17.3859,69.5328,32.5027]]]]}}