{"type": "Feature","bbox": [11.0628,60.2212,11.4127,60.5955],"geometry": {"type": "MultiPolygon","coordinates": [[[[11.0796,60.3267,173.0],[11.0808,60.3223,173.0],[11.0898,60.3229,173.0],[11.0947,60.3051,173.0],[11.0857,60.3045,173.0],[11.0869,60.3,173.0],[11.0959,60.3006,173.0],[11.1008,60.2829,173.0],[11.1098,60.2835,173.0],[11.1134,60.2701,198.1036],[11.1224,60.2707,201.8572],[11.1261,60.2574,204.4628],[11.135,60.258,202.002],[11.1375,60.2491,211.8595],[11.1644,60.2509,202.0694],[11.1632,60.2553,209.9665],[11.1811,60.2565,213.7264],[11.1848,60.2432,171.9591],[11.1758,60.2426,189.1618],[11.177,60.2381,173.0557],[11.2129,60.2405,198.8204],[11.2153,60.2316,204.4506],[11.2243,60.2322,201.1306],[11.2255,60.2278,205.8632],[11.2524,60.2295,287.8416],[11.2536,60.2251,270.4982],[11.2625,60.2257,243.0745],[11.2637,60.2212,226.1591],[11.2727,60.2218,203.5355],[11.2691,60.2352,255.174],[11.2602,60.2346,285.177],[11.2554,60.2524,311.0724],[11.2643,60.253,326.0004],[11.2632,60.2574,325.7073],[11.2721,60.258,289.6886],[11.2733,60.2536,307.3595],[11.3003,60.2553,181.0492],[11.2991,60.2598,199.7613],[11.317,60.261,146.6186],[11.3159,60.2654,157.2196],[11.3248,60.266,176.122],[11.3201,60.2838,192.8083],[11.3381,60.285,213.2711],[11.3393,60.2805,225.1625],[11.3572,60.2817,325.8032],[11.3549,60.2906,289.6708],[11.3639,60.2912,264.1012],[11.3627,60.2956,280.4613],[11.3717,60.2962,294.2499],[11.3705,60.3007,282.9308],[11.3795,60.3013,295.5125],[11.3771,60.3102,314.3823],[11.3861,60.3107,297.8575],[11.3849,60.3152,303.0653],[11.3939,60.3158,269.6881],[11.3916,60.3247,286.3981],[11.4006,60.3253,272.3246],[11.397,60.3386,319.3706],[11.406,60.3392,275.8872],[11.4037,60.3481,279.2258],[11.4127,60.3487,282.5138],[11.408,60.3665,316.4416],[11.399,60.3659,375.9761],[11.3954,60.3792,445.439],[11.3864,60.3787,408.7543],[11.3722,60.4321,503.3351],[11.3631,60.4315,498.6155],[11.3596,60.4448,440.3872],[11.3505,60.4442,455.8853],[11.3481,60.4531,382.6567],[11.3391,60.4526,393.6219],[11.3379,60.457,369.6147],[11.3289,60.4564,429.6328],[11.3265,60.4653,426.4008],[11.3175,60.4647,417.2125],[11.3151,60.4736,435.268],[11.306,60.473,382.8486],[11.3048,60.4775,352.1285],[11.2958,60.4769,448.4404],[11.2934,60.4858,442.4901],[11.2843,60.4852,473.2329],[11.2819,60.4941,400.8946],[11.2638,60.4929,379.8976],[11.2626,60.4974,402.5299],[11.2355,60.4956,162.0715],[11.2343,60.5,131.3351],[11.2162,60.4988,119.5],[11.215,60.5033,119.5],[11.2059,60.5027,119.5],[11.2047,60.5071,119.5],[11.2138,60.5077,119.5],[11.2065,60.5344,119.5],[11.2155,60.535,119.5],[11.2034,60.5795,119.5],[11.1943,60.5789,119.5],[11.1931,60.5834,119.5],[11.184,60.5828,119.5],[11.1828,60.5872,119.5],[11.1737,60.5866,119.5],[11.1713,60.5955,119.5],[11.1441,60.5937,119.5],[11.1453,60.5893,130.738],[11.1271,60.5881,520.1235],[11.1284,60.5836,586.3132],[11.1193,60.583,505.555],[11.123,60.5697,604.254],[11.1139,60.5691,598.7771],[11.1176,60.5557,582.6634],[11.1086,60.5551,577.1198],[11.1122,60.5418,539.871],[11.1032,60.5412,555.2267],[11.1069,60.5278,490.707],[11.0978,60.5272,575.4932],[11.0991,60.5228,538.4417],[11.0628,60.5204,437.0832],[11.0653,60.5115,428.3259],[11.0744,60.5121,439.47],[11.0781,60.4987,493.1416],[11.0871,60.4993,524.3928],[11.0908,60.486,424.5266],[11.0998,60.4866,486.1924],[11.1084,60.4555,455.4368],[11.1175,60.4561,454.9602],[11.1199,60.4472,425.3804],[11.1289,60.4478,488.3941],[11.1363,60.4211,433.0875],[11.1272,60.4205,416.4658],[11.1297,60.4116,418.1678],[11.1387,60.4122,412.0734],[11.1423,60.3989,452.3594],[11.1333,60.3983,458.014],[11.137,60.3849,512.9326],[11.128,60.3843,408.0952],[11.1304,60.3754,418.9601],[11.1214,60.3748,365.6818],[11.1226,60.3704,373.8444],[11.1046,60.3692,322.6609],[11.1058,60.3647,389.6544],[11.0968,60.3641,338.7448],[11.0993,60.3552,325.2171],[11.1083,60.3558,358.5501],[11.1095,60.3514,347.0281],[11.1005,60.3508,299.4556],[11.1029,60.3419,220.2532],[11.0939,60.3413,215.2824],[11.0951,60.3368,173.0],[11.0861,60.3362,173.0],[11.0886,60.3273,173.0],[11.0796,60.3267,173.0]]]]}
,"properties": {"GID_2": "NOR.1.5_1","GID_0": "NOR","country": "Norway","GID_1": "NOR.1_1","province": "Akershus","NL_NAME_1": "NA","county": "Eidsvoll","VARNAME_2": "NA","NL_NAME_2": "NA","TYPE_2": "Kommuner","ENGTYPE_2": "Municipality","CC_2": "NA","HASC_2": "NO.AK.EI","name": "Eidsvoll.county","area_km2": 440.8106,"hist_schema_id": "Elevation0-9000","hist_area_km2": {"125": 56.4185,"150": 22.8921,"175": 58.1155,"200": 52.0267,"225": 29.7816,"250": 17.8728,"275": 21.5154,"300": 24.2356,"325": 19.1729,"350": 19.7535,"375": 16.361,"400": 16.405,"425": 17.6346,"450": 19.9613,"475": 16.2931,"500": 9.8391,"525": 7.2381,"550": 6.2114,"575": 4.3111,"600": 2.1713,"625": 1.3159,"650": 0.9294,"675": 0.3547}}}