{"type":"Feature","properties":{"GID_2":"NOR.17.5_1","GID_0":"NOR","country":"Norway","GID_1":"NOR.17_1","province":"Troms","NL_NAME_1":"NA","county":"Dyrøy","VARNAME_2":"NA","NL_NAME_2":"NA","TYPE_2":"Kommuner","ENGTYPE_2":"Municipality","CC_2":"NA","HASC_2":"NO.TR.DY","name":"Dyrøy.county"},
"geometry":{"type": "MultiPolygon","coordinates": [[[[17.4536,68.9151,102.8637],[17.4514,68.9108,98.578],[17.473,68.9111,434.0254],[17.4725,68.9156,534.5927],[17.4974,68.9159,403.3695],[17.4875,68.9167,390.8271],[17.4833,68.9187,378.0886],[17.4771,68.9167,498.6613],[17.4646,68.9167,280.5844],[17.4583,68.9187,179.7979],[17.4536,68.9151,102.8637]]],
[[[17.5208,68.9298,728.3795],[17.5332,68.93,1010.835],[17.5332,68.9345,847.6982],[17.5271,68.9375,1025.6268],[17.5104,68.9396,727.7993],[17.5005,68.9443,619.6716],[17.5042,68.9479,466.9142],[17.5203,68.9484,435.7561],[17.5172,68.9505,361.4553],[17.5182,68.9537,313.9507],[17.5021,68.9521,296.4501],[17.4979,68.95,342.4299],[17.4896,68.95,264.5188],[17.4854,68.9521,141.9104],[17.4729,68.9521,23.8545],[17.4693,68.9495,0.0],[17.4807,68.9432,31.7356],[17.4797,68.9401,0.0],[17.4833,68.9375,20.0466],[17.4818,68.9339,0.0],[17.4849,68.9318,31.9896],[17.4807,68.9276,179.6741],[17.4708,68.9271,0.0],[17.4672,68.9234,61.4021],[17.4813,68.9229,141.6094],[17.4854,68.9208,201.8834],[17.4917,68.9229,168.095],[17.497,68.9204,202.0064],[17.5093,68.9206,342.3147],[17.5088,68.9251,289.0254],[17.5213,68.9253,367.8305],[17.5208,68.9298,728.3795]]],
[[[17.5328,68.9401,980.1569],[17.5318,68.938,899.009],[17.5333,68.9375,818.2001],[17.537,68.938,745.1541],[17.5375,68.9396,742.3361],[17.5354,68.9417,880.6391],[17.5328,68.9401,980.1569]]],
[[[17.5208,68.9458,674.6376],[17.5193,68.9443,679.8595],[17.5245,68.9443,693.7907],[17.5245,68.9453,699.9221],[17.5208,68.9458,674.6376]]],
[[[17.5693,68.9417,1039.2628],[17.5672,68.9411,1071.4746],[17.5655,68.9394,1101.6495],[17.5696,68.9395,1055.9264],[17.5693,68.9417,1039.2628]]],
[[[17.5875,68.9458,640.3032],[17.5833,68.9458,578.4391],[17.5814,68.9442,681.7322],[17.594,68.9443,662.0787],[17.5938,68.9458,656.2902],[17.5875,68.9458,640.3032]]],
[[[17.5411,68.9443,677.8046],[17.5401,68.9422,704.9983],[17.5438,68.9417,534.569],[17.5516,68.9443,525.1634],[17.5557,68.9495,379.8469],[17.5339,68.9495,483.4963],[17.5411,68.9443,677.8046]]],
[[[18.028,68.9722,671.5969],[18.0276,68.9767,505.8828],[18.0526,68.9769,503.7194],[18.0522,68.9814,609.4354],[18.0397,68.9813,555.6602],[18.0389,68.9903,697.2786],[18.0264,68.9902,647.8466],[18.0256,68.9992,782.072],[18.0131,68.999,745.7783],[18.0123,69.008,847.5189],[17.9999,69.0079,782.3373],[17.9994,69.0124,950.3614],[17.987,69.0123,783.8573],[17.9865,69.0168,955.5835],[17.9741,69.0166,792.9395],[17.9736,69.0211,873.3486],[17.9611,69.021,660.0287],[17.9607,69.0255,654.5971],[17.9482,69.0254,559.1428],[17.9478,69.0299,518.1747],[17.9353,69.0297,423.8906],[17.9349,69.0342,303.1226],[17.9224,69.0341,184.4181],[17.922,69.0386,178.8742],[17.9095,69.0384,250.1713],[17.909,69.0429,293.3355],[17.8965,69.0428,368.8427],[17.8957,69.0518,315.6501],[17.8832,69.0517,338.8766],[17.8806,69.0787,479.0172],[17.8931,69.0788,616.4943],[17.8923,69.0878,822.8225],[17.9048,69.088,977.1885],[17.9035,69.1015,710.0806],[17.9161,69.1016,683.0919],[17.9139,69.1241,290.3454],[17.9014,69.124,283.3192],[17.9005,69.133,64.5126],[17.8813,69.1333,0.0],[17.8771,69.1312,41.8267],[17.8625,69.1312,0.0],[17.8583,69.1292,0.0],[17.8312,69.1292,0.0],[17.8042,69.1208,14.9657],[17.7958,69.1208,0.0],[17.7911,69.1172,0.0],[17.7813,69.1146,10.9691],[17.775,69.1167,0.0],[17.7625,69.1167,0.0],[17.7583,69.1146,8.0728],[17.75,69.1146,0.0],[17.7417,69.1188,0.0],[17.7062,69.1188,0.0],[17.6937,69.1146,33.2069],[17.6792,69.1146,0.0],[17.6667,69.1104,57.152],[17.6583,69.1104,0.0],[17.6542,69.1083,21.1099],[17.638,69.1078,0.0],[17.6286,69.0984,8.7046],[17.6234,69.0974,0.0],[17.6214,69.0943,0.0],[17.6354,69.0938,0.0],[17.6396,69.0958,12.5189],[17.6479,69.0958,0.0],[17.6771,69.0875,0.0],[17.6833,69.0896,0.0],[17.6891,69.0859,0.0],[17.6839,69.0849,0.0],[17.6766,69.0776,0.0],[17.6651,69.0766,0.0],[17.6578,69.0693,43.6829],[17.65,69.0667,54.9243],[17.638,69.0661,0.0],[17.637,69.063,0.0],[17.6297,69.062,0.0],[17.625,69.0583,2.0077],[17.6193,69.0578,0.0],[17.6167,69.0542,16.8976],[17.6047,69.0537,0.0],[17.5953,69.0422,4.6262],[17.5729,69.0396,0.0],[17.5484,69.0328,0.0],[17.5438,69.0292,0.0],[17.538,69.0286,0.0],[17.537,69.0255,0.0],[17.5297,69.0182,0.0],[17.537,69.013,134.3139],[17.5255,69.012,16.1685],[17.5234,69.0089,42.1112],[17.5313,69.0083,169.935],[17.5328,69.0068,281.726],[17.5255,69.0057,157.5756],[17.5245,69.0026,294.2583],[17.5146,69.0,213.5091],[17.5,69.0,0.0],[17.4938,68.9958,6.9903],[17.4792,68.9958,7.5979],[17.4734,68.9912,0.0],[17.4849,68.9849,0.0],[17.4839,68.9818,9.2404],[17.4896,68.9792,0.0],[17.5271,68.9792,0.0],[17.5313,68.9812,0.0],[17.5453,68.9807,0.0],[17.5443,68.9755,0.0],[17.5474,68.9745,0.0],[17.5464,68.9714,0.0],[17.5495,68.9703,13.2971],[17.5484,68.9672,0.0],[17.5542,68.9646,0.0],[17.5682,68.9641,19.5262],[17.5667,68.9625,76.5068],[17.5609,68.962,0.0],[17.5568,68.9578,0.0],[17.5568,68.9547,25.0834],[17.5688,68.9542,68.9545],[17.5755,68.9505,308.8693],[17.5833,68.95,313.5557],[17.5875,68.9479,422.3532],[17.5938,68.95,377.424],[17.6084,68.949,571.8846],[17.6125,68.9521,501.7119],[17.6203,68.9516,708.9438],[17.6147,68.9491,807.1353],[17.6309,68.9493,748.2125],[17.6304,68.9538,689.4117],[17.6429,68.954,729.9902],[17.6424,68.9585,532.0273],[17.6299,68.9583,348.2585],[17.6261,68.9943,558.7253],[17.6386,68.9945,614.2518],[17.6376,69.0035,610.9487],[17.6626,69.0038,650.282],[17.6621,69.0083,574.4242],[17.7871,69.0099,802.6652],[17.7875,69.0054,757.1965],[17.8,69.0056,610.5003],[17.8004,69.0011,490.6929],[17.8254,69.0014,297.0036],[17.8258,68.9969,277.6402],[17.8383,68.997,330.1887],[17.8388,68.9925,449.8231],[17.8637,68.9928,788.6947],[17.8642,68.9883,753.1685],[17.8891,68.9886,952.9315],[17.8896,68.9841,1007.0664],[17.902,68.9843,1111.4514],[17.9025,68.9798,986.7401],[17.9149,68.9799,995.9534],[17.9158,68.9709,900.1555],[17.9282,68.971,924.125],[17.9287,68.9665,828.9496],[17.9411,68.9667,894.0],[17.9415,68.9622,751.3831],[17.9914,68.9627,446.6486],[17.991,68.9672,439.2697],[18.0159,68.9675,559.4932],[18.0155,68.972,666.7615],[18.028,68.9722,671.5969]]],
[[[17.5151,69.0057,21.8314],[17.5167,69.0042,145.1908],[17.5203,69.0047,127.8853],[17.5187,69.0062,99.0754],[17.5151,69.0057,21.8314]]],
[[[17.5583,69.0833,0.0],[17.5625,69.0854,0.0],[17.5771,69.0854,0.0],[17.587,69.0911,0.0],[17.5839,69.0922,12.5581],[17.5849,69.0953,1.4802],[17.5812,69.0958,0.0],[17.5771,69.0938,8.534],[17.5625,69.0938,0.0],[17.5583,69.0917,49.8534],[17.5375,69.0917,0.0],[17.5328,69.088,56.5123],[17.5229,69.0875,45.1309],[17.5187,69.0854,95.2613],[17.5104,69.0854,31.3185],[17.5062,69.0875,0.0],[17.5,69.0854,28.419],[17.4938,69.0875,0.0],[17.4896,69.0854,126.2679],[17.4688,69.0854,55.612],[17.4646,69.0833,115.4329],[17.4562,69.0833,127.7976],[17.4521,69.0813,213.9984],[17.4417,69.0813,185.8788],[17.4375,69.0792,252.9254],[17.4229,69.0792,148.3304],[17.4104,69.075,136.5155],[17.4005,69.0745,0.0],[17.3984,69.0714,0.0],[17.4016,69.0693,57.9084],[17.3995,69.0672,145.0398],[17.3943,69.0661,40.0117],[17.3911,69.063,33.8573],[17.3839,69.062,0.0],[17.3896,69.0583,110.3834],[17.3974,69.0578,303.492],[17.3953,69.0547,388.3839],[17.3854,69.0542,145.8327],[17.3818,69.0516,34.8847],[17.3849,69.0484,241.0637],[17.3797,69.0474,70.5077],[17.3776,69.0443,65.8008],[17.3849,69.0401,406.2657],[17.3792,69.0396,201.9511],[17.3688,69.0354,268.1593],[17.3583,69.0354,68.879],[17.3505,69.0328,0.0],[17.3536,69.0307,40.5196],[17.3526,69.0276,0.0],[17.3557,69.0266,25.485],[17.3526,69.0214,0.0],[17.3557,69.0203,0.0],[17.3568,69.0172,0.0],[17.3641,69.0141,12.3306],[17.3568,69.0047,34.0548],[17.3708,69.0042,156.7495],[17.3724,69.0026,252.1236],[17.3625,69.0,330.2763],[17.3563,69.0021,196.4805],[17.3521,69.0,355.8617],[17.3417,69.0,0.0],[17.3401,68.9984,0.0],[17.3432,68.9974,10.7782],[17.3443,68.9943,0.0],[17.3516,68.9932,81.9525],[17.3526,68.9901,0.0],[17.3599,68.9891,0.0],[17.3667,68.9854,0.0],[17.3875,68.9875,0.0],[17.3922,68.9912,0.0],[17.4021,68.9938,26.9891],[17.4083,68.9917,0.0],[17.4182,68.9943,0.0],[17.4234,69.0016,26.7849],[17.437,69.0047,0.0],[17.4432,69.0109,0.0],[17.4401,69.0141,11.0662],[17.4453,69.0151,0.0],[17.4526,69.0224,6.7393],[17.4578,69.0234,0.0],[17.4651,69.0307,0.0],[17.4703,69.0318,0.0],[17.4755,69.037,0.0],[17.4896,69.0354,0.0],[17.4938,69.0375,3.7551],[17.5104,69.0375,0.0],[17.5146,69.0396,14.4223],[17.5245,69.0401,0.0],[17.538,69.0557,0.0],[17.5432,69.0568,0.0],[17.5484,69.062,0.0],[17.5536,69.063,0.0],[17.5557,69.0651,0.0],[17.5526,69.0682,24.7326],[17.5557,69.0724,0.0],[17.5484,69.0766,19.9324],[17.5526,69.0828,0.0],[17.5583,69.0833,0.0]]],
[[[17.6172,69.088,5.4547],[17.6203,69.088,0.0],[17.6203,69.0891,0.0],[17.6172,69.0891,1.5731],[17.6172,69.088,5.4547]]]]}}