{"type": "Feature","bbox": [10.8808,59.1301,10.9575,59.2099],"geometry": {"type": "MultiPolygon","coordinates": [[[[10.8931,59.1418,0.3889],[10.8897,59.1424,0.3495],[10.8886,59.1407,0.8853],[10.8953,59.1401,0.0],[10.8931,59.1418,0.3889]]],
[[[10.8958,59.1496,0.2827],[10.8931,59.1501,0.5736],[10.8914,59.1468,0.0],[10.9003,59.1446,0.652],[10.8992,59.1465,0.0],[10.8958,59.1465,0.9146],[10.8958,59.1496,0.2827]]],
[[[10.8931,59.1515,1.7184],[10.8931,59.154,0.0],[10.8908,59.154,0.2039],[10.8897,59.151,4.6939],[10.8931,59.1507,1.7184],[10.8931,59.1515,1.7184]]],
[[[10.8936,59.1621,3.8123],[10.8942,59.1635,3.8123],[10.8925,59.1638,0.0],[10.8908,59.1615,0.6995],[10.8936,59.161,0.4158],[10.8936,59.1621,3.8123]]],
[[[10.9314,59.1335,0.8161],[10.9353,59.1335,0.0],[10.9364,59.1351,2.4936],[10.9297,59.1343,0.0],[10.9269,59.1315,0.0984],[10.9297,59.1315,0.0],[10.9314,59.1335,0.8161]]],
[[[10.9203,59.1357,0.0],[10.9136,59.1363,0.0],[10.9131,59.1338,1.9463],[10.9214,59.1332,0.0],[10.9219,59.1349,0.0],[10.9203,59.1357,0.0]]],
[[[10.9508,59.1485,15.4704],[10.9525,59.1488,0.0],[10.9486,59.1493,0.6897],[10.9431,59.1435,5.7104],[10.9408,59.1371,2.8416],[10.9381,59.1357,0.0],[10.9397,59.131,0.0],[10.9519,59.1301,0.0],[10.9542,59.1351,13.1136],[10.9569,59.1374,0.0],[10.9575,59.1465,0.0],[10.9508,59.1485,15.4704]]],
[[[10.9497,59.1821,0.0],[10.9458,59.1832,0.1572],[10.9425,59.1871,0.0],[10.9442,59.1895,0.0],[10.9379,59.1891,23.8946],[10.9343,59.2024,12.4285],[10.9256,59.2018,45.1523],[10.9245,59.2063,41.3798],[10.9158,59.2057,17.5507],[10.9146,59.2099,1.3607],[10.9125,59.2099,1.3607],[10.9086,59.2093,0.0],[10.9036,59.2046,2.394],[10.9014,59.201,13.2598],[10.9019,59.1982,4.8638],[10.8964,59.1946,2.9386],[10.8892,59.1854,7.6647],[10.8836,59.1835,0.3539],[10.8836,59.1796,1.1811],[10.8808,59.1765,0.5716],[10.8842,59.174,0.0],[10.8969,59.184,6.8014],[10.8997,59.1843,1.8115],[10.8986,59.1787,0.0],[10.9025,59.1787,3.3784],[10.9025,59.1763,1.0481],[10.9047,59.1757,1.0481],[10.9036,59.1715,1.5311],[10.8997,59.1724,0.4692],[10.8992,59.171,3.2964],[10.9014,59.1699,3.9769],[10.8964,59.1688,0.0],[10.9036,59.1676,0.7744],[10.9081,59.1707,3.7691],[10.9092,59.1674,1.9606],[10.9164,59.1685,0.0383],[10.9075,59.1657,0.2383],[10.9014,59.161,2.9692],[10.8986,59.1638,1.3079],[10.9014,59.1671,0.7744],[10.8942,59.1654,0.2072],[10.8969,59.1632,3.2258],[10.8969,59.1613,9.179],[10.8936,59.1596,0.0],[10.8986,59.1574,1.4354],[10.8986,59.1557,2.3333],[10.9036,59.1557,1.4252],[10.9036,59.1543,1.6866],[10.9008,59.1535,0.0],[10.9047,59.1529,0.3156],[10.9081,59.1557,0.0],[10.9069,59.1574,6.5014],[10.9119,59.1563,9.3563],[10.9097,59.1546,4.419],[10.9097,59.1507,6.3214],[10.9003,59.1493,1.1036],[10.9008,59.1474,0.5292],[10.9042,59.1457,1.7995],[10.9119,59.1465,9.4315],[10.9103,59.1437,0.6525],[10.9136,59.1415,2.6457],[10.9092,59.141,0.0],[10.9081,59.1396,0.4261],[10.9092,59.139,3.747],[10.9058,59.139,0.0],[10.9053,59.1376,0.4246],[10.9125,59.1368,0.0],[10.9147,59.1379,0.7396],[10.9114,59.1387,0.7396],[10.9153,59.139,0.7036],[10.9247,59.136,2.9185],[10.9325,59.136,0.0],[10.9336,59.1374,5.2658],[10.9381,59.1376,0.5249],[10.9392,59.1432,19.0393],[10.9414,59.1437,1.0939],[10.9497,59.1526,16.1342],[10.9497,59.1563,26.3292],[10.9453,59.1601,17.574],[10.9453,59.1618,5.6142],[10.9503,59.1604,0.0],[10.9531,59.1721,0.3594],[10.9475,59.1746,0.9849],[10.9453,59.1729,5.2593],[10.9425,59.1735,0.881],[10.9497,59.1779,3.9367],[10.9514,59.181,2.7451],[10.9497,59.1821,0.0]]],
[[[10.8969,59.1718,0.0],[10.8997,59.1729,0.4692],[10.8997,59.1743,0.6432],[10.8969,59.174,0.7285],[10.8969,59.1718,0.0]]],
[[[10.8931,59.1738,0.3206],[10.8903,59.1738,0.6088],[10.8897,59.1715,0.1549],[10.8942,59.1732,0.9166],[10.8931,59.1738,0.3206]]],
[[[10.8981,59.176,0.1485],[10.8958,59.1771,0.2926],[10.8936,59.1746,0.3206],[10.8964,59.1743,3.3913],[10.8981,59.176,0.1485]]]]}
,"properties": {"GID_2": "NOR.2.9_1","GID_0": "NOR","country": "Norway","GID_1": "NOR.2_1","province": "Ãstfold","NL_NAME_1": "NA","county": "Kraakeroey","VARNAME_2": "NA","NL_NAME_2": "NA","TYPE_2": "Kommuner","ENGTYPE_2": "Municipality","CC_2": "NA","HASC_2": "NA","name": "Kraakeroey.county","area_km2": 21.22184,"hist_schema_id": "Elevation0-9000","hist_area_km2": {"0": 8.16093,"25": 10.0295,"50": 3.00968,"75": 0.02172}}}