{"type": "Feature","bbox": [4.9458,61.1819,5.7536,61.3792],"geometry": {"type": "MultiPolygon","coordinates": [[[[5.714,61.2295,795.877],[5.7231,61.2305,830.1014],[5.7211,61.2349,711.7969],[5.7394,61.2368,877.1857],[5.7374,61.2412,750.2488],[5.7465,61.2421,753.1218],[5.7445,61.2465,689.9254],[5.7536,61.2475,687.2665],[5.7516,61.2518,648.377],[5.7333,61.2499,639.0],[5.7313,61.2543,657.6887],[5.7404,61.2553,642.8858],[5.7344,61.2684,723.1236],[5.7252,61.2674,669.0898],[5.7232,61.2718,762.107],[5.7141,61.2708,737.5772],[5.708,61.284,633.0992],[5.6989,61.283,770.0198],[5.6968,61.2874,684.02],[5.6877,61.2864,437.7195],[5.6857,61.2908,413.3027],[5.6765,61.2898,564.3342],[5.6745,61.2942,526.5036],[5.6653,61.2932,497.5],[5.6633,61.2976,504.7049],[5.6542,61.2966,593.5391],[5.6481,61.3098,622.4393],[5.6298,61.3078,746.8927],[5.6277,61.3122,579.4901],[5.6186,61.3112,634.8157],[5.6165,61.3156,625.9024],[5.6074,61.3146,587.048],[5.6033,61.3234,686.7155],[5.5942,61.3224,570.0002],[5.5901,61.3312,722.4995],[5.5809,61.3302,656.5167],[5.5666,61.3608,89.4825],[5.5702,61.3612,126.4327],[5.5674,61.3663,0.7028],[5.5594,61.3669,20.5064],[5.5424,61.3724,0.0],[5.5063,61.3708,0.0],[5.5021,61.3729,0.0],[5.4854,61.3729,9.8856],[5.4813,61.375,0.0],[5.4755,61.3745,8.1882],[5.4667,61.3688,180.0182],[5.4542,61.3667,345.8409],[5.4526,61.3682,183.7261],[5.4557,61.3703,74.5465],[5.45,61.3729,0.0],[5.4417,61.3729,88.7047],[5.4292,61.3792,0.0],[5.4234,61.3766,11.4016],[5.4208,61.3729,183.9706],[5.4167,61.3729,180.9325],[5.4125,61.375,0.0],[5.4005,61.3745,0.0],[5.4005,61.3693,0.0],[5.4036,61.3672,0.0],[5.3979,61.3646,0.0],[5.3792,61.3646,0.0],[5.3693,61.362,0.0],[5.3661,61.3547,0.0],[5.363,61.3536,0.0],[5.362,61.3505,54.9537],[5.3542,61.35,33.5868],[5.35,61.3479,320.3506],[5.3458,61.35,121.6802],[5.3375,61.35,200.9465],[5.3333,61.3521,6.9559],[5.3167,61.3521,15.4229],[5.3104,61.3542,0.0],[5.3075,61.3579,22.8259],[5.3042,61.3583,24.3993],[5.3,61.3563,114.9907],[5.2958,61.3583,0.0],[5.2901,61.3547,26.9555],[5.2932,61.3536,88.3519],[5.2922,61.3505,34.4775],[5.3036,61.3453,5.9094],[5.3036,61.3422,0.0],[5.2979,61.3417,0.0],[5.2854,61.3479,0.0],[5.2417,61.3479,92.9627],[5.2375,61.35,0.0],[5.225,61.3438,20.598],[5.2208,61.3458,0.0],[5.2005,61.3453,0.0],[5.1984,61.3339,0.0],[5.2125,61.3312,0.0],[5.2146,61.3292,0.0],[5.2141,61.3214,87.6566],[5.2089,61.3182,140.7505],[5.2089,61.3151,97.3209],[5.2146,61.3125,0.0],[5.2203,61.312,0.0],[5.225,61.3083,0.0],[5.2245,61.3068,0.0],[5.2083,61.3021,6.5029],[5.2042,61.3021,15.646],[5.2,61.3042,7.4936],[5.1688,61.3042,0.0],[5.1646,61.3021,23.0405],[5.1589,61.3047,0.0],[5.1599,61.3078,0.0],[5.1568,61.3089,0.0],[5.1557,61.3141,0.0],[5.15,61.3167,21.3258],[5.1417,61.3167,39.846],[5.1297,61.3099,0.0],[5.1297,61.3068,3.3253],[5.1328,61.3047,0.0],[5.1297,61.3026,0.0],[5.1354,61.3,0.0],[5.1479,61.3,0.0],[5.1495,61.2995,0.0],[5.1495,61.2964,0.0],[5.1417,61.2958,1.059],[5.1375,61.2979,4.6237],[5.1333,61.2958,0.0],[5.125,61.2958,0.0],[5.1193,61.2984,7.5376],[5.1224,61.3016,3.4967],[5.1125,61.3021,14.5845],[5.1109,61.3005,0.0],[5.1141,61.2984,0.0],[5.1083,61.2958,4.0485],[5.1,61.2958,11.4768],[5.0958,61.2979,4.6917],[5.0729,61.3,0.0],[5.0646,61.3042,24.1387],[5.062,61.3005,0.0],[5.0563,61.2979,21.2426],[5.0417,61.2979,0.0],[5.0359,61.2953,20.2373],[5.0359,61.2901,0.0],[5.0474,61.2891,0.9138],[5.0458,61.2875,0.0],[5.0188,61.2875,0.0],[5.0146,61.2854,7.7965],[4.9979,61.2854,6.2384],[4.9938,61.2833,16.1156],[4.9833,61.2833,13.7019],[4.9818,61.2828,6.6283],[4.9807,61.2776,0.0],[4.975,61.275,0.0],[4.9646,61.275,17.5239],[4.9604,61.2729,80.4506],[4.9563,61.275,7.3276],[4.9464,61.2724,3.2439],[4.9458,61.2708,5.8894],[4.9464,61.2693,0.0],[4.9563,61.2646,0.0],[4.9771,61.2646,2.9339],[4.9828,61.262,3.7326],[4.9828,61.2589,25.1055],[4.9813,61.2583,19.2534],[4.9734,61.2589,13.4914],[4.9688,61.2625,0.0],[4.9625,61.2604,14.9129],[4.9526,61.2599,0.0],[4.9526,61.2568,6.6803],[4.9557,61.2557,5.0363],[4.9526,61.2526,3.0012],[4.9557,61.2516,0.0],[4.9542,61.2479,20.6747],[4.9563,61.2458,26.3655],[4.9875,61.2458,0.0],[4.9891,61.2464,0.0],[4.9901,61.2516,4.2923],[5.0036,61.2547,0.0],[5.0047,61.2578,7.0442],[5.0078,61.2589,0.0],[5.0089,61.2641,0.0],[5.0109,61.2661,0.0],[5.0208,61.2687,0.0],[5.0266,61.2682,0.0],[5.0193,61.2641,0.0],[5.0214,61.2609,0.0],[5.0245,61.2599,0.0],[5.0245,61.2547,1.6364],[5.0172,61.2536,0.0],[5.0161,61.2505,0.0],[5.0132,61.2495,11.9455],[5.0177,61.2459,26.531],[5.025,61.2467,103.883],[5.0229,61.2511,14.4377],[5.032,61.2521,31.0598],[5.0341,61.2477,119.2917],[5.0979,61.2548,0.0],[5.0958,61.2591,52.7893],[5.105,61.2601,46.8795],[5.1029,61.2645,47.7898],[5.112,61.2655,71.0261],[5.1035,61.283,162.0365],[5.1127,61.284,122.9538],[5.1148,61.2796,99.0113],[5.1239,61.2806,126.7564],[5.126,61.2763,128.5511],[5.1443,61.2783,85.3083],[5.1464,61.2739,124.7781],[5.1646,61.2759,24.3421],[5.1688,61.2672,20.5],[5.1779,61.2682,20.5],[5.18,61.2638,32.4889],[5.1892,61.2648,282.1188],[5.1913,61.2605,241.8095],[5.2095,61.2625,219.1212],[5.2074,61.2668,341.7791],[5.2165,61.2678,306.9183],[5.2144,61.2722,125.8837],[5.2509,61.2762,299.8581],[5.2551,61.2674,416.3786],[5.2642,61.2684,506.8756],[5.2663,61.2641,514.0995],[5.2755,61.2651,448.3004],[5.2775,61.2607,425.8002],[5.2867,61.2617,297.6266],[5.2888,61.2573,488.0479],[5.2979,61.2583,388.049],[5.3,61.2539,508.4371],[5.3091,61.2549,425.6289],[5.3112,61.2506,409.6735],[5.3203,61.2516,434.9246],[5.3244,61.2428,303.0592],[5.3336,61.2438,231.2357],[5.3356,61.2394,286.9595],[5.3448,61.2404,379.4796],[5.3468,61.2361,403.8949],[5.3742,61.239,416.0334],[5.3721,61.2434,397.7629],[5.3812,61.2444,393.6818],[5.3792,61.2488,99.1308],[5.3883,61.2498,44.5],[5.3904,61.2454,108.9521],[5.3995,61.2464,73.0833],[5.4057,61.2333,399.3759],[5.4148,61.2342,373.8837],[5.4169,61.2299,325.0289],[5.426,61.2308,119.6524],[5.4363,61.209,518.9133],[5.4454,61.21,571.9821],[5.4475,61.2056,555.393],[5.5021,61.2115,587.1448],[5.5042,61.2071,531.2964],[5.5133,61.2081,554.0696],[5.5154,61.2037,516.5],[5.5336,61.2057,533.6636],[5.5356,61.2013,546.6989],[5.5447,61.2023,619.3189],[5.5468,61.1979,685.7081],[5.5559,61.1989,658.3216],[5.5579,61.1945,608.3688],[5.5671,61.1955,601.7988],[5.5691,61.1911,575.164],[5.5782,61.1921,492.0682],[5.5802,61.1877,564.6151],[5.5985,61.1897,390.6255],[5.6005,61.1853,614.7473],[5.6096,61.1863,546.4924],[5.6116,61.1819,670.4513],[5.6481,61.1858,382.7695],[5.6461,61.1902,376.4604],[5.6552,61.1911,405.6914],[5.6532,61.1955,302.0],[5.6623,61.1965,305.3765],[5.6582,61.2052,536.6049],[5.6674,61.2062,470.5663],[5.6613,61.2193,477.598],[5.6704,61.2203,434.5486],[5.6684,61.2247,483.7996],[5.714,61.2295,795.877]]],
[[[5.3297,61.3578,0.0],[5.3521,61.3583,0.0],[5.3557,61.362,0.0],[5.35,61.3646,0.0],[5.3313,61.3646,10.9721],[5.3187,61.3583,28.6399],[5.3123,61.3593,8.4178],[5.3125,61.3563,23.637],[5.3297,61.3578,0.0]]]]}
,"properties": {"GID_2": "NOR.14.7_1","GID_0": "NOR","country": "Norway","GID_1": "NOR.14_1","province": "SognogFjordane","NL_NAME_1": "NA","county": "Fjaler","VARNAME_2": "NA","NL_NAME_2": "NA","TYPE_2": "Kommuner","ENGTYPE_2": "Municipality","CC_2": "NA","HASC_2": "NO.SF.FJ","name": "Fjaler.county","area_km2": 422.6868,"hist_schema_id": "Elevation0-9000","hist_area_km2": {"0": 18.9891,"25": 33.6872,"50": 21.7276,"75": 15.2693,"100": 13.0983,"125": 14.9098,"150": 14.7062,"175": 13.1178,"200": 11.5496,"225": 12.1107,"250": 13.5483,"275": 14.0392,"300": 14.0681,"325": 13.8228,"350": 13.8925,"375": 13.1303,"400": 14.6164,"425": 13.1499,"450": 12.9876,"475": 13.0894,"500": 14.1812,"525": 13.8873,"550": 14.5836,"575": 15.5122,"600": 14.5864,"625": 11.2311,"650": 9.3259,"675": 7.4306,"700": 6.2378,"725": 5.1564,"750": 3.0059,"775": 1.6508,"800": 0.2854,"825": 0.0306,"850": 0.0306,"875": 0.0408}}}