{"type": "Feature","bbox": [9.8396,63.7434,10.8728,64.1283],"geometry": {"type": "MultiPolygon","coordinates": [[[[10.0292,63.9188,4.5033],[10.0276,63.9172,0.0],[10.0349,63.9172,4.7602],[10.0333,63.9188,0.0],[10.0292,63.9188,4.5033]]],
[[[10.038,63.9224,0.0],[10.038,63.9193,0.0],[10.0411,63.9193,3.3378],[10.0411,63.9224,0.0],[10.038,63.9224,0.0]]],
[[[9.9646,63.9396,0.0],[9.963,63.938,2.8789],[9.9682,63.938,0.0],[9.9682,63.9391,0.0],[9.9646,63.9396,0.0]]],
[[[10.0313,63.9437,0.9012],[10.0318,63.9422,6.0161],[10.0375,63.9417,0.0],[10.0453,63.9443,0.0],[10.0458,63.9458,0.0],[10.0438,63.9479,0.7439],[10.0354,63.9479,0.0],[10.0313,63.9437,0.9012]]],
[[[10.4433,63.7486,177.1511],[10.4418,63.753,169.6286],[10.4318,63.7523,164.8611],[10.4348,63.7434,261.996],[10.4449,63.7441,300.7833],[10.4433,63.7486,177.1511]]],
[[[10.1339,63.937,0.0],[10.1318,63.9339,0.0],[10.137,63.9339,0.0],[10.137,63.937,0.0],[10.1339,63.937,0.0]]],
[[[10.8262,64.1177,436.6484],[10.7957,64.1158,574.4453],[10.7942,64.1202,559.8074],[10.6109,64.1088,401.3291],[10.6094,64.1132,378.4962],[10.589,64.1119,423.8668],[10.5875,64.1164,418.5409],[10.557,64.1144,232.5579],[10.5555,64.1189,203.4659],[10.5351,64.1176,386.6442],[10.5336,64.122,382.3631],[10.5133,64.1207,370.7573],[10.5117,64.1252,413.843],[10.4914,64.1239,390.7965],[10.4899,64.1283,394.8395],[10.4797,64.1277,341.0703],[10.4827,64.1188,359.7789],[10.4725,64.1181,330.876],[10.4741,64.1137,327.5],[10.4537,64.1124,337.4366],[10.4522,64.1168,392.9321],[10.4216,64.1149,330.5381],[10.4232,64.1104,314.1636],[10.413,64.1098,298.5],[10.4145,64.1053,331.2833],[10.4044,64.1047,298.5],[10.4059,64.1002,298.5],[10.3957,64.0996,354.547],[10.3972,64.0951,346.1205],[10.3769,64.0938,321.1672],[10.3784,64.0894,344.9012],[10.3683,64.0887,341.9074],[10.3729,64.0754,426.1118],[10.3627,64.0747,401.0869],[10.3643,64.0703,424.9872],[10.3338,64.0683,412.0062],[10.3353,64.0639,357.4152],[10.315,64.0625,364.2868],[10.3135,64.067,375.841],[10.2932,64.0657,344.4576],[10.2947,64.0612,377.0784],[10.2744,64.0599,318.6529],[10.2759,64.0555,335.0874],[10.2658,64.0548,356.0762],[10.2642,64.0592,352.4851],[10.2439,64.0579,348.1707],[10.2424,64.0623,318.6787],[10.2322,64.0617,321.7509],[10.2307,64.0661,300.364],[10.2205,64.0654,283.5935],[10.2221,64.061,287.6314],[10.2018,64.0597,311.6323],[10.1971,64.073,162.1276],[10.1869,64.0723,305.9089],[10.1824,64.0851,0.0],[10.1792,64.0833,55.0636],[10.1714,64.0828,0.0],[10.1703,64.0776,0.0],[10.1688,64.0771,0.0],[10.1583,64.0813,9.0347],[10.1542,64.0813,0.0],[10.1464,64.0787,0.0],[10.1453,64.0734,0.0],[10.1401,64.0724,0.0],[10.137,64.0693,0.0],[10.1313,64.0687,16.5692],[10.1297,64.0693,0.0],[10.1297,64.0724,0.0],[10.1349,64.0734,0.0],[10.1359,64.0766,0.0],[10.1411,64.0776,0.0],[10.138,64.0797,0.0],[10.137,64.0828,0.0],[10.1255,64.0839,18.3381],[10.112,64.0911,0.0],[10.1047,64.0922,94.2098],[10.0828,64.1036,0.0],[10.0729,64.1062,0.0],[10.0625,64.1062,0.0],[10.0479,64.1,0.0],[10.0417,64.1021,0.0],[10.0375,64.1,6.6289],[10.0313,64.1,0.0],[10.0297,64.0995,0.0],[10.0292,64.0958,4.9803],[10.0328,64.0922,11.7451],[10.0276,64.0911,0.0],[10.0307,64.088,0.0],[10.0271,64.0854,0.0],[10.0151,64.0849,0.0],[10.0151,64.0818,0.0],[10.0182,64.0807,0.0],[10.0172,64.0776,0.0],[10.0245,64.0745,0.0],[10.0255,64.0714,0.0],[10.037,64.0661,12.028],[10.0359,64.063,0.0],[10.0396,64.0625,0.0],[10.0396,64.0604,0.0],[10.0495,64.0599,34.2367],[10.0557,64.0557,0.0],[10.0568,64.0526,18.3574],[10.0609,64.0505,0.0],[10.0641,64.0505,0.0],[10.0688,64.0542,0.0],[10.0729,64.0542,0.0],[10.0786,64.0505,0.0],[10.0734,64.0495,0.0],[10.0724,64.0443,51.4741],[10.0646,64.0417,28.1268],[10.0583,64.0417,0.0],[10.0542,64.0396,0.0],[10.0359,64.037,0.0],[10.0458,64.0333,0.0],[10.0536,64.0328,27.709],[10.0516,64.0297,0.0],[10.0422,64.0286,0.0],[10.0495,64.0214,0.0],[10.0417,64.0208,47.9748],[10.0401,64.0214,39.9509],[10.0411,64.0245,0.0],[10.0396,64.025,0.0],[10.0208,64.0271,0.0],[10.0172,64.0245,0.0],[10.0161,64.0214,0.0],[10.0083,64.0208,0.0],[10.0005,64.0172,0.0],[10.0224,64.0141,3.5391],[10.0224,64.0109,0.0],[10.0208,64.0104,0.0],[10.0068,64.0099,0.0],[10.0068,64.0068,0.0],[10.0151,64.0026,0.0],[10.0224,64.0016,23.4388],[10.025,63.9979,0.0],[10.0333,63.9979,0.0],[10.0417,63.9938,0.0],[10.0474,63.9932,28.1187],[10.0484,63.9901,0.0],[10.0542,63.9896,0.0],[10.0557,63.988,31.8466],[10.0479,63.9875,0.0],[10.0438,63.9854,170.4631],[10.0354,63.9896,8.7826],[10.0297,63.9901,64.7567],[10.0271,63.9938,0.0],[10.0188,63.9938,0.0],[10.012,63.9974,0.0],[10.0021,64.0,0.0],[9.9943,63.9995,0.0],[9.9922,63.9922,0.0],[9.9979,63.9917,1.538],[10.0036,63.9891,0.0],[10.0021,63.9875,0.0],[9.9943,63.987,0.0],[9.9943,63.9839,0.0],[9.9974,63.9828,26.8554],[9.9964,63.9797,0.0],[9.9995,63.9776,0.0],[9.9875,63.9771,0.0],[9.9833,63.975,15.3473],[9.9755,63.9745,2.8075],[9.9786,63.9714,0.0],[9.9693,63.9682,9.1668],[9.9682,63.9651,0.0],[9.963,63.9641,0.0],[9.962,63.9609,4.5893],[9.9505,63.9578,0.0],[9.9542,63.9542,0.0],[9.9536,63.9505,0.0],[9.9515999999999991,63.9484,0.0],[9.9438,63.9479,2.4552],[9.938,63.9443,0.0],[9.9542,63.9437,0.0],[9.9568,63.9474,0.0],[9.9646,63.95,0.0],[9.9708,63.95,0.0],[9.975,63.9521,0.0],[9.9854,63.9521,0.0],[9.9896,63.9542,12.2263],[10.0,63.9542,0.0],[10.0104,63.9583,0.0],[10.025,63.9604,0.0],[10.0313,63.9646,10.6288],[10.0354,63.9625,0.0],[10.0417,63.9646,0.0],[10.0432,63.9641,0.0],[10.0422,63.9609,0.0],[10.05,63.9604,0.0],[10.063,63.9661,9.9647],[10.0708,63.9667,0.0],[10.075,63.9688,0.0],[10.0792,63.9646,0.0],[10.0833,63.9667,2.0426],[10.087,63.9661,0.0],[10.0849,63.963,0.0],[10.0755,63.9568,0.0],[10.0813,63.9562,0.0],[10.0958,63.9625,3.4977],[10.1021,63.9625,0.0],[10.1036,63.9609,0.0],[10.0984,63.9599,0.0],[10.1016,63.9578,0.0],[10.1016,63.9547,0.0],[10.0922,63.9516,0.0],[10.0875,63.9458,0.0],[10.0833,63.9479,0.0],[10.0667,63.9479,0.0],[10.0417,63.9396,5.2583],[10.0313,63.9396,0.0],[10.0271,63.9375,7.4359],[10.0208,63.9375,0.0],[10.0182,63.9339,0.0],[10.0104,63.9313,0.0],[10.0026,63.9307,0.0],[9.9937,63.925,16.5056],[9.9833,63.925,0.0],[9.9792,63.9271,0.0],[9.9771,63.925,6.2174],[9.9807,63.9224,0.0],[9.9792,63.9208,0.0],[9.9688,63.9208,0.0],[9.9646,63.9229,0.0],[9.9568,63.9203,0.0],[9.9563,63.9188,0.0],[9.9568,63.9172,0.0],[9.9641,63.9141,0.0],[9.962,63.9109,1.0178],[9.95,63.9104,0.0],[9.9396,63.9063,5.689],[9.9333,63.9063,0.0],[9.9318,63.9047,5.9066],[9.9583,63.9042,0.0],[9.9667,63.9,0.0],[9.9708,63.9,0.0],[9.9891,63.9047,0.0],[9.9859,63.9068,25.7668],[9.9875,63.9083,0.0],[9.9995,63.9089,0.0],[10.0005,63.912,10.2393],[10.0057,63.913,0.0],[10.0026,63.9151,4.3953],[10.0026,63.9182,18.6458],[10.0167,63.9188,0.0],[10.0271,63.925,0.0],[10.0375,63.925,0.0],[10.0417,63.9271,0.0],[10.0443,63.9234,0.0],[10.0526,63.9193,0.0],[10.0583,63.9188,0.0],[10.0688,63.9229,0.0],[10.0792,63.9229,0.0],[10.087,63.9255,0.0],[10.0911,63.9276,0.0],[10.0938,63.9313,0.0],[10.0901,63.9339,0.0],[10.0901,63.937,0.0],[10.0953,63.938,0.0],[10.0984,63.9453,0.0],[10.1,63.9458,0.0],[10.1125,63.9396,0.0],[10.1167,63.9417,0.0],[10.1292,63.9417,0.0],[10.1333,63.9437,0.0],[10.1396,63.9437,0.0],[10.1516,63.9484,0.0],[10.1526,63.9516,12.8562],[10.1604,63.95,0.0],[10.175,63.9562,1.8523],[10.187,63.9557,20.0363],[10.1854,63.9521,0.0],[10.1875,63.95,0.0],[10.1938,63.95,0.0],[10.1964,63.9536,0.0],[10.2042,63.9542,0.0],[10.2057,63.9526,0.0],[10.2026,63.9474,0.0],[10.2005,63.938,0.0],[10.2063,63.9354,0.0],[10.2125,63.9375,43.1239],[10.2224,63.9349,33.77],[10.2203,63.9276,0.0],[10.2182,63.9255,0.0],[10.2063,63.925,0.0],[10.2021,63.9271,0.0],[10.1979,63.9271,0.0],[10.188,63.9318,43.382],[10.1891,63.937,0.0],[10.1849,63.9391,33.5628],[10.175,63.9417,9.3676],[10.1646,63.9417,0.0],[10.162,63.938,0.0],[10.1568,63.937,0.0],[10.1557,63.9339,0.0],[10.1479,63.9333,25.5528],[10.1438,63.9313,0.0],[10.1333,63.9313,0.0],[10.1292,63.9292,0.0],[10.1188,63.9292,0.0],[10.1151,63.9266,11.0829],[10.1182,63.9234,0.0],[10.1,63.9208,58.7642],[10.0917,63.9167,255.937],[10.0604,63.9146,0.0],[10.0563,63.9125,7.7083],[10.0458,63.9125,0.0],[10.0417,63.9104,42.3112],[10.0354,63.9104,0.0],[10.0234,63.9057,23.5776],[10.0188,63.9021,144.4037],[10.0125,63.9021,17.9454],[9.9979,63.8958,104.4542],[9.9859,63.8953,0.0],[9.9822,63.8899,0.0],[9.9836,63.886,192.8567],[9.9937,63.8867,142.1199],[9.9953,63.8823,163.4253],[10.0054,63.883,118.9343],[10.0069,63.8785,180.7139],[10.017,63.8792,216.6709],[10.0154,63.8836,200.8082],[10.0558,63.8864,218.704],[10.0574,63.8819,239.1678],[10.0674,63.8826,311.648],[10.069,63.8782,282.8291],[10.0791,63.8789,281.2664],[10.0775,63.8833,410.8539],[10.0977,63.8846,370.6118],[10.0993,63.8802,348.7604],[10.1094,63.8809,372.381],[10.1109,63.8764,320.6685],[10.121,63.8771,326.69],[10.1226,63.8727,320.0],[10.1427,63.874,364.903],[10.1443,63.8696,325.6293],[10.1947,63.873,414.9249],[10.2009,63.8552,388.3237],[10.211,63.8559,376.0124],[10.2094,63.8603,339.2386],[10.2599,63.8636,275.8976],[10.2614,63.8592,302.5026],[10.2715,63.8599,311.2713],[10.2699,63.8643,265.0562],[10.3204,63.8676,349.9184],[10.3219,63.8632,409.6335],[10.3521,63.8652,505.4636],[10.3537,63.8607,461.8877],[10.3738,63.862,367.929],[10.3754,63.8576,283.262],[10.3854,63.8583,288.9196],[10.3915,63.8405,327.7784],[10.4016,63.8412,349.4268],[10.4122,63.8101,457.6497],[10.4223,63.8107,410.0297],[10.4418,63.753,169.6286],[10.4519,63.7536,171.8074],[10.4489,63.7625,208.2314],[10.4589,63.7632,168.2038],[10.4559,63.7721,513.2214],[10.466,63.7727,321.7321],[10.463,63.7816,386.7033],[10.4731,63.7822,398.5575],[10.4701,63.7911,442.2794],[10.4801,63.7918,377.3536],[10.4771,63.8007,331.692],[10.4872,63.8013,355.6889],[10.4842,63.8102,366.4314],[10.4943,63.8108,377.1941],[10.4913,63.8197,310.794],[10.5013,63.8204,338.8289],[10.4998,63.8248,293.5877],[10.5099,63.8255,313.3557],[10.5069,63.8344,344.422],[10.517,63.835,329.2993],[10.514,63.8439,361.0888],[10.5241,63.8445,375.4914],[10.5211,63.8534,350.0083],[10.5312,63.8541,369.3825],[10.5297,63.8585,406.1759],[10.5398,63.8592,415.9879],[10.5383,63.8636,414.4759],[10.5484,63.8643,437.7539],[10.5454,63.8731,395.6609],[10.5555,63.8738,403.5171],[10.554,63.8782,386.6144],[10.5641,63.8789,395.512],[10.5626,63.8833,408.986],[10.5727,63.884,439.3921],[10.5697,63.8928,464.9711],[10.5798,63.8935,482.9464],[10.5783,63.8979,463.0713],[10.5884,63.8986,508.182],[10.5869,63.903,471.5173],[10.597,63.9037,497.2656],[10.594,63.9126,541.9352],[10.6244,63.9145,527.0796],[10.6229,63.9189,480.8808],[10.6431,63.9202,486.0648],[10.6416,63.9246,455.9872],[10.6618,63.9259,389.2781],[10.6604,63.9304,377.5681],[10.6806,63.9316,356.0943],[10.6791,63.9361,372.2268],[10.6994,63.9374,360.8589],[10.6979,63.9418,367.5493],[10.708,63.9424,445.5673],[10.7065,63.9469,348.5681],[10.7166,63.9475,503.5866],[10.7152,63.952,486.5971],[10.7253,63.9526,539.2997],[10.7224,63.9615,538.8073],[10.7325,63.9621,508.539],[10.731,63.9666,519.2235],[10.7411,63.9672,444.5867],[10.7397,63.9717,424.1292],[10.7498,63.9723,390.541],[10.7483,63.9767,367.6],[10.7585,63.9774,352.477],[10.7555,63.9863,359.3063],[10.7657,63.9869,335.5306],[10.7642,63.9913,285.4161],[10.7743,63.992,277.8107],[10.7729,63.9964,264.4081],[10.783,63.997,271.113],[10.7772,64.0148,259.5],[10.767,64.0142,265.5489],[10.7611,64.032,335.2408],[10.7713,64.0326,295.8742],[10.7698,64.037,379.2166],[10.78,64.0377,316.1788],[10.7785,64.0421,462.4672],[10.7887,64.0428,369.9175],[10.7872,64.0472,485.3511],[10.7974,64.0478,389.7907],[10.7959,64.0523,387.6801],[10.8162,64.0535,305.838],[10.8147,64.058,312.407],[10.8249,64.0586,384.526],[10.8205,64.0719,327.0078],[10.8307,64.0726,330.3946],[10.8263,64.0859,294.4201],[10.8365,64.0865,323.7212],[10.8336,64.0954,324.9606],[10.8641,64.0973,454.4985],[10.8626,64.1018,494.7687],[10.8728,64.1024,553.3111],[10.867,64.1202,541.8894],[10.8262,64.1177,436.6484]]],
[[[10.1854,63.9458,0.0],[10.1839,63.9443,0.0],[10.187,63.9443,0.0],[10.187,63.9453,0.8456],[10.1854,63.9458,0.0]]],
[[[10.0667,63.9562,3.207],[10.0651,63.9547,0.0],[10.0682,63.9547,0.0],[10.0682,63.9557,8.4405],[10.0667,63.9562,3.207]]],
[[[10.0563,64.0479,0.0],[10.0547,64.0463,0.0],[10.0641,64.0463,0.0],[10.0625,64.0479,11.7045],[10.0563,64.0479,0.0]]],
[[[9.9417,63.9146,0.0],[9.9401,63.913,0.0],[9.9479,63.9125,0.9866],[9.9536,63.9161,1.7916],[9.9479,63.9167,0.0],[9.9417,63.9146,0.0]]],
[[[9.9521,63.9354,0.0],[9.9458,63.9354,4.8274],[9.9417,63.9375,0.0],[9.9271,63.9375,0.0],[9.9229,63.9354,3.107],[9.9167,63.9354,0.0],[9.913,63.9328,0.0],[9.9161,63.9297,0.0],[9.913,63.9286,0.0],[9.9109,63.9255,0.0],[9.9141,63.9245,0.0],[9.9151,63.9193,1.9944],[9.9167,63.9188,0.0],[9.9354,63.9188,0.0],[9.938,63.9224,0.0],[9.9432,63.9234,0.0],[9.9464,63.9286,0.0],[9.9557,63.9318,0.0],[9.9557,63.9349,0.0],[9.9521,63.9354,0.0]]],
[[[9.8458,63.9896,0.0],[9.85,63.9875,3.1615],[9.8542,63.9875,0.0],[9.8578,63.9901,4.1616],[9.8589,63.9932,2.3721],[9.8641,63.9953,0.0],[9.8583,63.9979,0.0],[9.8521,63.9979,0.0],[9.8443,63.9932,0.0],[9.8443,63.9901,0.0],[9.8458,63.9896,0.0]]],
[[[9.9042,64.05,2.2662],[9.9,64.05,10.9299],[9.8958,64.0521,0.0],[9.8839,64.0516,0.0],[9.8818,64.0443,0.0],[9.8849,64.0432,4.5047],[9.8849,64.038,0.3416],[9.8771,64.0354,0.0],[9.8625,64.0396,0.0],[9.8542,64.0396,0.0],[9.85,64.0417,0.0],[9.8422,64.0391,0.0],[9.8396,64.0333,0.0],[9.8438,64.0292,17.6638],[9.8422,64.0234,0.0],[9.8464,64.0214,0.0],[9.8521,64.0208,0.0],[9.8563,64.0229,0.0],[9.8667,64.0229,0.0],[9.8729,64.025,19.6753],[9.8828,64.0224,2.8928],[9.8875,64.0188,0.0],[9.8849,64.0151,9.867],[9.8792,64.0125,0.0],[9.8625,64.0146,0.0],[9.85,64.0104,12.7532],[9.8438,64.0104,0.0697],[9.8422,64.0089,0.0],[9.85,64.0042,0.0],[9.8604,64.0042,4.0628],[9.8646,64.0021,0.0],[9.8708,64.0042,0.0],[9.8771,64.0,0.0],[9.8833,64.0,0.0],[9.8917,63.9958,0.0],[9.9,63.9958,3.0165],[9.9042,63.9938,0.0],[9.9146,63.9979,0.0],[9.9224,63.9984,0.0],[9.9234,64.0016,3.2908],[9.9313,64.0042,1.8073],[9.9474,64.0047,0.0],[9.9505,64.0099,0.0],[9.9557,64.0109,0.0],[9.9557,64.0162,0.0],[9.95,64.0167,0.0],[9.9443,64.0193,0.0],[9.9453,64.0224,0.0],[9.9422,64.0234,0.0],[9.9411,64.0266,0.0],[9.9339,64.0276,0.0],[9.9297,64.0297,0.0],[9.9286,64.0328,0.0],[9.9214,64.0339,21.3007],[9.9224,64.0411,1.3199],[9.9167,64.0417,0.0],[9.912,64.038,0.0],[9.9089,64.038,1.1185],[9.9099,64.0432,0.0],[9.9068,64.0453,0.4358],[9.9099,64.0474,0.0],[9.9042,64.05,2.2662]]],
[[[10.0276,63.9578,0.0],[10.0255,63.9547,0.0],[10.0333,63.9542,0.0],[10.0354,63.9562,0.0],[10.0333,63.9583,0.9759],[10.0276,63.9578,0.0]]],
[[[10.0021,64.0125,1.197],[9.9984,64.012,0.0],[9.9984,64.0109,0.0],[10.0036,64.0109,0.0],[10.0021,64.0125,1.197]]],
[[[10.0337,64.0396,0.0],[10.0396,64.0417,4.7147],[10.0458,64.0417,1.9117],[10.0474,64.0432,0.0],[10.0354,64.0437,0.0],[10.0313,64.0417,21.8143],[10.0271,64.0437,0.0],[10.0234,64.0411,0.0],[10.025,64.0396,16.1429],[10.0337,64.0396,0.0]]],
[[[10.0443,64.0547,54.3722],[10.0432,64.0578,0.0],[10.0396,64.0583,0.0],[10.0396,64.0604,0.0],[10.0318,64.0609,32.2835],[9.9932,64.0807,0.0],[9.9833,64.0833,0.0],[9.9755,64.0807,0.0],[9.9729,64.0771,13.4435],[9.9505,64.0766,0.0],[9.9495,64.0734,7.8832],[9.9401,64.0724,1.3857],[9.9318,64.0661,3.4969],[9.9307,64.063,0.0],[9.9255,64.062,0.0],[9.9354,64.0563,0.0],[9.9432,64.0578,0.0],[9.9453,64.0526,0.0],[9.9422,64.0516,0.0],[9.9401,64.0484,0.0],[9.95,64.0437,0.0],[9.962,64.0432,28.117],[9.9609,64.0401,0.0],[9.9625,64.0396,0.0],[9.9745,64.0391,0.0],[9.9771,64.0354,0.0],[9.9917,64.0354,7.1632999999999996],[10.0,64.0396,0.0],[10.0104,64.0375,0.0],[10.012,64.0391,0.0],[10.0089,64.0411,0.0],[10.0151,64.0453,0.0],[10.0229,64.0479,0.0],[10.0438,64.0479,0.0],[10.0516,64.0526,0.0],[10.05,64.0542,0.0],[10.0443,64.0547,54.3722]]],
[[[9.9417,64.0437,0.0],[9.938,64.0432,0.0],[9.938,64.0422,0.0],[9.9432,64.0422,0.0],[9.9417,64.0437,0.0]]],
[[[9.8625,64.0896,0.0],[9.8589,64.088,0.0],[9.8667,64.0875,0.0],[9.8745,64.0911,0.0],[9.8714,64.0922,0.0],[9.8703,64.0953,5.7168],[9.8646,64.0958,2.1421],[9.863,64.0953,0.6044],[9.8646,64.0917,0.0],[9.8625,64.0896,0.0]]],
[[[9.8854,64.1062,0.0],[9.8833,64.1042,0.0],[9.8854,64.1021,0.0],[9.8958,64.1021,0.0],[9.8979,64.1042,13.6086],[9.8958,64.1062,20.206],[9.8854,64.1062,0.0]]],
[[[9.9563,64.1125,0.0],[9.9547,64.1109,0.0],[9.9646,64.1104,0.0],[9.9724,64.113,0.0],[9.9729,64.1146,0.0],[9.9708,64.1167,0.0],[9.9563,64.1167,0.0],[9.9547,64.1151,4.5241],[9.9578,64.1141,0.0],[9.9563,64.1125,0.0]]]]}
,"properties": {"GID_2": "NOR.15.1_1","GID_0": "NOR","country": "Norway","GID_1": "NOR.15_1","province": "Sør-Trøndelag","NL_NAME_1": "NA","county": "Åfjord","VARNAME_2": "NA","NL_NAME_2": "NA","TYPE_2": "Kommuner","ENGTYPE_2": "Municipality","CC_2": "NA","HASC_2": "NO.ST.AF","name": "Åfjord.county","area_km2": 959.3187,"hist_schema_id": "Elevation0-9000","hist_area_km2": {"0": 49.3748,"25": 53.3552,"50": 28.7309,"75": 37.4255,"100": 36.4604,"125": 34.8559,"150": 35.8616,"175": 37.277,"200": 38.5385,"225": 39.9175,"250": 51.7113,"275": 59.2614,"300": 63.8838,"325": 62.9421,"350": 63.7531,"375": 57.5524,"400": 50.428,"425": 41.7197,"450": 33.7106,"475": 25.8591,"500": 19.1049,"525": 15.6599,"550": 10.7873,"575": 4.8592,"600": 3.0098,"625": 2.3688,"650": 0.8824,"675": 0.0278}}}