{"type":"Feature","properties":{"GID_2":"NOR.16.9_1","GID_0":"NOR","country":"Norway","GID_1":"NOR.16_1","province":"Telemark","NL_NAME_1":"NA","county":"Nome","VARNAME_2":"NA","NL_NAME_2":"NA","TYPE_2":"Kommuner","ENGTYPE_2":"Municipality","CC_2":"NA","HASC_2":"NO.TE.NM","name":"Nome.county"},
"geometry":{"type": "MultiPolygon","coordinates": [[[[8.8708,59.3448,596.8074],[8.8723,59.3404,605.5092],[8.8636,59.3396,596.9591],[8.8753,59.3042,72.0],[8.8232,59.2997,72.0],[8.8247,59.2953,152.8011],[8.816,59.2945,397.7019],[8.8234,59.2724,660.3019],[8.8321,59.2732,648.6995],[8.835,59.2643,737.5793],[8.8437,59.2651,666.01],[8.8451,59.2607,706.449],[8.8538,59.2614,617.5742],[8.8567,59.2526,735.6299],[8.8654,59.2533,664.608],[8.864,59.2577,638.8502],[8.9073,59.2615,587.123],[8.916,59.2622,469.9394],[8.9175,59.2578,581.5958],[8.9348,59.2593,574.3314],[8.9363,59.2549,565.0823],[8.9449,59.2556,594.7894],[8.9435,59.2601,570.6149],[8.9782,59.263,501.0193],[8.984,59.2453,552.8043],[8.9927,59.2461,604.463],[8.997,59.2328,592.5128],[9.0057,59.2335,585.0508],[9.0086,59.2247,580.6177],[9.0259,59.2262,492.7977],[9.0273,59.2218,467.8021],[9.036,59.2225,397.3978],[9.0403,59.2092,418.5229],[9.0577,59.2107,370.4684],[9.0591,59.2063,261.9065],[9.0938,59.2092,144.9389],[9.0923,59.2136,140.7537],[9.101,59.2144,137.6983],[9.0996,59.2188,145.4674],[9.1169,59.2203,199.947],[9.1155,59.2247,175.8924],[9.1241,59.2254,223.3046],[9.1256,59.221,260.267],[9.1429,59.2225,212.5022],[9.1472,59.2092,408.7092],[9.1558,59.2099,292.9352],[9.1587,59.2011,327.9559],[9.1674,59.2018,197.1728],[9.1688,59.1974,207.378],[9.1774,59.1981,245.7602],[9.1874,59.1671,250.6465],[9.1787,59.1664,440.4718],[9.1816,59.1575,246.082],[9.1729,59.1568,281.4218],[9.1757,59.148,404.4699],[9.1671,59.1472,387.6837],[9.1685,59.1428,419.5082],[9.2031,59.1457,267.3765],[9.2045,59.1413,307.3203],[9.2218,59.1428,185.6062],[9.2204,59.1472,138.2608],[9.2637,59.1508,161.9949],[9.2623,59.1552,176.3635],[9.2883,59.1574,206.5815],[9.2868,59.1618,311.7371],[9.2695,59.1604,190.3087],[9.2681,59.1648,225.9613],[9.2595,59.1641,195.374],[9.2581,59.1685,194.6915],[9.2494,59.1678,189.0021],[9.248,59.1722,172.2226],[9.2566,59.173,168.4844],[9.2552,59.1774,275.8185],[9.2639,59.1781,246.6264],[9.2625,59.1825,213.3624],[9.2712,59.1833,259.0565],[9.2697,59.1877,316.4559],[9.2784,59.1884,317.0434],[9.277,59.1928,283.4463],[9.2943,59.1943,360.3572],[9.2901,59.2076,155.0823],[9.2728,59.2061,246.7274],[9.2714,59.2105,167.421],[9.2627,59.2098,192.4544],[9.2585,59.2231,114.6625],[9.2932,59.226,120.7443],[9.2946,59.2216,101.5187],[9.4421,59.2338,15.5],[9.4407,59.2382,15.5],[9.432,59.2375,15.5],[9.4292,59.2464,15.5],[9.4205,59.2456,15.5],[9.4191,59.2501,15.5],[9.4104,59.2494,15.5],[9.4077,59.2582,15.5],[9.399,59.2575,15.5],[9.3962,59.2664,15.5],[9.3875,59.2656,15.5],[9.3861,59.2701,15.5],[9.3774,59.2694,15.5],[9.376,59.2738,15.5],[9.3673,59.2731,25.4429],[9.3645,59.2819,15.5],[9.3558,59.2812,15.5],[9.3544,59.2856,15.5],[9.3457,59.2849,15.5],[9.3443,59.2893,15.5],[9.327,59.2879,15.5],[9.3256,59.2923,24.9269],[9.2995,59.2902,15.5],[9.2967,59.299,15.5],[9.288,59.2983,15.5],[9.2851,59.3072,15.5],[9.2765,59.306399999999996,28.4705],[9.2736,59.3153,15.5],[9.2649,59.3146,15.5],[9.2607,59.3278,15.5],[9.252,59.3271,29.5593],[9.2506,59.3315,19.7854],[9.2419,59.3308,15.5],[9.2404,59.3352,15.5],[9.223,59.3338,32.3201],[9.2245,59.3294,66.9301],[9.2158,59.3286,117.3455],[9.2172,59.3242,160.1737],[9.1998,59.3228,103.2618],[9.1984,59.3272,136.4572],[9.1897,59.3265,125.9841],[9.1882,59.3309,115.4442],[9.1709,59.3294,187.1833],[9.168,59.3383,180.4402],[9.1593,59.3375,190.9326],[9.1579,59.342,198.3085],[9.1492,59.3412,317.3892],[9.1477,59.3457,293.1002],[9.1303,59.3442,322.0177],[9.1174,59.384,366.9966],[9.1087,59.3833,348.8287],[9.1073,59.3877,352.578],[9.0724,59.3848,190.8015],[9.0739,59.3803,173.36],[9.0477,59.3781,109.7671],[9.0492,59.3737,117.6387],[9.0318,59.3722,156.7403],[9.0332,59.3678,164.9799],[9.0245,59.3671,237.5109],[9.026,59.3626,270.648],[8.9911,59.3597,407.8008],[8.9897,59.3641,433.2124],[8.981,59.3633,421.0019],[8.9795,59.3678,394.8258],[8.9621,59.3663,253.4388],[8.9636,59.3619,270.0251],[8.9462,59.3604,324.0664],[8.9476,59.3559,297.1026],[8.9302,59.3544,295.1731],[8.9317,59.35,273.4316],[8.9143,59.3485,327.6189],[8.9158,59.3441,330.9557],[8.8897,59.3419,507.0969],[8.8882,59.3463,581.3439],[8.8708,59.3448,596.8074]]]]}}