{"type": "Feature","bbox": [7.9847,62.0036,9.3204,62.3818],"geometry": {"type": "MultiPolygon","coordinates": [[[[8.198,62.3392,1459.1954],[8.1694,62.3368,1565.1074],[8.1712,62.3324,1602.8341],[8.1617,62.3316,1458.2107],[8.1634,62.3272,1415.005],[8.1539,62.3264,1302.7563],[8.1574,62.3175,1115.7633],[8.1479,62.3167,978.214],[8.1496,62.3123,913.9167],[8.1401,62.3115,821.5693],[8.1419,62.3071,840.5206],[8.1324,62.3063,700.4803],[8.1341,62.3019,802.5694],[8.1246,62.3011,509.9201],[8.1264,62.2967,512.7739],[8.1168,62.2959,391.908],[8.1204,62.287,461.4002],[8.1108,62.2862,520.8925],[8.1144,62.2774,532.0359],[8.1049,62.2766,631.769],[8.1084,62.2678,639.1829],[8.0989,62.267,643.3939],[8.1006,62.2625,669.2247],[8.0911,62.2617,715.0726],[8.0929,62.2573,798.0695],[8.0834,62.2565,978.1755],[8.0851,62.2521,1123.3992],[8.0756,62.2513,1237.4956],[8.0774,62.2469,1247.8778],[8.0679,62.2461,1302.7179],[8.0697,62.2417,1354.6045],[8.0602,62.2408,1389.0153],[8.0619,62.2364,1406.8086],[8.0524,62.2356,1359.5472],[8.0542,62.2312,1280.0759],[8.0447,62.2304,1270.9424],[8.0465,62.226,1223.1273],[8.037,62.2252,1217.5765],[8.0387,62.2208,1221.1387],[8.0293,62.2199,1211.3728],[8.031,62.2155,1227.3396],[8.0215,62.2147,1235.9956],[8.0251,62.2059,1374.7483],[8.0156,62.2051,1422.0638],[8.0173,62.2007,1513.0209],[8.0079,62.1999,1515.8901],[8.0096,62.1954,1691.1111],[8.0002,62.1946,1667.9047],[8.0019,62.1902,1698.6453],[7.9925,62.1894,1628.6686],[7.9942,62.185,1692.9314],[7.9847,62.1842,1808.3068],[8.0024,62.1401,1495.7662],[8.0119,62.1409,1495.5319],[8.0277,62.1012,1755.3851],[8.0371,62.102,1803.8966],[8.0494,62.0711,1630.2996],[8.0588,62.0719,1703.5144],[8.0658,62.0543,1779.1549],[8.0753,62.0551,1631.8611],[8.077,62.0507,1836.0471],[8.0865,62.0515,1851.5455],[8.0882,62.0471,1924.8304],[8.0976,62.0479,1894.4558],[8.0994,62.0435,1760.5984],[8.1088,62.0443,1804.4653],[8.1105,62.0399,1741.6813],[8.12,62.0407,1754.3732],[8.1217,62.0363,1729.3149],[8.1311,62.0371,1653.7695],[8.1329,62.0327,1538.7137],[8.1423,62.0335,1505.5333],[8.144,62.029,1400.8478],[8.1535,62.0299,1328.0878],[8.1552,62.0254,1300.9093],[8.1646,62.0262,1271.8215],[8.1664,62.0218,1258.9607],[8.1758,62.0226,1262.4242],[8.1775,62.0182,1284.2068],[8.187,62.019,1327.2542],[8.1887,62.0146,1334.4713],[8.1981,62.0154,1341.5079],[8.1998,62.011,1351.0746],[8.2093,62.0118,1350.3152],[8.211,62.0074,1406.9985],[8.2581,62.0114,1496.4495],[8.2598,62.007,1458.2744],[8.307,62.0109,1396.2695],[8.3087,62.0065,1385.6331],[8.3652,62.0113,1284.3911],[8.3669,62.0069,1282.3226],[8.4141,62.0108,1372.0601],[8.4158,62.0064,1405.6554],[8.4252,62.0072,1425.7384],[8.4235,62.0116,1431.2217],[8.4896,62.0171,1612.2223],[8.4912,62.0127,1542.3525],[8.5101,62.0142,1473.7928],[8.5118,62.0098,1493.0186],[8.5401,62.0122,1529.7665],[8.5418,62.0077,1549.1893],[8.5606,62.0093,1620.9053],[8.5623,62.0049,1647.6691],[8.6,62.008,1706.0397],[8.6017,62.0036,1678.9174],[8.7055,62.012,1656.4364],[8.7038,62.0165,1646.9045],[8.7322,62.0188,1616.2321],[8.7305,62.0232,1631.6426],[8.7777,62.027,1475.6433],[8.7794,62.0226,1524.7477],[8.7888,62.0233,1501.0962],[8.7904,62.0189,1477.3214],[8.7999,62.0197,1508.8845],[8.8032,62.0108,1569.1782],[8.8315,62.0131,1328.7281],[8.8331,62.0087,1497.0399],[8.8614,62.011,1277.2128],[8.8631,62.0066,1452.4073],[8.8914,62.0088,1203.1919],[8.893,62.0044,1255.125],[8.9497,62.0089,1139.2146],[8.948,62.0133,1194.1605],[8.9858,62.0163,1234.4696],[8.9842,62.0208,1222.0498],[8.9937,62.0215,1260.7141],[8.9953,62.0171,1313.8645],[9.0142,62.0186,1379.0117],[9.0158,62.0142,1324.325],[9.0252,62.0149,1350.1232],[9.022,62.0238,1260.0839],[9.0126,62.023,1295.6147],[9.0045,62.0451,1183.4641],[9.0234,62.0466,1116.684],[9.0218,62.051,1120.5255],[9.0691,62.0548,985.3657],[9.0659,62.0636,675.3298],[9.0754,62.0644,635.4771],[9.0738,62.0688,546.2623],[9.0832,62.0695,521.7702],[9.08,62.0784,530.1617],[9.0895,62.0791,541.754],[9.0879,62.0835,545.9387],[9.0974,62.0843,558.5038],[9.0958,62.0887,589.9228],[9.1052,62.0895,591.9271],[9.1036,62.0939,641.2458],[9.1131,62.0946,644.4289],[9.1115,62.099,666.3353],[9.102,62.0983,653.71],[9.0988,62.1072,665.7939],[9.0894,62.1064,734.888],[9.0846,62.1197,857.6653],[9.094,62.1204,792.4697],[9.0908,62.1293,971.9056],[9.1098,62.1308,1029.7043],[9.1082,62.1352,1063.2134],[9.1367,62.1374,1202.993],[9.1351,62.1418,1225.5883],[9.1635,62.144,1298.8949],[9.1619,62.1485,1244.5066],[9.1714,62.1492,1274.3363],[9.1698,62.1536,1221.4661],[9.1888,62.1551,1291.4513],[9.1872,62.1595,1276.1034],[9.1967,62.1603,1295.3009],[9.1951,62.1647,1332.6992],[9.2046,62.1654,1322.5598],[9.203,62.1699,1311.1626],[9.222,62.1713,1248.0748],[9.2204,62.1757,1306.2487],[9.2299,62.1765,1303.2621],[9.2284,62.1809,1344.7648],[9.2474,62.1824,1304.3585],[9.2458,62.1868,1267.9211],[9.2648,62.1883,1266.2432],[9.2632,62.1927,1249.4318],[9.2822,62.1941,1288.1067],[9.2806,62.1986,1268.8636],[9.2901,62.1993,1297.6071],[9.2886,62.2037,1242.0768],[9.2981,62.2045,1259.7648],[9.2949,62.2133,1276.3977],[9.3044,62.214,1258.9968],[9.3029,62.2185,1403.7582],[9.2933,62.2177,1399.4824],[9.2918,62.2222,1524.2931],[9.3013,62.2229,1463.7001],[9.2981,62.2318,1616.3615],[9.3076,62.2325,1606.0383],[9.3045,62.2413,1486.3435],[9.314,62.2421,1445.3381],[9.3109,62.2509,1423.2084],[9.3204,62.2516,1465.1541],[9.3172,62.2605,1263.6124],[9.3077,62.2598,1235.6505],[9.3045,62.2686,1251.0383],[9.295,62.2679,1262.9209],[9.2903,62.2812,1416.9818],[9.2807,62.2805,1405.5719],[9.276,62.2937,1672.5122],[9.2664,62.293,1660.9642],[9.2617,62.3063,1900.1138],[9.2521,62.3056,1859.4984],[9.2489,62.3144,2080.156],[9.2394,62.3137,2011.6643],[9.2378,62.3181,1704.8291],[9.2282,62.3174,1723.1049],[9.2267,62.3218,1814.1554],[9.2171,62.3211,1842.2238],[9.2155,62.3255,1890.0289],[9.2251,62.3262,1974.5934],[9.2187,62.3439,1553.3748],[9.2091,62.3432,1549.054],[9.2075,62.3476,1409.5698],[9.1884,62.3462,1395.6503],[9.1868,62.3506,1327.2294],[9.1773,62.3498,1310.9943],[9.1756,62.3543,1301.6312],[9.1565,62.3528,1324.2954],[9.1549,62.3572,1399.7576],[9.1358,62.3558,1571.7073],[9.1342,62.3602,1440.3108],[9.1151,62.3587,1481.7468],[9.1135,62.3631,1639.2068],[9.0944,62.3616,1645.9221],[9.0928,62.3661,1530.3],[9.0832,62.3653,1550.8231],[9.0816,62.3697,1541.963],[9.0625,62.3683,1797.1887],[9.0608,62.3727,1970.428],[9.0417,62.3712,1679.7639],[9.0433,62.3668,1652.1837],[9.0242,62.3653,1683.5277],[9.0259,62.3609,1691.0717],[8.9972,62.3586,1482.5898],[8.9988,62.3542,1665.9128],[8.9702,62.3519,1814.3262],[8.9685,62.3564,1709.6022],[8.9399,62.3541,1716.7585],[8.9383,62.3585,1767.822],[8.9096,62.3563,1628.2673],[8.908,62.3607,1642.0739],[8.8984,62.3599,1596.5103],[8.8935,62.3732,1892.4127],[8.8744,62.3717,1712.3978],[8.8727,62.3761,1734.2063],[8.8632,62.3754,1682.7727],[8.8615,62.3798,1788.1177],[8.8233,62.3767,1492.7932],[8.8216,62.3812,1455.3336],[8.7739,62.3774,1523.8751],[8.7722,62.3818,1325.1702],[8.6958,62.3756,1055.3363],[8.6941,62.3801,1041.9742],[8.6177,62.3739,853.0],[8.616,62.3783,853.0],[8.4728,62.3666,1318.3887],[8.4711,62.371,1301.8624],[8.3089,62.3576,1340.1714],[8.3106,62.3532,1459.6459],[8.2344,62.3468,1121.735],[8.2361,62.3424,1125.2256],[8.198,62.3392,1459.1954]]]]}
,"properties": {"GID_2": "NOR.11.7_1","GID_0": "NOR","country": "Norway","GID_1": "NOR.11_1","province": "Oppland","NL_NAME_1": "NA","county": "Lesja","VARNAME_2": "NA","NL_NAME_2": "NA","TYPE_2": "Kommuner","ENGTYPE_2": "Municipality","CC_2": "NA","HASC_2": "NO.OP.LE","name": "Lesja.county","area_km2": 2264.181,"hist_schema_id": "Elevation0-9000","hist_area_km2": {"400": 0.059,"425": 0.138,"450": 0.227,"475": 0.365,"500": 0.513,"525": 9.11,"550": 32.393,"575": 22.265,"600": 23.137,"625": 33.497,"650": 21.862,"675": 19.264,"700": 18.06,"725": 17.129,"750": 15.292,"775": 14.848,"800": 20.149,"825": 21.115,"850": 58.481,"875": 32.785,"900": 27.54,"925": 26.159,"950": 27.056,"975": 26.616,"1000": 27.977,"1025": 33.824,"1050": 38.76,"1075": 45.174,"1100": 43.109,"1125": 48.788,"1150": 53.989,"1175": 63.962,"1200": 64.608,"1225": 79.03,"1250": 74.681,"1275": 81.153,"1300": 75.43,"1325": 69.878,"1350": 68.9,"1375": 72.448,"1400": 76.099,"1425": 78.577,"1450": 73.678,"1475": 66.84,"1500": 69.053,"1525": 63.433,"1550": 58.592,"1575": 51.855,"1600": 47.64,"1625": 41.417,"1650": 38.151,"1675": 35.542,"1700": 30.39,"1725": 27.074,"1750": 24.064,"1775": 17.675,"1800": 14.565,"1825": 12.113,"1850": 9.23,"1875": 6.6,"1900": 4.48,"1925": 2.678,"1950": 1.244,"1975": 0.839,"2000": 0.622,"2025": 0.384,"2050": 0.375,"2075": 0.453,"2100": 0.256,"2125": 0.256,"2150": 0.148,"2175": 0.059,"2200": 0.02}}}