{"type": "Feature","id": "1062","bbox": [21.23391,68.55483,31.11899,71.16527],"geometry": {"type": "MultiPolygon","coordinates": [[[[30.16204,69.78494,9.4513],[30.16749,69.79035,0.0],[30.13958,69.80219,9.6515],[30.13063,69.80183,53.0831],[30.12436,69.80008,0.0],[30.11345,69.7851,36.3986],[30.12395,69.78221,22.9568],[30.16204,69.78494,9.4513]]],
[[[30.03126,69.88353,0.0],[30.02638,69.87788,12.5104],[30.03199,69.86538,13.2987],[30.04339,69.85578,22.6484],[30.0665,69.85273,0.0],[30.08977,69.85952,23.2358],[30.09067,69.86229,0.0],[30.08009,69.86347,28.8109],[30.07488,69.8664,0.0],[30.07895,69.87999,7.1265],[30.07439,69.88174,7.5137],[30.04428,69.87991,0.0],[30.03126,69.88353,0.0]]],
[[[30.02329,69.83674,0.0],[30.02662,69.84829,0.0],[30.02858,69.85285,0.0],[30.00554,69.86286,0.0],[30.00074,69.86587,0.0],[29.99659,69.87434,32.6177],[29.99855,69.88813,0.0],[29.99448,69.89378,0.0],[29.97104,69.90204,0.0],[29.87721,69.91425,0.0],[29.84246,69.90892,11.4378],[29.81593,69.89106,74.9774],[29.80836,69.86587,79.38],[29.83009,69.83857,86.4875],[29.80128,69.82071,94.1155],[29.73536,69.79019,29.6103],[29.71323,69.76341,33.7043],[29.79575,69.75601,0.0],[29.83286,69.76927,54.1765],[29.84604,69.77973,72.8615],[29.83009,69.79076,0.0],[29.84653,69.79658,92.3386],[29.86476,69.79072,141.459],[29.88429,69.78144,57.9241],[29.90504,69.77709,32.2117],[29.92888,69.78193,0.0],[29.97625,69.80028,72.3548],[30.05714,69.80964,0.0],[30.08766,69.81708,20.6447],[30.10743,69.8286,0.0],[30.09986,69.83446,0.0],[30.02117,69.83234,0.0],[30.02329,69.83674,0.0]]],
[[[25.33041,70.2908,0.0],[25.32472,70.2956,0.0],[25.29119,70.28791,54.4034],[25.28582,70.28311,32.6908],[25.28492,70.28014,87.5053],[25.27011,70.27428,64.151],[25.26547,70.27017,56.3936],[25.26205,70.26016,93.0941],[25.24236,70.24441,14.4621],[25.24676,70.24107,0.0],[25.34466,70.26211,0.0],[25.34881,70.26476,0.0],[25.34946,70.26874,0.0],[25.35157,70.27338,0.0],[25.35572,70.27627,0.0],[25.35589,70.27875,0.0],[25.35312,70.28404,0.0],[25.34718,70.2875,0.0],[25.33749,70.28738,5.6959],[25.33041,70.2908,0.0]]],
[[[21.73097,70.26484,0.0],[21.74903,70.2744,7.6249],[21.76466,70.28685,0.0],[21.79371,70.32343,5.7411],[21.79916,70.34711,169.8356],[21.79274,70.35806,0.0],[21.73813,70.37824,0.0],[21.7295,70.38272,0.0],[21.71225,70.38923,0.6443],[21.70362,70.38638,0.0],[21.70338,70.37665,0.0],[21.69801,70.37108,0.0],[21.69304,70.37031,0.0],[21.68816,70.36921,32.8363],[21.68458,70.36384,108.6322],[21.68914,70.35456,0.0],[21.68881,70.33544,0.0],[21.67888,70.30736,0.0],[21.67693,70.28482,0.0],[21.68963,70.27049,0.0],[21.70314,70.26179,26.8987],[21.71485,70.26,0.0],[21.73097,70.26484,0.0]]],
[[[21.46339,70.33609,0.0],[21.46469,70.34203,0.0],[21.45631,70.34492,0.0],[21.452,70.34955,0.0],[21.45216,70.36001,2.2318],[21.44939,70.36778,0.0],[21.44549,70.37238,0.0],[21.44492,70.37881,0.0],[21.43922,70.38683,0.0],[21.42595,70.38968,0.0],[21.38705,70.3535,0.0],[21.3943,70.34833,25.6733],[21.39812,70.34687,0.0],[21.40414,70.34593,0.0],[21.40545,70.34191,0.0],[21.40317,70.33373,120.5061],[21.40675,70.32722,29.2264],[21.40707,70.32477,0.0],[21.46339,70.33609,0.0]]],
[[[22.69451,70.38557,76.329],[22.68898,70.39411,0.0],[22.67465,70.39887,0.0],[22.6609,70.39558,0.0],[22.65089,70.3863,0.0],[22.64812,70.37299,0.0],[22.64112,70.37299,0.0],[22.63299,70.3854,23.9927],[22.61891,70.38703,21.5901],[22.60572,70.38007,300.8918],[22.60027,70.36677,174.349],[22.57521,70.38203,63.11],[22.5298,70.3642,0.0],[22.48512,70.38447,0.0],[22.47364,70.38028,0.0],[22.46795,70.36823,0.0],[22.4699,70.35309,119.5743],[22.47535,70.34772,44.0857],[22.50465,70.32514,131.2129],[22.46957,70.33731,0.0],[22.45338,70.34565,0.0],[22.43922,70.35619,0.0],[22.42107,70.36176,0.0],[22.39763,70.35781,0.0],[22.37867,70.34699,333.3765],[22.37371,70.33198,381.0088],[22.38136,70.32575,616.5901],[22.44516,70.29145,10.8933],[22.7317,70.2569,205.7054],[23.00148,70.24917,161.8007],[23.01629,70.2543,0.0],[23.01905,70.26496,0.0],[23.00831,70.28075,0.0],[22.98854,70.29295,0.0],[22.96599,70.29784,0.0],[22.94304,70.30024,52.6139],[22.92237,70.30467,92.3765],[22.92921,70.31265,112.9127],[22.93735,70.31879,119.9767],[22.94646,70.32298,49.775],[22.95639,70.32514,0.0],[22.82797,70.33373,3.1002],[22.80567,70.34223,0.0],[22.79859,70.36685,0.0],[22.78053,70.38622,75.1945],[22.75636,70.39496,0.0],[22.73048,70.38719,0.0],[22.73715,70.36506,69.1784],[22.72975,70.34463,0.0],[22.71437,70.33698,0.0],[22.69646,70.35309,351.9121],[22.69435,70.36294,268.5883],[22.69451,70.38557,76.329]]],
[[[31.11687,70.36587,6.7473],[31.11899,70.37169,28.7251],[31.11362,70.3791,0.0],[31.10027,70.37938,0.0],[31.08627,70.38097,17.1592],[31.08131,70.38768,14.4822],[31.07309,70.39505,20.4932],[31.07171,70.39924,30.3078],[31.06674,70.40445,7.6724],[31.05934,70.40465,0.0],[31.05738,70.39871,0.0],[31.0621,70.39008,0.0],[31.06316,70.38548,0.0],[31.06609,70.38015,0.0],[31.07065,70.37552,0.0],[31.07602,70.37409,0.0],[31.08107,70.36787,0.0],[31.08538,70.36538,0.0],[31.11687,70.36587,6.7473]]],
[[[23.50148,70.6166,0.0],[23.48455,70.62466,11.8863],[23.4642,70.62495,126.2136],[23.39096,70.61799,109.5718],[23.3982,70.61335,69.2417],[23.45737,70.60635,20.1017],[23.45167,70.60151,48.4822],[23.44166,70.59028,243.514],[23.43629,70.58527,113.472],[23.48927,70.57087,116.9818],[23.51547,70.56,162.7834],[23.53932,70.54487,16.2535],[23.50375,70.54499,0.0],[23.41261,70.56171,0.0],[23.38787,70.54487,79.9081],[23.39381,70.54206,56.6947],[23.40838,70.53124,18.0496],[23.38697,70.5329,0.0],[23.35328,70.54682,0.0],[23.33326,70.5517,0.0],[23.30763,70.55044,0.0],[23.29835,70.54316,322.0148],[23.3047,70.5351,519.7979],[23.32643,70.53124,256.0642],[23.3108,70.51874,9.2709],[23.29127,70.48383,177.3161],[23.27858,70.47663,166.9572],[23.26092,70.4809,0.0],[23.26043,70.49185,0.0],[23.26734,70.50609,0.0],[23.27174,70.5207,0.0],[23.26205,70.53612,0.0],[23.23959,70.54564,0.0],[23.21437,70.55044,0.0],[23.1963,70.5517,0.0],[23.17555,70.54759,53.1507],[23.181,70.53852,321.0701],[23.20094,70.529,279.3912],[23.2234,70.52383,72.273],[23.2234,70.51765,7.7982],[23.20069,70.51374,54.622],[23.17359,70.50275,148.6415],[23.15105,70.49836,0.0],[23.14145,70.51415,0.0],[23.12428,70.52058,0.0],[23.01857,70.49706,278.5004],[23.01303,70.49315,248.6488],[23.00367,70.48066,460.6116],[22.99806,70.47663,147.868],[22.99122,70.47598,0.0],[22.97242,70.47724,0.0],[22.96388,70.47663,42.6275],[22.96144,70.46967,545.0377],[22.95834,70.46503,354.0916],[22.95297,70.46296,185.1416],[22.9437,70.46239,31.6724],[22.93653,70.461,0.0],[22.92237,70.45612,102.8284],[22.89723,70.451,572.3106],[22.89536,70.44611,665.9166],[22.9087,70.435,524.7333],[22.91969,70.43089,555.8928],[22.96388,70.42137,568.1703],[22.94011,70.40705,0.0],[22.88087,70.41413,0.0],[22.85401,70.4077,7.1431],[22.87135,70.40229,0.0],[22.93914,70.36335,252.9012],[22.94955,70.35932,244.9241],[22.96453,70.3581,0.0],[22.98024,70.35883,142.9442],[22.99537,70.35716,468.4161],[23.00831,70.34943,385.1244],[23.03891,70.34097,0.0],[23.07504,70.36005,0.0],[23.13461,70.41454,539.2393],[23.13819,70.4007,385.6725],[23.13543,70.38532,429.9575],[23.12696,70.37079,280.0841],[23.11411,70.35932,248.7287],[23.08741,70.32836,270.852],[23.08204,70.30166,54.7688],[23.10467,70.28327,60.2161],[23.15504,70.27733,166.7718],[23.21632,70.28278,76.9204],[23.3816,70.31835,0.0],[23.36313,70.32616,0.0],[23.33904,70.33088,0.0],[23.31365,70.33275,17.3972],[23.29225,70.33198,10.527],[23.31902,70.34211,58.3188],[23.40838,70.35309,151.4572],[23.59254,70.41527,0.0],[23.63413,70.43749,42.6678],[23.66228,70.46979,0.0],[23.65333,70.47313,0.0],[23.636,70.48334,0.0],[23.6281,70.48965,12.327],[23.63551,70.49242,0.0],[23.64918,70.50031,0.0],[23.65602,70.50332,0.0],[23.63404,70.51044,0.0],[23.61109,70.51215,0.0],[23.59164,70.51642,0.0],[23.58033,70.53124,0.0],[23.58074,70.54295,0.0],[23.5866,70.55414,0.0],[23.59449,70.56574,0.0],[23.60133,70.57905,0.0],[23.56821,70.59772,0.0],[23.55983,70.60635,0.0],[23.5735,70.61319,0.0],[23.55665,70.61888,0.0],[23.51881,70.61054,210.7556],[23.50148,70.6166,0.0]]],
[[[25.85686,70.67072,0.0],[25.88136,70.68069,0.0],[25.88738,70.68806,0.0],[25.88787,70.69383,0.0],[25.87355,70.6992,0.0],[25.87265,70.70539,0.0],[25.85117,70.70726,19.6314],[25.78956,70.69314,26.0245],[25.78582,70.68818,9.2868],[25.78679,70.68472,18.5158],[25.78419,70.67886,19.829],[25.78606,70.67422,13.997],[25.80055,70.66498,0.0],[25.80926,70.66214,0.0],[25.85686,70.67072,0.0]]],
[[[23.81918,70.70938,0.0],[23.82879,70.71064,0.0],[23.83497,70.7128,0.0],[23.84018,70.7167,0.0],[23.84718,70.72305,9.5247],[23.83424,70.72565,7.5518],[23.82838,70.73029,15.598],[23.83033,70.7364,0.0],[23.84034,70.74356,0.0],[23.81568,70.75117,0.0],[23.70924,70.7486,0.0],[23.69776,70.74339,104.9065],[23.67595,70.72305,176.993],[23.65113,70.70991,221.7767],[23.64015,70.70222,96.2823],[23.63551,70.69204,90.013],[23.64283,70.68521,158.7934],[23.6902,70.66779,0.0],[23.68434,70.65892,115.0213],[23.67628,70.65424,158.1239],[23.65602,70.64794,119.2569],[23.67954,70.6363,31.6108],[23.68067,70.62495,211.8555],[23.6657,70.61298,52.3338],[23.64177,70.59951,0.0],[23.68678,70.59951,20.3599],[23.69207,70.59589,85.9575],[23.69402,70.58759,163.8598],[23.695,70.57819,90.5105],[23.69703,70.5716,36.3118],[23.70981,70.55825,25.8452],[23.7378,70.53681,55.7033],[23.75099,70.52383,50.7603],[23.80421,70.51333,72.4206],[23.86793,70.5124,136.6707],[23.92897,70.52326,190.3193],[24.01222,70.56778,246.6687],[24.10157,70.58869,147.9134],[24.12843,70.62002,0.0],[24.08326,70.63597,160.5624],[24.0652,70.64594,0.0],[24.06691,70.66096,183.852],[24.05983,70.66975,199.7111],[24.05226,70.67719,140.8985],[24.04347,70.6835,56.0096],[24.03273,70.68891,0.0],[23.97779,70.70694,0.0],[23.96388,70.70938,0.0],[23.86769,70.70938,146.6565],[23.85515,70.70734,191.9758],[23.8436,70.70405,211.3621],[23.83188,70.70336,20.9291],[23.81918,70.70938,0.0]]],
[[[23.39649,70.8426,0.0],[23.38478,70.84931,0.0],[23.37233,70.85895,0.0],[23.35808,70.86408,0.0],[23.34254,70.86603,0.0],[23.32643,70.8664,0.0],[23.313,70.86164,0.0],[23.31528,70.85065,145.5431],[23.32228,70.83812,75.1547],[23.32301,70.82884,154.3468],[23.32097,70.81851,8.185],[23.34034,70.79849,180.363],[23.3401,70.78449,231.5495],[23.32895,70.77928,114.8118],[23.28663,70.77595,0.0],[23.27174,70.77704,0.0],[23.24317,70.78705,183.5591],[23.19011,70.81574,132.4801],[23.16188,70.82543,0.0],[23.16188,70.81802,0.0],[23.18019,70.81061,0.0],[23.18767,70.80219,0.0],[23.18214,70.79499,0.0],[23.16188,70.79133,282.2315],[23.13754,70.7956,369.1162],[23.09254,70.81367,161.2708],[23.06625,70.81245,70.6311],[23.07358,70.80638,0.0],[23.0818,70.80207,0.0],[23.09067,70.79955,3.8553],[23.1006,70.79877,25.6498],[23.04859,70.79719,0.0],[23.02996,70.79084,252.215],[23.05274,70.77391,0.0],[23.0713,70.76777,0.0],[23.12843,70.7578,222.7618],[23.13103,70.75479,215.4197],[23.13217,70.74995,0.0],[23.13543,70.74551,0.0],[23.14487,70.74356,15.1889],[23.16432,70.74287,0.0],[23.17319,70.74071,11.7788],[23.18238,70.73603,2.727],[23.16538,70.73029,235.7172],[23.10141,70.73603,0.0],[23.09311,70.73212,0.0],[23.09881,70.72333,0.0],[23.11061,70.71418,-0.5],[23.12094,70.70938,253.9193],[23.09645,70.71019,401.7024],[23.04957,70.72248,80.5189],[23.0254,70.72305,0.0],[23.03273,70.70136,0.0],[23.01987,70.69208,0.0],[22.99757,70.68789,0.0],[22.9769,70.68146,0.0],[22.99073,70.66779,0.0],[22.96909,70.6612,69.311],[22.94361,70.67036,0.0],[22.91782,70.68513,238.5701],[22.89503,70.69514,0.0],[22.92172,70.70726,100.3125],[22.93149,70.71662,25.4712],[22.92384,70.7248,117.4136],[22.90561,70.72769,35.7617],[22.87241,70.72285,0.0],[22.85401,70.72305,0.0],[22.85401,70.72989,0.0],[22.8672,70.72989,0.0],[22.85108,70.74189,9.2376],[22.8108,70.74433,0.0],[22.792,70.75039,0.0],[22.79689,70.75365,0.0],[22.80567,70.76398,157.6113],[22.75392,70.75178,334.861],[22.72299,70.74848,436.1964],[22.72023,70.74356,545.23],[22.72438,70.73697,457.8115],[22.73048,70.72989,157.3131],[22.75318,70.71393,128.7243],[22.77784,70.70429,0.0],[22.79249,70.69359,98.3457],[22.78517,70.67463,100.9183],[22.80779,70.66323,164.4452],[22.82618,70.64794,84.6676],[22.77369,70.65021,0.0],[22.74789,70.64741,50.0234],[22.73666,70.63711,104.4682],[22.73585,70.6249,73.9898],[22.73211,70.61115,68.1539],[22.72486,70.60358,127.8505],[22.71315,70.60977,3.6764],[22.70826,70.6223,0.0],[22.70704,70.6374,0.0],[22.70289,70.65152,0.0],[22.68898,70.66096,0.0],[22.67042,70.65786,0.0],[22.65162,70.6457,233.8386],[22.63087,70.63593,88.6086],[22.60646,70.64053,0.0],[22.59498,70.65253,0.0],[22.60483,70.66035,0.0],[22.64112,70.67121,0.0],[22.65626,70.68171,0.0],[22.65154,70.68769,0.0],[22.56739,70.71288,0.0],[22.54103,70.71747,75.1064],[22.51759,70.71556,0.0],[22.50148,70.70808,0.0],[22.4948,70.6988,192.7931],[22.49789,70.68936,61.6906],[22.51149,70.68146,74.5745],[22.49269,70.67573,0.0],[22.47023,70.67658,0.0],[22.44858,70.68252,0.0],[22.43238,70.69204,41.245],[22.42115,70.70295,0.0],[22.41456,70.70795,0.0],[22.40496,70.70942,0.0],[22.38453,70.70938,197.7477],[22.37387,70.69819,390.5214],[22.38396,70.67324,174.38],[22.40187,70.64741,123.2124],[22.41521,70.63369,130.185],[22.41521,70.62621,142.052],[22.32057,70.66128,0.0],[22.26588,70.67499,0.0],[22.22975,70.67463,15.3716],[22.24448,70.66836,0.0],[22.25115,70.65937,274.547],[22.25034,70.6494,210.9162],[22.24334,70.64053,14.6524],[22.22153,70.6319,219.1828],[22.19532,70.63182,169.4768],[22.0442,70.65986,0.0],[21.9865,70.66254,0.0],[21.95037,70.64794,62.6539],[21.97706,70.63752,35.5917],[22.0088,70.63349,0.0],[22.07203,70.63369,86.6557],[22.05738,70.6245,250.5938],[22.02508,70.61188,16.7561],[22.01124,70.59951,299.3173],[22.0407,70.59357,144.4191],[22.06861,70.59272,51.0646],[22.07732,70.59479,75.0879],[22.09164,70.60419,109.165],[22.09995,70.60635,108.2688],[22.33334,70.61319,196.2825],[22.31056,70.60151,0.0],[22.23707,70.57905,49.9746],[22.2566,70.57258,100.2447],[22.26441,70.5716,94.1902],[22.24545,70.55671,0.0],[22.20289,70.54409,0.0],[22.18556,70.53465,100.6905],[22.1609,70.51138,47.2269],[22.15154,70.49966,37.0685],[22.14088,70.48286,27.826],[22.15447,70.47232,49.455],[22.18653,70.47313,0.0],[22.22145,70.48066,32.1129],[22.24334,70.48965,0.0],[22.26808,70.529,30.2276],[22.28566,70.54157,386.0062],[22.31284,70.53124,89.3641],[22.29282,70.51447,21.8274],[22.30893,70.50336,430.7495],[22.3423,70.49921,101.3492],[22.37371,70.50332,0.0],[22.39869,70.51398,0.0],[22.40724,70.51459,0.0],[22.42213,70.51073,398.2342],[22.43019,70.50605,439.659],[22.44923,70.49763,14.9567],[22.46844,70.49486,0.0],[22.47731,70.50703,0.0],[22.48927,70.53193,44.2101],[22.51677,70.52782,562.8228],[22.56609,70.50332,172.8689],[22.57203,70.50495,37.1695],[22.57911,70.5091,32.8988],[22.58481,70.51472,0.0],[22.58961,70.52863,33.1907],[22.59547,70.52896,166.2748],[22.60288,70.52582,112.7551],[22.60987,70.52383,28.1403],[22.62135,70.52412,0.0],[22.6316,70.52631,0.0],[22.63543,70.53262,0.0],[22.6268,70.54487,0.0],[22.63429,70.5517,38.3354],[22.64381,70.56415,65.7721],[22.6893,70.56367,147.977],[22.77833,70.5517,198.8249],[22.76686,70.53986,204.6253],[22.76515,70.53107,241.8105],[22.77272,70.5257,157.4542],[22.78858,70.52383,9.4895],[22.79982,70.52814,270.476],[22.82163,70.54735,319.186],[22.83326,70.5517,278.5561],[22.84376,70.5493,201.5594],[22.87094,70.53937,538.0012],[22.88819,70.53807,515.0709],[22.90162,70.53998,160.4697],[22.91383,70.54377,350.4195],[22.92506,70.54979,156.6383],[22.93605,70.55854,0.0],[22.88087,70.5716,35.24],[22.88087,70.57905,132.1556],[22.90577,70.57836,253.6285],[22.95265,70.56647,38.0667],[22.9769,70.56538,124.3931],[22.99781,70.57282,364.1027],[23.00815,70.58515,10.9016],[23.00473,70.59614,0.0],[22.98455,70.59951,0.0],[23.01832,70.60395,310.8726],[23.05502,70.59138,381.9462],[23.08888,70.58625,0.0],[23.11411,70.61319,32.2377],[23.05942,70.62621,3.5096],[23.07887,70.62987,14.0308],[23.12037,70.62401,0.0],[23.14145,70.62621,0.0],[23.15187,70.63227,2.4798],[23.16969,70.64887,0.0],[23.18238,70.65412,0.0],[23.15504,70.65583,138.2672],[23.14283,70.659,0.0],[23.13461,70.66779,166.5742],[23.14129,70.66975,79.2374],[23.1478,70.67316,93.3386],[23.15309,70.67817,0.0],[23.15854,70.69416,0.0],[23.16668,70.69453,0.0],[23.18238,70.68891,62.9782],[23.27174,70.68146,13.9852],[23.26637,70.68431,231.0143],[23.25131,70.69514,0.0],[23.28159,70.70209,0.0],[23.29754,70.71039,0.0],[23.30681,70.71019,54.5613],[23.31463,70.70869,91.8801],[23.31959,70.70938,94.5031],[23.32455,70.71939,0.0],[23.32683,70.74193,0.0],[23.33326,70.75039,62.7305],[23.34897,70.75312,240.0544],[23.38526,70.74335,367.5318],[23.40211,70.74356,0.0],[23.40675,70.7473,0.0],[23.41098,70.75922,0.0],[23.41578,70.76398,0.0],[23.4253,70.76655,248.1786],[23.44663,70.76752,195.3521],[23.45737,70.77082,0.0],[23.42066,70.77387,142.2904],[23.40268,70.77778,106.302],[23.38787,70.78449,0.0],[23.41236,70.7919,0.0],[23.46046,70.79084,197.0053],[23.48414,70.79877,207.9677],[23.46795,70.80073,133.9489],[23.45493,70.80484,108.8808],[23.4463,70.81342,6.1163],[23.44313,70.82884,0.0],[23.43483,70.8288,113.6869],[23.39649,70.8426,0.0]]],
[[[24.07309,71.01105,0.0],[24.07862,71.01447,0.0],[24.08741,71.02412,0.0],[23.96013,71.02863,298.8867],[23.92286,71.01728,0.0],[23.93238,71.01533,0.0],[23.93963,71.01179,9.2362],[23.95021,71.00422,111.6992],[23.89503,71.00226,0.0],[23.88575,70.99616,159.5078],[23.90935,70.9831,0.0],[23.94215,70.97761,226.6711],[24.00709,70.9831,0.0],[24.03891,70.97626,59.4908],[24.00856,70.9665,36.7957],[23.9402,70.96406,166.1167],[23.90935,70.9558,340.0114],[23.9865,70.94229,262.8653],[23.99871,70.93159,48.4868],[24.00571,70.92284,263.7606],[24.02296,70.91698,127.4641],[24.04314,70.91413,50.6391],[24.0796,70.91462,0.0],[24.0901,70.92109,0.0],[24.09734,70.92943,0.0],[24.10792,70.93529,52.6097],[24.12623,70.935,125.2388],[24.14332,70.93024,50.7839],[24.15992,70.92805,0.0],[24.17677,70.93529,0.0],[24.16928,70.94212,78.0133],[24.18385,70.94086,0.0],[24.19988,70.9416,0.0],[24.21079,70.94599,13.227],[24.21079,70.9558,0.0],[24.24513,70.9558,0.0],[24.21022,70.96699,0.0],[24.07309,70.96259,66.4061],[24.08741,70.96882,0.0],[24.08399,70.97346,0.0],[24.08237,70.97712,0.0],[24.07984,70.98021,0.0],[24.07309,70.9831,0.0],[24.1067,70.99388,0.0],[24.18784,70.98933,0.0],[24.22462,70.99677,0.0],[24.18767,71.00507,0.0],[24.10922,71.00214,93.7548],[24.07309,71.01105,0.0]]],
[[[24.97535,71.0445,0.0],[24.94304,71.04173,0.0],[24.9371,71.03937,0.0],[24.94117,71.0384,47.3173],[24.94166,71.03575,27.3851],[24.93596,71.0266,19.1002],[24.93141,71.0231,0.0],[24.93002,71.02074,0.0],[24.95924,71.00532,0.0],[24.98219,71.00446,6.3245],[24.98211,71.00283,43.9055],[24.96713,70.99905,79.7211],[24.97413,70.99641,22.7253],[25.00335,70.99624,0.0],[25.00945,70.99901,0.0],[25.01401,71.00259,13.032],[25.02898,71.00332,0.0],[25.02556,71.0058,0.0],[25.02084,71.00735,0.0],[25.02296,71.01215,0.0],[25.04103,71.02192,0.0],[25.04526,71.02591,0.0],[25.0477,71.03213,0.0],[25.04453,71.036,103.0769],[25.03224,71.03563,167.6709],[25.01018,71.0303,193.2944],[24.99936,71.02997,64.8386],[24.97535,71.0445,0.0]]],
[[[24.77931,71.09365,146.5905],[24.77296,71.09589,19.6204],[24.76775,71.09931,1.3758],[24.76401,71.10468,0.0],[24.74488,71.10879,11.5782],[24.71258,71.10757,159.4104],[24.70948,71.09772,0.0],[24.73121,71.08369,0.0],[24.73911,71.07331,0.0],[24.73292,71.06859,30.7882],[24.72071,71.06782,206.328],[24.70484,71.06904,311.0473],[24.702,71.07233,49.4812],[24.70533,71.07852,22.5557],[24.69337,71.08511,179.7441],[24.67164,71.08808,261.8267],[24.64633,71.08271,0.0],[24.61899,71.06932,212.5201],[24.61427,71.05663,0.0],[24.63396,71.04877,0.0],[24.67075,71.04291,0.0],[24.68767,71.03815,0.0],[24.70484,71.03144,0.0],[24.72202,71.02656,0.0],[24.75603,71.02534,0.0],[24.77003,71.02619,0.0],[24.78907,71.04706,0.0],[24.78907,71.05305,20.1798],[24.77662,71.05923,22.2439],[24.78761,71.06782,0.0],[24.8187,71.0738,0.0],[24.82602,71.07685,6.7137],[24.81235,71.07998,74.3211],[24.81674,71.086,0.0],[24.83692,71.09488,0.0],[24.8366,71.09955,10.5274],[24.81691,71.09882,214.848],[24.80681,71.0974,207.8012],[24.78826,71.093,6.3523],[24.77931,71.09365,146.5905]]],
[[[27.71551,71.10423,283.3974],[27.65016,71.1271,173.3228],[27.64234,71.09545,45.8339],[27.61012,71.09292,160.8172],[27.5687,71.09724,281.3674],[27.53403,71.08613,301.8786],[27.52459,71.07441,249.162],[27.52329,71.06647,298.3223],[27.52605,71.05707,288.8472],[27.52784,71.04145,260.0259],[27.53305,71.02875,0.0],[27.54664,71.02269,0.0],[27.58253,71.01728,117.5732],[27.56951,71.00654,127.3679],[27.5643,70.99445,0.0],[27.56658,70.98163,118.3458],[27.57553,70.96882,192.3945],[27.55421,70.95527,13.5928],[27.52931,70.95547,33.2938],[27.50856,70.96857,12.3184],[27.50001,70.99364,162.6634],[27.47641,71.00666,175.1474],[27.25318,71.02631,272.9128],[27.22169,71.01895,218.5057],[27.23243,70.99677,0.0],[27.2483,70.98908,0.0],[27.28956,70.97919,0.0],[27.30787,70.9726,0.0],[27.33131,70.96076,173.4414],[27.34197,70.9527,0.0],[27.34897,70.94212,82.5178],[27.17115,70.96686,277.0417],[27.14869,70.96385,241.5499],[27.1338,70.95002,264.1877],[27.12257,70.9217,180.6473],[27.15398,70.90571,0.0],[27.19093,70.89496,0.0],[27.33513,70.88402,0.0],[27.3558,70.88691,0.0],[27.36964,70.89322,0.0],[27.39405,70.90974,0.0],[27.41049,70.91425,0.0],[27.40431,70.9062,0.0],[27.38689,70.89167,0.0],[27.38331,70.88378,21.5906],[27.39129,70.87637,0.0],[27.40968,70.87645,0.0],[27.44467,70.88068,0.0],[27.45346,70.87934,0.0],[27.45639,70.87808,0.0],[27.45802,70.87531,0.0],[27.46225,70.86982,0.0],[27.47047,70.86595,0.0],[27.49049,70.86725,0.0],[27.50001,70.8664,0.0],[27.50961,70.8618,0.0],[27.52231,70.85151,33.9286],[27.53403,70.84593,246.7886],[27.52052,70.84178,208.961],[27.50807,70.836,150.969],[27.49537,70.83173,232.8472],[27.48015,70.83226,103.6582],[27.48015,70.82543,0.0],[27.62965,70.805,0.0],[27.34897,70.82543,240.0255],[27.32399,70.82364,267.2691],[27.31088,70.81818,167.9326],[27.29078,70.79507,64.4497],[27.28045,70.77473,0.0],[27.29371,70.7639,19.7462],[27.31853,70.75934,0.0],[27.3423,70.7578,0.0],[27.32944,70.74331,36.4251],[27.31666,70.73896,0.0],[27.28696,70.74356,0.0],[27.13982,70.74063,189.7495],[27.11061,70.72871,243.9266],[27.0809,70.70258,96.9482],[27.09929,70.69672,0.0],[27.13901,70.6892,0.0],[27.15675,70.68146,0.0],[27.10532,70.65575,235.9705],[27.09986,70.6411,117.5287],[27.12989,70.62621,0.0],[27.23512,70.60171,0.0],[27.26661,70.58527,41.6557],[27.24204,70.58544,2.0851],[27.17107,70.59951,45.5071],[27.12965,70.59833,147.1762],[27.11638,70.59951,180.5789],[27.10727,70.60244,144.7884],[27.08855,70.61091,0.0],[27.0809,70.61319,0.0],[27.05388,70.61017,17.7798],[27.02149,70.59894,214.0747],[26.99171,70.58283,15.1202],[26.97291,70.56538,0.0],[26.98178,70.56464,0.0],[27.00709,70.55854,0.0],[27.00034,70.54906,50.6723],[26.9909,70.54377,116.6272],[26.96608,70.53807,0.0],[26.97608,70.52741,0.0],[27.02703,70.50332,0.0],[27.04469,70.48774,0.0],[27.05437,70.48286,0.0],[27.09059,70.47451,0.0],[27.10206,70.46979,51.1099],[27.07667,70.47435,27.2171],[27.05128,70.47606,193.7225],[26.94825,70.46247,0.0],[26.93149,70.46646,0.0],[26.94508,70.48286,36.6379],[26.81227,70.47993,13.651],[26.80397,70.46955,89.4125],[26.79933,70.45466,281.8333],[26.78053,70.43842,125.3835],[26.7531,70.42731,174.6177],[26.7234,70.42088,0.0],[26.69272,70.42023,0.0],[26.66228,70.42642,0.0],[26.65594,70.42475,0.0],[26.63445,70.41303,198.7738],[26.62916,70.4077,127.0786],[26.63103,70.40111,13.3323],[26.64959,70.37979,159.5601],[26.63526,70.37665,106.3435],[26.6089,70.3808,0.0],[26.59498,70.37979,107.4611],[26.58326,70.37434,171.4907],[26.57838,70.36823,237.7497],[26.57521,70.36197,209.9369],[26.56764,70.35619,231.5983],[26.55388,70.35309,171.5106],[26.51612,70.35932,0.0],[26.50587,70.36286,0.0],[26.50603,70.37055,0.0],[26.51043,70.37775,0.0],[26.51303,70.37979,0.0],[26.51515,70.3867,0.0],[26.52394,70.40058,40.1598],[26.52662,70.4077,0.0],[26.52524,70.4134,0.0],[26.51531,70.42365,0.0],[26.51303,70.43159,61.069],[26.52133,70.44839,62.2047],[26.54103,70.46157,69.257],[26.58131,70.47663,0.0],[26.57309,70.48965,0.0],[26.56398,70.49681,0.0],[26.55844,70.50414,0.0],[26.5608,70.51765,0.0],[26.5739,70.52847,0.0],[26.59311,70.53587,0.0],[26.60629,70.54438,0.0],[26.60182,70.55854,0.0],[26.65699,70.64053,0.0],[26.62306,70.65192,0.0],[26.53745,70.66185,70.4466],[26.49936,70.66096,273.4726],[26.37534,70.63837,318.3457],[26.34164,70.64794,2.1494],[26.64047,70.70661,0.0],[26.69117,70.73603,0.0],[26.68531,70.75458,0.0],[26.69158,70.77294,0.0],[26.7046,70.79003,0.0],[26.71909,70.805,0.0],[26.73561,70.81533,0.0],[26.74431,70.82347,0.0],[26.74578,70.83226,0.0],[26.73601,70.83861,0.0],[26.72096,70.83539,170.4178],[26.7046,70.82901,106.358],[26.69093,70.82543,44.7712],[26.67994,70.82665,48.7694],[26.6714,70.83063,0.0],[26.66586,70.83804,7.6977],[26.66383,70.84931,30.91],[26.66912,70.85961,0.0],[26.68149,70.86286,0.0],[26.69614,70.86441,0.0],[26.70826,70.86982,0.0],[26.7234,70.8808,0.0],[26.73015,70.88788,0.0],[26.73276,70.89777,0.0],[26.72918,70.90668,0.0],[26.72267,70.91096,66.6021],[26.71925,70.91616,0.0],[26.72535,70.92788,0.0],[26.6775,70.94212,189.3725],[26.68727,70.9527,115.6161],[26.69117,70.9558,55.3024],[26.61362,70.94912,216.6339],[26.37428,70.86848,378.3889],[26.30828,70.83332,151.9554],[26.25538,70.79743,305.6838],[26.19166,70.77375,42.4714],[26.16358,70.7578,59.1219],[26.15699,70.75019,159.7257],[26.14527,70.73135,236.1672],[26.1364,70.72305,67.4939],[26.11915,70.71735,34.1447],[26.08253,70.71638,6.2109],[26.07081,70.71247,17.2867],[26.05348,70.69269,27.3337],[26.01222,70.62621,182.4391],[25.99057,70.60651,16.013],[25.96046,70.58893,59.7865],[25.92742,70.5764,94.3231],[25.89666,70.5716,34.496],[25.86915,70.5642,52.2787],[25.65642,70.44062,69.3118],[25.44109,70.34223,58.9362],[25.42311,70.32514,42.2314],[25.51726,70.31135,0.2619],[25.54038,70.29784,11.5448],[25.5171,70.2779,90.115],[25.45053,70.2495,84.7316],[25.43678,70.23298,86.9299],[25.42954,70.22224,222.512],[25.4131,70.20991,392.901],[25.39479,70.19969,428.2291],[25.3825,70.19546,326.7952],[25.36134,70.19416,186.2665],[25.34164,70.18989,79.568],[25.32439,70.18244,136.3835],[25.31039,70.17121,257.9236],[25.27394,70.12271,382.943],[25.2527,70.1013,274.2777],[25.22853,70.09243,23.8823],[25.20525,70.09028,0.0],[25.15943,70.08088,0.0],[25.13608,70.0788,0.0],[25.11378,70.08246,0.0],[25.10182,70.09101,0.0],[25.09327,70.10029,0.0],[25.08107,70.10602,0.0],[25.09034,70.1166,10.2717],[25.10401,70.12128,76.8054],[25.13575,70.12661,1.1268],[25.12224,70.13227,22.6102],[25.10727,70.13068,28.1918],[25.09099,70.1271,0.0],[25.07358,70.12661,0.0],[25.08766,70.14761,12.4659],[25.09474,70.15388,0.0],[25.02752,70.14281,42.4377],[25.01222,70.13398,101.4371],[25.00603,70.1186,44.3674],[25.01197,70.10863,67.9811],[25.02329,70.1009,36.4404],[25.03338,70.09243,10.8688],[25.03712,70.06436,15.0831],[25.00424,70.06403,0.0],[24.96339,70.08039,1.1977],[24.94337,70.10236,0.0],[24.94508,70.14859,0.0],[24.94679,70.15762,0.0],[24.96437,70.16999,0.0],[24.97023,70.17683,0.0],[24.96469,70.19135,0.0],[24.96616,70.19892,0.0],[24.97006,70.20628,0.0],[24.97706,70.21548,0.0],[24.97804,70.21849,0.0],[24.97804,70.22582,0.0],[24.97983,70.22944,0.0],[24.98992,70.23045,0.0],[24.9948,70.23298,0.0],[25.00294,70.23908,0.0],[25.01433,70.24457,0.0],[25.02638,70.24852,0.0],[25.05795,70.25446,0.0],[25.20135,70.30707,38.0432],[25.20875,70.31672,0.0],[25.20395,70.33198,0.0],[25.18678,70.33934,0.0],[25.16383,70.33308,0.0],[25.14039,70.32282,70.5775],[25.12208,70.31835,82.3242],[25.10475,70.32534,0.0],[25.10548,70.33625,0.0],[25.11793,70.34699,0.0],[25.13575,70.35309,10.7941],[25.10776,70.35297,0.0],[25.09425,70.35472,42.1669],[25.08107,70.35932,0.0],[25.15659,70.39395,0.0],[25.19776,70.40038,12.2642],[25.2566,70.38638,0.0],[25.26466,70.39301,0.0],[25.26401,70.40534,0.0],[25.24594,70.43464,0.0],[25.2518,70.44807,0.0],[25.26743,70.456,0.0],[25.28712,70.45612,0.0],[25.24334,70.47842,0.0],[25.0975,70.47134,17.575],[25.05991,70.48965,0.007],[25.24252,70.48664,0.0],[25.28712,70.51073,0.0],[25.24594,70.5279,0.0],[25.07358,70.50332,5.6605],[25.10108,70.5231,0.0],[25.23927,70.56476,0.0],[25.25465,70.57225,0.0],[25.28712,70.59272,0.0],[25.30698,70.59931,0.0],[25.35377,70.60716,0.0],[25.42799,70.6424,0.0],[25.44679,70.66193,0.0],[25.51246,70.67121,0.0],[25.55991,70.69904,0.0],[25.59734,70.70515,0.0],[25.62013,70.71231,0.0],[25.64112,70.72289,0.0],[25.6565,70.73603,0.0],[25.64039,70.74848,0.0],[25.63445,70.75503,0.0],[25.62916,70.76398,0.0],[25.72608,70.77546,0.0],[25.75327,70.78449,0.0],[25.8003,70.81542,5.4851],[25.82521,70.82746,0.0],[25.86866,70.83544,0.0],[25.89576,70.84955,0.0],[25.92514,70.8559,0.0],[25.92579,70.86367,0.0],[25.91871,70.87287,0.0],[25.91041,70.88068,0.0],[25.8816,70.8957,31.469],[25.85304,70.89403,8.675],[25.82309,70.88569,31.9741],[25.79054,70.88068,73.1923],[25.78541,70.87739,72.6762],[25.77809,70.8701,52.0194],[25.7684,70.86286,91.9782],[25.75611,70.85961,89.5238],[25.74684,70.86245,63.4146],[25.73658,70.86933,0.0],[25.7282,70.87739,58.2311],[25.72478,70.88378,0.0],[25.70574,70.89558,88.0604],[25.66261,70.89533,250.0288],[25.61671,70.88858,396.5662],[25.58888,70.88068,337.8054],[25.56031,70.857,383.4962],[25.5534,70.85277,330.7643],[25.53883,70.8544,290.8432],[25.52076,70.86913,0.0],[25.51246,70.86982,0.0],[25.46567,70.84406,59.1792],[25.44166,70.8415,20.9052],[25.42311,70.85961,12.131],[25.44386,70.86262,0.0],[25.49317,70.87792,0.0],[25.51246,70.88691,0.0],[25.52703,70.89765,0.0],[25.53728,70.91128,100.7312],[25.53598,70.92292,0.0],[25.41822,70.96454,4.014],[25.365,70.97614,0.0],[25.34181,70.9527,236.0648],[25.34742,70.94042,259.6595],[25.36061,70.9256,77.1072],[25.37525,70.91315,62.5993],[25.38551,70.90803,42.6192],[25.39666,70.9007,24.6225],[25.39226,70.88443,1.5963],[25.34978,70.81867,70.1136],[25.34156,70.81245,16.0574],[25.31129,70.8142,88.5803],[25.29477,70.81342,120.4234],[25.28346,70.80874,57.3556],[25.27508,70.80048,61.3343],[25.26686,70.79426,112.1341],[25.2575,70.79084,49.7294],[25.24562,70.79133,102.7429],[25.26612,70.82543,0.0],[25.24187,70.86237,0.0],[25.23194,70.87324,0.0],[25.17994,70.90375,0.0],[25.16651,70.90803,0.0],[25.16342,70.91014,0.0],[25.15968,70.91486,0.0],[25.15358,70.9195,0.0],[25.14259,70.9217,0.0],[25.13453,70.91966,0.0],[25.1115,70.90933,200.5359],[25.07602,70.88434,282.1881],[25.06715,70.87303,225.2437],[25.06739,70.85277,194.4177],[25.04835,70.85798,184.4011],[25.00473,70.86164,138.1967],[24.98829,70.86982,0.0],[24.97136,70.87617,0.0],[24.93295,70.86762,61.8171],[24.91603,70.87324,113.4309],[24.94972,70.87885,0.0],[24.98894,70.8913,0.0],[25.02589,70.90839,0.0],[25.05323,70.92788,0.0],[25.06284,70.95759,0.0],[25.03346,70.97134,0.0],[24.9935,70.97207,91.3139],[24.9712,70.96259,96.6708],[24.98797,70.95816,230.7894],[24.97804,70.94579,291.0363],[24.96811,70.92984,164.5551],[24.98487,70.91425,19.2579],[24.82049,70.90803,77.786],[24.83741,70.91608,21.1155],[24.85377,70.92182,0.0],[24.8602,70.92837,0.0],[24.84742,70.93871,0.0],[24.8353,70.94245,0.0],[24.80714,70.94721,5.9253],[24.79689,70.9527,0.0],[24.78891,70.96109,0.0],[24.78289,70.96597,0.0],[24.77418,70.96821,0.0],[24.66603,70.97769,365.4763],[24.63689,70.97565,206.4194],[24.60865,70.97053,359.0556],[24.58766,70.96259,3.1451],[24.60353,70.95612,103.05],[24.63941,70.95506,83.6001],[24.65594,70.94961,135.414],[24.636,70.95002,329.8932],[24.61305,70.9475,317.3512],[24.59099,70.94245,272.8036],[24.57399,70.93529,193.2059],[24.58229,70.92451,201.6373],[24.59474,70.91812,0.0],[24.62867,70.90803,99.9133],[24.62135,70.9051,163.0752],[24.60816,70.89435,145.2917],[24.63754,70.89395,232.6699],[24.72486,70.87324,244.8199],[24.7103,70.85904,136.0587],[24.6836,70.85993,91.59],[24.65333,70.86579,105.9551],[24.62867,70.8664,64.1732],[24.61329,70.85936,272.5624],[24.61109,70.85147,151.6508],[24.61061,70.84077,279.3562],[24.60076,70.82543,131.8737],[24.62908,70.81558,96.9536],[24.64064,70.80858,32.1347],[24.64967,70.79877,80.1302],[24.63543,70.77977,19.0374],[24.61606,70.77973,156.0472],[24.57399,70.79877,0.0],[24.52027,70.81159,0.0],[24.46412,70.81802,55.7253],[24.46583,70.83446,0.0],[24.45118,70.84113,0.0],[24.40886,70.84593,25.5155],[24.41627,70.85277,0.0],[24.39576,70.86689,0.0],[24.36362,70.86286,96.0037],[24.26938,70.83845,201.1496],[24.26759,70.82071,60.9015],[24.26808,70.80024,106.5371],[24.24513,70.78449,0.0],[24.26588,70.76992,0.0],[24.29233,70.76411,0.0],[24.34742,70.76398,0.0],[24.46412,70.75039,119.9843],[24.51596,70.75214,36.8017],[24.5324,70.75039,5.518],[24.54396,70.74628,19.3522],[24.56666,70.72989,228.4105],[24.58815,70.72191,158.6375],[24.65594,70.70938,211.0325],[24.64674,70.70384,168.7519],[24.64226,70.70258,112.0758],[24.66163,70.68818,142.8021],[24.72486,70.66523,299.8091],[24.73854,70.64423,214.9176],[24.72348,70.62104,72.1736],[24.688,70.61433,70.9323],[24.64698,70.61799,0.0],[24.615,70.62621,0.0],[24.4983,70.67805,0.0],[24.47771,70.68329,0.0],[24.40886,70.68146,0.0],[24.37045,70.68985,0.0],[24.35239,70.69099,15.3198],[24.33383,70.68521,0.0],[24.29396,70.66641,152.6975],[24.28224,70.65754,43.891],[24.27638,70.64712,117.9563],[24.27565,70.62279,205.7976],[24.27231,70.61319,483.1334],[24.26433,70.60627,400.1798],[24.25603,70.60342,191.4938],[24.24733,70.60212,90.7882],[24.23829,70.59951,9.5271],[24.21079,70.58527,424.002],[24.11232,70.5489,32.1096],[24.10271,70.54141,92.8984],[24.11476,70.53807,17.4123],[24.23146,70.52383,277.6944],[24.2588,70.51374,134.3779],[24.3152,70.4831,191.4359],[24.34441,70.47663,352.838],[24.35532,70.47199,408.5786],[24.35743,70.4628,407.3218],[24.35027,70.45624,248.5699],[24.33383,70.45954,173.4614],[24.31105,70.4704,0.0],[24.29802,70.47484,0.0],[24.18629,70.49396,0.0],[23.91798,70.50943,0.0],[23.84034,70.49706,0.0],[23.81568,70.48701,0.0],[23.75099,70.44872,0.0],[23.64234,70.41112,0.0],[23.59059,70.3867,73.1506],[23.56202,70.37694,41.1905],[23.53549,70.37299,0.0],[23.51319,70.36555,0.0],[23.48227,70.33027,371.7157],[23.46363,70.31835,86.9286],[23.48276,70.3155,0.0],[23.52442,70.32396,31.4555],[23.54615,70.32514,29.1248],[23.51873,70.30585,346.0459],[23.51197,70.29784,8.9171],[23.61443,70.30467,140.5581],[23.57081,70.29068,0.0],[23.39942,70.27863,147.4929],[23.31284,70.25698,260.6148],[23.29225,70.24384,48.456],[23.47047,70.25601,353.1907],[23.50294,70.25336,376.909],[23.53191,70.24384,167.2428],[23.50514,70.24384,11.9433],[23.50343,70.23753,164.8885],[23.48764,70.23554,269.7415],[23.41782,70.23436,148.51],[23.38787,70.22956,0.0],[23.27573,70.22504,0.0],[23.24391,70.21589,178.7891],[23.28077,70.19847,327.9356],[23.32862,70.19306,452.9047],[23.42205,70.19546,418.3171],[23.40309,70.18081,66.4082],[23.32765,70.17536,0.0],[23.29908,70.16755,147.3314],[23.32358,70.15925,367.4607],[23.37916,70.14964,470.2088],[23.40211,70.1402,379.7588],[23.37924,70.12324,3.4193],[23.35776,70.1153,0.0],[23.27565,70.11164,0.0],[23.25953,70.10847,0.0],[23.24448,70.10236,9.1122],[23.22779,70.09764,87.4658],[23.19207,70.09756,0.0],[23.17555,70.09243,12.9732],[23.27272,70.04658,317.0739],[23.29689,70.03978,236.9824],[23.48854,70.03417,183.7095],[23.53932,70.02412,39.2507],[23.52272,70.01496,0.0],[23.50221,70.01142,0.0],[23.48463,70.00633,0.0],[23.47731,69.99282,0.0],[23.4673,69.98579,0.0],[23.42058,69.97809,0.0],[23.32984,69.94839,7.283],[23.30958,69.94977,7.0284],[23.30958,69.95409,5.3697],[23.33668,69.9726,63.0341],[23.33904,69.97773,3.7254],[23.33481,69.98119,0.0],[23.32301,69.98627,0.0],[23.31617,69.99364,0.0],[23.31414,69.99653,0.0],[23.29908,69.99624,0.0],[23.28346,69.99339,0.0],[23.15919,69.95108,26.3458],[23.1255,69.9444,0.0],[23.09441,69.95527,0.0],[23.10987,69.95726,0.0],[23.1233,69.96088,0.0],[23.13592,69.96674,0.0],[23.14894,69.97573,0.0],[23.12436,69.98794,0.0],[23.1198,69.99897,0.0],[23.12452,70.01288,0.0],[23.12843,70.03376,0.0],[23.11508,70.04304,0.0],[23.08497,70.03962,0.0],[23.05242,70.03238,0.0],[23.03224,70.03034,0.0],[23.02003,70.03807,0.0],[23.00904,70.05048,0.0],[23.00115,70.06586,0.0],[22.99806,70.08218,0.0],[22.9992,70.10098,0.0],[23.0027,70.11441,0.0],[23.01857,70.14704,0.0],[22.97853,70.14541,0.0],[22.8672,70.10602,0.0],[22.71372,70.09528,3.5849],[22.64763,70.07567,0.0],[22.39503,70.0611,0.0],[22.35906,70.04609,15.7716],[22.3318,70.04043,0.0],[22.30421,70.03913,0.0],[22.28492,70.04401,9.6091],[22.39234,70.06782,0.0],[22.43458,70.08893,348.1227],[22.47625,70.09089,199.0775],[22.5525,70.0856,436.5607],[22.73609,70.102,188.3847],[22.80397,70.11693,0.0],[22.83668,70.12035,0.0],[22.8602,70.12621,0.0],[22.97055,70.18936,0.0],[22.9769,70.19888,0.0],[22.96705,70.20746,0.0],[22.6753,70.22313,0.0],[22.60369,70.21849,60.6258],[22.594,70.22207,264.2589],[22.60027,70.23648,0.0],[22.58709,70.24209,0.0],[22.57586,70.24067,0.0],[22.56528,70.23762,0.0],[22.55397,70.23835,0.0],[22.51295,70.25373,0.0],[22.46811,70.25991,0.0],[22.43393,70.26093,0.0],[22.40065,70.25829,0.0],[22.37371,70.25007,122.1771],[22.37477,70.24632,121.6696],[22.36061,70.21589,653.0631],[22.33237,70.18012,71.7776],[22.32594,70.16755,217.8564],[22.50733,70.14671,553.9286],[22.53639,70.13947,471.5543],[22.55934,70.12661,632.7924],[22.52475,70.12352,30.907],[22.40496,70.14704,0.0],[22.27467,70.13548,0.0],[22.23707,70.1402,0.0],[22.24903,70.15058,102.3843],[22.27809,70.15819,0.0],[22.29176,70.16755,0.0],[22.2815,70.18521,0.0],[22.27768,70.20246,0.0],[22.27231,70.21792,0.0],[22.25758,70.22956,0.0],[22.27613,70.2392,0.0],[22.3003,70.25511,0.0],[22.31511,70.27269,0.0],[22.30584,70.2873,0.0],[22.26743,70.29511,0.0],[22.14088,70.28425,12.1357],[22.15317,70.25934,177.0822],[22.15284,70.24653,614.8226],[22.14088,70.23648,680.0067],[22.1172,70.23347,33.5224],[22.1076,70.24531,0.0],[22.10678,70.29393,0.0],[22.10483,70.30414,0.0],[22.09523,70.30781,0.0],[22.07203,70.30467,141.4572],[22.00913,70.28653,271.5151],[21.9839,70.28425,39.8518],[21.99147,70.29572,0.0],[22.01873,70.30903,0.0],[22.03159,70.31835,0.0],[22.0101,70.32461,0.0],[21.98683,70.32343,26.0808],[21.82179,70.26862,417.3666],[21.80567,70.25723,349.1281],[21.80885,70.24018,581.5813],[21.82732,70.22663,480.224],[21.87306,70.21605,14.5196],[21.89454,70.20848,169.798],[21.88649,70.20954,113.8374],[21.87582,70.20954,134.6454],[21.86622,70.20742,216.3338],[21.86036,70.2023,676.675],[21.8589,70.19404,479.0939],[21.86158,70.19131,499.171],[21.86573,70.19062,529.4524],[21.86785,70.18867,665.7529],[21.87094,70.17792,623.3498],[21.87672,70.16975,66.8665],[21.87965,70.16059,541.8369],[21.87403,70.14704,236.1264],[21.8296,70.16816,13.3617],[21.81935,70.17495,0.0],[21.80893,70.18842,0.0],[21.80437,70.19798,0.0],[21.79689,70.20628,0.0],[21.70948,70.25007,0.0],[21.68539,70.25568,0.0],[21.63608,70.26146,0.0],[21.61329,70.26992,0.0],[21.58912,70.2873,0.0],[21.58692,70.29295,0.0],[21.58741,70.30777,0.0],[21.58595,70.31216,0.0],[21.57146,70.31892,0.0],[21.55299,70.32103,21.601],[21.53395,70.31684,8.9984],[21.51775,70.30467,197.0859],[21.51173,70.2934,208.1604],[21.51092,70.28205,96.2855],[21.51149,70.27001,232.1931],[21.51026,70.2569,262.7961],[21.50611,70.25068,247.0041],[21.49269,70.24018,7.65],[21.48976,70.23298,218.0462],[21.49098,70.2248,322.3623],[21.49252,70.2211,245.7798],[21.49293,70.21719,105.573],[21.48976,70.20848,0.0],[21.44508,70.23786,0.0],[21.43523,70.25007,0.0],[21.4393,70.26948,0.0],[21.40707,70.26732,260.4799],[21.33961,70.25007,21.7381],[21.30698,70.24702,158.4808],[21.27036,70.23859,179.3271],[21.23569,70.22549,34.6857],[21.23391,70.22428,65.8936],[21.52786,70.18499,411.4348],[21.58776,70.18887,595.4362],[21.61711,70.18724,398.2596],[21.64796,70.18078,194.0198],[21.74666,70.13851,979.5687],[21.86009,70.10435,599.9196],[21.87451,70.10244,806.7379],[21.90774,70.10895,605.1177],[21.93146,70.11619,240.3308],[21.93316,70.11991,104.5051],[21.92913,70.12352,66.9626],[21.93177,70.12771,231.6265],[21.94184,70.13221,670.2234],[21.96314,70.13892,473.7412],[21.97538,70.14161,633.5352],[21.98391,70.14251,603.2091],[22.03373,70.13939,901.5527],[22.04644,70.14135,875.2019],[22.07951,70.15401,1010.433],[22.09718,70.15815,1075.4896],[22.11222,70.15838,1089.0341],[22.12964,70.15024,1038.0957],[22.14374,70.13944,611.6207],[22.15522,70.12316,555.0404],[22.16901,70.1074,703.649],[22.18968,70.09055,655.6266],[22.23423,70.04477,111.4492],[22.23749,70.028,145.6075],[22.2364,70.0226,226.401],[22.2378,70.01748,376.3249],[22.24369,70.01144,393.6269],[22.29722,69.97154,564.4624],[22.31102,69.95862,624.9865],[22.32141,69.9516,685.8381],[22.33738,69.94643,660.0797],[22.48248,69.92403,657.4503],[22.53959,69.92204,685.8953],[22.55726,69.91733,709.4229],[22.56486,69.91,714.021],[22.55912,69.89896,636.8094],[22.54594,69.88617,600.2623],[22.53773,69.87563,763.1962],[22.53866,69.86721,905.6044],[22.55524,69.85951,846.418],[22.57343,69.85336,697.6071],[22.58506,69.84649,773.7177],[22.58429,69.8407,769.8952],[22.57576,69.83403,809.8499],[22.53819,69.81279,741.0828],[22.53059,69.80623,706.7197],[22.52641,69.80003,644.8511],[22.53059,69.79099,686.6499],[22.54377,69.77964,587.4918],[22.57762,69.7591,680.8248],[22.59607,69.74205,603.0422],[22.61731,69.716,761.3471],[22.62868,69.70587,635.9182],[22.66418,69.68577,630.7365],[22.72066,69.66841,665.2437],[22.79047,69.65531,717.1343],[22.8636,69.65794,799.3126],[22.88577,69.65539,784.4348],[22.91543,69.64815,754.8286],[22.92752,69.64391,742.912],[22.93341,69.63994,708.4835],[22.93295,69.63539,704.8135],[22.91946,69.62743,732.5176],[22.8498,69.59694,641.0502],[22.83099,69.58547,615.6903],[22.82138,69.57487,617.2632],[22.81874,69.56754,613.6381],[22.80975,69.55836,614.0985],[22.79704,69.55054,614.5305],[22.77606,69.54149,616.8175],[22.77141,69.53568,620.9849],[22.77358,69.52986,637.9107],[22.77807,69.52444,642.7017],[22.78009,69.51958,636.1037],[22.77482,69.51524,630.3839],[22.7621,69.5126,632.2938],[22.60056,69.50961,651.647],[22.35154,69.47715,605.0428],[22.34037,69.47343,624.1428],[22.33552,69.46827,655.5482],[22.33521,69.45282,711.9342],[22.33722,69.43855,713.039],[22.34285,69.41871,646.6634],[22.34952,69.40439,718.1653],[22.35867,69.39385,759.9587],[22.39417,69.37181,706.0884],[22.4274,69.35675,674.7496],[22.4738,69.32884,584.8478],[22.56036,69.26507,560.8292],[22.57839,69.2473,505.8813],[22.59111,69.23055,451.679],[22.59684,69.21547,505.2289],[22.59653,69.20206,546.1696],[22.59343,69.18803,451.7467],[22.58987,69.17681,433.3571],[22.58646,69.16152,424.4467],[22.58119,69.15146,434.6377],[22.56253,69.12958,497.1809],[22.54672,69.11873,509.7899],[22.52408,69.10992,537.7535],[22.44073,69.08968,501.8056],[21.96996,69.06819,548.795],[21.94639,69.06573,605.7024],[21.9461,69.0657,605.7024],[22.02308,69.01202,492.2662],[22.16075,68.9561,481.4143],[22.17439,68.9437,446.7816],[22.18865,68.91864,486.5231],[22.20023,68.90846,475.2693],[22.27722,68.85745,448.983],[22.35681,68.83275,501.732],[22.37138,68.82262,492.0861],[22.3967,68.73183,524.8312],[22.40921,68.71291,492.3963],[22.42874,68.71007,456.8522],[22.54294,68.72604,597.6472],[22.57013,68.72681,560.1013],[22.59648,68.72464,497.7764],[22.85166,68.67571,477.28],[23.0193,68.68671,466.8903],[23.07149,68.68087,481.2779],[23.09795,68.67012,507.4385],[23.17536,68.62165,410.4568],[23.19758,68.61803,459.206],[23.48159,68.68563,497.9118],[23.64158,68.69498,477.0105],[23.73481,68.71545,441.8144],[23.76799,68.75596,423.7434],[23.78721,68.79978,523.5694],[23.85263,68.81668,518.4848],[23.92901,68.81621,506.9133],[24.13117,68.77616,525.1306],[24.16372,68.75482,543.249],[24.18687,68.74454,513.6814],[24.3325,68.70862,495.1771],[24.48133,68.68919,517.6449],[24.66343,68.66609,449.3046],[24.75418,68.63788,443.7141],[24.82963,68.59411,449.0461],[24.86094,68.56341,422.1583],[24.87924,68.55483,428.2264],[24.90518,68.55695,443.1649],[24.92709,68.57039,431.3265],[24.93815,68.58827,431.6652],[24.95179,68.60506,400.6667],[24.98124,68.61509,354.7822],[25.00688,68.61457,350.8312],[25.07096,68.63142,334.5264],[25.09783,68.63374,324.5904],[25.11757,68.63767,313.5667],[25.13245,68.64765,383.1347],[25.14423,68.66801,387.0309],[25.13214,68.67658,349.7916],[25.13276,68.68268,356.4816],[25.13875,68.68831,375.7669],[25.1431,68.69596,374.04],[25.14485,68.74263,353.5607],[25.14961,68.76464,324.6423],[25.16273,68.78459,300.478],[25.20128,68.81265,246.7551],[25.38721,68.87456,259.8565],[25.43393,68.88386,293.0503],[25.48106,68.88773,264.0865],[25.60245,68.87213,224.6548],[25.62777,68.87414,269.1612],[25.65164,68.8835,264.1518],[25.66622,68.8974,206.0216],[25.67841,68.91254,213.9646],[25.69484,68.92561,207.5822],[25.72637,68.94246,252.3262],[25.73743,68.95254,256.3623],[25.7427,68.96587,220.9695],[25.75386,68.97837,250.2326],[25.79582,68.99331,256.1646],[25.80471,69.00612,249.1396],[25.80109,69.01315,280.0784],[25.79293,69.01817,244.3727],[25.77381,69.0254,179.3334],[25.76585,69.03067,185.4981],[25.76461,69.03517,193.6408],[25.76574,69.0392,202.8074],[25.76512,69.04338,193.2705],[25.75024,69.05925,178.0819],[25.74941,69.06555,194.013],[25.75717,69.07511,257.5476],[25.75903,69.08204,245.8158],[25.76047,69.11516,245.7958],[25.76244,69.11919,224.6456],[25.76636,69.12271,213.4572],[25.76998,69.12741,219.322],[25.77122,69.13511,211.7736],[25.76833,69.14214,245.5511],[25.75531,69.15955,231.9332],[25.74993,69.16519,269.2013],[25.73412,69.19133,262.3404],[25.73722,69.21821,321.6531],[25.77453,69.29882,356.5003],[25.78662,69.31277,321.6759],[25.87737,69.37081,180.8649],[25.87261,69.37907,216.5003],[25.8414,69.41778,217.4798],[25.86579,69.44098,328.2768],[25.87747,69.44703,370.6548],[25.88667,69.45519,433.594],[25.88574,69.47912,162.0877],[25.89215,69.4909,290.3682],[25.90641,69.50186,327.1851],[25.90145,69.50914,285.2757],[25.89059,69.51483,215.9926],[25.88667,69.52087,143.733],[25.90021,69.53204,252.7959],[25.96025,69.54868,304.2228],[25.9862,69.56542,346.0276],[26.00397,69.58717,349.6727],[26.00511,69.61084,292.2896],[25.98113,69.63348,223.3255],[25.96439,69.64268,154.477],[25.9617,69.65255,238.2187],[25.96883,69.66319,378.0432],[25.98134,69.67487,374.134],[26.00511,69.68934,277.5934],[26.03198,69.69668,363.9286],[26.18143,69.71125,422.8836],[26.19828,69.71544,400.6757],[26.21099,69.72288,365.9853],[26.22298,69.73192,312.0594],[26.26825,69.75828,352.6114],[26.31682,69.79491,376.2245],[26.41873,69.83564,451.9297],[26.44787,69.85605,280.3772],[26.43588,69.87424,232.1626],[26.44591,69.88176,266.5073],[26.48105,69.8994,373.3016],[26.50069,69.91832,375.3216],[26.53386,69.92524,398.4675],[26.70698,69.93506,211.5106],[26.77188,69.92839,292.0973],[26.86459,69.93808,71.9448],[26.8957,69.93434,89.5883],[26.9511,69.92015,199.1222],[26.98107,69.92328,113.6565],[27.00753,69.92245,65.4134],[27.08122,69.90294,238.9956],[27.10034,69.90176,269.335],[27.3118,69.92948,218.2354],[27.35242,69.9487,210.1057],[27.34508,69.95074,178.6954],[27.33051,69.95746,80.6321],[27.32317,69.95968,82.7974],[27.33454,69.96862,227.8473],[27.34911,69.97129,295.9975],[27.36498,69.97175,351.5931],[27.38094,69.97426,334.4118],[27.44523,70.00322,284.5146],[27.56331,70.02358,225.2537],[27.57091,70.04089,190.3612],[27.61256,70.06206,173.8902],[27.66506,70.06828,123.2163],[27.79218,70.05893,162.1384],[27.86691,70.07531,100.7701],[27.89729,70.07069,163.2834],[27.92716,70.05327,163.5799],[27.98101,70.0096,19.8912],[28.16736,69.89434,184.8179],[28.18927,69.88605,250.6169],[28.38119,69.8562,281.4388],[28.37975,69.82235,268.6931],[28.40455,69.80225,283.9741],[28.44269,69.79145,280.7665],[28.48093,69.78572,303.1343],[28.80608,69.72996,138.4245],[29.13122,69.6742,85.0341],[29.14714,69.66391,97.3441],[29.20316,69.58599,96.7166],[29.34454,69.46439,172.2611],[29.22925,69.37685,221.9478],[28.86478,69.2166,174.8035],[28.85217,69.20353,186.7319],[28.84411,69.18126,214.4713],[28.82695,69.10684,143.4416],[28.82757,69.09077,145.472],[28.83961,69.08028,126.8833],[28.95408,69.02726,91.0],[28.97366,69.03424,95.3312],[29.00813,69.03692,102.2825],[29.06477,69.0347,83.1318],[29.12027,69.04685,100.9855],[29.17298,69.06938,74.701],[29.22104,69.09842,69.0],[29.24047,69.11506,69.0],[29.25101,69.13077,61.5853],[29.26879,69.16668,51.0],[29.27643,69.17593,51.0],[29.29442,69.1917,51.0],[29.30227,69.20084,51.0],[29.30537,69.20973,51.0],[29.30548,69.2181,51.0],[29.30744,69.22632,51.0],[29.31586,69.23495,51.0],[29.32656,69.26265,69.4166],[29.33452,69.27737,121.5776],[29.37679,69.30161,238.8768],[29.43456,69.31184,103.7914],[29.60427,69.3152,77.9319],[29.66184,69.32502,103.1121],[29.7284,69.35153,75.5458],[29.75139,69.35716,72.622],[29.90069,69.35825,120.9244],[29.94807,69.36559,103.0334],[29.96714,69.37349,105.0416],[30.00177,69.39458,69.4698],[30.12341,69.44191,45.6992],[30.13736,69.45297,51.3238],[30.14077,69.46439,44.7625],[30.14108,69.47679,42.529],[30.14501,69.49106,49.0949],[30.15483,69.50609,38.891],[30.16403,69.51183,44.2682],[30.1923,69.51917,36.6852],[30.21064,69.52821,43.8255],[30.2247,69.54082,29.6367],[30.23162,69.55834,89.3041],[30.22868,69.58206,56.842],[30.22015,69.60025,38.8725],[30.20878,69.60867,44.3569],[30.14863,69.61849,20.0],[30.12672,69.62645,50.6473],[30.11907,69.63456,52.3169],[30.14124,69.63988,20.0],[30.18615,69.64133,54.6185],[30.23069,69.6373,55.4105],[30.29436,69.62025,153.8275],[30.4807,69.54413,243.989],[30.51166,69.53633,196.6028],[30.75531,69.52149,292.597],[30.85298,69.52744,233.1561],[30.89825,69.54423,131.9144],[30.92703,69.57839,153.6877],[30.9308,69.59487,135.4988],[30.9277,69.67213,58.4704],[30.90125,69.68898,138.7005],[30.8843,69.70236,123.3484],[30.8813,69.71053,42.4272],[30.88233,69.72009,17.4898],[30.87706,69.7376,9.7918],[30.86786,69.74897,10.6001],[30.84399,69.76623,165.8998],[30.84095,69.80584,0.0],[30.78956,69.79076,0.0],[30.78207,69.79076,0.0],[30.74969,69.77717,0.0],[30.7326,69.7722,136.4262],[30.71697,69.77025,101.2313],[30.70314,69.7744,0.0],[30.70037,69.78343,0.0],[30.70672,69.79279,62.8403],[30.72055,69.79759,3.4133],[30.69874,69.80854,0.0],[30.48292,69.81818,56.9053],[30.45069,69.81029,84.6358],[30.45997,69.79076,261.5583],[30.45183,69.78168,184.8951],[30.45525,69.77334,211.4416],[30.46266,69.76423,204.1026],[30.46681,69.75288,112.363],[30.46656,69.74702,59.7192],[30.46518,69.74164,1.6655],[30.46209,69.73774,5.4987],[30.44744,69.73334,14.2816],[30.44744,69.72679,200.5395],[30.45248,69.71503,25.8284],[30.44858,69.68895,22.6778],[30.44353,69.67841,2.6284],[30.42937,69.67406,13.7976],[30.3602,69.66747,25.5344],[30.33709,69.67406,0.0],[30.38819,69.68037,0.0],[30.40984,69.7023,84.7244],[30.41358,69.73664,0.0],[30.41228,69.7805,0.0],[30.41098,69.78197,0.0],[30.4048,69.80439,0.0],[30.40382,69.81314,0.0],[30.40366,69.82241,0.0],[30.4026,69.83124,0.0],[30.39861,69.83857,0.0],[30.37184,69.8476,0.0],[30.29949,69.8382,129.7658],[30.26881,69.8454,0.0],[30.31821,69.85928,19.6552],[30.32399,69.86713,10.676],[30.30274,69.88325,0.0],[30.28924,69.88654,0.0],[30.2409,69.87954,0.0],[30.16521,69.87954,0.0],[30.16717,69.86872,142.1651],[30.16798,69.84663,275.9756],[30.16586,69.82392,30.9872],[30.15895,69.81122,62.4826],[30.17457,69.80142,56.4288],[30.19467,69.79365,147.0009],[30.20899,69.78441,81.6194],[30.2068,69.77025,65.1351],[30.18898,69.76252,40.5883],[30.13185,69.76,82.9584],[30.11061,69.75601,125.675],[30.12224,69.74384,131.2947],[30.16196,69.7119,118.1699],[30.18067,69.70197,119.4399],[30.188,69.69571,129.6925],[30.18629,69.68773,39.3612],[30.17514,69.68635,32.7711],[30.11451,69.7062,39.3864],[30.10174,69.71621,0.0],[30.08082,69.73867,0.0],[30.07114,69.73994,0.0],[30.02858,69.72248,75.634],[29.97779,69.71418,0.0],[29.95232,69.70523,2.5353],[29.9393,69.68773,141.5848],[29.9367,69.70576,36.0753],[29.95493,69.71532,64.6914],[30.00099,69.72557,58.0621],[30.01905,69.73753,82.9003],[30.04347,69.76142,43.2024],[30.06275,69.77025,50.755],[30.03045,69.77595,0.0],[29.99301,69.76801,85.6967],[29.90846,69.73745,54.322],[29.90162,69.73631,49.1975],[29.82097,69.74396,9.6785],[29.71559,69.74112,9.2885],[29.68002,69.73542,89.1438],[29.56723,69.69489,0.2887],[29.53777,69.67499,0.0],[29.52149,69.66844,0.0],[29.48732,69.66108,0.0],[29.50603,69.67707,46.1627],[29.5337,69.69526,21.0001],[29.54347,69.70832,61.6821],[29.50799,69.70881,10.7901],[29.52809,69.71296,54.8716],[29.57057,69.7165,78.1456],[29.58969,69.72248,87.1124],[29.60279,69.73298,5.6161],[29.61256,69.74494,92.2586],[29.62485,69.7541,37.1095],[29.64503,69.75601,0.0],[29.64503,69.76341,0.0],[29.64926,69.77192,131.5999],[29.69939,69.79328,45.0065],[29.73699,69.80292,0.0],[29.75538,69.82884,101.6051],[29.7754,69.83857,0.0],[29.74122,69.86587,205.1661],[29.74627,69.87743,191.4712],[29.73813,69.88573,149.8099],[29.73162,69.89444,0.0],[29.74122,69.90746,0.0],[29.71437,69.91364,3.7412],[29.66725,69.90135,25.0404],[29.62989,69.90705,8.4178],[29.60434,69.90127,50.2544],[29.59034,69.90404,120.1819],[29.5774,69.90937,0.0],[29.56365,69.91303,98.4663],[29.54949,69.9147,91.2204],[29.53517,69.91425,77.5757],[29.51539,69.90933,161.606],[29.47145,69.88784,102.0427],[29.4358,69.86237,155.1209],[29.41326,69.85692,14.5857],[29.36378,69.85969,42.9178],[29.39031,69.86616,0.0],[29.39829,69.86957,0.0],[29.40838,69.87588,157.3277],[29.41228,69.87962,4.8641],[29.41505,69.88361,0.0],[29.42164,69.89037,0.0],[29.44011,69.90082,0.0],[29.48634,69.91071,28.6623],[29.52947,69.92536,60.7003],[29.57553,69.93578,0.0],[29.66358,69.96597,0.0],[29.68588,69.96955,0.0],[29.38941,70.00487,10.0413],[29.34344,70.01675,0.0],[29.15838,70.00922,0.0],[29.13038,70.01675,0.0],[29.18385,70.03295,0.0],[29.19256,70.03718,0.0],[29.18312,70.0434,0.0],[29.16188,70.04515,0.0],[29.12428,70.04401,22.7719],[29.12916,70.04755,6.7253],[29.13795,70.0576,0.0],[28.99334,70.05585,49.5982],[28.92408,70.07388,0.0],[28.73268,70.0856,40.1686],[28.75904,70.09357,13.5872],[28.84995,70.09243,4.1484],[28.84995,70.09858,0.0],[28.83399,70.09951,61.9462],[28.78647,70.11115,0.0],[28.7741,70.1114,0.0],[28.73268,70.09858,19.1278],[28.66481,70.1,0.0],[28.62941,70.10712,0.0],[28.61036,70.12035,0.0],[28.64357,70.12393,0.0],[28.69011,70.1341,0.0],[28.7326,70.14932,4.8555],[28.75367,70.16755,0.0],[28.59669,70.16132,2.5835],[28.61655,70.17691,0.0],[28.65366,70.18232,54.2626],[28.9402,70.15133,97.8242],[29.22674,70.12035,57.8385],[29.22047,70.12035,79.7225],[29.68971,70.09585,124.7966],[30.15895,70.07136,11.9629],[30.13315,70.07319,31.3442],[30.11793,70.07807,0.0],[30.11948,70.08491,0.0],[30.1447,70.09243,0.0],[30.31707,70.11738,0.0],[30.35524,70.12971,0.0],[30.38429,70.15388,0.0],[30.35743,70.16128,0.0],[30.35776,70.17324,0.0],[30.37485,70.18586,0.0],[30.39861,70.19546,0.0],[30.48894,70.20307,0.0],[30.51466,70.21589,0.0],[30.51515,70.23908,0.0],[30.54884,70.24868,6.9301],[30.9336,70.26374,0.0],[31.04119,70.28486,49.3411],[31.077,70.28425,0.0],[31.06642,70.30048,0.0],[31.05047,70.30878,0.0],[31.03395,70.31501,125.4144],[31.02174,70.32514,119.0],[31.01938,70.33991,71.0033],[31.03053,70.34878,28.5877],[31.0477,70.35627,9.4489],[31.06332,70.36677,0.0],[31.00563,70.409,6.6284],[30.98797,70.41454,71.271],[30.9734,70.42121,60.9795],[30.94695,70.45002,0.0],[30.92604,70.45612,0.0],[30.83741,70.43171,72.8865],[30.82374,70.42479,104.4896],[30.81235,70.4147,155.1402],[30.78663,70.42064,0.0],[30.74122,70.44184,0.0],[30.73194,70.46817,4.2623],[30.56235,70.51765,86.5626],[30.59913,70.52977,96.6576],[30.5818,70.54218,0.0],[30.50164,70.55854,0.0],[30.45631,70.56122,0.0],[30.1631,70.5246,0.0],[30.00074,70.53807,7.5182],[30.00074,70.54487,118.081],[30.04135,70.54438,9.8436],[30.12428,70.53168,0.0],[30.16521,70.53124,0.0],[30.15984,70.54145,0.0],[30.15024,70.54584,0.0],[30.13803,70.54637,0.0],[30.12477,70.54487,0.0],[30.12477,70.5517,95.6876],[30.15268,70.55825,101.5],[30.26466,70.56977,0.0],[30.32691,70.58491,0.0],[30.34734,70.59614,0.0],[30.33692,70.60615,0.0],[30.2409,70.63369,269.227],[30.13071,70.63882,287.3918],[30.09693,70.64794,26.2602],[30.1565,70.65599,0.0],[30.18605,70.6647,26.5821],[30.2068,70.68146,0.0],[30.10475,70.71076,0.0],[30.06959,70.71556,0.0],[29.99383,70.71308,0.0],[29.95916,70.70466,15.1019],[29.87037,70.66437,25.5515],[29.85808,70.65595,106.7651],[29.84938,70.6472,174.9689],[29.83953,70.63939,156.4992],[29.82309,70.63369,121.343],[29.67921,70.62002,20.578],[29.70265,70.63959,114.536],[29.76197,70.6645,141.8228],[29.7815,70.68891,228.1283],[29.77898,70.72655,125.5724],[29.74578,70.74274,0.0],[29.69955,70.74372,0.0],[29.51775,70.70588,0.0],[29.3921,70.69733,0.0],[29.36997,70.68891,0.0],[29.32887,70.65998,237.28],[29.30641,70.6529,257.1127],[29.28142,70.66096,0.0],[29.29493,70.67463,0.0],[29.28785,70.67699,5.3956],[29.285,70.67862,0.0],[29.28142,70.68146,30.6399],[29.3025,70.6874,74.5018],[29.32879,70.69001,0.6755],[29.3519,70.6953,-0.1329],[29.36378,70.70938,0.0],[29.35027,70.70808,0.0],[29.33774,70.70844,0.0],[29.32789,70.71271,0.0],[29.32228,70.72305,68.5988],[29.37257,70.72386,51.5639],[29.3991,70.72822,0.0],[29.41782,70.73603,0.0],[29.32211,70.73493,0.0],[29.29493,70.74356,0.0],[29.38054,70.76944,0.0],[29.4048,70.78449,0.0],[29.3812,70.79291,0.0],[29.30177,70.79877,0.0],[29.2824,70.80512,0.0],[29.27296,70.80972,0.5574],[29.26482,70.81517,3.834],[29.26197,70.82087,6.0385],[29.26303,70.83503,0.0],[29.2614,70.83975,0.0],[29.22136,70.85541,0.0],[29.06227,70.85961,77.0986],[29.06227,70.8664,23.4742],[29.10222,70.86872,0.0],[29.1045,70.87303,0.0],[29.08269,70.88068,0.0],[29.05747,70.88402,0.0],[28.79469,70.87324,0.0],[28.76108,70.86408,0.0],[28.7256,70.84894,0.0],[28.69321,70.82982,0.0],[28.64308,70.78925,0.0],[28.55502,70.75039,0.0],[28.52622,70.72175,143.7127],[28.5407,70.70893,152.5916],[28.57594,70.70148,224.8069],[28.61036,70.68891,128.3996],[28.62029,70.67829,0.0],[28.61354,70.67381,0.0],[28.57553,70.67463,1.5908],[28.53386,70.68012,137.5533],[28.51686,70.67817,81.1227],[28.5005,70.66779,0.0],[28.49342,70.65803,0.0],[28.48504,70.63581,0.0],[28.47926,70.62621,6.8722],[28.4017,70.55899,0.0],[28.39747,70.54829,0.0],[28.4061,70.54499,7.905],[28.45883,70.51765,0.0],[28.4817,70.51211,177.7142],[28.55502,70.51073,13.9369],[28.55502,70.50332,77.0932],[28.52573,70.49787,0.0],[28.51075,70.49185,0.0],[28.5005,70.48286,0.0],[28.50034,70.47419,158.3516],[28.50685,70.46625,18.4463],[28.51173,70.45799,8.1789],[28.50733,70.44872,0.3999],[28.48927,70.44526,5.2884],[28.46925,70.45515,0.0],[28.45623,70.47199,0.0],[28.45883,70.48965,0.0],[28.42897,70.49604,0.7742],[28.39039,70.49335,0.0],[28.35336,70.48379,0.0],[28.32911,70.46979,0.0],[28.32553,70.45978,0.0],[28.32504,70.44831,0.5],[28.32081,70.43891,0.5],[28.29119,70.43293,1.0],[28.25815,70.42097,1.5],[28.24659,70.41454,1.5],[28.23268,70.39912,14.7406],[28.22918,70.38329,110.5144],[28.22918,70.36591,15.0874],[28.22543,70.34565,10.2729],[28.21664,70.33006,3.5],[28.19557,70.30158,58.3132],[28.19142,70.28425,266.0954],[28.19874,70.25996,81.5497],[28.20191,70.25349,75.6555],[28.20436,70.24579,15.581],[28.1989,70.22622,99.8674],[28.1989,70.21589,116.2784],[28.20851,70.1975,46.2734],[28.21974,70.18602,82.4363],[28.22543,70.17402,74.433],[28.21925,70.15388,32.6967],[28.18393,70.11555,101.8435],[28.1281,70.08161,120.7849],[28.06625,70.06318,19.0025],[28.01385,70.07136,12.0],[28.03989,70.07128,13.7419],[28.07081,70.07738,11.5],[28.09978,70.08812,11.0],[28.13526,70.11416,26.3433],[28.15203,70.12372,20.0991],[28.16725,70.13548,13.5311],[28.17774,70.15388,59.2448],[28.17791,70.18228,69.5439],[28.15789,70.2473,13.694],[28.15724,70.28425,5.0],[28.16961,70.31538,10.6658],[28.17335,70.33295,34.0096],[28.16814,70.34943,10.2583],[28.15846,70.36811,128.7189],[28.16066,70.3828,21.5319],[28.17237,70.39545,20.3561],[28.21323,70.42121,9.8978],[28.24684,70.44823,61.334],[28.26401,70.46638,351.2788],[28.28248,70.47899,414.7984],[28.30323,70.48664,254.4601],[28.32211,70.49698,88.0809],[28.3353,70.51765,0.0],[28.29363,70.51797,0.0],[28.25294,70.51008,0.0],[28.21404,70.49567,0.0],[28.17774,70.47663,97.4689],[28.13722,70.44668,97.5089],[28.12713,70.44184,97.7274],[28.1076,70.44571,97.8119],[28.10401,70.45433,129.1828],[28.11044,70.46121,183.1763],[28.12949,70.46935,213.38],[28.13054,70.46979,207.3299],[28.1128,70.46385,182.4058],[28.08766,70.45148,126.8902],[28.05006,70.44253,0.0],[28.04086,70.44477,0.0],[28.05177,70.45954,35.8602],[28.08009,70.47712,93.4803],[28.18523,70.50332,122.7864],[28.0586,70.49299,95.7939],[27.93816,70.46979,5.6288],[27.95802,70.48444,0.0],[27.97975,70.49706,0.0],[27.945,70.48916,85.0762],[27.92791,70.48273,87.6823],[27.91456,70.47321,183.3837],[27.89389,70.4392,126.6083],[27.88356,70.42821,55.7243],[27.86997,70.45856,0.0],[27.86232,70.46967,0.0],[27.84938,70.48286,101.1223],[27.87379,70.4986,0.0],[27.91188,70.51162,0.0],[27.9944,70.52652,0.0],[28.03354,70.54121,0.0],[28.05795,70.55541,114.5433],[28.16651,70.58747,119.0071],[28.23316,70.61518,185.5678],[28.28785,70.65375,23.3821],[28.30128,70.70258,0.0],[28.28338,70.71849,95.8734],[28.25343,70.71638,207.9675],[28.15382,70.67792,366.0456],[27.79469,70.61367,473.6447],[27.65016,70.60635,164.351],[27.67652,70.61567,5.0332],[27.72185,70.62214,0.0],[27.75294,70.63154,0.0],[27.79314,70.63679,0.0],[27.87672,70.66096,53.1546],[27.87403,70.66511,0.0],[27.86988,70.66779,0.0],[27.93344,70.68708,132.0681],[28.07244,70.70327,0.0],[28.13054,70.73603,84.9565],[28.10743,70.74384,111.9759],[28.08082,70.74567,260.1305],[28.00668,70.74287,0.0],[27.99733,70.74579,107.0727],[27.99342,70.7541,307.2876],[27.98683,70.75703,303.9835],[27.89967,70.76822,357.0984],[27.8576,70.76301,279.6668],[27.77369,70.74356,145.7447],[27.78248,70.75519,0.0],[27.79672,70.76093,0.0],[27.81324,70.76484,0.0],[27.8283,70.77082,0.0],[27.81178,70.77668,113.0193],[27.77638,70.78148,286.5412],[27.76002,70.79133,20.2713],[27.77263,70.79165,0.0],[27.79851,70.79658,0.0],[27.80844,70.79507,0.0],[27.82228,70.79121,0.0],[27.95069,70.79776,0.0],[27.95924,70.805,30.1675],[27.97332,70.80825,0.0],[27.98585,70.81314,0.0],[27.99879,70.81574,0.0],[28.01385,70.81245,70.592],[28.00953,70.79613,0.0],[28.02312,70.79291,0.0],[28.0617,70.79877,93.282],[28.08074,70.79711,0.0],[28.13738,70.78449,0.0],[28.1797,70.78286,0.0],[28.22389,70.78583,0.0],[28.26588,70.79499,0.0],[28.30128,70.81245,150.5052],[28.26197,70.8194,300.1874],[28.24334,70.8249,231.1982],[28.22543,70.83226,368.632],[28.36329,70.82543,0.0],[28.35865,70.83112,0.0],[28.35646,70.83466,254.7148],[28.35271,70.83714,286.7701],[28.34344,70.83975,229.5545],[28.34344,70.84593,55.1818],[28.39747,70.84711,0.0],[28.42237,70.85318,0.0],[28.44516,70.8664,0.0],[28.42506,70.87214,276.5774],[28.40317,70.8725,273.1122],[28.38356,70.87499,331.1129],[28.36948,70.88691,0.0],[28.44321,70.88394,0.0],[28.48316,70.88947,0.0],[28.5005,70.91112,0.0],[28.50571,70.91987,0.0],[28.52931,70.9392,68.4561],[28.53688,70.95844,37.4221],[28.54664,70.96695,0.0],[28.54884,70.9726,0.0],[28.54607,70.97993,0.0],[28.53924,70.98249,0.0],[28.53102,70.98363,0.0],[28.49147,70.99982,0.0],[28.34344,71.00422,0.0],[28.23308,70.97704,9.4799],[28.20509,70.9831,0.0],[28.21632,70.98701,0.0],[28.22633,70.99282,0.0],[28.23439,71.00072,0.0],[28.23976,71.01105,0.0],[28.19972,70.99897,56.7726],[28.18523,70.99677,0.0],[28.19191,71.00495,27.169],[28.19996,71.01118,0.0],[28.20899,71.01533,0.0],[28.21925,71.01728,0.0],[28.1989,71.01728,0.0],[28.21192,71.02778,0.0],[28.23292,71.03262,0.0],[28.25229,71.03937,0.0],[28.261,71.05573,0.0],[28.25245,71.06843,0.0],[28.23276,71.07803,17.0045],[28.20973,71.08397,28.9724],[28.19142,71.08613,34.4579],[28.16733,71.08271,30.3936],[28.14519,71.07404,136.965],[28.08717,71.04157,66.1368],[28.08107,71.04096,80.8664],[28.0691,71.04515,15.6003],[28.06398,71.04995,0.0],[28.06332,71.05585,0.0],[28.06398,71.06159,0.0],[28.0617,71.06566,15.7617],[28.04322,71.07099,104.3507],[28.02076,71.07099,126.8922],[27.99903,71.06582,0.0],[27.98316,71.05573,4.2984],[27.96363,71.04662,11.709],[27.87672,71.03775,0.0],[27.85572,71.041,18.6128],[27.81153,71.05598,0.0],[27.78785,71.05948,163.5629],[27.72169,71.05972,0.0],[27.69801,71.06566,0.0],[27.72462,71.0904,17.7049],[27.71551,71.10423,283.3974]]],
[[[25.67701,71.16059,105.3965],[25.66733,71.16527,161.4451],[25.65349,71.16474,109.6327],[25.63844,71.15974,274.1595],[25.62574,71.15103,268.9306],[25.60711,71.14501,234.6992],[25.56528,71.15217,137.6384],[25.5534,71.14077,0.0],[25.68344,71.09321,0.0],[25.70094,71.08393,0.0],[25.71323,71.07071,0.0],[25.71852,71.05199,113.6205],[25.70867,71.06208,30.7849],[25.63478,71.08039,223.4627],[25.59205,71.07811,281.3164],[25.57399,71.08246,203.7101],[25.56031,71.09003,30.0019],[25.55388,71.0926,5.1004],[25.52613,71.09296,175.9244],[25.48902,71.10175,118.0047],[25.47169,71.10261,131.7345],[25.45729,71.09296,0.0],[25.4642,71.08954,37.9496],[25.47291,71.0821,165.5202],[25.47836,71.07868,181.7264],[25.45883,71.07201,205.5754],[25.43922,71.07551,281.2455],[25.41928,71.08234,111.7784],[25.39918,71.08613,79.7169],[25.35515,71.08348,20.8938],[25.33204,71.07933,38.0852],[25.31381,71.07246,0.0],[25.34799,71.06566,308.453],[25.2933,71.04515,6.9874],[25.29444,71.03604,206.9798],[25.29249,71.02814,264.9767],[25.2942,71.02033,230.2997],[25.30698,71.01105,0.0],[25.32553,71.00739,0.0],[25.45436,71.02997,0.0],[25.47153,71.02778,0.0],[25.49057,71.02196,0.0],[25.5608,71.01728,177.0649],[25.5381,71.00336,317.2432],[25.41627,70.9831,0.0],[25.45672,70.97272,0.0],[25.49195,70.95917,48.8836],[25.51857,70.94025,0.0],[25.53354,70.93183,0.0],[25.5534,70.92788,0.0],[25.60027,70.93207,0.0],[25.66814,70.94538,2.5301],[25.75327,70.94212,0.0],[25.75327,70.94961,0.0],[25.74415,70.95018,0.0],[25.71852,70.9558,6.7385],[25.73113,70.97541,0.0],[25.75294,70.97651,0.0],[25.80055,70.96259,0.0],[25.90024,70.96133,0.0],[25.92368,70.96577,0.0],[25.94825,70.97492,0.0],[25.9686,70.97773,10.6215],[26.0726,70.97517,0.0],[26.08815,70.97968,0.0],[26.10572,70.99164,64.4323],[26.11354,70.99535,219.0114],[26.17994,71.00267,0.0],[26.20655,71.01325,0.0],[26.21811,71.03156,0.0],[26.20851,71.04963,209.4981],[26.18523,71.04987,266.256],[26.136,71.03775,339.0013],[26.11573,71.03343,329.2965],[26.07455,71.01227,158.5605],[26.05372,71.00422,162.2671],[26.02622,71.00015,94.7709],[25.99122,70.99893,167.5462],[25.95639,71.00202,61.1605],[25.93019,71.01105,9.1913],[25.93963,71.01081,0.0],[25.96437,71.01728,0.0],[25.96437,71.03775,0.0],[25.94483,71.03754,0.0],[25.92514,71.0397,118.2758],[25.9065,71.0445,99.4886],[25.88982,71.05199,0.0],[25.93287,71.05541,0.0],[25.99098,71.06704,0.0],[26.0337,71.08723,0.0],[26.0298,71.11652,4.7142],[26.00636,71.12519,100.8307],[25.96046,71.10749,345.5589],[25.93702,71.10969,26.8502],[25.92123,71.10676,302.7426],[25.89723,71.09858,181.6949],[25.87965,71.09683,132.0163],[25.88307,71.11347,0.0],[25.85914,71.11335,0.0],[25.80567,71.09585,148.8925],[25.7837,71.10293,28.3703],[25.78395,71.11221,49.4094],[25.80177,71.14159,0.0],[25.80738,71.15445,0.0],[25.68409,71.14472,183.7728],[25.67701,71.16059,105.3965]]]]}
,"properties": {"ISO3166-1-Alpha-3": "NOR","country": "Norway","fill": "#FF0","name": "Finnmark","area_km2": 48147.36,"hist_schema_id": "Elevation0-9000","hist_area_km2": {"0": 1245.28,"25": 836.05,"50": 1028.99,"75": 1200.37,"100": 1308.39,"125": 1469.69,"150": 1617.63,"175": 1773.48,"200": 1921.76,"225": 2120.28,"250": 2201.76,"275": 2466.87,"300": 2680.19,"325": 2840.35,"350": 2963.02,"375": 3295.08,"400": 3227.58,"425": 2801.93,"450": 2455.93,"475": 1931.4,"500": 1517.96,"525": 1170.06,"550": 874.31,"575": 661.34,"600": 516.75,"625": 430.61,"650": 335.87,"675": 268.56,"700": 218.96,"725": 176.1,"750": 134.35,"775": 99.93,"800": 75.43,"825": 58.27,"850": 45.49,"875": 38.46,"900": 30.56,"925": 23.79,"950": 20.37,"975": 16.81,"1000": 11.98,"1025": 9.96,"1050": 6.18,"1075": 5.4,"1100": 5.3,"1125": 4.66,"1150": 2.41,"1175": 1.41}}}